<kml>
 <Document>
  <Style id="yellow">
   <LineStyle>
   <color>ff00ffff</color>
   <width>1</width>
   </LineStyle>
  </Style>
  <Style id="red">
   <LineStyle>
   <color>ffff0000</color>
   <width>2</width>
   </LineStyle>
  </Style>
  <Style id="green">
   <LineStyle>
   <color>ff00ff00</color>
   <width>1</width>
   </LineStyle>
  </Style>
  <Placemark>
  <styleUrl>#yellow</styleUrl>
   <MultiGeometry>
    <LineString>
     <coordinates>
-99.26390751,47.16019466,597.23
-99.26391861,47.16019468,597.24
-99.26438417,47.16019362,598.37
-99.26493361,47.16019235,598.91
-99.26547736,47.16019106,598.63
-99.26561411,47.16019075,598.50
-99.26626351,47.16018926,596.35
-99.26689729,47.16018769,594.40
-99.26713224,47.16018722,594.80
-99.26772873,47.16018583,594.20
-99.26788993,47.16018546,593.93
-99.26822240,47.16018464,592.70
-99.26860356,47.16018379,591.11
-99.26868449,47.16018361,591.06
-99.26885749,47.16018321,590.67
-99.26905705,47.16018273,590.84
-99.26957713,47.16018151,591.96
-99.26974653,47.16018109,592.04
-99.27022204,47.16017996,592.18
-99.27049646,47.16017935,591.21
-99.27062746,47.16017903,591.54
-99.27091347,47.16017834,591.54
-99.27134096,47.16017735,591.16
-99.27143910,47.16017712,591.76
-99.27192471,47.16017594,592.48
-99.27249498,47.16017461,594.45
-99.27299470,47.16017341,596.41
-99.27331446,47.16017266,597.58
-99.27333563,47.16017261,597.87
-99.27334149,47.16017260,597.96
-99.27385436,47.16017132,600.15
-99.27431252,47.16017025,601.84
-99.27447530,47.16016988,602.06
-99.27510432,47.16016837,603.78
-99.27522786,47.16016798,604.03
-99.27548996,47.16016722,604.32
-99.27591172,47.16016642,604.55
-99.27601026,47.16016616,604.41
-99.27661897,47.16016469,603.92
-99.27662462,47.16016466,603.94
-99.27703897,47.16016201,604.43
-99.27704971,47.16016192,604.35
-99.27705052,47.16015862,604.46
-99.27705122,47.16015531,604.40
-99.27705160,47.16014959,604.49
-99.27705068,47.15994322,604.34
-99.27704944,47.15969959,605.30
-99.27704770,47.15935477,607.27
-99.27704716,47.15925048,607.72
-99.27704557,47.15895501,607.35
-99.27704426,47.15871216,605.89
-99.27704317,47.15850474,603.87
-99.27704101,47.15806482,604.27
-99.27703987,47.15785619,603.73
-99.27703923,47.15773916,602.63
-99.27703743,47.15737649,602.52
-99.27703603,47.15712169,601.79
-99.27703498,47.15692894,602.07
-99.27703362,47.15667048,601.48
-99.27703258,47.15645118,600.69
-99.27703167,47.15627054,599.95
-99.27702990,47.15592782,597.41
-99.27702971,47.15589034,597.10
-99.27702779,47.15552821,594.97
-99.27702583,47.15514377,595.49
-99.27702439,47.15490165,594.87
-99.27702304,47.15462487,594.23
-99.27702120,47.15425745,595.10
-99.27702036,47.15409437,593.72
-99.27701938,47.15390968,593.44
-99.27701711,47.15347902,594.06
-99.27701695,47.15343578,594.06
-99.27701475,47.15301091,595.89
-99.27701338,47.15277783,594.82
-99.27701216,47.15251529,594.31
-99.27701009,47.15215356,594.80
-99.27700968,47.15205089,594.27
-99.27700768,47.15169407,591.63
-99.27700637,47.15141218,590.50
-99.27700566,47.15128480,590.09
-99.27700475,47.15118878,589.86
-99.27700450,47.15116572,589.81
-99.27699352,47.15116532,589.82
-99.27664599,47.15116616,589.67
-99.27632477,47.15116700,589.57
-99.27596864,47.15116780,589.54
-99.27537210,47.15116923,589.41
-99.27489981,47.15117036,589.78
-99.27461621,47.15117104,590.42
-99.27425465,47.15117191,591.58
-99.27397712,47.15117258,592.65
-99.27372354,47.15117319,593.02
-99.27329712,47.15117422,592.21
-99.27271033,47.15117558,589.35
-99.27213802,47.15117696,588.29
-99.27166295,47.15117814,588.31
-99.27146440,47.15117855,588.43
-99.27135454,47.15117882,588.28
-99.27095469,47.15117982,588.78
-99.27058691,47.15118064,591.24
-99.27050991,47.15118081,591.68
-99.27006372,47.15118190,592.53
-99.26976793,47.15118260,590.18
-99.26918151,47.15118394,589.89
-99.26903277,47.15118428,591.40
-99.26838410,47.15118580,596.59
-99.26820635,47.15118623,596.02
-99.26774191,47.15118742,592.36
-99.26754369,47.15118779,589.21
-99.26733486,47.15118827,587.37
-99.26674413,47.15118965,588.55
-99.26651964,47.15119018,588.80
-99.26618963,47.15119097,589.19
-99.26574456,47.15119201,588.97
-99.26544331,47.15119269,587.81
-99.26499950,47.15119373,587.23
-99.26441231,47.15119512,587.20
-99.26394037,47.15119633,587.14
-99.26382804,47.15119672,587.11
-99.26381706,47.15119850,587.14
-99.26381602,47.15120445,587.21
-99.26381521,47.15121681,587.09
-99.26381490,47.15125509,587.14
-99.26381595,47.15145136,587.24
-99.26381780,47.15184519,587.14
-99.26381880,47.15204418,587.22
-99.26382034,47.15235527,587.22
-99.26382181,47.15265459,587.20
-99.26382212,47.15271811,587.25
-99.26382416,47.15312081,587.11
-99.26382603,47.15350818,588.03
-99.26382631,47.15356317,588.95
-99.26382712,47.15371406,587.58
-99.26382869,47.15403637,588.33
-99.26382926,47.15415805,587.71
-99.26382943,47.15419149,588.80
-99.26383076,47.15445790,588.65
-99.26383174,47.15465917,590.46
-99.26383308,47.15493237,594.17
-99.26383480,47.15528005,593.76
-99.26383684,47.15568841,594.07
-99.26383883,47.15609332,592.89
-99.26383908,47.15614485,592.61
-99.26383953,47.15623438,592.03
-99.26384110,47.15655173,590.81
-99.26384184,47.15669623,589.43
-99.26384371,47.15705480,587.48
-99.26384429,47.15717778,587.44
-99.26384484,47.15730007,588.06
-99.26384601,47.15754219,589.95
-99.26384647,47.15763638,590.86
-99.26384772,47.15788744,592.13
-99.26384950,47.15824300,591.95
-99.26385099,47.15854806,591.40
-99.26385188,47.15872942,592.18
-99.26385281,47.15891202,592.51
-99.26385467,47.15929390,596.80
-99.26385656,47.15967235,597.62
-99.26385837,47.16004146,597.65
-99.26385914,47.16018851,597.21
-99.26385964,47.16019319,597.26
-99.26386475,47.16019413,597.26
-99.26388288,47.16019451,597.21
-99.26390751,47.16019466,597.23
     </coordinates>
    </LineString>
   </MultiGeometry>
  </Placemark>
 </Document>
</kml>
