<kml>
 <Document>
  <Style id="yellow">
   <LineStyle>
   <color>ff00ffff</color>
   <width>1</width>
   </LineStyle>
  </Style>
  <Style id="red">
   <LineStyle>
   <color>ffff0000</color>
   <width>2</width>
   </LineStyle>
  </Style>
  <Style id="green">
   <LineStyle>
   <color>ff00ff00</color>
   <width>1</width>
   </LineStyle>
  </Style>
  <Placemark>
  <styleUrl>#yellow</styleUrl>
   <MultiGeometry>
    <LineString>
     <coordinates>
-99.22609311,47.12428140,574.83
-99.22629000,47.12428102,574.58
-99.22650543,47.12428055,573.84
-99.22704263,47.12427951,573.43
-99.22723615,47.12427908,575.18
-99.22787084,47.12427788,576.97
-99.22844115,47.12427671,576.30
-99.22894652,47.12427574,578.49
-99.22910555,47.12427543,579.77
-99.22953037,47.12427457,577.15
-99.22992280,47.12427374,578.07
-99.23048406,47.12427265,578.37
-99.23057612,47.12427247,578.71
-99.23071042,47.12427220,579.04
-99.23077355,47.12427207,579.16
-99.23105665,47.12427146,581.22
-99.23143401,47.12427071,582.47
-99.23176957,47.12427006,582.57
-99.23208905,47.12426939,581.99
-99.23242968,47.12426848,582.32
-99.23287909,47.12426780,581.90
-99.23294723,47.12426767,581.95
-99.23345572,47.12426660,581.91
-99.23371539,47.12426609,583.68
-99.23409518,47.12426524,585.11
-99.23441764,47.12426466,585.40
-99.23469874,47.12426410,585.55
-99.23535608,47.12426271,584.96
-99.23585245,47.12426170,585.71
-99.23604164,47.12426132,585.96
-99.23640638,47.12426059,585.37
-99.23681814,47.12425974,584.78
-99.23729883,47.12425863,584.64
-99.23730376,47.12425827,584.77
-99.23731019,47.12425779,584.72
-99.23731044,47.12425627,584.72
-99.23731161,47.12424710,584.82
-99.23731181,47.12424516,584.84
-99.23731306,47.12422343,584.83
-99.23731135,47.12384586,585.69
-99.23731075,47.12370135,586.63
-99.23730908,47.12332905,587.39
-99.23730773,47.12304691,586.65
-99.23730678,47.12282260,586.35
-99.23730507,47.12244872,585.37
-99.23730420,47.12222890,583.84
-99.23730250,47.12184914,583.64
-99.23730117,47.12155103,583.65
-99.23730040,47.12138192,584.00
-99.23729869,47.12099019,586.29
-99.23729680,47.12056421,589.81
-99.23729634,47.12046152,590.32
-99.23729552,47.12027590,590.14
-99.23729478,47.12010930,590.54
-99.23729319,47.11976803,590.80
-99.23729187,47.11945466,590.70
-99.23729024,47.11908880,589.26
-99.23728981,47.11899157,589.54
-99.23728797,47.11859079,588.57
-99.23728735,47.11844150,588.17
-99.23728718,47.11840082,588.04
-99.23728594,47.11812246,587.59
-99.23728432,47.11775784,588.10
-99.23728381,47.11764355,588.36
-99.23728253,47.11735372,588.33
-99.23728115,47.11704932,588.27
-99.23728025,47.11684545,587.30
-99.23728009,47.11681250,586.96
-99.23727951,47.11669627,586.14
-99.23727794,47.11633643,585.93
-99.23727722,47.11616355,586.95
-99.23727609,47.11591443,587.87
-99.23727464,47.11557943,585.52
-99.23727330,47.11528087,586.53
-99.23727274,47.11526447,586.37
-99.23727222,47.11526072,586.39
-99.23717976,47.11526072,586.49
-99.23702833,47.11526076,586.30
-99.23676029,47.11526129,585.25
-99.23616204,47.11526252,584.60
-99.23564777,47.11526360,583.84
-99.23523609,47.11526445,583.30
-99.23475274,47.11526546,584.42
-99.23455658,47.11526587,584.85
-99.23420921,47.11526663,585.49
-99.23399259,47.11526709,585.98
-99.23389750,47.11526730,586.18
-99.23327055,47.11526854,584.17
-99.23294319,47.11526919,583.57
-99.23262240,47.11526990,583.95
-99.23214396,47.11527079,587.69
-99.23156560,47.11527191,588.01
-99.23103991,47.11527297,586.75
-99.23097094,47.11527311,586.48
-99.23037154,47.11527431,584.15
-99.22983193,47.11527540,579.71
-99.22951384,47.11527605,577.87
-99.22940085,47.11527629,577.98
-99.22874190,47.11527764,576.58
-99.22841961,47.11527825,574.40
-99.22800336,47.11527913,574.82
-99.22767226,47.11527975,575.71
-99.22727093,47.11528051,573.43
-99.22669101,47.11528175,572.53
-99.22616970,47.11528277,571.58
-99.22590803,47.11528325,571.14
-99.22566050,47.11528374,570.02
-99.22506672,47.11528486,567.51
-99.22495399,47.11528509,567.04
-99.22469505,47.11528564,566.26
-99.22426171,47.11528646,565.09
-99.22414734,47.11528666,564.75
-99.22409182,47.11528716,564.73
-99.22409184,47.11536232,564.62
-99.22409273,47.11557602,564.88
-99.22409436,47.11594545,568.59
-99.22409471,47.11603304,569.42
-99.22409573,47.11628990,571.39
-99.22409698,47.11657123,572.68
-99.22409795,47.11681722,574.09
-99.22409942,47.11716887,577.53
-99.22409973,47.11723796,577.50
-99.22410057,47.11743318,578.28
-99.22410182,47.11774072,581.97
-99.22410308,47.11802447,583.02
-99.22410465,47.11841438,581.07
-99.22410538,47.11857965,581.49
-99.22410683,47.11891400,581.64
-99.22410788,47.11916446,581.81
-99.22410908,47.11947651,581.84
-99.22411082,47.11988757,580.92
-99.22411192,47.12015108,581.47
-99.22411296,47.12038894,580.42
-99.22411421,47.12069381,580.59
-99.22411607,47.12113139,578.51
-99.22411759,47.12147423,577.91
-99.22411801,47.12159858,578.00
-99.22411976,47.12201905,579.29
-99.22412158,47.12245003,577.77
-99.22412216,47.12259091,576.74
-99.22412308,47.12280078,576.10
-99.22412435,47.12310903,575.74
-99.22412559,47.12340584,575.35
-99.22412665,47.12365551,574.39
-99.22412802,47.12398013,574.85
-99.22412854,47.12409570,575.12
-99.22412885,47.12416048,574.88
-99.22412944,47.12427434,574.79
-99.22412955,47.12427873,574.80
-99.22413304,47.12428495,574.70
-99.22430217,47.12428487,572.25
-99.22472435,47.12428409,571.82
-99.22510529,47.12428336,572.18
-99.22555915,47.12428245,572.39
-99.22609311,47.12428140,574.83
     </coordinates>
    </LineString>
   </MultiGeometry>
  </Placemark>
 </Document>
</kml>
