<kml>
 <Document>
  <Style id="yellow">
   <LineStyle>
   <color>ff00ffff</color>
   <width>1</width>
   </LineStyle>
  </Style>
  <Style id="red">
   <LineStyle>
   <color>ffff0000</color>
   <width>2</width>
   </LineStyle>
  </Style>
  <Style id="green">
   <LineStyle>
   <color>ff00ff00</color>
   <width>1</width>
   </LineStyle>
  </Style>
  <Placemark>
  <styleUrl>#yellow</styleUrl>
   <MultiGeometry>
    <LineString>
     <coordinates>
-99.25062017,47.15038928,594.39
-99.25062125,47.15063878,595.17
-99.25062191,47.15077713,593.45
-99.25062370,47.15115335,590.79
-99.25062401,47.15118944,590.28
-99.25062429,47.15121570,590.30
-99.25062843,47.15122592,590.20
-99.25117327,47.15122480,588.86
-99.25136908,47.15122436,588.80
-99.25188312,47.15122324,589.25
-99.25241217,47.15122207,589.96
-99.25263596,47.15122156,589.03
-99.25317864,47.15121958,588.40
-99.25331150,47.15122011,587.32
-99.25333514,47.15122006,588.56
-99.25334906,47.15122003,587.19
-99.25341977,47.15121929,588.78
-99.25406938,47.15121722,588.81
-99.25409021,47.15121728,588.78
-99.25420788,47.15121764,588.86
-99.25424463,47.15121775,588.81
-99.25429259,47.15121788,588.75
-99.25430255,47.15121790,588.54
-99.25432263,47.15121787,587.18
-99.25495597,47.15121427,589.15
-99.25503506,47.15121449,588.89
-99.25515070,47.15121488,589.44
-99.25520873,47.15121510,590.12
-99.25523495,47.15121520,590.25
-99.25524035,47.15121521,590.27
-99.25537294,47.15121545,587.96
-99.25538872,47.15121549,587.85
-99.25604675,47.15121246,589.16
-99.25607341,47.15121255,589.36
-99.25608399,47.15121259,589.48
-99.25612049,47.15121273,589.93
-99.25614177,47.15121277,589.50
-99.25628737,47.15121307,587.64
-99.25632495,47.15121319,587.66
-99.25634624,47.15121325,587.67
-99.25635662,47.15121328,587.62
-99.25636733,47.15121331,587.60
-99.25659150,47.15121276,588.02
-99.25666568,47.15121258,588.11
-99.25728633,47.15121124,588.68
-99.25781239,47.15121002,589.26
-99.25821313,47.15120915,589.31
-99.25833708,47.15120889,589.21
-99.25836918,47.15120882,589.11
-99.25897989,47.15120744,587.91
-99.25940148,47.15120649,588.95
-99.25964771,47.15120591,588.04
-99.26004602,47.15120493,591.22
-99.26051660,47.15120393,590.29
-99.26090371,47.15120307,588.88
-99.26153244,47.15120159,588.25
-99.26157095,47.15120149,588.25
-99.26221467,47.15120002,587.80
-99.26255700,47.15119927,587.43
-99.26310324,47.15119793,587.52
-99.26324781,47.15119764,587.14
-99.26352641,47.15119705,587.23
-99.26373759,47.15119641,587.17
-99.26374557,47.15119639,587.25
-99.26379932,47.15119585,587.11
-99.26380423,47.15119503,587.15
-99.26381434,47.15119317,587.25
-99.26381450,47.15118869,587.12
-99.26381328,47.15093273,587.18
-99.26381115,47.15050908,587.21
-99.26381027,47.15032700,589.34
-99.26380930,47.15013008,592.89
-99.26380866,47.15000084,593.84
-99.26380851,47.14996870,593.70
-99.26380721,47.14970596,593.51
-99.26380560,47.14939503,593.60
-99.26380448,47.14916328,595.91
-99.26380321,47.14891386,595.36
-99.26380213,47.14868890,593.55
-99.26380158,47.14856896,592.95
-99.26379986,47.14822445,594.26
-99.26379869,47.14798973,595.66
-99.26379707,47.14765705,597.56
-99.26379545,47.14733007,598.29
-99.26379416,47.14707734,596.62
-99.26379331,47.14691017,595.50
-99.26379228,47.14671027,594.16
-99.26379103,47.14643670,594.41
-99.26378946,47.14612528,595.05
-99.26378869,47.14596639,595.45
-99.26378706,47.14564193,596.34
-99.26378605,47.14544277,597.33
-99.26378463,47.14515803,597.44
-99.26378278,47.14477183,597.90
-99.26378207,47.14462735,597.93
-99.26378060,47.14434233,596.97
-99.26377935,47.14407657,596.92
-99.26377800,47.14380326,597.48
-99.26377787,47.14377667,598.66
-99.26377625,47.14349234,598.51
-99.26377509,47.14322324,599.86
-99.26377411,47.14302135,600.81
-99.26377225,47.14265657,601.18
-99.26377181,47.14255608,601.46
-99.26377031,47.14226492,600.80
-99.26376983,47.14219923,601.03
-99.26376525,47.14219816,600.91
-99.26369770,47.14219815,600.80
-99.26344438,47.14219874,601.31
-99.26302046,47.14219970,599.69
-99.26257441,47.14220073,599.54
-99.26223562,47.14220150,600.37
-99.26185823,47.14220238,599.76
-99.26150678,47.14220323,602.43
-99.26092731,47.14220453,603.87
-99.26059540,47.14220524,601.27
-99.26012137,47.14220648,602.38
-99.25987562,47.14220701,601.60
-99.25931921,47.14220820,600.47
-99.25919770,47.14220842,601.12
-99.25873523,47.14220953,598.81
-99.25847050,47.14221008,598.44
-99.25837279,47.14221031,598.45
-99.25807210,47.14221101,600.20
-99.25768589,47.14221183,597.10
-99.25748752,47.14221228,596.36
-99.25701489,47.14221336,596.94
-99.25668973,47.14221408,595.37
-99.25634973,47.14221484,593.96
-99.25599999,47.14221561,593.38
-99.25567126,47.14221637,594.79
-99.25535014,47.14221712,592.74
-99.25497919,47.14221797,591.59
-99.25464140,47.14221865,591.60
-99.25409202,47.14221988,592.78
-99.25376779,47.14222057,593.93
-99.25339145,47.14222141,594.21
-99.25294611,47.14222239,595.06
-99.25230820,47.14222381,592.74
-99.25211880,47.14222422,593.25
-99.25178702,47.14222498,593.22
-99.25161226,47.14222537,592.36
-99.25143341,47.14222577,591.08
-99.25093873,47.14222681,591.11
-99.25080094,47.14222712,591.30
-99.25065939,47.14222818,591.22
-99.25058640,47.14223111,590.95
-99.25058329,47.14223679,590.97
-99.25058217,47.14224709,591.04
-99.25058213,47.14228914,591.01
-99.25058222,47.14233467,590.97
-99.25058319,47.14253447,591.22
-99.25058378,47.14262676,591.19
-99.25058551,47.14302373,592.55
-99.25058652,47.14324173,591.51
-99.25058709,47.14335588,590.71
-99.25058905,47.14375757,593.02
-99.25059110,47.14419937,591.09
-99.25059186,47.14438843,591.88
-99.25059254,47.14453124,593.31
-99.25059415,47.14485606,593.70
-99.25059450,47.14492278,593.71
-99.25059637,47.14532281,592.06
-99.25059656,47.14537972,591.57
-99.25059856,47.14581434,590.86
-99.25059918,47.14594576,591.54
-99.25060007,47.14613469,590.81
-99.25060094,47.14631674,590.92
-99.25060244,47.14663370,591.69
-99.25060393,47.14695625,589.43
-99.25060430,47.14703549,589.28
-99.25060457,47.14709285,589.27
-99.25060541,47.14727268,589.10
-99.25060670,47.14750464,588.89
-99.25060781,47.14776268,588.69
-99.25060806,47.14781895,588.90
-99.25060885,47.14800018,589.01
-99.25061056,47.14836674,588.20
-99.25061112,47.14848118,587.47
-99.25061235,47.14870633,586.93
-99.25061380,47.14904901,587.82
-99.25061568,47.14944724,590.24
-99.25061588,47.14948736,588.96
-99.25061781,47.14990991,588.75
-99.25061850,47.15003655,590.65
-99.25062017,47.15038928,594.39
     </coordinates>
    </LineString>
   </MultiGeometry>
  </Placemark>
 </Document>
</kml>
