<kml>
 <Document>
  <Style id="yellow">
   <LineStyle>
   <color>ff00ffff</color>
   <width>1</width>
   </LineStyle>
  </Style>
  <Style id="red">
   <LineStyle>
   <color>ffff0000</color>
   <width>2</width>
   </LineStyle>
  </Style>
  <Style id="green">
   <LineStyle>
   <color>ff00ff00</color>
   <width>1</width>
   </LineStyle>
  </Style>
  <Placemark>
  <styleUrl>#yellow</styleUrl>
   <MultiGeometry>
    <LineString>
     <coordinates>
-99.26374445,47.12420081,599.27
-99.26381024,47.12420069,599.39
-99.26388224,47.12420055,599.54
-99.26403035,47.12420021,599.49
-99.26462329,47.12419885,599.41
-99.26471749,47.12419865,599.29
-99.26512124,47.12419773,600.11
-99.26575397,47.12419625,602.64
-99.26610241,47.12419544,602.73
-99.26675604,47.12419389,600.59
-99.26707563,47.12419319,599.40
-99.26753430,47.12419198,599.39
-99.26779434,47.12419145,599.39
-99.26816784,47.12419064,599.40
-99.26866026,47.12418947,599.36
-99.26896543,47.12418876,600.06
-99.26924151,47.12418810,601.63
-99.26984442,47.12418670,602.40
-99.27024765,47.12418570,604.46
-99.27063944,47.12418482,613.52
-99.27101271,47.12418393,606.23
-99.27133538,47.12418318,606.58
-99.27164827,47.12418235,605.70
-99.27193549,47.12418164,605.69
-99.27252135,47.12418036,613.77
-99.27289853,47.12417946,616.84
-99.27330064,47.12417851,609.40
-99.27335296,47.12417838,609.29
-99.27358533,47.12417783,613.03
-99.27379647,47.12417732,616.55
-99.27398450,47.12417685,613.53
-99.27460206,47.12417538,614.68
-99.27507566,47.12417426,608.56
-99.27550774,47.12417321,615.01
-99.27605798,47.12417189,615.58
-99.27636051,47.12417114,616.07
-99.27684261,47.12416987,616.65
-99.27686168,47.12416683,616.68
-99.27686456,47.12415842,616.63
-99.27686470,47.12413687,616.39
-99.27686262,47.12371282,614.51
-99.27686191,47.12357635,614.40
-99.27686000,47.12326855,613.35
-99.27685921,47.12309418,612.51
-99.27685766,47.12276412,609.70
-99.27685752,47.12273287,615.78
-99.27685746,47.12272091,618.69
-99.27685590,47.12242238,607.62
-99.27685395,47.12204406,602.85
-99.27685162,47.12160178,602.32
-99.27685091,47.12146378,602.28
-99.27685049,47.12137978,602.30
-99.27684937,47.12116949,602.31
-99.27684836,47.12097722,602.28
-99.27684604,47.12052738,602.31
-99.27684418,47.12017887,602.31
-99.27684324,47.11997980,602.30
-99.27684107,47.11958371,603.08
-99.27683984,47.11933584,604.90
-99.27683864,47.11909265,605.43
-99.27683629,47.11866071,605.94
-99.27683622,47.11863881,605.91
-99.27683570,47.11852397,605.79
-99.27683316,47.11807738,605.50
-99.27683236,47.11790897,605.17
-99.27683142,47.11770647,604.24
-99.27683031,47.11748473,603.74
-99.27682854,47.11714304,604.65
-99.27682695,47.11686132,605.33
-99.27682597,47.11666084,605.99
-99.27682437,47.11634719,607.52
-99.27682345,47.11616171,607.55
-99.27682299,47.11607324,606.93
-99.27682115,47.11572840,607.52
-99.27681967,47.11543416,603.77
-99.27681859,47.11524685,603.14
-99.27681792,47.11518844,603.79
-99.27681609,47.11517409,602.91
-99.27651870,47.11517221,601.27
-99.27593566,47.11517364,602.02
-99.27532762,47.11517512,601.79
-99.27478958,47.11517638,603.81
-99.27431865,47.11517751,601.43
-99.27375666,47.11517884,601.16
-99.27361489,47.11517919,600.97
-99.27308963,47.11518068,601.75
-99.27268307,47.11518144,599.87
-99.27243570,47.11518207,598.74
-99.27198528,47.11518313,599.72
-99.27174704,47.11518363,599.17
-99.27161305,47.11518395,598.93
-99.27115108,47.11518508,599.05
-99.27068458,47.11518614,599.67
-99.27004379,47.11518766,609.43
-99.26981939,47.11518821,600.46
-99.26918207,47.11518975,599.64
-99.26902381,47.11519008,598.99
-99.26883463,47.11519050,597.66
-99.26819572,47.11519203,594.70
-99.26801314,47.11519245,594.97
-99.26785875,47.11519283,595.83
-99.26725156,47.11519422,598.75
-99.26686172,47.11519524,598.05
-99.26653637,47.11519590,597.97
-99.26614728,47.11519678,596.87
-99.26580749,47.11519763,596.38
-99.26539857,47.11519858,597.25
-99.26505498,47.11519931,596.33
-99.26452722,47.11520053,594.58
-99.26400784,47.11520173,595.07
-99.26367575,47.11520252,594.68
-99.26364392,47.11520292,594.71
-99.26363958,47.11520366,594.61
-99.26363796,47.11520837,594.81
-99.26363712,47.11523277,594.67
-99.26363698,47.11525349,594.61
-99.26363834,47.11554162,594.69
-99.26363998,47.11586742,595.83
-99.26364168,47.11621205,597.61
-99.26364385,47.11663768,598.97
-99.26364520,47.11692694,597.70
-99.26364597,47.11708836,597.72
-99.26364654,47.11719886,597.94
-99.26364824,47.11753456,597.85
-99.26364950,47.11780016,597.38
-99.26364993,47.11788888,597.04
-99.26365028,47.11795840,596.46
-99.26365229,47.11836826,596.37
-99.26365443,47.11878156,598.91
-99.26365477,47.11885709,599.05
-99.26365540,47.11899462,598.89
-99.26365675,47.11926596,598.29
-99.26365832,47.11958591,599.12
-99.26366051,47.12003272,599.13
-99.26366222,47.12037939,597.21
-99.26366408,47.12075295,595.98
-99.26366581,47.12110303,595.85
-99.26366719,47.12137956,595.46
-99.26366846,47.12164212,596.72
-99.26366951,47.12184588,598.32
-99.26367164,47.12228179,599.87
-99.26367239,47.12243410,599.23
-99.26367313,47.12257849,599.13
-99.26367370,47.12268883,598.98
-99.26367552,47.12303379,599.65
-99.26367680,47.12332976,600.24
-99.26367828,47.12362929,600.08
-99.26367937,47.12384460,600.39
-99.26368083,47.12412748,599.44
-99.26368128,47.12419426,599.56
-99.26368201,47.12420012,599.49
-99.26370224,47.12420035,599.36
-99.26374445,47.12420081,599.27
     </coordinates>
    </LineString>
   </MultiGeometry>
  </Placemark>
 </Document>
</kml>
