<kml>
 <Document>
  <Style id="yellow">
   <LineStyle>
   <color>ff00ffff</color>
   <width>1</width>
   </LineStyle>
  </Style>
  <Style id="red">
   <LineStyle>
   <color>ffff0000</color>
   <width>2</width>
   </LineStyle>
  </Style>
  <Style id="green">
   <LineStyle>
   <color>ff00ff00</color>
   <width>1</width>
   </LineStyle>
  </Style>
  <Placemark>
  <styleUrl>#yellow</styleUrl>
   <MultiGeometry>
    <LineString>
     <coordinates>
-99.25041528,47.10623300,581.99
-99.25061378,47.10623313,582.54
-99.25095708,47.10623242,583.14
-99.25155925,47.10623114,584.17
-99.25216365,47.10622977,583.74
-99.25251173,47.10622903,583.98
-99.25306587,47.10622778,583.86
-99.25352605,47.10622680,585.02
-99.25409815,47.10622550,585.20
-99.25461178,47.10622436,585.90
-99.25477741,47.10622402,586.23
-99.25512426,47.10622323,586.27
-99.25555455,47.10622223,586.80
-99.25598726,47.10622128,586.86
-99.25642192,47.10622034,587.08
-99.25663549,47.10621983,586.81
-99.25711111,47.10621875,587.31
-99.25750434,47.10621786,588.11
-99.25787230,47.10621708,589.76
-99.25817291,47.10621639,590.28
-99.25853480,47.10621561,590.85
-99.25860875,47.10621544,590.47
-99.25915448,47.10621417,590.21
-99.25926812,47.10621395,589.82
-99.25961464,47.10621316,590.10
-99.26023541,47.10621175,591.03
-99.26073001,47.10621060,593.75
-99.26092777,47.10621015,593.18
-99.26121810,47.10620949,593.59
-99.26177555,47.10620822,594.14
-99.26215040,47.10620735,593.92
-99.26229325,47.10620698,593.59
-99.26281562,47.10620586,594.19
-99.26304788,47.10620531,593.62
-99.26323292,47.10620485,593.37
-99.26342396,47.10620431,593.11
-99.26351243,47.10620403,593.03
-99.26357523,47.10620359,592.95
-99.26359194,47.10620243,593.00
-99.26359158,47.10609397,592.86
-99.26359054,47.10586818,593.12
-99.26359001,47.10576093,593.17
-99.26358843,47.10544435,592.75
-99.26358704,47.10517113,593.08
-99.26358606,47.10497711,593.79
-99.26358462,47.10466867,592.34
-99.26358356,47.10446085,592.45
-99.26358141,47.10402507,593.14
-99.26357994,47.10371920,593.52
-99.26357787,47.10331042,593.03
-99.26357694,47.10312534,592.03
-99.26357558,47.10283566,591.02
-99.26357453,47.10262444,590.08
-99.26357330,47.10237442,589.88
-99.26357166,47.10204692,591.41
-99.26357091,47.10189125,591.25
-99.26356999,47.10171106,590.39
-99.26356910,47.10153380,589.73
-99.26356747,47.10119205,589.35
-99.26356577,47.10085927,589.36
-99.26356460,47.10061343,588.78
-99.26356430,47.10055060,588.62
-99.26356225,47.10013533,587.48
-99.26356024,47.09972985,586.97
-99.26355842,47.09936020,585.70
-99.26355676,47.09902219,585.86
-99.26355572,47.09881165,585.62
-99.26355490,47.09865209,585.73
-99.26355373,47.09842104,585.91
-99.26355222,47.09810191,585.42
-99.26355056,47.09779683,584.89
-99.26354968,47.09758986,584.93
-99.26354823,47.09729297,586.34
-99.26354782,47.09723133,586.45
-99.26354744,47.09720703,586.74
-99.26354174,47.09720560,586.66
-99.26288651,47.09720710,585.76
-99.26235544,47.09720839,585.91
-99.26183552,47.09720956,584.69
-99.26139361,47.09721066,585.99
-99.26101012,47.09721145,587.09
-99.26050064,47.09721255,584.44
-99.25987676,47.09721399,582.23
-99.25947178,47.09721490,581.54
-99.25930323,47.09721531,581.22
-99.25901128,47.09721601,581.34
-99.25863542,47.09721683,581.35
-99.25798130,47.09721826,581.44
-99.25760894,47.09721909,580.17
-99.25717169,47.09722009,579.89
-99.25660769,47.09722134,581.11
-99.25641066,47.09722179,580.47
-99.25613011,47.09722245,579.73
-99.25570048,47.09722338,579.93
-99.25525513,47.09722443,578.26
-99.25503198,47.09722491,577.31
-99.25455968,47.09722592,576.45
-99.25409474,47.09722699,575.87
-99.25355688,47.09722814,575.07
-99.25290911,47.09722957,576.76
-99.25249710,47.09723047,578.56
-99.25194123,47.09723172,580.71
-99.25183443,47.09723195,580.99
-99.25141600,47.09723286,578.94
-99.25127727,47.09723317,578.21
-99.25099027,47.09723380,576.47
-99.25043192,47.09723510,578.57
-99.25042665,47.09723530,578.54
-99.25041063,47.09723591,578.62
-99.25038929,47.09723673,578.81
-99.25037297,47.09723736,578.84
-99.25037067,47.09725245,578.91
-99.25037216,47.09757042,579.43
-99.25037310,47.09777074,578.64
-99.25037476,47.09812949,575.48
-99.25037601,47.09836803,577.21
-99.25037716,47.09861961,576.41
-99.25037795,47.09879365,575.87
-99.25037874,47.09896433,577.22
-99.25038014,47.09926865,579.20
-99.25038170,47.09955034,579.40
-99.25038346,47.09995464,578.78
-99.25038466,47.10021623,579.83
-99.25038574,47.10046112,578.90
-99.25038667,47.10065386,578.39
-99.25038793,47.10091605,577.91
-99.25038939,47.10125391,577.70
-99.25039083,47.10155802,577.31
-99.25039250,47.10191406,576.80
-99.25039466,47.10236084,577.22
-99.25039513,47.10247416,577.35
-99.25039654,47.10275074,577.40
-99.25039756,47.10299683,577.14
-99.25039931,47.10336406,576.91
-99.25040090,47.10369174,577.08
-99.25040240,47.10401579,578.62
-99.25040318,47.10418566,577.28
-99.25040440,47.10444383,577.52
-99.25040613,47.10481526,577.53
-99.25040650,47.10489444,577.65
-99.25040808,47.10522583,578.14
-99.25040981,47.10560246,579.12
-99.25041052,47.10574866,579.37
-99.25041103,47.10584576,580.12
-99.25041274,47.10616596,581.84
-99.25041323,47.10620165,581.75
-99.25041434,47.10622752,581.98
-99.25041528,47.10623300,581.99
     </coordinates>
    </LineString>
   </MultiGeometry>
  </Placemark>
 </Document>
</kml>
