<kml>
 <Document>
  <Style id="yellow">
   <LineStyle>
   <color>ff00ffff</color>
   <width>1</width>
   </LineStyle>
  </Style>
  <Style id="red">
   <LineStyle>
   <color>ffff0000</color>
   <width>2</width>
   </LineStyle>
  </Style>
  <Style id="green">
   <LineStyle>
   <color>ff00ff00</color>
   <width>1</width>
   </LineStyle>
  </Style>
  <Placemark>
  <styleUrl>#yellow</styleUrl>
   <MultiGeometry>
    <LineString>
     <coordinates>
-99.21094096,47.12321252,568.18
-99.21094266,47.12363692,566.93
-99.21094355,47.12384158,567.06
-99.21094510,47.12421007,565.82
-99.21094522,47.12422586,565.78
-99.21094586,47.12429984,565.58
-99.21094686,47.12430913,565.54
-99.21097505,47.12430971,565.35
-99.21102595,47.12430996,565.03
-99.21107114,47.12430999,564.72
-99.21110028,47.12430998,564.58
-99.21137171,47.12430944,563.42
-99.21189895,47.12430854,561.10
-99.21201476,47.12430833,560.57
-99.21210458,47.12430817,560.13
-99.21261766,47.12430721,558.88
-99.21288356,47.12430672,558.80
-99.21289873,47.12430669,559.04
-99.21303078,47.12430645,558.86
-99.21364572,47.12430529,558.53
-99.21389824,47.12430480,558.71
-99.21446213,47.12430376,558.88
-99.21450428,47.12430368,558.60
-99.21485780,47.12430300,559.54
-99.21522350,47.12430233,559.41
-99.21554556,47.12430170,559.80
-99.21595109,47.12430098,560.19
-99.21600037,47.12430089,560.41
-99.21630745,47.12430026,561.10
-99.21645535,47.12429996,561.66
-99.21681360,47.12429928,562.95
-99.21713482,47.12429874,564.23
-99.21738792,47.12429825,564.38
-99.21788050,47.12429733,564.19
-99.21816064,47.12429674,564.31
-99.21861539,47.12429593,565.53
-99.21882790,47.12429549,564.00
-99.21926745,47.12429461,564.57
-99.21948931,47.12429425,565.68
-99.21980420,47.12429357,566.51
-99.22016565,47.12429292,567.37
-99.22037375,47.12429255,568.66
-99.22045645,47.12429240,569.15
-99.22081766,47.12429169,570.66
-99.22136161,47.12429063,570.34
-99.22148780,47.12429039,570.29
-99.22204190,47.12428934,572.33
-99.22239171,47.12428860,572.68
-99.22285688,47.12428766,573.21
-99.22316875,47.12428714,573.67
-99.22348400,47.12428647,575.57
-99.22387981,47.12428571,576.18
-99.22402013,47.12428543,575.65
-99.22412702,47.12428518,574.77
-99.22412909,47.12428422,574.80
-99.22412896,47.12423988,574.65
-99.22412818,47.12402934,575.04
-99.22412672,47.12370082,574.33
-99.22412591,47.12350789,575.12
-99.22412486,47.12325545,575.51
-99.22412405,47.12305630,575.71
-99.22412302,47.12279733,576.20
-99.22412172,47.12248785,577.47
-99.22411997,47.12207909,579.23
-99.22411963,47.12199288,579.19
-99.22411875,47.12179014,578.97
-99.22411697,47.12136764,577.58
-99.22411609,47.12114738,578.52
-99.22411424,47.12071694,580.19
-99.22411275,47.12037096,580.41
-99.22411219,47.12023558,580.99
-99.22411075,47.11990109,580.82
-99.22410948,47.11957474,581.88
-99.22410844,47.11933575,582.30
-99.22410673,47.11891845,581.65
-99.22410603,47.11876247,581.63
-99.22410446,47.11839288,581.15
-99.22410279,47.11798925,582.89
-99.22410168,47.11772328,581.89
-99.22409982,47.11727370,577.11
-99.22409841,47.11693843,574.86
-99.22409742,47.11670432,573.26
-99.22409600,47.11636248,571.79
-99.22409464,47.11605839,569.78
-99.22409323,47.11572217,565.68
-99.22409168,47.11534147,564.62
-99.22409110,47.11529892,564.65
-99.22409029,47.11529222,564.69
-99.22408978,47.11529000,564.66
-99.22407943,47.11528690,564.64
-99.22385421,47.11528727,564.14
-99.22374860,47.11528747,563.75
-99.22340581,47.11528817,564.24
-99.22307472,47.11528877,564.22
-99.22275380,47.11528938,563.38
-99.22218313,47.11529056,563.96
-99.22197622,47.11529094,563.43
-99.22145446,47.11529195,563.15
-99.22135720,47.11529213,563.28
-99.22077076,47.11529322,564.02
-99.22025227,47.11529422,566.53
-99.21998666,47.11529473,565.93
-99.21951156,47.11529564,563.51
-99.21902362,47.11529659,563.00
-99.21877835,47.11529705,561.37
-99.21845688,47.11529768,561.35
-99.21791136,47.11529877,562.84
-99.21737755,47.11529972,566.08
-99.21707035,47.11530030,567.52
-99.21679087,47.11530084,568.94
-99.21626603,47.11530181,572.47
-99.21610219,47.11530219,572.61
-99.21552500,47.11530330,573.98
-99.21534941,47.11530357,573.91
-99.21487490,47.11530443,574.82
-99.21456113,47.11530503,575.43
-99.21398449,47.11530620,574.47
-99.21382835,47.11530648,573.53
-99.21373214,47.11530665,572.59
-99.21337676,47.11530731,570.43
-99.21293152,47.11530809,568.78
-99.21240049,47.11530907,570.41
-99.21197526,47.11530984,569.42
-99.21136617,47.11531098,564.58
-99.21110882,47.11531144,562.88
-99.21096618,47.11531182,562.18
-99.21091223,47.11531209,561.78
-99.21090991,47.11533834,561.93
-99.21091020,47.11542207,562.59
-99.21091026,47.11543822,562.65
-99.21091175,47.11580920,566.74
-99.21091209,47.11590650,566.92
-99.21091299,47.11613643,566.33
-99.21091434,47.11647352,565.36
-99.21091502,47.11663788,566.37
-99.21091525,47.11669404,566.21
-99.21091606,47.11688764,566.37
-99.21091624,47.11692416,566.53
-99.21091716,47.11713332,565.70
-99.21091800,47.11740305,565.33
-99.21091907,47.11767000,565.62
-99.21092058,47.11803687,566.73
-99.21092163,47.11831542,567.01
-99.21092286,47.11862849,566.25
-99.21092422,47.11897639,565.80
-99.21092528,47.11923453,566.12
-99.21092633,47.11950424,566.24
-99.21092731,47.11975172,566.06
-99.21092812,47.11992049,566.27
-99.21092907,47.12014315,567.53
-99.21092989,47.12041291,572.13
-99.21093093,47.12067575,573.26
-99.21093162,47.12083188,571.57
-99.21093303,47.12120290,568.21
-99.21093389,47.12141713,568.66
-99.21093527,47.12175949,569.72
-99.21093680,47.12212910,571.39
-99.21093720,47.12223126,571.83
-99.21093811,47.12241099,570.96
-99.21093908,47.12262125,569.55
-99.21094014,47.12300172,569.60
-99.21094096,47.12321252,568.18
     </coordinates>
    </LineString>
   </MultiGeometry>
  </Placemark>
 </Document>
</kml>
