<kml>
 <Document>
  <Style id="yellow">
   <LineStyle>
   <color>ff00ffff</color>
   <width>1</width>
   </LineStyle>
  </Style>
  <Style id="red">
   <LineStyle>
   <color>ffff0000</color>
   <width>2</width>
   </LineStyle>
  </Style>
  <Style id="green">
   <LineStyle>
   <color>ff00ff00</color>
   <width>1</width>
   </LineStyle>
  </Style>
  <Placemark>
  <styleUrl>#yellow</styleUrl>
   <MultiGeometry>
    <LineString>
     <coordinates>
-99.21234044,47.14230477,570.41
-99.21293287,47.14230375,572.32
-99.21350492,47.14230264,576.06
-99.21383226,47.14230202,576.12
-99.21434008,47.14230106,579.03
-99.21454916,47.14230071,594.01
-99.21482246,47.14230019,577.20
-99.21509517,47.14229965,577.43
-99.21534670,47.14229914,577.82
-99.21577893,47.14229841,590.32
-99.21615538,47.14229762,578.40
-99.21654742,47.14229692,579.80
-99.21680745,47.14229648,581.79
-99.21730870,47.14229552,579.41
-99.21766866,47.14229485,578.75
-99.21822680,47.14229377,578.72
-99.21881241,47.14229261,579.57
-99.21935724,47.14229160,579.94
-99.21966978,47.14229102,580.05
-99.21997310,47.14229044,582.41
-99.22051498,47.14228937,581.85
-99.22068224,47.14228903,580.64
-99.22125402,47.14228796,579.42
-99.22148118,47.14228754,579.18
-99.22150554,47.14228749,592.96
-99.22176507,47.14228695,578.89
-99.22223859,47.14228605,580.10
-99.22251048,47.14228553,580.80
-99.22298980,47.14228457,578.60
-99.22320981,47.14228413,578.03
-99.22367282,47.14228322,578.95
-99.22390561,47.14228280,582.26
-99.22410163,47.14228237,581.80
-99.22419897,47.14228194,581.60
-99.22420474,47.14228023,581.52
-99.22420477,47.14225586,581.25
-99.22420448,47.14218825,580.76
-99.22420346,47.14194685,594.68
-99.22420200,47.14159674,575.65
-99.22420057,47.14125351,576.29
-99.22419941,47.14098430,573.79
-99.22419797,47.14063869,571.99
-99.22419675,47.14035460,572.02
-99.22419569,47.14009615,571.79
-99.22419388,47.13968084,572.52
-99.22419361,47.13962621,572.81
-99.22419300,47.13950067,572.76
-99.22419167,47.13914023,572.85
-99.22419095,47.13897506,572.69
-99.22418954,47.13863935,570.29
-99.22418786,47.13824558,570.22
-99.22418672,47.13796994,574.83
-99.22418560,47.13770577,575.15
-99.22418413,47.13737133,570.55
-99.22418237,47.13692353,571.57
-99.22418185,47.13681599,571.94
-99.22418011,47.13644603,570.47
-99.22417954,47.13626747,571.06
-99.22417918,47.13616606,570.32
-99.22417754,47.13578780,571.74
-99.22417631,47.13548227,575.16
-99.22417583,47.13537244,576.18
-99.22417409,47.13495688,576.08
-99.22417331,47.13476972,574.47
-99.22417244,47.13456081,572.53
-99.22417190,47.13444838,571.93
-99.22417006,47.13403332,574.43
-99.22416944,47.13385797,574.70
-99.22416910,47.13377845,574.87
-99.22416817,47.13356361,573.94
-99.22416714,47.13330657,572.97
-99.22416681,47.13328722,572.96
-99.22416620,47.13328585,572.98
-99.22412996,47.13328405,572.77
-99.22412481,47.13328391,572.85
-99.22370011,47.13328469,569.73
-99.22342996,47.13328521,567.93
-99.22297971,47.13328612,567.64
-99.22249234,47.13328705,568.46
-99.22214117,47.13328784,570.75
-99.22180253,47.13328847,574.68
-99.22149135,47.13328903,572.41
-99.22126104,47.13328945,571.41
-99.22094651,47.13329004,569.51
-99.22039940,47.13329110,567.54
-99.21999055,47.13329197,568.62
-99.21973437,47.13329239,570.85
-99.21944835,47.13329293,571.90
-99.21879238,47.13329419,570.76
-99.21822915,47.13329525,564.08
-99.21779191,47.13329608,563.76
-99.21743752,47.13329674,563.74
-99.21691310,47.13329774,564.21
-99.21638196,47.13329875,565.30
-99.21609725,47.13329937,567.41
-99.21564052,47.13330023,569.30
-99.21502716,47.13330136,569.88
-99.21489596,47.13330162,569.85
-99.21424176,47.13330286,566.40
-99.21416687,47.13330298,565.98
-99.21389597,47.13330344,563.98
-99.21370638,47.13330377,563.46
-99.21306013,47.13330497,561.82
-99.21274716,47.13330555,560.77
-99.21237249,47.13330627,561.33
-99.21185005,47.13330726,563.09
-99.21121017,47.13330842,565.95
-99.21102385,47.13330883,566.55
-99.21100361,47.13330915,566.65
-99.21098231,47.13331032,566.77
-99.21098160,47.13335573,566.96
-99.21098154,47.13344221,567.19
-99.21098213,47.13358618,567.39
-99.21098343,47.13394458,567.07
-99.21098405,47.13410947,565.20
-99.21098408,47.13411845,565.05
-99.21098544,47.13445922,563.11
-99.21098718,47.13489115,563.53
-99.21098869,47.13526627,561.60
-99.21098949,47.13545946,561.65
-99.21099054,47.13574145,562.67
-99.21099149,47.13597616,563.13
-99.21099250,47.13622659,564.17
-99.21099397,47.13659524,566.03
-99.21099548,47.13699254,569.08
-99.21099591,47.13710165,570.43
-99.21099754,47.13752136,570.09
-99.21099842,47.13774352,571.20
-99.21100007,47.13815152,570.92
-99.21100075,47.13833030,570.71
-99.21100113,47.13842604,570.53
-99.21100156,47.13852128,570.69
-99.21100189,47.13858716,570.79
-99.21100347,47.13902002,569.82
-99.21100516,47.13944376,570.72
-99.21100636,47.13972326,571.52
-99.21100757,47.14004310,571.03
-99.21100847,47.14028069,570.63
-99.21101004,47.14067705,570.54
-99.21101039,47.14076821,571.36
-99.21101160,47.14105725,571.56
-99.21101294,47.14140002,570.86
-99.21101457,47.14180870,571.26
-99.21101577,47.14209978,571.95
-99.21101632,47.14226503,572.18
-99.21101663,47.14229647,572.20
-99.21101761,47.14230318,572.37
-99.21102272,47.14230457,572.47
-99.21102784,47.14230597,572.56
-99.21103265,47.14230719,572.38
-99.21105660,47.14230715,572.20
-99.21155722,47.14230618,571.67
-99.21177380,47.14230579,571.67
-99.21234044,47.14230477,570.41
     </coordinates>
    </LineString>
   </MultiGeometry>
  </Placemark>
 </Document>
</kml>
