<kml>
 <Document>
  <Style id="yellow">
   <LineStyle>
   <color>ff00ffff</color>
   <width>1</width>
   </LineStyle>
  </Style>
  <Style id="red">
   <LineStyle>
   <color>ffff0000</color>
   <width>2</width>
   </LineStyle>
  </Style>
  <Style id="green">
   <LineStyle>
   <color>ff00ff00</color>
   <width>1</width>
   </LineStyle>
  </Style>
  <Placemark>
  <styleUrl>#yellow</styleUrl>
   <MultiGeometry>
    <LineString>
     <coordinates>
-99.25045689,47.11523202,587.98
-99.25068562,47.11523162,587.60
-99.25114214,47.11523064,587.37
-99.25153939,47.11522978,587.83
-99.25173173,47.11522935,589.18
-99.25230835,47.11522809,589.58
-99.25259297,47.11522746,589.18
-99.25295289,47.11522660,588.69
-99.25327540,47.11522593,588.03
-99.25358690,47.11522525,588.70
-99.25390264,47.11522456,588.43
-99.25406870,47.11522418,588.46
-99.25446688,47.11522326,589.24
-99.25488586,47.11522234,589.77
-99.25525270,47.11522156,589.57
-99.25585361,47.11522019,589.26
-99.25605930,47.11521971,589.06
-99.25661117,47.11521850,586.25
-99.25700598,47.11521759,586.73
-99.25744120,47.11521664,586.69
-99.25763884,47.11521616,587.13
-99.25809329,47.11521513,588.51
-99.25841880,47.11521446,590.29
-99.25849712,47.11521429,590.43
-99.25907431,47.11521297,586.96
-99.25960841,47.11521177,587.30
-99.26009671,47.11521067,586.75
-99.26034387,47.11521009,587.97
-99.26078123,47.11520909,590.92
-99.26096330,47.11520869,591.08
-99.26160285,47.11520721,591.98
-99.26221792,47.11520576,594.27
-99.26240932,47.11520536,594.44
-99.26261657,47.11520489,594.54
-99.26273777,47.11520461,594.87
-99.26302028,47.11520390,594.48
-99.26349196,47.11520290,594.69
-99.26354721,47.11520273,594.66
-99.26362520,47.11520241,594.56
-99.26363378,47.11520083,594.71
-99.26363507,47.11520020,594.65
-99.26363625,47.11519619,594.66
-99.26363628,47.11515422,594.66
-99.26363415,47.11470667,594.03
-99.26363227,47.11432509,592.83
-99.26363192,47.11425311,592.14
-99.26363064,47.11399125,590.02
-99.26362991,47.11384287,589.40
-99.26362805,47.11346676,589.51
-99.26362790,47.11343549,590.97
-99.26362786,47.11342746,589.78
-99.26362642,47.11313643,593.29
-99.26362497,47.11284470,592.52
-99.26362309,47.11246205,590.61
-99.26362127,47.11209302,590.80
-99.26361979,47.11179332,589.16
-99.26361966,47.11176778,588.91
-99.26361848,47.11152758,586.49
-99.26361739,47.11130425,586.47
-99.26361598,47.11101982,590.33
-99.26361507,47.11083706,591.06
-99.26361408,47.11063979,590.95
-99.26361260,47.11034205,588.97
-99.26361142,47.11009464,589.24
-99.26360957,47.10972045,586.71
-99.26360904,47.10961611,586.63
-99.26360744,47.10929434,587.21
-99.26360672,47.10914441,588.65
-99.26360578,47.10895422,590.01
-99.26360415,47.10865263,589.91
-99.26360271,47.10834765,588.99
-99.26360193,47.10817298,587.87
-99.26360038,47.10786299,589.10
-99.26359880,47.10753925,599.19
-99.26359820,47.10741989,591.16
-99.26359706,47.10720366,591.76
-99.26359593,47.10696401,591.07
-99.26359487,47.10674407,591.56
-99.26359334,47.10643315,593.80
-99.26359203,47.10621825,593.22
-99.26359105,47.10620508,592.95
-99.26357025,47.10620468,592.98
-99.26355053,47.10620438,592.93
-99.26349417,47.10620443,593.08
-99.26339168,47.10620456,593.19
-99.26277534,47.10620597,594.04
-99.26243896,47.10620675,593.15
-99.26191088,47.10620803,593.85
-99.26137620,47.10620919,593.53
-99.26119847,47.10620959,593.68
-99.26055178,47.10621106,593.76
-99.26052838,47.10621112,593.63
-99.26033344,47.10621161,591.97
-99.25978736,47.10621278,590.33
-99.25935847,47.10621376,589.96
-99.25894899,47.10621471,589.93
-99.25865028,47.10621541,590.44
-99.25810711,47.10621667,590.04
-99.25790049,47.10621707,589.96
-99.25737936,47.10621822,588.05
-99.25693358,47.10621927,586.96
-99.25657832,47.10622007,586.90
-99.25615413,47.10622099,586.93
-99.25563938,47.10622221,586.69
-99.25539508,47.10622267,586.70
-99.25495839,47.10622366,585.97
-99.25470882,47.10622421,586.12
-99.25443583,47.10622484,585.66
-99.25384505,47.10622611,585.25
-99.25352107,47.10622689,584.89
-99.25314050,47.10622767,584.02
-99.25257281,47.10622892,583.87
-99.25215827,47.10622988,583.75
-99.25172634,47.10623079,584.17
-99.25138277,47.10623154,583.80
-99.25124787,47.10623185,583.64
-99.25060813,47.10623324,582.58
-99.25050701,47.10623527,582.17
-99.25042702,47.10623689,582.00
-99.25041638,47.10623711,581.98
-99.25041322,47.10624327,581.92
-99.25041312,47.10626328,581.95
-99.25041492,47.10668753,582.36
-99.25041596,47.10691640,583.27
-99.25041753,47.10724962,584.27
-99.25041952,47.10766511,584.63
-99.25042078,47.10794555,584.00
-99.25042238,47.10828551,582.00
-99.25042424,47.10868579,581.72
-99.25042625,47.10911070,582.87
-99.25042691,47.10925530,582.67
-99.25042812,47.10950772,583.31
-99.25042972,47.10983446,581.96
-99.25043083,47.11008661,582.27
-99.25043289,47.11052990,581.95
-99.25043439,47.11084989,582.99
-99.25043647,47.11128772,583.78
-99.25043747,47.11149371,585.50
-99.25043892,47.11181498,585.41
-99.25044048,47.11211177,585.76
-99.25044232,47.11252493,587.26
-99.25044361,47.11280924,586.56
-99.25044412,47.11291562,586.47
-99.25044606,47.11332298,586.77
-99.25044713,47.11355357,586.75
-99.25044875,47.11389051,587.56
-99.25044963,47.11409099,587.71
-99.25045000,47.11417437,587.69
-99.25045045,47.11426161,587.27
-99.25045151,47.11446992,588.33
-99.25045307,47.11482026,588.63
-99.25045334,47.11488354,588.52
-99.25045497,47.11519279,587.93
-99.25045548,47.11521461,587.98
-99.25045689,47.11523202,587.98
     </coordinates>
    </LineString>
   </MultiGeometry>
  </Placemark>
 </Document>
</kml>
