<kml>
 <Document>
  <Style id="yellow">
   <LineStyle>
   <color>ff00ffff</color>
   <width>1</width>
   </LineStyle>
  </Style>
  <Style id="red">
   <LineStyle>
   <color>ffff0000</color>
   <width>2</width>
   </LineStyle>
  </Style>
  <Style id="green">
   <LineStyle>
   <color>ff00ff00</color>
   <width>1</width>
   </LineStyle>
  </Style>
  <Placemark>
  <styleUrl>#yellow</styleUrl>
   <MultiGeometry>
    <LineString>
     <coordinates>
-99.09308973,35.40534700,521.64
-99.09333588,35.40534681,521.34
-99.09351176,35.40534667,521.18
-99.09362343,35.40534659,520.93
-99.09372310,35.40534651,520.67
-99.09377762,35.40534647,520.48
-99.09392332,35.40534635,519.82
-99.09398103,35.40534631,519.74
-99.09418511,35.40534615,519.17
-99.09424172,35.40534610,518.97
-99.09438720,35.40534599,518.71
-99.09454778,35.40534587,518.48
-99.09463522,35.40534580,518.33
-99.09471375,35.40534573,517.97
-99.09484756,35.40534563,517.16
-99.09488225,35.40534560,516.85
-99.09507531,35.40534545,516.23
-99.09513512,35.40534540,515.92
-99.09534095,35.40534524,514.81
-99.09539976,35.40534520,514.37
-99.09562840,35.40534501,512.10
-99.09583545,35.40534485,513.89
-99.09603193,35.40534469,514.47
-99.09627312,35.40534450,515.33
-99.09649966,35.40534432,515.59
-99.09679592,35.40534408,514.26
-99.09707984,35.40534386,512.41
-99.09731387,35.40534367,510.44
-99.09757312,35.40534346,512.04
-99.09781542,35.40534326,512.56
-99.09808546,35.40534304,512.59
-99.09812148,35.40534302,512.58
-99.09818260,35.40534297,512.39
-99.09838326,35.40534280,511.96
-99.09868128,35.40534256,510.69
-99.09871828,35.40534253,510.42
-99.09899659,35.40534230,509.91
-99.09899934,35.40534230,508.90
-99.09900804,35.40534229,509.12
-99.09907798,35.40534214,506.79
-99.09911961,35.40534085,507.02
-99.09911959,35.40532552,506.98
-99.09911949,35.40524500,506.59
-99.09911941,35.40518368,506.67
-99.09911936,35.40513680,507.01
-99.09911915,35.40496981,506.65
-99.09911910,35.40492680,507.63
-99.09911909,35.40491850,507.93
-99.09911904,35.40487585,509.60
-99.09911887,35.40474258,509.82
-99.09911834,35.40439399,509.44
-99.09911812,35.40412745,509.07
-99.09911808,35.40409012,509.67
-99.09911802,35.40404369,509.33
-99.09911793,35.40397092,508.94
-99.09911757,35.40367824,509.40
-99.09911733,35.40347770,506.11
-99.09911732,35.40347193,506.07
-99.09911722,35.40338979,505.24
-99.09911716,35.40334479,504.88
-99.09911715,35.40333307,504.77
-99.09911705,35.40325571,503.70
-99.09911692,35.40314408,506.78
-99.09911690,35.40312902,503.31
-99.09911683,35.40307203,502.13
-99.09911663,35.40290567,502.74
-99.09911658,35.40286726,505.24
-99.09911649,35.40279459,505.58
-99.09911647,35.40277773,505.98
-99.09911646,35.40277114,503.50
-99.09911635,35.40268305,506.17
-99.09911634,35.40267538,504.73
-99.09911633,35.40266492,509.23
-99.09911632,35.40265600,505.66
-99.09911620,35.40255826,505.43
-99.09911619,35.40254626,501.87
-99.09911609,35.40246619,504.54
-99.09911606,35.40244410,504.88
-99.09911581,35.40224204,504.24
-99.09911567,35.40212707,504.42
-99.09911567,35.40212680,504.38
-99.09911564,35.40209650,504.32
-99.09911547,35.40196089,503.56
-99.09911542,35.40192248,503.34
-99.09911539,35.40189894,510.47
-99.09911536,35.40187018,503.18
-99.09911522,35.40175441,502.00
-99.09911521,35.40175170,502.16
-99.09911507,35.40163529,501.82
-99.09911496,35.40154278,501.69
-99.09911494,35.40152700,507.04
-99.09911490,35.40149743,501.64
-99.09911490,35.40149517,501.67
-99.09911478,35.40139508,505.98
-99.09911475,35.40137002,506.00
-99.09911468,35.40131745,502.04
-99.09911444,35.40111583,505.32
-99.09911433,35.40103053,500.57
-99.09911429,35.40099943,500.45
-99.09911400,35.40075796,504.89
-99.09911398,35.40074686,500.63
-99.09911394,35.40071458,500.60
-99.09911387,35.40065246,500.58
-99.09911380,35.40059493,500.92
-99.09911379,35.40058609,501.02
-99.09911378,35.40058077,501.07
-99.09911376,35.40056085,500.93
-99.09911371,35.40052027,500.84
-99.09911358,35.40041342,501.32
-99.09911358,35.40041333,501.29
-99.09911354,35.40038673,501.36
-99.09911348,35.40033876,501.35
-99.09911341,35.40027925,501.18
-99.09911338,35.40025337,501.30
-99.09911335,35.40022840,501.37
-99.09911333,35.40021424,501.45
-99.09911330,35.40019242,501.49
-99.09911311,35.40002967,501.88
-99.09911292,35.39987836,502.26
-99.09911291,35.39987106,502.27
-99.09911288,35.39984933,502.24
-99.09911271,35.39970713,502.50
-99.09911269,35.39968712,502.40
-99.09911264,35.39964627,502.32
-99.09911255,35.39957729,502.17
-99.09911255,35.39957179,502.15
-99.09911247,35.39951075,501.92
-99.09911243,35.39947603,501.63
-99.09911242,35.39947297,501.61
-99.09911240,35.39945710,501.49
-99.09911236,35.39942175,501.23
-99.09911234,35.39940363,500.81
-99.09911233,35.39939236,500.60
-99.09911224,35.39932040,499.85
-99.09911221,35.39930020,499.62
-99.09911219,35.39928064,499.43
-99.09911204,35.39915521,498.07
-99.09911203,35.39915016,498.04
-99.09911185,35.39900319,497.63
-99.09911179,35.39895242,497.61
-99.09911165,35.39884395,497.60
-99.09911137,35.39861114,497.31
-99.09911130,35.39855145,497.18
-99.09911113,35.39841809,497.60
-99.09911094,35.39826092,497.99
-99.09911052,35.39791964,502.87
-99.09911051,35.39790692,502.89
-99.09911041,35.39782424,503.13
-99.09911037,35.39779169,503.25
-99.09911004,35.39752641,503.93
-99.09910987,35.39738494,503.64
-99.09910976,35.39729955,503.37
-99.09910969,35.39724238,503.12
-99.09910956,35.39713084,502.58
-99.09910940,35.39700470,502.05
-99.09910937,35.39697810,502.01
-99.09910936,35.39697016,501.94
-99.09910929,35.39691552,501.78
-99.09910923,35.39686620,501.64
-99.09910906,35.39672148,501.20
-99.09910881,35.39652212,500.59
-99.09910880,35.39650949,500.65
-99.09910870,35.39642879,500.36
-99.09910867,35.39640147,500.25
-99.09910865,35.39639200,500.15
-99.09910827,35.39634692,500.25
-99.09910792,35.39633042,500.17
-99.09910725,35.39632591,500.12
-99.09909734,35.39632565,500.09
-99.09909283,35.39632556,500.02
-99.09897731,35.39632557,499.22
-99.09892302,35.39632561,499.02
-99.09881235,35.39632570,498.75
-99.09868064,35.39632581,498.93
-99.09863296,35.39632585,498.84
-99.09846899,35.39632598,497.89
-99.09834929,35.39632608,497.51
-99.09814810,35.39632624,497.15
-99.09790892,35.39632644,496.25
-99.09781939,35.39632651,495.83
-99.09762756,35.39632667,495.64
-99.09754695,35.39632673,495.77
-99.09743122,35.39632682,496.77
-99.09718653,35.39632702,499.58
-99.09712420,35.39632707,500.56
-99.09704635,35.39632713,502.42
-99.09696486,35.39632720,503.95
-99.09657107,35.39632752,505.63
-99.09624819,35.39632786,507.20
-99.09593402,35.39632802,509.89
-99.09586255,35.39632808,509.53
-99.09579879,35.39632813,509.21
-99.09572512,35.39632819,509.00
-99.09556214,35.39632832,508.54
-99.09548858,35.39632838,508.35
-99.09525678,35.39632856,508.23
-99.09517573,35.39632862,507.85
-99.09506264,35.39632871,507.51
-99.09493302,35.39632881,507.15
-99.09488413,35.39632885,507.46
-99.09479780,35.39632892,507.50
-99.09472809,35.39632897,507.63
-99.09465904,35.39632903,507.74
-99.09462480,35.39632906,507.75
-99.09456886,35.39632910,507.76
-99.09428111,35.39632932,508.14
-99.09411274,35.39632946,507.91
-99.09399149,35.39632955,507.36
-99.09392994,35.39632960,506.55
-99.09386529,35.39632965,506.18
-99.09381189,35.39632969,505.70
-99.09377467,35.39632972,505.45
-99.09372445,35.39632976,504.98
-99.09362611,35.39632983,504.32
-99.09338165,35.39633002,503.01
-99.09333694,35.39633006,502.80
-99.09328948,35.39633009,502.63
-99.09322307,35.39633015,502.20
-99.09308873,35.39633025,502.21
-99.09304336,35.39633028,501.71
-99.09281089,35.39633046,500.10
-99.09277918,35.39633049,499.69
-99.09245091,35.39633074,502.24
-99.09207848,35.39633102,504.42
-99.09168777,35.39633132,505.70
-99.09125390,35.39633165,506.81
-99.09090878,35.39633191,508.02
-99.09054098,35.39633219,507.70
-99.09046103,35.39633225,507.22
-99.09008860,35.39633252,506.41
-99.09003442,35.39633256,506.23
-99.08991792,35.39633265,505.99
-99.08978126,35.39633275,506.34
-99.08960550,35.39633288,506.97
-99.08948756,35.39633297,507.38
-99.08900270,35.39633333,509.10
-99.08894841,35.39633337,509.62
-99.08885569,35.39633344,509.66
-99.08871066,35.39633354,509.55
-99.08836158,35.39633380,508.74
-99.08835663,35.39633380,508.77
-99.08823186,35.39633389,508.36
-99.08822239,35.39633417,508.37
-99.08820389,35.39633473,508.29
-99.08817074,35.39633574,508.22
-99.08811425,35.39633750,508.05
-99.08810038,35.39633796,508.02
-99.08809873,35.39634184,508.01
-99.08809700,35.39637349,508.00
-99.08809670,35.39639314,507.96
-99.08809685,35.39653074,507.85
-99.08809692,35.39659819,507.77
-99.08809704,35.39670585,507.60
-99.08809706,35.39672298,507.59
-99.08809708,35.39674300,507.47
-99.08809718,35.39684047,507.12
-99.08809724,35.39688997,506.92
-99.08809727,35.39692234,506.76
-99.08809732,35.39696634,506.54
-99.08809732,35.39696959,506.52
-99.08809743,35.39706589,506.05
-99.08809743,35.39706959,506.05
-99.08809766,35.39727679,506.47
-99.08809779,35.39739753,504.84
-99.08809784,35.39744487,504.20
-99.08809828,35.39785342,506.43
-99.08809829,35.39785829,506.44
-99.08809840,35.39795594,506.80
-99.08809862,35.39816044,507.69
-99.08809864,35.39817658,507.72
-99.08809879,35.39831373,508.19
-99.08809900,35.39850777,509.21
-99.08809962,35.39887872,510.35
-99.08809975,35.39920387,511.00
-99.08809978,35.39922668,511.02
-99.08809997,35.39940666,511.32
-99.08810045,35.39974182,511.62
-99.08810084,35.39999708,511.67
-99.08810091,35.40026569,511.38
-99.08810098,35.40033179,511.24
-99.08810129,35.40061474,510.98
-99.08810178,35.40096964,510.12
-99.08810188,35.40115773,509.34
-99.08810197,35.40124032,509.10
-99.08810216,35.40141985,509.36
-99.08810227,35.40151407,509.46
-99.08810252,35.40174509,508.97
-99.08810289,35.40198764,507.87
-99.08810306,35.40224236,506.95
-99.08810310,35.40228267,507.04
-99.08810340,35.40255525,508.40
-99.08810340,35.40255849,508.43
-99.08810349,35.40263829,509.25
-99.08810383,35.40284721,510.39
-99.08810398,35.40309022,510.68
-99.08810429,35.40337641,510.71
-99.08810458,35.40353637,511.21
-99.08810484,35.40387991,510.30
-99.08810500,35.40402625,510.46
-99.08810501,35.40403293,510.39
-99.08810511,35.40412733,509.29
-99.08810532,35.40431669,508.88
-99.08810576,35.40472136,509.73
-99.08810586,35.40481676,509.59
-99.08810599,35.40493677,509.93
-99.08810602,35.40496644,510.08
-99.08810604,35.40497951,510.22
-99.08810606,35.40499989,510.31
-99.08810616,35.40509547,510.77
-99.08810624,35.40516436,511.44
-99.08810631,35.40523045,512.82
-99.08810650,35.40530745,513.32
-99.08810664,35.40533324,513.44
-99.08810831,35.40534992,513.55
-99.08816008,35.40535061,513.60
-99.08816900,35.40535069,513.64
-99.08848376,35.40535046,512.96
-99.08858750,35.40535038,511.82
-99.08861360,35.40535036,511.58
-99.08868255,35.40535031,510.12
-99.08875435,35.40535026,509.66
-99.08884774,35.40535019,509.29
-99.08909896,35.40535001,511.48
-99.08923607,35.40534991,513.33
-99.08929455,35.40534986,512.92
-99.08929929,35.40534986,512.98
-99.08947495,35.40534973,512.31
-99.08963189,35.40534961,511.63
-99.09005260,35.40534930,514.99
-99.09006273,35.40534929,515.04
-99.09006780,35.40534929,515.05
-99.09047617,35.40534898,516.27
-99.09070183,35.40534881,517.21
-99.09097793,35.40534861,517.82
-99.09098311,35.40534860,517.87
-99.09098796,35.40534860,517.87
-99.09131450,35.40534826,519.01
-99.09155547,35.40534817,519.76
-99.09176681,35.40534801,520.37
-99.09214699,35.40534772,521.04
-99.09227871,35.40534762,521.22
-99.09277750,35.40534724,521.75
-99.09308973,35.40534700,521.64
     </coordinates>
    </LineString>
   </MultiGeometry>
  </Placemark>
 </Document>
</kml>
