<kml>
 <Document>
  <Style id="yellow">
   <LineStyle>
   <color>ff00ffff</color>
   <width>1</width>
   </LineStyle>
  </Style>
  <Style id="red">
   <LineStyle>
   <color>ffff0000</color>
   <width>2</width>
   </LineStyle>
  </Style>
  <Style id="green">
   <LineStyle>
   <color>ff00ff00</color>
   <width>1</width>
   </LineStyle>
  </Style>
  <Placemark>
  <styleUrl>#yellow</styleUrl>
   <MultiGeometry>
    <LineString>
     <coordinates>
-99.08208165,35.36027064,499.61
-99.08222706,35.36027054,496.63
-99.08239866,35.36027043,494.66
-99.08258523,35.36027030,494.24
-99.08272007,35.36027021,494.29
-99.08288760,35.36027009,493.58
-99.08322375,35.36026986,494.36
-99.08335793,35.36026977,496.24
-99.08347791,35.36026969,497.26
-99.08367879,35.36026955,498.42
-99.08381352,35.36026945,499.57
-99.08410400,35.36026925,502.98
-99.08419525,35.36026919,503.23
-99.08430598,35.36026911,503.65
-99.08430752,35.36026911,503.69
-99.08442948,35.36026902,504.02
-99.08451776,35.36026896,504.25
-99.08459987,35.36026891,504.52
-99.08467813,35.36026885,504.67
-99.08485810,35.36026872,505.17
-99.08489420,35.36026870,505.37
-99.08498842,35.36026863,505.71
-99.08503366,35.36026860,505.91
-99.08503872,35.36026860,505.86
-99.08512579,35.36026854,506.34
-99.08526822,35.36026844,507.06
-99.08537477,35.36026836,509.11
-99.08540989,35.36026834,510.09
-99.08550774,35.36026827,510.44
-99.08561693,35.36026819,509.46
-99.08562221,35.36026819,509.41
-99.08565909,35.36026816,509.37
-99.08586558,35.36026801,510.31
-99.08587054,35.36026801,510.31
-99.08605733,35.36026788,511.00
-99.08606195,35.36026787,511.01
-99.08624258,35.36026774,511.08
-99.08632568,35.36026768,510.34
-99.08648958,35.36026757,509.86
-99.08657741,35.36026751,510.19
-99.08668617,35.36026743,510.72
-99.08684192,35.36026732,510.60
-99.08701660,35.36026719,510.78
-99.08717136,35.36026708,511.21
-99.08733614,35.36026696,511.51
-99.08747692,35.36026686,511.78
-99.08763146,35.36026675,512.29
-99.08792887,35.36026653,511.88
-99.08793339,35.36026644,511.95
-99.08796189,35.36026569,511.86
-99.08797598,35.36026532,511.83
-99.08801429,35.36026430,511.74
-99.08805193,35.36026328,511.71
-99.08805655,35.36026310,511.69
-99.08805710,35.36025949,511.70
-99.08805729,35.36023280,511.67
-99.08805721,35.36015968,511.46
-99.08805710,35.36005382,511.18
-99.08805702,35.35998682,510.96
-99.08805702,35.35998195,510.91
-99.08805679,35.35986960,510.54
-99.08805641,35.35941921,508.48
-99.08805627,35.35929685,508.06
-99.08805621,35.35923707,507.93
-99.08805613,35.35916142,507.76
-99.08805607,35.35911020,507.59
-99.08805604,35.35908513,507.52
-99.08805602,35.35906403,507.52
-99.08805584,35.35890020,507.03
-99.08805578,35.35883915,506.81
-99.08805537,35.35846071,505.68
-99.08805512,35.35823277,505.85
-99.08805471,35.35785496,507.54
-99.08805441,35.35758220,508.45
-99.08805425,35.35742909,507.77
-99.08805378,35.35700313,504.76
-99.08805371,35.35693641,504.29
-99.08805357,35.35681008,503.54
-99.08805345,35.35669250,500.20
-99.08805332,35.35657663,499.08
-99.08805330,35.35656211,503.80
-99.08805325,35.35651225,499.17
-99.08805293,35.35622019,503.66
-99.08805290,35.35619143,504.03
-99.08805285,35.35614490,504.31
-99.08805270,35.35600162,505.22
-99.08805227,35.35571245,507.13
-99.08805219,35.35553644,507.89
-99.08805186,35.35522879,508.97
-99.08805171,35.35509281,509.63
-99.08805155,35.35494890,510.32
-99.08805112,35.35455279,510.02
-99.08805085,35.35429671,509.26
-99.08805080,35.35425081,509.03
-99.08805073,35.35418905,508.87
-99.08805068,35.35414351,508.70
-99.08805045,35.35393567,507.79
-99.08805034,35.35382837,507.24
-99.08805022,35.35372152,506.71
-99.08804997,35.35349447,504.14
-99.08804990,35.35342937,503.09
-99.08804970,35.35323731,501.60
-99.08804956,35.35311631,501.06
-99.08804908,35.35266591,499.03
-99.08804867,35.35229441,497.39
-99.08804861,35.35223472,497.00
-99.08804850,35.35213527,496.42
-99.08804812,35.35178117,493.64
-99.08804782,35.35150841,492.55
-99.08804771,35.35140400,492.30
-99.08804750,35.35131148,492.15
-99.08804712,35.35126946,492.10
-99.08804535,35.35125792,492.11
-99.08804402,35.35125044,492.06
-99.08803940,35.35125035,492.04
-99.08802982,35.35125027,492.05
-99.08796687,35.35124986,492.03
-99.08793836,35.35124971,492.02
-99.08793352,35.35124971,492.02
-99.08749251,35.35125003,492.04
-99.08748778,35.35125003,492.04
-99.08696015,35.35125068,491.42
-99.08693627,35.35125052,491.36
-99.08692218,35.35125044,491.38
-99.08691734,35.35125044,491.37
-99.08652531,35.35125073,490.20
-99.08649900,35.35125074,490.18
-99.08649405,35.35125075,490.20
-99.08648943,35.35125075,490.18
-99.08646731,35.35125077,492.63
-99.08643088,35.35125079,495.52
-99.08641767,35.35125080,496.53
-99.08640898,35.35125081,497.89
-99.08640391,35.35125081,497.81
-99.08603246,35.35125108,493.52
-99.08602817,35.35125108,493.41
-99.08589962,35.35125117,490.62
-99.08589445,35.35125118,490.60
-99.08587299,35.35125119,492.92
-99.08585934,35.35125120,493.56
-99.08585119,35.35125121,494.80
-99.08583414,35.35125122,498.43
-99.08582588,35.35125122,497.92
-99.08582445,35.35125122,496.52
-99.08582060,35.35125123,497.09
-99.08581201,35.35125123,498.09
-99.08580695,35.35125124,497.94
-99.08579793,35.35125124,498.41
-99.08577393,35.35125126,494.99
-99.08547963,35.35125147,493.82
-99.08542284,35.35125151,497.88
-99.08536077,35.35125155,504.00
-99.08527735,35.35125161,502.52
-99.08527283,35.35125162,502.35
-99.08522969,35.35125165,499.87
-99.08517752,35.35125168,496.74
-99.08505536,35.35125177,489.71
-99.08496026,35.35125184,502.20
-99.08486627,35.35125190,500.84
-99.08486187,35.35125190,501.19
-99.08460092,35.35125209,492.00
-99.08457671,35.35125210,494.72
-99.08457154,35.35125211,494.60
-99.08456779,35.35125211,495.05
-99.08455635,35.35125212,496.54
-99.08448613,35.35125217,493.88
-99.08443286,35.35125220,490.96
-99.08442384,35.35125221,490.29
-99.08431719,35.35125229,496.89
-99.08429925,35.35125230,495.70
-99.08426832,35.35125232,494.09
-99.08426667,35.35125232,486.97
-99.08422529,35.35125235,490.57
-99.08421263,35.35125236,491.40
-99.08420911,35.35125236,492.09
-99.08419205,35.35125237,493.17
-99.08410951,35.35125243,499.98
-99.08410169,35.35125244,500.82
-99.08409586,35.35125244,501.68
-99.08409300,35.35125244,501.32
-99.08401078,35.35125250,497.10
-99.08389918,35.35125258,487.04
-99.08385406,35.35125261,491.01
-99.08385131,35.35125261,491.69
-99.08382093,35.35125263,486.51
-99.08376898,35.35125267,500.94
-99.08376458,35.35125267,500.61
-99.08376029,35.35125267,500.43
-99.08357352,35.35125280,485.82
-99.08356845,35.35125281,485.87
-99.08355074,35.35125282,488.85
-99.08354545,35.35125282,488.32
-99.08348657,35.35125286,485.14
-99.08326271,35.35125302,492.88
-99.08289621,35.35125327,490.81
-99.08282027,35.35125332,486.54
-99.08280156,35.35125333,485.52
-99.08267367,35.35125342,495.85
-99.08247590,35.35125356,485.27
-99.08221329,35.35125373,488.45
-99.08220350,35.35125374,488.03
-99.08212899,35.35125379,484.06
-99.08188785,35.35125396,484.82
-99.08173542,35.35125406,496.26
-99.08170548,35.35125408,491.50
-99.08140458,35.35125428,484.09
-99.08136166,35.35125431,484.35
-99.08135120,35.35125432,484.51
-99.08134559,35.35125432,484.52
-99.08134096,35.35125433,484.45
-99.08133513,35.35125433,484.58
-99.08133040,35.35125433,484.52
-99.08132478,35.35125434,484.70
-99.08126205,35.35125438,485.46
-99.08113042,35.35125447,497.83
-99.08112514,35.35125447,497.70
-99.08087112,35.35125464,488.01
-99.08086584,35.35125464,488.05
-99.08081950,35.35125467,488.36
-99.08076172,35.35125471,496.98
-99.08075050,35.35125472,496.44
-99.08069018,35.35125476,493.31
-99.08066619,35.35125478,504.52
-99.08066080,35.35125478,504.64
-99.08065893,35.35125478,504.68
-99.08065529,35.35125478,504.76
-99.08057902,35.35125484,487.80
-99.08030321,35.35125502,502.30
-99.08025600,35.35125505,492.95
-99.08010148,35.35125515,492.25
-99.08001277,35.35125521,495.05
-99.08000198,35.35125522,487.29
-99.07999296,35.35125522,495.00
-99.07998228,35.35125523,495.30
-99.07997271,35.35125524,495.39
-99.07995400,35.35125525,497.90
-99.07994277,35.35125526,497.38
-99.07988356,35.35125530,496.09
-99.07987883,35.35125530,496.14
-99.07987420,35.35125530,496.03
-99.07987211,35.35125530,493.99
-99.07974158,35.35125539,497.18
-99.07973674,35.35125539,497.06
-99.07971803,35.35125541,497.23
-99.07971253,35.35125541,497.40
-99.07941250,35.35125561,487.87
-99.07929749,35.35125568,487.90
-99.07929243,35.35125569,487.91
-99.07928781,35.35125569,487.89
-99.07928263,35.35125569,487.91
-99.07927812,35.35125570,487.90
-99.07927339,35.35125570,487.90
-99.07926888,35.35125570,487.89
-99.07920779,35.35125574,491.77
-99.07892945,35.35125592,490.69
-99.07881895,35.35125600,491.77
-99.07879958,35.35125619,491.38
-99.07845741,35.35125849,487.45
-99.07842406,35.35125860,487.45
-99.07839567,35.35125871,487.39
-99.07836199,35.35125882,487.41
-99.07830443,35.35125904,487.32
-99.07778506,35.35125667,486.89
-99.07777988,35.35125667,486.88
-99.07777526,35.35125667,486.87
-99.07777042,35.35125668,486.87
-99.07744783,35.35125688,486.63
-99.07707848,35.35125712,486.50
-99.07704392,35.35125930,486.45
-99.07704172,35.35126111,486.49
-99.07704172,35.35126607,486.50
-99.07704179,35.35133884,486.38
-99.07704188,35.35142711,486.36
-99.07704201,35.35157219,486.46
-99.07704209,35.35164649,486.33
-99.07704223,35.35180294,486.36
-99.07704234,35.35191177,486.40
-99.07704253,35.35211222,486.23
-99.07704254,35.35212971,486.13
-99.07704260,35.35219003,486.00
-99.07704286,35.35245639,486.14
-99.07704291,35.35251473,486.04
-99.07704295,35.35255603,486.03
-99.07704298,35.35259282,486.04
-99.07704300,35.35260950,486.17
-99.07704304,35.35264989,486.22
-99.07704312,35.35273790,486.02
-99.07704328,35.35290192,486.97
-99.07704329,35.35291039,486.70
-99.07704337,35.35300047,493.64
-99.07704348,35.35311580,494.79
-99.07704354,35.35317495,487.88
-99.07704358,35.35322157,498.82
-99.07704362,35.35326656,498.33
-99.07704363,35.35327792,497.35
-99.07704371,35.35336187,486.44
-99.07704378,35.35343256,486.31
-99.07704379,35.35344194,498.14
-99.07704379,35.35344401,498.38
-99.07704382,35.35347539,486.12
-99.07704383,35.35348197,489.45
-99.07704386,35.35350948,500.50
-99.07704389,35.35354085,500.02
-99.07704393,35.35358558,495.06
-99.07704394,35.35359919,495.93
-99.07704398,35.35363797,482.84
-99.07704398,35.35364482,490.84
-99.07704400,35.35365970,489.67
-99.07704406,35.35372777,486.52
-99.07704415,35.35381659,494.04
-99.07704418,35.35384752,489.56
-99.07704420,35.35386790,493.55
-99.07704431,35.35398683,488.53
-99.07704435,35.35403453,488.99
-99.07704450,35.35418800,489.54
-99.07704450,35.35418953,489.57
-99.07704452,35.35421090,489.77
-99.07704461,35.35430774,490.00
-99.07704470,35.35440395,490.51
-99.07704479,35.35449042,490.69
-99.07704482,35.35452225,490.81
-99.07704501,35.35472378,491.29
-99.07704507,35.35478699,491.47
-99.07704522,35.35494416,492.02
-99.07704536,35.35509447,492.03
-99.07704542,35.35516254,491.74
-99.07704545,35.35519131,491.61
-99.07704587,35.35563043,489.04
-99.07704588,35.35563656,489.00
-99.07704599,35.35575739,488.23
-99.07704618,35.35595603,492.07
-99.07704619,35.35596965,490.26
-99.07704620,35.35598254,493.89
-99.07704624,35.35601726,485.85
-99.07704627,35.35605630,490.12
-99.07704628,35.35605900,492.19
-99.07704631,35.35609300,488.53
-99.07704632,35.35610544,489.06
-99.07704633,35.35611879,493.11
-99.07704634,35.35612537,488.74
-99.07704636,35.35614999,486.52
-99.07704637,35.35616008,486.47
-99.07704637,35.35616045,487.89
-99.07704638,35.35616324,487.93
-99.07704641,35.35619868,486.74
-99.07704642,35.35620670,486.80
-99.07704645,35.35624674,488.65
-99.07704653,35.35633050,490.40
-99.07704654,35.35633456,486.56
-99.07704658,35.35638046,486.89
-99.07704662,35.35642356,496.81
-99.07704663,35.35643465,498.37
-99.07704665,35.35644980,496.71
-99.07704668,35.35648460,493.92
-99.07704669,35.35649209,494.01
-99.07704669,35.35649218,496.34
-99.07704669,35.35649353,489.68
-99.07704673,35.35653257,493.35
-99.07704677,35.35658072,494.05
-99.07704680,35.35660931,494.35
-99.07704682,35.35663491,487.35
-99.07704683,35.35663762,494.68
-99.07704684,35.35665394,494.33
-99.07704689,35.35670371,487.41
-99.07704689,35.35670921,487.51
-99.07704690,35.35671066,492.91
-99.07704691,35.35672860,494.40
-99.07704695,35.35677332,496.99
-99.07704699,35.35680597,492.22
-99.07704709,35.35691850,491.46
-99.07704712,35.35694888,497.72
-99.07704716,35.35699045,487.18
-99.07704729,35.35712832,493.30
-99.07704736,35.35720018,489.31
-99.07704745,35.35729468,489.89
-99.07704748,35.35732191,495.69
-99.07704749,35.35733787,492.53
-99.07704752,35.35736555,496.25
-99.07704754,35.35738765,490.35
-99.07704759,35.35743661,488.76
-99.07704761,35.35745834,501.40
-99.07704761,35.35746726,493.91
-99.07704763,35.35748548,488.93
-99.07704764,35.35749684,490.24
-99.07704765,35.35750342,488.43
-99.07704767,35.35752173,497.74
-99.07704767,35.35752326,493.70
-99.07704768,35.35753417,500.61
-99.07704774,35.35760126,497.68
-99.07704774,35.35760441,491.64
-99.07704775,35.35760703,495.29
-99.07704775,35.35761135,488.77
-99.07704776,35.35762073,493.04
-99.07704787,35.35773362,491.18
-99.07704797,35.35784246,496.70
-99.07704798,35.35784922,498.97
-99.07704810,35.35798132,490.18
-99.07704823,35.35811351,493.88
-99.07704828,35.35816779,490.22
-99.07704838,35.35827265,490.13
-99.07704841,35.35830584,490.11
-99.07704844,35.35833604,490.13
-99.07704857,35.35847157,490.23
-99.07704859,35.35849708,490.29
-99.07704863,35.35853613,490.24
-99.07704865,35.35856246,490.19
-99.07704871,35.35862549,490.21
-99.07704875,35.35866381,490.35
-99.07704875,35.35866669,490.33
-99.07704876,35.35867697,490.48
-99.07704877,35.35868148,490.55
-99.07704877,35.35868202,490.52
-99.07704880,35.35871836,490.47
-99.07704884,35.35876038,490.49
-99.07704907,35.35900257,491.01
-99.07704911,35.35903945,491.16
-99.07704915,35.35908931,491.43
-99.07704917,35.35910888,491.55
-99.07704923,35.35916524,491.52
-99.07704941,35.35936235,492.29
-99.07704947,35.35942213,492.87
-99.07704955,35.35950490,492.90
-99.07704956,35.35951879,493.05
-99.07704967,35.35962852,493.63
-99.07704972,35.35968443,493.91
-99.07704976,35.35972618,494.42
-99.07704994,35.35991490,494.95
-99.07705026,35.36025421,496.96
-99.07705028,35.36027125,496.86
-99.07717620,35.36027378,497.05
-99.07723278,35.36027384,497.07
-99.07723795,35.36027383,497.06
-99.07764412,35.36027357,497.31
-99.07764896,35.36027357,497.32
-99.07816872,35.36027324,497.07
-99.07817378,35.36027323,497.11
-99.07854362,35.36027299,496.16
-99.07854835,35.36027299,496.16
-99.07902210,35.36027268,494.31
-99.07902706,35.36027268,494.30
-99.07940647,35.36027243,493.83
-99.07954263,35.36027234,493.98
-99.07954747,35.36027234,493.98
-99.07963509,35.36027228,493.75
-99.07985369,35.36027213,493.92
-99.07987714,35.36027212,491.66
-99.07994901,35.36027207,491.64
-99.07995067,35.36027207,493.54
-99.07995364,35.36027207,491.68
-99.07998677,35.36027205,492.22
-99.08018875,35.36027191,493.01
-99.08029343,35.36027184,496.16
-99.08044995,35.36027174,497.00
-99.08045380,35.36027174,497.48
-99.08046019,35.36027173,492.11
-99.08046503,35.36027173,492.17
-99.08058006,35.36027165,492.19
-99.08075892,35.36027153,495.70
-99.08076277,35.36027153,495.34
-99.08095375,35.36027140,492.28
-99.08101043,35.36027136,492.14
-99.08101539,35.36027136,492.12
-99.08106250,35.36027133,492.10
-99.08118556,35.36027125,492.14
-99.08143410,35.36027108,494.00
-99.08154516,35.36027100,494.72
-99.08155012,35.36027100,494.79
-99.08157224,35.36027099,495.11
-99.08163872,35.36027094,496.74
-99.08187340,35.36027078,502.21
-99.08207141,35.36027065,499.75
-99.08207604,35.36027065,499.73
-99.08208165,35.36027064,499.61
     </coordinates>
    </LineString>
   </MultiGeometry>
  </Placemark>
 </Document>
</kml>
