<kml>
 <Document>
  <Style id="yellow">
   <LineStyle>
   <color>ff00ffff</color>
   <width>1</width>
   </LineStyle>
  </Style>
  <Style id="red">
   <LineStyle>
   <color>ffff0000</color>
   <width>2</width>
   </LineStyle>
  </Style>
  <Style id="green">
   <LineStyle>
   <color>ff00ff00</color>
   <width>1</width>
   </LineStyle>
  </Style>
  <Placemark>
  <styleUrl>#yellow</styleUrl>
   <MultiGeometry>
    <LineString>
     <coordinates>
-99.12114144,35.40210492,522.53
-99.12114171,35.40228282,518.70
-99.12114173,35.40229247,518.53
-99.12114193,35.40235712,516.49
-99.12114219,35.40238345,516.22
-99.12114243,35.40239264,516.08
-99.12114891,35.40275060,516.15
-99.12114288,35.40299001,516.12
-99.12114282,35.40302707,516.22
-99.12114290,35.40307531,516.55
-99.12114293,35.40309929,516.78
-99.12114324,35.40330542,518.03
-99.12114350,35.40347529,518.06
-99.12114354,35.40350784,518.51
-99.12114368,35.40359855,518.64
-99.12114372,35.40362227,518.67
-99.12114373,35.40362975,518.68
-99.12114384,35.40370621,518.55
-99.12114404,35.40384300,518.39
-99.12114419,35.40394227,518.30
-99.12114428,35.40400142,518.27
-99.12114431,35.40402343,518.32
-99.12114461,35.40421972,518.46
-99.12114482,35.40435894,518.73
-99.12114492,35.40443117,518.65
-99.12114499,35.40447400,518.57
-99.12114499,35.40447535,518.57
-99.12114519,35.40460519,518.55
-99.12114520,35.40461186,518.53
-99.12114539,35.40474261,518.30
-99.12114539,35.40474306,518.31
-99.12114551,35.40482376,518.46
-99.12114552,35.40482926,518.45
-99.12114556,35.40485487,522.39
-99.12114559,35.40487281,518.36
-99.12114576,35.40498732,518.39
-99.12114606,35.40519255,518.41
-99.12114608,35.40520309,518.45
-99.12114609,35.40520670,518.43
-99.12114613,35.40523880,518.48
-99.12114618,35.40527289,518.51
-99.12114621,35.40529191,518.51
-99.12114637,35.40532149,518.61
-99.12117522,35.40532191,518.38
-99.12130485,35.40532196,517.02
-99.12134560,35.40532192,516.83
-99.12147478,35.40532179,516.57
-99.12149218,35.40532177,516.54
-99.12150628,35.40532176,516.49
-99.12157864,35.40532168,516.32
-99.12161091,35.40532165,516.33
-99.12167126,35.40532159,516.35
-99.12173194,35.40532153,516.32
-99.12178800,35.40532147,516.39
-99.12183426,35.40532142,516.49
-99.12186796,35.40532139,516.63
-99.12193800,35.40532132,516.79
-99.12195452,35.40532130,516.85
-99.12199131,35.40532127,517.08
-99.12203172,35.40532123,517.66
-99.12207545,35.40532118,517.85
-99.12211399,35.40532114,518.24
-99.12240518,35.40532085,520.15
-99.12244825,35.40532080,520.77
-99.12264560,35.40532060,521.65
-99.12276455,35.40532048,522.03
-99.12282424,35.40532042,522.17
-99.12289715,35.40532035,522.19
-99.12290386,35.40532034,522.18
-99.12294715,35.40532030,522.19
-99.12308834,35.40532015,522.04
-99.12324704,35.40531999,522.18
-99.12334263,35.40531989,522.19
-99.12334726,35.40531989,522.19
-99.12337215,35.40531986,522.07
-99.12377612,35.40531945,521.57
-99.12387292,35.40531935,521.30
-99.12405343,35.40531917,521.19
-99.12413570,35.40531908,521.23
-99.12440839,35.40531880,521.50
-99.12449539,35.40531871,521.88
-99.12464220,35.40531856,522.82
-99.12471555,35.40531848,522.77
-99.12502315,35.40531817,524.31
-99.12509209,35.40531810,524.75
-99.12550872,35.40531766,525.44
-99.12551379,35.40531766,525.34
-99.12571918,35.40531744,524.36
-99.12584958,35.40531731,524.24
-99.12588582,35.40531727,524.36
-99.12589077,35.40531727,524.33
-99.12591016,35.40531725,524.31
-99.12598383,35.40531717,524.48
-99.12603516,35.40531711,524.17
-99.12623835,35.40531690,523.24
-99.12629958,35.40531684,522.92
-99.12636016,35.40531678,522.54
-99.12636478,35.40531677,522.49
-99.12636985,35.40531677,522.46
-99.12643989,35.40531669,521.44
-99.12661346,35.40531651,524.60
-99.12667778,35.40531644,523.19
-99.12683813,35.40531627,521.19
-99.12684287,35.40531627,521.20
-99.12704507,35.40531606,521.90
-99.12739133,35.40531569,522.20
-99.12739650,35.40531569,522.28
-99.12783968,35.40531522,525.82
-99.12784860,35.40531521,525.86
-99.12829849,35.40531473,528.61
-99.12830356,35.40531473,528.62
-99.12832646,35.40531452,528.58
-99.12837933,35.40531392,528.86
-99.12838836,35.40531383,528.88
-99.12839761,35.40531373,528.92
-99.12840697,35.40531362,528.98
-99.12841655,35.40531352,529.02
-99.12843571,35.40531332,529.14
-99.12897360,35.40531401,530.16
-99.12897856,35.40531401,530.15
-99.12898285,35.40531400,530.14
-99.12900598,35.40531380,530.08
-99.12903913,35.40531349,530.02
-99.12906270,35.40531329,529.96
-99.12910036,35.40531298,529.78
-99.12912426,35.40531277,529.71
-99.12916127,35.40531246,529.48
-99.12970698,35.40531323,526.73
-99.12971182,35.40531322,526.67
-99.13008264,35.40531282,525.87
-99.13051854,35.40531235,524.25
-99.13061414,35.40531225,524.28
-99.13080247,35.40531205,525.82
-99.13101855,35.40531181,526.60
-99.13129487,35.40531151,526.06
-99.13134212,35.40531146,525.98
-99.13134696,35.40531146,525.97
-99.13135181,35.40531145,525.96
-99.13138033,35.40531142,525.86
-99.13147901,35.40531131,525.62
-99.13168760,35.40531109,532.59
-99.13192593,35.40531082,528.62
-99.13210148,35.40531063,525.28
-99.13211679,35.40531035,534.97
-99.13215610,35.40530832,526.06
-99.13215863,35.40530453,526.11
-99.13215935,35.40527468,526.16
-99.13215931,35.40524727,526.23
-99.13215897,35.40504133,526.36
-99.13215893,35.40501942,526.41
-99.13215889,35.40499255,526.38
-99.13215866,35.40485414,526.38
-99.13215849,35.40474657,526.42
-99.13215842,35.40470671,526.45
-99.13215838,35.40468038,526.51
-99.13215807,35.40449067,527.18
-99.13215802,35.40446028,527.39
-99.13215764,35.40422377,527.86
-99.13215746,35.40411692,527.78
-99.13215738,35.40406814,539.24
-99.13215734,35.40404272,535.11
-99.13215720,35.40395823,536.62
-99.13215675,35.40368340,529.46
-99.13215671,35.40365932,529.50
-99.13215668,35.40363723,529.67
-99.13215659,35.40358628,529.64
-99.13215652,35.40354282,529.65
-99.13215634,35.40342750,529.70
-99.13215612,35.40329784,529.35
-99.13215590,35.40316276,528.52
-99.13215575,35.40306917,531.42
-99.13215563,35.40299289,527.88
-99.13215557,35.40295736,527.69
-99.13215546,35.40289154,527.28
-99.13215540,35.40285493,527.19
-99.13215482,35.40249823,527.91
-99.13215481,35.40249263,528.23
-99.13215472,35.40243880,527.42
-99.13215461,35.40236865,527.48
-99.13215454,35.40232745,529.73
-99.13215454,35.40232736,529.51
-99.13215453,35.40232077,529.94
-99.13215452,35.40231464,527.52
-99.13215452,35.40231428,530.46
-99.13215444,35.40226550,529.43
-99.13215439,35.40223683,534.28
-99.13215422,35.40212980,528.26
-99.13215421,35.40212547,528.22
-99.13215416,35.40209184,528.26
-99.13215398,35.40198652,528.47
-99.13215398,35.40198327,528.54
-99.13215367,35.40179600,530.49
-99.13215345,35.40166228,530.36
-99.13215345,35.40165804,530.39
-99.13215268,35.40132036,530.87
-99.13215217,35.40087628,530.86
-99.13215169,35.40057800,531.16
-99.13215156,35.40050010,531.21
-99.13215140,35.40040425,531.38
-99.13215136,35.40038054,531.46
-99.13215120,35.40028270,531.97
-99.13215101,35.40016711,531.97
-99.13215079,35.40003140,532.03
-99.13215062,35.39992672,532.40
-99.13215045,35.39981933,532.94
-99.13215026,35.39970445,533.60
-99.13215010,35.39960554,534.13
-99.13214951,35.39924351,533.96
-99.13214914,35.39901638,534.92
-99.13214911,35.39899817,535.21
-99.13214910,35.39899510,535.20
-99.13214909,35.39899059,535.22
-99.13214898,35.39892107,534.36
-99.13214894,35.39889691,534.34
-99.13214876,35.39878591,535.28
-99.13214868,35.39873487,535.55
-99.13214867,35.39873244,535.54
-99.13214857,35.39866689,535.84
-99.13214856,35.39866229,535.84
-99.13214835,35.39853632,536.22
-99.13214798,35.39830883,536.38
-99.13214789,35.39825058,536.39
-99.13214773,35.39815212,536.41
-99.13214742,35.39796565,536.44
-99.13214729,35.39788215,536.49
-99.13214706,35.39774618,536.42
-99.13214683,35.39760417,536.28
-99.13214677,35.39756575,536.20
-99.13214670,35.39752428,536.02
-99.13214655,35.39743330,536.21
-99.13214643,35.39735747,536.31
-99.13214632,35.39729083,536.43
-99.13214626,35.39725035,536.42
-99.13214621,35.39722131,536.30
-99.13214620,35.39721518,536.29
-99.13214618,35.39720544,536.30
-99.13214599,35.39708976,536.23
-99.13214540,35.39679382,535.67
-99.13214516,35.39658112,535.76
-99.13214504,35.39650826,535.85
-99.13214470,35.39629844,536.28
-99.13214217,35.39629583,536.29
-99.13205792,35.39629430,536.95
-99.13194670,35.39629406,536.25
-99.13182447,35.39629419,536.49
-99.13175674,35.39629426,536.55
-99.13149322,35.39629455,536.55
-99.13095540,35.39629532,535.18
-99.13081048,35.39629529,534.98
-99.13080508,35.39629530,534.94
-99.13045611,35.39629577,533.40
-99.13007069,35.39629609,531.79
-99.12981928,35.39629636,530.89
-99.12947229,35.39629673,529.57
-99.12894405,35.39629730,528.32
-99.12887610,35.39629737,528.37
-99.12879924,35.39629745,527.62
-99.12872568,35.39629753,527.36
-99.12858384,35.39629768,526.92
-99.12803886,35.39629826,527.81
-99.12792345,35.39629838,527.62
-99.12792323,35.39629838,527.63
-99.12780540,35.39629851,527.94
-99.12775585,35.39629856,527.80
-99.12743055,35.39629890,527.39
-99.12732660,35.39629901,527.60
-99.12727374,35.39629907,527.68
-99.12722154,35.39629913,527.75
-99.12714600,35.39629920,527.92
-99.12703148,35.39629933,528.00
-99.12673470,35.39629964,527.36
-99.12649123,35.39629989,526.91
-99.12616076,35.39630024,526.70
-99.12606638,35.39630034,526.72
-99.12590318,35.39630051,526.70
-99.12588997,35.39630052,526.71
-99.12570629,35.39630071,526.53
-99.12561632,35.39630081,526.69
-99.12550246,35.39630092,526.82
-99.12539311,35.39630104,526.39
-99.12498379,35.39630155,525.71
-99.12479460,35.39630166,525.42
-99.12457590,35.39630188,524.87
-99.12446061,35.39630200,524.61
-99.12415513,35.39630232,524.32
-99.12385076,35.39630263,523.25
-99.12362259,35.39630286,522.85
-99.12352558,35.39630296,522.75
-99.12333474,35.39630316,522.22
-99.12330104,35.39630319,522.11
-99.12308421,35.39630341,521.75
-99.12303664,35.39630346,521.66
-99.12282312,35.39630368,521.63
-99.12273821,35.39630376,521.01
-99.12245278,35.39630405,520.26
-99.12237592,35.39630413,520.08
-99.12215083,35.39630436,519.32
-99.12187939,35.39630463,518.73
-99.12186981,35.39630464,518.72
-99.12176024,35.39630475,518.63
-99.12154715,35.39630497,518.61
-99.12154209,35.39630497,518.62
-99.12151577,35.39630500,518.62
-99.12136755,35.39630515,518.14
-99.12125203,35.39630526,517.90
-99.12123838,35.39630537,517.84
-99.12115039,35.39630726,517.60
-99.12113575,35.39630764,517.52
-99.12113311,35.39631323,517.52
-99.12113305,35.39642170,517.44
-99.12113321,35.39659861,517.44
-99.12113326,35.39663098,517.34
-99.12113343,35.39674667,517.40
-99.12113354,35.39682169,517.48
-99.12113359,35.39685460,517.57
-99.12113361,35.39686632,517.59
-99.12113366,35.39689761,517.67
-99.12113368,35.39691691,517.71
-99.12113369,35.39692132,517.72
-99.12113375,35.39696235,517.78
-99.12113377,35.39697615,517.79
-99.12113385,35.39702754,517.72
-99.12113387,35.39704269,517.74
-99.12113411,35.39719922,517.17
-99.12113424,35.39728524,517.00
-99.12113430,35.39732762,516.95
-99.12113474,35.39762554,517.01
-99.12113494,35.39775304,516.75
-99.12113497,35.39777576,516.51
-99.12113498,35.39778072,516.50
-99.12113499,35.39778694,516.60
-99.12113515,35.39789424,516.12
-99.12113517,35.39791317,516.09
-99.12113520,35.39793076,515.97
-99.12113532,35.39800848,515.64
-99.12113542,35.39807836,515.22
-99.12113552,35.39814563,514.49
-99.12113557,35.39817520,514.08
-99.12113563,35.39821677,514.74
-99.12113605,35.39842722,515.55
-99.12113635,35.39869656,514.79
-99.12113647,35.39877798,514.31
-99.12113660,35.39886472,513.75
-99.12113661,35.39887419,513.66
-99.12113665,35.39890106,513.53
-99.12113689,35.39905696,512.58
-99.12113690,35.39906724,512.48
-99.12113693,35.39908744,512.22
-99.12113700,35.39913270,511.59
-99.12113714,35.39922693,517.41
-99.12113716,35.39924162,512.89
-99.12113732,35.39934956,513.89
-99.12113740,35.39939924,517.20
-99.12113755,35.39950095,510.79
-99.12113758,35.39952223,510.90
-99.12113762,35.39954504,510.99
-99.12113779,35.39966136,511.14
-99.12113792,35.39974630,516.10
-99.12113796,35.39977272,518.28
-99.12113802,35.39981437,516.61
-99.12113812,35.39988218,512.78
-99.12113815,35.39990319,514.37
-99.12113815,35.39990427,512.72
-99.12113837,35.40005061,510.96
-99.12113850,35.40013745,516.98
-99.12113850,35.40013754,515.24
-99.12113856,35.40017342,515.19
-99.12113894,35.40043184,512.71
-99.12113907,35.40051561,513.40
-99.12113915,35.40056764,514.34
-99.12113981,35.40101514,515.29
-99.12113983,35.40102380,515.25
-99.12113987,35.40105139,515.28
-99.12113988,35.40106041,515.23
-99.12113990,35.40106970,515.25
-99.12114011,35.40121171,514.81
-99.12114023,35.40129061,516.14
-99.12114064,35.40157004,517.51
-99.12114094,35.40169564,515.59
-99.12114140,35.40207164,521.23
-99.12114144,35.40210492,522.53
     </coordinates>
    </LineString>
   </MultiGeometry>
  </Placemark>
 </Document>
</kml>
