<kml>
 <Document>
  <Style id="yellow">
   <LineStyle>
   <color>ff00ffff</color>
   <width>1</width>
   </LineStyle>
  </Style>
  <Style id="red">
   <LineStyle>
   <color>ffff0000</color>
   <width>2</width>
   </LineStyle>
  </Style>
  <Style id="green">
   <LineStyle>
   <color>ff00ff00</color>
   <width>1</width>
   </LineStyle>
  </Style>
  <Placemark>
  <styleUrl>#yellow</styleUrl>
   <MultiGeometry>
    <LineString>
     <coordinates>
-99.09300845,35.37829650,508.83
-99.09311139,35.37829642,509.78
-99.09316368,35.37829638,509.68
-99.09330284,35.37829627,509.99
-99.09331517,35.37829626,510.00
-99.09360340,35.37829604,510.74
-99.09369633,35.37829597,510.77
-99.09372264,35.37829595,510.82
-99.09406041,35.37829569,513.36
-99.09409410,35.37829566,513.82
-99.09409741,35.37829566,513.87
-99.09413913,35.37829563,514.07
-99.09449815,35.37829535,516.31
-99.09457643,35.37829528,516.58
-99.09469996,35.37829519,517.05
-99.09494239,35.37829500,516.59
-99.09498720,35.37829496,516.45
-99.09507748,35.37829489,516.30
-99.09536252,35.37829467,515.98
-99.09565526,35.37829443,514.91
-99.09579145,35.37829433,514.34
-99.09580081,35.37829432,514.29
-99.09605932,35.37829411,514.31
-99.09612614,35.37829406,514.13
-99.09633235,35.37829390,512.40
-99.09652623,35.37829374,510.78
-99.09655012,35.37829372,510.56
-99.09657919,35.37829370,510.14
-99.09668763,35.37829361,508.75
-99.09677252,35.37829355,507.98
-99.09712945,35.37829326,507.54
-99.09720993,35.37829319,508.08
-99.09723877,35.37829317,508.29
-99.09761651,35.37829287,511.90
-99.09771109,35.37829279,511.63
-99.09793513,35.37829252,510.64
-99.09831805,35.37829230,507.25
-99.09850389,35.37829215,505.20
-99.09858987,35.37829208,505.87
-99.09875480,35.37829194,504.67
-99.09890563,35.37829182,508.43
-99.09902552,35.37829172,509.79
-99.09904523,35.37829161,510.07
-99.09908640,35.37828725,510.86
-99.09908651,35.37828337,510.68
-99.09908636,35.37816841,509.84
-99.09908619,35.37802351,508.96
-99.09908567,35.37760332,505.67
-99.09908565,35.37758466,506.04
-99.09908535,35.37733994,507.38
-99.09908530,35.37729765,507.00
-99.09908485,35.37701632,507.65
-99.09908472,35.37682156,508.38
-99.09908451,35.37665385,507.76
-99.09908450,35.37664375,507.75
-99.09908445,35.37660579,507.76
-99.09908438,35.37654348,507.24
-99.09908433,35.37650191,508.21
-99.09908415,35.37635647,510.25
-99.09908374,35.37602276,512.13
-99.09908353,35.37584945,512.71
-99.09908322,35.37559662,513.66
-99.09908295,35.37537345,511.08
-99.09908292,35.37535361,511.11
-99.09908266,35.37514046,512.33
-99.09908254,35.37504352,511.90
-99.09908248,35.37498897,512.34
-99.09908246,35.37497184,512.40
-99.09908235,35.37488185,512.47
-99.09908232,35.37485742,512.56
-99.09908217,35.37473407,512.79
-99.09908178,35.37441523,514.44
-99.09908159,35.37426456,514.77
-99.09908152,35.37420459,514.50
-99.09908144,35.37414355,514.31
-99.09908131,35.37402931,514.18
-99.09908127,35.37400198,513.98
-99.09908122,35.37396024,514.31
-99.09908121,35.37395266,514.42
-99.09908090,35.37369938,517.60
-99.09908062,35.37346972,518.34
-99.09908061,35.37345917,518.33
-99.09908059,35.37344772,518.38
-99.09908058,35.37343933,518.41
-99.09908058,35.37343681,518.47
-99.09908057,35.37342977,518.50
-99.09908056,35.37341859,518.58
-99.09908053,35.37339849,519.03
-99.09908053,35.37339109,519.24
-99.09908042,35.37330687,520.74
-99.09908033,35.37322825,521.35
-99.09908029,35.37319696,521.53
-99.09908014,35.37307586,522.37
-99.09907995,35.37292005,523.40
-99.09907976,35.37276776,524.11
-99.09907934,35.37242331,523.74
-99.09907896,35.37210898,522.90
-99.09907889,35.37205064,522.92
-99.09907860,35.37181603,523.32
-99.09907855,35.37177743,523.35
-99.09907855,35.37177707,523.33
-99.09907855,35.37177139,523.35
-99.09907854,35.37176634,523.30
-99.09907854,35.37176454,523.33
-99.09907853,35.37175796,523.40
-99.09907851,35.37174218,523.57
-99.09907841,35.37165859,523.96
-99.09907825,35.37152658,524.42
-99.09907792,35.37126050,526.88
-99.09907787,35.37122136,527.06
-99.09907776,35.37112867,527.44
-99.09907773,35.37110712,527.56
-99.09907770,35.37107989,527.84
-99.09907762,35.37101109,527.90
-99.09907754,35.37094481,528.15
-99.09907746,35.37088449,528.23
-99.09907695,35.37046503,529.25
-99.09907689,35.37041895,529.31
-99.09907660,35.37017964,529.25
-99.09907657,35.37015575,529.31
-99.09907651,35.37010372,529.24
-99.09907649,35.37009218,529.29
-99.09907635,35.36997162,529.24
-99.09907634,35.36996315,529.21
-99.09907631,35.36994520,529.19
-99.09907628,35.36991878,529.23
-99.09907624,35.36988236,529.21
-99.09907587,35.36958480,528.46
-99.09907561,35.36937119,527.67
-99.09907555,35.36932340,527.37
-99.09907551,35.36928986,527.20
-99.09907197,35.36927724,527.16
-99.09905370,35.36927536,527.21
-99.09904885,35.36927491,527.20
-99.09896651,35.36927498,527.17
-99.09889661,35.36927504,527.15
-99.09881416,35.36927510,527.30
-99.09871915,35.36927518,527.52
-99.09852684,35.36927534,527.70
-99.09852475,35.36927534,527.73
-99.09837437,35.36927546,527.78
-99.09807549,35.36927570,527.94
-99.09805348,35.36927572,528.05
-99.09791312,35.36927584,527.88
-99.09775152,35.36927597,527.62
-99.09763670,35.36927606,527.46
-99.09736578,35.36927628,526.79
-99.09722367,35.36927639,526.46
-99.09685819,35.36927669,525.40
-99.09674425,35.36927678,525.51
-99.09662591,35.36927687,526.25
-99.09652574,35.36927695,526.58
-99.09640673,35.36927705,526.76
-99.09621134,35.36927720,525.45
-99.09609211,35.36927730,524.81
-99.09573203,35.36927758,523.83
-99.09561754,35.36927767,524.04
-99.09536193,35.36927788,524.51
-99.09528421,35.36927794,524.34
-99.09519757,35.36927801,524.32
-99.09512360,35.36927806,524.25
-99.09502155,35.36927814,524.12
-99.09500030,35.36927816,524.14
-99.09486490,35.36927827,523.83
-99.09480458,35.36927832,523.62
-99.09468051,35.36927841,523.22
-99.09458551,35.36927849,522.89
-99.09451594,35.36927854,523.10
-99.09451065,35.36927855,523.09
-99.09444515,35.36927860,523.12
-99.09437899,35.36927865,523.06
-99.09435742,35.36927867,523.14
-99.09425306,35.36927875,523.30
-99.09417280,35.36927881,523.28
-99.09416906,35.36927881,523.27
-99.09404863,35.36927891,522.52
-99.09386820,35.36927905,522.66
-99.09380678,35.36927909,522.68
-99.09330634,35.36927948,520.53
-99.09319790,35.36927957,520.58
-99.09316069,35.36927959,520.46
-99.09314892,35.36927960,520.36
-99.09309905,35.36927964,519.81
-99.09304015,35.36927969,519.26
-99.09291422,35.36927978,518.38
-99.09280380,35.36927987,516.87
-99.09243029,35.36928015,516.22
-99.09228564,35.36928027,516.45
-99.09200999,35.36928048,517.32
-99.09175548,35.36928067,519.70
-99.09160268,35.36928078,521.47
-99.09149524,35.36928087,521.81
-99.09138769,35.36928095,521.74
-99.09128090,35.36928103,521.63
-99.09115926,35.36928112,521.42
-99.09103674,35.36928121,521.53
-99.09095770,35.36928127,521.80
-99.09066278,35.36928149,522.63
-99.09065772,35.36928150,522.63
-99.09044955,35.36928165,522.47
-99.09003839,35.36928196,520.57
-99.09003366,35.36928196,520.58
-99.09002892,35.36928197,520.55
-99.08985180,35.36928210,520.33
-99.08975525,35.36928217,520.44
-99.08967764,35.36928223,520.43
-99.08957901,35.36928230,520.44
-99.08953663,35.36928233,520.28
-99.08953156,35.36928234,520.26
-99.08927672,35.36928262,519.95
-99.08888757,35.36928281,519.76
-99.08888295,35.36928282,519.80
-99.08887822,35.36928282,519.75
-99.08882593,35.36928286,519.70
-99.08862403,35.36928301,519.12
-99.08835202,35.36928321,516.84
-99.08834739,35.36928321,516.79
-99.08807031,35.36928648,514.45
-99.08806835,35.36929973,514.51
-99.08806727,35.36932228,514.52
-99.08806740,35.36944463,514.42
-99.08806743,35.36946988,514.53
-99.08806750,35.36953751,514.48
-99.08806757,35.36960153,514.39
-99.08806783,35.36973985,514.61
-99.08806808,35.37006869,515.87
-99.08806824,35.37021143,516.15
-99.08806842,35.37027518,516.33
-99.08806874,35.37067751,518.00
-99.08806880,35.37072918,518.28
-99.08806905,35.37095658,519.52
-99.08806906,35.37097110,519.68
-99.08806951,35.37118480,520.45
-99.08806982,35.37156441,522.28
-99.08807012,35.37194483,523.35
-99.08807063,35.37230957,523.62
-99.08807097,35.37262489,522.80
-99.08807106,35.37270703,522.40
-99.08807136,35.37308754,520.81
-99.08807140,35.37312550,520.73
-99.08807188,35.37356787,519.29
-99.08807224,35.37389428,518.08
-99.08807272,35.37434071,515.85
-99.08807273,35.37435090,515.78
-99.08807281,35.37441753,515.35
-99.08807299,35.37459012,514.63
-99.08807359,35.37503708,511.86
-99.08807370,35.37524420,511.48
-99.08807397,35.37548621,511.82
-99.08807399,35.37550957,512.07
-99.08807401,35.37552417,512.15
-99.08807403,35.37554365,511.89
-99.08807413,35.37563247,511.80
-99.08807420,35.37570442,511.75
-99.08807427,35.37576456,511.51
-99.08807430,35.37579279,511.40
-99.08807438,35.37586735,511.52
-99.08807442,35.37590000,511.53
-99.08807447,35.37594562,511.60
-99.08807484,35.37629223,511.52
-99.08807496,35.37640124,511.04
-99.08807500,35.37643695,510.94
-99.08807501,35.37644813,510.90
-99.08807511,35.37653848,510.70
-99.08807541,35.37681205,510.64
-99.08807581,35.37718427,510.55
-99.08807587,35.37723612,510.56
-99.08807591,35.37727254,510.64
-99.08807610,35.37744720,511.07
-99.08807621,35.37754882,511.46
-99.08807627,35.37760418,511.63
-99.08807662,35.37782879,512.31
-99.08807700,35.37827639,514.24
-99.08807768,35.37829767,514.24
-99.08823424,35.37830008,515.24
-99.08849132,35.37829989,516.13
-99.08849363,35.37829989,516.14
-99.08873023,35.37829972,516.45
-99.08916643,35.37829940,517.20
-99.08922191,35.37829936,517.14
-99.08954549,35.37829912,515.76
-99.08987930,35.37829887,513.19
-99.08998796,35.37829879,512.37
-99.09028753,35.37829856,510.69
-99.09063158,35.37829831,508.75
-99.09075841,35.37829821,507.87
-99.09102099,35.37829801,506.02
-99.09133289,35.37829778,507.52
-99.09133675,35.37829778,506.61
-99.09134523,35.37829777,505.26
-99.09174630,35.37829747,509.92
-99.09217502,35.37829714,508.91
-99.09256718,35.37829684,509.08
-99.09279750,35.37829666,514.71
-99.09295615,35.37829654,508.27
-99.09300845,35.37829650,508.83
     </coordinates>
    </LineString>
   </MultiGeometry>
  </Placemark>
 </Document>
</kml>
