<kml>
 <Document>
  <Style id="yellow">
   <LineStyle>
   <color>ff00ffff</color>
   <width>1</width>
   </LineStyle>
  </Style>
  <Style id="red">
   <LineStyle>
   <color>ffff0000</color>
   <width>2</width>
   </LineStyle>
  </Style>
  <Style id="green">
   <LineStyle>
   <color>ff00ff00</color>
   <width>1</width>
   </LineStyle>
  </Style>
  <Placemark>
  <styleUrl>#yellow</styleUrl>
   <MultiGeometry>
    <LineString>
     <coordinates>
-99.09911487,35.40137858,500.41
-99.09911495,35.40144414,506.95
-99.09911504,35.40152141,501.78
-99.09911506,35.40153475,501.74
-99.09911514,35.40160193,501.76
-99.09911514,35.40160292,501.71
-99.09911526,35.40169697,505.33
-99.09911529,35.40172357,508.92
-99.09911533,35.40175954,501.98
-99.09911548,35.40187676,509.60
-99.09911549,35.40188803,510.81
-99.09911549,35.40188849,509.10
-99.09911550,35.40189867,508.37
-99.09911554,35.40192861,503.40
-99.09911589,35.40221697,504.60
-99.09911597,35.40227630,504.72
-99.09911621,35.40248026,504.39
-99.09911624,35.40250379,503.20
-99.09911634,35.40258233,505.97
-99.09911646,35.40267674,508.97
-99.09911659,35.40278413,506.06
-99.09911666,35.40284066,501.89
-99.09911692,35.40305616,506.18
-99.09911702,35.40314011,505.00
-99.09911721,35.40329204,504.08
-99.09911730,35.40336283,505.00
-99.09911733,35.40339339,505.25
-99.09911742,35.40346562,506.00
-99.09911751,35.40354064,507.06
-99.09911756,35.40357941,508.21
-99.09911780,35.40377562,508.93
-99.09911783,35.40379870,508.78
-99.09911797,35.40391249,508.73
-99.09911807,35.40399941,508.98
-99.09911814,35.40404847,509.37
-99.09911833,35.40420554,508.50
-99.09911834,35.40421834,508.53
-99.09911849,35.40434016,509.05
-99.09911852,35.40436216,509.21
-99.09911873,35.40453745,509.70
-99.09911892,35.40469308,509.72
-99.09911897,35.40473365,512.43
-99.09911915,35.40487567,509.63
-99.09911917,35.40489028,509.19
-99.09911920,35.40491922,507.87
-99.09911936,35.40504717,506.88
-99.09911937,35.40506033,506.95
-99.09911944,35.40511426,506.98
-99.09911949,35.40515564,506.91
-99.09911950,35.40516610,506.83
-99.09911972,35.40525077,506.62
-99.09912004,35.40533544,507.04
-99.09912412,35.40534075,507.12
-99.09917247,35.40534207,507.36
-99.09928415,35.40534207,507.93
-99.09954043,35.40534185,509.81
-99.09966058,35.40534175,510.18
-99.09983613,35.40534161,511.08
-99.10003889,35.40534144,512.22
-99.10014891,35.40534135,512.76
-99.10015232,35.40534135,512.79
-99.10024704,35.40534127,513.12
-99.10046323,35.40534109,514.05
-99.10087909,35.40534065,516.62
-99.10120806,35.40534047,517.68
-99.10152568,35.40534020,517.30
-99.10165035,35.40534010,517.09
-99.10188482,35.40533990,517.16
-99.10211610,35.40533970,516.27
-99.10224705,35.40533959,514.69
-99.10237260,35.40533949,514.07
-99.10262469,35.40533918,513.10
-99.10288417,35.40533887,511.29
-99.10330774,35.40533869,511.89
-99.10341809,35.40533860,505.86
-99.10370113,35.40533835,505.77
-99.10372492,35.40533833,510.86
-99.10387999,35.40533820,508.18
-99.10402536,35.40533808,506.59
-99.10452173,35.40533765,510.26
-99.10485345,35.40533736,512.81
-99.10521887,35.40533695,513.13
-99.10568792,35.40533275,512.94
-99.10579056,35.40533284,511.60
-99.10587988,35.40533286,510.89
-99.10596457,35.40533296,509.55
-99.10596953,35.40533296,509.46
-99.10597404,35.40533295,509.39
-99.10597867,35.40533295,509.33
-99.10598319,35.40533295,509.34
-99.10598770,35.40533294,509.41
-99.10599266,35.40533294,509.49
-99.10599717,35.40533293,509.53
-99.10600191,35.40533293,509.54
-99.10603517,35.40533290,509.50
-99.10604001,35.40533290,509.46
-99.10604453,35.40533289,509.44
-99.10604916,35.40533289,509.44
-99.10605367,35.40533288,509.46
-99.10606303,35.40533288,509.45
-99.10606766,35.40533287,509.39
-99.10607250,35.40533287,509.31
-99.10607713,35.40533286,509.11
-99.10608153,35.40533286,508.96
-99.10608660,35.40533286,508.90
-99.10609145,35.40533285,509.01
-99.10609596,35.40533285,509.20
-99.10610070,35.40533284,509.38
-99.10634618,35.40533281,507.73
-99.10676183,35.40533569,507.69
-99.10693397,35.40533553,507.48
-99.10705864,35.40533542,510.17
-99.10739333,35.40533513,513.08
-99.10769388,35.40533486,515.39
-99.10801150,35.40533458,516.20
-99.10835468,35.40533418,515.56
-99.10869818,35.40533396,516.03
-99.10903607,35.40533366,515.96
-99.10920953,35.40533350,515.91
-99.10971272,35.40533304,517.34
-99.10986647,35.40533290,517.83
-99.11002903,35.40533267,518.93
-99.11007583,35.40533109,519.19
-99.11012660,35.40532924,519.84
-99.11013144,35.40532906,519.84
-99.11013263,35.40530922,519.07
-99.11013268,35.40518424,518.67
-99.11013238,35.40496721,519.12
-99.11013235,35.40493962,519.33
-99.11013181,35.40462998,520.02
-99.11013167,35.40444117,520.06
-99.11013158,35.40437390,519.97
-99.11013157,35.40436561,519.95
-99.11013153,35.40433657,519.92
-99.11013139,35.40423495,519.83
-99.11013112,35.40404145,519.86
-99.11013059,35.40364895,518.85
-99.11013058,35.40363804,518.89
-99.11013027,35.40341614,519.76
-99.11013000,35.40321127,520.55
-99.11012984,35.40309883,520.79
-99.11012961,35.40293076,521.18
-99.11012954,35.40287873,521.25
-99.11012948,35.40283428,521.41
-99.11012915,35.40259290,521.89
-99.11012899,35.40247099,522.05
-99.11012877,35.40231320,522.20
-99.11012876,35.40229958,522.29
-99.11012855,35.40214494,522.08
-99.11012853,35.40213584,522.08
-99.11012832,35.40197687,521.86
-99.11012829,35.40195784,521.82
-99.11012818,35.40187778,521.63
-99.11012816,35.40186416,521.62
-99.11012788,35.40165262,521.11
-99.11012780,35.40160042,520.99
-99.11012770,35.40152585,520.79
-99.11012730,35.40122847,520.03
-99.11012701,35.40101721,519.35
-99.11012657,35.40069612,519.26
-99.11012609,35.40033869,518.02
-99.11012569,35.40012815,517.45
-99.11012544,35.39986170,516.66
-99.11012542,35.39984385,516.61
-99.11012480,35.39947398,515.12
-99.11012444,35.39912277,514.09
-99.11012433,35.39904649,514.03
-99.11012429,35.39901268,513.99
-99.11012416,35.39892377,513.89
-99.11012416,35.39892098,513.83
-99.11012397,35.39878230,513.63
-99.11012385,35.39869177,513.45
-99.11012379,35.39864452,513.18
-99.11012372,35.39859583,513.22
-99.11012347,35.39841135,512.65
-99.11012292,35.39809269,511.54
-99.11012285,35.39795591,511.06
-99.11012245,35.39766574,509.79
-99.11012189,35.39732833,508.83
-99.11012140,35.39689354,508.19
-99.11012135,35.39685495,508.10
-99.11012130,35.39681690,508.07
-99.11012089,35.39659644,507.83
-99.11012053,35.39641024,507.61
-99.11012022,35.39635010,507.49
-99.11011998,35.39633080,507.47
-99.11011931,35.39632422,507.46
-99.11011831,35.39631737,507.43
-99.11010895,35.39631720,507.45
-99.10999618,35.39631604,507.45
-99.10999178,35.39631604,507.46
-99.10951341,35.39631648,508.51
-99.10940164,35.39631658,509.00
-99.10939680,35.39631658,509.02
-99.10903780,35.39631691,510.85
-99.10893495,35.39631700,511.51
-99.10881525,35.39631711,512.59
-99.10881019,35.39631711,512.56
-99.10845604,35.39631752,513.15
-99.10797966,35.39631786,514.19
-99.10750449,35.39631837,514.53
-99.10736133,35.39631841,514.24
-99.10711929,35.39631862,513.67
-99.10689882,35.39631882,513.35
-99.10689332,35.39631882,513.31
-99.10689035,35.39631883,513.33
-99.10675721,35.39631894,513.43
-99.10664368,35.39631904,513.47
-99.10651990,35.39631915,513.65
-99.10640174,35.39631926,513.83
-99.10626464,35.39631938,513.94
-99.10603240,35.39631958,513.18
-99.10589089,35.39631971,512.63
-99.10577703,35.39631981,511.92
-99.10563894,35.39631993,511.18
-99.10552915,35.39632002,510.50
-99.10539117,35.39632014,509.81
-99.10501004,35.39632056,505.44
-99.10474256,35.39632071,509.01
-99.10431914,35.39632107,509.26
-99.10422940,35.39632115,509.59
-99.10376887,35.39632155,511.45
-99.10345668,35.39632181,511.78
-99.10333577,35.39632192,511.62
-99.10319338,35.39632204,511.66
-99.10273517,35.39632243,511.62
-99.10229172,35.39632281,513.23
-99.10215990,35.39632292,513.77
-99.10202930,35.39632303,513.84
-99.10179276,35.39632323,512.98
-99.10167207,35.39632333,512.54
-99.10153387,35.39632345,511.97
-99.10141240,35.39632355,511.43
-99.10117201,35.39632375,510.16
-99.10106035,35.39632384,509.62
-99.10069321,35.39632415,507.68
-99.10024942,35.39632452,505.45
-99.10014800,35.39632460,505.23
-99.10011607,35.39632463,505.25
-99.10000132,35.39632472,504.75
-99.09982788,35.39632487,503.73
-99.09976819,35.39632492,503.33
-99.09970543,35.39632497,502.96
-99.09944917,35.39632518,501.71
-99.09930216,35.39632530,500.94
-99.09918544,35.39632540,500.51
-99.09911199,35.39632609,500.13
-99.09910990,35.39633087,500.18
-99.09910926,35.39634962,500.28
-99.09910886,35.39637803,500.23
-99.09910889,35.39649615,500.59
-99.09910902,35.39660444,500.86
-99.09910903,35.39661238,500.86
-99.09910906,35.39663212,500.88
-99.09910907,35.39663907,500.88
-99.09910915,35.39670390,501.07
-99.09910921,35.39675953,501.20
-99.09910945,35.39695087,501.91
-99.09910985,35.39727827,503.25
-99.09910993,35.39734355,503.51
-99.09911004,35.39743832,503.82
-99.09911007,35.39745599,503.87
-99.09911031,35.39765148,503.30
-99.09911037,35.39770161,503.24
-99.09911039,35.39771730,503.22
-99.09911049,35.39780278,503.16
-99.09911059,35.39788195,502.96
-99.09911074,35.39800719,502.02
-99.09911091,35.39814370,499.13
-99.09911128,35.39845163,497.62
-99.09911166,35.39875802,497.51
-99.09911172,35.39880951,497.61
-99.09911185,35.39891645,497.64
-99.09911197,35.39901022,497.62
-99.09911197,35.39901437,497.62
-99.09911210,35.39912212,497.89
-99.09911212,35.39913375,497.95
-99.09911233,35.39930625,499.71
-99.09911234,35.39931346,499.78
-99.09911240,35.39936702,500.20
-99.09911244,35.39939695,500.71
-99.09911247,35.39941977,501.19
-99.09911259,35.39952012,501.90
-99.09911276,35.39966061,502.32
-99.09911294,35.39980271,502.40
-99.09911297,35.39983093,502.35
-99.09911300,35.39985429,502.23
-99.09911306,35.39990532,502.18
-99.09911324,35.40005104,501.69
-99.09911326,35.40006258,501.67
-99.09911336,35.40014716,501.53
-99.09911338,35.40016176,501.59
-99.09911345,35.40022371,501.45
-99.09911347,35.40023732,501.31
-99.09911371,35.40043578,501.22
-99.09911374,35.40045959,501.20
-99.09911389,35.40057978,501.06
-99.09911398,35.40065534,500.57
-99.09911403,35.40069303,500.53
-99.09911404,35.40070034,500.50
-99.09911409,35.40074100,504.09
-99.09911409,35.40074416,503.70
-99.09911413,35.40077824,507.19
-99.09911413,35.40078023,504.60
-99.09911415,35.40079601,504.41
-99.09911422,35.40084902,500.43
-99.09911423,35.40085976,500.44
-99.09911446,35.40104397,503.36
-99.09911449,35.40107093,500.83
-99.09911457,35.40113495,501.77
-99.09911467,35.40121862,501.58
-99.09911487,35.40137858,500.41
     </coordinates>
    </LineString>
   </MultiGeometry>
  </Placemark>
 </Document>
</kml>
