<kml>
 <Document>
  <Style id="yellow">
   <LineStyle>
   <color>ff00ffff</color>
   <width>1</width>
   </LineStyle>
  </Style>
  <Style id="red">
   <LineStyle>
   <color>ffff0000</color>
   <width>2</width>
   </LineStyle>
  </Style>
  <Style id="green">
   <LineStyle>
   <color>ff00ff00</color>
   <width>1</width>
   </LineStyle>
  </Style>
  <Placemark>
  <styleUrl>#yellow</styleUrl>
   <MultiGeometry>
    <LineString>
     <coordinates>
-99.09164786,35.36026377,518.55
-99.09191093,35.36026357,518.61
-99.09230620,35.36026327,519.70
-99.09283146,35.36026286,521.14
-99.09288903,35.36026282,521.22
-99.09301869,35.36026272,521.21
-99.09327989,35.36026243,520.38
-99.09360097,35.36026227,519.24
-99.09360603,35.36026227,519.21
-99.09391698,35.36026202,518.91
-99.09412986,35.36026186,518.89
-99.09413438,35.36026186,518.88
-99.09426998,35.36026175,519.08
-99.09444478,35.36026161,519.58
-99.09460251,35.36026149,520.37
-99.09474527,35.36026138,521.25
-99.09479569,35.36026134,521.50
-99.09496354,35.36026121,522.21
-99.09502496,35.36026116,522.31
-99.09503872,35.36026115,522.37
-99.09547053,35.36026081,522.41
-99.09551897,35.36026077,522.36
-99.09604511,35.36026035,520.98
-99.09604940,35.36026035,520.94
-99.09654549,35.36025995,519.03
-99.09692997,35.36025965,520.29
-99.09725347,35.36025939,521.43
-99.09755903,35.36025914,521.94
-99.09772260,35.36025901,522.05
-99.09788000,35.36025888,522.13
-99.09798930,35.36025879,522.35
-99.09816453,35.36025865,522.69
-99.09841352,35.36025845,522.94
-99.09849783,35.36025838,523.20
-99.09872502,35.36025819,523.19
-99.09873008,35.36025819,523.19
-99.09884169,35.36025810,523.08
-99.09896464,35.36025800,522.96
-99.09905545,35.36025792,523.05
-99.09906261,35.36025656,523.06
-99.09906425,35.36024854,523.04
-99.09906429,35.36019777,522.93
-99.09906429,35.36010607,522.78
-99.09906419,35.36002429,522.59
-99.09906416,35.35999471,522.49
-99.09906415,35.35998560,522.50
-99.09906411,35.35995675,522.41
-99.09906400,35.35986622,522.23
-99.09906372,35.35963440,521.99
-99.09906370,35.35961745,522.04
-99.09906359,35.35953377,522.14
-99.09906352,35.35947173,522.18
-99.09906323,35.35923188,522.69
-99.09906322,35.35922864,522.67
-99.09906278,35.35895552,522.68
-99.09906264,35.35875191,521.67
-99.09906260,35.35871990,521.63
-99.09906250,35.35863632,521.79
-99.09906229,35.35846950,522.23
-99.09906223,35.35841432,522.34
-99.09906215,35.35835364,522.29
-99.09906205,35.35826978,520.82
-99.09906199,35.35822019,519.95
-99.09906197,35.35820206,519.65
-99.09906191,35.35815427,518.83
-99.09906186,35.35811153,519.06
-99.09906185,35.35810450,518.99
-99.09906184,35.35810062,518.92
-99.09906181,35.35807465,518.73
-99.09906177,35.35804427,518.52
-99.09906176,35.35803597,518.46
-99.09906168,35.35796474,517.81
-99.09906164,35.35793129,517.51
-99.09906163,35.35792299,517.52
-99.09906159,35.35789513,517.16
-99.09906159,35.35789026,517.10
-99.09906158,35.35788503,517.14
-99.09906117,35.35755041,516.33
-99.09906112,35.35750677,516.12
-99.09906101,35.35741913,515.47
-99.09906096,35.35738044,515.45
-99.09906092,35.35734429,515.35
-99.09906087,35.35730344,515.17
-99.09906083,35.35726954,515.10
-99.09906078,35.35722878,514.91
-99.09906069,35.35715899,514.70
-99.09906062,35.35709975,514.33
-99.09906053,35.35702446,512.79
-99.09906037,35.35689371,513.09
-99.09906035,35.35687378,513.20
-99.09906018,35.35673456,512.17
-99.09906016,35.35672293,511.76
-99.09906011,35.35667974,515.21
-99.09906010,35.35667126,514.23
-99.09906002,35.35660481,510.48
-99.09905998,35.35657632,509.75
-99.09905997,35.35656982,509.77
-99.09905992,35.35652925,509.58
-99.09905962,35.35628228,512.13
-99.09905949,35.35617398,513.27
-99.09905947,35.35615730,513.35
-99.09905935,35.35606082,513.67
-99.09905916,35.35589978,513.97
-99.09905904,35.35580582,514.21
-99.09905879,35.35559862,514.03
-99.09905860,35.35544758,514.39
-99.09905836,35.35525101,515.50
-99.09905834,35.35523352,515.53
-99.09905824,35.35515192,515.84
-99.09905802,35.35496752,516.39
-99.09905787,35.35484679,517.03
-99.09905783,35.35481162,517.23
-99.09905780,35.35478601,517.28
-99.09905755,35.35458530,517.96
-99.09905743,35.35448268,518.01
-99.09905740,35.35446050,518.01
-99.09905737,35.35443850,518.00
-99.09905736,35.35442948,518.05
-99.09905736,35.35442759,518.02
-99.09905732,35.35439783,517.96
-99.09905732,35.35439666,517.95
-99.09905732,35.35439621,517.94
-99.09905732,35.35439504,517.93
-99.09905732,35.35439414,517.93
-99.09905723,35.35432038,517.71
-99.09905676,35.35393671,516.19
-99.09905652,35.35373762,515.69
-99.09905648,35.35370930,515.73
-99.09905640,35.35364267,515.82
-99.09905588,35.35330643,514.17
-99.09905584,35.35318335,513.09
-99.09905555,35.35294837,511.38
-99.09905537,35.35279995,509.66
-99.09905525,35.35270464,508.69
-99.09905521,35.35266641,508.22
-99.09905492,35.35243386,505.65
-99.09905478,35.35231962,505.60
-99.09905467,35.35222629,505.93
-99.09905424,35.35187500,507.82
-99.09905373,35.35154904,509.37
-99.09905358,35.35133110,507.87
-99.09905336,35.35124273,507.17
-99.09903278,35.35124239,506.98
-99.09901275,35.35124213,506.91
-99.09897268,35.35124162,506.71
-99.09895232,35.35124137,506.64
-99.09893746,35.35124120,506.56
-99.09881761,35.35124130,505.99
-99.09870766,35.35124139,505.62
-99.09861917,35.35124146,505.35
-99.09861411,35.35124147,505.37
-99.09843449,35.35124161,504.88
-99.09842426,35.35124162,504.85
-99.09841887,35.35124163,504.84
-99.09825796,35.35124176,504.49
-99.09797808,35.35124198,504.78
-99.09776049,35.35124216,504.09
-99.09774101,35.35124218,504.00
-99.09742140,35.35124243,502.96
-99.09709254,35.35124270,502.09
-99.09683027,35.35124291,501.70
-99.09663723,35.35124306,501.45
-99.09641689,35.35124324,500.84
-99.09618059,35.35124343,499.56
-99.09593527,35.35124362,500.19
-99.09585481,35.35124369,500.27
-99.09566056,35.35124384,499.12
-99.09550780,35.35124396,498.92
-99.09548678,35.35124398,498.90
-99.09533148,35.35124410,498.68
-99.09520216,35.35124420,498.50
-99.09501462,35.35124435,498.23
-99.09485041,35.35124448,498.09
-99.09470932,35.35124459,497.92
-99.09466485,35.35124462,497.96
-99.09445772,35.35124479,497.14
-99.09440258,35.35124483,497.01
-99.09431949,35.35124489,496.82
-99.09423716,35.35124496,496.59
-99.09419567,35.35124499,496.54
-99.09408000,35.35124508,496.25
-99.09393945,35.35124519,496.11
-99.09380859,35.35124529,495.97
-99.09370591,35.35124537,495.85
-99.09355953,35.35124549,495.86
-99.09337848,35.35124563,495.62
-99.09324179,35.35124573,495.37
-99.09289191,35.35124600,495.07
-99.09244617,35.35124634,494.66
-99.09216827,35.35124664,494.50
-99.09187254,35.35124678,494.32
-99.09182918,35.35124681,494.29
-99.09168544,35.35124692,494.21
-99.09157417,35.35124701,494.18
-99.09153631,35.35124703,494.21
-99.09144969,35.35124710,494.23
-99.09127085,35.35124723,494.17
-99.09118885,35.35124730,494.15
-99.09109651,35.35124737,494.12
-99.09109079,35.35124737,494.14
-99.09073651,35.35124764,502.64
-99.09058485,35.35124775,505.87
-99.09054533,35.35124778,508.74
-99.09045134,35.35124785,494.28
-99.09044045,35.35124786,494.34
-99.09035372,35.35124792,501.25
-99.09033600,35.35124794,501.85
-99.09032973,35.35124794,502.34
-99.09030794,35.35124796,504.53
-99.09030364,35.35124796,504.31
-99.09029847,35.35124797,504.29
-99.09028901,35.35124797,502.05
-99.09028658,35.35124797,500.75
-99.09011797,35.35124810,493.47
-99.09007296,35.35124813,493.44
-99.09003257,35.35124816,493.41
-99.08975929,35.35124837,493.40
-99.08975434,35.35124837,493.41
-99.08974917,35.35124837,493.39
-99.08967829,35.35124843,493.33
-99.08957945,35.35124850,493.16
-99.08952057,35.35124854,493.09
-99.08942108,35.35124862,493.02
-99.08936649,35.35124866,493.00
-99.08924762,35.35124875,493.01
-99.08915132,35.35124882,493.10
-99.08914626,35.35124882,493.10
-99.08914417,35.35124882,493.14
-99.08914120,35.35124882,493.13
-99.08909101,35.35124886,493.25
-99.08876656,35.35124910,493.26
-99.08871131,35.35124914,493.13
-99.08860455,35.35124922,492.84
-99.08858507,35.35124923,492.83
-99.08847655,35.35124931,492.47
-99.08847149,35.35124932,492.45
-99.08804875,35.35125044,492.06
-99.08804798,35.35125359,492.08
-99.08804780,35.35128822,492.14
-99.08804811,35.35167414,493.25
-99.08804870,35.35211272,496.36
-99.08804888,35.35238062,497.65
-99.08804893,35.35243174,497.71
-99.08804897,35.35246844,497.80
-99.08804908,35.35256925,498.11
-99.08804932,35.35278692,499.42
-99.08804973,35.35306698,500.74
-99.08805006,35.35336815,502.63
-99.08805027,35.35366724,506.33
-99.08805066,35.35402719,508.20
-99.08805078,35.35413323,508.64
-99.08805080,35.35415172,508.69
-99.08805083,35.35418111,508.86
-99.08805107,35.35439995,509.58
-99.08805116,35.35448886,509.82
-99.08805132,35.35463205,510.22
-99.08805140,35.35470184,510.42
-99.08805189,35.35495756,510.31
-99.08805192,35.35518325,509.19
-99.08805210,35.35534727,508.45
-99.08805242,35.35554257,507.86
-99.08805288,35.35596781,505.47
-99.08805290,35.35598539,505.32
-99.08805308,35.35614851,504.31
-99.08805340,35.35654715,503.24
-99.08805380,35.35692099,504.27
-99.08805382,35.35693163,504.28
-99.08805397,35.35706895,505.22
-99.08805422,35.35730754,506.89
-99.08805434,35.35741782,507.66
-99.08805438,35.35744676,507.96
-99.08805457,35.35762953,508.38
-99.08805465,35.35769960,508.23
-99.08805495,35.35797632,507.09
-99.08805516,35.35817127,506.16
-99.08805530,35.35830003,505.15
-99.08805542,35.35840814,505.39
-99.08805579,35.35864835,506.27
-99.08805614,35.35906980,507.53
-99.08805614,35.35907413,507.50
-99.08805651,35.35940893,508.43
-99.08805675,35.35953616,508.98
-99.08805715,35.35990134,510.60
-99.08805726,35.36010350,511.34
-99.08805742,35.36024687,511.67
-99.08806107,35.36026301,511.75
-99.08814615,35.36026637,511.58
-99.08830312,35.36026626,511.39
-99.08837664,35.36026620,511.43
-99.08849376,35.36026612,511.24
-99.08853350,35.36026609,511.21
-99.08862673,35.36026602,511.18
-99.08879018,35.36026590,511.07
-99.08880361,35.36026589,511.17
-99.08893251,35.36026579,511.22
-99.08898215,35.36026576,511.18
-99.08908033,35.36026569,511.38
-99.08913713,35.36026564,511.50
-99.08934032,35.36026549,511.99
-99.08946580,35.36026540,512.31
-99.08946734,35.36026540,512.33
-99.08978215,35.36026517,513.29
-99.08980383,35.36026515,513.37
-99.08983630,35.36026513,513.45
-99.09013206,35.36026491,514.26
-99.09014968,35.36026489,514.35
-99.09020185,35.36026485,514.51
-99.09032821,35.36026476,514.86
-99.09045050,35.36026467,515.19
-99.09051985,35.36026462,515.48
-99.09057235,35.36026458,515.58
-99.09075760,35.36026444,516.26
-99.09078655,35.36026442,516.34
-99.09095628,35.36026429,516.87
-99.09101440,35.36026425,517.11
-99.09133625,35.36026400,518.04
-99.09164786,35.36026377,518.55
     </coordinates>
    </LineString>
   </MultiGeometry>
  </Placemark>
 </Document>
</kml>
