<kml>
 <Document>
  <Style id="yellow">
   <LineStyle>
   <color>ff00ffff</color>
   <width>1</width>
   </LineStyle>
  </Style>
  <Style id="red">
   <LineStyle>
   <color>ffff0000</color>
   <width>2</width>
   </LineStyle>
  </Style>
  <Style id="green">
   <LineStyle>
   <color>ff00ff00</color>
   <width>1</width>
   </LineStyle>
  </Style>
  <Placemark>
  <styleUrl>#yellow</styleUrl>
   <MultiGeometry>
    <LineString>
     <coordinates>
-99.11177057,35.36024449,539.26
-99.11212886,35.36024650,539.37
-99.11213370,35.36024650,539.37
-99.11268208,35.36024563,539.72
-99.11271928,35.36024568,539.73
-99.11275737,35.36024574,539.74
-99.11279909,35.36024579,539.75
-99.11283728,35.36024584,539.74
-99.11284179,35.36024584,539.73
-99.11284631,35.36024583,539.76
-99.11285137,35.36024583,539.74
-99.11285599,35.36024582,539.75
-99.11286084,35.36024582,539.72
-99.11286535,35.36024581,539.76
-99.11286986,35.36024581,539.75
-99.11287492,35.36024581,539.73
-99.11289903,35.36024578,539.77
-99.11290365,35.36024578,539.77
-99.11290839,35.36024577,539.76
-99.11291279,35.36024577,539.80
-99.11303090,35.36024566,539.77
-99.11303574,35.36024565,539.76
-99.11305874,35.36024545,539.74
-99.11308274,35.36024525,539.72
-99.11311488,35.36024495,539.73
-99.11316661,35.36024445,539.76
-99.11318951,35.36024425,539.75
-99.11323166,35.36024385,539.76
-99.11326369,35.36024355,539.76
-99.11330607,35.36024315,539.77
-99.11332897,35.36024295,539.76
-99.11337101,35.36024255,539.78
-99.11391829,35.36024483,539.56
-99.11392313,35.36024482,539.54
-99.11393700,35.36024472,539.52
-99.11397740,35.36024432,539.52
-99.11401912,35.36024392,539.53
-99.11405049,35.36024362,539.50
-99.11405995,35.36024352,539.50
-99.11460084,35.36024418,539.55
-99.11460514,35.36024418,539.57
-99.11466447,35.36024358,539.57
-99.11519369,35.36024362,539.86
-99.11519798,35.36024361,539.87
-99.11573282,35.36024310,539.93
-99.11573733,35.36024310,539.92
-99.11618741,35.36024267,539.63
-99.11621141,35.36024264,539.57
-99.11621592,35.36024264,539.54
-99.11638543,35.36024248,539.20
-99.11654107,35.36024233,539.15
-99.11671708,35.36024216,539.50
-99.11673348,35.36024214,539.62
-99.11683695,35.36024204,539.74
-99.11689319,35.36024199,539.79
-99.11702781,35.36024186,540.10
-99.11703243,35.36024185,540.07
-99.11718576,35.36024170,539.55
-99.11737497,35.36024152,539.13
-99.11746259,35.36024143,539.40
-99.11780095,35.36024110,539.76
-99.11780568,35.36024110,539.75
-99.11790783,35.36024100,539.77
-99.11796892,35.36024094,539.72
-99.11807338,35.36024084,539.42
-99.11816199,35.36024075,538.99
-99.11816672,35.36024075,538.99
-99.11823430,35.36024068,539.41
-99.11835417,35.36024056,539.49
-99.11844641,35.36024047,539.28
-99.11867734,35.36024025,539.12
-99.11868284,35.36024024,539.01
-99.11898125,35.36023995,538.96
-99.11910618,35.36023983,538.97
-99.11916540,35.36023977,538.92
-99.11927998,35.36023965,538.90
-99.11939104,35.36023954,538.95
-99.11968537,35.36023916,539.02
-99.12003320,35.36023891,539.07
-99.12034151,35.36023851,538.55
-99.12060777,35.36023834,538.33
-99.12081493,35.36023813,538.30
-99.12096616,35.36023798,538.39
-99.12102494,35.36023792,538.42
-99.12107502,35.36023751,538.49
-99.12107711,35.36023363,538.50
-99.12107854,35.36023065,538.52
-99.12107873,35.36021532,538.54
-99.12107839,35.35998747,538.76
-99.12107819,35.35985086,538.96
-99.12107789,35.35965231,539.02
-99.12107788,35.35964473,539.04
-99.12107745,35.35935701,539.44
-99.12107721,35.35919614,539.57
-99.12107711,35.35913077,539.55
-99.12107674,35.35888263,539.64
-99.12107630,35.35858696,539.80
-99.12107580,35.35825190,539.97
-99.12107580,35.35824775,539.96
-99.12107564,35.35814108,540.17
-99.12107545,35.35801259,540.23
-99.12107536,35.35795380,540.27
-99.12107497,35.35769231,540.45
-99.12107478,35.35756436,540.53
-99.12107475,35.35754903,540.53
-99.12107468,35.35749673,540.54
-99.12107464,35.35747365,540.52
-99.12107421,35.35718853,540.58
-99.12107385,35.35701794,540.58
-99.12107345,35.35667574,540.74
-99.12107320,35.35650713,540.98
-99.12107309,35.35643517,541.08
-99.12107291,35.35631723,541.02
-99.12107288,35.35629649,540.96
-99.12107254,35.35606539,540.80
-99.12107251,35.35604754,540.78
-99.12107234,35.35592942,540.67
-99.12107194,35.35566684,540.51
-99.12107194,35.35566216,540.52
-99.12107189,35.35562825,540.50
-99.12107184,35.35559597,540.51
-99.12107180,35.35557118,540.47
-99.12107180,35.35556829,540.49
-99.12107164,35.35546090,540.41
-99.12107152,35.35538407,540.41
-99.12107133,35.35525631,540.37
-99.12107126,35.35520861,540.37
-99.12107112,35.35511330,540.32
-99.12107063,35.35478373,540.38
-99.12107061,35.35477643,540.37
-99.12107058,35.35475506,540.38
-99.12107036,35.35460465,540.46
-99.12107009,35.35442170,540.52
-99.12107004,35.35439312,540.56
-99.12107001,35.35437130,540.55
-99.12106989,35.35429393,540.55
-99.12106945,35.35399619,540.60
-99.12106942,35.35397302,540.56
-99.12106888,35.35361144,540.57
-99.12106873,35.35351686,540.19
-99.12106870,35.35349377,540.14
-99.12106831,35.35323544,539.99
-99.12106827,35.35320469,539.97
-99.12106782,35.35290542,539.74
-99.12106780,35.35288811,539.69
-99.12106778,35.35287648,539.70
-99.12106767,35.35280633,540.03
-99.12106757,35.35273446,539.83
-99.12106752,35.35270308,539.63
-99.12106743,35.35264447,539.52
-99.12106719,35.35247856,539.54
-99.12106681,35.35222645,539.43
-99.12106668,35.35213763,539.41
-99.12106609,35.35182159,539.02
-99.12106573,35.35150221,538.66
-99.12106519,35.35129077,538.33
-99.12106506,35.35127715,538.27
-99.12106278,35.35122170,538.31
-99.12105155,35.35122126,538.25
-99.12104627,35.35122108,538.22
-99.12077255,35.35122190,538.13
-99.12045526,35.35122645,537.79
-99.12011429,35.35122201,537.74
-99.12010934,35.35122202,537.78
-99.12010493,35.35122202,537.76
-99.12010053,35.35122203,537.76
-99.12009569,35.35122203,537.76
-99.12009118,35.35122204,537.72
-99.12008644,35.35122204,537.74
-99.12008193,35.35122205,537.76
-99.12007742,35.35122205,537.74
-99.12007291,35.35122205,537.76
-99.11999388,35.35122231,537.77
-99.11995184,35.35122245,537.76
-99.11988228,35.35122269,537.68
-99.11984486,35.35122282,537.67
-99.11976595,35.35122308,537.62
-99.11969628,35.35122333,537.56
-99.11965941,35.35122346,537.54
-99.11961726,35.35122359,537.52
-99.11958061,35.35122371,537.50
-99.11953813,35.35122385,537.50
-99.11950126,35.35122397,537.48
-99.11945900,35.35122411,537.51
-99.11942213,35.35122423,537.47
-99.11938020,35.35122436,537.46
-99.11934245,35.35122449,537.44
-99.11881251,35.35122339,537.32
-99.11873855,35.35122337,537.05
-99.11867339,35.35122344,536.91
-99.11852635,35.35122358,536.71
-99.11844161,35.35122366,536.92
-99.11830469,35.35122380,537.35
-99.11823547,35.35122387,536.60
-99.11822831,35.35122387,537.40
-99.11817262,35.35122393,536.88
-99.11809547,35.35122400,537.11
-99.11797771,35.35122412,536.03
-99.11778709,35.35122430,536.26
-99.11764896,35.35122444,535.64
-99.11764456,35.35122444,535.73
-99.11763961,35.35122445,535.63
-99.11763498,35.35122445,535.64
-99.11762992,35.35122446,535.66
-99.11762607,35.35122446,535.73
-99.11762497,35.35122446,535.71
-99.11761991,35.35122447,535.72
-99.11761539,35.35122447,535.71
-99.11758271,35.35122450,535.47
-99.11753956,35.35122454,536.69
-99.11752052,35.35122456,536.86
-99.11751117,35.35122457,536.98
-99.11749686,35.35122459,536.92
-99.11748762,35.35122460,537.14
-99.11740441,35.35122468,535.37
-99.11734861,35.35122473,536.82
-99.11718440,35.35122489,534.67
-99.11702218,35.35122505,535.25
-99.11697221,35.35122510,535.17
-99.11688614,35.35122518,535.05
-99.11670355,35.35122535,534.64
-99.11667010,35.35122539,534.57
-99.11638603,35.35122566,534.35
-99.11629303,35.35122575,534.11
-99.11624703,35.35122579,533.94
-99.11619134,35.35122585,533.85
-99.11614170,35.35122590,533.76
-99.11598608,35.35122605,533.34
-99.11585940,35.35122617,533.03
-99.11578555,35.35122624,532.88
-99.11573272,35.35122629,532.77
-99.11522337,35.35122677,532.23
-99.11490981,35.35122707,532.43
-99.11453022,35.35122743,531.09
-99.11435159,35.35122760,530.54
-99.11410924,35.35122783,530.07
-99.11405498,35.35122788,529.90
-99.11384884,35.35122808,529.56
-99.11366427,35.35122825,529.40
-99.11353913,35.35122837,529.45
-99.11349863,35.35122841,529.45
-99.11338109,35.35122852,529.30
-99.11329799,35.35122859,529.27
-99.11320037,35.35122869,529.11
-99.11300193,35.35122887,528.99
-99.11280592,35.35122906,528.39
-99.11271413,35.35122914,529.07
-99.11263709,35.35122921,529.05
-99.11229590,35.35122953,529.28
-99.11223878,35.35122958,529.12
-99.11209912,35.35122971,528.93
-99.11202043,35.35122979,528.99
-99.11199126,35.35122981,528.97
-99.11193579,35.35122986,528.89
-99.11178226,35.35123001,528.92
-99.11171974,35.35123006,528.99
-99.11166086,35.35123012,528.99
-99.11142203,35.35123034,529.10
-99.11108129,35.35123065,529.33
-99.11094515,35.35123078,529.32
-99.11083454,35.35123088,529.61
-99.11044251,35.35123124,529.82
-99.11018200,35.35123157,529.98
-99.11006357,35.35123285,530.51
-99.11005951,35.35123772,530.54
-99.11005957,35.35128443,530.27
-99.11005968,35.35135990,530.48
-99.11006002,35.35161688,531.22
-99.11006071,35.35187846,531.91
-99.11006079,35.35217926,532.26
-99.11006133,35.35249756,532.86
-99.11006153,35.35272722,533.06
-99.11006209,35.35305904,533.69
-99.11006247,35.35342278,533.83
-99.11006256,35.35348320,533.89
-99.11006301,35.35381854,534.05
-99.11006314,35.35391393,534.53
-99.11006317,35.35393386,534.65
-99.11006355,35.35421302,535.04
-99.11006370,35.35432844,535.00
-99.11006400,35.35454503,534.95
-99.11006456,35.35487811,534.89
-99.11006480,35.35513563,535.07
-99.11006491,35.35521552,535.17
-99.11006508,35.35534077,535.46
-99.11006531,35.35551254,535.90
-99.11006536,35.35555239,535.88
-99.11006537,35.35555645,535.88
-99.11006564,35.35575978,536.27
-99.11006577,35.35585275,536.22
-99.11006618,35.35615436,536.32
-99.11006635,35.35627934,536.32
-99.11006685,35.35664668,536.64
-99.11006701,35.35676427,536.48
-99.11006722,35.35692359,536.26
-99.11006752,35.35714081,536.22
-99.11006768,35.35725803,536.40
-99.11006783,35.35736912,536.78
-99.11006800,35.35749563,537.56
-99.11006805,35.35753205,537.25
-99.11006817,35.35762267,537.19
-99.11006824,35.35767127,537.23
-99.11006842,35.35780761,537.31
-99.11006870,35.35801419,537.08
-99.11006877,35.35806657,537.11
-99.11006889,35.35815368,537.13
-99.11006935,35.35849181,537.35
-99.11006970,35.35874906,537.53
-99.11006999,35.35896042,537.51
-99.11007002,35.35898431,537.49
-99.11007006,35.35901145,537.46
-99.11007061,35.35941866,537.40
-99.11007065,35.35944967,537.42
-99.11007083,35.35958349,537.38
-99.11007092,35.35964534,537.44
-99.11007098,35.35968952,537.45
-99.11007098,35.35969286,537.46
-99.11007114,35.35980900,537.59
-99.11007125,35.35988690,537.66
-99.11007154,35.36010656,538.08
-99.11007179,35.36021097,538.20
-99.11007415,35.36024235,538.17
-99.11019160,35.36024251,538.22
-99.11026832,35.36024262,538.23
-99.11030871,35.36024267,538.24
-99.11058411,35.36024296,538.37
-99.11062495,35.36024302,538.43
-99.11066523,35.36024307,538.46
-99.11074184,35.36024318,538.55
-99.11078224,35.36024323,538.58
-99.11082330,35.36024329,538.60
-99.11090035,35.36024340,538.64
-99.11094019,35.36024345,538.69
-99.11147988,35.36024494,539.13
-99.11177057,35.36024449,539.26
     </coordinates>
    </LineString>
   </MultiGeometry>
  </Placemark>
 </Document>
</kml>
