<kml>
 <Document>
  <Style id="yellow">
   <LineStyle>
   <color>ff00ffff</color>
   <width>1</width>
   </LineStyle>
  </Style>
  <Style id="red">
   <LineStyle>
   <color>ffff0000</color>
   <width>2</width>
   </LineStyle>
  </Style>
  <Style id="green">
   <LineStyle>
   <color>ff00ff00</color>
   <width>1</width>
   </LineStyle>
  </Style>
  <Placemark>
  <styleUrl>#yellow</styleUrl>
   <MultiGeometry>
    <LineString>
     <coordinates>
-99.12109929,35.37390979,524.95
-99.12109935,35.37394937,525.07
-99.12109955,35.37408382,524.52
-99.12109960,35.37411249,524.61
-99.12109976,35.37421835,524.55
-99.12109987,35.37429156,525.48
-99.12110010,35.37444729,525.53
-99.12110018,35.37450409,525.82
-99.12110026,35.37455819,526.09
-99.12110030,35.37458497,526.18
-99.12110040,35.37464962,526.38
-99.12110061,35.37479128,526.49
-99.12110073,35.37487252,526.36
-99.12110084,35.37494655,526.26
-99.12110090,35.37498406,526.16
-99.12110097,35.37503446,526.05
-99.12110102,35.37506296,526.10
-99.12110129,35.37524366,525.67
-99.12110136,35.37529325,525.57
-99.12110137,35.37529749,525.55
-99.12110143,35.37533761,525.29
-99.12110165,35.37548801,525.20
-99.12110188,35.37563742,524.88
-99.12110205,35.37575653,524.99
-99.12110216,35.37582912,525.15
-99.12110224,35.37588196,525.15
-99.12110225,35.37588872,525.15
-99.12110226,35.37589485,525.12
-99.12110227,35.37589864,525.11
-99.12110228,35.37590721,525.16
-99.12110268,35.37617519,525.29
-99.12110292,35.37633470,525.52
-99.12110294,35.37634714,525.61
-99.12110298,35.37637707,525.66
-99.12110303,35.37641170,525.76
-99.12110368,35.37684685,526.00
-99.12110426,35.37723034,526.35
-99.12110447,35.37737596,527.02
-99.12110482,35.37760652,526.79
-99.12110491,35.37766748,526.85
-99.12110492,35.37767550,526.88
-99.12110508,35.37778181,527.15
-99.12110525,35.37789470,527.40
-99.12110529,35.37792328,527.51
-99.12110534,35.37795530,527.56
-99.12110545,35.37803194,527.63
-99.12110571,35.37820055,528.07
-99.12110577,35.37824356,528.90
-99.12110579,35.37825429,529.14
-99.12110581,35.37826728,529.18
-99.12110922,35.37826935,529.15
-99.12112959,35.37827113,529.13
-99.12113488,35.37827158,529.12
-99.12130608,35.37827141,529.45
-99.12138601,35.37827133,529.46
-99.12143324,35.37827128,529.57
-99.12145856,35.37827125,529.62
-99.12146329,35.37827125,529.59
-99.12146803,35.37827124,529.61
-99.12147298,35.37827124,529.61
-99.12147463,35.37827124,529.62
-99.12147750,35.37827123,529.64
-99.12175989,35.37827086,529.95
-99.12204812,35.37827066,529.74
-99.12217759,35.37827053,529.61
-99.12252715,35.37827017,535.97
-99.12253276,35.37827017,535.79
-99.12257009,35.37827013,535.81
-99.12266279,35.37827004,536.10
-99.12267677,35.37827002,529.84
-99.12275152,35.37826995,539.64
-99.12287670,35.37826982,530.10
-99.12289608,35.37826980,536.96
-99.12289894,35.37826980,535.78
-99.12291414,35.37826978,530.28
-99.12291953,35.37826977,530.28
-99.12297370,35.37826972,530.31
-99.12302225,35.37826967,530.36
-99.12316548,35.37826952,537.17
-99.12334538,35.37826934,531.17
-99.12353728,35.37826915,531.47
-99.12400441,35.37826867,531.42
-99.12407025,35.37826860,531.44
-99.12413411,35.37826853,537.60
-99.12423738,35.37826843,531.80
-99.12429055,35.37826837,542.45
-99.12441254,35.37826825,532.13
-99.12478191,35.37826787,533.12
-99.12518596,35.37826745,533.64
-99.12542399,35.37826720,533.80
-99.12555776,35.37826706,533.83
-99.12579314,35.37826682,534.10
-99.12593737,35.37826667,534.84
-99.12637148,35.37826612,536.11
-99.12670320,35.37826587,537.33
-99.12691139,35.37826565,537.66
-99.12691601,35.37826564,537.66
-99.12692140,35.37826564,537.68
-99.12692647,35.37826563,537.68
-99.12693164,35.37826563,537.66
-99.12693638,35.37826562,537.66
-99.12694122,35.37826562,537.66
-99.12694585,35.37826561,537.67
-99.12695069,35.37826561,537.64
-99.12695575,35.37826560,537.65
-99.12696071,35.37826560,537.68
-99.12704945,35.37826550,537.65
-99.12724189,35.37826530,537.15
-99.12767611,35.37826484,536.55
-99.12787417,35.37826463,536.14
-99.12840230,35.37826407,545.13
-99.12894683,35.37825962,536.67
-99.12906232,35.37825967,536.71
-99.12913433,35.37825969,536.78
-99.12920622,35.37825970,536.81
-99.12927822,35.37825971,536.84
-99.12940230,35.37825967,537.12
-99.12947970,35.37825968,537.12
-99.12953221,35.37825971,537.17
-99.12953739,35.37825971,537.16
-99.12954201,35.37825970,537.18
-99.12954652,35.37825970,537.20
-99.12955159,35.37825969,537.19
-99.12955665,35.37825968,537.19
-99.13010395,35.37826225,537.83
-99.13011903,35.37826224,537.98
-99.13013180,35.37826222,537.87
-99.13013973,35.37826221,537.87
-99.13014446,35.37826221,537.83
-99.13016075,35.37826219,537.81
-99.13019356,35.37826216,538.00
-99.13022527,35.37826212,538.05
-99.13023463,35.37826211,538.09
-99.13024982,35.37826210,538.09
-99.13025015,35.37826210,538.12
-99.13025379,35.37826209,538.13
-99.13025610,35.37826209,538.10
-99.13025973,35.37826209,538.15
-99.13027823,35.37826207,538.23
-99.13029133,35.37826205,538.21
-99.13030014,35.37826204,538.19
-99.13031555,35.37826202,538.30
-99.13033305,35.37826201,538.34
-99.13033922,35.37826200,538.33
-99.13034120,35.37826200,538.31
-99.13037346,35.37826196,538.35
-99.13038744,35.37826195,538.40
-99.13038832,35.37826195,538.36
-99.13038997,35.37826194,552.65
-99.13039108,35.37826194,538.37
-99.13039339,35.37826194,552.82
-99.13039724,35.37826194,552.12
-99.13039834,35.37826194,538.37
-99.13039922,35.37826193,538.35
-99.13039977,35.37826193,538.36
-99.13040484,35.37826193,553.85
-99.13040671,35.37826193,550.83
-99.13040759,35.37826193,538.37
-99.13040902,35.37826192,550.98
-99.13041221,35.37826192,550.99
-99.13041254,35.37826192,553.60
-99.13041265,35.37826192,553.54
-99.13041276,35.37826192,538.38
-99.13043148,35.37826190,540.85
-99.13051075,35.37826181,546.74
-99.13056844,35.37826175,546.02
-99.13058484,35.37826173,546.44
-99.13062018,35.37826170,538.59
-99.13062580,35.37826169,538.66
-99.13064297,35.37826167,546.10
-99.13067512,35.37826164,538.56
-99.13069450,35.37826162,541.09
-99.13070650,35.37826160,543.89
-99.13071696,35.37826159,541.65
-99.13071707,35.37826159,544.17
-99.13080702,35.37826149,538.78
-99.13086096,35.37826143,544.60
-99.13095521,35.37826133,547.56
-99.13097701,35.37826131,548.30
-99.13097976,35.37826131,544.37
-99.13107807,35.37826120,547.35
-99.13108336,35.37826119,544.34
-99.13118443,35.37826108,538.94
-99.13120644,35.37826106,539.69
-99.13124663,35.37826102,549.64
-99.13131610,35.37826094,551.80
-99.13131995,35.37826094,543.38
-99.13135750,35.37826090,538.92
-99.13137610,35.37826088,547.48
-99.13140484,35.37826085,545.88
-99.13149071,35.37826075,539.31
-99.13149842,35.37826074,551.20
-99.13150624,35.37826073,549.13
-99.13152969,35.37826071,552.15
-99.13170683,35.37826052,549.94
-99.13175802,35.37826046,547.38
-99.13175813,35.37826046,543.67
-99.13176353,35.37826045,543.89
-99.13177674,35.37826044,539.51
-99.13182562,35.37826039,545.70
-99.13186129,35.37826035,546.74
-99.13187550,35.37826033,542.54
-99.13189025,35.37826032,543.01
-99.13192141,35.37826028,543.81
-99.13200387,35.37826019,554.85
-99.13200860,35.37826019,546.45
-99.13206541,35.37826012,552.84
-99.13210868,35.37825990,539.34
-99.13211319,35.37825845,545.83
-99.13211495,35.37825709,539.22
-99.13211516,35.37825051,545.70
-99.13211525,35.37824059,539.26
-99.13211523,35.37822851,539.58
-99.13211519,35.37820290,539.90
-99.13211514,35.37817125,549.40
-99.13211510,35.37814664,540.32
-99.13211508,35.37813284,550.43
-99.13211503,35.37810579,549.85
-99.13211503,35.37810345,549.69
-99.13211497,35.37806729,539.67
-99.13211488,35.37800922,539.49
-99.13211483,35.37798001,539.52
-99.13211481,35.37796756,539.52
-99.13211474,35.37792320,539.56
-99.13211457,35.37782104,539.57
-99.13211431,35.37766243,539.77
-99.13211385,35.37738156,540.40
-99.13211369,35.37728418,540.25
-99.13211356,35.37719852,540.58
-99.13211344,35.37713035,540.96
-99.13211342,35.37711403,541.08
-99.13211309,35.37691142,541.42
-99.13211300,35.37685858,541.56
-99.13211292,35.37680944,541.74
-99.13211286,35.37677481,541.94
-99.13211229,35.37642478,542.18
-99.13211221,35.37637059,542.02
-99.13211220,35.37636473,541.98
-99.13211212,35.37631568,541.78
-99.13211198,35.37623182,541.57
-99.13211196,35.37621902,541.51
-99.13211193,35.37619900,541.40
-99.13211183,35.37614219,541.19
-99.13211154,35.37596276,540.57
-99.13211149,35.37593111,540.45
-99.13211136,35.37585086,540.21
-99.13211118,35.37573923,539.94
-99.13211104,35.37565384,539.77
-99.13211079,35.37550380,539.47
-99.13211045,35.37529289,539.23
-99.13211041,35.37526918,539.22
-99.13211033,35.37522094,539.22
-99.13211026,35.37517595,539.14
-99.13211025,35.37516810,539.13
-99.13211016,35.37511743,539.14
-99.13210998,35.37500354,539.18
-99.13210981,35.37489913,539.28
-99.13210975,35.37486604,539.28
-99.13210941,35.37465567,539.05
-99.13210914,35.37449157,545.10
-99.13210912,35.37447515,543.27
-99.13210908,35.37445568,539.03
-99.13210908,35.37445532,546.90
-99.13210904,35.37442574,546.63
-99.13210879,35.37427751,539.18
-99.13210872,35.37422945,539.23
-99.13210866,35.37419302,539.11
-99.13210838,35.37402449,539.28
-99.13210831,35.37398175,544.88
-99.13210814,35.37387445,545.70
-99.13210807,35.37383072,547.21
-99.13210795,35.37376183,548.33
-99.13210790,35.37372721,543.62
-99.13210786,35.37370412,542.51
-99.13210784,35.37369276,539.27
-99.13210756,35.37351820,538.80
-99.13210732,35.37337176,538.61
-99.13210726,35.37333353,538.80
-99.13210701,35.37318403,538.92
-99.13210699,35.37317249,538.97
-99.13210676,35.37302957,539.62
-99.13210670,35.37298981,539.78
-99.13210653,35.37288656,539.97
-99.13210644,35.37283057,540.01
-99.13210639,35.37280352,540.07
-99.13210631,35.37275582,540.18
-99.13210619,35.37267873,540.21
-99.13210611,35.37263094,540.13
-99.13210586,35.37247936,539.99
-99.13210562,35.37233230,540.04
-99.13210554,35.37228108,540.04
-99.13210541,35.37220336,540.03
-99.13210516,35.37204556,540.03
-99.13210501,35.37195539,539.95
-99.13210493,35.37190373,539.93
-99.13210432,35.37153007,539.64
-99.13210407,35.37137922,539.82
-99.13210402,35.37134991,539.92
-99.13210400,35.37133801,539.97
-99.13210396,35.37131258,539.99
-99.13210387,35.37125550,540.03
-99.13210379,35.37120862,539.95
-99.13210378,35.37120158,539.91
-99.13210371,35.37115641,539.70
-99.13210368,35.37113883,539.65
-99.13210359,35.37108292,539.53
-99.13210351,35.37103657,540.25
-99.13210346,35.37100529,540.67
-99.13210337,35.37095100,539.94
-99.13210302,35.37073514,538.91
-99.13210277,35.37057771,543.90
-99.13210274,35.37055967,541.71
-99.13210268,35.37052343,538.74
-99.13210255,35.37044318,538.16
-99.13210244,35.37038069,538.15
-99.13210223,35.37024823,538.23
-99.13210198,35.37009666,538.33
-99.13210130,35.36967990,538.32
-99.13210101,35.36950281,537.80
-99.13210070,35.36931228,537.70
-99.13210059,35.36924456,537.41
-99.13207010,35.36924360,537.37
-99.13206030,35.36924334,537.32
-99.13189418,35.36924353,537.06
-99.13169449,35.36924374,540.13
-99.13169306,35.36924375,539.45
-99.13168833,35.36924375,537.17
-99.13168326,35.36924376,539.84
-99.13165101,35.36924379,537.22
-99.13142886,35.36924403,537.10
-99.13141400,35.36924405,537.07
-99.13112052,35.36924437,537.12
-99.13108122,35.36924441,537.04
-99.13094692,35.36924456,536.57
-99.13072499,35.36924480,536.19
-99.13061292,35.36924492,535.51
-99.13060544,35.36924493,535.46
-99.13046805,35.36924507,535.06
-99.13041653,35.36924513,535.19
-99.13034850,35.36924520,534.74
-99.13021541,35.36924535,534.13
-99.13014198,35.36924543,534.24
-99.13006316,35.36924551,534.35
-99.12982021,35.36924577,533.74
-99.12971871,35.36924588,535.75
-99.12964099,35.36924596,539.89
-99.12963659,35.36924597,539.69
-99.12955028,35.36924606,533.50
-99.12939914,35.36924622,533.76
-99.12928509,35.36924635,533.53
-99.12896728,35.36924669,533.22
-99.12881636,35.36924685,533.20
-99.12871123,35.36924696,533.16
-99.12855898,35.36924712,533.02
-99.12836402,35.36924733,532.69
-99.12808705,35.36924762,532.27
-99.12804401,35.36924767,532.17
-99.12788494,35.36924784,531.81
-99.12786700,35.36924785,531.75
-99.12771717,35.36924801,531.91
-99.12754786,35.36924819,531.37
-99.12729280,35.36924846,531.07
-99.12700141,35.36924877,530.59
-99.12697609,35.36924879,530.54
-99.12679908,35.36924898,530.23
-99.12665421,35.36924913,529.86
-99.12661579,35.36924917,529.76
-99.12645286,35.36924934,529.77
-99.12642501,35.36924937,529.74
-99.12624734,35.36924956,529.75
-99.12609124,35.36924972,530.17
-99.12581625,35.36925001,528.87
-99.12575791,35.36925007,528.63
-99.12563384,35.36925020,528.38
-99.12545308,35.36925038,528.06
-99.12536986,35.36925047,527.97
-99.12527706,35.36925057,527.94
-99.12484663,35.36925101,527.21
-99.12467644,35.36925119,526.89
-99.12440145,35.36925147,525.81
-99.12424492,35.36925163,525.37
-99.12411337,35.36925177,524.94
-99.12385126,35.36925204,524.70
-99.12369824,35.36925219,522.89
-99.12367777,35.36925221,522.77
-99.12357396,35.36925232,522.58
-99.12343910,35.36925246,521.25
-99.12337096,35.36925253,520.15
-99.12319824,35.36925270,519.68
-99.12305932,35.36925285,519.09
-99.12305799,35.36925285,519.13
-99.12298292,35.36925292,518.70
-99.12295705,35.36925295,519.46
-99.12265454,35.36925326,523.96
-99.12263714,35.36925327,524.00
-99.12257352,35.36925334,523.97
-99.12250835,35.36925341,523.88
-99.12244923,35.36925347,523.79
-99.12235951,35.36925356,523.62
-99.12221872,35.36925370,523.47
-99.12191577,35.36925400,522.36
-99.12183981,35.36925408,522.44
-99.12175317,35.36925417,522.34
-99.12167281,35.36925425,522.15
-99.12152981,35.36925439,520.87
-99.12150637,35.36925442,520.56
-99.12145264,35.36925447,520.42
-99.12139771,35.36925453,520.11
-99.12133992,35.36925458,519.92
-99.12129688,35.36925463,519.77
-99.12117017,35.36925475,519.89
-99.12113439,35.36925479,519.75
-99.12109642,35.36925546,519.72
-99.12109565,35.36925735,519.70
-99.12109466,35.36926033,519.66
-99.12109302,35.36926646,519.63
-99.12109242,35.36930506,519.34
-99.12109246,35.36933292,519.24
-99.12109263,35.36945041,517.69
-99.12109281,35.36956637,521.47
-99.12109292,35.36964238,522.08
-99.12109327,35.36987826,522.55
-99.12109333,35.36991920,522.68
-99.12109344,35.36999331,523.12
-99.12109355,35.37006581,523.22
-99.12109368,35.37014931,523.11
-99.12109383,35.37025048,523.01
-99.12109411,35.37043992,523.26
-99.12109437,35.37061440,523.25
-99.12109462,35.37070700,523.23
-99.12109510,35.37110158,523.44
-99.12109510,35.37110257,523.46
-99.12109510,35.37110383,523.44
-99.12109535,35.37127091,523.21
-99.12109544,35.37132826,523.17
-99.12109561,35.37144016,523.26
-99.12109614,35.37179705,523.97
-99.12109648,35.37202563,520.21
-99.12109659,35.37210191,524.73
-99.12109667,35.37215538,524.73
-99.12109700,35.37237151,524.66
-99.12109729,35.37257006,524.73
-99.12109738,35.37262714,524.56
-99.12109750,35.37270730,524.36
-99.12109761,35.37278458,524.29
-99.12109782,35.37292533,524.06
-99.12109795,35.37301099,524.03
-99.12109814,35.37313641,524.52
-99.12109836,35.37328438,524.42
-99.12109837,35.37328979,524.40
-99.12109840,35.37330819,524.43
-99.12109856,35.37341494,524.68
-99.12109867,35.37349159,525.39
-99.12109877,35.37355543,525.37
-99.12109918,35.37383387,524.86
-99.12109929,35.37390979,524.95
     </coordinates>
    </LineString>
   </MultiGeometry>
  </Placemark>
 </Document>
</kml>
