<kml>
 <Document>
  <Style id="yellow">
   <LineStyle>
   <color>ff00ffff</color>
   <width>1</width>
   </LineStyle>
  </Style>
  <Style id="red">
   <LineStyle>
   <color>ffff0000</color>
   <width>2</width>
   </LineStyle>
  </Style>
  <Style id="green">
   <LineStyle>
   <color>ff00ff00</color>
   <width>1</width>
   </LineStyle>
  </Style>
  <Placemark>
  <styleUrl>#yellow</styleUrl>
   <MultiGeometry>
    <LineString>
     <coordinates>
-99.06011822,35.35126665,497.39
-99.06020538,35.35126661,496.77
-99.06071133,35.35126636,493.08
-99.06104448,35.35126610,492.95
-99.06138555,35.35126602,491.66
-99.06141284,35.35126600,491.53
-99.06159048,35.35126591,490.78
-99.06173708,35.35126584,490.74
-99.06175711,35.35126583,491.08
-99.06191428,35.35126575,488.80
-99.06200364,35.35126570,488.40
-99.06216576,35.35126562,487.78
-99.06245555,35.35126547,488.16
-99.06273015,35.35126533,491.02
-99.06289634,35.35126524,492.84
-99.06291009,35.35126523,492.91
-99.06318711,35.35126509,494.53
-99.06334384,35.35126501,493.38
-99.06334615,35.35126500,493.35
-99.06380708,35.35126476,489.39
-99.06401278,35.35126465,488.13
-99.06409620,35.35126461,487.25
-99.06426712,35.35126452,488.81
-99.06444366,35.35126442,490.71
-99.06461524,35.35126433,491.64
-99.06488588,35.35126410,493.57
-99.06524203,35.35126400,495.36
-99.06529178,35.35126397,495.67
-99.06563274,35.35126378,497.09
-99.06597613,35.35126360,496.88
-99.06601740,35.35126358,496.83
-99.06603567,35.35125978,496.78
-99.06603541,35.35094482,496.49
-99.06603519,35.35067494,497.22
-99.06603518,35.35066538,497.24
-99.06603504,35.35049298,497.80
-99.06603501,35.35045619,497.88
-99.06603498,35.35041372,498.05
-99.06603494,35.35037188,498.26
-99.06603488,35.35029154,498.41
-99.06603473,35.35011075,499.83
-99.06603462,35.34997487,503.25
-99.06603457,35.34991274,502.85
-99.06603450,35.34982726,502.26
-99.06603448,35.34980228,502.03
-99.06603419,35.34944999,504.37
-99.06603413,35.34937209,503.63
-99.06603412,35.34935964,503.73
-99.06603405,35.34927642,503.60
-99.06603403,35.34925144,503.60
-99.06603395,35.34914991,502.67
-99.06603384,35.34902016,502.43
-99.06603384,35.34901033,502.41
-99.06603382,35.34898779,502.38
-99.06603378,35.34894451,502.39
-99.06603367,35.34880700,503.87
-99.06603365,35.34878851,503.86
-99.06603364,35.34877201,503.84
-99.06603350,35.34860195,502.00
-99.06603342,35.34849988,501.66
-99.06603341,35.34848573,501.63
-99.06603340,35.34847725,501.59
-99.06603337,35.34843406,501.42
-99.06603335,35.34841124,501.35
-99.06603331,35.34836246,501.31
-99.06603313,35.34814930,501.54
-99.06603310,35.34810187,501.82
-99.06603307,35.34806725,502.03
-99.06603302,35.34800269,503.13
-99.06603299,35.34797555,503.66
-99.06603295,35.34791964,504.31
-99.06603265,35.34755049,506.88
-99.06603262,35.34752019,507.01
-99.06603230,35.34712552,509.00
-99.06603227,35.34709180,509.10
-99.06603220,35.34700596,509.24
-99.06603194,35.34668243,508.84
-99.06603191,35.34664348,508.75
-99.06603189,35.34662553,508.96
-99.06603169,35.34636846,508.79
-99.06603168,35.34636008,508.86
-99.06603158,35.34623952,508.92
-99.06603151,35.34615729,508.44
-99.06603137,35.34597767,505.62
-99.06603119,35.34575739,508.14
-99.06603117,35.34573602,508.09
-99.06603108,35.34562249,508.02
-99.06603095,35.34546127,507.79
-99.06603094,35.34544928,507.86
-99.06603080,35.34528418,507.96
-99.06603073,35.34519834,507.97
-99.06603070,35.34515199,508.02
-99.06603059,35.34502206,508.22
-99.06603032,35.34469609,508.46
-99.06603032,35.34468500,508.49
-99.06603025,35.34460097,507.91
-99.06603010,35.34441621,506.99
-99.06602999,35.34428384,506.07
-99.06602997,35.34425472,505.76
-99.06602993,35.34421062,505.52
-99.06602980,35.34405625,504.48
-99.06602974,35.34398286,504.11
-99.06602956,35.34375121,503.12
-99.06602947,35.34364562,507.11
-99.06602947,35.34364535,504.61
-99.06602946,35.34363498,505.78
-99.06602945,35.34361983,504.22
-99.06602944,35.34360460,502.33
-99.06602940,35.34356429,501.67
-99.06602940,35.34355915,501.60
-99.06602924,35.34336610,499.12
-99.06602918,35.34329333,501.76
-99.06602912,35.34321678,502.82
-99.06602910,35.34319532,503.13
-99.06602910,35.34319460,503.15
-99.06602909,35.34317404,503.49
-99.06602905,35.34312490,503.57
-99.06602901,35.34307846,503.99
-99.06602897,35.34303094,504.71
-99.06602887,35.34290822,505.09
-99.06602881,35.34283302,505.31
-99.06602876,35.34277883,505.31
-99.06602874,35.34274637,504.86
-99.06602864,35.34262364,503.06
-99.06602859,35.34256990,501.55
-99.06602855,35.34251111,500.48
-99.06602852,35.34247892,501.73
-99.06602848,35.34243023,497.24
-99.06602844,35.34237983,498.22
-99.06602837,35.34229489,496.75
-99.06602837,35.34228831,500.00
-99.06602835,35.34227550,499.07
-99.06602756,35.34225098,498.81
-99.06602701,35.34224674,501.03
-99.06593688,35.34224679,498.86
-99.06583113,35.34224685,497.87
-99.06571206,35.34224691,497.06
-99.06563579,35.34224695,496.48
-99.06561885,35.34224696,496.25
-99.06553488,35.34224701,502.95
-99.06547556,35.34224704,500.10
-99.06540976,35.34224707,495.05
-99.06532579,35.34224712,494.93
-99.06525767,35.34224716,495.07
-99.06518152,35.34224720,494.97
-99.06514509,35.34224722,494.90
-99.06489705,35.34224735,494.30
-99.06466056,35.34224748,492.74
-99.06459838,35.34224751,492.70
-99.06451760,35.34224755,493.43
-99.06436541,35.34224763,494.03
-99.06412253,35.34224776,497.84
-99.06403472,35.34224781,504.76
-99.06396759,35.34224785,503.80
-99.06344398,35.34224812,499.23
-99.06336739,35.34224816,499.60
-99.06315632,35.34224827,501.44
-99.06313420,35.34224828,502.06
-99.06305915,35.34224832,503.66
-99.06305090,35.34224833,503.73
-99.06278711,35.34224846,504.41
-99.06261159,35.34224856,505.29
-99.06246126,35.34224863,506.41
-99.06220925,35.34224876,509.33
-99.06200292,35.34224887,509.70
-99.06188076,35.34224893,508.12
-99.06184698,35.34224895,507.69
-99.06174221,35.34224900,506.62
-99.06124997,35.34224925,505.11
-99.06087229,35.34224944,504.25
-99.06085678,35.34224945,504.15
-99.06080164,35.34224948,503.82
-99.06058463,35.34224959,501.87
-99.06049373,35.34224963,507.29
-99.06040492,35.34224968,505.77
-99.06035320,35.34224970,505.30
-99.06006752,35.34224985,500.95
-99.05992853,35.34224992,504.76
-99.05950044,35.34225022,507.94
-99.05920860,35.34225027,510.50
-99.05868312,35.34225053,510.53
-99.05849395,35.34225062,510.71
-99.05839227,35.34225067,511.56
-99.05833570,35.34225069,512.01
-99.05799533,35.34225086,514.67
-99.05795725,35.34225088,514.95
-99.05782795,35.34225094,515.72
-99.05778558,35.34225096,515.95
-99.05771812,35.34225099,516.14
-99.05762260,35.34225104,516.64
-99.05756416,35.34225106,516.97
-99.05752532,35.34225108,517.07
-99.05746534,35.34225111,517.27
-99.05734176,35.34225117,517.63
-99.05730148,35.34225119,517.75
-99.05727892,35.34225120,517.84
-99.05727265,35.34225120,517.84
-99.05716084,35.34225126,518.12
-99.05705289,35.34225131,518.21
-99.05689486,35.34225138,518.28
-99.05677810,35.34225144,518.33
-99.05664043,35.34225150,518.25
-99.05638963,35.34225162,517.94
-99.05617383,35.34225172,517.21
-99.05613960,35.34225173,516.62
-99.05608909,35.34225176,516.22
-99.05600997,35.34225179,514.99
-99.05560598,35.34225198,510.23
-99.05547998,35.34225204,507.86
-99.05543508,35.34225206,503.33
-99.05518692,35.34225217,509.20
-99.05505212,35.34225241,507.15
-99.05502725,35.34225288,506.81
-99.05502604,35.34225612,506.77
-99.05502461,35.34226027,506.75
-99.05502379,35.34234386,506.38
-99.05502390,35.34251257,507.02
-99.05502391,35.34252158,507.00
-99.05502400,35.34265296,503.98
-99.05502400,35.34265395,505.85
-99.05502401,35.34267902,505.84
-99.05502401,35.34267947,506.71
-99.05502409,35.34279732,507.21
-99.05502416,35.34289146,506.54
-99.05502416,35.34289551,502.98
-99.05502421,35.34297036,500.88
-99.05502428,35.34307468,505.51
-99.05502428,35.34307513,506.47
-99.05502431,35.34310877,503.76
-99.05502431,35.34310913,504.54
-99.05502435,35.34317297,504.37
-99.05502455,35.34346538,502.31
-99.05502464,35.34359865,509.05
-99.05502465,35.34361218,510.05
-99.05502476,35.34378134,509.17
-99.05502478,35.34381398,505.41
-99.05502478,35.34381416,506.04
-99.05502480,35.34383409,500.77
-99.05502487,35.34394229,502.30
-99.05502494,35.34403859,508.74
-99.05502495,35.34405933,504.06
-99.05502511,35.34429061,504.14
-99.05502529,35.34455625,507.78
-99.05502533,35.34461784,508.19
-99.05502536,35.34466130,501.53
-99.05502539,35.34470611,502.23
-99.05502542,35.34474994,500.51
-99.05502542,35.34475453,500.49
-99.05502555,35.34494632,501.42
-99.05502561,35.34503271,501.85
-99.05502590,35.34545867,503.21
-99.05502606,35.34569725,504.42
-99.05502625,35.34597452,502.46
-99.05502635,35.34612051,497.85
-99.05502635,35.34613052,497.78
-99.05502653,35.34639228,497.23
-99.05502661,35.34650337,497.23
-99.05502671,35.34666080,497.47
-99.05502685,35.34685908,500.37
-99.05502686,35.34687189,500.46
-99.05502697,35.34704474,501.79
-99.05502703,35.34713221,502.42
-99.05502724,35.34744122,504.73
-99.05502729,35.34750650,505.30
-99.05502745,35.34774635,506.64
-99.05502749,35.34780162,506.90
-99.05502756,35.34791199,507.76
-99.05502771,35.34813245,508.60
-99.05502779,35.34824120,508.82
-99.05502814,35.34859881,509.80
-99.05502816,35.34879907,510.03
-99.05502824,35.34890656,509.69
-99.05502831,35.34901070,509.13
-99.05502831,35.34902116,509.06
-99.05502833,35.34904515,508.94
-99.05502846,35.34924235,509.63
-99.05502854,35.34934875,510.08
-99.05502884,35.34979400,512.19
-99.05502900,35.35002844,515.31
-99.05502900,35.35003367,515.55
-99.05502922,35.35035864,517.32
-99.05502923,35.35036423,517.34
-99.05502924,35.35039002,517.36
-99.05502938,35.35058767,517.15
-99.05502943,35.35066368,516.84
-99.05502977,35.35101065,516.69
-99.05502978,35.35118747,514.42
-99.05502981,35.35122751,514.01
-99.05503005,35.35125835,513.76
-99.05503303,35.35126908,513.65
-99.05544531,35.35126880,512.64
-99.05583173,35.35126871,512.97
-99.05588709,35.35126868,513.06
-99.05609929,35.35126859,513.20
-99.05632711,35.35126848,512.96
-99.05655460,35.35126837,512.52
-99.05672002,35.35126830,511.92
-99.05672652,35.35126829,511.91
-99.05676162,35.35126828,511.79
-99.05713043,35.35126810,508.29
-99.05719823,35.35126807,507.57
-99.05724699,35.35126805,507.41
-99.05727087,35.35126804,507.26
-99.05734813,35.35126800,506.96
-99.05776614,35.35126780,507.99
-99.05790459,35.35126773,508.70
-99.05814144,35.35126762,508.86
-99.05828408,35.35126755,509.69
-99.05844729,35.35126747,509.11
-99.05854701,35.35126742,508.09
-99.05902158,35.35126719,508.84
-99.05943156,35.35126699,501.66
-99.05968238,35.35126678,499.94
-99.06004492,35.35126669,497.74
-99.06011822,35.35126665,497.39
     </coordinates>
    </LineString>
   </MultiGeometry>
  </Placemark>
 </Document>
</kml>
