<kml>
 <Document>
  <Style id="yellow">
   <LineStyle>
   <color>ff00ffff</color>
   <width>1</width>
   </LineStyle>
  </Style>
  <Style id="red">
   <LineStyle>
   <color>ffff0000</color>
   <width>2</width>
   </LineStyle>
  </Style>
  <Style id="green">
   <LineStyle>
   <color>ff00ff00</color>
   <width>1</width>
   </LineStyle>
  </Style>
  <Placemark>
  <styleUrl>#yellow</styleUrl>
   <MultiGeometry>
    <LineString>
     <coordinates>
-99.09910498,35.39329950,502.51
-99.09910499,35.39330770,502.53
-99.09910503,35.39334314,502.41
-99.09910529,35.39354954,502.23
-99.09910540,35.39364025,501.92
-99.09910542,35.39366017,501.91
-99.09910544,35.39367180,501.94
-99.09910547,35.39370030,502.12
-99.09910551,35.39373519,502.25
-99.09910583,35.39399010,501.58
-99.09910621,35.39430650,499.04
-99.09910623,35.39431894,498.91
-99.09910624,35.39432796,498.97
-99.09910626,35.39434194,499.05
-99.09910627,35.39435032,498.94
-99.09910628,35.39436538,498.97
-99.09910633,35.39440397,498.90
-99.09910657,35.39459982,499.75
-99.09910659,35.39461253,501.59
-99.09910660,35.39462515,505.83
-99.09910665,35.39466789,504.59
-99.09910668,35.39468890,505.01
-99.09910673,35.39472623,497.26
-99.09910673,35.39472813,504.33
-99.09910673,35.39472876,505.42
-99.09910685,35.39482812,503.50
-99.09910692,35.39488655,502.03
-99.09910711,35.39503741,497.86
-99.09910724,35.39514461,498.03
-99.09910724,35.39514858,498.08
-99.09910742,35.39529646,497.99
-99.09910753,35.39538149,497.65
-99.09910758,35.39542414,497.63
-99.09910759,35.39543297,497.63
-99.09910771,35.39552783,497.71
-99.09910822,35.39585713,498.98
-99.09910862,35.39627415,499.77
-99.09910866,35.39630707,500.03
-99.09911022,35.39632384,500.14
-99.09917542,35.39632513,500.53
-99.09918026,35.39632522,500.49
-99.09944400,35.39632509,501.69
-99.09944642,35.39632509,501.70
-99.09956667,35.39632499,502.28
-99.09988812,35.39632473,503.97
-99.09999647,35.39632464,504.72
-99.10000176,35.39632463,504.77
-99.10046812,35.39632416,506.45
-99.10083284,35.39632394,508.45
-99.10129259,35.39632356,510.94
-99.10153838,35.39632317,512.01
-99.10190872,35.39632304,513.41
-99.10232332,35.39632269,513.18
-99.10244610,35.39632259,512.68
-99.10245811,35.39632258,512.66
-99.10259752,35.39632246,512.10
-99.10276733,35.39632231,511.46
-99.10287822,35.39632222,511.02
-99.10301620,35.39632210,511.01
-99.10314548,35.39632199,511.32
-99.10330835,35.39632185,511.58
-99.10348146,35.39632170,511.90
-99.10374982,35.39632147,511.39
-99.10403294,35.39632123,509.99
-99.10418337,35.39632110,509.43
-99.10441242,35.39632090,509.03
-99.10458398,35.39632075,509.18
-99.10460050,35.39632074,509.18
-99.10472560,35.39632063,509.28
-99.10487360,35.39632050,507.71
-99.10493725,35.39632045,506.48
-99.10500563,35.39632039,505.61
-99.10525726,35.39632017,508.79
-99.10577218,35.39631963,511.94
-99.10614153,35.39631940,513.62
-99.10651550,35.39631898,513.65
-99.10688561,35.39631865,513.32
-99.10724614,35.39631842,514.38
-99.10749997,35.39631819,514.51
-99.10760514,35.39631810,514.76
-99.10772539,35.39631799,514.77
-99.10784707,35.39631788,514.53
-99.10795940,35.39631778,514.32
-99.10796986,35.39631777,514.22
-99.10797503,35.39631777,514.24
-99.10808130,35.39631768,514.39
-99.10833226,35.39631745,513.33
-99.10855173,35.39631725,512.73
-99.10879554,35.39631703,512.47
-99.10880061,35.39631703,512.52
-99.10880567,35.39631703,512.56
-99.10916235,35.39631670,510.00
-99.10939228,35.39631650,509.02
-99.10939261,35.39631650,509.01
-99.10962276,35.39631629,508.44
-99.10998704,35.39631596,507.49
-99.11011654,35.39631079,507.38
-99.11012027,35.39630348,507.47
-99.11012058,35.39628373,507.35
-99.11012049,35.39622260,507.28
-99.11012023,35.39602703,506.78
-99.11012001,35.39586526,506.46
-99.11011988,35.39577410,510.42
-99.11011981,35.39572081,515.00
-99.11011977,35.39569493,506.45
-99.11011974,35.39567266,506.43
-99.11011965,35.39560332,514.67
-99.11011964,35.39559377,506.45
-99.11011963,35.39558484,506.38
-99.11011936,35.39539323,509.01
-99.11011872,35.39500010,505.60
-99.11011813,35.39464862,504.12
-99.11011819,35.39453068,504.47
-99.11011808,35.39445025,504.52
-99.11011798,35.39437271,504.26
-99.11011756,35.39414719,503.98
-99.11011727,35.39385099,503.65
-99.11011718,35.39378643,503.71
-99.11011715,35.39376100,503.70
-99.11011673,35.39345542,503.35
-99.11011617,35.39312162,502.85
-99.11011576,35.39281920,502.34
-99.11011559,35.39269972,501.23
-99.11011513,35.39243995,501.26
-99.11011483,35.39222021,500.87
-99.11011458,35.39187513,500.62
-99.11011451,35.39182437,500.73
-99.11011440,35.39173970,500.60
-99.11011407,35.39150192,499.73
-99.11011406,35.39148786,501.43
-99.11011386,35.39134269,500.46
-99.11011360,35.39115532,500.26
-99.11011337,35.39098075,500.16
-99.11011329,35.39092800,500.01
-99.11011304,35.39074045,501.16
-99.11011302,35.39072648,499.50
-99.11011284,35.39059122,502.16
-99.11011281,35.39057418,502.36
-99.11011279,35.39055903,502.55
-99.11011235,35.39022947,504.10
-99.11011204,35.39008736,504.47
-99.11011173,35.38993534,504.82
-99.11011145,35.38957412,506.60
-99.11011120,35.38938495,507.19
-99.11011105,35.38927801,507.75
-99.11011098,35.38922634,507.95
-99.11011096,35.38921291,508.01
-99.11011095,35.38919938,508.11
-99.11011072,35.38903573,508.78
-99.11011071,35.38902328,508.88
-99.11011057,35.38892617,509.39
-99.11011053,35.38889669,509.54
-99.11011048,35.38885413,509.76
-99.11011014,35.38860788,511.21
-99.11011011,35.38858678,511.35
-99.11011007,35.38855441,511.59
-99.11010990,35.38843115,512.27
-99.11010988,35.38841636,512.38
-99.11010941,35.38806759,513.65
-99.11010940,35.38806362,513.64
-99.11010916,35.38796822,513.65
-99.11010874,35.38758050,514.12
-99.11010842,35.38733786,514.22
-99.11010737,35.38730134,514.28
-99.11009768,35.38730108,514.27
-99.11004725,35.38729995,514.14
-99.11002391,35.38729943,514.11
-99.11000971,35.38729917,514.03
-99.10977011,35.38729939,513.67
-99.10949022,35.38729965,512.69
-99.10929444,35.38729982,512.10
-99.10928960,35.38729983,512.10
-99.10928464,35.38729983,511.97
-99.10891006,35.38730017,510.30
-99.10883265,35.38730024,510.11
-99.10882813,35.38730024,510.01
-99.10864646,35.38730041,509.38
-99.10837548,35.38730065,508.58
-99.10834729,35.38730068,508.69
-99.10834278,35.38730068,508.63
-99.10833815,35.38730068,508.60
-99.10806365,35.38730093,506.82
-99.10787052,35.38730110,506.43
-99.10786579,35.38730111,506.43
-99.10775590,35.38730120,506.30
-99.10746819,35.38730146,506.16
-99.10746356,35.38730147,506.17
-99.10696048,35.38730191,505.71
-99.10695541,35.38730192,505.72
-99.10658028,35.38730225,505.52
-99.10657521,35.38730225,505.50
-99.10606420,35.38730270,501.19
-99.10605968,35.38730271,501.21
-99.10553502,35.38730317,497.28
-99.10553050,35.38730317,497.26
-99.10552566,35.38730317,497.25
-99.10498679,35.38730364,493.00
-99.10498217,35.38730365,493.03
-99.10495662,35.38730367,493.03
-99.10495189,35.38730367,492.95
-99.10494649,35.38730368,492.92
-99.10463510,35.38730395,493.10
-99.10463004,35.38730395,493.09
-99.10452863,35.38730404,493.76
-99.10452401,35.38730404,493.78
-99.10440068,35.38730415,496.36
-99.10423640,35.38730429,496.76
-99.10423123,35.38730430,496.72
-99.10422649,35.38730430,496.66
-99.10410163,35.38730441,496.86
-99.10375369,35.38730471,498.38
-99.10372385,35.38730473,498.28
-99.10371922,35.38730474,498.32
-99.10344968,35.38730497,498.63
-99.10344472,35.38730497,498.59
-99.10343966,35.38730498,498.50
-99.10333759,35.38730506,498.62
-99.10333274,35.38730507,498.67
-99.10311803,35.38730525,499.40
-99.10311286,35.38730526,499.40
-99.10278099,35.38730554,499.97
-99.10277549,35.38730554,499.95
-99.10275071,35.38730557,500.07
-99.10243911,35.38730583,501.23
-99.10239980,35.38730586,501.70
-99.10239495,35.38730587,501.74
-99.10219610,35.38730604,503.75
-99.10168773,35.38730728,499.73
-99.10160272,35.38730654,499.23
-99.10156936,35.38730656,498.64
-99.10132404,35.38730677,501.56
-99.10104734,35.38730700,503.42
-99.10104282,35.38730701,503.42
-99.10074234,35.38730726,504.84
-99.10049030,35.38730747,507.37
-99.10018046,35.38730772,508.56
-99.09971866,35.38730811,510.33
-99.09957706,35.38730822,511.57
-99.09937700,35.38730839,512.18
-99.09921833,35.38730852,512.44
-99.09921360,35.38730852,512.45
-99.09909854,35.38731132,512.52
-99.09909773,35.38737237,512.54
-99.09909778,35.38741105,512.57
-99.09909800,35.38758976,512.63
-99.09909800,35.38759373,512.57
-99.09909802,35.38761077,512.57
-99.09909810,35.38767786,512.24
-99.09909812,35.38769210,512.15
-99.09909838,35.38790174,510.04
-99.09909838,35.38790571,509.96
-99.09909848,35.38798677,509.72
-99.09909852,35.38801815,509.67
-99.09909872,35.38817856,509.29
-99.09909874,35.38819912,509.05
-99.09909874,35.38820147,509.04
-99.09909881,35.38825755,509.51
-99.09909893,35.38834988,509.06
-99.09909897,35.38838315,508.21
-99.09909904,35.38844050,507.03
-99.09909904,35.38844744,506.91
-99.09909924,35.38860569,501.99
-99.09909934,35.38868666,505.63
-99.09909949,35.38881173,505.93
-99.09909957,35.38887782,506.37
-99.09909965,35.38894590,504.93
-99.09909967,35.38895780,502.09
-99.09909967,35.38895789,504.49
-99.09909985,35.38910306,503.79
-99.09909985,35.38910513,503.81
-99.09909991,35.38915247,503.04
-99.09909997,35.38920116,503.56
-99.09910006,35.38927591,503.60
-99.09910018,35.38937564,502.30
-99.09910019,35.38938078,501.99
-99.09910030,35.38947762,499.24
-99.09910052,35.38965065,497.07
-99.09910065,35.38975985,498.88
-99.09910079,35.38987481,498.07
-99.09910079,35.38987526,497.36
-99.09910081,35.38989212,496.91
-99.09910085,35.38992143,502.06
-99.09910085,35.38992449,501.12
-99.09910085,35.38992540,494.00
-99.09910086,35.38993441,499.51
-99.09910101,35.39005551,498.19
-99.09910103,35.39007003,493.00
-99.09910103,35.39007012,495.32
-99.09910103,35.39007210,495.37
-99.09910103,35.39007453,493.02
-99.09910105,35.39008743,492.94
-99.09910105,35.39009031,501.89
-99.09910106,35.39009536,501.33
-99.09910109,35.39012088,503.24
-99.09910110,35.39012620,499.19
-99.09910111,35.39013269,502.37
-99.09910112,35.39014469,493.06
-99.09910114,35.39016218,493.05
-99.09910117,35.39018806,493.01
-99.09910118,35.39019653,493.15
-99.09910121,35.39021799,493.07
-99.09910129,35.39028544,493.18
-99.09910130,35.39029319,499.11
-99.09910143,35.39040022,504.59
-99.09910144,35.39040933,493.06
-99.09910152,35.39047236,493.64
-99.09910159,35.39052826,492.94
-99.09910161,35.39054377,501.48
-99.09910172,35.39063205,502.17
-99.09910176,35.39066324,493.20
-99.09910176,35.39066460,499.76
-99.09910177,35.39067641,493.32
-99.09910178,35.39068732,501.54
-99.09910213,35.39096576,500.85
-99.09910219,35.39101671,492.66
-99.09910224,35.39106296,492.70
-99.09910226,35.39107288,492.69
-99.09910243,35.39121345,497.95
-99.09910244,35.39122229,499.10
-99.09910244,35.39122472,503.44
-99.09910272,35.39145528,501.48
-99.09910275,35.39147377,501.67
-99.09910283,35.39154230,490.91
-99.09910295,35.39164311,504.39
-99.09910298,35.39166321,505.01
-99.09910306,35.39173102,488.53
-99.09910318,35.39182750,498.85
-99.09910324,35.39187854,494.22
-99.09910336,35.39197339,494.28
-99.09910366,35.39221910,494.66
-99.09910370,35.39225490,494.68
-99.09910378,35.39231757,494.74
-99.09910416,35.39262648,497.45
-99.09910430,35.39274172,498.85
-99.09910431,35.39275091,499.08
-99.09910432,35.39275623,499.17
-99.09910447,35.39288445,501.34
-99.09910453,35.39293351,502.38
-99.09910485,35.39319003,502.46
-99.09910490,35.39323548,502.56
-99.09910498,35.39329950,502.51
     </coordinates>
    </LineString>
   </MultiGeometry>
  </Placemark>
 </Document>
</kml>
