<kml>
 <Document>
  <Style id="yellow">
   <LineStyle>
   <color>ff00ffff</color>
   <width>1</width>
   </LineStyle>
  </Style>
  <Style id="red">
   <LineStyle>
   <color>ffff0000</color>
   <width>2</width>
   </LineStyle>
  </Style>
  <Style id="green">
   <LineStyle>
   <color>ff00ff00</color>
   <width>1</width>
   </LineStyle>
  </Style>
  <Placemark>
  <styleUrl>#yellow</styleUrl>
   <MultiGeometry>
    <LineString>
     <coordinates>
-99.10271695,35.36927176,527.11
-99.10300306,35.36927151,527.84
-99.10338054,35.36927119,528.85
-99.10367248,35.36927094,529.08
-99.10378620,35.36927085,529.27
-99.10379060,35.36927084,529.24
-99.10379489,35.36927084,529.27
-99.10414320,35.36927054,529.81
-99.10414815,35.36927053,529.81
-99.10457131,35.36927017,530.54
-99.10457638,35.36927016,530.57
-99.10467655,35.36927008,530.79
-99.10503257,35.36926977,530.93
-99.10503719,35.36926976,530.94
-99.10545242,35.36926940,530.59
-99.10545716,35.36926940,530.57
-99.10588681,35.36926902,530.37
-99.10589166,35.36926902,530.39
-99.10616863,35.36926878,530.65
-99.10659729,35.36926840,530.87
-99.10660181,35.36926839,530.86
-99.10703477,35.36926801,530.59
-99.10703906,35.36926801,530.60
-99.10749183,35.36926761,529.59
-99.10749635,35.36926760,529.57
-99.10750758,35.36926759,529.54
-99.10782198,35.36926731,528.88
-99.10794087,35.36926721,528.64
-99.10794560,35.36926720,528.62
-99.10811579,35.36926705,528.44
-99.10830326,35.36926688,528.12
-99.10873226,35.36926650,527.12
-99.10875405,35.36926648,527.05
-99.10911403,35.36926615,526.53
-99.10948710,35.36926581,526.05
-99.10949206,35.36926581,526.03
-99.10963461,35.36926568,525.84
-99.10982605,35.36926551,525.50
-99.10999987,35.36926517,525.14
-99.11008232,35.36926040,524.71
-99.11008253,35.36925274,524.68
-99.11008376,35.36918574,524.92
-99.11008370,35.36914192,524.56
-99.11008359,35.36906104,524.28
-99.11008326,35.36881704,525.33
-99.11008295,35.36859370,523.96
-99.11008255,35.36829668,522.98
-99.11008220,35.36804186,521.01
-99.11008191,35.36790850,521.00
-99.11008147,35.36758047,524.17
-99.11008132,35.36739220,524.95
-99.11008108,35.36721682,525.54
-99.11008107,35.36720410,525.61
-99.11008055,35.36690402,526.59
-99.11008015,35.36660917,527.42
-99.11007996,35.36638817,527.69
-99.11007982,35.36628420,527.94
-99.11007977,35.36624895,528.39
-99.11007971,35.36620476,528.61
-99.11007967,35.36617618,528.77
-99.11007926,35.36595536,529.63
-99.11007904,35.36570929,530.04
-99.11007844,35.36527053,529.76
-99.11007842,35.36525484,529.86
-99.11007830,35.36516836,529.36
-99.11007806,35.36498739,529.41
-99.11007790,35.36486774,528.54
-99.11007763,35.36466874,530.69
-99.11007760,35.36464818,530.72
-99.11007752,35.36458984,529.86
-99.11007725,35.36439120,531.46
-99.11007707,35.36425676,532.11
-99.11007635,35.36397624,533.35
-99.11007632,35.36379131,534.38
-99.11007623,35.36363973,534.65
-99.11007594,35.36342450,535.90
-99.11007593,35.36341909,535.96
-99.11007570,35.36324876,536.75
-99.11007544,35.36306112,537.72
-99.11007544,35.36305724,537.78
-99.11007543,35.36305517,537.80
-99.11007542,35.36304732,537.91
-99.11007542,35.36304110,537.97
-99.11007529,35.36294733,538.03
-99.11007513,35.36282767,538.30
-99.11007496,35.36270252,538.81
-99.11007493,35.36268448,538.96
-99.11007455,35.36248106,539.13
-99.11007427,35.36219965,539.77
-99.11007372,35.36195060,539.37
-99.11007346,35.36160092,538.40
-99.11007288,35.36133853,538.32
-99.11007257,35.36102646,538.92
-99.11007229,35.36073891,538.55
-99.11007213,35.36061763,538.29
-99.11007194,35.36048004,538.19
-99.11007184,35.36040934,538.23
-99.11007143,35.36026787,538.15
-99.11007119,35.36025425,538.14
-99.11007042,35.36024884,538.15
-99.11006612,35.36024876,538.14
-99.11002980,35.36024870,538.16
-99.10995319,35.36024859,538.17
-99.10994824,35.36024859,538.17
-99.10994405,35.36024860,538.17
-99.10993965,35.36024860,538.14
-99.10993503,35.36024861,538.17
-99.10993051,35.36024861,538.16
-99.10992600,35.36024861,538.19
-99.10992149,35.36024862,538.16
-99.10939006,35.36024910,538.72
-99.10906051,35.36024940,538.75
-99.10881054,35.36024962,538.24
-99.10847592,35.36024992,537.79
-99.10819810,35.36025017,537.58
-99.10783376,35.36025050,537.25
-99.10782914,35.36025050,537.27
-99.10753723,35.36025076,537.29
-99.10752435,35.36025077,537.25
-99.10751929,35.36025078,537.25
-99.10751478,35.36025078,537.28
-99.10750960,35.36025079,537.26
-99.10750487,35.36025079,537.29
-99.10750014,35.36025080,537.27
-99.10749540,35.36025080,537.26
-99.10749078,35.36025080,537.27
-99.10720206,35.36025106,536.93
-99.10719766,35.36025106,536.93
-99.10686480,35.36025136,536.44
-99.10658941,35.36025160,535.75
-99.10627207,35.36025188,535.57
-99.10594582,35.36025217,534.91
-99.10556948,35.36025250,534.16
-99.10523321,35.36025279,532.69
-99.10492645,35.36025306,531.68
-99.10492204,35.36025306,531.68
-99.10470652,35.36025325,531.22
-99.10457146,35.36025337,531.02
-99.10450498,35.36025342,530.85
-99.10427438,35.36025362,530.32
-99.10409111,35.36025378,530.00
-99.10391247,35.36025393,529.65
-99.10367581,35.36025414,528.99
-99.10362815,35.36025418,528.95
-99.10321362,35.36025453,526.71
-99.10306965,35.36025466,526.15
-99.10285886,35.36025484,525.60
-99.10267306,35.36025499,525.15
-99.10252359,35.36025512,524.85
-99.10249585,35.36025514,524.79
-99.10230652,35.36025530,524.27
-99.10221770,35.36025538,523.99
-99.10192281,35.36025563,523.12
-99.10157620,35.36025592,522.32
-99.10140977,35.36025606,522.34
-99.10092689,35.36025655,522.02
-99.10044742,35.36025686,521.94
-99.10030377,35.36025698,520.88
-99.10016288,35.36025710,522.47
-99.09995760,35.36025727,523.26
-99.09974549,35.36025745,523.95
-99.09972733,35.36025746,524.04
-99.09935958,35.36025776,524.55
-99.09927405,35.36025783,523.97
-99.09908737,35.36025799,523.12
-99.09906514,35.36025809,523.06
-99.09906495,35.36028379,523.12
-99.09906481,35.36044024,523.34
-99.09906481,35.36044177,523.33
-99.09906486,35.36047964,523.42
-99.09906488,35.36049632,523.47
-99.09906490,35.36050922,523.45
-99.09906500,35.36059154,523.67
-99.09906523,35.36078135,524.33
-99.09906559,35.36099009,525.01
-99.09906584,35.36128016,524.51
-99.09906594,35.36136212,524.28
-99.09906605,35.36145256,524.12
-99.09906629,35.36164679,523.62
-99.09906644,35.36177095,523.10
-99.09906649,35.36181603,522.93
-99.09906654,35.36185697,522.83
-99.09906659,35.36189935,522.79
-99.09906663,35.36192685,522.79
-99.09906669,35.36197789,522.59
-99.09906683,35.36209276,522.36
-99.09906686,35.36212053,522.29
-99.09906693,35.36217094,522.20
-99.09906719,35.36238743,521.71
-99.09906719,35.36239050,521.70
-99.09906729,35.36247246,521.47
-99.09906741,35.36256994,521.49
-99.09906757,35.36269653,521.46
-99.09906770,35.36280726,521.37
-99.09906807,35.36310860,520.91
-99.09906815,35.36317046,520.69
-99.09906815,35.36317262,520.67
-99.09906826,35.36326460,519.78
-99.09906830,35.36329796,519.46
-99.09906832,35.36331374,519.26
-99.09906835,35.36333312,519.11
-99.09906835,35.36333709,519.10
-99.09906852,35.36347785,518.93
-99.09906854,35.36349047,519.01
-99.09906885,35.36375025,520.46
-99.09906897,35.36384483,520.86
-99.09906900,35.36387008,520.92
-99.09906928,35.36409622,520.46
-99.09906931,35.36412273,520.10
-99.09906931,35.36412382,520.09
-99.09906932,35.36412751,520.04
-99.09906933,35.36414203,519.81
-99.09906936,35.36416069,519.59
-99.09906946,35.36424212,518.88
-99.09906951,35.36428982,518.56
-99.09906952,35.36429270,518.56
-99.09906975,35.36448115,517.34
-99.09906978,35.36450857,517.11
-99.09906982,35.36453931,516.79
-99.09906983,35.36455167,521.34
-99.09906990,35.36460667,520.36
-99.09906992,35.36461983,521.46
-99.09906992,35.36462624,519.26
-99.09906992,35.36462642,515.84
-99.09906997,35.36466609,518.65
-99.09907014,35.36480116,519.37
-99.09907029,35.36492163,518.05
-99.09907056,35.36514390,517.35
-99.09907071,35.36526698,519.25
-99.09907073,35.36528221,519.19
-99.09907086,35.36538861,517.76
-99.09907109,35.36557698,517.21
-99.09907114,35.36561728,517.56
-99.09907125,35.36571007,517.33
-99.09907176,35.36613206,519.06
-99.09907181,35.36616948,519.14
-99.09907209,35.36639805,519.81
-99.09907258,35.36679903,520.26
-99.09907281,35.36698622,520.72
-99.09907291,35.36707125,520.50
-99.09907309,35.36721787,520.16
-99.09907310,35.36722716,520.20
-99.09907313,35.36724645,520.24
-99.09907314,35.36725826,520.23
-99.09907314,35.36725944,520.23
-99.09907316,35.36727440,520.16
-99.09907317,35.36728063,520.17
-99.09907318,35.36729298,520.22
-99.09907321,35.36731723,520.34
-99.09907323,35.36733419,520.37
-99.09907330,35.36739018,520.56
-99.09907358,35.36752634,521.12
-99.09907400,35.36796356,523.47
-99.09907429,35.36820017,524.08
-99.09907447,35.36834831,524.36
-99.09907449,35.36836581,524.45
-99.09907458,35.36843776,524.53
-99.09907463,35.36847852,524.63
-99.09907471,35.36854344,524.79
-99.09907485,35.36866012,524.99
-99.09907513,35.36888734,525.49
-99.09907525,35.36898428,525.71
-99.09907531,35.36902954,525.86
-99.09907603,35.36926209,527.11
-99.09907647,35.36926470,527.10
-99.09907880,35.36927398,527.11
-99.09911722,35.36927458,527.04
-99.09926792,35.36927455,526.95
-99.09944064,35.36927450,526.21
-99.09982208,35.36927409,527.27
-99.10002849,35.36927401,526.79
-99.10042116,35.36927360,526.54
-99.10060181,35.36927345,526.46
-99.10079742,35.36927319,526.80
-99.10099888,35.36927294,527.13
-99.10140332,35.36927278,527.73
-99.10151154,35.36927278,527.97
-99.10204082,35.36927233,527.49
-99.10212074,35.36927226,527.25
-99.10226451,35.36927214,527.15
-99.10259256,35.36927186,526.94
-99.10261744,35.36927184,526.97
-99.10271695,35.36927176,527.11
     </coordinates>
    </LineString>
   </MultiGeometry>
  </Placemark>
 </Document>
</kml>
