<kml>
 <Document>
  <Style id="yellow">
   <LineStyle>
   <color>ff00ffff</color>
   <width>1</width>
   </LineStyle>
  </Style>
  <Style id="red">
   <LineStyle>
   <color>ffff0000</color>
   <width>2</width>
   </LineStyle>
  </Style>
  <Style id="green">
   <LineStyle>
   <color>ff00ff00</color>
   <width>1</width>
   </LineStyle>
  </Style>
  <Placemark>
  <styleUrl>#yellow</styleUrl>
   <MultiGeometry>
    <LineString>
     <coordinates>
-99.07027691,35.36027808,485.37
-99.07036904,35.36027803,485.83
-99.07073580,35.36027782,485.76
-99.07079777,35.36027778,485.76
-99.07083355,35.36027776,485.76
-99.07089078,35.36027772,485.75
-99.07120636,35.36027754,485.26
-99.07130741,35.36027748,485.28
-99.07133878,35.36027746,485.29
-99.07139777,35.36027743,485.39
-99.07142386,35.36027741,485.44
-99.07165556,35.36027727,485.94
-99.07180350,35.36027719,486.20
-99.07181462,35.36027718,486.19
-99.07197829,35.36027708,486.53
-99.07217983,35.36027696,486.57
-99.07220933,35.36027694,486.64
-99.07232204,35.36027688,486.69
-99.07237169,35.36027685,486.68
-99.07241395,35.36027682,486.67
-99.07248275,35.36027678,486.73
-99.07261473,35.36027670,486.86
-99.07271192,35.36027664,486.95
-99.07276057,35.36027661,487.08
-99.07281506,35.36027658,487.26
-99.07289244,35.36027653,487.47
-99.07322606,35.36027624,488.77
-99.07359073,35.36027611,489.31
-99.07368231,35.36027605,488.50
-99.07399722,35.36027586,491.47
-99.07443960,35.36027559,489.55
-99.07444037,35.36027559,489.52
-99.07444599,35.36027559,489.52
-99.07479833,35.36027537,490.24
-99.07480394,35.36027537,490.30
-99.07518842,35.36027513,491.45
-99.07519315,35.36027512,491.53
-99.07519844,35.36027512,491.47
-99.07537774,35.36027501,492.21
-99.07555903,35.36027490,492.60
-99.07556365,35.36027489,492.51
-99.07588011,35.36027470,494.17
-99.07597928,35.36027463,494.47
-99.07602816,35.36027460,494.59
-99.07603333,35.36027460,494.57
-99.07608814,35.36027456,494.86
-99.07618391,35.36027450,495.08
-99.07640801,35.36027436,495.21
-99.07641616,35.36027436,495.22
-99.07642111,35.36027435,495.18
-99.07673140,35.36027416,496.35
-99.07673658,35.36027415,496.37
-99.07704995,35.36027377,496.88
-99.07705012,35.36022328,496.54
-99.07705009,35.36018613,496.16
-99.07704996,35.36005169,495.51
-99.07704991,35.36000381,496.05
-99.07704981,35.35989570,494.80
-99.07704974,35.35982203,494.44
-99.07704964,35.35971121,494.27
-99.07704960,35.35967668,493.91
-99.07704954,35.35960779,493.59
-99.07704952,35.35958560,493.33
-99.07704946,35.35952745,493.08
-99.07704936,35.35941942,492.87
-99.07704933,35.35939156,492.49
-99.07704927,35.35933025,492.06
-99.07704909,35.35913278,491.37
-99.07704903,35.35907516,491.31
-99.07704892,35.35895532,490.84
-99.07704886,35.35889112,490.84
-99.07704877,35.35880168,490.63
-99.07704874,35.35877219,490.51
-99.07704874,35.35876804,490.48
-99.07704865,35.35867787,490.50
-99.07704862,35.35864397,490.33
-99.07704856,35.35857616,490.25
-99.07704853,35.35854343,490.23
-99.07704847,35.35848212,490.16
-99.07704846,35.35847247,490.18
-99.07704823,35.35823036,490.11
-99.07704821,35.35821549,490.12
-99.07704817,35.35817338,490.25
-99.07704815,35.35815174,490.17
-99.07704809,35.35808925,497.36
-99.07704801,35.35800188,490.21
-99.07704793,35.35791748,489.34
-99.07704787,35.35785679,496.10
-99.07704786,35.35784579,488.45
-99.07704785,35.35783615,498.40
-99.07704777,35.35774300,495.12
-99.07704776,35.35774129,496.28
-99.07704773,35.35770405,491.71
-99.07704766,35.35763200,494.53
-99.07704764,35.35761099,496.76
-99.07704756,35.35752768,489.51
-99.07704746,35.35742362,495.23
-99.07704745,35.35740703,488.61
-99.07704743,35.35738972,495.09
-99.07704743,35.35738611,494.47
-99.07704742,35.35737782,492.30
-99.07704741,35.35737286,488.57
-99.07704741,35.35737142,494.33
-99.07704739,35.35734923,493.31
-99.07704739,35.35734734,493.42
-99.07704738,35.35734211,496.67
-99.07704738,35.35733436,492.35
-99.07704737,35.35732579,488.20
-99.07704726,35.35721046,490.13
-99.07704725,35.35719955,487.72
-99.07704720,35.35714617,497.66
-99.07704717,35.35711543,494.10
-99.07704712,35.35705898,493.29
-99.07704708,35.35702453,486.15
-99.07704708,35.35702201,494.13
-99.07704704,35.35698378,494.30
-99.07704702,35.35695637,497.52
-99.07704700,35.35693500,490.62
-99.07704691,35.35683816,492.31
-99.07704688,35.35680948,487.30
-99.07704685,35.35677513,497.62
-99.07704683,35.35675547,489.91
-99.07704679,35.35671832,493.40
-99.07704676,35.35667955,487.39
-99.07704672,35.35664348,494.68
-99.07704670,35.35662626,494.56
-99.07704668,35.35660363,494.94
-99.07704667,35.35659362,495.88
-99.07704665,35.35657360,493.67
-99.07704657,35.35648929,489.61
-99.07704656,35.35647279,498.50
-99.07704656,35.35646837,497.92
-99.07704652,35.35643059,498.53
-99.07704651,35.35641941,496.01
-99.07704649,35.35639615,497.36
-99.07704648,35.35638461,486.93
-99.07704647,35.35637703,496.25
-99.07704637,35.35627009,486.84
-99.07704635,35.35625323,487.00
-99.07704635,35.35625170,490.00
-99.07704635,35.35625061,487.01
-99.07704634,35.35624024,487.10
-99.07704623,35.35613042,493.28
-99.07704623,35.35612717,490.84
-99.07704622,35.35611716,486.09
-99.07704622,35.35611653,489.90
-99.07704622,35.35611347,488.85
-99.07704621,35.35610147,493.56
-99.07704620,35.35609011,493.49
-99.07704619,35.35607992,494.63
-99.07704618,35.35607542,494.71
-99.07704613,35.35602348,492.13
-99.07704610,35.35599183,493.05
-99.07704608,35.35596875,492.51
-99.07704597,35.35585703,487.62
-99.07704597,35.35585649,487.60
-99.07704567,35.35553494,489.86
-99.07704538,35.35522828,491.47
-99.07704530,35.35514235,491.92
-99.07704525,35.35509284,492.04
-99.07704520,35.35503730,492.25
-99.07704509,35.35492279,492.01
-99.07704507,35.35490142,491.85
-99.07704492,35.35475029,491.34
-99.07704446,35.35437465,490.26
-99.07704429,35.35408286,489.70
-99.07704424,35.35403155,488.85
-99.07704418,35.35396501,488.49
-99.07704407,35.35385266,489.34
-99.07704398,35.35375915,486.74
-99.07704394,35.35371939,484.85
-99.07704390,35.35366889,486.83
-99.07704389,35.35366132,484.93
-99.07704386,35.35362832,489.70
-99.07704375,35.35351831,494.71
-99.07704374,35.35350677,494.51
-99.07704366,35.35342300,497.06
-99.07704365,35.35341209,494.85
-99.07704364,35.35340028,486.22
-99.07704359,35.35334275,496.51
-99.07704358,35.35333365,495.51
-99.07704357,35.35332724,488.20
-99.07704357,35.35332246,488.60
-99.07704356,35.35331597,491.11
-99.07704356,35.35331110,490.40
-99.07704354,35.35329839,497.56
-99.07704348,35.35323491,497.44
-99.07704336,35.35310002,491.81
-99.07704328,35.35301697,492.53
-99.07704325,35.35298686,486.19
-99.07704324,35.35297477,486.18
-99.07704316,35.35288938,486.77
-99.07704312,35.35285683,486.42
-99.07704309,35.35282311,486.21
-99.07704307,35.35280030,486.11
-99.07704305,35.35277658,486.18
-99.07704296,35.35268551,486.18
-99.07704290,35.35261707,486.20
-99.07704281,35.35252943,486.01
-99.07704275,35.35246514,486.00
-99.07704269,35.35240310,485.99
-99.07704268,35.35238326,486.02
-99.07704252,35.35222123,485.90
-99.07704238,35.35207092,486.21
-99.07704230,35.35199076,486.32
-99.07704227,35.35195721,486.43
-99.07704223,35.35191970,486.38
-99.07704221,35.35189229,486.32
-99.07704187,35.35154009,486.35
-99.07704187,35.35153991,486.29
-99.07704182,35.35148049,486.41
-99.07704164,35.35129637,486.48
-99.07704118,35.35127662,486.51
-99.07704085,35.35127220,486.48
-99.07703930,35.35125931,486.51
-99.07697436,35.35125718,486.52
-99.07642869,35.35125753,485.93
-99.07642384,35.35125753,485.90
-99.07641922,35.35125754,485.91
-99.07641416,35.35125754,485.94
-99.07588367,35.35125787,485.81
-99.07578814,35.35125793,485.77
-99.07572937,35.35125797,485.79
-99.07565552,35.35125802,485.78
-99.07557782,35.35125807,485.83
-99.07557308,35.35125807,485.80
-99.07556802,35.35125807,485.78
-99.07556307,35.35125808,485.85
-99.07555790,35.35125808,485.77
-99.07550210,35.35125811,485.77
-99.07526789,35.35125826,485.73
-99.07519382,35.35125831,486.30
-99.07490921,35.35125848,485.60
-99.07485142,35.35125852,485.51
-99.07458618,35.35125868,485.75
-99.07451982,35.35125872,485.88
-99.07437498,35.35125881,486.07
-99.07426008,35.35125888,486.26
-99.07411623,35.35125897,486.77
-99.07399725,35.35125904,486.80
-99.07382798,35.35125915,486.65
-99.07369415,35.35125923,486.79
-99.07364055,35.35125926,486.78
-99.07329298,35.35125956,487.78
-99.07304480,35.35125962,493.21
-99.07280916,35.35125977,488.69
-99.07274500,35.35125980,488.97
-99.07270075,35.35125983,489.07
-99.07266598,35.35125985,489.15
-99.07227064,35.35126009,489.63
-99.07218293,35.35126014,490.13
-99.07216234,35.35126015,490.17
-99.07187806,35.35126032,490.55
-99.07186100,35.35126033,490.54
-99.07165937,35.35126045,491.11
-99.07155845,35.35126051,491.34
-99.07134559,35.35126064,491.71
-99.07118282,35.35126073,491.98
-99.07104799,35.35126081,492.50
-99.07104392,35.35126082,492.53
-99.07073157,35.35126100,493.15
-99.07062008,35.35126106,493.41
-99.07041856,35.35126118,493.66
-99.07035957,35.35126122,493.58
-99.07020648,35.35126131,494.13
-99.07013186,35.35126135,494.36
-99.07009191,35.35126137,494.74
-99.07008189,35.35126138,494.77
-99.07000133,35.35126142,495.36
-99.06968183,35.35126179,497.56
-99.06927329,35.35126184,493.43
-99.06885693,35.35126226,492.28
-99.06846270,35.35126231,492.61
-99.06826789,35.35126242,492.35
-99.06776448,35.35126279,493.37
-99.06729970,35.35126296,494.27
-99.06725161,35.35126299,494.38
-99.06720076,35.35126301,494.49
-99.06679882,35.35126333,495.35
-99.06647613,35.35126350,495.88
-99.06643981,35.35126352,496.08
-99.06638665,35.35126355,496.06
-99.06633503,35.35126358,496.13
-99.06620439,35.35126365,496.40
-99.06610578,35.35126371,496.68
-99.06604348,35.35126374,496.80
-99.06603831,35.35126411,496.80
-99.06603677,35.35126591,496.82
-99.06603591,35.35128503,496.84
-99.06603593,35.35144309,496.77
-99.06603599,35.35151676,496.85
-99.06603611,35.35167329,496.97
-99.06603612,35.35167979,496.96
-99.06603627,35.35186698,497.14
-99.06603640,35.35202649,497.05
-99.06603647,35.35211395,496.91
-99.06603650,35.35214560,496.89
-99.06603653,35.35218248,496.77
-99.06603672,35.35241430,496.37
-99.06603679,35.35251069,495.87
-99.06603681,35.35252810,495.79
-99.06603681,35.35252864,495.77
-99.06603696,35.35270853,494.96
-99.06603698,35.35273350,494.89
-99.06603699,35.35274847,494.79
-99.06603705,35.35282205,494.55
-99.06603730,35.35313142,493.44
-99.06603744,35.35330166,493.21
-99.06603770,35.35349137,492.01
-99.06603794,35.35392103,490.15
-99.06603796,35.35394213,490.05
-99.06603801,35.35400489,490.45
-99.06603801,35.35400912,490.37
-99.06603809,35.35410461,489.66
-99.06603844,35.35439460,488.47
-99.06603855,35.35466402,486.81
-99.06603861,35.35473562,486.34
-99.06603863,35.35476023,486.29
-99.06603881,35.35498412,485.12
-99.06603884,35.35502614,485.34
-99.06603888,35.35507709,485.86
-99.06603889,35.35509133,485.57
-99.06603893,35.35513470,484.58
-99.06603900,35.35521568,484.28
-99.06603900,35.35521829,484.28
-99.06603900,35.35522100,484.29
-99.06603900,35.35522109,484.28
-99.06603900,35.35522127,484.29
-99.06603900,35.35522289,484.29
-99.06603901,35.35522983,484.26
-99.06603906,35.35529169,484.29
-99.06603906,35.35529719,484.29
-99.06603913,35.35537744,484.20
-99.06603915,35.35540693,484.15
-99.06603948,35.35567509,483.66
-99.06603956,35.35591241,483.33
-99.06603962,35.35597788,483.14
-99.06603966,35.35602738,483.03
-99.06603975,35.35613711,482.91
-99.06603983,35.35624171,482.75
-99.06603986,35.35627994,482.65
-99.06603997,35.35641123,482.34
-99.06603998,35.35641880,482.33
-99.06604002,35.35646704,482.23
-99.06604015,35.35663918,482.04
-99.06604027,35.35677984,481.34
-99.06604027,35.35678282,481.30
-99.06604043,35.35697983,480.85
-99.06604047,35.35702221,480.94
-99.06604052,35.35708957,482.11
-99.06604066,35.35725909,488.64
-99.06604073,35.35734403,477.62
-99.06604074,35.35735160,487.07
-99.06604078,35.35740399,489.48
-99.06604079,35.35741697,486.62
-99.06604084,35.35748180,484.95
-99.06604084,35.35748676,484.62
-99.06604088,35.35752653,487.47
-99.06604091,35.35757125,483.91
-99.06604099,35.35766458,488.40
-99.06604103,35.35771516,481.28
-99.06604105,35.35774348,486.32
-99.06604112,35.35781759,484.43
-99.06604113,35.35783085,488.04
-99.06604116,35.35787161,481.90
-99.06604117,35.35788071,494.64
-99.06604126,35.35799315,482.20
-99.06604138,35.35814121,474.87
-99.06604144,35.35822146,476.93
-99.06604148,35.35827069,477.21
-99.06604152,35.35831587,492.56
-99.06604152,35.35831866,484.66
-99.06604156,35.35836258,484.19
-99.06604163,35.35845139,488.10
-99.06604167,35.35849873,489.70
-99.06604172,35.35856519,490.22
-99.06604176,35.35860973,489.48
-99.06604176,35.35861108,485.30
-99.06604184,35.35871216,495.57
-99.06604186,35.35873714,495.39
-99.06604191,35.35878871,493.25
-99.06604196,35.35885499,485.93
-99.06604197,35.35887392,483.75
-99.06604199,35.35888817,482.92
-99.06604205,35.35897194,490.84
-99.06604212,35.35905742,486.86
-99.06604213,35.35906851,488.50
-99.06604215,35.35909394,488.84
-99.06604218,35.35912054,488.53
-99.06604218,35.35913145,488.73
-99.06604222,35.35917861,477.60
-99.06604224,35.35920223,477.58
-99.06604234,35.35932522,477.69
-99.06604251,35.35953721,481.63
-99.06604271,35.35978012,482.54
-99.06604272,35.35979176,485.93
-99.06604274,35.35981177,476.99
-99.06604276,35.35983774,479.94
-99.06604277,35.35984910,476.89
-99.06604281,35.35989897,476.73
-99.06604289,35.35999500,478.86
-99.06604290,35.36001321,476.53
-99.06604293,35.36004288,483.98
-99.06604299,35.36012096,490.28
-99.06604300,35.36013250,495.21
-99.06604302,35.36016307,494.23
-99.06604306,35.36021221,484.37
-99.06604334,35.36027966,481.78
-99.06604543,35.36027993,483.25
-99.06604752,35.36028011,482.27
-99.06605446,35.36028028,492.89
-99.06611544,35.36028043,495.21
-99.06616486,35.36028040,485.19
-99.06620768,35.36028038,484.10
-99.06621142,35.36028038,483.65
-99.06634329,35.36028031,482.29
-99.06634439,35.36028031,483.85
-99.06656365,35.36028019,490.26
-99.06667779,35.36028012,479.19
-99.06668231,35.36028012,488.62
-99.06696299,35.36027996,492.27
-99.06730597,35.36027977,491.22
-99.06730927,35.36027977,490.37
-99.06747240,35.36027968,487.50
-99.06750124,35.36027966,485.69
-99.06774152,35.36027944,480.43
-99.06808220,35.36027934,480.89
-99.06825677,35.36027924,481.39
-99.06865006,35.36027902,482.31
-99.06881296,35.36027893,482.02
-99.06897983,35.36027883,482.27
-99.06933723,35.36027863,482.95
-99.06954252,35.36027851,483.40
-99.06970443,35.36027841,483.64
-99.06984455,35.36027833,484.21
-99.06986734,35.36027832,484.31
-99.06990432,35.36027830,484.40
-99.06997862,35.36027826,484.61
-99.07007647,35.36027820,484.92
-99.07008539,35.36027819,485.13
-99.07027691,35.36027808,485.37
     </coordinates>
    </LineString>
   </MultiGeometry>
  </Placemark>
 </Document>
</kml>
