<kml>
 <Document>
  <Style id="yellow">
   <LineStyle>
   <color>ff00ffff</color>
   <width>1</width>
   </LineStyle>
  </Style>
  <Style id="red">
   <LineStyle>
   <color>ffff0000</color>
   <width>2</width>
   </LineStyle>
  </Style>
  <Style id="green">
   <LineStyle>
   <color>ff00ff00</color>
   <width>1</width>
   </LineStyle>
  </Style>
  <Placemark>
  <styleUrl>#yellow</styleUrl>
   <MultiGeometry>
    <LineString>
     <coordinates>
-99.12569726,35.39630063,526.56
-99.12575430,35.39630057,526.59
-99.12580782,35.39630052,526.63
-99.12601815,35.39630030,526.71
-99.12621471,35.39630009,526.71
-99.12625821,35.39630005,526.73
-99.12630534,35.39630000,526.73
-99.12652680,35.39629976,526.96
-99.12662822,35.39629966,527.10
-99.12663460,35.39629965,527.13
-99.12669132,35.39629959,527.26
-99.12673250,35.39629955,527.37
-99.12678360,35.39629950,527.47
-99.12685011,35.39629943,527.74
-99.12704789,35.39629922,528.01
-99.12713246,35.39629913,527.93
-99.12728156,35.39629897,527.65
-99.12764441,35.39629859,527.44
-99.12769341,35.39629854,527.55
-99.12769561,35.39629853,527.56
-99.12785936,35.39629836,527.77
-99.12809711,35.39629811,527.87
-99.12822100,35.39629798,528.06
-99.12836536,35.39629782,528.56
-99.12866159,35.39629751,527.13
-99.12902278,35.39629703,528.51
-99.12940017,35.39629672,529.29
-99.12956369,35.39629655,529.90
-99.12964166,35.39629646,530.17
-99.12972821,35.39629637,530.51
-99.12990584,35.39629618,531.20
-99.12999823,35.39629608,531.41
-99.13027133,35.39629569,532.90
-99.13055224,35.39629548,533.83
-99.13065818,35.39629537,534.29
-99.13079484,35.39629522,534.90
-99.13080002,35.39629521,534.99
-99.13106298,35.39629493,535.54
-99.13117597,35.39629481,535.82
-99.13126483,35.39629471,536.02
-99.13138332,35.39629458,536.29
-99.13160334,35.39629434,536.57
-99.13174672,35.39629419,536.55
-99.13175168,35.39629418,536.55
-99.13206023,35.39629384,536.18
-99.13206882,35.39629347,536.70
-99.13214183,35.39628979,536.37
-99.13214412,35.39628050,536.40
-99.13214450,35.39624217,536.76
-99.13214457,35.39621999,536.84
-99.13214442,35.39612324,537.10
-99.13214426,35.39602577,537.09
-99.13214423,35.39600774,537.05
-99.13214419,35.39598348,537.05
-99.13214368,35.39567303,536.23
-99.13214367,35.39566483,535.97
-99.13214352,35.39557646,533.43
-99.13214306,35.39529297,536.64
-99.13214245,35.39492004,537.60
-99.13214229,35.39481761,537.60
-99.13214203,35.39466089,537.79
-99.13214201,35.39464836,537.82
-99.13214189,35.39457604,537.99
-99.13214188,35.39457027,538.00
-99.13214183,35.39453844,537.98
-99.13214130,35.39421546,538.33
-99.13214111,35.39409590,538.52
-99.13214106,35.39406596,538.58
-99.13214082,35.39392079,539.06
-99.13214077,35.39388815,539.07
-99.13214068,35.39382999,539.28
-99.13214066,35.39382224,539.31
-99.13214028,35.39358537,540.15
-99.13214011,35.39348095,540.36
-99.13214005,35.39344434,540.44
-99.13213957,35.39315039,540.74
-99.13213930,35.39298863,540.66
-99.13213912,35.39287854,539.81
-99.13213905,35.39283246,539.95
-99.13213901,35.39280802,540.43
-99.13213898,35.39278972,540.57
-99.13213895,35.39277295,540.62
-99.13213814,35.39234149,540.83
-99.13213799,35.39218117,541.05
-99.13213771,35.39200976,541.18
-99.13213769,35.39199876,541.28
-99.13213753,35.39189922,541.23
-99.13213747,35.39186225,541.24
-99.13213741,35.39183096,541.17
-99.13213728,35.39174801,540.92
-99.13213691,35.39152385,541.28
-99.13213661,35.39133503,542.10
-99.13213659,35.39132620,542.05
-99.13213646,35.39124514,542.29
-99.13213635,35.39117850,542.93
-99.13213588,35.39089096,543.19
-99.13213586,35.39087761,543.22
-99.13213530,35.39053227,543.41
-99.13213523,35.39049223,543.39
-99.13213519,35.39046455,543.34
-99.13213514,35.39043912,543.41
-99.13213509,35.39040729,543.35
-99.13213458,35.39009351,543.34
-99.13213450,35.39004220,543.44
-99.13213438,35.38997277,543.43
-99.13213431,35.38992904,543.32
-99.13213409,35.38979415,543.37
-99.13213399,35.38973256,543.50
-99.13213394,35.38970191,543.57
-99.13213379,35.38960777,543.40
-99.13213377,35.38959677,543.42
-99.13213376,35.38958748,543.40
-99.13213372,35.38956584,543.48
-99.13213368,35.38954222,543.47
-99.13213354,35.38945674,543.65
-99.13213326,35.38928145,544.03
-99.13213321,35.38925485,544.14
-99.13213316,35.38922032,544.34
-99.13213308,35.38917415,544.47
-99.13213293,35.38908443,544.54
-99.13213290,35.38906126,544.59
-99.13213288,35.38905071,544.62
-99.13213283,35.38902204,544.81
-99.13213279,35.38899859,544.76
-99.13213272,35.38895216,544.53
-99.13213269,35.38893683,544.54
-99.13213233,35.38871330,544.23
-99.13213218,35.38862331,544.22
-99.13213210,35.38857146,544.27
-99.13213200,35.38851195,544.45
-99.13213200,35.38851159,544.43
-99.13213171,35.38833423,544.35
-99.13213143,35.38816444,544.65
-99.13213130,35.38807951,544.93
-99.13213112,35.38797338,544.94
-99.13213101,35.38790214,544.99
-99.13213100,35.38789637,545.00
-99.13213089,35.38783172,544.92
-99.13213018,35.38739359,545.21
-99.13213012,35.38736041,545.24
-99.13212995,35.38732408,545.26
-99.13212922,35.38727773,545.31
-99.13212459,35.38727737,545.31
-99.13212019,35.38727711,545.32
-99.13206679,35.38727708,545.21
-99.13203904,35.38727711,545.16
-99.13187178,35.38727729,545.56
-99.13178579,35.38727738,545.80
-99.13161501,35.38727757,545.75
-99.13160246,35.38727758,545.78
-99.13150622,35.38727769,545.79
-99.13127401,35.38727794,545.43
-99.13115839,35.38727807,545.16
-99.13096670,35.38727827,544.79
-99.13089601,35.38727835,544.60
-99.13081354,35.38727844,544.37
-99.13071653,35.38727854,544.14
-99.13062470,35.38727864,543.97
-99.13052098,35.38727876,543.75
-99.13034855,35.38727894,543.62
-99.13018118,35.38727912,543.21
-99.12973172,35.38727961,542.97
-99.12965024,35.38727969,542.82
-99.12942871,35.38727993,542.21
-99.12911897,35.38728026,542.34
-99.12890767,35.38728049,541.82
-99.12860279,35.38728090,541.44
-99.12828744,35.38728115,540.88
-99.12819527,35.38728125,541.09
-99.12809287,35.38728135,540.63
-99.12799994,35.38728145,540.34
-99.12749928,35.38728198,541.02
-99.12709541,35.38728241,540.38
-99.12690987,35.38728260,539.87
-99.12681925,35.38728270,540.02
-99.12664793,35.38728288,539.07
-99.12664330,35.38728288,539.06
-99.12663813,35.38728289,539.06
-99.12663350,35.38728289,539.04
-99.12662844,35.38728290,539.03
-99.12662392,35.38728290,539.01
-99.12661919,35.38728291,538.96
-99.12661412,35.38728291,538.96
-99.12661313,35.38728291,538.94
-99.12660895,35.38728292,538.94
-99.12660421,35.38728292,538.94
-99.12659926,35.38728293,538.93
-99.12659419,35.38728293,538.92
-99.12658902,35.38728294,538.89
-99.12658450,35.38728294,538.87
-99.12657988,35.38728295,538.87
-99.12657525,35.38728295,538.83
-99.12657052,35.38728296,538.81
-99.12656557,35.38728296,538.78
-99.12656094,35.38728297,538.76
-99.12655588,35.38728297,538.74
-99.12654652,35.38728298,538.75
-99.12654145,35.38728299,538.75
-99.12653639,35.38728300,538.74
-99.12653165,35.38728300,538.75
-99.12652659,35.38728301,538.76
-99.12652152,35.38728301,538.77
-99.12651646,35.38728302,538.79
-99.12651161,35.38728302,538.83
-99.12650677,35.38728303,538.84
-99.12650225,35.38728303,538.86
-99.12649730,35.38728304,538.94
-99.12649223,35.38728304,538.97
-99.12648739,35.38728305,538.98
-99.12648232,35.38728305,539.00
-99.12647770,35.38728306,539.02
-99.12647296,35.38728306,539.00
-99.12646801,35.38728307,538.97
-99.12646305,35.38728307,538.93
-99.12645854,35.38728308,538.84
-99.12645358,35.38728308,538.80
-99.12643299,35.38728310,538.47
-99.12624020,35.38728330,537.85
-99.12613691,35.38728341,538.10
-99.12594566,35.38728361,537.29
-99.12586913,35.38728369,536.63
-99.12576343,35.38728380,536.35
-99.12538752,35.38728428,535.20
-99.12531199,35.38728499,535.32
-99.12503485,35.38728717,534.36
-99.12471168,35.38728489,537.46
-99.12470221,35.38728490,537.42
-99.12469736,35.38728491,537.32
-99.12460740,35.38728518,537.88
-99.12408835,35.38728553,536.87
-99.12402691,35.38728560,537.15
-99.12400379,35.38728562,537.05
-99.12397043,35.38728566,536.95
-99.12392782,35.38728570,536.95
-99.12392319,35.38728570,536.83
-99.12391835,35.38728571,536.95
-99.12391383,35.38728571,536.87
-99.12390910,35.38728572,536.79
-99.12390436,35.38728572,536.99
-99.12381870,35.38728581,536.84
-99.12364847,35.38728599,536.82
-99.12364352,35.38728599,536.86
-99.12362909,35.38728600,536.34
-99.12361269,35.38728602,531.38
-99.12361004,35.38728602,536.46
-99.12360355,35.38728603,533.90
-99.12320209,35.38728644,531.97
-99.12319736,35.38728645,533.44
-99.12304122,35.38728661,535.93
-99.12302174,35.38728662,536.03
-99.12301711,35.38728663,536.10
-99.12289819,35.38728675,529.46
-99.12261401,35.38728704,536.27
-99.12257723,35.38728708,535.74
-99.12252394,35.38728713,535.35
-99.12252317,35.38728713,535.45
-99.12252174,35.38728713,536.20
-99.12244444,35.38728721,535.73
-99.12237155,35.38728729,535.38
-99.12236913,35.38728729,529.17
-99.12234171,35.38728732,536.27
-99.12225836,35.38728740,535.11
-99.12225472,35.38728740,535.49
-99.12198815,35.38728767,533.27
-99.12189368,35.38728777,528.07
-99.12179271,35.38728787,535.13
-99.12179150,35.38728787,534.31
-99.12178852,35.38728787,535.33
-99.12174834,35.38728791,535.28
-99.12172268,35.38728794,535.07
-99.12170793,35.38728796,527.26
-99.12167280,35.38728799,535.19
-99.12166752,35.38728800,535.08
-99.12162634,35.38728804,534.88
-99.12161687,35.38728805,535.13
-99.12160883,35.38728806,526.84
-99.12160696,35.38728806,535.05
-99.12159176,35.38728807,531.24
-99.12113008,35.38728854,525.62
-99.12112446,35.38728854,525.57
-99.12111940,35.38728855,525.56
-99.12111933,35.38731569,528.02
-99.12111933,35.38731632,525.37
-99.12111934,35.38732236,525.36
-99.12111941,35.38737313,524.85
-99.12111943,35.38738169,524.83
-99.12111949,35.38742173,524.64
-99.12111949,35.38742515,524.64
-99.12111952,35.38744102,524.69
-99.12111979,35.38762515,524.59
-99.12112029,35.38788754,524.29
-99.12112079,35.38829492,523.12
-99.12112104,35.38846308,529.12
-99.12112118,35.38855442,529.58
-99.12112120,35.38856461,522.46
-99.12112133,35.38865649,528.66
-99.12112153,35.38878823,522.94
-99.12112159,35.38882637,523.07
-99.12112164,35.38885982,523.17
-99.12112201,35.38910724,524.53
-99.12112203,35.38912230,524.57
-99.12112212,35.38918632,524.97
-99.12112223,35.38925855,525.34
-99.12112254,35.38946521,525.69
-99.12112256,35.38947423,525.70
-99.12112260,35.38950417,525.69
-99.12112260,35.38950615,525.69
-99.12112297,35.38975060,525.51
-99.12112305,35.38980587,525.50
-99.12112324,35.38992967,525.50
-99.12112347,35.39008566,525.69
-99.12112357,35.39015248,525.73
-99.12112363,35.39019143,525.76
-99.12112363,35.39019468,525.78
-99.12112369,35.39023273,525.80
-99.12112370,35.39023958,525.81
-99.12112395,35.39041018,526.17
-99.12112399,35.39043335,526.17
-99.12112408,35.39049575,526.12
-99.12112409,35.39049827,526.11
-99.12112417,35.39055697,526.17
-99.12112422,35.39058583,526.11
-99.12112458,35.39082567,525.37
-99.12112468,35.39089817,525.17
-99.12112484,35.39100376,524.91
-99.12112488,35.39102837,524.87
-99.12112526,35.39128202,524.10
-99.12112533,35.39132990,523.89
-99.12112576,35.39161834,521.85
-99.12112594,35.39173782,520.44
-99.12112621,35.39192032,519.35
-99.12112626,35.39194872,519.21
-99.12112681,35.39231931,516.95
-99.12112707,35.39249595,514.24
-99.12112707,35.39249694,514.22
-99.12112715,35.39255068,513.38
-99.12112754,35.39280676,515.51
-99.12112756,35.39282290,516.20
-99.12112782,35.39299747,517.93
-99.12112802,35.39312641,518.89
-99.12112807,35.39316158,519.06
-99.12112827,35.39329548,519.88
-99.12112855,35.39348591,520.94
-99.12112888,35.39370547,520.89
-99.12112891,35.39372125,521.00
-99.12112921,35.39392458,520.90
-99.12112955,35.39415216,520.75
-99.12112981,35.39432448,520.66
-99.12112982,35.39433277,520.70
-99.12113016,35.39456162,520.41
-99.12113025,35.39462212,520.31
-99.12113028,35.39463835,520.26
-99.12113055,35.39481923,519.80
-99.12113055,35.39482022,519.80
-99.12113055,35.39482067,519.81
-99.12113055,35.39482166,519.81
-99.12113056,35.39482608,519.86
-99.12113056,35.39483032,519.92
-99.12113061,35.39486152,519.75
-99.12113068,35.39490471,519.65
-99.12113070,35.39492121,519.70
-99.12113071,35.39492482,519.64
-99.12113073,35.39494447,519.63
-99.12113074,35.39494961,519.59
-99.12113075,35.39495439,519.60
-99.12113083,35.39501021,519.63
-99.12113084,35.39501480,519.61
-99.12113085,35.39502184,519.49
-99.12113089,35.39504934,519.45
-99.12113123,35.39527413,518.67
-99.12113185,35.39561587,517.52
-99.12113206,35.39575635,517.58
-99.12113213,35.39580702,517.02
-99.12113270,35.39625525,517.69
-99.12113288,35.39630331,517.54
-99.12113574,35.39630439,517.54
-99.12124410,35.39630509,517.89
-99.12125677,35.39630517,517.90
-99.12155200,35.39630487,518.62
-99.12165529,35.39630477,518.58
-99.12187487,35.39630455,518.72
-99.12213498,35.39630428,519.24
-99.12215557,35.39630426,519.32
-99.12224840,35.39630417,519.82
-99.12245774,35.39630396,520.26
-99.12260662,35.39630381,520.63
-99.12274339,35.39630367,521.01
-99.12304138,35.39630337,521.69
-99.12318244,35.39630322,521.88
-99.12334013,35.39630306,522.22
-99.12359418,35.39630280,522.81
-99.12395615,35.39630243,523.43
-99.12446545,35.39630182,524.64
-99.12498885,35.39630137,525.71
-99.12509831,35.39630125,525.91
-99.12518839,35.39630116,526.09
-99.12525524,35.39630109,526.19
-99.12529268,35.39630105,526.25
-99.12557514,35.39630076,526.85
-99.12569726,35.39630063,526.56
     </coordinates>
    </LineString>
   </MultiGeometry>
  </Placemark>
 </Document>
</kml>
