<kml>
 <Document>
  <Style id="yellow">
   <LineStyle>
   <color>ff00ffff</color>
   <width>1</width>
   </LineStyle>
  </Style>
  <Style id="red">
   <LineStyle>
   <color>ffff0000</color>
   <width>2</width>
   </LineStyle>
  </Style>
  <Style id="green">
   <LineStyle>
   <color>ff00ff00</color>
   <width>1</width>
   </LineStyle>
  </Style>
  <Placemark>
  <styleUrl>#yellow</styleUrl>
   <MultiGeometry>
    <LineString>
     <coordinates>
-99.06706230,35.35126300,494.91
-99.06735792,35.35126284,493.85
-99.06783536,35.35126257,493.22
-99.06805779,35.35126244,493.04
-99.06815728,35.35126230,492.59
-99.06866213,35.35126210,492.38
-99.06877197,35.35126204,492.44
-99.06907892,35.35126177,492.49
-99.06937124,35.35126170,494.19
-99.06948482,35.35126163,494.84
-99.06968667,35.35126152,497.67
-99.06979431,35.35126145,498.19
-99.06989039,35.35126140,496.44
-99.06997172,35.35126135,495.61
-99.07016763,35.35126124,494.24
-99.07041625,35.35126109,493.61
-99.07052444,35.35126103,493.53
-99.07074786,35.35126090,493.03
-99.07083426,35.35126085,492.83
-99.07084295,35.35126084,492.80
-99.07114749,35.35126057,492.17
-99.07142693,35.35126050,492.18
-99.07145235,35.35126049,492.16
-99.07148042,35.35126047,492.03
-99.07172585,35.35126032,490.86
-99.07177064,35.35126030,490.70
-99.07182919,35.35126026,490.58
-99.07197227,35.35126018,490.51
-99.07223179,35.35126002,489.87
-99.07263769,35.35125978,489.18
-99.07296369,35.35125958,488.18
-99.07299891,35.35125956,490.30
-99.07304898,35.35125953,492.48
-99.07308024,35.35125951,487.80
-99.07324005,35.35125942,487.65
-99.07340403,35.35125932,487.47
-99.07352961,35.35125924,487.06
-99.07358717,35.35125920,486.85
-99.07393980,35.35125899,486.73
-99.07432259,35.35125875,486.15
-99.07465365,35.35125855,485.60
-99.07471704,35.35125851,485.55
-99.07477967,35.35125847,485.54
-99.07506406,35.35125830,486.04
-99.07514198,35.35125825,485.66
-99.07541922,35.35125808,485.82
-99.07558321,35.35125797,485.86
-99.07558827,35.35125797,485.82
-99.07559311,35.35125797,485.77
-99.07559818,35.35125796,485.78
-99.07560357,35.35125796,485.77
-99.07560874,35.35125796,485.81
-99.07561348,35.35125795,485.73
-99.07596346,35.35125773,485.71
-99.07605327,35.35125768,485.58
-99.07612316,35.35125763,485.64
-99.07620383,35.35125758,485.83
-99.07628946,35.35125753,485.90
-99.07643386,35.35125744,485.97
-99.07643892,35.35125743,485.97
-99.07644354,35.35125743,485.95
-99.07644872,35.35125743,485.96
-99.07645389,35.35125742,485.98
-99.07645884,35.35125742,485.93
-99.07646346,35.35125742,485.93
-99.07646820,35.35125742,485.91
-99.07672166,35.35125726,486.27
-99.07689137,35.35125715,486.42
-99.07696919,35.35125692,486.51
-99.07703764,35.35125516,486.52
-99.07703929,35.35125254,486.51
-99.07704115,35.35123893,486.51
-99.07704146,35.35110692,486.50
-99.07704133,35.35097058,486.47
-99.07704126,35.35088880,486.47
-99.07704118,35.35080918,486.54
-99.07704113,35.35075544,486.69
-99.07704089,35.35050621,487.05
-99.07704075,35.35035157,487.12
-99.07704062,35.35022425,486.99
-99.07704054,35.35013183,486.87
-99.07704032,35.34989992,486.98
-99.07704024,35.34981516,487.32
-99.07704010,35.34966890,487.79
-99.07703981,35.34936548,489.33
-99.07703970,35.34925232,489.92
-99.07703961,35.34915647,489.93
-99.07703951,35.34904899,489.98
-99.07703946,35.34899841,490.09
-99.07703936,35.34888939,490.24
-99.07703918,35.34869922,489.86
-99.07703916,35.34868624,490.95
-99.07703907,35.34858642,491.31
-99.07703900,35.34851041,491.64
-99.07703892,35.34842646,491.87
-99.07703886,35.34836046,492.00
-99.07703879,35.34829337,492.48
-99.07703876,35.34825532,492.66
-99.07703861,35.34809780,493.88
-99.07703858,35.34807039,494.09
-99.07703856,35.34805127,494.20
-99.07703852,35.34800916,494.46
-99.07703850,35.34798391,494.63
-99.07703843,35.34791466,497.41
-99.07703838,35.34785876,498.21
-99.07703820,35.34766661,500.23
-99.07703815,35.34761747,498.43
-99.07703794,35.34739655,498.97
-99.07703779,35.34723794,501.30
-99.07703775,35.34719223,502.14
-99.07703766,35.34709764,503.89
-99.07703753,35.34696978,501.20
-99.07703736,35.34678106,498.35
-99.07703733,35.34675482,497.86
-99.07703731,35.34673489,497.81
-99.07703716,35.34657204,495.64
-99.07703707,35.34647890,492.40
-99.07703707,35.34647845,500.77
-99.07703703,35.34644274,492.04
-99.07703703,35.34643751,492.28
-99.07703702,35.34642840,493.09
-99.07703700,35.34641001,497.49
-99.07703699,35.34639757,500.61
-99.07703699,35.34639306,500.94
-99.07703690,35.34630145,494.01
-99.07703669,35.34608225,496.55
-99.07703669,35.34607846,496.57
-99.07703631,35.34579857,498.19
-99.07703616,35.34552374,499.49
-99.07703600,35.34535142,499.67
-99.07703594,35.34528957,499.57
-99.07703588,35.34522438,499.53
-99.07703577,35.34511094,499.64
-99.07703565,35.34498227,499.56
-99.07703564,35.34497767,499.55
-99.07703547,35.34479102,499.56
-99.07703545,35.34477434,499.62
-99.07703535,35.34467092,499.63
-99.07703519,35.34450374,499.66
-99.07703495,35.34424189,500.02
-99.07703467,35.34394965,500.22
-99.07703455,35.34382639,500.32
-99.07703453,35.34380710,500.41
-99.07703450,35.34377175,500.51
-99.07703446,35.34373117,500.48
-99.07703430,35.34356508,500.60
-99.07703420,35.34345273,500.75
-99.07703407,35.34332334,501.02
-99.07703407,35.34331910,501.06
-99.07703405,35.34330242,501.05
-99.07703392,35.34316446,501.44
-99.07703386,35.34310369,501.82
-99.07703386,35.34309575,501.82
-99.07703384,35.34307591,501.86
-99.07703382,35.34305130,501.81
-99.07703371,35.34294364,501.67
-99.07703368,35.34290676,501.48
-99.07703365,35.34287375,501.33
-99.07703350,35.34272029,499.07
-99.07703337,35.34258260,497.84
-99.07703312,35.34231939,497.54
-99.07703309,35.34228937,497.60
-99.07703272,35.34224320,497.84
-99.07699574,35.34224043,498.08
-99.07680162,35.34224037,500.21
-99.07668673,35.34224045,500.77
-99.07668188,35.34224045,500.81
-99.07641282,35.34224071,502.28
-99.07603833,35.34224086,503.77
-99.07599783,35.34224088,503.97
-99.07599277,35.34224088,504.01
-99.07598815,35.34224089,504.01
-99.07547533,35.34224121,505.03
-99.07547049,35.34224121,505.05
-99.07546586,35.34224121,505.06
-99.07536352,35.34224128,505.61
-99.07526217,35.34224134,505.64
-99.07478082,35.34224164,505.03
-99.07477598,35.34224164,505.02
-99.07477081,35.34224165,505.04
-99.07468299,35.34224170,505.41
-99.07436374,35.34224190,507.94
-99.07426910,35.34224196,508.25
-99.07416566,35.34224202,508.54
-99.07405275,35.34224209,508.83
-99.07385389,35.34224221,509.57
-99.07365207,35.34224233,510.44
-99.07344903,35.34224246,510.38
-99.07333678,35.34224252,510.27
-99.07282330,35.34224284,509.88
-99.07271931,35.34224290,510.45
-99.07251022,35.34224302,511.54
-99.07240402,35.34224309,511.78
-99.07228979,35.34224316,512.03
-99.07226889,35.34224317,512.15
-99.07217171,35.34224323,512.51
-99.07207245,35.34224329,513.19
-99.07196747,35.34224335,513.49
-99.07185698,35.34224341,513.83
-99.07185203,35.34224342,513.83
-99.07164558,35.34224354,514.66
-99.07163149,35.34224355,514.59
-99.07141679,35.34224367,516.07
-99.07141459,35.34224368,516.09
-99.07131599,35.34224373,515.63
-99.07095349,35.34224404,517.16
-99.07065504,35.34224412,518.10
-99.07060761,35.34224415,518.20
-99.07049206,35.34224422,518.53
-99.07042615,35.34224426,518.62
-99.07007168,35.34224446,518.58
-99.06995933,35.34224453,518.34
-99.06972349,35.34224466,517.66
-99.06960707,35.34224473,517.36
-99.06928287,35.34224492,515.84
-99.06905793,35.34224504,514.91
-99.06870886,35.34224524,513.26
-99.06859529,35.34224531,512.43
-99.06849482,35.34224537,511.44
-99.06803845,35.34224562,508.64
-99.06793523,35.34224568,507.94
-99.06788538,35.34224571,508.01
-99.06757031,35.34224589,504.31
-99.06726185,35.34224606,503.39
-99.06716930,35.34224611,501.12
-99.06711296,35.34224614,501.95
-99.06705287,35.34224617,502.21
-99.06705243,35.34224617,499.41
-99.06693963,35.34224624,499.56
-99.06693919,35.34224624,499.59
-99.06684906,35.34224629,499.67
-99.06681869,35.34224630,499.68
-99.06673516,35.34224635,499.87
-99.06669357,35.34224637,499.70
-99.06662369,35.34224641,500.40
-99.06651936,35.34224647,502.01
-99.06651815,35.34224647,497.21
-99.06644365,35.34224651,497.18
-99.06643209,35.34224652,501.62
-99.06631291,35.34224658,499.42
-99.06622135,35.34224663,497.31
-99.06616831,35.34224666,497.56
-99.06603009,35.34224674,498.90
-99.06602922,35.34225088,501.11
-99.06602845,35.34225927,500.86
-99.06602848,35.34229552,499.65
-99.06602849,35.34230084,496.41
-99.06602858,35.34242185,500.56
-99.06602861,35.34245990,498.02
-99.06602862,35.34246864,498.53
-99.06602863,35.34248370,501.85
-99.06602874,35.34261138,502.78
-99.06602875,35.34263050,503.18
-99.06602880,35.34269127,503.92
-99.06602889,35.34279145,505.36
-99.06602890,35.34281002,505.33
-99.06602895,35.34286972,505.11
-99.06602899,35.34291570,505.10
-99.06602901,35.34294077,505.05
-99.06602905,35.34299613,504.95
-99.06602910,35.34305492,504.34
-99.06602914,35.34310271,503.69
-99.06602919,35.34316511,503.63
-99.06602927,35.34326799,502.09
-99.06602958,35.34365085,507.30
-99.06602959,35.34366158,504.76
-99.06602970,35.34379873,503.26
-99.06602979,35.34390387,503.74
-99.06602980,35.34392010,503.78
-99.06602999,35.34415228,505.20
-99.06603005,35.34421802,505.57
-99.06603009,35.34427347,506.00
-99.06603017,35.34437617,506.79
-99.06603018,35.34438149,506.86
-99.06603027,35.34449466,507.30
-99.06603033,35.34456273,507.68
-99.06603035,35.34459105,507.84
-99.06603045,35.34471864,508.56
-99.06603048,35.34474677,508.66
-99.06603056,35.34484659,508.69
-99.06603056,35.34485551,508.69
-99.06603068,35.34500069,508.33
-99.06603081,35.34516218,508.02
-99.06603086,35.34522422,507.95
-99.06603092,35.34528842,507.96
-99.06603097,35.34536019,507.96
-99.06603104,35.34544369,507.89
-99.06603113,35.34555126,507.51
-99.06603145,35.34594061,505.89
-99.06603151,35.34602284,505.92
-99.06603156,35.34607740,506.67
-99.06603173,35.34628677,508.87
-99.06603185,35.34643113,508.78
-99.06603199,35.34661201,508.78
-99.06603202,35.34664961,508.78
-99.06603204,35.34666782,508.76
-99.06603227,35.34694600,509.49
-99.06603233,35.34702535,509.25
-99.06603239,35.34709982,509.10
-99.06603266,35.34742786,507.52
-99.06603273,35.34752245,507.01
-99.06603276,35.34755455,506.87
-99.06603285,35.34765996,506.28
-99.06603285,35.34767033,506.21
-99.06603298,35.34782785,505.13
-99.06603304,35.34789683,504.55
-99.06603321,35.34810557,501.71
-99.06603328,35.34819159,501.42
-99.06603335,35.34828348,501.37
-99.06603349,35.34844677,501.43
-99.06603349,35.34844758,501.44
-99.06603351,35.34847049,501.59
-99.06603352,35.34848951,501.66
-99.06603352,35.34849068,501.68
-99.06603354,35.34851647,501.70
-99.06603356,35.34853496,501.75
-99.06603360,35.34858311,501.93
-99.06603370,35.34870925,502.67
-99.06603378,35.34881169,503.87
-99.06603380,35.34883558,503.79
-99.06603384,35.34888481,503.39
-99.06603386,35.34890113,502.98
-99.06603388,35.34893161,502.49
-99.06603391,35.34896218,502.37
-99.06603397,35.34903792,502.54
-99.06603400,35.34907859,503.06
-99.06603405,35.34913648,502.69
-99.06603410,35.34920194,502.65
-99.06603419,35.34930563,503.53
-99.06603419,35.34930996,503.55
-99.06603443,35.34960815,501.88
-99.06603446,35.34964846,501.77
-99.06603449,35.34968146,501.73
-99.06603458,35.34978723,501.98
-99.06603463,35.34984656,502.33
-99.06603494,35.35022824,498.68
-99.06603501,35.35031724,498.42
-99.06603510,35.35043482,498.00
-99.06603513,35.35046900,497.85
-99.06603539,35.35078639,496.87
-99.06603543,35.35083571,496.76
-99.06603547,35.35087990,496.58
-99.06603556,35.35099748,496.78
-99.06603570,35.35116988,496.89
-99.06603629,35.35122055,496.80
-99.06603720,35.35125734,496.79
-99.06604018,35.35126032,496.79
-99.06604855,35.35126338,496.76
-99.06615420,35.35126341,496.51
-99.06629277,35.35126342,496.16
-99.06635979,35.35126339,496.16
-99.06655834,35.35126328,495.72
-99.06656604,35.35126327,495.72
-99.06675722,35.35126317,495.40
-99.06706230,35.35126300,494.91
     </coordinates>
    </LineString>
   </MultiGeometry>
  </Placemark>
 </Document>
</kml>
