<kml>
 <Document>
  <Style id="yellow">
   <LineStyle>
   <color>ff00ffff</color>
   <width>1</width>
   </LineStyle>
  </Style>
  <Style id="red">
   <LineStyle>
   <color>ffff0000</color>
   <width>2</width>
   </LineStyle>
  </Style>
  <Style id="green">
   <LineStyle>
   <color>ff00ff00</color>
   <width>1</width>
   </LineStyle>
  </Style>
  <Placemark>
  <styleUrl>#yellow</styleUrl>
   <MultiGeometry>
    <LineString>
     <coordinates>
-104.77973233,40.80379351,1656.50
-104.78000239,40.80379402,1657.17
-104.78000334,40.80379403,1657.16
-104.78027080,40.80379454,1658.09
-104.78027601,40.80379455,1658.10
-104.78044768,40.80379487,1658.66
-104.78056635,40.80379510,1659.08
-104.78070161,40.80379536,1659.61
-104.78089853,40.80379573,1660.29
-104.78115662,40.80379622,1661.09
-104.78139005,40.80379666,1661.38
-104.78160403,40.80379707,1661.50
-104.78179988,40.80379744,1661.49
-104.78191974,40.80379766,1661.52
-104.78199692,40.80379781,1661.50
-104.78223094,40.80379825,1661.38
-104.78236336,40.80379850,1661.37
-104.78236822,40.80379851,1661.36
-104.78247527,40.80379871,1661.39
-104.78266389,40.80379907,1661.54
-104.78272091,40.80379918,1661.74
-104.78291001,40.80379953,1662.14
-104.78309352,40.80379988,1662.46
-104.78334225,40.80380034,1662.87
-104.78352790,40.80380069,1663.07
-104.78353288,40.80380070,1663.08
-104.78354817,40.80380073,1663.08
-104.78378101,40.80380117,1663.36
-104.78393264,40.80380145,1663.54
-104.78403424,40.80380164,1663.65
-104.78423969,40.80380203,1663.87
-104.78430525,40.80380215,1663.91
-104.78443281,40.80380239,1664.02
-104.78467228,40.80380283,1664.41
-104.78472457,40.80380293,1664.49
-104.78511010,40.80380365,1665.14
-104.78517826,40.80380378,1665.26
-104.78553617,40.80380444,1665.89
-104.78554068,40.80380445,1665.89
-104.78584133,40.80380501,1665.73
-104.78612004,40.80380553,1664.19
-104.78612550,40.80380554,1664.16
-104.78613059,40.80380555,1664.14
-104.78627333,40.80380581,1663.45
-104.78633036,40.80380592,1663.21
-104.78633545,40.80380593,1663.20
-104.78634079,40.80380594,1663.17
-104.78660160,40.80380579,1662.24
-104.78660339,40.80380453,1662.21
-104.78660400,40.80379976,1662.22
-104.78660473,40.80375535,1662.21
-104.78660480,40.80373364,1662.21
-104.78660487,40.80371147,1662.18
-104.78660492,40.80369661,1662.13
-104.78660499,40.80367373,1662.14
-104.78660505,40.80365445,1662.11
-104.78660548,40.80351977,1662.14
-104.78660578,40.80342735,1662.15
-104.78660604,40.80334618,1662.10
-104.78660621,40.80329411,1662.03
-104.78660667,40.80315070,1661.93
-104.78660668,40.80314520,1661.92
-104.78660681,40.80310457,1661.92
-104.78660698,40.80305403,1661.89
-104.78660711,40.80301368,1661.85
-104.78660749,40.80289242,1661.65
-104.78660829,40.80264460,1661.77
-104.78660918,40.80236687,1661.85
-104.78661025,40.80203175,1662.64
-104.78661032,40.80201112,1662.74
-104.78661123,40.80172537,1662.97
-104.78661190,40.80151719,1662.38
-104.78661235,40.80137575,1661.93
-104.78661254,40.80131666,1661.70
-104.78661264,40.80128423,1661.57
-104.78661333,40.80107073,1661.04
-104.78661365,40.80097046,1660.95
-104.78661406,40.80084128,1661.00
-104.78661440,40.80073687,1661.05
-104.78661535,40.80043950,1661.94
-104.78661570,40.80033158,1661.97
-104.78661655,40.80006574,1661.80
-104.78661690,40.79995647,1661.81
-104.78661703,40.79991566,1661.83
-104.78661709,40.79989467,1661.82
-104.78661732,40.79982413,1661.85
-104.78661755,40.79975179,1661.85
-104.78661762,40.79973008,1661.87
-104.78661765,40.79972134,1661.88
-104.78661800,40.79961234,1661.88
-104.78661803,40.79960099,1661.88
-104.78661834,40.79950721,1662.02
-104.78661877,40.79937019,1662.42
-104.78661882,40.79935443,1662.50
-104.78661905,40.79928398,1662.86
-104.78661989,40.79902084,1664.79
-104.78662004,40.79897436,1665.21
-104.78662009,40.79895788,1665.32
-104.78662027,40.79890400,1665.81
-104.78662035,40.79887698,1666.05
-104.78662041,40.79886058,1666.18
-104.78662183,40.79841511,1668.84
-104.78662191,40.79838971,1668.86
-104.78662240,40.79823765,1668.61
-104.78662285,40.79809612,1668.14
-104.78662302,40.79804477,1667.90
-104.78662365,40.79784884,1667.37
-104.78662381,40.79779812,1667.32
-104.78662425,40.79766128,1667.06
-104.78662456,40.79756255,1666.54
-104.78662472,40.79751372,1666.32
-104.78662541,40.79729923,1665.17
-104.78662594,40.79713131,1664.28
-104.78662637,40.79699727,1663.41
-104.78662646,40.79697069,1663.25
-104.78662736,40.79668846,1661.29
-104.78662739,40.79668035,1661.24
-104.78662746,40.79665819,1661.12
-104.78662754,40.79663161,1660.97
-104.78662767,40.79659197,1660.74
-104.78662775,40.79656720,1660.62
-104.78662807,40.79646802,1660.17
-104.78662872,40.79626542,1659.71
-104.78662899,40.79617930,1659.67
-104.78662912,40.79613768,1659.64
-104.78662933,40.79607191,1659.72
-104.78662992,40.79588805,1660.18
-104.78663009,40.79583508,1660.42
-104.78663023,40.79579346,1660.55
-104.78663073,40.79563671,1661.11
-104.78663085,40.79559843,1661.25
-104.78663123,40.79548078,1661.68
-104.78663199,40.79524106,1662.47
-104.78663285,40.79497288,1663.54
-104.78663332,40.79482793,1664.32
-104.78663301,40.79481343,1664.38
-104.78663199,40.79479856,1664.47
-104.78662310,40.79479809,1664.43
-104.78650954,40.79479779,1663.99
-104.78650208,40.79479778,1663.97
-104.78626702,40.79479734,1662.95
-104.78602852,40.79479690,1661.47
-104.78601098,40.79479687,1661.36
-104.78593547,40.79479673,1660.97
-104.78537219,40.79479568,1658.86
-104.78521963,40.79479540,1658.46
-104.78510927,40.79479519,1658.21
-104.78498185,40.79479496,1657.91
-104.78489710,40.79479480,1657.78
-104.78462316,40.79479429,1657.41
-104.78441904,40.79479391,1657.18
-104.78415127,40.79479341,1656.77
-104.78404126,40.79479320,1656.64
-104.78377669,40.79479270,1656.46
-104.78352611,40.79479224,1656.29
-104.78335885,40.79479192,1656.23
-104.78326118,40.79479174,1656.19
-104.78315118,40.79479153,1656.17
-104.78291956,40.79479110,1656.23
-104.78281003,40.79479089,1656.34
-104.78267703,40.79479064,1656.28
-104.78263377,40.79479056,1656.21
-104.78222268,40.79478978,1655.03
-104.78221533,40.79478977,1655.00
-104.78211564,40.79478958,1654.67
-104.78200944,40.79478938,1654.30
-104.78168761,40.79478877,1653.54
-104.78156113,40.79478853,1653.31
-104.78134670,40.79478813,1652.95
-104.78093728,40.79478744,1652.42
-104.78053556,40.79478659,1652.36
-104.78046515,40.79478645,1652.30
-104.78045709,40.79478644,1652.32
-104.78025119,40.79478604,1652.05
-104.78015209,40.79478586,1651.83
-104.78005869,40.79478568,1651.67
-104.77996492,40.79478550,1651.56
-104.77992012,40.79478541,1651.49
-104.77979068,40.79478517,1651.36
-104.77975594,40.79478510,1651.30
-104.77966206,40.79478492,1651.20
-104.77937201,40.79478437,1650.78
-104.77918958,40.79478402,1650.51
-104.77899233,40.79478364,1650.26
-104.77877850,40.79478323,1649.09
-104.77868130,40.79478304,1648.55
-104.77856418,40.79478282,1647.86
-104.77846852,40.79478264,1647.27
-104.77836243,40.79478243,1646.58
-104.77814895,40.79478202,1645.37
-104.77805187,40.79478184,1644.93
-104.77801169,40.79478176,1644.83
-104.77783993,40.79478143,1644.55
-104.77783767,40.79478142,1644.57
-104.77763640,40.79478104,1644.36
-104.77754643,40.79478086,1644.31
-104.77745682,40.79478069,1644.37
-104.77730936,40.79478041,1644.64
-104.77715834,40.79478011,1645.00
-104.77702120,40.79477985,1645.34
-104.77688014,40.79477958,1645.67
-104.77672865,40.79477928,1646.12
-104.77632492,40.79477850,1647.34
-104.77614462,40.79477815,1647.90
-104.77600357,40.79477788,1648.22
-104.77583347,40.79477755,1648.53
-104.77549967,40.79477690,1648.12
-104.77530835,40.79477653,1648.06
-104.77515153,40.79477622,1648.27
-104.77498321,40.79477589,1648.41
-104.77480031,40.79477554,1648.44
-104.77478454,40.79477596,1648.36
-104.77478022,40.79479189,1648.48
-104.77477946,40.79491152,1648.95
-104.77477898,40.79505215,1649.36
-104.77477888,40.79508214,1649.39
-104.77477874,40.79512376,1649.44
-104.77477861,40.79516124,1649.53
-104.77477816,40.79529466,1649.85
-104.77477811,40.79530997,1649.87
-104.77477807,40.79532348,1649.91
-104.77477796,40.79535564,1649.98
-104.77477791,40.79536934,1650.02
-104.77477761,40.79545762,1650.21
-104.77477685,40.79568292,1650.85
-104.77477656,40.79576913,1651.05
-104.77477567,40.79606722,1652.14
-104.77477440,40.79640855,1653.11
-104.77477395,40.79654080,1653.08
-104.77477360,40.79664359,1653.02
-104.77477335,40.79672007,1652.88
-104.77477324,40.79675142,1652.83
-104.77477281,40.79688006,1652.59
-104.77477261,40.79693690,1652.48
-104.77477252,40.79696429,1652.49
-104.77477242,40.79699285,1652.49
-104.77477240,40.79700113,1652.46
-104.77477221,40.79705726,1652.36
-104.77477194,40.79713491,1652.37
-104.77477182,40.79717202,1652.38
-104.77477079,40.79747759,1652.39
-104.77476932,40.79790973,1652.67
-104.77476922,40.79794135,1652.65
-104.77476875,40.79808062,1652.99
-104.77476772,40.79838574,1653.24
-104.77476664,40.79870302,1653.95
-104.77476648,40.79875058,1653.97
-104.77476636,40.79878634,1654.00
-104.77476538,40.79907615,1653.53
-104.77476538,40.79907840,1653.56
-104.77476413,40.79944604,1652.11
-104.77476398,40.79949225,1651.80
-104.77476363,40.79959423,1651.41
-104.77476354,40.79962098,1651.33
-104.77476320,40.79972170,1651.06
-104.77476290,40.79981133,1651.03
-104.77476243,40.79995096,1650.98
-104.77476150,40.80022500,1651.05
-104.77476107,40.80035202,1650.98
-104.77476071,40.80045733,1650.98
-104.77476056,40.80050399,1650.95
-104.77476023,40.80060074,1650.80
-104.77476000,40.80066885,1650.71
-104.77475977,40.80073560,1650.44
-104.77475936,40.80085649,1650.19
-104.77475915,40.80092064,1650.28
-104.77475848,40.80115278,1650.13
-104.77475736,40.80144970,1650.59
-104.77475728,40.80147276,1650.65
-104.77475715,40.80151177,1650.75
-104.77475690,40.80158609,1650.97
-104.77475661,40.80167104,1651.13
-104.77475640,40.80173320,1651.19
-104.77475609,40.80182644,1651.28
-104.77475607,40.80183076,1651.27
-104.77475594,40.80187085,1651.36
-104.77475591,40.80187941,1651.35
-104.77475580,40.80190968,1651.37
-104.77475570,40.80194057,1651.42
-104.77475555,40.80198634,1651.52
-104.77475511,40.80211417,1651.67
-104.77475496,40.80215831,1651.71
-104.77475495,40.80216281,1651.72
-104.77475429,40.80235839,1651.93
-104.77475428,40.80236154,1651.92
-104.77475406,40.80242667,1651.95
-104.77475386,40.80248361,1652.02
-104.77475382,40.80249577,1652.03
-104.77475380,40.80250279,1652.02
-104.77475367,40.80254171,1652.04
-104.77475344,40.80260936,1652.07
-104.77475329,40.80265233,1652.06
-104.77475298,40.80274611,1652.14
-104.77475277,40.80280701,1652.19
-104.77475259,40.80286016,1652.29
-104.77475205,40.80302042,1652.74
-104.77475185,40.80307925,1652.86
-104.77475178,40.80309925,1652.93
-104.77475050,40.80347805,1654.05
-104.77475004,40.80361525,1654.09
-104.77474993,40.80364705,1654.07
-104.77474982,40.80367840,1653.96
-104.77474960,40.80378119,1653.38
-104.77474971,40.80378227,1653.40
-104.77475445,40.80378237,1653.40
-104.77475943,40.80378247,1653.40
-104.77480934,40.80378320,1653.48
-104.77483945,40.80378361,1653.46
-104.77486956,40.80378403,1653.47
-104.77487916,40.80378414,1653.46
-104.77488402,40.80378415,1653.46
-104.77491165,40.80378421,1653.47
-104.77513666,40.80378464,1653.46
-104.77514176,40.80378465,1653.44
-104.77521419,40.80378480,1653.46
-104.77549421,40.80378534,1653.48
-104.77555420,40.80378546,1653.54
-104.77555882,40.80378547,1653.54
-104.77579320,40.80378592,1653.74
-104.77588626,40.80378610,1653.86
-104.77589124,40.80378611,1653.85
-104.77614115,40.80378660,1654.08
-104.77621228,40.80378674,1654.09
-104.77621702,40.80378674,1654.12
-104.77648436,40.80378726,1654.24
-104.77648898,40.80378727,1654.27
-104.77679864,40.80378787,1654.37
-104.77680338,40.80378788,1654.41
-104.77718038,40.80378861,1654.60
-104.77718548,40.80378862,1654.57
-104.77734920,40.80378894,1654.74
-104.77752963,40.80378928,1654.84
-104.77755785,40.80378934,1654.88
-104.77778725,40.80378978,1655.12
-104.77779057,40.80378979,1655.12
-104.77811813,40.80379042,1655.68
-104.77812275,40.80379043,1655.61
-104.77821641,40.80379061,1655.81
-104.77839210,40.80379094,1655.82
-104.77846714,40.80379109,1655.88
-104.77866489,40.80379147,1655.93
-104.77878178,40.80379169,1656.06
-104.77890022,40.80379192,1656.18
-104.77903513,40.80379218,1656.49
-104.77904011,40.80379219,1656.48
-104.77932321,40.80379273,1656.34
-104.77938746,40.80379285,1656.29
-104.77939233,40.80379286,1656.30
-104.77973233,40.80379351,1656.50
     </coordinates>
    </LineString>
   </MultiGeometry>
  </Placemark>
 </Document>
</kml>
