<kml>
 <Document>
  <Style id="yellow">
   <LineStyle>
   <color>ff00ffff</color>
   <width>1</width>
   </LineStyle>
  </Style>
  <Style id="red">
   <LineStyle>
   <color>ffff0000</color>
   <width>2</width>
   </LineStyle>
  </Style>
  <Style id="green">
   <LineStyle>
   <color>ff00ff00</color>
   <width>1</width>
   </LineStyle>
  </Style>
  <Placemark>
  <styleUrl>#yellow</styleUrl>
   <MultiGeometry>
    <LineString>
     <coordinates>
-104.74359332,40.82173590,1643.08
-104.74364502,40.82173601,1643.09
-104.74388147,40.82173654,1643.17
-104.74407275,40.82173696,1643.28
-104.74410548,40.82173704,1643.31
-104.74413335,40.82173710,1643.33
-104.74431881,40.82173751,1643.45
-104.74469460,40.82173834,1643.68
-104.74475390,40.82173847,1643.71
-104.74477500,40.82173852,1643.72
-104.74492501,40.82173885,1643.81
-104.74493331,40.82173887,1643.85
-104.74530496,40.82173960,1644.82
-104.74567387,40.82174051,1646.53
-104.74598159,40.82174109,1647.88
-104.74641205,40.82174213,1649.76
-104.74676531,40.82174282,1650.87
-104.74707719,40.82174359,1651.87
-104.74727416,40.82174402,1652.58
-104.74769501,40.82174494,1653.23
-104.74793692,40.82174547,1652.85
-104.74796775,40.82174554,1652.79
-104.74803309,40.82174568,1652.70
-104.74815381,40.82174595,1652.63
-104.74818820,40.82174602,1652.67
-104.74826599,40.82174619,1652.71
-104.74839181,40.82174646,1652.84
-104.74841316,40.82174651,1652.83
-104.74850802,40.82174672,1652.99
-104.74863230,40.82174699,1653.27
-104.74868021,40.82174709,1653.30
-104.74880294,40.82174736,1653.51
-104.74885369,40.82174747,1653.57
-104.74902991,40.82174785,1653.78
-104.74908422,40.82174797,1653.70
-104.74935696,40.82174857,1654.28
-104.74954622,40.82174898,1654.76
-104.74981446,40.82174956,1655.36
-104.75002483,40.82175001,1655.81
-104.75005388,40.82175008,1655.90
-104.75013938,40.82175026,1656.07
-104.75028310,40.82175057,1656.26
-104.75051992,40.82175109,1656.44
-104.75078021,40.82175165,1656.41
-104.75079942,40.82175133,1656.37
-104.75094007,40.82174893,1656.27
-104.75096758,40.82174845,1656.26
-104.75097081,40.82174314,1656.26
-104.75097110,40.82172864,1656.26
-104.75097215,40.82157496,1656.24
-104.75097286,40.82138434,1655.93
-104.75097445,40.82099103,1655.46
-104.75097467,40.82093157,1655.34
-104.75097574,40.82061376,1654.62
-104.75097657,40.82042485,1654.44
-104.75097771,40.82011820,1654.37
-104.75097794,40.82005694,1654.29
-104.75097899,40.81977759,1653.94
-104.75098004,40.81949635,1654.34
-104.75098018,40.81945842,1654.45
-104.75098048,40.81937798,1654.69
-104.75098049,40.81937456,1654.69
-104.75098135,40.81914619,1655.13
-104.75098199,40.81897521,1654.73
-104.75098202,40.81896611,1654.68
-104.75098274,40.81874144,1654.24
-104.75098397,40.81844461,1653.92
-104.75098437,40.81830651,1653.94
-104.75098587,40.81793591,1653.82
-104.75098690,40.81766205,1653.53
-104.75098714,40.81759692,1653.56
-104.75098757,40.81748242,1653.62
-104.75098802,40.81736261,1653.47
-104.75098840,40.81726163,1653.22
-104.75098863,40.81716722,1652.90
-104.75099000,40.81680156,1652.30
-104.75099087,40.81660059,1651.72
-104.75099133,40.81647681,1651.58
-104.75099189,40.81632619,1651.51
-104.75099208,40.81627718,1651.46
-104.75099253,40.81615602,1651.48
-104.75099294,40.81604765,1651.31
-104.75099325,40.81596207,1651.21
-104.75099335,40.81593657,1651.11
-104.75099354,40.81588532,1651.01
-104.75099438,40.81566182,1650.50
-104.75099441,40.81565371,1650.47
-104.75099443,40.81564876,1650.45
-104.75099466,40.81555516,1650.33
-104.75099621,40.81514104,1650.11
-104.75099627,40.81512365,1650.14
-104.75099717,40.81488250,1650.00
-104.75099768,40.81474782,1649.99
-104.75099786,40.81469999,1649.98
-104.75099799,40.81466413,1649.99
-104.75099811,40.81463134,1649.96
-104.75099922,40.81433505,1649.66
-104.75100039,40.81405291,1649.78
-104.75100094,40.81390661,1649.83
-104.75100242,40.81351177,1649.93
-104.75100333,40.81326719,1650.10
-104.75100481,40.81287181,1650.19
-104.75100507,40.81280281,1650.06
-104.75100515,40.81274930,1649.96
-104.75100303,40.81274605,1649.94
-104.75098655,40.81274367,1649.97
-104.75041055,40.81274243,1650.62
-104.75035020,40.81274230,1650.62
-104.75029471,40.81274218,1650.61
-104.75024859,40.81274208,1650.67
-104.75000707,40.81274155,1650.79
-104.74994612,40.81274142,1650.81
-104.74983526,40.81274118,1650.86
-104.74979435,40.81274109,1650.85
-104.74968871,40.81274086,1650.89
-104.74952070,40.81274050,1651.03
-104.74927491,40.81273996,1651.47
-104.74920495,40.81273981,1651.60
-104.74902260,40.81273942,1651.72
-104.74861591,40.81273853,1651.75
-104.74861093,40.81273852,1651.76
-104.74855342,40.81273839,1651.74
-104.74854809,40.81273838,1651.75
-104.74843379,40.81273813,1651.67
-104.74843331,40.81273813,1651.68
-104.74824823,40.81273773,1651.55
-104.74800256,40.81273719,1651.35
-104.74792217,40.81273702,1651.29
-104.74788968,40.81273695,1651.29
-104.74765053,40.81273642,1651.25
-104.74764923,40.81273642,1651.22
-104.74758046,40.81273627,1651.16
-104.74729981,40.81273566,1651.03
-104.74714839,40.81273532,1651.00
-104.74704062,40.81273509,1650.97
-104.74699438,40.81273499,1650.98
-104.74692798,40.81273484,1651.00
-104.74687166,40.81273472,1650.98
-104.74669144,40.81273432,1651.07
-104.74662456,40.81273417,1651.03
-104.74656765,40.81273405,1651.02
-104.74651097,40.81273393,1651.07
-104.74644932,40.81273379,1651.05
-104.74632601,40.81273352,1651.08
-104.74615088,40.81273313,1650.94
-104.74604145,40.81273289,1650.84
-104.74588731,40.81273255,1650.82
-104.74562112,40.81273197,1650.94
-104.74509030,40.81273080,1651.54
-104.74499366,40.81273058,1651.71
-104.74487320,40.81273032,1651.93
-104.74473886,40.81273002,1652.10
-104.74466037,40.81272984,1652.23
-104.74461626,40.81272975,1652.31
-104.74448868,40.81272946,1652.45
-104.74429269,40.81272903,1652.80
-104.74418681,40.81272880,1653.06
-104.74418468,40.81272879,1653.08
-104.74393865,40.81272825,1653.51
-104.74383763,40.81272802,1653.55
-104.74353658,40.81272735,1653.53
-104.74345608,40.81272717,1653.59
-104.74332292,40.81272688,1653.72
-104.74311650,40.81272642,1653.87
-104.74294137,40.81272603,1653.96
-104.74287367,40.81272588,1653.97
-104.74281557,40.81272575,1653.97
-104.74281486,40.81272575,1653.99
-104.74270116,40.81272549,1653.97
-104.74245347,40.81272494,1653.89
-104.74230704,40.81272461,1653.85
-104.74219499,40.81272436,1653.78
-104.74206314,40.81272407,1653.88
-104.74191588,40.81272374,1653.90
-104.74176850,40.81272341,1653.90
-104.74139821,40.81272258,1653.55
-104.74135363,40.81272248,1653.54
-104.74125937,40.81272227,1653.39
-104.74123246,40.81272221,1653.33
-104.74119665,40.81272213,1653.32
-104.74101939,40.81272173,1653.15
-104.74085897,40.81272137,1653.00
-104.74083348,40.81272131,1652.97
-104.74055235,40.81272068,1652.44
-104.74026364,40.81272003,1652.04
-104.74009444,40.81271965,1651.80
-104.73998975,40.81271941,1651.68
-104.73987533,40.81271916,1651.62
-104.73982838,40.81271905,1651.59
-104.73978546,40.81271895,1651.51
-104.73961484,40.81271857,1651.37
-104.73955875,40.81271844,1651.34
-104.73952437,40.81271836,1651.31
-104.73938683,40.81271805,1651.29
-104.73923886,40.81271772,1651.26
-104.73922487,40.81271769,1651.25
-104.73915017,40.81271788,1651.24
-104.73914878,40.81274031,1651.09
-104.73914864,40.81274598,1651.05
-104.73914828,40.81280778,1651.20
-104.73914822,40.81282228,1651.26
-104.73914774,40.81294570,1651.36
-104.73914772,40.81294984,1651.36
-104.73914760,40.81298056,1651.40
-104.73914735,40.81304434,1651.54
-104.73914697,40.81314037,1651.84
-104.73914581,40.81343630,1652.71
-104.73914510,40.81361773,1653.37
-104.73914448,40.81377763,1653.87
-104.73914420,40.81384888,1653.90
-104.73914409,40.81387735,1653.91
-104.73914388,40.81392906,1653.88
-104.73914357,40.81400951,1653.80
-104.73914304,40.81414589,1653.50
-104.73914292,40.81417634,1653.43
-104.73914274,40.81422147,1653.27
-104.73914265,40.81424445,1653.19
-104.73914247,40.81429012,1653.01
-104.73914192,40.81443011,1652.41
-104.73914165,40.81450083,1652.25
-104.73914119,40.81461595,1652.13
-104.73914117,40.81462208,1652.11
-104.73914099,40.81466784,1652.09
-104.73914089,40.81469379,1652.08
-104.73914022,40.81486441,1652.13
-104.73914006,40.81490666,1652.16
-104.73913892,40.81519646,1651.11
-104.73913826,40.81536383,1650.59
-104.73913817,40.81538852,1650.52
-104.73913804,40.81542158,1650.45
-104.73913720,40.81563598,1650.13
-104.73913719,40.81563949,1650.13
-104.73913715,40.81564796,1650.13
-104.73913700,40.81568670,1650.05
-104.73913607,40.81592506,1650.12
-104.73913586,40.81597848,1650.14
-104.73913580,40.81599316,1650.10
-104.73913573,40.81601037,1650.11
-104.73913567,40.81602694,1650.12
-104.73913417,40.81640926,1650.13
-104.73913376,40.81651331,1650.08
-104.73913332,40.81662574,1650.14
-104.73913302,40.81670375,1650.18
-104.73913289,40.81673699,1650.17
-104.73913202,40.81695833,1650.65
-104.73913185,40.81700166,1650.88
-104.73913172,40.81703373,1651.11
-104.73913149,40.81709219,1651.51
-104.73913144,40.81710670,1651.64
-104.73913127,40.81715030,1651.93
-104.73913124,40.81715615,1651.99
-104.73913103,40.81721065,1652.31
-104.73913101,40.81721516,1652.33
-104.73913057,40.81732812,1652.84
-104.73912981,40.81752243,1653.16
-104.73912905,40.81771494,1653.06
-104.73912885,40.81776620,1652.94
-104.73912858,40.81783647,1652.62
-104.73912771,40.81805754,1651.88
-104.73912763,40.81807916,1651.80
-104.73912715,40.81820113,1651.18
-104.73912690,40.81826509,1650.80
-104.73912614,40.81845877,1649.76
-104.73912524,40.81868831,1648.94
-104.73912405,40.81899234,1648.11
-104.73912396,40.81901468,1648.06
-104.73912381,40.81905450,1647.95
-104.73912375,40.81906801,1647.93
-104.73912311,40.81923133,1647.48
-104.73912308,40.81923980,1647.43
-104.73912302,40.81925602,1647.44
-104.73912284,40.81930124,1647.33
-104.73912257,40.81936979,1647.21
-104.73912231,40.81943573,1647.10
-104.73912164,40.81960690,1646.70
-104.73912062,40.81989931,1646.38
-104.73911939,40.82018298,1646.19
-104.73911845,40.82042243,1646.09
-104.73911765,40.82062539,1646.17
-104.73911765,40.82062701,1646.17
-104.73911763,40.82063115,1646.19
-104.73911761,40.82063512,1646.19
-104.73911718,40.82074520,1646.46
-104.73911690,40.82081754,1646.62
-104.73911675,40.82085681,1646.79
-104.73911660,40.82089276,1646.93
-104.73911601,40.82104347,1647.63
-104.73911578,40.82110329,1647.91
-104.73911536,40.82121003,1648.40
-104.73911482,40.82134840,1648.99
-104.73911470,40.82138011,1649.10
-104.73911453,40.82142146,1649.28
-104.73911410,40.82153173,1649.74
-104.73911401,40.82155605,1649.83
-104.73911386,40.82159271,1650.03
-104.73911380,40.82160911,1650.11
-104.73911374,40.82162352,1650.17
-104.73911374,40.82162505,1650.19
-104.73911346,40.82172496,1650.73
-104.73912769,40.82172589,1650.51
-104.73931932,40.82172632,1649.80
-104.73958187,40.82172692,1648.86
-104.73963606,40.82172704,1648.67
-104.73971326,40.82172721,1648.38
-104.73977943,40.82172736,1648.02
-104.73984121,40.82172750,1647.80
-104.73990536,40.82172764,1647.59
-104.74004067,40.82172795,1647.05
-104.74024084,40.82172840,1646.34
-104.74030345,40.82172854,1646.14
-104.74066821,40.82172936,1645.07
-104.74096384,40.82173003,1644.46
-104.74107673,40.82173028,1644.29
-104.74129315,40.82173077,1643.86
-104.74129338,40.82173077,1643.86
-104.74137248,40.82173094,1643.77
-104.74140948,40.82173103,1643.70
-104.74147505,40.82173117,1643.60
-104.74150624,40.82173124,1643.54
-104.74159826,40.82173145,1643.29
-104.74178693,40.82173187,1642.92
-104.74199433,40.82173234,1642.58
-104.74221620,40.82173283,1642.55
-104.74243155,40.82173331,1642.57
-104.74250661,40.82173348,1642.65
-104.74297206,40.82173452,1642.91
-104.74300894,40.82173460,1642.94
-104.74343975,40.82173556,1643.09
-104.74359332,40.82173590,1643.08
     </coordinates>
    </LineString>
   </MultiGeometry>
  </Placemark>
 </Document>
</kml>
