<kml>
 <Document>
  <Style id="yellow">
   <LineStyle>
   <color>ff00ffff</color>
   <width>1</width>
   </LineStyle>
  </Style>
  <Style id="red">
   <LineStyle>
   <color>ffff0000</color>
   <width>2</width>
   </LineStyle>
  </Style>
  <Style id="green">
   <LineStyle>
   <color>ff00ff00</color>
   <width>1</width>
   </LineStyle>
  </Style>
  <Placemark>
  <styleUrl>#yellow</styleUrl>
   <MultiGeometry>
    <LineString>
     <coordinates>
-104.77582351,40.79477744,1648.53
-104.77614024,40.79477805,1647.90
-104.77631994,40.79477840,1647.35
-104.77642769,40.79477861,1647.03
-104.77648269,40.79477872,1646.84
-104.77657775,40.79477890,1646.57
-104.77687516,40.79477948,1645.70
-104.77701681,40.79477975,1645.36
-104.77721216,40.79478013,1644.86
-104.77731552,40.79478033,1644.63
-104.77769709,40.79478106,1644.42
-104.77771357,40.79478109,1644.43
-104.77793997,40.79478153,1644.70
-104.77800694,40.79478166,1644.81
-104.77814836,40.79478193,1645.38
-104.77828207,40.79478219,1646.09
-104.77843344,40.79478248,1647.04
-104.77856264,40.79478273,1647.86
-104.77867952,40.79478295,1648.55
-104.77884914,40.79478328,1649.53
-104.77897527,40.79478352,1650.23
-104.77907780,40.79478371,1650.39
-104.77913908,40.79478383,1650.47
-104.77923071,40.79478401,1650.56
-104.77928453,40.79478411,1650.65
-104.77936679,40.79478427,1650.74
-104.77937568,40.79478428,1650.79
-104.77952433,40.79478457,1651.02
-104.77957233,40.79478466,1651.09
-104.77978593,40.79478507,1651.35
-104.77986595,40.79478522,1651.41
-104.78003522,40.79478554,1651.64
-104.78018066,40.79478582,1651.90
-104.78029683,40.79478604,1652.13
-104.78060407,40.79478663,1652.37
-104.78074489,40.79478689,1652.33
-104.78124974,40.79478785,1652.82
-104.78145907,40.79478825,1653.11
-104.78176063,40.79478882,1653.68
-104.78209573,40.79478945,1654.58
-104.78232925,40.79478989,1655.38
-104.78234039,40.79478991,1655.46
-104.78245703,40.79479013,1655.82
-104.78252258,40.79479026,1655.96
-104.78284322,40.79479086,1656.34
-104.78306950,40.79479129,1656.20
-104.78357399,40.79479223,1656.32
-104.78363587,40.79479235,1656.37
-104.78366088,40.79479240,1656.38
-104.78376223,40.79479259,1656.43
-104.78395995,40.79479296,1656.56
-104.78424230,40.79479349,1656.93
-104.78451825,40.79479400,1657.29
-104.78455097,40.79479406,1657.32
-104.78472285,40.79479438,1657.53
-104.78479385,40.79479452,1657.60
-104.78495696,40.79479482,1657.90
-104.78526871,40.79479540,1658.55
-104.78554679,40.79479592,1659.43
-104.78565881,40.79479613,1659.83
-104.78612667,40.79479699,1662.08
-104.78622494,40.79479718,1662.70
-104.78631846,40.79479735,1663.25
-104.78639836,40.79479750,1663.59
-104.78661848,40.79479790,1664.43
-104.78663140,40.79479757,1664.47
-104.78663212,40.79479496,1664.46
-104.78663338,40.79477208,1664.57
-104.78663425,40.79453588,1664.88
-104.78663465,40.79441174,1664.46
-104.78663481,40.79436102,1664.36
-104.78663509,40.79427580,1664.12
-104.78663527,40.79421797,1663.99
-104.78663534,40.79419517,1663.92
-104.78663551,40.79414383,1663.87
-104.78663581,40.79405032,1663.75
-104.78663590,40.79402095,1663.68
-104.78663635,40.79387952,1663.21
-104.78663646,40.79384663,1663.09
-104.78663724,40.79360223,1661.77
-104.78663735,40.79356854,1661.55
-104.78663837,40.79324964,1659.01
-104.78663859,40.79318019,1658.41
-104.78663876,40.79312641,1657.91
-104.78663892,40.79307776,1657.46
-104.78663898,40.79305848,1657.29
-104.78663900,40.79305154,1657.24
-104.78663937,40.79293705,1656.31
-104.78663970,40.79283336,1655.55
-104.78663974,40.79282192,1655.49
-104.78664006,40.79268526,1654.75
-104.78664160,40.79224114,1653.86
-104.78664197,40.79212439,1653.78
-104.78664276,40.79187927,1653.77
-104.78664300,40.79180423,1653.79
-104.78664321,40.79173910,1653.85
-104.78664329,40.79171243,1653.86
-104.78664331,40.79170694,1653.86
-104.78664361,40.79161379,1654.01
-104.78664374,40.79157325,1654.09
-104.78664379,40.79155766,1654.11
-104.78664390,40.79152073,1654.17
-104.78664421,40.79142479,1654.65
-104.78664421,40.79142443,1654.63
-104.78664472,40.79126615,1655.44
-104.78664481,40.79123795,1655.61
-104.78664496,40.79118949,1655.90
-104.78664541,40.79104931,1656.36
-104.78664597,40.79087653,1655.67
-104.78664637,40.79074924,1654.91
-104.78664669,40.79064997,1654.18
-104.78664767,40.79034458,1651.84
-104.78664824,40.79016576,1651.15
-104.78664846,40.79009811,1651.15
-104.78664896,40.78993983,1650.37
-104.78664903,40.78991983,1650.27
-104.78664906,40.78990902,1650.12
-104.78664927,40.78984299,1649.63
-104.78664945,40.78978939,1649.49
-104.78664955,40.78975786,1649.39
-104.78664962,40.78973588,1649.33
-104.78664966,40.78972389,1649.30
-104.78664992,40.78964129,1648.84
-104.78665021,40.78955192,1648.07
-104.78665070,40.78939752,1646.78
-104.78665100,40.78930383,1646.10
-104.78665124,40.78922915,1645.53
-104.78665150,40.78914807,1644.97
-104.78665173,40.78907447,1644.51
-104.78665203,40.78898132,1643.94
-104.78665208,40.78896655,1643.79
-104.78665219,40.78893187,1643.52
-104.78665219,40.78893106,1643.53
-104.78665224,40.78891511,1643.40
-104.78665279,40.78874341,1642.16
-104.78665290,40.78870891,1641.96
-104.78665356,40.78850513,1640.30
-104.78665406,40.78834721,1639.13
-104.78665446,40.78822182,1638.24
-104.78665497,40.78806480,1637.85
-104.78665535,40.78794489,1637.43
-104.78665538,40.78793697,1637.39
-104.78665552,40.78789111,1637.11
-104.78665578,40.78781076,1636.69
-104.78665615,40.78769365,1635.97
-104.78665660,40.78755419,1635.37
-104.78665685,40.78747636,1635.06
-104.78665687,40.78747087,1635.06
-104.78665722,40.78736006,1634.70
-104.78665723,40.78735646,1634.70
-104.78665763,40.78723277,1634.42
-104.78665766,40.78722205,1634.41
-104.78665767,40.78722043,1634.43
-104.78665772,40.78720322,1634.40
-104.78665782,40.78717340,1634.32
-104.78665820,40.78705566,1634.17
-104.78665839,40.78699441,1634.05
-104.78665873,40.78688711,1633.88
-104.78665889,40.78683838,1633.82
-104.78665895,40.78682000,1633.78
-104.78665950,40.78664848,1633.63
-104.78665972,40.78657947,1633.48
-104.78665978,40.78656128,1633.48
-104.78666066,40.78628408,1633.82
-104.78666075,40.78625814,1633.88
-104.78666108,40.78615319,1633.81
-104.78666119,40.78611851,1633.74
-104.78666120,40.78611797,1633.74
-104.78666147,40.78603113,1633.43
-104.78666207,40.78580726,1632.52
-104.78665845,40.78579104,1632.47
-104.78663914,40.78578956,1632.46
-104.78663416,40.78578947,1632.45
-104.78634532,40.78578893,1631.86
-104.78615866,40.78578859,1631.55
-104.78582395,40.78578796,1631.38
-104.78552671,40.78578741,1631.51
-104.78547337,40.78578731,1631.60
-104.78511947,40.78578675,1632.38
-104.78463496,40.78578575,1632.50
-104.78425546,40.78578504,1632.83
-104.78375696,40.78578420,1633.41
-104.78364982,40.78578391,1633.65
-104.78360300,40.78578382,1633.73
-104.78359293,40.78578380,1633.73
-104.78358760,40.78578379,1633.76
-104.78358274,40.78578378,1633.74
-104.78357764,40.78578377,1633.76
-104.78357231,40.78578376,1633.77
-104.78356697,40.78578375,1633.75
-104.78356212,40.78578374,1633.77
-104.78355737,40.78578374,1633.78
-104.78355252,40.78578373,1633.78
-104.78302060,40.78578282,1634.28
-104.78288299,40.78578247,1634.52
-104.78261869,40.78578197,1635.51
-104.78235771,40.78578148,1636.36
-104.78224026,40.78578126,1636.72
-104.78216192,40.78578111,1636.99
-104.78192405,40.78578066,1637.55
-104.78176796,40.78578037,1637.67
-104.78165193,40.78578015,1637.85
-104.78114442,40.78578144,1637.83
-104.78102744,40.78578049,1638.49
-104.78101345,40.78578038,1638.57
-104.78099911,40.78578026,1638.68
-104.78096000,40.78577992,1638.88
-104.78094092,40.78577979,1638.97
-104.78092148,40.78577966,1639.05
-104.78089742,40.78577953,1639.15
-104.78084907,40.78577925,1639.28
-104.78067200,40.78577829,1639.11
-104.78031407,40.78577761,1638.63
-104.78008592,40.78577717,1639.81
-104.78008082,40.78577716,1639.84
-104.78007608,40.78577715,1639.82
-104.78007158,40.78577714,1639.82
-104.77998127,40.78577697,1640.36
-104.77973984,40.78577651,1641.87
-104.77943264,40.78577593,1642.71
-104.77898949,40.78577508,1641.77
-104.77867328,40.78577447,1641.62
-104.77835813,40.78577387,1641.47
-104.77835327,40.78577386,1641.46
-104.77801063,40.78577320,1641.09
-104.77769004,40.78577258,1640.57
-104.77768530,40.78577257,1640.56
-104.77733246,40.78577189,1640.33
-104.77732760,40.78577188,1640.32
-104.77713323,40.78577151,1640.46
-104.77682413,40.78577091,1641.02
-104.77655864,40.78577040,1641.65
-104.77631769,40.78576993,1642.40
-104.77611953,40.78576955,1643.05
-104.77592527,40.78576917,1643.71
-104.77565031,40.78576863,1644.42
-104.77539809,40.78576814,1645.13
-104.77521214,40.78576778,1645.63
-104.77492188,40.78576722,1645.80
-104.77481355,40.78576827,1645.82
-104.77481271,40.78577214,1645.88
-104.77481101,40.78578375,1645.91
-104.77481064,40.78578736,1645.92
-104.77481002,40.78586573,1646.25
-104.77480988,40.78590645,1646.39
-104.77480887,40.78620697,1646.95
-104.77480848,40.78632174,1646.94
-104.77480829,40.78637931,1646.91
-104.77480822,40.78639732,1646.89
-104.77480822,40.78640003,1646.90
-104.77480791,40.78648894,1646.91
-104.77480790,40.78649335,1646.92
-104.77480764,40.78657029,1646.93
-104.77480703,40.78675118,1646.34
-104.77480663,40.78687054,1645.63
-104.77480625,40.78698071,1645.00
-104.77480603,40.78704738,1644.66
-104.77480563,40.78716611,1644.21
-104.77480558,40.78717935,1644.16
-104.77480550,40.78720430,1644.15
-104.77480458,40.78747618,1644.04
-104.77480445,40.78751330,1644.06
-104.77480422,40.78758176,1644.14
-104.77480335,40.78784021,1644.73
-104.77480262,40.78805534,1645.83
-104.77480262,40.78805777,1645.82
-104.77480235,40.78813506,1646.25
-104.77480202,40.78823506,1646.78
-104.77480193,40.78826109,1646.96
-104.77480188,40.78827442,1647.10
-104.77480187,40.78827884,1647.12
-104.77480151,40.78838640,1647.81
-104.77480142,40.78841234,1647.93
-104.77480139,40.78841910,1647.99
-104.77480098,40.78854207,1648.61
-104.77480039,40.78871764,1648.35
-104.77480023,40.78876413,1648.11
-104.77480009,40.78880647,1647.88
-104.77479956,40.78896078,1647.23
-104.77479883,40.78917735,1646.78
-104.77479881,40.78918410,1646.76
-104.77479874,40.78920536,1646.76
-104.77479833,40.78932473,1646.80
-104.77479825,40.78935022,1646.83
-104.77479819,40.78936661,1646.86
-104.77479816,40.78937698,1646.88
-104.77479801,40.78941995,1647.00
-104.77479785,40.78946823,1647.16
-104.77479783,40.78947355,1647.18
-104.77479653,40.78985938,1648.75
-104.77479651,40.78986614,1648.76
-104.77479633,40.78991812,1648.76
-104.77479565,40.79011882,1647.94
-104.77479532,40.79021693,1647.41
-104.77479484,40.79036016,1646.33
-104.77479472,40.79039484,1646.04
-104.77479446,40.79047214,1645.37
-104.77479430,40.79051772,1645.01
-104.77479393,40.79062952,1644.18
-104.77479388,40.79064366,1644.13
-104.77479345,40.79077158,1643.40
-104.77479292,40.79092707,1642.88
-104.77479243,40.79107156,1642.55
-104.77479239,40.79108463,1642.52
-104.77479171,40.79128678,1642.52
-104.77479124,40.79142470,1642.73
-104.77479087,40.79153487,1642.49
-104.77479082,40.79154946,1642.43
-104.77479080,40.79155622,1642.38
-104.77479071,40.79158217,1642.24
-104.77479063,40.79160658,1642.14
-104.77478999,40.79179368,1641.28
-104.77478994,40.79181071,1641.17
-104.77478993,40.79181278,1641.16
-104.77478983,40.79184341,1641.01
-104.77478977,40.79185873,1640.91
-104.77478929,40.79200295,1640.19
-104.77478913,40.79204926,1639.96
-104.77478887,40.79212583,1639.61
-104.77478886,40.79212880,1639.58
-104.77478864,40.79219303,1639.26
-104.77478857,40.79221384,1639.16
-104.77478844,40.79225420,1639.04
-104.77478819,40.79232645,1638.73
-104.77478734,40.79257905,1638.17
-104.77478712,40.79264436,1638.10
-104.77478652,40.79282074,1638.37
-104.77478645,40.79284272,1638.44
-104.77478641,40.79285479,1638.47
-104.77478633,40.79287660,1638.50
-104.77478604,40.79296353,1638.67
-104.77478524,40.79320126,1638.99
-104.77478518,40.79321883,1639.04
-104.77478504,40.79326018,1639.17
-104.77478481,40.79332828,1639.52
-104.77478395,40.79358322,1641.15
-104.77478323,40.79379600,1642.49
-104.77478305,40.79384771,1642.83
-104.77478299,40.79386582,1642.96
-104.77478241,40.79403842,1644.19
-104.77478224,40.79408815,1644.53
-104.77478213,40.79412139,1644.79
-104.77478188,40.79419400,1645.24
-104.77478104,40.79444218,1646.82
-104.77478086,40.79449641,1647.17
-104.77478022,40.79468667,1648.05
-104.77477997,40.79475856,1648.31
-104.77478111,40.79477469,1648.39
-104.77478620,40.79477497,1648.37
-104.77479071,40.79477516,1648.38
-104.77479568,40.79477535,1648.43
-104.77497953,40.79477579,1648.44
-104.77514631,40.79477612,1648.26
-104.77521506,40.79477625,1648.16
-104.77549516,40.79477680,1648.12
-104.77562425,40.79477705,1648.35
-104.77566194,40.79477712,1648.36
-104.77582351,40.79477744,1648.53
     </coordinates>
    </LineString>
   </MultiGeometry>
  </Placemark>
 </Document>
</kml>
