<kml>
 <Document>
  <Style id="yellow">
   <LineStyle>
   <color>ff00ffff</color>
   <width>1</width>
   </LineStyle>
  </Style>
  <Style id="red">
   <LineStyle>
   <color>ffff0000</color>
   <width>2</width>
   </LineStyle>
  </Style>
  <Style id="green">
   <LineStyle>
   <color>ff00ff00</color>
   <width>1</width>
   </LineStyle>
  </Style>
  <Placemark>
  <styleUrl>#yellow</styleUrl>
   <MultiGeometry>
    <LineString>
     <coordinates>
-104.75666786,40.79473863,1632.09
-104.75686807,40.79473905,1632.17
-104.75689189,40.79473911,1632.17
-104.75701766,40.79473937,1632.20
-104.75705440,40.79473945,1632.19
-104.75720933,40.79473977,1632.27
-104.75734778,40.79474006,1632.30
-104.75736082,40.79474009,1632.31
-104.75742661,40.79474023,1632.31
-104.75750294,40.79474039,1632.25
-104.75760797,40.79474061,1632.28
-104.75780011,40.79474102,1632.31
-104.75796085,40.79474135,1631.85
-104.75819401,40.79474184,1630.90
-104.75831195,40.79474209,1630.28
-104.75842183,40.79474232,1629.73
-104.75865535,40.79474281,1628.93
-104.75868214,40.79474286,1628.75
-104.75895856,40.79474344,1627.55
-104.75897445,40.79474347,1627.51
-104.75905482,40.79474364,1627.18
-104.75924270,40.79474403,1626.58
-104.75927340,40.79474410,1626.43
-104.75935945,40.79474428,1625.86
-104.75952683,40.79474463,1624.59
-104.75975204,40.79474510,1623.20
-104.75989630,40.79474540,1622.98
-104.76005075,40.79474572,1622.84
-104.76011844,40.79474586,1622.75
-104.76028676,40.79474621,1622.71
-104.76034579,40.79474633,1622.69
-104.76040565,40.79474645,1622.70
-104.76079125,40.79474725,1622.64
-104.76085182,40.79474738,1621.30
-104.76094783,40.79474758,1619.52
-104.76145706,40.79474863,1621.25
-104.76162953,40.79474899,1621.63
-104.76170575,40.79474915,1621.74
-104.76185072,40.79474945,1622.09
-104.76185558,40.79474946,1622.12
-104.76202390,40.79474980,1623.05
-104.76204868,40.79474985,1623.08
-104.76217551,40.79475012,1623.45
-104.76231455,40.79475040,1623.92
-104.76231633,40.79475041,1623.91
-104.76239338,40.79475057,1623.96
-104.76249295,40.79475077,1624.10
-104.76259228,40.79475097,1624.18
-104.76261563,40.79475102,1624.18
-104.76266423,40.79475112,1624.31
-104.76279403,40.79475139,1624.40
-104.76292075,40.79475138,1624.52
-104.76292325,40.79474688,1624.50
-104.76292518,40.79473697,1624.51
-104.76292632,40.79471680,1624.51
-104.76292642,40.79468914,1624.52
-104.76292702,40.79452104,1624.43
-104.76292709,40.79450095,1624.38
-104.76292714,40.79448663,1624.37
-104.76292773,40.79432223,1624.28
-104.76292789,40.79427754,1624.28
-104.76292805,40.79423250,1624.23
-104.76292850,40.79410485,1624.21
-104.76292922,40.79390189,1624.18
-104.76292936,40.79386288,1624.11
-104.76292967,40.79377703,1624.21
-104.76292968,40.79377226,1624.23
-104.76292986,40.79372199,1624.25
-104.76292998,40.79368974,1624.24
-104.76293018,40.79363353,1624.24
-104.76293032,40.79359425,1624.22
-104.76293039,40.79357218,1624.27
-104.76293046,40.79355371,1624.27
-104.76293069,40.79348930,1624.21
-104.76293077,40.79346642,1624.20
-104.76293119,40.79334769,1624.17
-104.76293142,40.79328499,1624.16
-104.76293174,40.79319490,1624.10
-104.76293208,40.79309905,1624.02
-104.76293249,40.79298275,1624.04
-104.76293260,40.79295339,1624.03
-104.76293268,40.79292825,1624.05
-104.76293292,40.79286231,1624.16
-104.76293337,40.79273628,1623.98
-104.76293342,40.79272259,1623.95
-104.76293343,40.79271827,1623.96
-104.76293410,40.79252972,1623.79
-104.76293413,40.79252206,1623.75
-104.76293457,40.79239936,1623.63
-104.76293467,40.79237063,1623.62
-104.76293481,40.79233135,1623.57
-104.76293500,40.79227631,1623.56
-104.76293543,40.79215722,1623.48
-104.76293544,40.79215325,1623.49
-104.76293546,40.79214884,1623.48
-104.76293566,40.79209182,1623.42
-104.76293594,40.79201434,1623.36
-104.76293603,40.79198750,1623.33
-104.76293604,40.79198353,1623.33
-104.76293614,40.79195588,1623.30
-104.76293669,40.79180210,1623.20
-104.76293723,40.79165130,1623.12
-104.76293781,40.79148599,1623.00
-104.76293816,40.79138924,1622.97
-104.76293832,40.79134339,1622.93
-104.76293848,40.79130015,1622.93
-104.76293927,40.79107620,1622.92
-104.76293935,40.79105566,1622.89
-104.76293943,40.79103206,1622.83
-104.76293946,40.79102242,1622.86
-104.76293972,40.79094936,1622.73
-104.76293993,40.79089062,1622.74
-104.76294025,40.79080000,1622.73
-104.76294094,40.79060595,1622.70
-104.76294107,40.79057190,1622.69
-104.76294156,40.79043425,1622.82
-104.76294180,40.79036660,1622.88
-104.76294191,40.79033444,1622.70
-104.76294234,40.79021409,1622.64
-104.76294279,40.79008617,1622.64
-104.76294312,40.78999500,1622.58
-104.76294350,40.78988816,1622.62
-104.76294395,40.78976078,1622.95
-104.76294474,40.78953755,1624.15
-104.76294480,40.78952070,1624.25
-104.76294487,40.78950151,1624.32
-104.76294511,40.78943557,1624.74
-104.76294644,40.78902812,1627.74
-104.76294693,40.78892182,1628.27
-104.76294747,40.78876993,1628.53
-104.76294754,40.78875030,1628.49
-104.76294756,40.78874579,1628.48
-104.76294796,40.78863274,1628.00
-104.76294803,40.78861229,1627.87
-104.76294843,40.78850202,1626.94
-104.76294859,40.78845572,1626.55
-104.76294913,40.78830338,1625.12
-104.76294954,40.78818790,1624.24
-104.76295007,40.78804088,1622.02
-104.76295047,40.78792710,1621.66
-104.76295056,40.78790341,1621.73
-104.76295059,40.78789494,1621.80
-104.76295106,40.78776116,1623.77
-104.76295155,40.78762369,1623.97
-104.76295167,40.78758964,1624.00
-104.76295218,40.78744551,1624.30
-104.76295225,40.78742596,1624.52
-104.76295258,40.78733362,1625.28
-104.76295335,40.78711823,1626.76
-104.76295351,40.78707156,1626.92
-104.76295402,40.78692950,1627.33
-104.76295403,40.78692527,1627.34
-104.76295409,40.78690797,1627.34
-104.76295415,40.78689356,1627.34
-104.76295458,40.78677248,1627.37
-104.76295486,40.78669393,1627.29
-104.76295514,40.78661510,1627.23
-104.76295518,40.78660348,1627.27
-104.76295520,40.78659673,1627.28
-104.76295528,40.78657456,1627.28
-104.76295556,40.78649538,1627.21
-104.76295704,40.78608027,1626.88
-104.76295810,40.78574885,1626.79
-104.76295717,40.78574362,1626.78
-104.76295681,40.78574335,1626.78
-104.76295267,40.78574325,1626.80
-104.76281874,40.78574297,1626.77
-104.76277074,40.78574287,1626.84
-104.76250893,40.78574234,1626.36
-104.76232463,40.78574196,1626.02
-104.76230614,40.78574192,1625.96
-104.76215159,40.78574160,1625.74
-104.76206554,40.78574142,1625.63
-104.76202157,40.78574133,1625.50
-104.76196575,40.78574122,1625.38
-104.76165950,40.78574059,1624.22
-104.76153351,40.78574032,1623.15
-104.76141309,40.78574008,1622.25
-104.76106938,40.78573936,1620.18
-104.76105149,40.78573933,1620.07
-104.76093368,40.78573908,1619.67
-104.76086672,40.78573895,1619.39
-104.76083768,40.78573888,1619.28
-104.76073220,40.78573867,1617.94
-104.76058571,40.78573836,1617.91
-104.76037984,40.78573794,1616.45
-104.75999026,40.78573713,1614.90
-104.75989770,40.78573693,1614.90
-104.75965746,40.78573643,1614.98
-104.75935796,40.78573581,1614.90
-104.75930759,40.78573570,1614.88
-104.75930036,40.78573569,1614.87
-104.75923233,40.78573555,1614.82
-104.75905502,40.78573518,1614.68
-104.75897218,40.78573500,1614.52
-104.75872696,40.78573449,1614.35
-104.75872435,40.78573449,1614.35
-104.75866189,40.78573435,1614.36
-104.75860465,40.78573424,1614.46
-104.75841300,40.78573383,1615.63
-104.75836986,40.78573374,1615.63
-104.75836286,40.78573373,1615.58
-104.75829768,40.78573359,1615.54
-104.75811196,40.78573320,1615.30
-104.75791913,40.78573280,1615.14
-104.75782028,40.78573259,1615.18
-104.75770093,40.78573234,1615.22
-104.75749803,40.78573191,1615.06
-104.75749494,40.78573191,1615.05
-104.75743379,40.78573178,1615.14
-104.75736860,40.78573164,1615.05
-104.75708273,40.78573104,1615.80
-104.75694027,40.78573074,1615.98
-104.75690839,40.78573067,1616.02
-104.75681262,40.78573047,1615.99
-104.75673523,40.78573031,1616.02
-104.75663686,40.78573010,1615.93
-104.75642838,40.78572966,1615.98
-104.75642435,40.78572965,1615.96
-104.75632515,40.78572944,1616.00
-104.75624740,40.78572928,1616.01
-104.75601250,40.78572878,1616.34
-104.75592539,40.78572860,1616.52
-104.75559898,40.78572791,1617.30
-104.75551151,40.78572772,1617.35
-104.75536159,40.78572741,1617.36
-104.75530458,40.78572728,1617.31
-104.75501361,40.78572676,1617.24
-104.75464703,40.78572589,1616.30
-104.75451109,40.78572560,1616.04
-104.75440727,40.78572538,1616.09
-104.75427251,40.78572509,1616.07
-104.75415020,40.78572483,1615.96
-104.75398415,40.78572448,1616.16
-104.75390521,40.78572431,1616.36
-104.75381076,40.78572411,1616.47
-104.75379416,40.78572407,1616.51
-104.75350782,40.78572346,1616.83
-104.75330254,40.78572302,1617.53
-104.75272737,40.78572179,1620.80
-104.75266384,40.78572165,1621.21
-104.75258941,40.78572150,1621.72
-104.75247788,40.78572126,1622.41
-104.75230046,40.78572088,1623.67
-104.75210537,40.78572046,1625.01
-104.75187651,40.78571996,1626.33
-104.75172813,40.78571965,1626.78
-104.75163461,40.78571944,1627.22
-104.75157381,40.78571931,1627.42
-104.75150602,40.78571917,1627.55
-104.75116314,40.78571852,1627.02
-104.75111478,40.78572085,1627.02
-104.75111003,40.78572111,1627.03
-104.75110632,40.78573272,1627.03
-104.75110617,40.78577335,1626.96
-104.75110489,40.78614783,1627.43
-104.75110439,40.78624774,1627.93
-104.75110341,40.78651051,1629.14
-104.75110335,40.78652844,1629.21
-104.75110219,40.78683698,1629.90
-104.75110180,40.78694220,1629.34
-104.75110133,40.78706913,1628.50
-104.75110119,40.78710633,1628.20
-104.75110064,40.78725353,1626.80
-104.75110057,40.78727110,1626.64
-104.75109951,40.78755523,1625.75
-104.75109871,40.78776918,1626.25
-104.75109844,40.78784125,1626.64
-104.75109758,40.78810511,1627.90
-104.75109675,40.78829581,1629.03
-104.75109572,40.78857192,1630.16
-104.75109513,40.78872750,1630.75
-104.75109499,40.78876786,1630.80
-104.75109490,40.78879065,1630.89
-104.75109468,40.78884885,1631.17
-104.75109367,40.78911937,1632.32
-104.75109306,40.78928405,1632.55
-104.75109257,40.78944701,1632.78
-104.75109112,40.78980185,1633.90
-104.75108964,40.79019922,1635.90
-104.75108909,40.79034560,1636.23
-104.75108886,40.79040704,1636.38
-104.75108806,40.79062181,1636.93
-104.75108797,40.79064505,1636.99
-104.75108773,40.79070964,1637.20
-104.75108687,40.79094034,1637.83
-104.75108684,40.79094989,1637.86
-104.75108668,40.79099232,1637.91
-104.75108636,40.79107772,1638.17
-104.75108579,40.79123087,1638.40
-104.75108577,40.79123591,1638.39
-104.75108515,40.79140149,1638.51
-104.75108491,40.79146680,1638.42
-104.75108489,40.79147230,1638.42
-104.75108473,40.79151473,1638.22
-104.75108351,40.79187137,1638.12
-104.75108196,40.79225585,1638.15
-104.75108145,40.79239107,1638.19
-104.75108068,40.79262989,1638.46
-104.75107972,40.79285654,1639.72
-104.75107902,40.79304283,1639.80
-104.75107883,40.79309283,1639.63
-104.75107779,40.79337110,1638.97
-104.75107778,40.79337462,1638.98
-104.75107660,40.79369217,1638.77
-104.75107595,40.79386558,1639.00
-104.75107580,40.79390432,1639.10
-104.75107573,40.79392494,1639.19
-104.75107542,40.79400656,1639.68
-104.75107462,40.79422051,1641.54
-104.75107452,40.79424727,1641.67
-104.75107407,40.79436708,1642.33
-104.75107391,40.79440978,1642.59
-104.75107368,40.79447248,1642.88
-104.75107287,40.79469012,1643.08
-104.75107279,40.79471093,1643.01
-104.75107334,40.79472265,1642.99
-104.75108956,40.79472673,1642.96
-104.75119755,40.79472697,1642.79
-104.75128538,40.79472716,1642.74
-104.75159536,40.79472773,1642.15
-104.75194136,40.79472857,1641.24
-104.75198072,40.79472865,1641.09
-104.75202220,40.79472874,1640.91
-104.75213600,40.79472899,1640.43
-104.75241776,40.79472959,1639.18
-104.75246896,40.79472970,1638.98
-104.75252254,40.79472982,1638.79
-104.75257138,40.79472992,1638.60
-104.75274017,40.79473028,1637.97
-104.75303960,40.79473092,1637.15
-104.75324158,40.79473136,1636.69
-104.75326138,40.79473140,1636.59
-104.75335858,40.79473161,1636.24
-104.75354242,40.79473200,1636.00
-104.75357052,40.79473206,1635.96
-104.75363548,40.79473220,1635.87
-104.75369569,40.79473233,1635.79
-104.75387990,40.79473272,1635.54
-104.75390325,40.79473277,1635.50
-104.75412728,40.79473325,1635.13
-104.75435333,40.79473373,1634.92
-104.75436601,40.79473376,1634.92
-104.75446582,40.79473397,1634.81
-104.75452153,40.79473409,1634.70
-104.75460107,40.79473426,1634.57
-104.75466840,40.79473440,1634.41
-104.75480696,40.79473469,1634.28
-104.75480945,40.79473470,1634.25
-104.75485438,40.79473479,1634.20
-104.75500492,40.79473511,1633.86
-104.75520086,40.79473553,1633.70
-104.75530482,40.79473575,1633.68
-104.75539135,40.79473593,1633.66
-104.75568164,40.79473655,1633.48
-104.75571851,40.79473663,1633.34
-104.75577789,40.79473675,1633.16
-104.75580682,40.79473681,1633.07
-104.75591373,40.79473704,1632.82
-104.75595961,40.79473714,1632.65
-104.75615697,40.79473755,1632.26
-104.75643944,40.79473815,1632.01
-104.75653474,40.79473835,1632.02
-104.75663668,40.79473857,1632.05
-104.75666786,40.79473863,1632.09
     </coordinates>
    </LineString>
   </MultiGeometry>
  </Placemark>
 </Document>
</kml>
