<kml>
 <Document>
  <Style id="yellow">
   <LineStyle>
   <color>ff00ffff</color>
   <width>1</width>
   </LineStyle>
  </Style>
  <Style id="red">
   <LineStyle>
   <color>ffff0000</color>
   <width>2</width>
   </LineStyle>
  </Style>
  <Style id="green">
   <LineStyle>
   <color>ff00ff00</color>
   <width>1</width>
   </LineStyle>
  </Style>
  <Placemark>
  <styleUrl>#yellow</styleUrl>
   <MultiGeometry>
    <LineString>
     <coordinates>
-104.74454532,40.79471243,1655.02
-104.74466884,40.79471271,1654.83
-104.74480966,40.79471302,1654.53
-104.74484972,40.79471311,1654.44
-104.74492345,40.79471327,1654.36
-104.74494005,40.79471331,1654.30
-104.74518352,40.79471384,1653.78
-104.74528819,40.79471407,1653.42
-104.74547701,40.79471449,1652.82
-104.74561037,40.79471479,1652.18
-104.74572547,40.79471504,1651.67
-104.74588229,40.79471538,1650.92
-104.74600023,40.79471564,1650.42
-104.74618621,40.79471605,1650.06
-104.74630321,40.79471631,1649.98
-104.74653364,40.79471682,1649.87
-104.74671879,40.79471722,1649.91
-104.74701988,40.79471788,1649.92
-104.74707393,40.79471800,1649.95
-104.74722316,40.79471833,1649.86
-104.74737667,40.79471867,1649.72
-104.74752887,40.79471900,1649.44
-104.74772979,40.79471944,1648.76
-104.74775717,40.79471950,1648.69
-104.74783054,40.79471966,1648.44
-104.74800609,40.79472004,1648.08
-104.74805694,40.79472015,1648.04
-104.74809938,40.79472025,1648.00
-104.74821223,40.79472049,1647.94
-104.74828216,40.79472064,1647.86
-104.74837332,40.79472084,1647.77
-104.74858976,40.79472132,1647.35
-104.74869004,40.79472153,1647.06
-104.74869621,40.79472155,1647.07
-104.74886168,40.79472191,1646.52
-104.74889108,40.79472197,1646.39
-104.74901649,40.79472224,1646.00
-104.74920544,40.79472266,1645.51
-104.74930690,40.79472288,1645.34
-104.74941382,40.79472311,1645.24
-104.74942745,40.79472314,1645.22
-104.74959672,40.79472351,1645.04
-104.74972166,40.79472378,1645.05
-104.74977927,40.79472390,1645.03
-104.75010524,40.79472461,1644.71
-104.75048645,40.79472543,1643.98
-104.75063545,40.79472575,1643.66
-104.75081065,40.79472613,1643.35
-104.75091887,40.79472637,1643.18
-104.75098715,40.79472642,1643.08
-104.75102094,40.79472497,1643.04
-104.75106409,40.79472308,1642.99
-104.75106872,40.79472282,1642.98
-104.75107216,40.79471967,1642.99
-104.75107307,40.79460436,1643.16
-104.75107334,40.79453130,1643.04
-104.75107370,40.79443663,1642.72
-104.75107518,40.79403926,1639.90
-104.75107523,40.79402512,1639.82
-104.75107542,40.79397485,1639.43
-104.75107543,40.79397134,1639.39
-104.75107581,40.79386990,1638.98
-104.75107712,40.79352055,1638.79
-104.75107750,40.79341741,1638.89
-104.75107757,40.79340020,1638.91
-104.75107792,40.79330669,1639.15
-104.75107873,40.79308914,1639.65
-104.75107933,40.79292825,1639.99
-104.75107965,40.79284212,1639.59
-104.75108019,40.79269709,1638.78
-104.75108094,40.79249764,1638.21
-104.75108211,40.79218478,1638.13
-104.75108241,40.79210460,1638.14
-104.75108283,40.79198974,1638.14
-104.75108292,40.79196677,1638.11
-104.75108324,40.79188074,1638.14
-104.75108334,40.79185390,1638.09
-104.75108423,40.79158508,1638.22
-104.75108459,40.79142554,1638.48
-104.75108598,40.79111655,1638.27
-104.75108690,40.79090224,1637.74
-104.75108800,40.79060793,1636.93
-104.75108850,40.79047226,1636.55
-104.75108852,40.79046749,1636.53
-104.75108910,40.79031236,1636.13
-104.75109015,40.78999914,1635.04
-104.75109080,40.78982446,1634.00
-104.75109122,40.78971204,1633.49
-104.75109261,40.78937260,1632.64
-104.75109416,40.78895659,1631.69
-104.75109533,40.78864291,1630.37
-104.75109620,40.78841175,1629.69
-104.75109778,40.78798835,1627.30
-104.75109829,40.78785134,1626.69
-104.75109846,40.78780539,1626.41
-104.75109994,40.78740992,1625.90
-104.75110042,40.78727912,1626.60
-104.75110056,40.78724416,1626.90
-104.75110090,40.78715309,1627.83
-104.75110098,40.78713003,1628.04
-104.75110115,40.78708444,1628.40
-104.75110132,40.78704048,1628.72
-104.75110141,40.78701580,1628.88
-104.75110190,40.78688346,1629.78
-104.75110194,40.78687355,1629.86
-104.75110196,40.78686869,1629.88
-104.75110202,40.78685076,1629.88
-104.75110243,40.78674221,1630.07
-104.75110307,40.78653754,1629.26
-104.75110418,40.78624287,1627.91
-104.75110504,40.78604306,1627.01
-104.75110591,40.78577875,1626.95
-104.75110586,40.78572704,1627.03
-104.75110506,40.78572137,1627.05
-104.75105446,40.78571828,1627.12
-104.75081434,40.78571777,1627.66
-104.75036053,40.78571669,1629.11
-104.75001516,40.78571595,1630.40
-104.74986215,40.78571562,1631.00
-104.74977824,40.78571543,1631.32
-104.74969682,40.78571526,1631.62
-104.74954096,40.78571492,1632.26
-104.74946464,40.78571475,1632.57
-104.74938783,40.78571459,1632.92
-104.74934446,40.78571449,1633.10
-104.74915376,40.78571408,1634.02
-104.74911370,40.78571399,1634.26
-104.74869070,40.78571307,1637.03
-104.74854753,40.78571276,1637.44
-104.74854386,40.78571275,1637.44
-104.74845354,40.78571255,1637.57
-104.74838599,40.78571241,1637.73
-104.74821330,40.78571203,1638.38
-104.74816613,40.78571193,1638.72
-104.74810936,40.78571180,1639.16
-104.74800518,40.78571158,1640.08
-104.74778841,40.78571110,1641.28
-104.74766622,40.78571083,1641.47
-104.74756773,40.78571062,1641.55
-104.74742444,40.78571031,1641.50
-104.74735273,40.78571015,1641.44
-104.74727261,40.78570997,1641.36
-104.74719593,40.78570981,1641.26
-104.74713880,40.78570968,1641.21
-104.74705335,40.78570949,1641.14
-104.74698200,40.78570934,1641.09
-104.74661755,40.78570854,1641.21
-104.74641026,40.78570808,1641.03
-104.74610342,40.78570741,1641.15
-104.74598478,40.78570715,1641.57
-104.74594401,40.78570706,1641.72
-104.74591426,40.78570699,1641.80
-104.74584362,40.78570684,1642.02
-104.74574240,40.78570661,1642.27
-104.74563597,40.78570638,1642.62
-104.74556498,40.78570622,1642.78
-104.74553298,40.78570615,1642.88
-104.74549399,40.78570606,1642.95
-104.74536231,40.78570577,1643.17
-104.74532640,40.78570569,1643.28
-104.74492817,40.78570482,1644.20
-104.74487958,40.78570471,1644.34
-104.74481392,40.78570456,1644.57
-104.74475644,40.78570444,1644.72
-104.74451051,40.78570389,1645.31
-104.74447507,40.78570381,1645.42
-104.74439839,40.78570364,1645.62
-104.74434731,40.78570353,1645.76
-104.74420840,40.78570322,1646.11
-104.74410932,40.78570300,1646.23
-104.74401628,40.78570280,1646.31
-104.74389930,40.78570254,1646.34
-104.74371513,40.78570213,1646.17
-104.74363181,40.78570194,1645.99
-104.74353260,40.78570172,1645.58
-104.74333551,40.78570128,1644.71
-104.74310439,40.78570077,1643.82
-104.74302416,40.78570059,1643.50
-104.74286937,40.78570025,1643.20
-104.74283950,40.78570018,1643.08
-104.74273615,40.78569995,1642.92
-104.74264406,40.78569974,1642.76
-104.74250528,40.78569943,1642.64
-104.74229455,40.78569896,1642.88
-104.74207410,40.78569847,1643.07
-104.74188743,40.78569805,1642.64
-104.74169994,40.78569763,1641.90
-104.74166865,40.78569756,1641.78
-104.74148814,40.78569716,1640.96
-104.74138870,40.78569694,1640.60
-104.74126556,40.78569666,1640.13
-104.74111599,40.78569633,1639.57
-104.74087125,40.78569578,1638.83
-104.74081910,40.78569566,1638.67
-104.74068624,40.78569536,1638.37
-104.74061110,40.78569519,1638.21
-104.74053548,40.78569502,1638.08
-104.74047077,40.78569488,1637.95
-104.74046638,40.78569487,1637.96
-104.74031776,40.78569453,1637.77
-104.74028386,40.78569446,1637.71
-104.74017933,40.78569422,1637.65
-104.74009565,40.78569403,1637.65
-104.73986632,40.78569352,1637.46
-104.73972398,40.78569319,1637.39
-104.73966732,40.78569307,1637.41
-104.73965085,40.78569303,1637.39
-104.73950566,40.78569270,1637.40
-104.73925772,40.78569214,1637.51
-104.73925498,40.78569529,1637.47
-104.73925414,40.78575880,1637.56
-104.73925390,40.78582023,1637.58
-104.73925343,40.78593978,1637.74
-104.73925318,40.78600518,1637.97
-104.73925307,40.78603265,1638.04
-104.73925294,40.78606500,1638.16
-104.73925253,40.78617003,1638.54
-104.73925243,40.78619634,1638.60
-104.73925220,40.78625462,1638.75
-104.73925204,40.78629480,1638.88
-104.73925203,40.78629868,1638.88
-104.73925120,40.78650956,1639.50
-104.73925092,40.78658253,1639.83
-104.73925090,40.78658713,1639.84
-104.73925082,40.78660803,1639.91
-104.73924997,40.78682405,1640.96
-104.73924996,40.78682864,1641.00
-104.73924991,40.78684009,1641.03
-104.73924977,40.78687693,1641.24
-104.73924952,40.78693954,1641.54
-104.73924930,40.78699512,1641.87
-104.73924859,40.78717772,1642.79
-104.73924859,40.78717853,1642.79
-104.73924843,40.78721961,1642.96
-104.73924843,40.78721979,1642.98
-104.73924820,40.78727871,1643.28
-104.73924783,40.78737222,1643.74
-104.73924746,40.78746662,1644.41
-104.73924733,40.78750086,1644.65
-104.73924710,40.78755851,1645.00
-104.73924695,40.78759770,1645.25
-104.73924686,40.78761986,1645.36
-104.73924677,40.78764256,1645.51
-104.73924668,40.78766607,1645.62
-104.73924612,40.78781030,1646.35
-104.73924474,40.78816262,1648.14
-104.73924431,40.78827342,1648.65
-104.73924317,40.78856278,1649.98
-104.73924283,40.78865151,1650.34
-104.73924222,40.78880583,1651.01
-104.73924176,40.78892357,1651.36
-104.73924113,40.78908500,1651.87
-104.73924052,40.78924147,1652.61
-104.73924050,40.78924670,1652.63
-104.73924023,40.78931408,1652.74
-104.73924019,40.78932525,1652.74
-104.73923976,40.78943444,1652.52
-104.73923913,40.78959614,1652.20
-104.73923773,40.78995513,1651.63
-104.73923743,40.79003044,1651.59
-104.73923738,40.79004422,1651.59
-104.73923734,40.79005269,1651.59
-104.73923690,40.79016728,1651.43
-104.73923655,40.79025520,1651.27
-104.73923549,40.79055635,1649.61
-104.73923450,40.79077994,1648.38
-104.73923450,40.79078066,1648.36
-104.73923430,40.79083120,1648.15
-104.73923414,40.79087300,1647.97
-104.73923395,40.79092038,1647.77
-104.73923384,40.79094831,1647.59
-104.73923378,40.79096308,1647.53
-104.73923366,40.79099542,1647.40
-104.73923353,40.79102759,1647.24
-104.73923344,40.79105092,1647.10
-104.73923330,40.79108767,1646.93
-104.73923320,40.79111163,1646.85
-104.73923244,40.79130667,1645.90
-104.73923238,40.79132099,1645.89
-104.73923137,40.79158116,1644.89
-104.73923123,40.79161683,1644.76
-104.73923094,40.79169070,1644.52
-104.73923069,40.79175430,1644.30
-104.73923045,40.79181574,1644.12
-104.73923021,40.79187762,1644.08
-104.73922972,40.79200284,1643.76
-104.73922956,40.79204347,1643.70
-104.73922919,40.79213779,1643.61
-104.73922916,40.79214410,1643.61
-104.73922915,40.79214716,1643.63
-104.73922894,40.79220175,1643.59
-104.73922848,40.79231850,1643.49
-104.73922813,40.79240741,1643.47
-104.73922792,40.79246092,1643.47
-104.73922780,40.79249146,1643.51
-104.73922713,40.79266325,1643.69
-104.73922679,40.79275181,1643.73
-104.73922677,40.79275577,1643.73
-104.73922674,40.79276316,1643.72
-104.73922656,40.79281027,1643.74
-104.73922644,40.79283937,1643.75
-104.73922643,40.79284180,1643.75
-104.73922635,40.79286198,1643.82
-104.73922628,40.79288198,1643.79
-104.73922592,40.79297324,1643.86
-104.73922592,40.79297414,1643.84
-104.73922590,40.79297756,1643.87
-104.73922518,40.79316268,1643.97
-104.73922514,40.79317268,1643.94
-104.73922512,40.79317683,1643.94
-104.73922488,40.79323916,1643.96
-104.73922465,40.79329655,1644.01
-104.73922385,40.79350257,1644.26
-104.73922368,40.79354509,1644.31
-104.73922362,40.79356176,1644.36
-104.73922349,40.79359437,1644.43
-104.73922313,40.79368544,1644.62
-104.73922278,40.79377571,1644.87
-104.73922268,40.79380183,1644.93
-104.73922155,40.79409019,1645.80
-104.73922120,40.79417929,1646.05
-104.73922112,40.79420037,1646.13
-104.73922104,40.79422100,1646.21
-104.73922026,40.79441981,1647.09
-104.73921998,40.79449089,1647.43
-104.73921964,40.79457701,1647.83
-104.73921926,40.79467502,1648.29
-104.73922035,40.79469944,1648.41
-104.73922663,40.79470036,1648.41
-104.73923967,40.79470047,1648.42
-104.73946275,40.79470107,1648.99
-104.73960120,40.79470138,1649.46
-104.73977083,40.79470176,1650.07
-104.73991520,40.79470209,1650.51
-104.74015725,40.79470264,1651.04
-104.74021344,40.79470276,1651.15
-104.74054048,40.79470350,1651.49
-104.74063732,40.79470372,1651.39
-104.74085958,40.79470421,1650.88
-104.74086918,40.79470424,1650.85
-104.74107970,40.79470471,1650.81
-104.74118650,40.79470495,1651.05
-104.74127125,40.79470514,1651.44
-104.74135980,40.79470534,1651.87
-104.74140638,40.79470544,1652.05
-104.74151140,40.79470568,1652.50
-104.74159865,40.79470587,1652.93
-104.74218231,40.79470718,1654.78
-104.74228615,40.79470741,1655.10
-104.74266926,40.79470826,1655.98
-104.74274145,40.79470843,1656.08
-104.74281328,40.79470859,1656.01
-104.74330153,40.79470967,1655.04
-104.74332322,40.79470972,1655.00
-104.74368961,40.79471054,1655.21
-104.74392597,40.79471106,1655.29
-104.74441861,40.79471215,1655.08
-104.74454532,40.79471243,1655.02
     </coordinates>
    </LineString>
   </MultiGeometry>
  </Placemark>
 </Document>
</kml>
