<kml>
 <Document>
  <Style id="yellow">
   <LineStyle>
   <color>ff00ffff</color>
   <width>1</width>
   </LineStyle>
  </Style>
  <Style id="red">
   <LineStyle>
   <color>ffff0000</color>
   <width>2</width>
   </LineStyle>
  </Style>
  <Style id="green">
   <LineStyle>
   <color>ff00ff00</color>
   <width>1</width>
   </LineStyle>
  </Style>
  <Placemark>
  <styleUrl>#yellow</styleUrl>
   <MultiGeometry>
    <LineString>
     <coordinates>
-104.76826490,40.84881355,1665.50
-104.76826940,40.84881356,1665.47
-104.76884299,40.84881471,1665.95
-104.76884857,40.84881472,1665.97
-104.76928157,40.84881559,1667.99
-104.76928608,40.84881560,1668.01
-104.76929071,40.84881561,1668.03
-104.76929522,40.84881562,1668.03
-104.76937055,40.84881577,1668.33
-104.76937529,40.84881578,1668.36
-104.76938039,40.84881579,1668.41
-104.76985516,40.84881673,1670.37
-104.76985991,40.84881674,1670.42
-104.76986489,40.84881675,1670.46
-104.77043919,40.84881790,1672.93
-104.77044405,40.84881791,1672.92
-104.77044939,40.84881792,1672.97
-104.77045437,40.84881793,1672.97
-104.77045912,40.84881794,1672.98
-104.77046351,40.84881795,1673.00
-104.77052626,40.84881780,1673.25
-104.77111361,40.84881924,1676.42
-104.77111800,40.84881925,1676.45
-104.77112310,40.84881926,1676.49
-104.77131766,40.84881964,1677.86
-104.77132276,40.84881965,1677.90
-104.77132763,40.84881966,1677.92
-104.77165790,40.84882032,1679.82
-104.77166241,40.84882033,1679.85
-104.77166739,40.84882034,1679.88
-104.77208474,40.84882116,1681.40
-104.77208960,40.84882117,1681.43
-104.77209387,40.84882118,1681.44
-104.77268632,40.84882235,1685.90
-104.77269047,40.84882236,1685.94
-104.77269486,40.84882236,1685.99
-104.77319798,40.84882335,1691.48
-104.77323500,40.84882343,1691.53
-104.77323962,40.84882344,1691.56
-104.77324449,40.84882345,1691.56
-104.77353122,40.84882401,1691.77
-104.77375686,40.84882445,1691.64
-104.77387015,40.84882467,1691.65
-104.77387454,40.84882468,1691.66
-104.77395474,40.84882484,1691.60
-104.77409354,40.84882511,1691.22
-104.77421264,40.84882535,1690.80
-104.77425215,40.84882542,1690.67
-104.77425666,40.84882543,1690.63
-104.77446687,40.84882584,1689.41
-104.77456902,40.84882595,1688.71
-104.77459429,40.84882447,1688.55
-104.77459619,40.84882312,1688.53
-104.77459672,40.84880772,1688.42
-104.77459725,40.84872043,1687.62
-104.77459727,40.84871583,1687.59
-104.77459740,40.84867665,1687.26
-104.77459781,40.84855485,1686.36
-104.77459790,40.84852990,1686.18
-104.77459814,40.84845873,1685.79
-104.77459879,40.84826613,1684.69
-104.77459892,40.84822758,1684.47
-104.77459894,40.84822271,1684.47
-104.77459897,40.84821262,1684.40
-104.77459936,40.84809750,1683.89
-104.77459945,40.84807272,1683.85
-104.77459954,40.84804534,1683.77
-104.77459958,40.84803390,1683.74
-104.77459972,40.84799336,1683.67
-104.77459994,40.84792868,1683.54
-104.77460014,40.84786769,1683.47
-104.77460016,40.84786247,1683.49
-104.77460021,40.84784697,1683.43
-104.77460036,40.84780427,1683.19
-104.77460045,40.84777806,1683.04
-104.77460053,40.84775212,1682.90
-104.77460116,40.84756600,1682.12
-104.77460219,40.84726188,1681.42
-104.77460265,40.84712666,1681.31
-104.77460312,40.84698748,1681.13
-104.77460362,40.84684028,1680.91
-104.77460432,40.84663525,1680.61
-104.77460465,40.84653661,1680.48
-104.77460473,40.84651472,1680.44
-104.77460484,40.84648031,1680.37
-104.77460506,40.84641617,1680.36
-104.77460526,40.84635824,1680.36
-104.77460569,40.84623078,1680.31
-104.77460619,40.84608223,1680.25
-104.77460653,40.84598169,1680.20
-104.77460657,40.84597052,1680.17
-104.77460711,40.84581080,1680.14
-104.77460766,40.84564955,1680.23
-104.77460791,40.84557487,1680.18
-104.77460822,40.84548281,1680.03
-104.77460847,40.84541065,1679.97
-104.77460859,40.84537425,1679.94
-104.77460882,40.84530687,1679.99
-104.77460892,40.84527615,1679.99
-104.77460934,40.84515148,1679.99
-104.77460938,40.84514094,1680.01
-104.77461044,40.84482853,1679.69
-104.77461157,40.84449422,1679.39
-104.77461181,40.84442432,1679.27
-104.77461188,40.84440333,1679.20
-104.77461201,40.84436513,1679.12
-104.77461218,40.84431514,1679.02
-104.77461259,40.84419496,1678.89
-104.77461295,40.84408821,1678.86
-104.77461310,40.84404362,1678.80
-104.77461313,40.84403362,1678.82
-104.77461381,40.84383256,1678.74
-104.77461478,40.84354834,1678.50
-104.77461492,40.84350582,1678.48
-104.77461500,40.84348150,1678.51
-104.77461505,40.84346853,1678.50
-104.77461513,40.84344321,1678.51
-104.77461532,40.84338736,1678.57
-104.77461552,40.84332917,1678.58
-104.77461602,40.84318062,1678.30
-104.77461623,40.84312053,1678.14
-104.77461644,40.84305765,1678.00
-104.77461670,40.84298009,1677.95
-104.77461685,40.84293730,1677.92
-104.77461704,40.84288001,1677.83
-104.77461764,40.84270299,1677.77
-104.77461784,40.84264534,1677.71
-104.77461787,40.84263534,1677.67
-104.77461822,40.84253138,1677.56
-104.77461840,40.84247940,1677.48
-104.77461871,40.84238607,1677.52
-104.77461935,40.84219735,1677.61
-104.77461980,40.84206501,1677.51
-104.77461983,40.84205610,1677.53
-104.77462009,40.84197943,1677.55
-104.77462041,40.84188476,1677.70
-104.77462056,40.84184061,1677.77
-104.77462057,40.84183917,1677.82
-104.77462096,40.84172305,1678.20
-104.77462111,40.84167729,1678.33
-104.77462197,40.84142479,1679.27
-104.77462233,40.84131867,1679.88
-104.77462236,40.84131020,1679.88
-104.77462262,40.84123381,1680.10
-104.77462284,40.84116904,1680.09
-104.77462291,40.84114616,1680.12
-104.77462300,40.84111994,1680.11
-104.77462382,40.84087960,1679.99
-104.77462437,40.84071537,1679.76
-104.77462463,40.84063880,1679.71
-104.77462480,40.84058980,1679.65
-104.77462492,40.84055457,1679.47
-104.77462591,40.84026198,1677.46
-104.77462593,40.84025486,1677.43
-104.77462601,40.84023198,1677.23
-104.77462656,40.84006911,1676.52
-104.77462657,40.84006569,1676.48
-104.77462658,40.84006235,1676.47
-104.77462661,40.84005452,1676.37
-104.77462664,40.84004578,1676.29
-104.77462668,40.84003407,1676.16
-104.77462685,40.83998281,1675.66
-104.77462728,40.83985813,1674.39
-104.77462633,40.83982345,1674.14
-104.77462575,40.83981840,1674.04
-104.77461674,40.83981793,1674.09
-104.77461176,40.83981774,1674.13
-104.77455980,40.83981764,1674.43
-104.77449314,40.83981751,1674.78
-104.77429090,40.83981712,1676.18
-104.77393469,40.83981642,1677.43
-104.77382829,40.83981621,1677.96
-104.77376009,40.83981608,1678.21
-104.77365345,40.83981587,1678.59
-104.77364954,40.83981586,1678.60
-104.77351562,40.83981560,1678.97
-104.77335715,40.83981529,1679.20
-104.77327341,40.83981512,1679.41
-104.77297699,40.83981454,1679.27
-104.77279289,40.83981418,1679.06
-104.77257927,40.83981375,1679.10
-104.77238616,40.83981337,1679.09
-104.77190446,40.83981242,1679.28
-104.77180921,40.83981223,1679.34
-104.77173745,40.83981209,1679.33
-104.77173685,40.83981209,1679.32
-104.77160460,40.83981183,1679.28
-104.77137816,40.83981138,1679.21
-104.77125266,40.83981113,1679.15
-104.77114365,40.83981092,1679.09
-104.77106999,40.83981077,1678.98
-104.77100606,40.83981064,1678.93
-104.77080145,40.83981024,1678.64
-104.77064867,40.83980993,1678.53
-104.77053278,40.83980970,1678.36
-104.77050562,40.83980965,1678.33
-104.77042187,40.83980948,1678.16
-104.77039827,40.83980943,1678.06
-104.77030136,40.83980924,1677.81
-104.77029460,40.83980923,1677.80
-104.77019579,40.83980903,1677.50
-104.77017681,40.83980899,1677.45
-104.77003934,40.83980872,1677.15
-104.76999379,40.83980863,1677.05
-104.76995737,40.83980856,1676.96
-104.76988834,40.83980842,1676.77
-104.76982429,40.83980829,1676.64
-104.76947259,40.83980759,1676.01
-104.76945918,40.83980756,1675.98
-104.76939122,40.83980743,1675.83
-104.76928517,40.83980721,1675.63
-104.76910037,40.83980684,1675.33
-104.76905518,40.83980675,1675.26
-104.76900085,40.83980664,1675.17
-104.76896218,40.83980657,1675.05
-104.76885377,40.83980635,1674.89
-104.76884357,40.83980633,1674.87
-104.76873907,40.83980612,1674.73
-104.76860432,40.83980585,1674.50
-104.76850029,40.83980564,1674.29
-104.76813258,40.83980490,1673.62
-104.76800993,40.83980466,1673.38
-104.76776392,40.83980416,1672.95
-104.76757639,40.83980378,1672.60
-104.76753179,40.83980369,1672.57
-104.76726419,40.83980315,1672.28
-104.76725601,40.83980314,1672.30
-104.76700466,40.83980263,1672.16
-104.76700157,40.83980262,1672.14
-104.76688616,40.83980239,1672.07
-104.76668950,40.83980199,1672.00
-104.76648915,40.83980159,1671.98
-104.76635310,40.83980131,1671.91
-104.76623579,40.83980108,1671.88
-104.76622393,40.83980105,1671.88
-104.76609345,40.83980079,1671.83
-104.76595621,40.83980051,1671.73
-104.76569751,40.83979998,1671.61
-104.76569407,40.83979998,1671.60
-104.76545221,40.83979948,1671.53
-104.76543549,40.83979945,1671.54
-104.76519209,40.83979896,1671.39
-104.76517809,40.83979893,1671.36
-104.76494975,40.83979846,1671.06
-104.76469852,40.83979795,1670.78
-104.76462925,40.83979781,1670.77
-104.76452629,40.83979760,1670.86
-104.76449854,40.83979754,1670.84
-104.76424565,40.83979703,1670.59
-104.76403297,40.83979659,1670.48
-104.76378815,40.83979609,1670.49
-104.76358448,40.83979567,1670.47
-104.76337643,40.83979525,1670.40
-104.76315901,40.83979480,1670.54
-104.76312994,40.83979474,1670.62
-104.76295925,40.83979439,1671.18
-104.76277398,40.83979401,1671.99
-104.76276745,40.83979589,1671.99
-104.76276618,40.83981741,1672.13
-104.76276592,40.83982489,1672.20
-104.76276531,40.83996335,1672.67
-104.76276514,40.84001010,1672.89
-104.76276512,40.84001641,1672.92
-104.76276492,40.84007082,1673.07
-104.76276475,40.84011902,1673.28
-104.76276403,40.84032116,1673.91
-104.76276382,40.84037945,1674.14
-104.76276377,40.84039368,1674.18
-104.76276375,40.84040107,1674.23
-104.76276357,40.84045044,1674.49
-104.76276271,40.84069141,1675.18
-104.76276243,40.84077041,1675.21
-104.76276238,40.84078294,1675.20
-104.76276223,40.84082573,1675.19
-104.76276168,40.84098085,1675.09
-104.76276111,40.84114012,1675.00
-104.76276086,40.84121083,1674.94
-104.76275957,40.84157261,1674.66
-104.76275955,40.84157847,1674.66
-104.76275948,40.84159775,1674.68
-104.76275915,40.84169053,1674.64
-104.76275898,40.84173846,1674.62
-104.76275887,40.84176891,1674.57
-104.76275858,40.84184944,1674.47
-104.76275773,40.84208789,1673.95
-104.76275737,40.84218969,1673.57
-104.76275705,40.84227842,1673.25
-104.76275587,40.84261056,1670.98
-104.76275581,40.84262741,1670.83
-104.76275575,40.84264344,1670.67
-104.76275552,40.84270839,1670.17
-104.76275522,40.84279172,1669.57
-104.76275425,40.84309891,1668.60
-104.76275329,40.84333439,1667.82
-104.76275312,40.84338141,1667.43
-104.76275302,40.84340853,1667.26
-104.76275290,40.84344339,1666.88
-104.76275285,40.84345762,1666.75
-104.76275271,40.84349681,1666.45
-104.76275269,40.84350158,1666.43
-104.76275264,40.84351564,1666.32
-104.76275256,40.84353897,1666.14
-104.76275172,40.84377436,1664.55
-104.76275052,40.84410956,1662.57
-104.76275044,40.84413262,1662.45
-104.76275006,40.84423865,1661.76
-104.76274970,40.84434144,1661.26
-104.76274919,40.84448449,1660.24
-104.76274903,40.84452701,1660.10
-104.76274884,40.84458034,1660.59
-104.76274816,40.84477159,1660.36
-104.76274660,40.84521012,1659.11
-104.76274563,40.84548109,1659.44
-104.76274475,40.84572702,1659.58
-104.76274467,40.84575062,1659.56
-104.76274445,40.84581224,1659.65
-104.76274419,40.84588530,1659.91
-104.76274387,40.84597583,1660.56
-104.76274331,40.84613078,1661.70
-104.76274300,40.84621852,1662.29
-104.76274290,40.84624617,1662.45
-104.76274263,40.84632256,1662.71
-104.76274256,40.84634346,1662.72
-104.76274246,40.84637094,1662.73
-104.76274241,40.84638526,1662.74
-104.76274235,40.84640166,1662.76
-104.76274212,40.84646544,1662.62
-104.76274203,40.84649147,1662.53
-104.76274188,40.84653300,1662.44
-104.76274097,40.84678884,1661.63
-104.76274046,40.84693252,1660.82
-104.76273991,40.84708549,1659.84
-104.76273969,40.84714584,1659.43
-104.76273916,40.84729565,1658.15
-104.76273872,40.84742015,1657.01
-104.76273870,40.84742546,1656.98
-104.76273857,40.84746042,1656.73
-104.76273752,40.84775508,1654.65
-104.76273751,40.84775949,1654.63
-104.76273741,40.84778661,1654.51
-104.76273734,40.84780652,1654.39
-104.76273619,40.84812722,1653.31
-104.76273552,40.84831540,1652.78
-104.76273515,40.84841918,1652.63
-104.76273472,40.84854170,1652.48
-104.76273459,40.84857611,1652.35
-104.76273433,40.84864907,1651.73
-104.76273390,40.84876916,1652.04
-104.76273416,40.84879645,1652.51
-104.76273451,40.84880015,1652.55
-104.76273700,40.84880069,1652.54
-104.76278682,40.84880233,1652.04
-104.76291268,40.84880267,1651.62
-104.76316478,40.84880319,1651.38
-104.76330903,40.84880349,1651.34
-104.76340489,40.84880369,1652.02
-104.76354998,40.84880398,1652.22
-104.76357821,40.84880404,1652.34
-104.76365532,40.84880420,1652.46
-104.76377455,40.84880444,1652.79
-104.76383054,40.84880456,1652.93
-104.76400813,40.84880492,1653.19
-104.76413163,40.84880517,1653.48
-104.76425975,40.84880544,1653.72
-104.76428455,40.84880549,1653.71
-104.76429000,40.84880550,1653.72
-104.76429510,40.84880551,1653.73
-104.76430021,40.84880552,1653.72
-104.76430566,40.84880553,1653.74
-104.76431112,40.84880554,1653.72
-104.76431622,40.84880555,1653.73
-104.76449263,40.84880591,1653.84
-104.76474970,40.84880644,1654.23
-104.76485434,40.84880665,1654.38
-104.76511663,40.84880718,1655.07
-104.76524476,40.84880744,1655.31
-104.76550729,40.84880798,1655.74
-104.76561655,40.84880820,1656.19
-104.76578489,40.84880854,1656.60
-104.76578963,40.84880855,1656.61
-104.76579462,40.84880856,1656.61
-104.76579984,40.84880857,1656.64
-104.76580458,40.84880858,1656.63
-104.76580968,40.84880859,1656.64
-104.76586983,40.84880871,1656.81
-104.76615395,40.84880929,1657.87
-104.76627852,40.84880954,1658.27
-104.76653986,40.84881007,1659.01
-104.76667072,40.84881034,1659.56
-104.76683585,40.84881067,1660.21
-104.76693182,40.84881087,1660.65
-104.76707312,40.84881115,1661.46
-104.76707750,40.84881116,1661.49
-104.76707857,40.84881116,1661.51
-104.76708261,40.84881117,1661.51
-104.76736139,40.84881173,1663.33
-104.76749723,40.84881201,1664.65
-104.76777305,40.84881256,1666.74
-104.76793462,40.84881289,1666.72
-104.76798884,40.84881300,1666.60
-104.76799323,40.84881301,1666.58
-104.76799774,40.84881301,1666.58
-104.76800272,40.84881302,1666.56
-104.76800711,40.84881303,1666.57
-104.76801209,40.84881304,1666.54
-104.76801636,40.84881305,1666.56
-104.76802111,40.84881306,1666.54
-104.76802585,40.84881307,1666.54
-104.76803072,40.84881308,1666.50
-104.76803510,40.84881309,1666.51
-104.76804009,40.84881310,1666.50
-104.76804293,40.84881310,1666.50
-104.76813796,40.84881330,1666.10
-104.76814294,40.84881331,1666.04
-104.76814733,40.84881332,1666.00
-104.76815231,40.84881332,1665.98
-104.76815658,40.84881333,1665.97
-104.76816121,40.84881334,1665.95
-104.76816619,40.84881335,1665.93
-104.76817106,40.84881336,1665.89
-104.76817568,40.84881337,1665.88
-104.76818043,40.84881338,1665.84
-104.76818541,40.84881339,1665.83
-104.76819028,40.84881340,1665.80
-104.76819478,40.84881341,1665.79
-104.76819905,40.84881342,1665.76
-104.76820368,40.84881343,1665.75
-104.76820819,40.84881344,1665.72
-104.76821305,40.84881345,1665.70
-104.76821744,40.84881346,1665.67
-104.76822242,40.84881347,1665.65
-104.76822705,40.84881348,1665.68
-104.76823156,40.84881348,1665.64
-104.76823654,40.84881349,1665.60
-104.76824117,40.84881350,1665.58
-104.76824591,40.84881351,1665.56
-104.76825066,40.84881352,1665.55
-104.76825552,40.84881353,1665.51
-104.76826027,40.84881354,1665.50
-104.76826490,40.84881355,1665.50
     </coordinates>
    </LineString>
   </MultiGeometry>
  </Placemark>
 </Document>
</kml>
