<kml>
 <Document>
  <Style id="yellow">
   <LineStyle>
   <color>ff00ffff</color>
   <width>1</width>
   </LineStyle>
  </Style>
  <Style id="red">
   <LineStyle>
   <color>ffff0000</color>
   <width>2</width>
   </LineStyle>
  </Style>
  <Style id="green">
   <LineStyle>
   <color>ff00ff00</color>
   <width>1</width>
   </LineStyle>
  </Style>
  <Placemark>
  <styleUrl>#yellow</styleUrl>
   <MultiGeometry>
    <LineString>
     <coordinates>
-104.71834778,40.84870248,1649.65
-104.71859999,40.84870309,1649.54
-104.71872028,40.84870339,1649.64
-104.71906075,40.84870422,1649.67
-104.71921414,40.84870459,1649.77
-104.71927512,40.84870474,1649.81
-104.71947644,40.84870523,1649.86
-104.71962817,40.84870560,1649.78
-104.71979864,40.84870601,1649.67
-104.71982960,40.84870609,1649.64
-104.72039904,40.84870747,1649.66
-104.72050355,40.84870772,1649.58
-104.72076205,40.84870835,1649.54
-104.72091615,40.84870872,1649.53
-104.72102944,40.84870899,1649.54
-104.72107488,40.84870910,1649.55
-104.72118355,40.84870937,1649.60
-104.72130384,40.84870966,1649.68
-104.72140551,40.84870990,1649.76
-104.72144288,40.84870999,1649.74
-104.72145438,40.84871002,1649.75
-104.72150397,40.84871014,1649.77
-104.72167883,40.84871056,1649.83
-104.72182926,40.84871092,1649.98
-104.72188288,40.84871105,1650.04
-104.72193306,40.84871118,1650.02
-104.72221078,40.84871184,1649.93
-104.72224649,40.84871193,1650.00
-104.72246548,40.84871246,1650.03
-104.72252159,40.84871259,1650.02
-104.72261033,40.84871281,1649.99
-104.72261626,40.84871282,1650.03
-104.72293075,40.84871358,1650.11
-104.72348773,40.84871491,1650.23
-104.72354076,40.84871504,1650.17
-104.72378004,40.84871561,1650.23
-104.72398788,40.84871611,1650.61
-104.72408860,40.84871635,1650.86
-104.72414590,40.84871649,1651.08
-104.72422704,40.84871668,1651.32
-104.72440748,40.84871711,1651.84
-104.72460061,40.84871757,1652.47
-104.72477097,40.84871798,1653.11
-104.72486943,40.84871822,1653.31
-104.72523802,40.84871909,1652.90
-104.72543187,40.84871956,1652.82
-104.72545441,40.84871961,1652.89
-104.72562061,40.84872001,1652.94
-104.72563413,40.84872004,1652.89
-104.72568135,40.84872015,1652.90
-104.72581161,40.84872046,1652.92
-104.72619621,40.84872137,1652.97
-104.72626419,40.84872153,1653.03
-104.72656231,40.84872224,1653.06
-104.72659351,40.84872232,1653.05
-104.72678166,40.84872276,1653.14
-104.72689068,40.84872302,1653.07
-104.72698665,40.84872325,1653.08
-104.72705688,40.84872341,1653.17
-104.72707907,40.84872346,1653.20
-104.72710647,40.84872326,1653.44
-104.72714218,40.84872226,1653.20
-104.72714356,40.84870587,1653.24
-104.72714372,40.84869623,1653.19
-104.72714447,40.84862804,1652.98
-104.72714465,40.84858363,1652.82
-104.72714471,40.84856921,1652.71
-104.72714522,40.84844454,1652.15
-104.72714529,40.84842886,1651.94
-104.72714569,40.84832959,1650.98
-104.72714591,40.84827725,1650.81
-104.72714595,40.84826689,1650.79
-104.72714730,40.84793683,1650.53
-104.72714747,40.84789602,1650.38
-104.72714861,40.84761829,1650.07
-104.72714865,40.84760793,1650.02
-104.72714903,40.84751533,1650.05
-104.72714907,40.84750569,1649.88
-104.72715067,40.84711734,1649.66
-104.72715080,40.84708545,1649.64
-104.72715114,40.84700095,1649.39
-104.72715121,40.84698410,1649.43
-104.72715162,40.84688555,1649.65
-104.72715173,40.84685699,1649.49
-104.72715265,40.84663250,1649.50
-104.72715272,40.84661620,1649.55
-104.72715296,40.84655882,1649.51
-104.72715364,40.84639126,1649.42
-104.72715434,40.84622163,1649.32
-104.72715447,40.84619064,1649.25
-104.72715497,40.84606696,1649.21
-104.72715525,40.84600084,1649.24
-104.72715534,40.84597778,1649.07
-104.72715580,40.84586580,1648.85
-104.72715627,40.84575094,1648.66
-104.72715652,40.84568897,1648.68
-104.72715723,40.84551736,1648.95
-104.72715740,40.84547457,1648.57
-104.72715742,40.84546970,1648.59
-104.72715765,40.84541475,1648.53
-104.72715774,40.84539286,1648.44
-104.72715830,40.84525602,1648.19
-104.72715868,40.84516441,1648.18
-104.72715920,40.84503541,1648.01
-104.72715939,40.84499046,1647.82
-104.72715977,40.84489848,1648.13
-104.72716024,40.84478326,1647.80
-104.72716073,40.84466363,1647.69
-104.72716124,40.84453851,1647.88
-104.72716131,40.84452328,1647.81
-104.72716219,40.84430663,1647.72
-104.72716221,40.84430141,1647.70
-104.72716279,40.84416097,1647.39
-104.72716314,40.84407692,1647.38
-104.72716330,40.84403719,1647.15
-104.72716341,40.84401089,1647.10
-104.72716348,40.84399197,1647.11
-104.72716377,40.84392287,1647.02
-104.72716397,40.84387225,1646.94
-104.72716420,40.84381630,1646.88
-104.72716459,40.84372343,1646.78
-104.72716477,40.84367731,1646.45
-104.72716491,40.84364433,1646.13
-104.72716590,40.84340372,1643.63
-104.72716656,40.84324139,1642.89
-104.72716793,40.84290817,1642.15
-104.72716828,40.84282322,1642.09
-104.72716833,40.84281025,1642.06
-104.72716833,40.84280953,1642.05
-104.72716956,40.84251081,1641.70
-104.72717093,40.84217678,1640.49
-104.72717100,40.84215876,1640.46
-104.72717111,40.84213327,1640.65
-104.72717177,40.84197031,1641.59
-104.72717197,40.84192184,1641.86
-104.72717271,40.84174321,1641.59
-104.72717295,40.84168438,1641.95
-104.72717313,40.84163889,1641.93
-104.72717325,40.84161042,1641.86
-104.72717371,40.84149836,1641.44
-104.72717380,40.84147530,1641.34
-104.72717382,40.84147232,1641.31
-104.72717407,40.84140953,1641.30
-104.72717454,40.84129576,1641.00
-104.72717482,40.84122838,1641.03
-104.72717561,40.84103587,1640.58
-104.72717570,40.84101398,1640.53
-104.72717618,40.84089615,1640.40
-104.72717690,40.84072129,1640.17
-104.72717708,40.84067706,1640.18
-104.72717731,40.84062067,1640.22
-104.72717745,40.84058608,1640.22
-104.72717757,40.84055653,1640.17
-104.72717770,40.84052617,1640.20
-104.72717805,40.84044095,1639.94
-104.72717886,40.84024286,1639.45
-104.72717895,40.84021971,1639.39
-104.72717933,40.84012683,1638.97
-104.72717964,40.84005080,1638.64
-104.72717974,40.84002648,1638.70
-104.72718044,40.83985568,1638.04
-104.72718083,40.83976271,1638.15
-104.72717992,40.83972433,1638.11
-104.72717970,40.83972001,1638.16
-104.72717758,40.83971595,1638.24
-104.72713856,40.83971541,1638.39
-104.72695470,40.83971479,1641.92
-104.72687072,40.83971459,1643.19
-104.72681521,40.83971446,1643.67
-104.72679540,40.83971442,1643.84
-104.72655105,40.83971384,1644.50
-104.72639839,40.83971347,1644.85
-104.72630457,40.83971325,1644.70
-104.72626092,40.83971315,1644.62
-104.72610921,40.83971279,1644.43
-104.72607457,40.83971271,1644.42
-104.72592322,40.83971235,1644.13
-104.72577851,40.83971200,1644.09
-104.72569809,40.83971181,1644.04
-104.72561434,40.83971161,1644.05
-104.72555266,40.83971147,1643.95
-104.72555124,40.83971146,1643.96
-104.72547118,40.83971127,1643.82
-104.72546975,40.83971127,1643.85
-104.72537806,40.83971105,1643.76
-104.72524498,40.83971073,1643.58
-104.72523596,40.83971071,1643.63
-104.72494120,40.83971010,1643.21
-104.72464039,40.83970929,1643.09
-104.72450078,40.83970896,1642.99
-104.72446911,40.83970888,1642.96
-104.72433318,40.83970856,1642.95
-104.72429688,40.83970847,1642.90
-104.72416937,40.83970817,1642.94
-104.72392111,40.83970757,1642.72
-104.72388078,40.83970748,1642.69
-104.72387461,40.83970746,1642.77
-104.72383345,40.83970736,1642.71
-104.72343051,40.83970640,1642.62
-104.72326125,40.83970599,1642.66
-104.72311500,40.83970564,1642.64
-104.72287432,40.83970506,1642.58
-104.72278252,40.83970484,1642.54
-104.72270043,40.83970464,1642.50
-104.72255560,40.83970430,1642.50
-104.72246463,40.83970408,1642.54
-104.72235574,40.83970382,1642.51
-104.72235206,40.83970381,1642.56
-104.72223261,40.83970352,1642.47
-104.72222751,40.83970351,1642.49
-104.72208363,40.83970316,1642.44
-104.72202017,40.83970301,1642.44
-104.72198162,40.83970291,1642.45
-104.72197356,40.83970290,1642.45
-104.72193347,40.83970280,1642.41
-104.72167761,40.83970218,1642.35
-104.72164203,40.83970210,1642.35
-104.72157050,40.83970192,1642.65
-104.72145592,40.83970165,1642.26
-104.72138511,40.83970148,1642.12
-104.72135438,40.83970140,1642.32
-104.72131655,40.83970131,1642.18
-104.72117575,40.83970097,1642.50
-104.72117492,40.83970097,1642.54
-104.72099012,40.83970052,1642.53
-104.72095121,40.83970043,1642.47
-104.72071291,40.83969985,1642.13
-104.72027095,40.83969878,1642.39
-104.72012493,40.83969843,1642.24
-104.71980977,40.83969766,1642.17
-104.71972022,40.83969744,1642.20
-104.71955463,40.83969704,1642.07
-104.71937896,40.83969661,1642.11
-104.71928656,40.83969639,1642.16
-104.71916308,40.83969609,1642.13
-104.71905087,40.83969581,1642.05
-104.71882111,40.83969525,1641.77
-104.71871127,40.83969499,1641.72
-104.71837405,40.83969416,1641.76
-104.71820099,40.83969374,1641.84
-104.71800765,40.83969327,1641.87
-104.71795759,40.83969315,1642.07
-104.71753437,40.83969211,1641.50
-104.71737934,40.83969173,1641.55
-104.71729821,40.83969153,1641.68
-104.71714057,40.83969115,1642.05
-104.71706430,40.83969096,1642.32
-104.71702266,40.83969086,1642.39
-104.71672446,40.83969013,1642.92
-104.71663989,40.83968992,1643.01
-104.71656421,40.83968973,1643.08
-104.71646671,40.83968949,1643.09
-104.71639459,40.83968932,1643.16
-104.71589380,40.83968808,1643.56
-104.71556535,40.83968727,1643.38
-104.71538660,40.83968683,1643.03
-104.71535813,40.83968685,1643.03
-104.71532289,40.83968884,1642.96
-104.71532111,40.83969045,1642.96
-104.71531948,40.83971135,1642.97
-104.71531938,40.83973459,1643.02
-104.71531929,40.83975477,1643.01
-104.71531908,40.83980414,1643.09
-104.71531906,40.83980927,1643.07
-104.71531840,40.83996349,1643.09
-104.71531702,40.84028618,1643.87
-104.71531615,40.84048877,1644.69
-104.71531597,40.84052967,1644.74
-104.71531593,40.84053976,1644.78
-104.71531566,40.84060210,1644.98
-104.71531539,40.84066570,1645.19
-104.71531533,40.84067939,1645.46
-104.71531492,40.84077677,1645.52
-104.71531467,40.84083424,1645.43
-104.71531452,40.84086983,1645.46
-104.71531426,40.84093054,1645.57
-104.71531424,40.84093604,1645.59
-104.71531397,40.84099919,1645.65
-104.71531368,40.84106594,1645.50
-104.71531313,40.84119413,1645.33
-104.71531306,40.84121052,1645.32
-104.71531247,40.84134835,1645.38
-104.71531247,40.84134934,1650.04
-104.71531163,40.84154528,1645.31
-104.71531127,40.84162842,1645.40
-104.71531063,40.84177859,1645.66
-104.71531024,40.84187012,1647.47
-104.71531019,40.84188084,1649.43
-104.71531006,40.84191093,1645.35
-104.71531002,40.84192102,1645.37
-104.71530992,40.84194363,1652.22
-104.71530969,40.84199804,1646.47
-104.71530949,40.84204542,1645.39
-104.71530888,40.84218766,1645.39
-104.71530870,40.84222946,1645.45
-104.71530845,40.84228739,1645.51
-104.71530780,40.84244008,1645.70
-104.71530762,40.84248161,1645.76
-104.71530742,40.84252935,1645.82
-104.71530695,40.84263862,1645.95
-104.71530693,40.84264430,1645.96
-104.71530684,40.84266466,1645.98
-104.71530629,40.84279258,1646.15
-104.71530609,40.84284059,1646.18
-104.71530582,40.84290320,1646.23
-104.71530570,40.84293121,1646.22
-104.71530569,40.84293338,1646.25
-104.71530552,40.84297364,1646.33
-104.71530544,40.84299076,1646.36
-104.71530527,40.84303085,1646.35
-104.71530492,40.84311399,1646.42
-104.71530408,40.84330848,1646.57
-104.71530333,40.84348559,1646.77
-104.71530250,40.84367774,1646.83
-104.71530236,40.84371071,1646.82
-104.71530178,40.84384728,1646.98
-104.71530168,40.84386926,1646.99
-104.71530083,40.84406942,1647.18
-104.71529992,40.84428130,1647.49
-104.71529986,40.84429535,1647.54
-104.71529907,40.84448056,1647.61
-104.71529905,40.84448435,1647.64
-104.71529894,40.84451038,1647.65
-104.71529827,40.84466632,1647.77
-104.71529824,40.84467533,1647.80
-104.71529774,40.84479144,1647.96
-104.71529741,40.84486874,1647.98
-104.71529656,40.84506656,1648.33
-104.71529610,40.84517331,1648.47
-104.71529594,40.84521231,1648.49
-104.71529531,40.84535807,1648.69
-104.71529528,40.84536645,1648.74
-104.71529506,40.84541671,1648.76
-104.71529493,40.84544815,1648.81
-104.71529493,40.84544833,1648.77
-104.71529488,40.84545914,1648.77
-104.71529482,40.84547284,1648.76
-104.71529459,40.84552608,1648.81
-104.71529275,40.84595803,1649.35
-104.71529242,40.84603487,1649.24
-104.71529133,40.84628908,1648.76
-104.71529121,40.84631719,1648.72
-104.71529110,40.84634359,1648.67
-104.71528930,40.84676302,1648.80
-104.71528924,40.84677680,1648.80
-104.71528880,40.84687976,1649.08
-104.71528843,40.84696759,1648.95
-104.71528757,40.84716749,1649.25
-104.71528717,40.84726109,1649.41
-104.71528694,40.84731460,1649.45
-104.71528663,40.84738702,1649.37
-104.71528583,40.84757476,1649.52
-104.71528565,40.84761719,1649.56
-104.71528480,40.84781357,1649.96
-104.71528453,40.84787762,1650.15
-104.71528403,40.84799446,1650.59
-104.71528399,40.84800419,1650.65
-104.71528379,40.84805103,1650.83
-104.71528348,40.84812364,1651.09
-104.71528334,40.84815634,1651.21
-104.71528305,40.84822300,1651.38
-104.71528283,40.84827534,1651.62
-104.71528253,40.84834407,1651.84
-104.71528248,40.84835642,1651.87
-104.71528235,40.84838632,1652.00
-104.71528201,40.84846668,1651.77
-104.71528179,40.84851802,1651.83
-104.71528164,40.84855217,1651.79
-104.71528159,40.84856370,1651.79
-104.71528116,40.84869333,1651.80
-104.71531923,40.84869459,1651.76
-104.71538839,40.84869521,1651.83
-104.71578972,40.84869620,1651.82
-104.71579423,40.84869621,1651.85
-104.71616294,40.84869712,1651.00
-104.71652666,40.84869802,1650.77
-104.71671766,40.84869849,1650.91
-104.71685420,40.84869882,1651.20
-104.71719076,40.84869965,1651.63
-104.71726503,40.84869983,1651.65
-104.71736005,40.84870006,1651.61
-104.71747002,40.84870033,1651.75
-104.71760052,40.84870065,1651.75
-104.71772805,40.84870096,1651.28
-104.71798239,40.84870158,1650.49
-104.71800363,40.84870164,1650.13
-104.71809106,40.84870185,1649.78
-104.71814800,40.84870199,1649.70
-104.71819083,40.84870209,1649.70
-104.71824884,40.84870224,1649.66
-104.71829143,40.84870234,1649.65
-104.71832642,40.84870243,1649.84
-104.71834778,40.84870248,1649.65
     </coordinates>
    </LineString>
   </MultiGeometry>
  </Placemark>
 </Document>
</kml>
