<kml>
 <Document>
  <Style id="yellow">
   <LineStyle>
   <color>ff00ffff</color>
   <width>1</width>
   </LineStyle>
  </Style>
  <Style id="red">
   <LineStyle>
   <color>ffff0000</color>
   <width>2</width>
   </LineStyle>
  </Style>
  <Style id="green">
   <LineStyle>
   <color>ff00ff00</color>
   <width>1</width>
   </LineStyle>
  </Style>
  <Placemark>
  <styleUrl>#yellow</styleUrl>
   <MultiGeometry>
    <LineString>
     <coordinates>
-104.75678410,40.80374742,1640.34
-104.75688842,40.80374764,1640.25
-104.75703223,40.80374794,1640.15
-104.75709115,40.80374807,1640.11
-104.75717651,40.80374825,1640.01
-104.75729992,40.80374851,1639.88
-104.75730217,40.80374851,1639.87
-104.75765486,40.80374925,1639.47
-104.75796642,40.80374991,1638.88
-104.75799736,40.80374997,1638.76
-104.75829670,40.80375060,1636.08
-104.75840577,40.80375083,1635.21
-104.75846516,40.80375095,1634.87
-104.75856463,40.80375116,1634.39
-104.75873333,40.80375151,1633.53
-104.75888721,40.80375183,1632.72
-104.75895336,40.80375197,1632.30
-104.75915585,40.80375239,1631.40
-104.75943445,40.80375298,1631.16
-104.75956497,40.80375325,1631.04
-104.75967997,40.80375349,1630.97
-104.75980705,40.80375375,1630.84
-104.75986230,40.80375387,1630.83
-104.76020041,40.80375457,1630.28
-104.76035536,40.80375489,1630.00
-104.76042341,40.80375503,1630.12
-104.76046170,40.80375511,1630.00
-104.76057100,40.80375534,1629.96
-104.76060787,40.80375542,1629.82
-104.76070449,40.80375562,1629.92
-104.76097183,40.80375617,1629.84
-104.76098214,40.80375619,1629.90
-104.76105541,40.80375634,1630.04
-104.76114717,40.80375653,1630.03
-104.76120940,40.80375666,1629.99
-104.76121723,40.80375668,1630.00
-104.76125007,40.80375675,1629.94
-104.76129536,40.80375684,1629.88
-104.76138225,40.80375702,1629.66
-104.76143904,40.80375714,1629.66
-104.76166168,40.80375760,1629.27
-104.76181876,40.80375792,1628.21
-104.76188219,40.80375805,1627.21
-104.76194206,40.80375818,1627.61
-104.76199861,40.80375829,1628.33
-104.76202563,40.80375835,1628.60
-104.76208396,40.80375847,1629.38
-104.76218793,40.80375868,1629.94
-104.76228432,40.80375888,1630.00
-104.76235592,40.80375903,1630.08
-104.76248763,40.80375930,1630.18
-104.76264756,40.80375963,1630.29
-104.76266024,40.80375966,1630.29
-104.76279350,40.80375993,1630.28
-104.76287364,40.80376000,1630.28
-104.76289119,40.80375833,1630.26
-104.76289309,40.80375644,1630.28
-104.76289321,40.80375626,1630.25
-104.76289418,40.80375158,1630.27
-104.76289446,40.80367303,1630.27
-104.76289495,40.80353457,1630.21
-104.76289498,40.80352529,1630.19
-104.76289499,40.80352267,1630.16
-104.76289511,40.80349078,1630.08
-104.76289517,40.80347295,1630.09
-104.76289534,40.80342376,1629.99
-104.76289575,40.80330836,1629.87
-104.76289613,40.80320287,1629.70
-104.76289652,40.80309198,1629.57
-104.76289659,40.80307486,1629.55
-104.76289665,40.80305757,1629.50
-104.76289678,40.80302018,1629.50
-104.76289691,40.80298235,1629.48
-104.76289731,40.80287127,1629.44
-104.76289735,40.80286028,1629.43
-104.76289772,40.80275587,1629.32
-104.76289836,40.80257543,1629.20
-104.76289840,40.80256381,1629.22
-104.76289855,40.80252418,1629.18
-104.76289895,40.80241049,1629.11
-104.76289965,40.80221500,1629.08
-104.76290044,40.80199286,1629.02
-104.76290046,40.80198610,1629.03
-104.76290071,40.80191511,1628.98
-104.76290142,40.80171630,1628.83
-104.76290198,40.80155946,1628.81
-104.76290201,40.80155126,1628.80
-104.76290218,40.80150388,1628.62
-104.76290231,40.80146721,1628.54
-104.76290233,40.80146181,1628.55
-104.76290233,40.80146036,1628.53
-104.76290326,40.80119840,1628.10
-104.76290353,40.80112318,1628.03
-104.76290357,40.80111282,1628.03
-104.76290397,40.80100030,1627.85
-104.76290416,40.80094643,1627.69
-104.76290442,40.80087391,1627.52
-104.76290501,40.80070780,1627.39
-104.76290533,40.80061807,1626.79
-104.76290554,40.80055952,1626.62
-104.76290562,40.80053474,1626.47
-104.76290604,40.80041890,1625.64
-104.76290647,40.80029755,1625.69
-104.76290694,40.80016468,1626.42
-104.76290732,40.80005955,1626.79
-104.76290743,40.80002739,1626.74
-104.76290771,40.79994937,1626.67
-104.76290844,40.79974380,1626.34
-104.76290857,40.79970786,1626.04
-104.76290944,40.79946301,1625.01
-104.76290967,40.79939724,1624.85
-104.76290984,40.79934914,1624.78
-104.76291096,40.79903447,1624.36
-104.76291187,40.79877935,1623.14
-104.76291202,40.79873800,1623.43
-104.76291240,40.79863161,1624.11
-104.76291306,40.79844442,1623.36
-104.76291396,40.79819218,1623.96
-104.76291467,40.79799192,1623.89
-104.76291524,40.79783292,1623.35
-104.76291569,40.79770482,1623.30
-104.76291578,40.79767951,1623.27
-104.76291680,40.79739439,1622.35
-104.76291694,40.79735403,1622.41
-104.76291720,40.79728025,1622.89
-104.76291746,40.79720746,1623.01
-104.76291795,40.79707035,1623.05
-104.76291847,40.79692379,1622.81
-104.76291902,40.79676956,1622.43
-104.76292020,40.79643868,1624.28
-104.76292072,40.79629166,1624.21
-104.76292164,40.79603348,1623.76
-104.76292168,40.79602204,1623.71
-104.76292170,40.79601645,1623.69
-104.76292173,40.79600807,1623.68
-104.76292280,40.79570674,1622.73
-104.76292311,40.79561954,1622.81
-104.76292313,40.79561539,1622.83
-104.76292347,40.79551873,1623.18
-104.76292388,40.79540297,1624.06
-104.76292398,40.79537406,1624.27
-104.76292500,40.79508876,1624.75
-104.76292510,40.79506065,1624.71
-104.76292583,40.79485607,1624.56
-104.76292599,40.79477779,1624.54
-104.76292572,40.79475175,1624.51
-104.76287013,40.79475164,1624.44
-104.76286480,40.79475162,1624.45
-104.76279723,40.79475149,1624.42
-104.76251950,40.79475091,1624.08
-104.76244399,40.79475076,1624.02
-104.76238105,40.79475063,1623.97
-104.76224521,40.79475035,1623.65
-104.76220977,40.79475028,1623.54
-104.76209147,40.79475003,1623.29
-104.76191817,40.79474968,1622.45
-104.76168797,40.79474920,1621.73
-104.76142186,40.79474865,1621.17
-104.76134457,40.79474849,1621.16
-104.76129206,40.79474838,1621.09
-104.76129064,40.79474838,1621.08
-104.76120968,40.79474821,1621.34
-104.76117696,40.79474814,1621.31
-104.76106767,40.79474792,1621.09
-104.76100900,40.79474780,1620.16
-104.76095898,40.79474769,1619.56
-104.76051067,40.79474676,1622.69
-104.76041869,40.79474657,1622.68
-104.76019169,40.79474610,1622.70
-104.76000038,40.79474570,1622.94
-104.75997821,40.79474566,1622.92
-104.75967547,40.79474503,1623.56
-104.75944515,40.79474455,1625.22
-104.75912558,40.79474388,1626.92
-104.75907746,40.79474378,1627.11
-104.75890131,40.79474341,1627.80
-104.75879925,40.79474320,1628.33
-104.75858198,40.79474274,1629.08
-104.75853207,40.79474264,1629.30
-104.75850303,40.79474258,1629.42
-104.75827983,40.79474211,1630.45
-104.75821760,40.79474198,1630.73
-104.75810843,40.79474175,1631.27
-104.75810333,40.79474174,1631.31
-104.75802711,40.79474158,1631.64
-104.75801016,40.79474155,1631.69
-104.75780758,40.79474112,1632.29
-104.75775234,40.79474101,1632.26
-104.75771607,40.79474093,1632.36
-104.75765906,40.79474081,1632.32
-104.75730416,40.79474006,1632.28
-104.75711344,40.79473966,1632.26
-104.75705998,40.79473955,1632.18
-104.75697036,40.79473936,1632.17
-104.75696633,40.79473935,1632.17
-104.75682670,40.79473906,1632.16
-104.75666869,40.79473872,1632.08
-104.75634876,40.79473805,1632.09
-104.75619775,40.79473773,1632.20
-104.75610600,40.79473754,1632.39
-104.75604531,40.79473741,1632.49
-104.75587331,40.79473704,1632.99
-104.75564158,40.79473655,1633.63
-104.75558124,40.79473643,1633.61
-104.75553572,40.79473633,1633.59
-104.75544149,40.79473613,1633.58
-104.75533469,40.79473590,1633.69
-104.75525064,40.79473573,1633.68
-104.75468286,40.79473452,1634.38
-104.75461340,40.79473437,1634.53
-104.75456693,40.79473427,1634.61
-104.75423728,40.79473357,1635.04
-104.75422507,40.79473355,1635.06
-104.75402937,40.79473313,1635.36
-104.75348719,40.79473197,1636.03
-104.75347699,40.79473195,1636.03
-104.75334767,40.79473167,1636.28
-104.75315268,40.79473126,1636.92
-104.75294287,40.79473081,1637.39
-104.75285041,40.79473061,1637.64
-104.75284721,40.79473060,1637.65
-104.75276210,40.79473042,1637.84
-104.75264309,40.79473017,1638.34
-104.75244265,40.79472974,1639.07
-104.75234095,40.79472952,1639.49
-104.75232554,40.79472948,1639.55
-104.75223592,40.79472929,1639.95
-104.75212557,40.79472906,1640.48
-104.75203678,40.79472886,1640.84
-104.75184641,40.79472846,1641.59
-104.75173819,40.79472822,1641.86
-104.75169090,40.79472812,1641.99
-104.75166920,40.79472807,1642.04
-104.75156003,40.79472784,1642.21
-104.75145679,40.79472762,1642.50
-104.75144351,40.79472759,1642.52
-104.75136883,40.79472743,1642.65
-104.75119293,40.79472714,1642.81
-104.75108482,40.79472700,1642.94
-104.75107569,40.79472734,1642.96
-104.75107290,40.79474418,1642.94
-104.75107249,40.79479075,1642.76
-104.75107208,40.79490047,1642.49
-104.75107188,40.79495398,1642.38
-104.75107113,40.79518604,1642.35
-104.75107020,40.79540558,1642.73
-104.75106878,40.79578429,1643.62
-104.75106861,40.79583087,1643.69
-104.75106859,40.79583582,1643.72
-104.75106790,40.79602104,1643.66
-104.75106746,40.79613716,1643.28
-104.75106701,40.79625778,1642.83
-104.75106641,40.79641975,1641.85
-104.75106623,40.79646587,1641.53
-104.75106614,40.79649263,1641.32
-104.75106523,40.79673550,1640.59
-104.75106489,40.79682675,1640.65
-104.75106400,40.79706341,1641.83
-104.75106373,40.79713629,1642.19
-104.75106285,40.79737240,1643.18
-104.75106262,40.79743311,1643.36
-104.75106206,40.79758293,1643.86
-104.75106190,40.79762707,1644.01
-104.75106127,40.79779525,1644.65
-104.75106121,40.79781039,1644.78
-104.75106118,40.79781913,1644.70
-104.75106044,40.79801686,1645.46
-104.75106037,40.79803659,1645.43
-104.75106025,40.79806749,1645.44
-104.75105988,40.79816758,1645.52
-104.75105984,40.79817667,1645.57
-104.75105924,40.79833765,1645.87
-104.75105884,40.79844630,1645.86
-104.75105777,40.79873331,1646.10
-104.75105621,40.79914941,1647.42
-104.75105618,40.79915833,1647.45
-104.75105555,40.79932642,1647.38
-104.75105530,40.79939192,1647.19
-104.75105525,40.79940687,1647.16
-104.75105517,40.79942885,1647.11
-104.75105481,40.79952380,1646.75
-104.75105449,40.79960965,1646.37
-104.75105440,40.79963298,1646.26
-104.75105423,40.79967929,1645.99
-104.75105421,40.79968415,1645.95
-104.75105419,40.79968902,1645.98
-104.75105345,40.79988801,1644.96
-104.75105308,40.79998684,1644.43
-104.75105287,40.80004287,1644.14
-104.75105247,40.80014989,1643.56
-104.75105244,40.80015926,1643.51
-104.75105236,40.80017989,1643.44
-104.75105214,40.80023835,1643.27
-104.75105179,40.80033249,1643.10
-104.75105156,40.80039330,1642.96
-104.75105139,40.80043978,1642.88
-104.75105132,40.80045897,1642.74
-104.75105114,40.80050644,1642.56
-104.75105011,40.80078111,1642.71
-104.75104981,40.80086219,1642.62
-104.75104971,40.80088993,1642.75
-104.75104816,40.80130558,1643.75
-104.75104793,40.80136630,1643.81
-104.75104732,40.80152863,1644.19
-104.75104722,40.80155539,1644.25
-104.75104716,40.80157233,1644.32
-104.75104669,40.80169844,1644.90
-104.75104662,40.80171709,1645.04
-104.75104636,40.80178502,1645.46
-104.75104595,40.80189501,1646.05
-104.75104530,40.80206896,1645.94
-104.75104477,40.80221103,1645.44
-104.75104443,40.80230282,1645.23
-104.75104399,40.80245074,1645.11
-104.75104245,40.80283297,1645.78
-104.75104222,40.80292486,1646.25
-104.75104183,40.80306197,1647.15
-104.75104038,40.80338735,1646.90
-104.75103982,40.80353536,1645.71
-104.75103924,40.80372256,1644.05
-104.75104218,40.80373076,1644.05
-104.75105129,40.80373519,1644.02
-104.75143219,40.80373601,1644.81
-104.75150748,40.80373618,1645.04
-104.75161998,40.80373642,1645.41
-104.75163219,40.80373645,1645.43
-104.75169348,40.80373658,1645.66
-104.75175134,40.80373670,1645.89
-104.75188305,40.80373699,1646.32
-104.75201274,40.80373726,1646.62
-104.75204961,40.80373734,1646.66
-104.75207048,40.80373739,1646.67
-104.75218844,40.80373764,1646.59
-104.75266608,40.80373867,1644.78
-104.75283004,40.80373902,1643.94
-104.75293757,40.80373925,1643.46
-104.75328540,40.80373999,1642.49
-104.75340537,40.80374025,1642.23
-104.75345813,40.80374036,1642.11
-104.75363975,40.80374075,1641.88
-104.75376198,40.80374101,1641.63
-104.75394312,40.80374140,1641.26
-104.75407543,40.80374168,1641.14
-104.75425456,40.80374206,1640.91
-104.75442539,40.80374242,1640.80
-104.75457690,40.80374275,1640.68
-104.75461567,40.80374283,1640.60
-104.75492129,40.80374348,1640.63
-104.75525182,40.80374418,1640.88
-104.75540629,40.80374451,1640.77
-104.75559657,40.80374491,1640.63
-104.75568939,40.80374511,1640.58
-104.75594380,40.80374565,1640.48
-104.75622287,40.80374624,1640.70
-104.75625844,40.80374631,1640.62
-104.75648713,40.80374679,1640.70
-104.75658766,40.80374701,1640.51
-104.75662358,40.80374708,1640.52
-104.75676501,40.80374738,1640.30
-104.75678410,40.80374742,1640.34
     </coordinates>
    </LineString>
   </MultiGeometry>
  </Placemark>
 </Document>
</kml>
