<kml>
 <Document>
  <Style id="yellow">
   <LineStyle>
   <color>ff00ffff</color>
   <width>1</width>
   </LineStyle>
  </Style>
  <Style id="red">
   <LineStyle>
   <color>ffff0000</color>
   <width>2</width>
   </LineStyle>
  </Style>
  <Style id="green">
   <LineStyle>
   <color>ff00ff00</color>
   <width>1</width>
   </LineStyle>
  </Style>
  <Placemark>
  <styleUrl>#yellow</styleUrl>
   <MultiGeometry>
    <LineString>
     <coordinates>
-104.72716316,40.84410052,1647.32
-104.72716267,40.84421988,1647.58
-104.72716253,40.84425303,1647.57
-104.72716167,40.84449094,1647.85
-104.72716068,40.84470525,1647.72
-104.72716009,40.84484921,1647.76
-104.72715966,40.84495406,1647.76
-104.72715956,40.84497704,1647.78
-104.72715852,40.84523026,1648.12
-104.72715838,40.84526638,1648.19
-104.72715833,40.84527719,1648.25
-104.72715826,40.84529422,1648.38
-104.72715802,40.84535386,1648.59
-104.72715797,40.84536539,1648.58
-104.72715721,40.84554979,1648.85
-104.72715714,40.84556726,1648.78
-104.72715679,40.84565347,1648.71
-104.72715628,40.84577671,1648.73
-104.72715476,40.84614749,1649.15
-104.72715464,40.84617803,1649.15
-104.72715411,40.84630631,1649.32
-104.72715333,40.84649585,1649.56
-104.72715322,40.84652359,1649.53
-104.72715274,40.84664043,1649.54
-104.72715258,40.84667863,1649.55
-104.72715255,40.84668664,1649.60
-104.72715246,40.84670935,1649.59
-104.72715235,40.84673529,1649.54
-104.72715206,40.84680646,1649.49
-104.72715158,40.84692411,1649.40
-104.72715120,40.84701662,1649.38
-104.72715087,40.84709626,1649.64
-104.72715049,40.84718976,1649.70
-104.72715011,40.84728093,1649.64
-104.72714917,40.84751055,1649.90
-104.72714911,40.84752469,1649.87
-104.72714909,40.84753064,1649.91
-104.72714907,40.84753460,1649.93
-104.72714907,40.84753505,1649.93
-104.72714856,40.84766090,1650.05
-104.72714844,40.84768847,1650.13
-104.72714778,40.84785071,1650.40
-104.72714755,40.84790701,1650.42
-104.72714614,40.84824861,1650.80
-104.72714459,40.84862759,1652.98
-104.72714452,40.84870353,1653.21
-104.72714494,40.84871677,1653.25
-104.72714516,40.84871993,1653.21
-104.72714681,40.84872263,1653.19
-104.72715155,40.84872310,1653.24
-104.72715653,40.84872356,1653.25
-104.72722190,40.84872380,1653.25
-104.72727528,40.84872393,1653.06
-104.72737754,40.84872417,1652.17
-104.72757281,40.84872463,1651.59
-104.72769334,40.84872492,1651.43
-104.72778362,40.84872513,1651.26
-104.72781589,40.84872521,1651.16
-104.72786595,40.84872532,1650.96
-104.72793559,40.84872549,1650.80
-104.72807474,40.84872582,1650.62
-104.72811781,40.84872592,1650.67
-104.72817202,40.84872605,1650.57
-104.72817226,40.84872605,1650.58
-104.72874774,40.84872740,1650.44
-104.72887503,40.84872770,1650.56
-104.72927648,40.84872855,1650.81
-104.72963938,40.84872949,1650.93
-104.73002291,40.84873039,1651.02
-104.73004379,40.84873044,1650.99
-104.73047277,40.84873144,1651.19
-104.73057087,40.84873167,1651.18
-104.73071584,40.84873201,1651.29
-104.73099807,40.84873267,1651.57
-104.73109831,40.84873290,1651.78
-104.73132063,40.84873342,1651.97
-104.73133166,40.84873345,1652.00
-104.73147070,40.84873377,1652.05
-104.73148742,40.84873381,1652.07
-104.73171152,40.84873433,1652.43
-104.73189967,40.84873477,1652.54
-104.73193739,40.84873486,1652.56
-104.73221713,40.84873551,1652.31
-104.73231322,40.84873573,1652.17
-104.73248429,40.84873613,1652.50
-104.73262451,40.84873645,1652.48
-104.73311754,40.84873759,1648.35
-104.73332610,40.84873808,1648.09
-104.73350630,40.84873849,1648.53
-104.73379256,40.84873915,1648.36
-104.73390241,40.84873941,1647.96
-104.73407419,40.84873980,1648.14
-104.73413339,40.84873994,1648.19
-104.73423411,40.84874017,1648.24
-104.73448952,40.84874076,1648.20
-104.73457766,40.84874096,1648.19
-104.73467198,40.84874118,1648.16
-104.73485882,40.84874161,1648.10
-104.73506097,40.84874207,1648.04
-104.73529479,40.84874261,1648.04
-104.73540702,40.84874287,1647.40
-104.73580693,40.84874378,1653.19
-104.73587656,40.84874394,1653.61
-104.73605937,40.84874436,1654.87
-104.73610908,40.84874447,1655.57
-104.73645905,40.84874527,1659.82
-104.73647803,40.84874532,1660.05
-104.73654161,40.84874546,1660.76
-104.73662454,40.84874565,1661.43
-104.73671612,40.84874586,1662.29
-104.73677140,40.84874599,1662.54
-104.73681079,40.84874608,1662.65
-104.73697379,40.84874645,1663.94
-104.73706869,40.84874667,1664.70
-104.73712694,40.84874680,1665.28
-104.73721580,40.84874700,1666.43
-104.73731592,40.84874723,1666.38
-104.73732387,40.84874725,1666.41
-104.73740027,40.84874742,1666.18
-104.73753634,40.84874773,1661.86
-104.73763113,40.84874795,1659.61
-104.73770693,40.84874812,1661.36
-104.73798228,40.84874874,1659.12
-104.73852277,40.84874997,1669.48
-104.73859727,40.84875014,1670.75
-104.73863855,40.84875023,1671.42
-104.73878186,40.84875056,1674.96
-104.73887937,40.84875078,1676.70
-104.73898329,40.84875101,1676.78
-104.73900680,40.84874791,1676.70
-104.73900705,40.84874368,1676.85
-104.73900734,40.84873134,1677.24
-104.73900755,40.84867603,1679.05
-104.73900768,40.84864234,1680.17
-104.73900770,40.84863918,1680.25
-104.73900777,40.84862162,1680.76
-104.73900800,40.84856162,1681.59
-104.73900808,40.84854153,1681.53
-104.73900810,40.84853757,1681.50
-104.73900875,40.84837010,1680.12
-104.73900892,40.84832659,1679.54
-104.73900936,40.84821561,1680.82
-104.73901003,40.84804355,1680.63
-104.73901044,40.84794013,1680.17
-104.73901087,40.84783077,1680.69
-104.73901154,40.84765961,1681.84
-104.73901159,40.84764718,1681.92
-104.73901266,40.84737396,1683.17
-104.73901296,40.84729910,1683.42
-104.73901306,40.84727144,1683.52
-104.73901390,40.84705803,1683.85
-104.73901415,40.84699569,1683.86
-104.73901425,40.84696993,1683.90
-104.73901466,40.84686462,1683.99
-104.73901468,40.84685850,1683.97
-104.73901503,40.84677021,1683.91
-104.73901584,40.84656365,1682.74
-104.73901593,40.84654131,1682.38
-104.73901657,40.84637682,1681.04
-104.73901682,40.84631376,1679.83
-104.73901713,40.84623593,1678.30
-104.73901758,40.84612017,1676.69
-104.73901782,40.84605999,1676.11
-104.73901845,40.84589775,1675.69
-104.73901875,40.84582217,1676.19
-104.73902034,40.84541716,1672.32
-104.73902095,40.84526050,1670.55
-104.73902189,40.84502151,1667.86
-104.73902201,40.84499106,1667.52
-104.73902220,40.84494340,1667.00
-104.73902242,40.84488674,1666.49
-104.73902313,40.84470576,1664.87
-104.73902323,40.84467964,1664.73
-104.73902433,40.84439930,1662.78
-104.73902445,40.84436912,1662.56
-104.73902459,40.84433354,1662.34
-104.73902469,40.84430759,1662.14
-104.73902524,40.84416769,1661.56
-104.73902575,40.84403671,1660.84
-104.73902578,40.84403085,1660.80
-104.73902602,40.84396834,1660.46
-104.73902690,40.84374331,1658.82
-104.73902695,40.84373096,1658.68
-104.73902708,40.84369799,1658.46
-104.73902828,40.84339288,1657.33
-104.73902831,40.84338468,1657.30
-104.73902853,40.84332973,1656.94
-104.73902866,40.84329568,1656.79
-104.73902875,40.84327361,1656.64
-104.73902888,40.84323992,1656.44
-104.73902961,40.84305263,1655.40
-104.73902982,40.84299939,1655.13
-104.73903061,40.84279878,1654.18
-104.73903139,40.84259924,1653.26
-104.73903145,40.84258537,1653.25
-104.73903183,40.84248691,1652.78
-104.73903232,40.84236286,1652.18
-104.73903243,40.84233430,1652.03
-104.73903298,40.84219521,1651.59
-104.73903326,40.84212297,1651.22
-104.73903433,40.84184911,1649.79
-104.73903442,40.84182623,1649.67
-104.73903445,40.84182037,1649.65
-104.73903456,40.84179200,1649.54
-104.73903472,40.84175191,1649.35
-104.73903492,40.84169921,1649.03
-104.73903602,40.84142013,1647.45
-104.73903714,40.84113439,1646.17
-104.73903729,40.84109466,1645.94
-104.73903747,40.84104962,1645.71
-104.73903762,40.84101025,1645.55
-104.73903771,40.84098800,1645.51
-104.73903789,40.84094143,1645.28
-104.73903866,40.84074513,1644.48
-104.73903981,40.84045209,1643.74
-104.73903992,40.84042542,1643.67
-104.73904097,40.84015815,1642.95
-104.73904222,40.83983844,1642.03
-104.73904248,40.83974295,1641.70
-104.73895435,40.83974257,1641.42
-104.73892291,40.83974250,1641.40
-104.73886787,40.83974237,1641.63
-104.73876515,40.83974214,1640.29
-104.73874700,40.83974210,1640.22
-104.73832627,40.83974115,1639.93
-104.73808525,40.83974060,1640.31
-104.73801194,40.83974043,1640.52
-104.73796829,40.83974033,1640.60
-104.73791195,40.83974021,1640.65
-104.73772964,40.83973979,1641.21
-104.73724236,40.83973868,1642.06
-104.73713715,40.83973844,1642.01
-104.73701842,40.83973817,1642.29
-104.73689589,40.83973789,1642.60
-104.73684939,40.83973779,1642.74
-104.73682258,40.83973773,1642.85
-104.73677976,40.83973763,1642.96
-104.73661275,40.83973725,1643.38
-104.73655237,40.83973711,1643.59
-104.73648737,40.83973696,1643.72
-104.73637338,40.83973670,1643.93
-104.73619404,40.83973629,1644.29
-104.73613758,40.83973616,1644.46
-104.73580593,40.83973540,1645.36
-104.73562824,40.83973499,1645.54
-104.73546562,40.83973462,1645.98
-104.73546135,40.83973461,1645.97
-104.73540987,40.83973449,1646.06
-104.73534356,40.83973434,1646.14
-104.73522815,40.83973408,1646.35
-104.73517785,40.83973396,1646.40
-104.73499187,40.83973353,1646.84
-104.73476590,40.83973302,1647.53
-104.73454148,40.83973250,1648.05
-104.73430793,40.83973196,1649.13
-104.73403808,40.83973134,1649.90
-104.73385043,40.83973091,1650.33
-104.73356136,40.83973024,1650.56
-104.73333148,40.83972971,1650.65
-104.73307243,40.83972911,1650.54
-104.73294159,40.83972881,1650.45
-104.73284124,40.83972857,1650.42
-104.73277565,40.83972842,1650.49
-104.73260520,40.83972803,1650.40
-104.73260508,40.83972803,1650.39
-104.73240984,40.83972757,1650.55
-104.73231103,40.83972735,1650.57
-104.73209646,40.83972685,1650.91
-104.73204094,40.83972672,1650.94
-104.73184179,40.83972626,1651.10
-104.73182993,40.83972623,1651.10
-104.73156209,40.83972561,1650.95
-104.73149436,40.83972545,1651.00
-104.73142699,40.83972529,1650.79
-104.73131110,40.83972502,1650.87
-104.73102322,40.83972435,1650.89
-104.73101207,40.83972432,1650.88
-104.73077780,40.83972378,1650.78
-104.73051353,40.83972316,1650.56
-104.73037676,40.83972284,1650.44
-104.73022233,40.83972248,1650.50
-104.72996529,40.83972188,1650.78
-104.72974134,40.83972135,1650.84
-104.72969935,40.83972126,1650.91
-104.72925573,40.83972031,1651.01
-104.72887165,40.83971931,1651.11
-104.72870274,40.83971892,1651.21
-104.72848283,40.83971840,1650.82
-104.72837299,40.83971814,1649.92
-104.72819269,40.83971772,1646.43
-104.72807740,40.83971744,1644.38
-104.72804786,40.83971737,1643.54
-104.72796566,40.83971718,1642.54
-104.72784859,40.83971690,1640.78
-104.72767031,40.83971648,1639.35
-104.72758728,40.83971629,1638.80
-104.72756391,40.83971623,1638.70
-104.72743687,40.83971593,1638.59
-104.72740971,40.83971587,1638.34
-104.72718719,40.83971534,1638.08
-104.72718185,40.83971569,1638.35
-104.72718119,40.83976001,1638.15
-104.72718069,40.83982433,1638.06
-104.72718012,40.83996270,1638.37
-104.72718009,40.83997135,1638.34
-104.72718000,40.83999288,1638.40
-104.72717985,40.84002981,1638.70
-104.72717914,40.84020349,1639.31
-104.72717899,40.84024016,1639.49
-104.72717879,40.84028934,1639.56
-104.72717841,40.84038105,1639.84
-104.72717830,40.84040735,1639.82
-104.72717785,40.84051680,1640.13
-104.72717751,40.84060076,1640.25
-104.72717665,40.84080922,1640.27
-104.72717649,40.84084822,1640.31
-104.72717638,40.84087561,1640.43
-104.72717638,40.84087714,1640.41
-104.72717594,40.84098344,1640.50
-104.72717564,40.84105650,1640.63
-104.72717516,40.84117379,1641.01
-104.72717484,40.84125225,1641.00
-104.72717421,40.84140458,1641.26
-104.72717377,40.84151133,1641.49
-104.72717367,40.84153601,1641.53
-104.72717354,40.84156754,1641.74
-104.72717288,40.84173050,1641.57
-104.72717270,40.84177356,1641.78
-104.72717268,40.84177915,1641.83
-104.72717236,40.84185671,1641.66
-104.72717230,40.84187040,1641.68
-104.72717129,40.84211660,1640.60
-104.72717118,40.84214525,1640.66
-104.72717095,40.84220137,1640.52
-104.72717038,40.84233974,1640.48
-104.72716954,40.84254405,1641.76
-104.72716934,40.84259324,1641.69
-104.72716912,40.84264684,1641.70
-104.72716888,40.84270503,1641.70
-104.72716879,40.84272818,1641.89
-104.72716858,40.84277827,1642.16
-104.72716805,40.84290826,1642.14
-104.72716779,40.84297042,1642.22
-104.72716773,40.84298609,1642.27
-104.72716726,40.84309987,1642.53
-104.72716708,40.84314383,1642.67
-104.72716642,40.84330409,1643.12
-104.72716491,40.84367388,1646.43
-104.72716432,40.84381685,1646.89
-104.72716416,40.84385684,1646.97
-104.72716316,40.84410052,1647.32
     </coordinates>
    </LineString>
   </MultiGeometry>
  </Placemark>
 </Document>
</kml>
