<kml>
 <Document>
  <Style id="yellow">
   <LineStyle>
   <color>ff00ffff</color>
   <width>1</width>
   </LineStyle>
  </Style>
  <Style id="red">
   <LineStyle>
   <color>ffff0000</color>
   <width>2</width>
   </LineStyle>
  </Style>
  <Style id="green">
   <LineStyle>
   <color>ff00ff00</color>
   <width>1</width>
   </LineStyle>
  </Style>
  <Placemark>
  <styleUrl>#yellow</styleUrl>
   <MultiGeometry>
    <LineString>
     <coordinates>
-104.73312928,40.79468660,1653.50
-104.73326275,40.79468690,1653.43
-104.73335615,40.79468712,1653.31
-104.73345383,40.79468734,1653.15
-104.73349105,40.79468743,1653.02
-104.73362547,40.79468774,1652.80
-104.73375704,40.79468805,1652.78
-104.73388091,40.79468833,1652.85
-104.73415378,40.79468896,1653.24
-104.73423972,40.79468916,1653.43
-104.73428642,40.79468927,1653.51
-104.73431937,40.79468934,1653.61
-104.73440199,40.79468953,1653.92
-104.73459272,40.79468997,1654.77
-104.73470378,40.79469023,1655.41
-104.73484449,40.79469055,1656.12
-104.73521870,40.79469141,1658.14
-104.73525118,40.79469148,1658.36
-104.73527868,40.79469155,1658.56
-104.73551860,40.79469210,1659.35
-104.73566404,40.79469243,1659.52
-104.73574109,40.79469261,1659.57
-104.73577546,40.79469268,1659.59
-104.73582027,40.79469279,1659.62
-104.73584421,40.79469284,1659.63
-104.73588843,40.79469294,1659.62
-104.73593347,40.79469305,1659.48
-104.73596050,40.79469311,1659.37
-104.73599890,40.79469320,1659.18
-104.73618038,40.79469361,1658.26
-104.73622590,40.79469372,1658.14
-104.73625838,40.79469379,1658.03
-104.73630318,40.79469389,1657.89
-104.73637976,40.79469407,1657.69
-104.73644638,40.79469422,1657.47
-104.73647874,40.79469429,1657.38
-104.73661007,40.79469459,1657.01
-104.73667764,40.79469475,1656.80
-104.73674449,40.79469490,1656.58
-104.73685781,40.79469516,1656.19
-104.73707094,40.79469564,1655.44
-104.73714325,40.79469581,1655.22
-104.73716660,40.79469586,1655.13
-104.73734725,40.79469627,1654.51
-104.73736609,40.79469632,1654.44
-104.73742323,40.79469645,1654.22
-104.73773498,40.79469715,1652.98
-104.73796387,40.79469768,1652.12
-104.73826139,40.79469826,1650.84
-104.73856544,40.79469904,1649.46
-104.73864829,40.79469923,1649.28
-104.73870744,40.79469936,1649.07
-104.73877228,40.79469951,1648.96
-104.73879184,40.79469955,1648.89
-104.73889402,40.79469978,1648.65
-104.73900117,40.79470003,1648.49
-104.73916653,40.79470022,1648.45
-104.73921573,40.79469916,1648.42
-104.73921824,40.79469385,1648.39
-104.73921917,40.79466692,1648.25
-104.73921982,40.79450080,1647.49
-104.73921988,40.79448630,1647.43
-104.73922000,40.79445675,1647.28
-104.73922076,40.79426262,1646.44
-104.73922121,40.79414731,1645.97
-104.73922131,40.79412109,1645.89
-104.73922146,40.79408263,1645.77
-104.73922204,40.79393453,1645.29
-104.73922246,40.79382778,1645.00
-104.73922258,40.79379598,1644.92
-104.73922259,40.79379436,1644.92
-104.73922289,40.79371760,1644.72
-104.73922320,40.79363806,1644.49
-104.73922332,40.79360680,1644.44
-104.73922358,40.79353996,1644.32
-104.73922483,40.79322043,1643.95
-104.73922580,40.79294414,1643.84
-104.73922698,40.79267190,1643.68
-104.73922742,40.79255939,1643.54
-104.73922747,40.79254776,1643.55
-104.73922752,40.79253389,1643.54
-104.73922812,40.79238147,1643.44
-104.73922858,40.79226292,1643.55
-104.73922870,40.79223175,1643.56
-104.73922927,40.79208743,1643.65
-104.73922962,40.79199582,1643.78
-104.73923008,40.79187862,1644.05
-104.73923011,40.79187249,1644.06
-104.73923017,40.79185519,1644.07
-104.73923042,40.79179204,1644.20
-104.73923211,40.79136027,1645.73
-104.73923235,40.79129847,1645.92
-104.73923244,40.79127613,1646.03
-104.73923271,40.79120712,1646.34
-104.73923376,40.79093957,1647.66
-104.73923420,40.79082670,1648.18
-104.73923421,40.79082426,1648.18
-104.73923429,40.79080309,1648.28
-104.73923444,40.79076580,1648.47
-104.73923467,40.79070679,1648.76
-104.73923520,40.79057113,1649.50
-104.73923623,40.79030628,1651.08
-104.73923645,40.79025069,1651.30
-104.73923745,40.78996531,1651.61
-104.73923879,40.78965361,1652.06
-104.73923926,40.78953272,1652.28
-104.73923959,40.78944840,1652.48
-104.73923968,40.78942480,1652.58
-104.73924045,40.78922805,1652.53
-104.73924061,40.78918832,1652.30
-104.73924210,40.78880736,1651.02
-104.73924229,40.78875943,1650.83
-104.73924255,40.78869070,1650.51
-104.73924258,40.78868331,1650.49
-104.73924276,40.78863926,1650.30
-104.73924308,40.78855656,1649.94
-104.73924366,40.78840882,1649.31
-104.73924389,40.78835000,1649.05
-104.73924456,40.78817784,1648.25
-104.73924489,40.78809488,1647.77
-104.73924533,40.78798065,1647.19
-104.73924548,40.78794200,1647.00
-104.73924618,40.78776453,1646.16
-104.73924631,40.78773084,1645.97
-104.73924664,40.78764688,1645.52
-104.73924689,40.78758175,1645.14
-104.73924777,40.78735609,1643.70
-104.73924866,40.78713106,1642.58
-104.73924889,40.78706998,1642.25
-104.73924891,40.78706494,1642.22
-104.73924927,40.78697368,1641.77
-104.73924946,40.78692503,1641.48
-104.73924948,40.78691981,1641.43
-104.73925049,40.78666316,1640.17
-104.73925081,40.78657911,1639.83
-104.73925132,40.78644903,1639.30
-104.73925174,40.78634336,1638.99
-104.73925196,40.78628534,1638.83
-104.73925215,40.78623625,1638.73
-104.73925284,40.78606166,1638.12
-104.73925321,40.78596761,1637.79
-104.73925323,40.78596041,1637.78
-104.73925424,40.78570394,1637.52
-104.73925298,40.78569222,1637.52
-104.73908622,40.78569175,1637.85
-104.73889185,40.78569131,1638.52
-104.73885795,40.78569124,1638.64
-104.73881007,40.78569113,1638.78
-104.73869523,40.78569087,1639.16
-104.73848865,40.78569040,1639.62
-104.73848260,40.78569039,1639.63
-104.73825374,40.78568987,1640.09
-104.73825256,40.78568987,1640.09
-104.73808070,40.78568948,1640.53
-104.73783774,40.78568892,1641.29
-104.73767027,40.78568854,1641.86
-104.73732585,40.78568776,1642.88
-104.73729006,40.78568768,1642.96
-104.73706653,40.78568717,1643.64
-104.73705385,40.78568714,1643.66
-104.73688128,40.78568675,1644.20
-104.73679453,40.78568655,1644.51
-104.73653082,40.78568595,1645.41
-104.73633740,40.78568551,1645.92
-104.73596702,40.78568466,1646.28
-104.73588868,40.78568448,1646.26
-104.73569573,40.78568404,1645.77
-104.73569289,40.78568403,1645.77
-104.73559973,40.78568382,1645.51
-104.73552874,40.78568366,1645.21
-104.73513336,40.78568275,1643.84
-104.73504352,40.78568254,1643.50
-104.73498722,40.78568241,1643.32
-104.73493555,40.78568229,1643.17
-104.73483718,40.78568207,1642.89
-104.73474153,40.78568185,1642.59
-104.73469566,40.78568174,1642.51
-104.73440138,40.78568107,1641.31
-104.73426236,40.78568075,1640.77
-104.73414123,40.78568047,1640.30
-104.73404381,40.78568024,1639.87
-104.73402378,40.78568020,1639.78
-104.73394662,40.78568002,1639.49
-104.73393027,40.78567998,1639.42
-104.73383533,40.78567976,1639.10
-104.73369145,40.78567943,1638.67
-104.73344801,40.78567887,1638.00
-104.73336493,40.78567868,1637.67
-104.73319521,40.78567828,1636.58
-104.73306116,40.78567797,1635.59
-104.73301636,40.78567787,1635.25
-104.73292783,40.78567767,1634.38
-104.73282460,40.78567743,1633.50
-104.73277506,40.78567731,1633.13
-104.73277209,40.78567731,1633.12
-104.73256125,40.78567682,1632.67
-104.73245268,40.78567656,1632.84
-104.73231081,40.78567624,1633.21
-104.73219941,40.78567598,1633.51
-104.73216646,40.78567590,1633.60
-104.73209866,40.78567574,1633.83
-104.73162862,40.78567465,1635.65
-104.73154553,40.78567446,1636.01
-104.73144420,40.78567422,1636.52
-104.73106849,40.78567335,1637.32
-104.73101006,40.78567321,1637.36
-104.73097107,40.78567312,1637.35
-104.73095033,40.78567307,1637.43
-104.73090920,40.78567298,1637.49
-104.73081474,40.78567276,1637.47
-104.73049984,40.78567202,1636.79
-104.73037752,40.78567174,1636.60
-104.73034446,40.78567166,1636.58
-104.73018457,40.78567128,1636.66
-104.73008360,40.78567105,1636.85
-104.73003548,40.78567094,1636.94
-104.73002291,40.78567091,1636.98
-104.72976715,40.78567031,1636.21
-104.72946255,40.78566959,1633.79
-104.72945153,40.78566957,1633.72
-104.72940495,40.78566946,1633.39
-104.72935529,40.78566934,1633.15
-104.72913722,40.78566883,1631.83
-104.72891665,40.78566831,1630.51
-104.72847612,40.78566737,1627.64
-104.72831220,40.78566689,1626.73
-104.72830580,40.78566688,1626.73
-104.72819594,40.78566662,1626.41
-104.72819297,40.78566661,1626.45
-104.72802100,40.78566620,1626.65
-104.72795890,40.78566606,1626.65
-104.72784464,40.78566579,1627.21
-104.72778645,40.78566565,1627.53
-104.72772885,40.78566552,1627.99
-104.72760986,40.78566524,1628.94
-104.72754218,40.78566508,1629.42
-104.72742603,40.78566489,1630.48
-104.72741904,40.78566514,1630.60
-104.72740327,40.78566655,1630.73
-104.72740263,40.78570619,1631.02
-104.72740204,40.78579276,1631.66
-104.72740119,40.78597139,1633.53
-104.72740073,40.78608427,1633.31
-104.72740072,40.78608724,1633.30
-104.72740027,40.78619805,1633.00
-104.72740016,40.78622426,1632.90
-104.72739963,40.78635425,1632.74
-104.72739950,40.78638497,1632.75
-104.72739923,40.78645182,1632.70
-104.72739897,40.78651632,1632.59
-104.72739895,40.78652073,1632.60
-104.72739878,40.78656100,1632.55
-104.72739869,40.78658334,1632.50
-104.72739856,40.78661559,1632.44
-104.72739825,40.78669234,1632.27
-104.72739824,40.78669405,1632.28
-104.72739810,40.78672802,1632.22
-104.72739798,40.78675738,1632.17
-104.72739732,40.78691890,1632.09
-104.72739669,40.78707331,1632.72
-104.72739668,40.78707574,1632.73
-104.72739647,40.78712718,1633.07
-104.72739595,40.78725339,1633.90
-104.72739559,40.78734329,1634.44
-104.72739546,40.78737500,1634.58
-104.72739517,40.78744545,1634.69
-104.72739473,40.78755346,1634.43
-104.72739463,40.78757742,1634.33
-104.72739426,40.78766670,1633.92
-104.72739392,40.78775066,1633.71
-104.72739316,40.78793695,1634.05
-104.72739250,40.78809712,1634.48
-104.72739223,40.78816333,1634.88
-104.72739202,40.78821558,1635.19
-104.72739192,40.78823964,1635.22
-104.72739163,40.78831161,1635.55
-104.72739146,40.78835179,1635.80
-104.72739144,40.78835666,1635.82
-104.72739104,40.78845449,1636.42
-104.72739053,40.78857881,1637.12
-104.72739028,40.78863979,1637.44
-104.72738907,40.78893635,1638.95
-104.72738896,40.78896374,1639.08
-104.72738874,40.78901689,1639.15
-104.72738808,40.78917949,1639.84
-104.72738808,40.78917958,1639.83
-104.72738790,40.78922336,1640.02
-104.72738744,40.78933381,1640.44
-104.72738735,40.78935804,1640.46
-104.72738670,40.78951650,1640.90
-104.72738623,40.78963099,1641.12
-104.72738621,40.78963649,1641.12
-104.72738490,40.78995512,1641.28
-104.72738440,40.79007899,1641.27
-104.72738434,40.79009331,1641.27
-104.72738407,40.79016006,1641.22
-104.72738272,40.79048887,1641.18
-104.72738173,40.79076048,1641.33
-104.72738017,40.79111307,1641.71
-104.72738008,40.79113487,1641.82
-104.72737994,40.79116955,1641.96
-104.72737919,40.79135224,1642.23
-104.72737918,40.79135494,1642.21
-104.72737790,40.79166700,1641.93
-104.72737777,40.79169934,1641.83
-104.72737749,40.79176789,1641.63
-104.72737670,40.79196058,1641.05
-104.72737652,40.79200454,1640.89
-104.72737590,40.79215679,1640.80
-104.72737570,40.79220561,1640.90
-104.72737504,40.79236650,1641.06
-104.72737443,40.79251587,1641.17
-104.72737416,40.79258181,1641.24
-104.72737377,40.79267667,1641.29
-104.72737363,40.79271117,1641.28
-104.72737308,40.79284621,1641.18
-104.72737293,40.79288359,1641.12
-104.72737285,40.79290260,1641.09
-104.72737224,40.79305133,1640.44
-104.72737120,40.79330564,1639.09
-104.72736936,40.79375552,1637.06
-104.72736845,40.79397812,1636.71
-104.72736763,40.79417928,1636.29
-104.72736680,40.79438125,1635.94
-104.72736660,40.79443052,1635.82
-104.72736597,40.79458340,1635.47
-104.72736576,40.79463601,1635.31
-104.72736606,40.79464916,1635.25
-104.72736751,40.79467150,1635.15
-104.72738244,40.79467280,1635.22
-104.72738730,40.79467317,1635.27
-104.72746423,40.79467335,1635.65
-104.72803166,40.79467469,1638.68
-104.72814735,40.79467497,1639.46
-104.72815754,40.79467499,1639.55
-104.72838240,40.79467552,1640.93
-104.72874157,40.79467636,1643.08
-104.72885050,40.79467662,1643.61
-104.72896512,40.79467689,1644.12
-104.72924854,40.79467755,1645.59
-104.72947198,40.79467799,1646.90
-104.72986244,40.79467899,1648.97
-104.72992467,40.79467914,1649.17
-104.73003751,40.79467940,1649.60
-104.73018023,40.79467974,1649.92
-104.73036420,40.79468017,1649.61
-104.73045108,40.79468037,1649.34
-104.73048226,40.79468044,1649.23
-104.73070262,40.79468096,1649.50
-104.73093898,40.79468151,1650.70
-104.73106972,40.79468181,1651.54
-104.73113966,40.79468198,1651.92
-104.73115756,40.79468202,1651.97
-104.73150759,40.79468283,1653.01
-104.73194333,40.79468385,1652.94
-104.73202607,40.79468404,1652.93
-104.73206921,40.79468414,1652.98
-104.73257548,40.79468531,1653.31
-104.73267967,40.79468555,1653.41
-104.73269947,40.79468560,1653.40
-104.73290750,40.79468608,1653.37
-104.73302378,40.79468635,1653.42
-104.73312928,40.79468660,1653.50
     </coordinates>
    </LineString>
   </MultiGeometry>
  </Placemark>
 </Document>
</kml>
