<kml>
 <Document>
  <Style id="yellow">
   <LineStyle>
   <color>ff00ffff</color>
   <width>1</width>
   </LineStyle>
  </Style>
  <Style id="red">
   <LineStyle>
   <color>ffff0000</color>
   <width>2</width>
   </LineStyle>
  </Style>
  <Style id="green">
   <LineStyle>
   <color>ff00ff00</color>
   <width>1</width>
   </LineStyle>
  </Style>
  <Placemark>
  <styleUrl>#yellow</styleUrl>
   <MultiGeometry>
    <LineString>
     <coordinates>
-104.76284587,40.81735327,1646.05
-104.76284582,40.81736723,1646.08
-104.76284463,40.81770298,1646.56
-104.76284450,40.81773946,1646.57
-104.76284431,40.81779315,1646.57
-104.76284336,40.81805764,1646.56
-104.76284282,40.81821124,1646.38
-104.76284267,40.81825412,1646.30
-104.76284173,40.81851788,1645.63
-104.76284074,40.81879327,1645.35
-104.76283987,40.81903857,1645.48
-104.76283949,40.81914496,1645.58
-104.76283845,40.81943738,1646.04
-104.76283825,40.81949476,1646.13
-104.76283795,40.81957944,1646.34
-104.76283711,40.81981348,1646.96
-104.76283662,40.81995266,1647.31
-104.76283619,40.82007085,1647.70
-104.76283618,40.82007544,1647.70
-104.76283609,40.82009986,1647.87
-104.76283603,40.82011652,1647.91
-104.76283533,40.82031237,1648.87
-104.76283502,40.82040119,1649.37
-104.76283446,40.82055794,1650.14
-104.76283430,40.82060370,1650.41
-104.76283385,40.82072883,1651.00
-104.76283351,40.82082549,1651.19
-104.76283350,40.82082801,1651.19
-104.76283342,40.82085017,1651.22
-104.76283324,40.82090026,1651.30
-104.76283300,40.82096701,1651.45
-104.76283183,40.82129555,1652.31
-104.76283151,40.82138608,1652.31
-104.76283135,40.82143202,1652.28
-104.76283114,40.82148851,1652.18
-104.76283108,40.82150806,1652.15
-104.76283062,40.82167048,1651.89
-104.76283077,40.82176128,1651.87
-104.76283097,40.82177192,1651.84
-104.76283190,40.82177489,1651.84
-104.76283273,40.82177633,1651.86
-104.76283795,40.82177643,1651.91
-104.76284767,40.82177654,1652.01
-104.76285739,40.82177665,1652.08
-104.76287198,40.82177677,1652.18
-104.76293981,40.82177727,1652.69
-104.76294443,40.82177728,1652.69
-104.76294941,40.82177729,1652.75
-104.76295427,40.82177730,1652.78
-104.76328133,40.82177797,1655.49
-104.76335948,40.82177813,1656.21
-104.76336458,40.82177815,1656.24
-104.76336956,40.82177816,1656.29
-104.76337454,40.82177817,1656.33
-104.76393698,40.82177932,1663.39
-104.76394184,40.82177933,1663.46
-104.76394635,40.82177934,1663.53
-104.76395097,40.82177935,1663.65
-104.76395548,40.82177936,1663.73
-104.76395999,40.82177936,1663.83
-104.76396485,40.82177938,1663.91
-104.76396983,40.82177939,1664.05
-104.76397481,40.82177940,1664.16
-104.76456109,40.82178059,1669.40
-104.76456607,40.82178060,1669.43
-104.76457058,40.82178061,1669.44
-104.76460402,40.82178068,1669.70
-104.76460876,40.82178069,1669.70
-104.76479790,40.82178108,1667.43
-104.76501479,40.82178152,1664.19
-104.76518543,40.82178187,1662.50
-104.76529536,40.82178209,1661.50
-104.76530022,40.82178210,1661.41
-104.76549980,40.82178251,1659.88
-104.76550490,40.82178252,1659.84
-104.76580693,40.82178313,1658.11
-104.76581156,40.82178314,1658.09
-104.76581749,40.82178315,1658.00
-104.76582235,40.82178316,1657.97
-104.76594200,40.82178340,1657.23
-104.76594674,40.82178341,1657.21
-104.76626016,40.82178405,1655.66
-104.76626502,40.82178406,1655.64
-104.76646045,40.82178445,1654.76
-104.76646531,40.82178446,1654.75
-104.76655057,40.82178464,1654.49
-104.76655579,40.82178465,1654.47
-104.76702953,40.82178560,1653.08
-104.76703499,40.82178561,1653.05
-104.76714171,40.82178583,1652.76
-104.76721097,40.82178597,1652.54
-104.76721595,40.82178598,1652.52
-104.76749225,40.82178654,1651.78
-104.76749759,40.82178655,1651.80
-104.76779772,40.82178715,1651.18
-104.76780318,40.82178716,1651.15
-104.76784160,40.82178724,1651.08
-104.76784610,40.82178725,1651.08
-104.76792188,40.82178740,1650.92
-104.76792745,40.82178741,1650.94
-104.76850437,40.82178857,1650.93
-104.76850923,40.82178858,1650.94
-104.76895000,40.82178947,1650.86
-104.76895522,40.82178948,1650.86
-104.76896020,40.82178949,1650.86
-104.76896542,40.82178950,1650.87
-104.76897052,40.82178951,1650.86
-104.76912598,40.82178982,1650.70
-104.76913061,40.82178983,1650.71
-104.76936387,40.82178894,1650.42
-104.76988385,40.82179133,1649.27
-104.76988872,40.82179134,1649.24
-104.77045603,40.82179139,1648.22
-104.77051508,40.82179214,1648.31
-104.77052433,40.82179225,1648.34
-104.77053405,40.82179236,1648.37
-104.77055338,40.82179258,1648.43
-104.77056334,40.82179269,1648.46
-104.77056808,40.82179269,1648.47
-104.77082956,40.82179321,1649.43
-104.77083442,40.82179322,1649.43
-104.77083952,40.82179323,1649.46
-104.77084439,40.82179324,1649.48
-104.77138311,40.82179431,1650.27
-104.77138797,40.82179432,1650.27
-104.77195090,40.82179499,1649.78
-104.77198789,40.82179542,1649.71
-104.77199845,40.82179553,1649.68
-104.77200378,40.82179554,1649.69
-104.77229657,40.82179612,1649.62
-104.77230119,40.82179613,1649.62
-104.77230593,40.82179614,1649.63
-104.77231056,40.82179615,1649.63
-104.77255176,40.82179590,1648.88
-104.77281727,40.82179597,1647.24
-104.77288178,40.82179601,1646.79
-104.77290076,40.82179596,1646.80
-104.77299966,40.82179543,1647.47
-104.77313757,40.82179507,1647.51
-104.77365993,40.82179880,1649.27
-104.77366491,40.82179881,1649.26
-104.77366977,40.82179882,1649.29
-104.77368922,40.82179877,1649.33
-104.77383757,40.82179825,1649.64
-104.77412064,40.82179718,1650.39
-104.77457968,40.82179547,1651.60
-104.77468594,40.82179504,1651.93
-104.77468683,40.82177775,1651.98
-104.77468853,40.82169623,1652.30
-104.77468870,40.82167911,1652.40
-104.77468988,40.82136616,1653.15
-104.77469124,40.82096348,1654.55
-104.77469126,40.82095762,1654.56
-104.77469236,40.82063233,1656.58
-104.77469243,40.82061359,1656.72
-104.77469253,40.82058188,1656.96
-104.77469287,40.82044757,1658.05
-104.77469391,40.82007110,1660.16
-104.77469487,40.81982049,1659.55
-104.77469490,40.81981292,1659.52
-104.77469572,40.81956951,1658.50
-104.77469712,40.81922638,1657.71
-104.77469753,40.81907134,1657.86
-104.77469906,40.81865254,1658.26
-104.77470034,40.81827401,1659.18
-104.77470063,40.81818780,1659.10
-104.77470090,40.81811059,1658.90
-104.77470130,40.81799087,1658.40
-104.77470224,40.81767936,1655.83
-104.77470278,40.81748261,1654.38
-104.77470397,40.81720137,1653.13
-104.77470414,40.81715245,1652.95
-104.77470486,40.81693913,1652.40
-104.77470521,40.81683400,1652.34
-104.77470612,40.81656636,1652.47
-104.77470685,40.81635061,1652.81
-104.77470760,40.81612909,1652.79
-104.77470910,40.81568408,1650.26
-104.77470972,40.81546598,1648.76
-104.77471130,40.81503610,1645.72
-104.77471133,40.81502646,1645.65
-104.77471195,40.81484287,1644.14
-104.77471265,40.81463468,1642.72
-104.77471270,40.81462216,1642.57
-104.77471291,40.81455928,1642.17
-104.77471300,40.81453270,1642.01
-104.77471360,40.81435560,1641.24
-104.77471423,40.81416822,1641.10
-104.77471454,40.81407751,1641.05
-104.77471479,40.81400247,1640.94
-104.77471492,40.81396490,1640.98
-104.77471520,40.81388157,1641.04
-104.77471545,40.81380770,1641.13
-104.77471582,40.81369798,1641.27
-104.77471713,40.81327719,1641.69
-104.77471793,40.81307423,1642.20
-104.77471821,40.81299208,1642.56
-104.77471877,40.81282587,1643.19
-104.77471802,40.81280380,1643.21
-104.77471401,40.81279694,1643.25
-104.77460542,40.81279223,1642.78
-104.77418272,40.81279149,1641.06
-104.77394191,40.81279093,1640.07
-104.77352111,40.81279010,1639.34
-104.77307269,40.81278931,1639.67
-104.77283270,40.81278875,1640.39
-104.77242115,40.81278794,1642.14
-104.77197913,40.81278707,1644.10
-104.77154873,40.81278622,1646.92
-104.77128029,40.81278568,1648.53
-104.77118058,40.81278549,1648.88
-104.77110612,40.81278534,1649.16
-104.77094463,40.81278502,1649.46
-104.77092079,40.81278497,1649.50
-104.77088427,40.81278490,1649.53
-104.77084515,40.81278482,1649.50
-104.77068959,40.81278451,1649.47
-104.77062544,40.81278438,1649.47
-104.77058702,40.81278431,1649.44
-104.77042625,40.81278399,1649.39
-104.77033459,40.81278381,1649.41
-104.76984811,40.81278284,1649.62
-104.76973725,40.81278262,1649.50
-104.76955596,40.81278225,1649.22
-104.76947995,40.81278210,1649.06
-104.76940881,40.81278196,1648.86
-104.76934739,40.81278184,1648.75
-104.76927495,40.81278169,1648.63
-104.76922136,40.81278158,1648.49
-104.76914215,40.81278143,1648.33
-104.76892624,40.81278099,1648.01
-104.76878657,40.81278071,1647.75
-104.76873926,40.81278062,1647.68
-104.76866741,40.81278048,1647.59
-104.76845256,40.81278004,1647.32
-104.76838557,40.81277991,1647.24
-104.76831941,40.81277978,1647.18
-104.76826202,40.81277966,1647.14
-104.76819906,40.81277954,1647.08
-104.76799797,40.81277913,1647.06
-104.76791165,40.81277896,1647.04
-104.76776807,40.81277867,1647.08
-104.76770108,40.81277853,1647.06
-104.76763243,40.81277840,1647.14
-104.76730127,40.81277773,1647.52
-104.76712768,40.81277738,1647.83
-104.76706057,40.81277724,1647.91
-104.76705547,40.81277723,1647.92
-104.76660741,40.81277633,1648.44
-104.76650235,40.81277611,1648.43
-104.76632723,40.81277576,1648.42
-104.76599903,40.81277509,1647.58
-104.76589363,40.81277488,1647.19
-104.76556828,40.81277422,1646.15
-104.76547899,40.81277404,1645.85
-104.76547437,40.81277403,1645.84
-104.76546133,40.81277400,1645.80
-104.76509839,40.81277326,1644.83
-104.76493785,40.81277294,1644.47
-104.76441840,40.81277188,1643.66
-104.76437999,40.81277189,1643.61
-104.76427789,40.81277357,1643.56
-104.76375999,40.81277053,1642.93
-104.76329971,40.81276959,1641.22
-104.76323984,40.81276947,1640.94
-104.76303187,40.81276913,1639.83
-104.76301705,40.81276937,1639.72
-104.76288792,40.81277199,1639.28
-104.76286823,40.81277240,1639.10
-104.76286325,40.81277257,1639.04
-104.76286229,40.81277509,1639.05
-104.76286173,40.81290084,1639.06
-104.76286168,40.81291310,1639.04
-104.76286149,40.81296868,1638.93
-104.76286127,40.81302831,1638.82
-104.76286115,40.81306336,1638.77
-104.76286066,40.81320173,1638.46
-104.76286024,40.81331776,1638.48
-104.76285979,40.81344378,1638.48
-104.76285964,40.81348792,1638.58
-104.76285915,40.81362458,1638.96
-104.76285901,40.81366278,1639.01
-104.76285900,40.81366755,1639.02
-104.76285891,40.81369260,1639.06
-104.76285887,40.81370215,1639.07
-104.76285885,40.81371034,1639.11
-104.76285884,40.81371097,1639.12
-104.76285814,40.81390934,1639.42
-104.76285798,40.81395330,1639.44
-104.76285789,40.81397871,1639.47
-104.76285787,40.81398366,1639.49
-104.76285706,40.81421058,1639.80
-104.76285693,40.81424761,1639.83
-104.76285672,40.81430859,1639.93
-104.76285610,40.81448147,1640.08
-104.76285573,40.81458452,1640.21
-104.76285549,40.81465398,1640.19
-104.76285537,40.81468668,1640.17
-104.76285525,40.81472064,1640.22
-104.76285450,40.81493072,1639.43
-104.76285393,40.81509053,1639.15
-104.76285360,40.81518404,1638.80
-104.76285359,40.81518521,1638.79
-104.76285359,40.81518692,1638.78
-104.76285309,40.81532736,1638.56
-104.76285305,40.81533781,1638.57
-104.76285281,40.81540600,1638.55
-104.76285272,40.81543186,1638.34
-104.76285145,40.81578643,1640.25
-104.76285143,40.81579418,1640.28
-104.76285132,40.81582265,1640.44
-104.76285055,40.81603912,1641.67
-104.76285010,40.81616704,1642.57
-104.76284984,40.81624010,1643.01
-104.76284953,40.81632532,1643.81
-104.76284824,40.81668872,1646.02
-104.76284766,40.81685159,1646.28
-104.76284745,40.81691033,1646.28
-104.76284709,40.81701140,1646.17
-104.76284667,40.81712923,1646.07
-104.76284660,40.81714941,1646.09
-104.76284656,40.81716004,1646.06
-104.76284647,40.81718481,1646.05
-104.76284625,40.81724796,1645.98
-104.76284615,40.81727670,1646.00
-104.76284613,40.81728219,1646.02
-104.76284587,40.81735327,1646.05
     </coordinates>
    </LineString>
   </MultiGeometry>
  </Placemark>
 </Document>
</kml>
