<kml>
 <Document>
  <Style id="yellow">
   <LineStyle>
   <color>ff00ffff</color>
   <width>1</width>
   </LineStyle>
  </Style>
  <Style id="red">
   <LineStyle>
   <color>ffff0000</color>
   <width>2</width>
   </LineStyle>
  </Style>
  <Style id="green">
   <LineStyle>
   <color>ff00ff00</color>
   <width>1</width>
   </LineStyle>
  </Style>
  <Placemark>
  <styleUrl>#yellow</styleUrl>
   <MultiGeometry>
    <LineString>
     <coordinates>
-104.76811796,40.81277919,1647.09
-104.76853414,40.81278012,1647.44
-104.76858239,40.81278021,1647.46
-104.76880222,40.81278066,1647.78
-104.76886032,40.81278077,1647.86
-104.76898920,40.81278103,1648.05
-104.76908560,40.81278122,1648.23
-104.76940893,40.81278187,1648.85
-104.76961370,40.81278228,1649.29
-104.76963789,40.81278233,1649.36
-104.76987182,40.81278279,1649.63
-104.76997699,40.81278300,1649.72
-104.77003900,40.81278313,1649.68
-104.77005525,40.81278316,1649.67
-104.77009212,40.81278323,1649.64
-104.77026025,40.81278357,1649.47
-104.77026630,40.81278358,1649.45
-104.77035878,40.81278376,1649.42
-104.77047095,40.81278399,1649.40
-104.77074235,40.81278453,1649.51
-104.77077709,40.81278460,1649.53
-104.77097474,40.81278499,1649.46
-104.77113469,40.81278531,1649.04
-104.77123512,40.81278550,1648.68
-104.77134100,40.81278571,1648.16
-104.77134290,40.81278572,1648.18
-104.77155881,40.81278615,1646.85
-104.77161062,40.81278625,1646.48
-104.77166754,40.81278636,1646.03
-104.77173014,40.81278649,1645.57
-104.77176595,40.81278656,1645.36
-104.77180424,40.81278663,1645.12
-104.77191949,40.81278686,1644.40
-104.77197735,40.81278697,1644.10
-104.77211430,40.81278724,1643.54
-104.77219220,40.81278740,1643.14
-104.77265343,40.81278831,1641.15
-104.77307719,40.81278914,1639.69
-104.77329121,40.81278956,1639.36
-104.77373145,40.81279043,1639.76
-104.77418746,40.81279132,1641.10
-104.77440824,40.81279175,1641.91
-104.77461052,40.81279206,1642.81
-104.77463530,40.81279130,1642.92
-104.77466992,40.81279019,1643.10
-104.77470977,40.81278892,1643.26
-104.77471499,40.81278875,1643.30
-104.77471803,40.81276623,1643.42
-104.77471910,40.81272831,1643.60
-104.77471943,40.81263057,1644.06
-104.77472040,40.81234437,1645.14
-104.77472080,40.81222690,1645.40
-104.77472122,40.81210321,1645.18
-104.77472183,40.81192196,1645.54
-104.77472226,40.81179341,1645.54
-104.77472324,40.81150460,1645.99
-104.77472331,40.81148298,1646.05
-104.77472337,40.81146550,1646.13
-104.77472350,40.81142920,1646.20
-104.77472369,40.81137064,1646.38
-104.77472403,40.81127047,1646.76
-104.77472409,40.81125416,1646.79
-104.77472419,40.81122362,1646.89
-104.77472433,40.81118426,1647.04
-104.77472444,40.81115111,1647.15
-104.77472462,40.81109697,1647.32
-104.77472470,40.81107363,1647.40
-104.77472501,40.81098121,1647.52
-104.77472624,40.81058177,1646.63
-104.77472748,40.81025062,1645.69
-104.77472765,40.81020234,1645.73
-104.77472772,40.81018063,1645.78
-104.77472817,40.81004703,1647.55
-104.77472835,40.80992532,1649.10
-104.77472851,40.80980587,1650.95
-104.77473014,40.80942923,1649.45
-104.77473051,40.80935590,1648.93
-104.77473104,40.80919735,1647.52
-104.77473199,40.80891908,1646.00
-104.77473260,40.80873630,1645.36
-104.77473342,40.80849505,1644.57
-104.77473343,40.80849280,1644.59
-104.77473360,40.80844073,1644.40
-104.77473401,40.80832065,1644.00
-104.77473420,40.80826317,1643.92
-104.77473504,40.80798058,1644.07
-104.77473652,40.80757907,1644.36
-104.77473768,40.80723513,1642.75
-104.77473881,40.80686722,1641.13
-104.77474001,40.80654715,1641.65
-104.77474120,40.80619564,1644.90
-104.77474195,40.80597268,1646.43
-104.77474286,40.80570314,1646.87
-104.77474360,40.80548460,1646.43
-104.77474396,40.80537839,1645.76
-104.77474453,40.80520876,1645.06
-104.77474465,40.80517354,1645.02
-104.77474592,40.80479770,1646.46
-104.77474644,40.80464330,1647.32
-104.77474748,40.80433602,1649.69
-104.77474787,40.80422053,1650.47
-104.77474838,40.80407108,1651.43
-104.77474884,40.80379344,1653.38
-104.77474637,40.80378947,1653.41
-104.77469208,40.80378738,1653.36
-104.77460234,40.80378396,1653.25
-104.77459713,40.80378377,1653.22
-104.77448569,40.80378346,1652.85
-104.77431580,40.80378313,1652.49
-104.77372648,40.80378198,1652.22
-104.77327705,40.80378110,1651.31
-104.77311535,40.80378078,1650.11
-104.77297711,40.80378051,1649.07
-104.77279917,40.80378016,1648.33
-104.77250871,40.80377958,1647.61
-104.77218187,40.80377894,1647.20
-104.77211228,40.80377880,1647.12
-104.77201447,40.80377861,1647.05
-104.77199029,40.80377856,1647.00
-104.77168893,40.80377805,1645.64
-104.77129628,40.80377719,1643.56
-104.77118449,40.80377697,1643.12
-104.77105112,40.80377670,1642.69
-104.77090885,40.80377642,1642.55
-104.77082658,40.80377625,1642.49
-104.77065954,40.80377592,1642.23
-104.77065255,40.80377591,1642.18
-104.77050139,40.80377561,1641.80
-104.76995107,40.80377451,1640.84
-104.76982019,40.80377425,1640.89
-104.76975013,40.80377411,1641.00
-104.76942257,40.80377346,1641.41
-104.76929145,40.80377320,1640.97
-104.76871695,40.80377205,1638.41
-104.76861701,40.80377185,1638.12
-104.76857705,40.80377177,1638.01
-104.76844700,40.80377150,1637.63
-104.76842780,40.80377147,1637.54
-104.76827238,40.80377115,1637.00
-104.76813248,40.80377087,1636.60
-104.76785697,40.80377032,1635.81
-104.76737636,40.80376935,1634.60
-104.76708330,40.80376876,1633.81
-104.76693618,40.80376846,1633.29
-104.76675408,40.80376809,1632.65
-104.76663553,40.80376785,1632.17
-104.76646458,40.80376751,1631.39
-104.76628936,40.80376715,1630.68
-104.76614437,40.80376686,1630.32
-104.76599879,40.80376657,1630.30
-104.76584799,40.80376626,1630.64
-104.76550845,40.80376557,1630.62
-104.76505464,40.80376465,1630.56
-104.76458956,40.80376370,1630.81
-104.76444398,40.80376340,1630.80
-104.76443425,40.80376338,1630.81
-104.76442963,40.80376337,1630.84
-104.76442477,40.80376336,1630.89
-104.76441979,40.80376335,1630.89
-104.76441955,40.80376335,1630.90
-104.76441458,40.80376334,1630.90
-104.76441007,40.80376333,1630.93
-104.76440497,40.80376332,1630.92
-104.76439999,40.80376331,1630.94
-104.76439478,40.80376330,1630.96
-104.76439039,40.80376329,1630.95
-104.76438553,40.80376328,1630.97
-104.76438091,40.80376327,1631.00
-104.76437616,40.80376326,1631.00
-104.76437119,40.80376325,1631.01
-104.76436656,40.80376324,1631.00
-104.76436135,40.80376323,1631.01
-104.76435672,40.80376322,1631.01
-104.76435198,40.80376321,1631.00
-104.76434712,40.80376320,1631.03
-104.76434202,40.80376319,1631.04
-104.76433740,40.80376318,1631.06
-104.76433218,40.80376317,1631.08
-104.76432732,40.80376316,1631.07
-104.76432222,40.80376315,1631.08
-104.76431748,40.80376314,1631.09
-104.76431274,40.80376313,1631.09
-104.76430812,40.80376312,1631.12
-104.76430361,40.80376312,1631.12
-104.76413811,40.80376278,1631.35
-104.76354557,40.80376733,1631.37
-104.76343899,40.80376693,1631.17
-104.76343389,40.80376692,1631.15
-104.76342891,40.80376691,1631.16
-104.76342429,40.80376690,1631.13
-104.76341967,40.80376689,1631.13
-104.76341493,40.80376688,1631.11
-104.76341030,40.80376687,1631.09
-104.76340532,40.80376686,1631.09
-104.76340070,40.80376685,1631.09
-104.76339548,40.80376684,1631.10
-104.76339086,40.80376683,1631.09
-104.76338624,40.80376682,1631.08
-104.76338114,40.80376681,1631.08
-104.76337616,40.80376680,1631.07
-104.76337142,40.80376679,1631.06
-104.76336644,40.80376678,1631.06
-104.76336146,40.80376677,1631.05
-104.76335648,40.80376676,1631.03
-104.76335174,40.80376675,1631.01
-104.76334711,40.80376674,1631.00
-104.76334249,40.80376673,1630.99
-104.76333787,40.80376672,1630.98
-104.76333265,40.80376671,1630.96
-104.76332803,40.80376670,1630.97
-104.76332293,40.80376669,1630.95
-104.76331831,40.80376668,1630.94
-104.76331368,40.80376667,1630.95
-104.76330858,40.80376666,1630.95
-104.76330360,40.80376665,1630.95
-104.76329898,40.80376664,1630.94
-104.76329388,40.80376663,1630.91
-104.76328890,40.80376662,1630.91
-104.76328381,40.80376661,1630.91
-104.76327918,40.80376660,1630.91
-104.76327456,40.80376659,1630.93
-104.76326982,40.80376658,1630.91
-104.76326519,40.80376657,1630.90
-104.76326010,40.80376656,1630.88
-104.76325547,40.80376655,1630.89
-104.76325037,40.80376654,1630.88
-104.76324575,40.80376653,1630.91
-104.76324113,40.80376653,1630.91
-104.76323615,40.80376651,1630.89
-104.76323105,40.80376650,1630.91
-104.76322631,40.80376649,1630.85
-104.76322133,40.80376648,1630.86
-104.76321635,40.80376647,1630.85
-104.76321125,40.80376646,1630.85
-104.76320651,40.80376645,1630.85
-104.76320201,40.80376644,1630.82
-104.76319714,40.80376643,1630.83
-104.76307587,40.80376610,1630.50
-104.76290693,40.80376557,1630.32
-104.76290171,40.80376556,1630.30
-104.76289673,40.80376555,1630.30
-104.76289638,40.80376573,1630.30
-104.76289541,40.80377095,1630.32
-104.76289433,40.80380851,1630.29
-104.76289383,40.80388292,1630.34
-104.76289327,40.80403922,1630.44
-104.76289296,40.80412588,1630.46
-104.76289195,40.80440974,1630.85
-104.76289188,40.80442983,1630.84
-104.76289181,40.80444892,1630.88
-104.76289178,40.80445937,1630.86
-104.76289115,40.80463594,1631.03
-104.76289101,40.80467423,1631.07
-104.76289025,40.80488773,1631.14
-104.76289009,40.80493286,1631.22
-104.76288995,40.80497142,1631.25
-104.76288971,40.80503916,1631.28
-104.76288945,40.80511258,1631.35
-104.76288877,40.80530329,1631.59
-104.76288823,40.80545571,1631.80
-104.76288804,40.80550994,1631.87
-104.76288795,40.80553472,1631.90
-104.76288780,40.80557733,1631.92
-104.76288738,40.80569498,1632.27
-104.76288718,40.80575092,1632.47
-104.76288716,40.80575740,1632.46
-104.76288612,40.80604784,1633.02
-104.76288576,40.80615026,1633.19
-104.76288546,40.80623512,1633.29
-104.76288534,40.80626846,1633.31
-104.76288527,40.80628746,1633.31
-104.76288527,40.80628881,1633.31
-104.76288497,40.80637142,1633.31
-104.76288484,40.80640872,1633.32
-104.76288476,40.80643142,1633.36
-104.76288473,40.80644043,1633.35
-104.76288442,40.80652682,1633.36
-104.76288433,40.80655105,1633.36
-104.76288363,40.80674789,1633.34
-104.76288343,40.80680401,1633.41
-104.76288261,40.80703454,1633.44
-104.76288196,40.80721741,1633.67
-104.76288145,40.80736019,1633.96
-104.76288127,40.80741190,1634.09
-104.76288046,40.80763900,1634.55
-104.76287975,40.80783719,1634.91
-104.76287948,40.80791331,1634.96
-104.76287874,40.80815411,1635.13
-104.76287770,40.80841319,1634.94
-104.76287760,40.80844256,1634.97
-104.76287693,40.80863065,1635.13
-104.76287535,40.80907585,1636.34
-104.76287520,40.80911756,1636.53
-104.76287493,40.80919116,1636.76
-104.76287427,40.80937665,1637.35
-104.76287357,40.80957555,1637.99
-104.76287342,40.80961564,1638.02
-104.76287266,40.80983121,1638.28
-104.76287243,40.80989607,1638.27
-104.76287179,40.81007318,1638.04
-104.76287144,40.81017362,1637.98
-104.76287126,40.81022470,1637.96
-104.76287117,40.81024821,1637.93
-104.76287086,40.81033587,1637.95
-104.76287067,40.81039019,1637.93
-104.76287060,40.81041019,1637.92
-104.76286993,40.81059828,1638.08
-104.76286942,40.81074089,1637.98
-104.76286921,40.81079845,1638.06
-104.76286814,40.81110059,1638.21
-104.76286774,40.81121149,1638.19
-104.76286774,40.81121311,1638.18
-104.76286763,40.81124446,1638.31
-104.76286758,40.81125590,1638.29
-104.76286675,40.81148931,1638.66
-104.76286656,40.81154273,1638.57
-104.76286555,40.81189451,1640.18
-104.76286424,40.81219404,1640.02
-104.76286351,40.81240151,1639.41
-104.76286321,40.81248402,1639.18
-104.76286258,40.81269572,1639.05
-104.76286260,40.81272266,1639.06
-104.76286277,40.81274085,1639.08
-104.76286327,40.81276680,1639.05
-104.76303709,40.81276896,1639.87
-104.76324458,40.81276939,1640.95
-104.76330481,40.81276951,1641.25
-104.76376474,40.81277045,1642.93
-104.76378893,40.81277014,1643.04
-104.76437465,40.81277161,1643.61
-104.76442303,40.81277180,1643.67
-104.76442813,40.81277181,1643.67
-104.76450437,40.81277196,1643.78
-104.76494236,40.81277286,1644.47
-104.76522799,40.81277344,1645.17
-104.76533138,40.81277365,1645.41
-104.76548421,40.81277396,1645.86
-104.76580126,40.81277460,1646.90
-104.76600401,40.81277501,1647.61
-104.76621305,40.81277544,1648.23
-104.76639671,40.81277581,1648.40
-104.76650437,40.81277603,1648.42
-104.76650769,40.81277603,1648.43
-104.76651267,40.81277604,1648.42
-104.76679285,40.81277661,1648.26
-104.76696785,40.81277696,1648.00
-104.76706069,40.81277715,1647.90
-104.76706543,40.81277716,1647.91
-104.76746548,40.81277797,1647.27
-104.76753686,40.81277811,1647.19
-104.76762401,40.81277829,1647.12
-104.76763776,40.81277832,1647.13
-104.76764345,40.81277833,1647.05
-104.76811796,40.81277919,1647.09
     </coordinates>
    </LineString>
   </MultiGeometry>
  </Placemark>
 </Document>
</kml>
