<kml>
 <Document>
  <Style id="yellow">
   <LineStyle>
   <color>ff00ffff</color>
   <width>1</width>
   </LineStyle>
  </Style>
  <Style id="red">
   <LineStyle>
   <color>ffff0000</color>
   <width>2</width>
   </LineStyle>
  </Style>
  <Style id="green">
   <LineStyle>
   <color>ff00ff00</color>
   <width>1</width>
   </LineStyle>
  </Style>
  <Placemark>
  <styleUrl>#yellow</styleUrl>
   <MultiGeometry>
    <LineString>
     <coordinates>
-104.75626864,40.80374633,1640.64
-104.75639466,40.80374660,1640.71
-104.75656679,40.80374696,1640.62
-104.75657201,40.80374697,1640.61
-104.75708937,40.80374806,1640.11
-104.75736441,40.80374864,1639.77
-104.75778076,40.80374952,1639.38
-104.75794022,40.80374985,1639.01
-104.75794911,40.80374987,1638.99
-104.75795373,40.80374988,1638.98
-104.75808461,40.80375015,1638.22
-104.75866504,40.80375128,1633.94
-104.75913261,40.80375235,1631.49
-104.75913771,40.80375236,1631.49
-104.75925697,40.80375252,1631.26
-104.75984630,40.80375203,1630.86
-104.75985187,40.80375204,1630.85
-104.75985756,40.80375206,1630.86
-104.75986278,40.80375207,1630.84
-104.75986811,40.80375208,1630.85
-104.76001061,40.80375246,1630.60
-104.76015181,40.80375285,1630.19
-104.76063087,40.80375546,1629.86
-104.76063585,40.80375547,1629.91
-104.76064083,40.80375549,1629.94
-104.76064545,40.80375549,1629.97
-104.76114124,40.80375535,1630.08
-104.76128196,40.80375573,1629.89
-104.76145718,40.80375618,1629.65
-104.76163169,40.80375664,1629.39
-104.76206002,40.80375842,1628.95
-104.76206464,40.80375843,1629.04
-104.76206950,40.80375844,1629.15
-104.76207448,40.80375845,1629.25
-104.76207922,40.80375846,1629.31
-104.76208420,40.80375847,1629.39
-104.76258354,40.80375887,1630.26
-104.76276931,40.80375934,1630.27
-104.76277394,40.80375935,1630.29
-104.76277903,40.80375936,1630.28
-104.76278378,40.80375937,1630.31
-104.76278840,40.80375938,1630.30
-104.76279326,40.80375939,1630.31
-104.76279777,40.80375940,1630.32
-104.76280286,40.80375941,1630.31
-104.76280784,40.80375942,1630.33
-104.76281306,40.80375943,1630.33
-104.76281756,40.80375944,1630.32
-104.76282266,40.80375945,1630.34
-104.76282776,40.80375946,1630.29
-104.76283250,40.80375947,1630.31
-104.76283713,40.80375948,1630.31
-104.76284222,40.80375949,1630.31
-104.76284696,40.80375950,1630.30
-104.76285194,40.80375951,1630.32
-104.76285680,40.80375952,1630.34
-104.76286131,40.80375953,1630.30
-104.76286605,40.80375954,1630.33
-104.76287068,40.80375955,1630.31
-104.76287589,40.80375956,1630.31
-104.76288075,40.80375957,1630.30
-104.76288585,40.80375958,1630.30
-104.76289059,40.80375959,1630.30
-104.76289370,40.80375374,1630.29
-104.76289383,40.80374879,1630.29
-104.76289460,40.80363213,1630.38
-104.76289462,40.80362816,1630.42
-104.76289490,40.80354907,1630.25
-104.76289494,40.80353754,1630.24
-104.76289515,40.80347808,1630.12
-104.76289559,40.80335575,1629.96
-104.76289572,40.80331818,1629.93
-104.76289615,40.80319675,1629.72
-104.76289629,40.80315873,1629.68
-104.76289642,40.80312270,1629.67
-104.76289671,40.80304099,1629.54
-104.76289761,40.80278695,1629.39
-104.76289796,40.80268741,1629.27
-104.76289841,40.80256120,1629.22
-104.76289888,40.80243067,1629.15
-104.76289890,40.80242571,1629.16
-104.76289933,40.80230428,1629.13
-104.76290080,40.80189043,1629.02
-104.76290091,40.80185854,1629.00
-104.76290106,40.80181854,1628.93
-104.76290125,40.80176431,1628.85
-104.76290176,40.80162036,1628.84
-104.76290218,40.80150225,1628.63
-104.76290236,40.80145208,1628.51
-104.76290337,40.80116876,1628.09
-104.76290379,40.80101571,1627.88
-104.76290515,40.80066942,1627.18
-104.76290616,40.80038556,1625.74
-104.76290620,40.80037214,1625.73
-104.76290667,40.80024206,1626.39
-104.76290670,40.80023170,1626.46
-104.76290723,40.80008306,1626.80
-104.76290753,40.79999820,1626.74
-104.76290824,40.79979920,1626.54
-104.76290839,40.79975650,1626.45
-104.76290876,40.79965290,1625.97
-104.76290929,40.79950562,1625.30
-104.76290961,40.79941328,1624.92
-104.76290978,40.79936734,1624.85
-104.76290990,40.79933202,1624.81
-104.76291009,40.79928031,1624.72
-104.76291068,40.79911483,1624.44
-104.76291139,40.79891448,1624.26
-104.76291170,40.79882800,1623.10
-104.76291178,40.79880359,1623.17
-104.76291197,40.79875179,1623.25
-104.76291203,40.79873512,1623.58
-104.76291221,40.79868314,1624.32
-104.76291274,40.79853585,1624.27
-104.76291282,40.79851207,1624.26
-104.76291308,40.79844054,1623.38
-104.76291386,40.79822092,1623.90
-104.76291394,40.79819786,1624.01
-104.76291419,40.79812660,1624.08
-104.76291426,40.79810624,1624.08
-104.76291437,40.79807552,1624.06
-104.76291482,40.79794886,1623.79
-104.76291541,40.79778301,1623.40
-104.76291561,40.79772788,1623.39
-104.76291577,40.79768356,1623.34
-104.76291592,40.79764095,1623.23
-104.76291605,40.79760348,1622.95
-104.76291623,40.79755312,1622.62
-104.76291663,40.79744060,1622.76
-104.76291668,40.79742745,1622.60
-104.76291728,40.79725818,1623.03
-104.76291730,40.79725205,1623.03
-104.76291733,40.79724341,1623.02
-104.76291753,40.79718800,1623.03
-104.76291762,40.79716449,1623.03
-104.76291763,40.79716080,1623.02
-104.76291791,40.79708206,1623.03
-104.76291847,40.79692424,1622.87
-104.76291865,40.79687433,1622.81
-104.76291878,40.79683730,1622.78
-104.76291880,40.79683136,1622.77
-104.76291911,40.79674380,1622.43
-104.76291987,40.79653138,1623.53
-104.76292000,40.79649399,1624.02
-104.76292010,40.79646616,1624.34
-104.76292062,40.79631968,1624.32
-104.76292065,40.79631265,1624.29
-104.76292068,40.79630256,1624.28
-104.76292142,40.79609645,1623.97
-104.76292156,40.79605438,1623.85
-104.76292185,40.79597555,1623.67
-104.76292199,40.79593357,1623.53
-104.76292208,40.79591042,1623.45
-104.76292327,40.79557567,1622.94
-104.76292422,40.79530911,1624.75
-104.76292450,40.79523046,1624.88
-104.76292547,40.79495579,1624.65
-104.76292574,40.79488057,1624.60
-104.76292614,40.79476923,1624.56
-104.76292570,40.79475743,1624.56
-104.76292465,40.79475265,1624.54
-104.76283149,40.79475156,1624.47
-104.76282698,40.79475155,1624.47
-104.76274839,40.79475139,1624.44
-104.76251666,40.79475091,1624.15
-104.76226240,40.79475039,1623.83
-104.76225754,40.79475038,1623.80
-104.76224616,40.79475035,1623.72
-104.76204074,40.79474993,1623.12
-104.76188759,40.79474961,1622.29
-104.76188273,40.79474960,1622.29
-104.76165217,40.79474913,1621.68
-104.76162266,40.79474907,1621.64
-104.76161792,40.79474906,1621.61
-104.76146394,40.79474874,1621.30
-104.76145920,40.79474873,1621.31
-104.76120103,40.79474819,1621.37
-104.76114128,40.79474807,1621.24
-104.76113642,40.79474806,1621.23
-104.76105487,40.79474789,1620.96
-104.76081081,40.79474739,1622.48
-104.76080583,40.79474738,1622.58
-104.76064569,40.79474704,1622.63
-104.76058500,40.79474692,1622.65
-104.76041466,40.79474656,1622.70
-104.76026519,40.79474625,1622.74
-104.76006059,40.79474583,1622.87
-104.76001519,40.79474573,1622.93
-104.76000464,40.79474571,1622.95
-104.75988575,40.79474546,1623.01
-104.75965876,40.79474499,1623.70
-104.75953406,40.79474473,1624.57
-104.75933551,40.79474432,1626.05
-104.75913305,40.79474390,1626.93
-104.75908291,40.79474379,1627.13
-104.75907757,40.79474378,1627.14
-104.75896947,40.79474355,1627.53
-104.75880162,40.79474320,1628.37
-104.75864255,40.79474287,1628.96
-104.75850303,40.79474258,1629.47
-104.75838888,40.79474234,1629.92
-104.75838355,40.79474233,1629.98
-104.75837809,40.79474232,1629.94
-104.75831539,40.79474219,1630.31
-104.75823087,40.79474201,1630.69
-104.75803185,40.79474159,1631.63
-104.75788629,40.79474129,1632.14
-104.75777060,40.79474104,1632.31
-104.75766937,40.79474083,1632.40
-104.75756245,40.79474061,1632.32
-104.75752736,40.79474053,1632.29
-104.75752238,40.79474052,1632.29
-104.75751705,40.79474051,1632.27
-104.75721549,40.79473988,1632.27
-104.75708238,40.79473960,1632.22
-104.75699869,40.79473942,1632.22
-104.75689474,40.79473920,1632.19
-104.75684626,40.79473910,1632.20
-104.75684104,40.79473909,1632.20
-104.75683559,40.79473908,1632.21
-104.75678557,40.79473897,1632.15
-104.75668031,40.79473875,1632.10
-104.75656485,40.79473851,1632.06
-104.75648069,40.79473833,1632.05
-104.75644252,40.79473825,1632.06
-104.75631593,40.79473798,1632.13
-104.75622465,40.79473779,1632.24
-104.75601212,40.79473734,1632.63
-104.75596636,40.79473724,1632.69
-104.75596162,40.79473723,1632.69
-104.75595676,40.79473722,1632.70
-104.75595190,40.79473721,1632.72
-104.75594123,40.79473719,1632.76
-104.75584510,40.79473699,1633.05
-104.75575952,40.79473680,1633.23
-104.75567275,40.79473662,1633.56
-104.75548629,40.79473623,1633.58
-104.75490310,40.79473499,1634.18
-104.75489836,40.79473498,1634.16
-104.75489326,40.79473497,1634.19
-104.75486303,40.79473490,1634.21
-104.75435392,40.79473382,1634.95
-104.75400317,40.79473307,1635.47
-104.75399784,40.79473306,1635.47
-104.75399322,40.79473305,1635.48
-104.75398788,40.79473304,1635.48
-104.75372687,40.79473248,1635.75
-104.75321064,40.79473138,1636.84
-104.75320543,40.79473137,1636.87
-104.75320069,40.79473136,1636.87
-104.75319535,40.79473135,1636.87
-104.75268612,40.79473026,1638.17
-104.75236264,40.79472956,1639.41
-104.75226188,40.79472935,1639.93
-104.75215627,40.79472912,1640.37
-104.75215141,40.79472911,1640.38
-104.75214595,40.79472910,1640.39
-104.75203263,40.79472886,1640.88
-104.75183551,40.79472843,1641.67
-104.75172693,40.79472820,1641.95
-104.75162369,40.79472798,1642.10
-104.75149685,40.79472770,1642.42
-104.75130032,40.79472728,1642.76
-104.75118605,40.79472703,1642.85
-104.75118036,40.79472702,1642.83
-104.75117515,40.79472701,1642.84
-104.75110011,40.79472685,1642.94
-104.75107285,40.79472733,1643.01
-104.75107212,40.79489164,1642.57
-104.75107208,40.79490245,1642.50
-104.75107193,40.79494146,1642.41
-104.75107121,40.79513388,1642.35
-104.75107081,40.79524180,1642.44
-104.75106915,40.79568646,1643.48
-104.75106890,40.79575114,1643.60
-104.75106803,40.79598428,1643.84
-104.75106736,40.79616472,1643.24
-104.75106700,40.79626192,1642.85
-104.75106686,40.79629760,1642.68
-104.75106574,40.79659884,1640.76
-104.75106567,40.79661812,1640.72
-104.75106543,40.79668217,1640.64
-104.75106511,40.79676829,1640.63
-104.75106504,40.79678694,1640.64
-104.75106502,40.79679099,1640.64
-104.75106411,40.79703521,1641.69
-104.75106353,40.79719052,1642.53
-104.75106294,40.79734880,1643.18
-104.75106263,40.79743014,1643.35
-104.75106230,40.79752059,1643.71
-104.75106220,40.79754590,1643.85
-104.75106180,40.79765355,1644.14
-104.75106174,40.79766842,1644.23
-104.75106166,40.79769049,1644.33
-104.75106165,40.79769256,1644.32
-104.75106141,40.79775751,1644.56
-104.75106108,40.79784480,1644.83
-104.75106049,40.79800461,1645.45
-104.75106047,40.79800948,1645.52
-104.75106014,40.79809749,1645.48
-104.75105913,40.79843062,1645.95
-104.75105825,40.79863412,1645.87
-104.75105788,40.79873376,1646.15
-104.75105623,40.79914301,1647.45
-104.75105603,40.79919859,1647.52
-104.75105582,40.79925436,1647.49
-104.75105548,40.79934498,1647.38
-104.75105504,40.79946173,1646.97
-104.75105386,40.79981117,1645.34
-104.75105277,40.80007151,1644.00
-104.75105237,40.80017863,1643.45
-104.75105233,40.80018808,1643.42
-104.75105168,40.80042501,1642.91
-104.75105020,40.80075715,1642.66
-104.75105008,40.80079147,1642.73
-104.75104982,40.80086012,1642.61
-104.75104827,40.80127369,1643.70
-104.75104814,40.80130838,1643.73
-104.75104708,40.80159395,1644.38
-104.75104698,40.80162106,1644.53
-104.75104601,40.80188078,1645.99
-104.75104570,40.80196293,1646.16
-104.75104485,40.80222310,1645.42
-104.75104392,40.80243795,1645.12
-104.75104370,40.80249740,1645.11
-104.75104363,40.80251560,1645.12
-104.75104305,40.80267082,1645.31
-104.75104214,40.80294684,1646.41
-104.75104145,40.80313061,1647.57
-104.75103974,40.80355734,1645.52
-104.75103945,40.80369832,1644.23
-104.75103986,40.80371697,1644.09
-104.75104074,40.80373499,1644.01
-104.75132621,40.80373579,1644.53
-104.75145413,40.80373606,1644.93
-104.75159342,40.80373636,1645.32
-104.75172478,40.80373664,1645.76
-104.75193485,40.80373710,1646.45
-104.75193960,40.80373711,1646.46
-104.75208897,40.80373743,1646.71
-104.75218393,40.80373763,1646.62
-104.75222637,40.80373772,1646.56
-104.75246229,40.80373823,1645.78
-104.75251552,40.80373834,1645.54
-104.75252050,40.80373835,1645.52
-104.75261238,40.80373855,1645.10
-104.75286916,40.80373910,1643.78
-104.75287722,40.80373912,1643.77
-104.75318688,40.80373978,1642.66
-104.75319210,40.80373979,1642.71
-104.75325042,40.80373992,1642.58
-104.75349144,40.80374043,1642.06
-104.75352357,40.80374050,1642.04
-104.75363370,40.80374074,1641.90
-104.75374597,40.80374098,1641.64
-104.75389215,40.80374129,1641.37
-104.75392724,40.80374136,1641.30
-104.75414075,40.80374182,1641.07
-104.75427756,40.80374211,1640.90
-104.75430044,40.80374216,1640.89
-104.75452853,40.80374264,1640.63
-104.75466001,40.80374292,1640.60
-104.75478828,40.80374320,1640.63
-104.75479492,40.80374321,1640.62
-104.75493979,40.80374352,1640.65
-104.75505051,40.80374375,1640.68
-104.75532627,40.80374434,1640.84
-104.75546628,40.80374463,1640.66
-104.75559230,40.80374490,1640.63
-104.75571405,40.80374516,1640.55
-104.75586022,40.80374547,1640.54
-104.75612175,40.80374602,1640.57
-104.75626864,40.80374633,1640.64
     </coordinates>
    </LineString>
   </MultiGeometry>
  </Placemark>
 </Document>
</kml>
