<kml>
 <Document>
  <Style id="yellow">
   <LineStyle>
   <color>ff00ffff</color>
   <width>1</width>
   </LineStyle>
  </Style>
  <Style id="red">
   <LineStyle>
   <color>ffff0000</color>
   <width>2</width>
   </LineStyle>
  </Style>
  <Style id="green">
   <LineStyle>
   <color>ff00ff00</color>
   <width>1</width>
   </LineStyle>
  </Style>
  <Placemark>
  <styleUrl>#yellow</styleUrl>
   <MultiGeometry>
    <LineString>
     <coordinates>
-104.72738357,40.79028204,1641.22
-104.72738277,40.79047716,1641.22
-104.72738227,40.79059796,1641.29
-104.72738187,40.79069769,1641.37
-104.72738184,40.79070327,1641.37
-104.72738121,40.79085822,1641.41
-104.72738082,40.79095452,1641.56
-104.72738070,40.79098253,1641.54
-104.72738052,40.79102659,1641.54
-104.72738036,40.79106721,1641.66
-104.72738001,40.79115072,1641.95
-104.72737970,40.79122792,1642.24
-104.72737901,40.79139557,1642.31
-104.72737900,40.79139782,1642.32
-104.72737848,40.79152611,1642.16
-104.72737796,40.79165348,1642.03
-104.72737788,40.79167357,1641.96
-104.72737684,40.79192590,1641.27
-104.72737579,40.79218327,1640.90
-104.72737569,40.79220742,1640.94
-104.72737541,40.79227525,1641.01
-104.72737533,40.79229570,1641.04
-104.72737520,40.79232642,1641.08
-104.72737446,40.79250947,1641.21
-104.72737276,40.79292458,1641.08
-104.72737274,40.79293016,1641.05
-104.72737269,40.79294106,1641.00
-104.72737266,40.79294917,1640.95
-104.72737198,40.79311394,1640.17
-104.72737159,40.79321105,1639.60
-104.72737070,40.79342689,1638.31
-104.72737012,40.79356859,1637.84
-104.72736977,40.79365643,1637.54
-104.72736953,40.79371354,1637.29
-104.72736892,40.79386263,1636.87
-104.72736859,40.79394479,1636.73
-104.72736760,40.79418693,1636.35
-104.72736627,40.79451151,1635.70
-104.72736579,40.79462745,1635.41
-104.72736624,40.79466321,1635.25
-104.72736799,40.79467015,1635.24
-104.72736953,40.79467088,1635.23
-104.72746921,40.79467319,1635.70
-104.72747407,40.79467329,1635.74
-104.72753440,40.79467352,1636.04
-104.72763361,40.79467375,1636.55
-104.72771955,40.79467396,1636.90
-104.72773342,40.79467399,1636.99
-104.72801636,40.79467466,1638.65
-104.72806781,40.79467478,1638.97
-104.72820496,40.79467510,1639.90
-104.72827406,40.79467526,1640.37
-104.72852583,40.79467586,1641.82
-104.72881909,40.79467646,1643.48
-104.72913546,40.79467729,1645.07
-104.72927094,40.79467761,1645.76
-104.72935629,40.79467781,1646.19
-104.72944982,40.79467803,1646.78
-104.72985544,40.79467898,1648.98
-104.72994873,40.79467919,1649.30
-104.73011824,40.79467959,1649.88
-104.73027435,40.79467996,1649.90
-104.73037937,40.79468020,1649.64
-104.73038423,40.79468021,1649.60
-104.73046661,40.79468041,1649.34
-104.73089832,40.79468141,1650.52
-104.73090342,40.79468143,1650.56
-104.73098426,40.79468161,1651.08
-104.73118067,40.79468207,1652.22
-104.73134437,40.79468245,1652.77
-104.73134958,40.79468247,1652.76
-104.73139297,40.79468257,1652.89
-104.73157184,40.79468298,1653.18
-104.73175213,40.79468340,1653.10
-104.73181578,40.79468355,1653.08
-104.73195151,40.79468387,1653.02
-104.73217068,40.79468437,1653.00
-104.73233201,40.79468475,1653.07
-104.73233687,40.79468476,1653.07
-104.73241237,40.79468493,1653.16
-104.73256611,40.79468529,1653.40
-104.73281362,40.79468586,1653.36
-104.73284550,40.79468594,1653.39
-104.73285013,40.79468595,1653.41
-104.73301406,40.79468633,1653.45
-104.73325172,40.79468688,1653.50
-104.73325682,40.79468689,1653.49
-104.73383148,40.79468822,1652.86
-104.73383658,40.79468823,1652.86
-104.73390225,40.79468838,1652.94
-104.73402979,40.79468867,1653.09
-104.73429424,40.79468928,1653.56
-104.73429934,40.79468930,1653.58
-104.73434284,40.79468940,1653.73
-104.73470248,40.79469022,1655.45
-104.73499491,40.79469089,1656.84
-104.73512648,40.79469120,1657.71
-104.73527619,40.79469154,1658.59
-104.73545234,40.79469194,1659.21
-104.73554254,40.79469215,1659.46
-104.73561639,40.79469232,1659.55
-104.73580699,40.79469276,1659.69
-104.73603103,40.79469327,1658.99
-104.73603589,40.79469328,1658.96
-104.73630200,40.79469389,1657.92
-104.73647968,40.79469430,1657.40
-104.73657949,40.79469452,1657.16
-104.73683624,40.79469511,1656.32
-104.73696829,40.79469541,1655.83
-104.73697350,40.79469542,1655.80
-104.73720951,40.79469596,1655.01
-104.73755468,40.79469665,1653.74
-104.73793246,40.79469760,1652.29
-104.73826981,40.79469837,1650.84
-104.73864177,40.79469921,1649.33
-104.73881401,40.79469960,1648.85
-104.73895115,40.79469991,1648.59
-104.73900212,40.79470003,1648.51
-104.73915728,40.79470038,1648.48
-104.73916321,40.79470030,1648.46
-104.73921502,40.79469880,1648.45
-104.73921835,40.79469592,1648.40
-104.73921875,40.79468484,1648.40
-104.73921919,40.79463241,1648.11
-104.73921965,40.79454395,1647.74
-104.73921995,40.79446918,1647.39
-104.73922018,40.79440973,1647.06
-104.73922095,40.79421343,1646.23
-104.73922131,40.79412190,1645.93
-104.73922187,40.79397768,1645.47
-104.73922222,40.79388823,1645.23
-104.73922331,40.79358013,1644.41
-104.73922431,40.79335303,1644.14
-104.73922459,40.79328340,1644.05
-104.73922469,40.79325745,1644.02
-104.73922509,40.79315467,1644.02
-104.73922517,40.79313413,1644.01
-104.73922518,40.79313304,1644.01
-104.73922595,40.79293522,1643.88
-104.73922706,40.79265118,1643.74
-104.73922712,40.79263560,1643.70
-104.73922724,40.79260542,1643.64
-104.73922768,40.79249254,1643.57
-104.73922770,40.79248786,1643.58
-104.73922777,40.79247083,1643.54
-104.73922801,40.79240939,1643.48
-104.73922807,40.79239309,1643.47
-104.73922831,40.79233237,1643.53
-104.73922860,40.79225886,1643.60
-104.73922915,40.79211608,1643.69
-104.73922963,40.79199392,1643.85
-104.73922987,40.79193249,1643.96
-104.73923025,40.79183619,1644.14
-104.73923036,40.79180880,1644.19
-104.73923044,40.79178718,1644.22
-104.73923081,40.79169214,1644.53
-104.73923102,40.79163791,1644.73
-104.73923151,40.79151341,1645.17
-104.73923162,40.79148621,1645.22
-104.73923166,40.79147531,1645.26
-104.73923186,40.79142495,1645.51
-104.73923291,40.79112497,1646.78
-104.73923450,40.79074895,1648.60
-104.73923456,40.79073454,1648.69
-104.73923555,40.79048239,1650.07
-104.73923652,40.79023214,1651.36
-104.73923724,40.79004917,1651.63
-104.73923778,40.78991162,1651.77
-104.73923780,40.78990693,1651.77
-104.73923818,40.78980865,1651.93
-104.73923842,40.78974847,1651.99
-104.73923917,40.78955542,1652.33
-104.73923968,40.78942462,1652.62
-104.73924006,40.78932913,1652.79
-104.73924055,40.78920373,1652.45
-104.73924062,40.78918607,1652.34
-104.73924208,40.78881285,1651.08
-104.73924221,40.78877871,1650.95
-104.73924277,40.78863656,1650.33
-104.73924300,40.78857575,1650.04
-104.73924411,40.78829207,1648.82
-104.73924454,40.78818190,1648.30
-104.73924475,40.78812965,1648.02
-104.73924487,40.78809767,1647.82
-104.73924488,40.78809614,1647.83
-104.73924507,40.78804857,1647.59
-104.73924528,40.78799362,1647.30
-104.73924540,40.78796344,1647.16
-104.73924541,40.78795993,1647.13
-104.73924545,40.78795128,1647.08
-104.73924550,40.78793687,1646.99
-104.73924553,40.78792939,1646.96
-104.73924567,40.78789462,1646.80
-104.73924576,40.78787174,1646.67
-104.73924581,40.78785849,1646.62
-104.73924668,40.78763716,1645.55
-104.73924691,40.78757761,1645.18
-104.73924700,40.78755482,1645.03
-104.73924740,40.78745176,1644.33
-104.73924764,40.78739149,1643.91
-104.73924778,40.78735474,1643.75
-104.73924865,40.78713259,1642.61
-104.73924908,40.78702179,1642.05
-104.73924927,40.78697485,1641.81
-104.73924936,40.78695062,1641.68
-104.73924945,40.78692729,1641.54
-104.73924969,40.78686522,1641.20
-104.73924977,40.78684477,1641.14
-104.73925040,40.78668442,1640.31
-104.73925097,40.78653929,1639.67
-104.73925131,40.78645209,1639.35
-104.73925142,40.78642362,1639.26
-104.73925189,40.78630363,1638.94
-104.73925225,40.78621246,1638.71
-104.73925364,40.78585690,1637.61
-104.73925415,40.78569691,1637.51
-104.73925166,40.78569555,1637.53
-104.73923685,40.78569498,1637.51
-104.73922180,40.78569440,1637.55
-104.73918613,40.78569306,1637.64
-104.73915627,40.78569200,1637.69
-104.73901713,40.78569160,1638.14
-104.73886305,40.78569125,1638.63
-104.73861985,40.78569070,1639.39
-104.73861428,40.78569069,1639.40
-104.73841872,40.78569024,1639.85
-104.73826085,40.78568989,1640.12
-104.73813250,40.78568959,1640.41
-104.73796088,40.78568920,1640.95
-104.73751027,40.78568818,1642.45
-104.73716727,40.78568740,1643.37
-104.73671500,40.78568637,1644.88
-104.73636442,40.78568557,1645.87
-104.73623037,40.78568526,1646.14
-104.73601550,40.78568477,1646.30
-104.73601040,40.78568476,1646.32
-104.73600495,40.78568475,1646.34
-104.73600021,40.78568474,1646.33
-104.73599488,40.78568472,1646.31
-104.73598978,40.78568471,1646.33
-104.73598480,40.78568470,1646.33
-104.73589722,40.78568450,1646.34
-104.73574053,40.78568414,1645.97
-104.73525519,40.78568312,1644.30
-104.73509342,40.78568275,1643.70
-104.73496719,40.78568246,1643.29
-104.73446491,40.78568121,1641.65
-104.73400517,40.78568024,1639.74
-104.73385643,40.78567990,1639.23
-104.73326406,40.78568034,1637.16
-104.73322969,40.78568017,1636.90
-104.73319093,40.78567999,1636.61
-104.73315194,40.78567981,1636.31
-104.73311793,40.78567964,1636.08
-104.73307870,40.78567946,1635.76
-104.73304456,40.78567929,1635.52
-104.73300545,40.78567911,1635.21
-104.73296599,40.78567893,1634.81
-104.73292711,40.78567874,1634.44
-104.73262335,40.78567696,1632.74
-104.73261825,40.78567695,1632.75
-104.73249997,40.78567667,1632.88
-104.73249499,40.78567666,1632.86
-104.73249002,40.78567665,1632.86
-104.73248539,40.78567664,1632.85
-104.73248065,40.78567663,1632.88
-104.73247579,40.78567662,1632.86
-104.73247082,40.78567661,1632.89
-104.73202803,40.78567558,1634.18
-104.73202257,40.78567557,1634.16
-104.73153096,40.78567442,1636.11
-104.73152598,40.78567441,1636.12
-104.73094547,40.78567306,1637.49
-104.73094002,40.78567305,1637.50
-104.73035346,40.78567231,1636.63
-104.73032881,40.78567207,1636.66
-104.73028934,40.78567171,1636.64
-104.73027465,40.78567158,1636.66
-104.73025983,40.78567146,1636.64
-104.73025486,40.78567145,1636.63
-104.72997740,40.78567080,1637.06
-104.72997242,40.78567079,1637.06
-104.72996733,40.78567078,1637.08
-104.72996223,40.78567076,1637.08
-104.72995725,40.78567075,1637.08
-104.72995180,40.78567074,1637.08
-104.72959992,40.78566992,1635.00
-104.72959530,40.78566990,1634.94
-104.72959056,40.78566989,1634.89
-104.72902000,40.78567000,1631.11
-104.72897093,40.78566961,1630.84
-104.72895576,40.78566949,1630.78
-104.72890669,40.78566910,1630.47
-104.72887268,40.78566884,1630.27
-104.72880844,40.78566833,1629.85
-104.72875902,40.78566794,1629.62
-104.72875440,40.78566793,1629.59
-104.72874954,40.78566792,1629.56
-104.72842326,40.78566715,1627.34
-104.72828838,40.78566683,1626.72
-104.72813288,40.78566647,1626.60
-104.72812802,40.78566646,1626.62
-104.72812340,40.78566645,1626.63
-104.72799161,40.78566614,1626.70
-104.72766746,40.78566537,1628.57
-104.72750070,40.78566507,1629.84
-104.72740517,40.78566529,1630.75
-104.72740363,40.78566673,1630.78
-104.72740298,40.78568060,1630.89
-104.72740185,40.78581023,1631.87
-104.72740149,40.78589924,1632.81
-104.72740122,40.78596410,1633.55
-104.72740122,40.78596635,1633.55
-104.72740121,40.78596842,1633.56
-104.72740117,40.78597806,1633.65
-104.72740077,40.78607634,1633.42
-104.72739962,40.78635542,1632.82
-104.72739922,40.78645407,1632.79
-104.72739921,40.78645785,1632.77
-104.72739911,40.78648190,1632.68
-104.72739904,40.78649731,1632.72
-104.72739901,40.78650524,1632.69
-104.72739887,40.78654010,1632.66
-104.72739886,40.78654298,1632.68
-104.72739885,40.78654451,1632.66
-104.72739790,40.78677711,1632.22
-104.72739681,40.78704439,1632.64
-104.72739605,40.78722934,1633.80
-104.72739499,40.78748950,1634.72
-104.72739487,40.78751761,1634.65
-104.72739408,40.78771210,1633.73
-104.72739356,40.78783867,1633.93
-104.72739355,40.78784164,1633.94
-104.72739241,40.78811883,1634.71
-104.72739220,40.78817144,1635.03
-104.72739207,40.78820306,1635.21
-104.72739204,40.78821036,1635.22
-104.72739143,40.78835891,1635.90
-104.72739116,40.78842548,1636.27
-104.72739075,40.78852620,1636.94
-104.72739043,40.78860340,1637.35
-104.72739019,40.78866376,1637.70
-104.72738886,40.78898842,1639.16
-104.72738870,40.78902779,1639.29
-104.72738839,40.78910256,1639.47
-104.72738785,40.78923579,1640.15
-104.72738732,40.78939308,1640.68
-104.72738593,40.78970450,1641.27
-104.72738554,40.78979990,1641.40
-104.72738532,40.78985296,1641.45
-104.72738513,40.78989936,1641.38
-104.72738507,40.78991557,1641.41
-104.72738490,40.78995566,1641.38
-104.72738461,40.79002728,1641.35
-104.72738357,40.79028204,1641.22
     </coordinates>
    </LineString>
   </MultiGeometry>
  </Placemark>
 </Document>
</kml>
