<kml>
 <Document>
  <Style id="yellow">
   <LineStyle>
   <color>ff00ffff</color>
   <width>1</width>
   </LineStyle>
  </Style>
  <Style id="red">
   <LineStyle>
   <color>ffff0000</color>
   <width>2</width>
   </LineStyle>
  </Style>
  <Style id="green">
   <LineStyle>
   <color>ff00ff00</color>
   <width>1</width>
   </LineStyle>
  </Style>
  <Placemark>
  <styleUrl>#yellow</styleUrl>
   <MultiGeometry>
    <LineString>
     <coordinates>
-104.76882467,40.79476363,1645.13
-104.76882917,40.79476364,1645.13
-104.76918158,40.79476434,1646.05
-104.76918668,40.79476435,1646.05
-104.76931055,40.79476460,1646.37
-104.76931600,40.79476461,1646.40
-104.76932145,40.79476462,1646.40
-104.76943536,40.79476485,1646.71
-104.76944034,40.79476486,1646.73
-104.76975707,40.79476549,1648.13
-104.76976169,40.79476550,1648.16
-104.76992492,40.79476583,1649.27
-104.77011624,40.79476621,1650.64
-104.77012121,40.79476622,1650.66
-104.77012169,40.79476622,1650.68
-104.77012643,40.79476623,1650.71
-104.77038780,40.79476675,1651.98
-104.77063365,40.79476724,1652.34
-104.77063886,40.79476725,1652.34
-104.77085756,40.79476768,1652.34
-104.77086230,40.79476769,1652.33
-104.77111763,40.79476820,1652.43
-104.77129602,40.79476855,1652.34
-104.77130136,40.79476856,1652.34
-104.77151840,40.79476899,1652.29
-104.77152314,40.79476900,1652.28
-104.77152776,40.79476901,1652.29
-104.77153286,40.79476902,1652.29
-104.77158288,40.79476912,1652.31
-104.77171363,40.79476938,1652.07
-104.77171872,40.79476939,1652.05
-104.77197642,40.79476990,1651.47
-104.77256875,40.79477035,1650.78
-104.77258819,40.79477048,1650.80
-104.77261190,40.79477061,1650.74
-104.77263643,40.79477075,1650.69
-104.77266547,40.79477090,1650.56
-104.77269451,40.79477105,1650.46
-104.77274726,40.79477133,1650.32
-104.77278187,40.79477149,1650.20
-104.77278650,40.79477150,1650.20
-104.77279124,40.79477151,1650.17
-104.77279622,40.79477152,1650.15
-104.77280108,40.79477153,1650.10
-104.77334564,40.79476863,1647.43
-104.77339460,40.79476891,1647.31
-104.77341902,40.79476905,1647.24
-104.77346797,40.79476932,1647.13
-104.77349239,40.79476946,1647.05
-104.77351633,40.79476960,1647.01
-104.77354135,40.79476974,1646.93
-104.77356588,40.79476988,1646.87
-104.77358994,40.79477001,1646.79
-104.77361496,40.79477015,1646.73
-104.77365822,40.79477042,1646.65
-104.77368335,40.79477056,1646.61
-104.77372721,40.79477082,1646.54
-104.77374724,40.79477095,1646.53
-104.77376704,40.79477108,1646.53
-104.77388450,40.79477194,1646.47
-104.77389956,40.79477206,1646.48
-104.77397340,40.79477257,1646.49
-104.77400801,40.79477282,1646.53
-104.77407179,40.79477330,1646.66
-104.77416981,40.79477403,1646.82
-104.77419980,40.79477427,1646.91
-104.77420490,40.79477428,1646.94
-104.77420964,40.79477429,1646.95
-104.77477909,40.79477540,1648.43
-104.77478002,40.79467541,1648.06
-104.77478041,40.79455983,1647.56
-104.77478050,40.79453317,1647.40
-104.77478211,40.79409157,1644.61
-104.77478293,40.79385005,1642.89
-104.77478325,40.79375330,1642.28
-104.77478337,40.79371853,1642.05
-104.77478356,40.79366196,1641.71
-104.77478477,40.79330414,1639.41
-104.77478501,40.79323387,1639.14
-104.77478534,40.79313676,1638.94
-104.77478572,40.79302262,1638.78
-104.77478655,40.79277732,1638.33
-104.77478658,40.79276912,1638.35
-104.77478690,40.79267354,1638.19
-104.77478828,40.79226510,1639.06
-104.77478862,40.79216411,1639.51
-104.77478897,40.79206133,1639.97
-104.77478967,40.79185377,1641.04
-104.77479030,40.79166892,1641.93
-104.77479034,40.79165730,1641.97
-104.77479080,40.79151956,1642.63
-104.77479093,40.79148046,1642.75
-104.77479096,40.79147370,1642.75
-104.77479121,40.79139893,1642.77
-104.77479131,40.79137019,1642.74
-104.77479139,40.79134452,1642.70
-104.77479148,40.79131849,1642.60
-104.77479175,40.79123912,1642.60
-104.77479247,40.79102652,1642.73
-104.77479249,40.79102012,1642.73
-104.77479307,40.79084779,1643.19
-104.77479409,40.79054664,1644.87
-104.77479440,40.79045304,1645.64
-104.77479522,40.79021188,1647.59
-104.77479605,40.78996478,1648.75
-104.77479645,40.78984641,1648.78
-104.77479651,40.78983028,1648.76
-104.77479688,40.78972146,1648.25
-104.77479719,40.78962921,1647.82
-104.77479760,40.78947291,1647.27
-104.77479886,40.78913438,1646.89
-104.77479962,40.78890943,1647.58
-104.77479989,40.78883070,1647.85
-104.77480092,40.78852405,1648.60
-104.77480111,40.78846784,1648.34
-104.77480116,40.78845405,1648.27
-104.77480238,40.78805588,1645.89
-104.77480381,40.78767013,1644.28
-104.77480411,40.78758041,1644.21
-104.77480436,40.78750708,1644.10
-104.77480509,40.78725439,1644.16
-104.77480613,40.78698369,1645.04
-104.77480662,40.78683838,1645.86
-104.77480761,40.78654416,1647.07
-104.77480820,40.78636868,1646.96
-104.77480880,40.78619175,1647.00
-104.77481008,40.78581366,1646.10
-104.77480913,40.78577871,1645.94
-104.77480857,40.78576997,1645.90
-104.77471862,40.78576682,1645.85
-104.77459939,40.78576659,1645.78
-104.77442030,40.78576624,1645.58
-104.77424169,40.78576589,1645.20
-104.77409852,40.78576561,1644.79
-104.77362717,40.78576468,1644.08
-104.77333359,40.78576411,1643.92
-104.77301655,40.78576348,1643.65
-104.77287445,40.78576320,1643.34
-104.77274253,40.78576294,1643.02
-104.77259675,40.78576266,1642.66
-104.77228291,40.78576204,1641.51
-104.77221832,40.78576191,1641.31
-104.77219142,40.78576186,1641.25
-104.77202442,40.78576153,1640.49
-104.77189251,40.78576127,1639.81
-104.77180338,40.78576109,1639.44
-104.77174851,40.78576098,1639.19
-104.77161695,40.78576072,1638.69
-104.77141748,40.78576033,1638.31
-104.77133013,40.78576015,1638.31
-104.77120189,40.78575990,1638.34
-104.77110317,40.78575970,1638.44
-104.77094553,40.78575939,1638.87
-104.77093712,40.78575937,1638.89
-104.77093167,40.78575936,1638.91
-104.77083187,40.78575917,1639.14
-104.77067649,40.78575886,1639.36
-104.77057741,40.78575866,1639.68
-104.77053403,40.78575857,1639.70
-104.77052917,40.78575856,1639.71
-104.77045830,40.78575842,1639.85
-104.77019175,40.78575789,1640.11
-104.77007951,40.78575767,1640.15
-104.76993776,40.78575739,1640.04
-104.76976128,40.78575703,1639.96
-104.76975642,40.78575702,1639.95
-104.76967488,40.78575686,1639.91
-104.76958812,40.78575669,1639.86
-104.76946984,40.78575645,1639.79
-104.76938735,40.78575629,1639.71
-104.76938261,40.78575628,1639.69
-104.76897727,40.78575547,1639.36
-104.76886029,40.78575523,1639.11
-104.76870823,40.78575493,1638.79
-104.76865502,40.78575482,1638.69
-104.76865111,40.78575481,1638.64
-104.76838977,40.78575429,1637.77
-104.76811385,40.78575374,1636.84
-104.76784292,40.78575319,1636.06
-104.76773957,40.78575298,1635.78
-104.76750893,40.78575252,1635.08
-104.76732072,40.78575214,1634.68
-104.76702940,40.78575155,1634.08
-104.76695722,40.78575141,1633.97
-104.76679200,40.78575107,1633.71
-104.76660225,40.78575069,1633.63
-104.76656942,40.78575062,1633.62
-104.76635525,40.78575019,1633.46
-104.76626151,40.78575000,1633.38
-104.76610885,40.78574969,1633.08
-104.76590950,40.78574928,1632.48
-104.76590168,40.78574927,1632.45
-104.76570008,40.78574886,1631.84
-104.76558950,40.78574864,1631.55
-104.76549622,40.78574845,1631.29
-104.76549113,40.78574844,1631.27
-104.76538209,40.78574821,1630.92
-104.76510688,40.78574765,1629.88
-104.76510226,40.78574764,1629.85
-104.76501716,40.78574747,1629.61
-104.76486593,40.78574716,1629.11
-104.76481426,40.78574706,1628.92
-104.76473497,40.78574690,1628.62
-104.76458279,40.78574659,1628.27
-104.76443002,40.78574627,1628.01
-104.76440347,40.78574622,1628.00
-104.76405940,40.78574552,1627.46
-104.76368536,40.78574475,1627.12
-104.76337389,40.78574411,1626.95
-104.76336891,40.78574410,1626.94
-104.76303942,40.78574343,1626.90
-104.76303693,40.78574342,1626.89
-104.76299841,40.78574397,1626.86
-104.76297909,40.78574429,1626.81
-104.76295989,40.78574461,1626.85
-104.76295846,40.78577920,1626.87
-104.76295804,40.78583308,1626.91
-104.76295712,40.78609189,1626.93
-104.76295705,40.78610991,1626.93
-104.76295672,40.78620170,1626.99
-104.76295631,40.78631845,1627.09
-104.76295542,40.78656988,1627.32
-104.76295516,40.78664141,1627.29
-104.76295485,40.78672933,1627.29
-104.76295456,40.78681104,1627.39
-104.76295444,40.78684437,1627.42
-104.76295423,40.78690310,1627.34
-104.76295421,40.78690815,1627.39
-104.76295414,40.78692788,1627.36
-104.76295381,40.78702166,1627.08
-104.76295377,40.78703148,1627.06
-104.76295368,40.78705697,1626.96
-104.76295307,40.78722858,1626.05
-104.76295285,40.78729254,1625.66
-104.76295225,40.78746073,1624.29
-104.76295202,40.78752595,1624.02
-104.76295150,40.78767216,1623.89
-104.76295147,40.78767973,1623.89
-104.76295141,40.78769666,1623.90
-104.76295056,40.78793503,1621.64
-104.76295040,40.78798133,1621.69
-104.76294983,40.78814213,1623.73
-104.76294903,40.78836708,1625.77
-104.76294888,40.78840914,1626.13
-104.76294855,40.78850130,1626.96
-104.76294829,40.78857355,1627.62
-104.76294801,40.78865336,1628.17
-104.76294767,40.78874840,1628.56
-104.76294760,40.78876669,1628.58
-104.76294668,40.78902596,1627.83
-104.76294626,40.78914415,1627.05
-104.76294533,40.78940629,1624.98
-104.76294499,40.78950079,1624.39
-104.76294488,40.78953223,1624.23
-104.76294475,40.78956899,1623.97
-104.76294464,40.78960016,1623.76
-104.76294445,40.78965430,1623.48
-104.76294311,40.79003094,1622.64
-104.76294302,40.79005545,1622.67
-104.76294299,40.79006373,1622.64
-104.76294294,40.79007725,1622.68
-104.76294284,40.79010679,1622.72
-104.76294237,40.79023769,1622.73
-104.76294200,40.79034282,1622.77
-104.76294194,40.79036056,1622.88
-104.76294139,40.79051524,1622.73
-104.76294137,40.79052046,1622.73
-104.76294128,40.79054506,1622.70
-104.76294117,40.79057515,1622.73
-104.76294096,40.79063514,1622.76
-104.76294093,40.79064244,1622.78
-104.76294046,40.79077640,1622.76
-104.76294036,40.79080243,1622.77
-104.76294029,40.79082405,1622.76
-104.76294008,40.79088378,1622.80
-104.76293983,40.79095125,1622.79
-104.76293983,40.79095368,1622.78
-104.76293975,40.79097539,1622.81
-104.76293944,40.79106233,1622.90
-104.76293943,40.79106548,1622.92
-104.76293942,40.79106908,1622.92
-104.76293940,40.79107323,1622.93
-104.76293929,40.79110467,1622.94
-104.76293874,40.79125898,1622.97
-104.76293847,40.79133429,1622.97
-104.76293829,40.79138564,1622.98
-104.76293798,40.79147365,1623.01
-104.76293751,40.79160626,1623.10
-104.76293707,40.79172886,1623.19
-104.76293703,40.79174048,1623.21
-104.76293689,40.79177976,1623.24
-104.76293677,40.79181345,1623.27
-104.76293663,40.79185111,1623.28
-104.76293587,40.79209857,1623.48
-104.76293462,40.79241729,1623.71
-104.76293459,40.79242504,1623.71
-104.76293379,40.79264953,1623.96
-104.76293372,40.79266962,1623.95
-104.76293355,40.79271727,1624.00
-104.76293327,40.79279772,1624.07
-104.76293252,40.79300807,1624.11
-104.76293217,40.79310491,1624.05
-104.76293125,40.79336571,1624.23
-104.76293114,40.79339633,1624.21
-104.76293077,40.79349912,1624.27
-104.76293075,40.79350660,1624.26
-104.76293059,40.79355164,1624.28
-104.76293024,40.79364965,1624.27
-104.76293005,40.79370127,1624.25
-104.76292947,40.79386460,1624.17
-104.76292942,40.79387955,1624.17
-104.76292925,40.79392738,1624.23
-104.76292773,40.79435466,1624.32
-104.76292724,40.79449258,1624.43
-104.76292684,40.79460563,1624.53
-104.76292674,40.79463392,1624.54
-104.76292689,40.79472455,1624.56
-104.76292719,40.79473986,1624.53
-104.76292810,40.79475085,1624.54
-104.76298310,40.79475178,1624.61
-104.76327161,40.79475237,1624.85
-104.76349031,40.79475282,1625.16
-104.76349434,40.79475283,1625.14
-104.76349529,40.79475283,1625.17
-104.76401365,40.79475389,1626.04
-104.76401851,40.79475390,1626.07
-104.76449075,40.79475486,1627.65
-104.76449621,40.79475488,1627.69
-104.76459317,40.79475507,1628.22
-104.76459827,40.79475508,1628.23
-104.76482692,40.79475555,1629.51
-104.76483202,40.79475556,1629.55
-104.76515894,40.79475623,1631.77
-104.76516392,40.79475624,1631.78
-104.76531019,40.79475653,1632.82
-104.76531517,40.79475654,1632.88
-104.76555343,40.79475703,1634.77
-104.76588035,40.79475769,1637.60
-104.76596522,40.79475786,1638.43
-104.76597008,40.79475787,1638.51
-104.76612394,40.79475819,1640.41
-104.76612880,40.79475820,1640.43
-104.76651274,40.79475897,1642.04
-104.76651760,40.79475898,1642.07
-104.76655091,40.79475905,1642.11
-104.76655601,40.79475906,1642.11
-104.76689846,40.79475975,1641.05
-104.76690344,40.79475976,1641.03
-104.76715343,40.79476027,1640.15
-104.76715841,40.79476028,1640.13
-104.76742997,40.79476083,1639.33
-104.76743471,40.79476084,1639.30
-104.76764239,40.79476125,1639.28
-104.76764737,40.79476126,1639.28
-104.76774623,40.79476146,1639.61
-104.76775109,40.79476147,1639.66
-104.76804280,40.79476206,1641.21
-104.76804743,40.79476207,1641.26
-104.76833357,40.79476264,1643.42
-104.76857681,40.79476313,1644.80
-104.76858191,40.79476314,1644.81
-104.76882467,40.79476363,1645.13
     </coordinates>
    </LineString>
   </MultiGeometry>
  </Placemark>
 </Document>
</kml>
