<kml>
 <Document>
  <Style id="yellow">
   <LineStyle>
   <color>ff00ffff</color>
   <width>1</width>
   </LineStyle>
  </Style>
  <Style id="red">
   <LineStyle>
   <color>ffff0000</color>
   <width>2</width>
   </LineStyle>
  </Style>
  <Style id="green">
   <LineStyle>
   <color>ff00ff00</color>
   <width>1</width>
   </LineStyle>
  </Style>
  <Placemark>
  <styleUrl>#yellow</styleUrl>
   <MultiGeometry>
    <LineString>
     <coordinates>
-104.71988500,40.84870622,1649.72
-104.72017150,40.84870692,1649.70
-104.72042466,40.84870753,1649.68
-104.72062633,40.84870802,1649.86
-104.72090464,40.84870869,1649.93
-104.72108651,40.84870913,1649.61
-104.72109220,40.84870915,1649.70
-104.72138712,40.84870986,1649.83
-104.72161750,40.84871041,1649.85
-104.72164763,40.84871049,1649.86
-104.72165250,40.84871050,1649.89
-104.72186117,40.84871100,1650.05
-104.72198989,40.84871131,1650.08
-104.72212572,40.84871164,1650.02
-104.72227413,40.84871200,1649.99
-104.72227887,40.84871201,1650.03
-104.72234210,40.84871216,1650.03
-104.72256050,40.84871269,1650.05
-104.72263394,40.84871286,1650.06
-104.72279599,40.84871325,1650.05
-104.72289255,40.84871348,1650.10
-104.72302685,40.84871381,1650.16
-104.72318712,40.84871419,1650.19
-104.72330100,40.84871446,1650.29
-104.72347670,40.84871489,1650.26
-104.72351976,40.84871499,1650.21
-104.72373709,40.84871551,1650.18
-104.72380756,40.84871568,1650.17
-104.72396143,40.84871605,1650.59
-104.72406048,40.84871628,1650.82
-104.72439242,40.84871708,1651.85
-104.72439716,40.84871709,1651.86
-104.72465851,40.84871771,1652.71
-104.72499032,40.84871850,1653.26
-104.72522319,40.84871906,1653.07
-104.72551289,40.84871975,1652.92
-104.72557600,40.84871990,1652.92
-104.72558110,40.84871991,1652.93
-104.72558644,40.84871992,1652.93
-104.72581303,40.84872046,1652.96
-104.72581766,40.84872047,1652.94
-104.72606773,40.84872107,1653.01
-104.72607236,40.84872108,1653.02
-104.72632208,40.84872167,1653.19
-104.72632718,40.84872168,1653.29
-104.72633204,40.84872169,1653.17
-104.72633276,40.84872170,1653.17
-104.72661403,40.84872236,1653.05
-104.72687277,40.84872298,1653.14
-104.72687751,40.84872299,1653.10
-104.72705676,40.84872341,1653.23
-104.72706139,40.84872342,1653.24
-104.72706649,40.84872343,1653.21
-104.72714065,40.84871938,1653.27
-104.72714352,40.84871515,1653.29
-104.72714376,40.84868524,1653.18
-104.72714497,40.84850697,1652.48
-104.72714540,40.84840058,1651.66
-104.72714588,40.84828419,1650.86
-104.72714595,40.84826653,1650.84
-104.72714631,40.84817897,1650.56
-104.72714653,40.84812690,1650.22
-104.72714671,40.84808078,1650.45
-104.72714794,40.84778224,1650.55
-104.72714889,40.84755109,1650.01
-104.72714959,40.84737912,1649.83
-104.72714970,40.84735281,1649.82
-104.72715052,40.84715337,1649.91
-104.72715097,40.84704239,1649.61
-104.72715103,40.84702878,1649.50
-104.72715116,40.84699680,1649.48
-104.72715161,40.84688798,1649.63
-104.72715240,40.84669358,1649.64
-104.72715313,40.84651648,1649.59
-104.72715342,40.84644558,1649.56
-104.72715399,40.84630730,1649.36
-104.72715462,40.84615425,1649.19
-104.72715528,40.84599282,1649.28
-104.72715568,40.84589517,1649.09
-104.72715617,40.84577437,1648.82
-104.72715674,40.84563753,1648.85
-104.72715690,40.84559816,1648.84
-104.72715730,40.84549943,1648.84
-104.72715776,40.84538809,1648.54
-104.72715841,40.84522990,1648.22
-104.72715850,40.84520639,1648.23
-104.72715867,40.84516567,1648.29
-104.72715889,40.84511225,1647.95
-104.72715904,40.84507523,1647.92
-104.72715942,40.84498181,1647.86
-104.72716015,40.84480452,1648.08
-104.72716034,40.84475930,1647.85
-104.72716107,40.84458022,1647.89
-104.72716111,40.84457193,1647.89
-104.72716118,40.84455274,1647.91
-104.72716159,40.84445455,1647.95
-104.72716170,40.84442779,1648.02
-104.72716190,40.84437825,1647.86
-104.72716297,40.84411736,1647.49
-104.72716368,40.84394449,1647.08
-104.72716372,40.84393558,1647.12
-104.72716381,40.84391369,1647.11
-104.72716452,40.84373946,1646.94
-104.72716487,40.84365442,1646.30
-104.72716519,40.84357650,1645.49
-104.72716542,40.84352056,1644.82
-104.72716646,40.84326616,1643.09
-104.72716647,40.84326274,1643.04
-104.72716694,40.84314995,1642.70
-104.72716712,40.84310581,1642.61
-104.72716737,40.84304384,1642.49
-104.72716744,40.84302744,1642.46
-104.72716746,40.84302330,1642.40
-104.72716822,40.84283592,1642.14
-104.72716855,40.84275737,1642.12
-104.72716906,40.84263314,1641.69
-104.72716955,40.84251162,1641.76
-104.72716968,40.84248045,1641.64
-104.72717016,40.84236280,1640.64
-104.72717110,40.84210561,1640.70
-104.72717231,40.84184041,1641.74
-104.72717239,40.84182086,1641.67
-104.72717252,40.84178888,1641.81
-104.72717268,40.84175059,1641.95
-104.72717345,40.84156142,1641.76
-104.72717388,40.84145773,1641.41
-104.72717411,40.84139990,1641.30
-104.72717424,40.84136846,1641.23
-104.72717549,40.84106415,1640.72
-104.72717557,40.84104397,1640.69
-104.72717711,40.84066842,1640.26
-104.72717720,40.84064788,1640.30
-104.72717753,40.84056590,1640.27
-104.72717755,40.84056122,1640.25
-104.72717771,40.84052311,1640.26
-104.72717788,40.84048050,1640.15
-104.72717828,40.84038267,1639.88
-104.72717877,40.84026493,1639.58
-104.72717885,40.84024448,1639.53
-104.72717952,40.84008233,1638.79
-104.72717970,40.84003810,1638.77
-104.72718069,40.83979514,1638.18
-104.72718049,40.83972875,1638.18
-104.72718017,40.83971938,1638.24
-104.72717663,40.83971685,1638.31
-104.72709502,40.83971521,1639.21
-104.72702480,40.83971496,1640.35
-104.72702041,40.83971495,1640.45
-104.72687203,40.83971460,1643.30
-104.72659340,40.83971394,1644.50
-104.72658818,40.83971392,1644.53
-104.72658486,40.83971392,1644.53
-104.72638819,40.83971345,1644.91
-104.72617302,40.83971294,1644.58
-104.72616769,40.83971293,1644.57
-104.72611609,40.83971280,1644.51
-104.72582287,40.83971211,1644.18
-104.72574553,40.83971192,1644.13
-104.72574043,40.83971191,1644.12
-104.72560153,40.83971158,1644.11
-104.72540463,40.83971111,1643.85
-104.72533714,40.83971095,1643.80
-104.72533192,40.83971094,1643.76
-104.72498141,40.83971010,1643.44
-104.72471868,40.83970948,1642.99
-104.72453637,40.83970904,1643.04
-104.72431052,40.83970850,1643.02
-104.72411445,40.83970803,1642.90
-104.72396808,40.83970768,1642.87
-104.72394530,40.83970763,1642.85
-104.72379502,40.83970727,1642.81
-104.72340643,40.83970634,1642.69
-104.72320740,40.83970586,1642.69
-104.72309934,40.83970560,1642.72
-104.72279200,40.83970486,1642.66
-104.72275440,40.83970477,1642.73
-104.72268134,40.83970460,1642.57
-104.72259629,40.83970439,1642.60
-104.72251753,40.83970421,1642.53
-104.72230663,40.83970370,1642.64
-104.72211186,40.83970323,1642.61
-104.72199348,40.83970294,1642.58
-104.72197439,40.83970290,1642.56
-104.72188602,40.83970268,1642.59
-104.72181841,40.83970252,1642.48
-104.72169054,40.83970221,1642.54
-104.72141879,40.83970156,1642.28
-104.72132781,40.83970134,1642.27
-104.72121311,40.83970106,1642.58
-104.72114716,40.83970090,1642.42
-104.72106615,40.83970070,1642.61
-104.72093413,40.83970039,1642.60
-104.72089510,40.83970029,1642.94
-104.72083366,40.83970014,1642.83
-104.72063035,40.83969965,1642.38
-104.72039965,40.83969909,1642.63
-104.72001984,40.83969817,1642.21
-104.71984132,40.83969774,1642.28
-104.71983575,40.83969772,1642.28
-104.71983041,40.83969771,1642.29
-104.71982519,40.83969770,1642.30
-104.71981985,40.83969768,1642.28
-104.71964869,40.83969727,1642.24
-104.71941715,40.83969671,1642.18
-104.71928170,40.83969638,1642.24
-104.71916486,40.83969609,1642.26
-104.71881257,40.83969523,1641.87
-104.71868020,40.83969491,1641.85
-104.71865671,40.83969485,1641.85
-104.71865149,40.83969484,1641.82
-104.71864627,40.83969483,1641.85
-104.71864093,40.83969482,1641.86
-104.71863619,40.83969480,1641.83
-104.71863097,40.83969479,1641.82
-104.71858519,40.83969468,1641.82
-104.71832862,40.83969405,1642.06
-104.71821724,40.83969378,1641.87
-104.71810218,40.83969350,1642.02
-104.71797657,40.83969319,1641.97
-104.71786946,40.83969293,1641.89
-104.71773768,40.83969261,1641.78
-104.71765441,40.83969241,1641.72
-104.71752251,40.83969208,1641.62
-104.71739915,40.83969178,1641.64
-104.71716690,40.83969121,1642.01
-104.71706418,40.83969096,1642.40
-104.71694497,40.83969067,1642.67
-104.71688459,40.83969052,1642.78
-104.71687949,40.83969051,1642.84
-104.71687487,40.83969049,1642.88
-104.71687012,40.83969048,1642.85
-104.71686550,40.83969047,1642.86
-104.71686099,40.83969046,1642.85
-104.71681200,40.83969034,1643.67
-104.71672885,40.83969014,1643.01
-104.71659221,40.83968980,1643.12
-104.71649079,40.83968973,1643.32
-104.71591170,40.83968975,1643.65
-104.71585939,40.83968944,1643.74
-104.71577826,40.83968888,1643.76
-104.71574991,40.83968872,1643.78
-104.71572073,40.83968856,1643.78
-104.71564458,40.83968810,1643.84
-104.71557721,40.83968775,1643.46
-104.71551506,40.83968742,1643.32
-104.71548647,40.83968726,1643.29
-104.71545800,40.83968710,1643.24
-104.71542930,40.83968694,1643.42
-104.71542444,40.83968693,1643.55
-104.71541969,40.83968691,1643.31
-104.71541459,40.83968690,1643.12
-104.71540997,40.83968689,1643.15
-104.71540534,40.83968688,1643.13
-104.71532264,40.83969226,1643.09
-104.71531964,40.83970171,1643.06
-104.71531943,40.83972279,1643.12
-104.71531925,40.83976486,1643.12
-104.71531874,40.83988395,1643.16
-104.71531836,40.83997160,1643.25
-104.71531772,40.84012240,1643.44
-104.71531619,40.84050706,1644.84
-104.71531575,40.84058291,1645.06
-104.71531507,40.84076956,1645.40
-104.71531380,40.84114873,1645.62
-104.71531262,40.84131358,1645.43
-104.71531201,40.84145672,1645.42
-104.71531187,40.84148951,1645.38
-104.71531166,40.84153924,1645.40
-104.71531116,40.84165446,1645.52
-104.71531024,40.84186958,1650.43
-104.71531020,40.84188030,1651.32
-104.71531003,40.84191975,1652.76
-104.71531002,40.84192120,1645.42
-104.71530944,40.84205749,1645.48
-104.71530936,40.84207434,1645.48
-104.71530890,40.84218199,1645.48
-104.71530856,40.84226180,1645.55
-104.71530847,40.84228432,1645.59
-104.71530786,40.84242620,1645.70
-104.71530672,40.84271979,1646.10
-104.71530546,40.84298734,1646.41
-104.71530397,40.84336299,1646.70
-104.71530286,40.84359405,1646.88
-104.71530238,40.84370611,1646.91
-104.71530189,40.84382187,1647.06
-104.71530155,40.84390070,1647.12
-104.71530043,40.84416158,1647.45
-104.71529871,40.84456362,1647.96
-104.71529762,40.84481946,1648.06
-104.71529598,40.84520204,1648.61
-104.71529442,40.84556733,1648.98
-104.71529354,40.84577164,1649.27
-104.71529304,40.84588857,1649.41
-104.71529295,40.84591001,1649.40
-104.71529115,40.84633151,1648.74
-104.71528922,40.84678157,1648.86
-104.71528870,40.84690346,1649.12
-104.71528732,40.84725316,1649.48
-104.71528636,40.84750603,1649.43
-104.71528512,40.84773907,1649.87
-104.71528492,40.84778637,1649.96
-104.71528372,40.84806589,1650.97
-104.71528350,40.84811832,1651.15
-104.71528225,40.84843893,1651.87
-104.71528145,40.84859685,1651.84
-104.71528120,40.84865675,1651.85
-104.71528246,40.84869270,1651.84
-104.71534914,40.84869296,1651.84
-104.71554511,40.84869371,1651.86
-104.71561653,40.84869397,1651.89
-104.71574928,40.84869448,1651.90
-104.71624444,40.84869669,1650.85
-104.71628276,40.84869688,1650.78
-104.71651705,40.84869799,1650.82
-104.71671671,40.84869848,1650.94
-104.71672158,40.84869850,1650.98
-104.71672632,40.84869851,1650.97
-104.71673083,40.84869852,1650.99
-104.71673581,40.84869853,1650.98
-104.71674091,40.84869854,1650.99
-104.71674542,40.84869855,1651.01
-104.71675040,40.84869857,1651.01
-104.71675538,40.84869858,1651.02
-104.71676049,40.84869859,1651.02
-104.71676488,40.84869860,1651.06
-104.71676962,40.84869861,1651.05
-104.71677413,40.84869862,1651.06
-104.71677876,40.84869864,1651.07
-104.71678362,40.84869865,1651.09
-104.71678836,40.84869866,1651.11
-104.71679323,40.84869867,1651.11
-104.71679797,40.84869868,1651.12
-104.71680248,40.84869869,1651.11
-104.71680746,40.84869871,1651.12
-104.71681268,40.84869872,1651.12
-104.71681707,40.84869873,1651.15
-104.71686595,40.84869885,1651.26
-104.71715339,40.84869956,1651.65
-104.71743242,40.84870024,1651.75
-104.71773706,40.84870098,1651.31
-104.71801632,40.84870167,1650.15
-104.71832986,40.84870243,1649.79
-104.71854008,40.84870295,1649.61
-104.71885125,40.84870371,1649.61
-104.71911212,40.84870434,1649.75
-104.71937181,40.84870497,1649.89
-104.71962580,40.84870559,1649.84
-104.71988500,40.84870622,1649.72
     </coordinates>
    </LineString>
   </MultiGeometry>
  </Placemark>
 </Document>
</kml>
