<kml>
 <Document>
  <Style id="yellow">
   <LineStyle>
   <color>ff00ffff</color>
   <width>1</width>
   </LineStyle>
  </Style>
  <Style id="red">
   <LineStyle>
   <color>ffff0000</color>
   <width>2</width>
   </LineStyle>
  </Style>
  <Style id="green">
   <LineStyle>
   <color>ff00ff00</color>
   <width>1</width>
   </LineStyle>
  </Style>
  <Placemark>
  <styleUrl>#yellow</styleUrl>
   <MultiGeometry>
    <LineString>
     <coordinates>
-99.05903016,35.37831788,475.79
-99.05921435,35.37831779,475.41
-99.05956082,35.37831753,476.15
-99.06004866,35.37831738,477.70
-99.06012594,35.37831734,478.09
-99.06020268,35.37831730,478.28
-99.06048376,35.37831707,479.30
-99.06076990,35.37831702,481.65
-99.06084795,35.37831698,481.75
-99.06098998,35.37831690,482.32
-99.06107266,35.37831686,483.59
-99.06114235,35.37831683,483.25
-99.06121634,35.37831679,483.68
-99.06128239,35.37831676,485.62
-99.06128515,35.37831675,486.99
-99.06133579,35.37831673,484.60
-99.06151194,35.37831664,487.98
-99.06155697,35.37831662,488.38
-99.06172685,35.37831653,487.17
-99.06174854,35.37831652,487.05
-99.06177584,35.37831651,486.66
-99.06197864,35.37831640,485.21
-99.06205141,35.37831636,484.70
-99.06206870,35.37831636,484.56
-99.06213465,35.37831632,484.23
-99.06220070,35.37831629,483.98
-99.06229847,35.37831624,488.32
-99.06242783,35.37831617,493.41
-99.06259716,35.37831608,490.94
-99.06260399,35.37831608,483.32
-99.06260806,35.37831608,490.38
-99.06278763,35.37831598,486.88
-99.06284785,35.37831595,485.04
-99.06317483,35.37831578,486.45
-99.06352780,35.37831551,489.40
-99.06378323,35.37831546,489.12
-99.06385149,35.37831543,489.27
-99.06410217,35.37831529,489.26
-99.06435672,35.37831516,490.86
-99.06449610,35.37831508,491.14
-99.06486635,35.37831480,491.97
-99.06513609,35.37831474,492.58
-99.06517242,35.37831472,492.60
-99.06525719,35.37831467,492.80
-99.06539668,35.37831460,492.94
-99.06546395,35.37831456,492.98
-99.06558352,35.37831450,493.42
-99.06559519,35.37831449,493.35
-99.06588485,35.37831433,494.63
-99.06597656,35.37831419,494.91
-99.06599781,35.37831409,495.01
-99.06605627,35.37831325,495.34
-99.06605746,35.37829260,495.50
-99.06605768,35.37828367,495.51
-99.06605764,35.37823444,495.75
-99.06605751,35.37807520,497.60
-99.06605747,35.37803616,499.40
-99.06605743,35.37798224,501.01
-99.06605729,35.37781371,500.81
-99.06605729,35.37780948,500.85
-99.06605700,35.37745719,501.01
-99.06605696,35.37740525,501.04
-99.06605695,35.37739190,501.03
-99.06605694,35.37738379,501.02
-99.06605690,35.37732770,501.01
-99.06605684,35.37725512,500.97
-99.06605657,35.37693195,500.87
-99.06605643,35.37675955,502.35
-99.06605642,35.37673908,502.28
-99.06605622,35.37649112,501.90
-99.06605595,35.37616741,500.91
-99.06605584,35.37603423,501.60
-99.06605583,35.37602062,500.36
-99.06605564,35.37578113,499.12
-99.06605558,35.37570773,498.55
-99.06605544,35.37553939,498.07
-99.06605541,35.37549971,498.05
-99.06605535,35.37542496,497.99
-99.06605523,35.37527555,497.47
-99.06605521,35.37526176,497.45
-99.06605504,35.37505175,497.37
-99.06605503,35.37503724,497.41
-99.06605501,35.37500965,497.39
-99.06605499,35.37498305,497.36
-99.06605496,35.37494815,497.36
-99.06605466,35.37458134,496.53
-99.06605463,35.37454158,496.47
-99.06605426,35.37409479,495.05
-99.06605426,35.37408875,495.04
-99.06605423,35.37405079,494.95
-99.06605416,35.37396874,494.55
-99.06605413,35.37393285,494.41
-99.06605403,35.37381130,494.24
-99.06605402,35.37380057,494.14
-99.06605397,35.37373818,493.92
-99.06605397,35.37373168,493.92
-99.06605395,35.37370554,493.84
-99.06605385,35.37358985,493.41
-99.06605380,35.37353160,493.16
-99.06605375,35.37347092,492.94
-99.06605373,35.37344522,492.91
-99.06605352,35.37318535,492.15
-99.06605342,35.37305470,492.11
-99.06605320,35.37278464,492.03
-99.06605319,35.37277544,492.04
-99.06605319,35.37277382,492.02
-99.06605310,35.37266345,492.08
-99.06605306,35.37261332,491.89
-99.06605283,35.37233380,491.97
-99.06605280,35.37230287,492.06
-99.06605266,35.37212542,491.31
-99.06605256,35.37200540,490.99
-99.06605232,35.37171569,490.11
-99.06605213,35.37147683,489.74
-99.06605206,35.37139487,489.21
-99.06605200,35.37132174,488.85
-99.06605194,35.37124988,488.54
-99.06605188,35.37117161,488.53
-99.06605187,35.37116142,488.55
-99.06605182,35.37110236,488.77
-99.06605182,35.37109939,488.61
-99.06605178,35.37105006,488.50
-99.06605166,35.37089831,487.82
-99.06605165,35.37088424,487.82
-99.06605161,35.37083763,487.64
-99.06605142,35.37060355,487.16
-99.06605128,35.37043764,486.73
-99.06605119,35.37032493,486.76
-99.06605118,35.37031699,486.67
-99.06605115,35.37027092,486.14
-99.06605111,35.37022060,485.78
-99.06605102,35.37011844,485.34
-99.06605100,35.37008679,485.27
-99.06605085,35.36990799,484.45
-99.06605079,35.36983774,484.12
-99.06605079,35.36982701,484.06
-99.06605077,35.36981033,484.01
-99.06605075,35.36978355,483.87
-99.06605057,35.36956570,483.20
-99.06605047,35.36944028,482.87
-99.06605029,35.36935778,482.65
-99.06605003,35.36930954,482.60
-99.06604915,35.36930295,482.60
-99.06604804,35.36930025,482.59
-99.06604661,35.36929763,482.61
-99.06602592,35.36929747,482.55
-99.06589547,35.36929754,482.59
-99.06585011,35.36929756,482.63
-99.06571229,35.36929764,482.64
-99.06565042,35.36929767,482.69
-99.06540108,35.36929781,482.73
-99.06525423,35.36929788,482.65
-99.06513765,35.36929795,482.46
-99.06506290,35.36929799,482.35
-99.06499828,35.36929802,482.22
-99.06486904,35.36929809,482.08
-99.06455057,35.36929835,481.92
-99.06430387,35.36929848,482.52
-99.06380916,35.36929866,481.54
-99.06345271,35.36929884,481.20
-99.06305255,35.36929905,481.91
-99.06299916,35.36929908,481.68
-99.06285066,35.36929916,482.68
-99.06273430,35.36929922,482.72
-99.06267827,35.36929925,482.94
-99.06266693,35.36929925,482.91
-99.06261640,35.36929928,482.81
-99.06257479,35.36929930,482.52
-99.06251699,35.36929933,482.15
-99.06243784,35.36929937,481.82
-99.06218311,35.36929950,481.55
-99.06213599,35.36929953,481.58
-99.06196294,35.36929962,482.12
-99.06190052,35.36929965,482.49
-99.06144599,35.36929988,482.58
-99.06134273,35.36929993,482.45
-99.06121932,35.36930000,482.76
-99.06110605,35.36930005,482.55
-99.06095314,35.36930013,482.62
-99.06094720,35.36930013,482.62
-99.06089337,35.36930016,482.45
-99.06059823,35.36930031,481.37
-99.06050983,35.36930035,481.47
-99.06042595,35.36930040,481.37
-99.06028989,35.36930046,481.44
-99.06023077,35.36930049,481.49
-99.06001346,35.36930060,480.54
-99.05969609,35.36930076,480.02
-99.05935032,35.36930102,479.08
-99.05895809,35.36930112,478.84
-99.05885417,35.36930117,479.02
-99.05878900,35.36930120,478.57
-99.05873506,35.36930123,478.36
-99.05855551,35.36930132,477.87
-99.05849144,35.36930135,477.79
-99.05843750,35.36930137,477.67
-99.05837707,35.36930140,477.60
-99.05835659,35.36930141,477.60
-99.05810703,35.36930153,476.37
-99.05807346,35.36930155,476.20
-99.05802557,35.36930157,476.12
-99.05796117,35.36930160,476.26
-99.05766912,35.36930174,475.96
-99.05753812,35.36930181,476.01
-99.05736672,35.36930189,476.51
-99.05721007,35.36930196,477.15
-99.05698065,35.36930207,477.76
-99.05663312,35.36930223,477.56
-99.05633105,35.36930237,477.81
-99.05622119,35.36930243,478.09
-99.05604439,35.36930251,478.91
-99.05576280,35.36930273,478.88
-99.05541625,35.36930280,478.38
-99.05535824,35.36930282,478.23
-99.05511275,35.36930303,477.74
-99.05505826,35.36930359,477.63
-99.05504285,35.36930459,477.65
-99.05504274,35.36930982,477.63
-99.05504221,35.36933669,477.66
-99.05504219,35.36946834,478.87
-99.05504236,35.36955571,479.01
-99.05504250,35.36992612,480.65
-99.05504268,35.37019564,481.60
-99.05504315,35.37055388,482.33
-99.05504311,35.37082430,482.37
-99.05504322,35.37098065,482.70
-99.05504323,35.37100662,482.59
-99.05504324,35.37101275,482.74
-99.05504324,35.37102077,482.68
-99.05504334,35.37115810,482.43
-99.05504334,35.37116820,482.36
-99.05504337,35.37120129,482.36
-99.05504337,35.37121527,482.46
-99.05504341,35.37127334,482.45
-99.05504345,35.37132419,482.22
-99.05504346,35.37134060,482.31
-99.05504346,35.37134069,482.22
-99.05504346,35.37134484,482.22
-99.05504347,35.37135539,482.22
-99.05504348,35.37136738,482.24
-99.05504362,35.37158072,482.13
-99.05504381,35.37185105,481.68
-99.05504396,35.37191570,481.56
-99.05504414,35.37233742,481.12
-99.05504426,35.37251947,481.13
-99.05504444,35.37277789,481.43
-99.05504448,35.37284038,481.44
-99.05504449,35.37285355,481.45
-99.05504470,35.37316373,481.01
-99.05504492,35.37348924,480.92
-99.05504507,35.37370907,481.23
-99.05504517,35.37385857,481.43
-99.05504522,35.37393629,481.43
-99.05504525,35.37397687,481.44
-99.05504555,35.37441752,481.47
-99.05504559,35.37447704,481.48
-99.05504579,35.37477288,481.57
-99.05504584,35.37484519,481.53
-99.05504609,35.37521209,481.43
-99.05504630,35.37552426,481.26
-99.05504641,35.37568908,481.07
-99.05504644,35.37573489,480.94
-99.05504652,35.37583913,480.61
-99.05504659,35.37595139,480.26
-99.05504663,35.37600621,480.06
-99.05504665,35.37603741,479.92
-99.05504695,35.37648338,478.15
-99.05504723,35.37673549,478.19
-99.05504726,35.37694153,478.41
-99.05504731,35.37700293,478.22
-99.05504760,35.37743664,478.58
-99.05504763,35.37748786,478.39
-99.05504765,35.37750761,478.34
-99.05504769,35.37757577,478.12
-99.05504774,35.37764016,477.97
-99.05504778,35.37769516,477.88
-99.05504787,35.37782834,477.66
-99.05504792,35.37790958,477.50
-99.05504796,35.37797099,477.37
-99.05504807,35.37813338,477.03
-99.05504809,35.37816079,476.92
-99.05504819,35.37830605,477.01
-99.05504963,35.37831182,476.98
-99.05505106,35.37831651,476.94
-99.05507011,35.37831921,476.95
-99.05510138,35.37831946,477.02
-99.05527544,35.37831956,477.84
-99.05570360,35.37831946,478.31
-99.05575193,35.37831943,478.44
-99.05577208,35.37831943,478.42
-99.05599954,35.37831932,478.86
-99.05612516,35.37831926,479.15
-99.05613044,35.37831926,479.18
-99.05628524,35.37831919,479.53
-99.05631750,35.37831917,479.54
-99.05634855,35.37831916,479.67
-99.05639027,35.37831914,479.88
-99.05644730,35.37831911,480.13
-99.05651743,35.37831908,480.18
-99.05651930,35.37831908,480.18
-99.05658063,35.37831905,480.30
-99.05670889,35.37831899,480.54
-99.05691048,35.37831889,480.71
-99.05692776,35.37831889,480.68
-99.05700769,35.37831885,480.70
-99.05709863,35.37831881,480.76
-99.05726113,35.37831873,481.07
-99.05727203,35.37831872,481.06
-99.05732972,35.37831870,481.13
-99.05733875,35.37831869,481.16
-99.05739270,35.37831867,481.28
-99.05752140,35.37831861,481.26
-99.05759549,35.37831857,480.96
-99.05759670,35.37831857,480.96
-99.05762951,35.37831855,480.92
-99.05764548,35.37831855,480.90
-99.05769491,35.37831852,480.79
-99.05780347,35.37831847,480.52
-99.05785807,35.37831844,480.29
-99.05790883,35.37831842,480.23
-99.05802839,35.37831836,479.80
-99.05804524,35.37831835,479.78
-99.05807595,35.37831834,479.64
-99.05823768,35.37831826,478.95
-99.05829648,35.37831823,478.72
-99.05838631,35.37831819,478.39
-99.05840514,35.37831818,478.23
-99.05862566,35.37831807,477.39
-99.05876185,35.37831801,476.85
-99.05903016,35.37831788,475.79
     </coordinates>
    </LineString>
   </MultiGeometry>
  </Placemark>
 </Document>
</kml>
