<kml>
 <Document>
  <Style id="yellow">
   <LineStyle>
   <color>ff00ffff</color>
   <width>1</width>
   </LineStyle>
  </Style>
  <Style id="red">
   <LineStyle>
   <color>ffff0000</color>
   <width>2</width>
   </LineStyle>
  </Style>
  <Style id="green">
   <LineStyle>
   <color>ff00ff00</color>
   <width>1</width>
   </LineStyle>
  </Style>
  <Placemark>
  <styleUrl>#yellow</styleUrl>
   <MultiGeometry>
    <LineString>
     <coordinates>
-99.09905989,35.35641059,510.62
-99.09905995,35.35645874,509.82
-99.09906017,35.35663763,514.84
-99.09906046,35.35688055,513.15
-99.09906051,35.35691625,513.09
-99.09906067,35.35704889,512.90
-99.09906117,35.35746105,515.82
-99.09906130,35.35756827,516.43
-99.09906147,35.35770415,517.88
-99.09906149,35.35771957,517.80
-99.09906162,35.35782516,518.07
-99.09906162,35.35782651,518.06
-99.09906163,35.35783895,517.95
-99.09906169,35.35788196,517.19
-99.09906169,35.35788377,517.13
-99.09906180,35.35797457,517.84
-99.09906197,35.35811460,519.07
-99.09906198,35.35811947,519.02
-99.09906199,35.35812939,518.84
-99.09906216,35.35826653,520.73
-99.09906216,35.35827339,520.88
-99.09906222,35.35831477,521.92
-99.09906223,35.35832379,522.06
-99.09906223,35.35833119,522.13
-99.09906229,35.35837879,522.34
-99.09906235,35.35842289,522.39
-99.09906237,35.35844570,522.30
-99.09906240,35.35846932,522.27
-99.09906241,35.35847176,522.28
-99.09906247,35.35852550,522.05
-99.09906255,35.35858880,521.90
-99.09906265,35.35866887,521.73
-99.09906294,35.35891124,522.41
-99.09906303,35.35898365,522.85
-99.09906305,35.35900114,523.02
-99.09906340,35.35928734,522.56
-99.09906341,35.35929139,522.55
-99.09906364,35.35948454,522.23
-99.09906368,35.35951618,522.15
-99.09906372,35.35954378,522.08
-99.09906372,35.35954747,522.08
-99.09906384,35.35964224,521.95
-99.09906417,35.35991744,522.30
-99.09906458,35.36024917,523.06
-99.09906601,35.36025340,523.08
-99.09906778,35.36025683,523.09
-99.09907769,35.36025745,523.09
-99.09908253,35.36025763,523.13
-99.09922397,35.36025769,523.64
-99.09951643,35.36025754,524.18
-99.09961340,35.36025746,524.19
-99.09972271,35.36025737,524.06
-99.09995265,35.36025718,523.28
-99.10001759,35.36025713,523.05
-99.10028704,35.36025691,520.98
-99.10029893,35.36025690,520.90
-99.10058225,35.36025666,520.83
-99.10074120,35.36025653,521.37
-99.10092226,35.36025638,522.01
-99.10107945,35.36025625,522.11
-99.10123344,35.36025603,521.73
-99.10176046,35.36025567,522.53
-99.10212149,35.36025537,523.69
-99.10221230,35.36025529,523.96
-99.10251874,35.36025503,524.86
-99.10285369,35.36025475,525.58
-99.10320867,35.36025445,526.70
-99.10325677,35.36025441,526.87
-99.10346338,35.36025423,527.79
-99.10361869,35.36025410,528.84
-99.10362342,35.36025409,528.87
-99.10388440,35.36025387,529.65
-99.10390344,35.36025385,529.67
-99.10390806,35.36025385,529.64
-99.10426987,35.36025354,530.32
-99.10427548,35.36025353,530.34
-99.10456178,35.36025328,530.99
-99.10456662,35.36025328,531.00
-99.10491731,35.36025298,531.65
-99.10492446,35.36025297,531.70
-99.10522837,35.36025271,532.66
-99.10556475,35.36025241,534.13
-99.10594108,35.36025208,534.93
-99.10626778,35.36025180,535.55
-99.10658060,35.36025152,535.74
-99.10658489,35.36025152,535.72
-99.10686051,35.36025127,536.45
-99.10719315,35.36025098,536.89
-99.10745159,35.36025075,537.28
-99.10745622,35.36025075,537.28
-99.10746095,35.36025074,537.28
-99.10746601,35.36025074,537.30
-99.10747097,35.36025073,537.28
-99.10747559,35.36025073,537.26
-99.10748076,35.36025072,537.27
-99.10748583,35.36025072,537.28
-99.10753283,35.36025068,537.28
-99.10782463,35.36025042,537.26
-99.10819315,35.36025009,537.59
-99.10847097,35.36024984,537.77
-99.10880569,35.36024954,538.24
-99.10905589,35.36024931,538.76
-99.10938467,35.36024901,538.71
-99.10988527,35.36024856,538.20
-99.10989001,35.36024856,538.16
-99.10989441,35.36024855,538.19
-99.10989914,35.36024855,538.19
-99.10990377,35.36024854,538.16
-99.10990850,35.36024854,538.18
-99.10991279,35.36024854,538.19
-99.10991720,35.36024853,538.17
-99.11006986,35.36024226,538.16
-99.11007133,35.36019384,538.23
-99.11007153,35.36017590,538.21
-99.11007151,35.36016462,538.20
-99.11007150,35.36015380,538.17
-99.11007149,35.36014830,538.14
-99.11007147,35.36013676,538.07
-99.11007143,35.36010151,538.07
-99.11007126,35.35998167,537.76
-99.11007103,35.35981179,537.56
-99.11007045,35.35946059,537.44
-99.11007011,35.35929440,537.34
-99.11006990,35.35897593,537.50
-99.11006984,35.35893229,537.50
-99.11006983,35.35892327,537.54
-99.11006977,35.35888242,537.60
-99.11006927,35.35851165,537.34
-99.11006884,35.35819930,537.13
-99.11006847,35.35792573,537.15
-99.11006837,35.35784737,537.27
-99.11006799,35.35756947,537.16
-99.11006791,35.35751240,544.93
-99.11006753,35.35730870,536.53
-99.11006718,35.35705217,536.28
-99.11006636,35.35677211,536.48
-99.11006654,35.35657897,536.90
-99.11006637,35.35637636,536.68
-99.11006619,35.35624011,536.27
-99.11006606,35.35614814,536.32
-99.11006568,35.35586456,536.22
-99.11006548,35.35571776,536.20
-99.11006542,35.35567854,536.11
-99.11006525,35.35554716,535.88
-99.11006474,35.35517468,535.10
-99.11006436,35.35489434,534.92
-99.11006417,35.35475097,534.76
-99.11006374,35.35451563,534.94
-99.11006348,35.35424639,535.02
-99.11006345,35.35422475,535.04
-99.11006340,35.35418823,535.04
-99.11006312,35.35398273,534.77
-99.11006250,35.35368581,533.94
-99.11006237,35.35342819,533.83
-99.11006217,35.35328005,533.79
-99.11006169,35.35300395,533.71
-99.11006144,35.35274237,533.15
-99.11006123,35.35259043,532.97
-99.11006100,35.35241469,532.89
-99.11006030,35.35198161,531.81
-99.11006005,35.35180082,531.49
-99.11005956,35.35143780,530.71
-99.11005951,35.35139831,530.73
-99.11005940,35.35132239,530.25
-99.11005917,35.35123267,530.57
-99.11004134,35.35123196,530.54
-99.11003221,35.35123170,530.52
-99.10976366,35.35123186,530.98
-99.10960749,35.35123200,531.18
-99.10946166,35.35123213,531.16
-99.10929547,35.35123228,531.08
-99.10921425,35.35123235,531.15
-99.10899457,35.35123255,531.20
-99.10866802,35.35123285,530.81
-99.10850326,35.35123299,530.71
-99.10832211,35.35123316,530.25
-99.10819851,35.35123327,530.65
-99.10807932,35.35123337,530.49
-99.10796507,35.35123348,530.36
-99.10794141,35.35123350,530.30
-99.10782310,35.35123360,530.16
-99.10779503,35.35123363,530.09
-99.10741280,35.35123397,530.15
-99.10738528,35.35123399,530.23
-99.10726279,35.35123410,530.25
-99.10701636,35.35123432,530.04
-99.10698125,35.35123435,530.01
-99.10673747,35.35123457,529.64
-99.10659385,35.35123469,529.49
-99.10645440,35.35123482,529.57
-99.10618663,35.35123505,530.00
-99.10572856,35.35123545,529.18
-99.10545088,35.35123579,528.79
-99.10514437,35.35123596,528.58
-99.10505566,35.35123604,528.23
-99.10500987,35.35123608,528.10
-99.10498082,35.35123610,528.17
-99.10494263,35.35123614,528.09
-99.10476048,35.35123630,527.66
-99.10471458,35.35123634,527.63
-99.10467452,35.35123637,527.51
-99.10461960,35.35123642,527.36
-99.10449194,35.35123653,526.97
-99.10445826,35.35123656,527.23
-99.10437340,35.35123663,526.77
-99.10432938,35.35123667,526.61
-99.10424111,35.35123675,526.21
-99.10417221,35.35123680,525.81
-99.10407382,35.35123689,525.31
-99.10405434,35.35123691,525.52
-99.10399623,35.35123696,525.21
-99.10396321,35.35123698,524.61
-99.10390488,35.35123703,524.16
-99.10389024,35.35123705,524.12
-99.10385183,35.35123708,523.92
-99.10376455,35.35123716,523.61
-99.10371591,35.35123720,523.39
-99.10368674,35.35123722,523.25
-99.10362368,35.35123728,523.21
-99.10351571,35.35123737,523.08
-99.10338628,35.35123748,523.58
-99.10331144,35.35123754,522.81
-99.10330825,35.35123755,522.73
-99.10316858,35.35123767,521.85
-99.10306469,35.35123775,520.93
-99.10301241,35.35123780,520.73
-99.10294967,35.35123785,520.44
-99.10293702,35.35123786,520.39
-99.10290378,35.35123789,520.27
-99.10282278,35.35123796,519.99
-99.10279702,35.35123798,520.00
-99.10276169,35.35123801,520.02
-99.10269973,35.35123806,520.01
-99.10265670,35.35123810,520.02
-99.10260937,35.35123814,520.04
-99.10260420,35.35123815,520.07
-99.10257624,35.35123817,520.18
-99.10246288,35.35123827,519.87
-99.10243999,35.35123828,519.84
-99.10240334,35.35123832,519.86
-99.10232740,35.35123838,519.48
-99.10223770,35.35123846,519.27
-99.10223297,35.35123846,519.28
-99.10209253,35.35123858,518.98
-99.10203673,35.35123863,518.62
-99.10196696,35.35123868,518.26
-99.10182674,35.35123880,517.49
-99.10173836,35.35123888,517.02
-99.10165967,35.35123894,516.37
-99.10149062,35.35123909,515.54
-99.10146299,35.35123911,515.46
-99.10136075,35.35123919,515.24
-99.10128547,35.35123926,514.83
-99.10121107,35.35123932,514.13
-99.10113139,35.35123939,513.60
-99.10106656,35.35123944,513.41
-99.10093020,35.35123956,512.97
-99.10083632,35.35123963,512.67
-99.10076148,35.35123970,512.76
-99.10064503,35.35123979,513.05
-99.10055666,35.35123987,513.08
-99.10055203,35.35123987,513.07
-99.10040015,35.35124000,513.02
-99.10039982,35.35124000,513.00
-99.10039487,35.35124000,512.99
-99.10034908,35.35124004,512.86
-99.10020315,35.35124016,512.22
-99.10008890,35.35124025,511.79
-99.09994065,35.35124038,511.24
-99.09980209,35.35124049,510.87
-99.09976808,35.35124052,510.73
-99.09968411,35.35124059,510.78
-99.09951781,35.35124073,509.24
-99.09941732,35.35124081,509.00
-99.09927590,35.35124093,508.34
-99.09927105,35.35124093,508.41
-99.09910068,35.35124107,507.49
-99.09905820,35.35124273,507.22
-99.09905479,35.35124571,507.14
-99.09905403,35.35125103,507.22
-99.09905383,35.35126617,507.34
-99.09905366,35.35130973,507.68
-99.09905372,35.35135445,508.05
-99.09905376,35.35138754,508.20
-99.09905377,35.35140071,508.20
-99.09905389,35.35149935,508.78
-99.09905416,35.35171837,508.79
-99.09905433,35.35185759,507.86
-99.09905453,35.35201864,507.02
-99.09905457,35.35205687,506.85
-99.09905505,35.35245063,505.71
-99.09905512,35.35250735,506.38
-99.09905517,35.35254324,506.98
-99.09905536,35.35270058,508.62
-99.09905539,35.35272412,508.88
-99.09905559,35.35288895,510.88
-99.09905560,35.35289382,510.90
-99.09905563,35.35291978,511.11
-99.09905563,35.35292375,511.14
-99.09905566,35.35294512,511.35
-99.09905615,35.35326053,513.68
-99.09905633,35.35349849,515.91
-99.09905658,35.35369984,515.68
-99.09905688,35.35394888,516.21
-99.09905706,35.35409415,516.91
-99.09905740,35.35436997,517.77
-99.09905740,35.35437042,517.78
-99.09905741,35.35437592,517.82
-99.09905743,35.35439684,517.96
-99.09905743,35.35439720,517.98
-99.09905746,35.35441975,518.14
-99.09905767,35.35459242,517.98
-99.09905771,35.35462786,517.84
-99.09905777,35.35467294,517.69
-99.09905793,35.35480801,517.29
-99.09905806,35.35490882,516.70
-99.09905824,35.35505625,516.10
-99.09905866,35.35540511,514.60
-99.09905885,35.35556228,514.04
-99.09905906,35.35573306,514.10
-99.09905908,35.35575136,514.11
-99.09905911,35.35576840,514.15
-99.09905955,35.35604540,513.76
-99.09905975,35.35629986,511.99
-99.09905989,35.35641059,510.62
     </coordinates>
    </LineString>
   </MultiGeometry>
  </Placemark>
 </Document>
</kml>
