<kml>
 <Document>
  <Style id="yellow">
   <LineStyle>
   <color>ff00ffff</color>
   <width>1</width>
   </LineStyle>
  </Style>
  <Style id="red">
   <LineStyle>
   <color>ffff0000</color>
   <width>2</width>
   </LineStyle>
  </Style>
  <Style id="green">
   <LineStyle>
   <color>ff00ff00</color>
   <width>1</width>
   </LineStyle>
  </Style>
  <Placemark>
  <styleUrl>#yellow</styleUrl>
   <MultiGeometry>
    <LineString>
     <coordinates>
-99.11474942,35.40532836,525.35
-99.11529998,35.40532784,524.09
-99.11580141,35.40532736,522.71
-99.11589634,35.40532727,522.45
-99.11627531,35.40532690,521.76
-99.11632873,35.40532685,521.63
-99.11647751,35.40532671,521.42
-99.11675846,35.40532644,521.12
-99.11677796,35.40532642,521.08
-99.11678225,35.40532641,521.19
-99.11724051,35.40532597,519.11
-99.11766100,35.40532556,516.86
-99.11773721,35.40532549,515.58
-99.11782025,35.40532541,516.69
-99.11789294,35.40532534,519.39
-99.11804096,35.40532519,520.00
-99.11814724,35.40532509,520.11
-99.11820131,35.40532503,520.02
-99.11837202,35.40532487,519.71
-99.11853722,35.40532471,519.16
-99.11861882,35.40532463,518.87
-99.11883534,35.40532441,518.76
-99.11899977,35.40532425,518.50
-99.11915936,35.40532409,519.56
-99.11938325,35.40532387,520.44
-99.11938336,35.40532387,520.42
-99.11938964,35.40532387,520.43
-99.11939229,35.40532386,520.46
-99.11940958,35.40532385,520.53
-99.11942312,35.40532383,520.60
-99.11943810,35.40532382,520.62
-99.11945143,35.40532381,520.66
-99.11947621,35.40532378,520.74
-99.11948513,35.40532377,520.76
-99.11949460,35.40532376,520.81
-99.11962610,35.40532363,521.17
-99.11969625,35.40532356,521.47
-99.11971288,35.40532355,521.60
-99.11972180,35.40532354,521.60
-99.11972698,35.40532353,521.62
-99.11975055,35.40532351,521.80
-99.11978876,35.40532347,522.00
-99.11979339,35.40532347,521.99
-99.11982191,35.40532344,522.07
-99.11988469,35.40532338,522.38
-99.11999306,35.40532327,522.83
-99.12003976,35.40532322,523.01
-99.12007610,35.40532319,523.25
-99.12024350,35.40532302,524.13
-99.12024769,35.40532301,524.15
-99.12024923,35.40532301,524.16
-99.12030187,35.40532296,524.33
-99.12033733,35.40532293,524.42
-99.12038799,35.40532287,524.11
-99.12045165,35.40532281,523.74
-99.12054009,35.40532272,523.06
-99.12058183,35.40532268,522.72
-99.12060650,35.40532266,522.56
-99.12072886,35.40532253,521.85
-99.12074604,35.40532252,521.71
-99.12083987,35.40532242,521.00
-99.12084383,35.40532242,520.95
-99.12093381,35.40532233,520.22
-99.12096762,35.40532230,520.00
-99.12101487,35.40532225,519.64
-99.12106674,35.40532220,519.17
-99.12111773,35.40532197,518.83
-99.12114152,35.40532185,518.62
-99.12114582,35.40532040,518.57
-99.12114603,35.40524142,518.50
-99.12114596,35.40519345,518.46
-99.12114595,35.40519065,518.55
-99.12114590,35.40515359,518.45
-99.12114580,35.40508948,518.39
-99.12114567,35.40500247,518.37
-99.12114564,35.40498137,518.39
-99.12114550,35.40488624,518.37
-99.12114544,35.40485144,524.90
-99.12114542,35.40483566,522.56
-99.12114541,35.40482908,522.99
-99.12114508,35.40460663,518.54
-99.12114498,35.40454442,518.58
-99.12114497,35.40453152,518.58
-99.12114494,35.40451601,518.54
-99.12114474,35.40438374,518.76
-99.12114451,35.40423045,518.51
-99.12114437,35.40413577,518.37
-99.12114390,35.40389394,518.34
-99.12114354,35.40358088,518.68
-99.12114352,35.40356708,518.66
-99.12114344,35.40351542,518.54
-99.12114327,35.40339739,519.24
-99.12114317,35.40333382,518.86
-99.12114300,35.40321732,517.45
-99.12114289,35.40314447,517.09
-99.12114285,35.40312066,516.94
-99.12114271,35.40302301,516.20
-99.12114138,35.40265350,516.17
-99.12114167,35.40239977,516.10
-99.12114163,35.40230085,518.08
-99.12114156,35.40225676,519.16
-99.12114134,35.40210645,522.59
-99.12114129,35.40207561,521.39
-99.12114098,35.40186606,515.11
-99.12114086,35.40178671,513.11
-99.12114081,35.40175200,512.82
-99.12114072,35.40169357,512.43
-99.12114019,35.40134182,517.26
-99.12114016,35.40131982,514.00
-99.12114010,35.40128186,516.33
-99.12113993,35.40116581,515.01
-99.12113986,35.40111685,515.20
-99.12113973,35.40103354,515.27
-99.12113966,35.40098440,515.27
-99.12113955,35.40091470,515.62
-99.12113951,35.40088828,515.83
-99.12113941,35.40081903,515.64
-99.12113923,35.40070046,515.08
-99.12113919,35.40067440,514.86
-99.12113898,35.40053004,513.70
-99.12113891,35.40048324,513.02
-99.12113887,35.40046007,512.89
-99.12113884,35.40043725,512.72
-99.12113883,35.40043049,512.70
-99.12113875,35.40038009,512.34
-99.12113857,35.40025998,511.87
-99.12113854,35.40023636,511.88
-99.12113850,35.40020697,511.80
-99.12113833,35.40009678,516.07
-99.12113825,35.40004277,517.11
-99.12113813,35.39996342,515.24
-99.12113792,35.39982276,512.79
-99.12113791,35.39981771,514.72
-99.12113789,35.39980346,515.03
-99.12113782,35.39975603,509.90
-99.12113779,35.39973250,519.89
-99.12113778,35.39972637,520.57
-99.12113750,35.39954134,510.92
-99.12113727,35.39939076,510.69
-99.12113725,35.39937742,518.15
-99.12113715,35.39931051,511.56
-99.12113711,35.39927796,513.17
-99.12113704,35.39923612,510.74
-99.12113700,35.39921043,516.72
-99.12113694,35.39916597,515.59
-99.12113692,35.39915073,511.34
-99.12113670,35.39900935,512.86
-99.12113651,35.39887716,513.66
-99.12113643,35.39882387,514.05
-99.12113603,35.39863164,515.21
-99.12113556,35.39824743,514.92
-99.12113546,35.39817971,514.09
-99.12113536,35.39811362,515.00
-99.12113536,35.39811064,515.02
-99.12113532,35.39808152,515.23
-99.12113520,35.39800190,515.66
-99.12113513,35.39796006,515.82
-99.12113512,35.39794726,515.86
-99.12113507,35.39791786,516.05
-99.12113503,35.39788784,516.17
-99.12113487,35.39778496,516.54
-99.12113484,35.39776115,516.59
-99.12113475,35.39770344,516.69
-99.12113465,35.39763645,516.95
-99.12113439,35.39746405,517.00
-99.12113432,35.39741626,517.03
-99.12113418,35.39732492,516.96
-99.12113393,35.39715495,517.45
-99.12113382,35.39708282,517.66
-99.12113377,35.39704702,517.71
-99.12113371,35.39700419,517.75
-99.12113367,35.39698102,517.77
-99.12113333,35.39675036,517.41
-99.12113307,35.39658220,517.44
-99.12113301,35.39654163,517.27
-99.12113294,35.39649375,517.24
-99.12113270,35.39632946,517.48
-99.12113245,35.39631097,517.49
-99.12113068,35.39630773,517.50
-99.12111449,35.39630558,517.45
-99.12104192,35.39630548,516.69
-99.12077851,35.39630574,515.29
-99.12053493,35.39630598,514.03
-99.12012638,35.39630639,516.43
-99.12012131,35.39630639,516.51
-99.11982531,35.39630669,517.53
-99.11953900,35.39630697,518.04
-99.11953437,35.39630698,518.10
-99.11924354,35.39630726,518.21
-99.11900106,35.39630750,518.48
-99.11877972,35.39630772,517.15
-99.11876353,35.39630774,517.38
-99.11854384,35.39630795,516.73
-99.11827371,35.39630822,516.17
-99.11826865,35.39630822,516.13
-99.11824255,35.39630825,516.15
-99.11791131,35.39630857,516.08
-99.11785493,35.39630863,515.76
-99.11785041,35.39630863,515.73
-99.11784557,35.39630864,515.72
-99.11770858,35.39630877,515.30
-99.11744054,35.39630903,514.95
-99.11732712,35.39630914,514.85
-99.11732205,35.39630914,514.83
-99.11722096,35.39630924,514.94
-99.11686450,35.39630959,514.14
-99.11685944,35.39630959,514.13
-99.11674811,35.39630970,513.68
-99.11650496,35.39630994,513.20
-99.11632271,35.39631011,512.75
-99.11631820,35.39631012,512.85
-99.11620411,35.39631023,512.22
-99.11598299,35.39631044,510.68
-99.11563963,35.39631077,508.91
-99.11563490,35.39631077,508.88
-99.11513319,35.39631125,508.54
-99.11512857,35.39631126,508.54
-99.11512427,35.39631126,508.53
-99.11459283,35.39631240,506.37
-99.11454052,35.39631208,505.76
-99.11451663,35.39631193,505.58
-99.11450187,35.39631185,505.41
-99.11449714,35.39631186,505.39
-99.11449240,35.39631186,505.36
-99.11425366,35.39631209,504.46
-99.11423406,35.39631210,516.75
-99.11390370,35.39631242,504.13
-99.11389885,35.39631242,504.11
-99.11389368,35.39631243,504.09
-99.11367398,35.39631263,504.22
-99.11340232,35.39631289,504.50
-99.11326544,35.39631302,504.22
-99.11317162,35.39631310,504.14
-99.11316710,35.39631311,504.15
-99.11309486,35.39631318,504.26
-99.11293684,35.39631332,505.25
-99.11270614,35.39631354,505.00
-99.11254657,35.39631369,505.99
-99.11253160,35.39631370,506.12
-99.11252653,35.39631371,506.18
-99.11227226,35.39631394,507.02
-99.11206997,35.39631413,509.55
-99.11197351,35.39631422,510.88
-99.11196789,35.39631423,510.77
-99.11182308,35.39631436,511.58
-99.11152840,35.39631463,512.26
-99.11152344,35.39631464,512.26
-99.11115091,35.39631498,512.47
-99.11114661,35.39631498,512.36
-99.11060295,35.39631602,509.23
-99.11058423,35.39631586,509.08
-99.11057498,35.39631578,508.97
-99.11055670,35.39631562,508.85
-99.11054712,35.39631553,508.76
-99.11054216,35.39631554,508.71
-99.11012271,35.39631736,507.47
-99.11012079,35.39635785,507.63
-99.11012133,35.39659256,507.84
-99.11012140,35.39680878,508.05
-99.11012143,35.39683493,508.07
-99.11012157,35.39693331,508.25
-99.11012164,35.39698876,508.39
-99.11012165,35.39699291,508.33
-99.11012179,35.39709327,508.38
-99.11012231,35.39748243,509.21
-99.11012256,35.39766051,509.75
-99.11012266,35.39773589,510.06
-99.11012320,35.39813047,511.59
-99.11012321,35.39813958,511.66
-99.11012340,35.39827736,512.16
-99.11012359,35.39842000,512.66
-99.11012399,35.39871539,513.49
-99.11012407,35.39877319,513.61
-99.11012410,35.39879231,513.66
-99.11012410,35.39879591,513.67
-99.11012411,35.39880168,513.64
-99.11012414,35.39882792,513.72
-99.11012427,35.39892242,513.86
-99.11012429,35.39893622,513.89
-99.11012453,35.39911186,514.10
-99.11012508,35.39943349,515.03
-99.11012541,35.39976135,516.28
-99.11012542,35.39976712,516.37
-99.11012593,35.40014474,517.43
-99.11012640,35.40048900,518.46
-99.11012654,35.40059008,519.06
-99.11012662,35.40065122,519.28
-99.11012680,35.40077916,519.27
-99.11012692,35.40087159,519.25
-99.11012697,35.40090288,519.26
-99.11012709,35.40099160,519.42
-99.11012715,35.40104128,519.51
-99.11012734,35.40117897,519.79
-99.11012736,35.40119096,519.86
-99.11012747,35.40127103,520.25
-99.11012776,35.40148771,520.74
-99.11012825,35.40184865,521.68
-99.11012838,35.40194315,521.80
-99.11012865,35.40213971,522.11
-99.11012869,35.40217271,522.12
-99.11012874,35.40220445,522.20
-99.11012874,35.40220842,522.17
-99.11012926,35.40250958,521.99
-99.11012955,35.40272382,521.65
-99.11012978,35.40289253,521.23
-99.11013023,35.40330063,519.98
-99.11013065,35.40361153,518.89
-99.11013067,35.40362298,518.85
-99.11013081,35.40372902,518.92
-99.11013128,35.40407707,519.81
-99.11013177,35.40443278,520.13
-99.11013194,35.40455749,520.07
-99.11013230,35.40482573,519.71
-99.11013271,35.40512410,518.75
-99.11013282,35.40521003,518.60
-99.11013317,35.40530354,518.86
-99.11013640,35.40532887,519.91
-99.11016834,35.40533263,520.04
-99.11055050,35.40533228,519.80
-99.11085568,35.40533200,520.29
-99.11103123,35.40533184,520.68
-99.11120238,35.40533168,520.84
-99.11137364,35.40533152,521.21
-99.11139853,35.40533150,521.26
-99.11172353,35.40533111,521.81
-99.11195668,35.40533098,522.64
-99.11205712,35.40533089,522.65
-99.11222650,35.40533073,523.11
-99.11254842,35.40533043,523.92
-99.11288851,35.40533012,524.69
-99.11327497,35.40532976,524.16
-99.11364490,35.40532941,523.72
-99.11367067,35.40532938,523.74
-99.11384468,35.40532922,523.75
-99.11402101,35.40532905,524.20
-99.11422872,35.40532886,524.68
-99.11474942,35.40532836,525.35
     </coordinates>
    </LineString>
   </MultiGeometry>
  </Placemark>
 </Document>
</kml>
