<kml>
 <Document>
  <Style id="yellow">
   <LineStyle>
   <color>ff00ffff</color>
   <width>1</width>
   </LineStyle>
  </Style>
  <Style id="red">
   <LineStyle>
   <color>ffff0000</color>
   <width>2</width>
   </LineStyle>
  </Style>
  <Style id="green">
   <LineStyle>
   <color>ff00ff00</color>
   <width>1</width>
   </LineStyle>
  </Style>
  <Placemark>
  <styleUrl>#yellow</styleUrl>
   <MultiGeometry>
    <LineString>
     <coordinates>
-99.12107397,35.35695157,540.60
-99.12107455,35.35733767,540.55
-99.12107499,35.35763189,540.46
-99.12107507,35.35768996,540.46
-99.12107522,35.35778771,540.41
-99.12107525,35.35780754,540.44
-99.12107548,35.35796182,540.28
-99.12107553,35.35799500,540.21
-99.12107554,35.35800510,540.24
-99.12107566,35.35808581,540.21
-99.12107584,35.35820275,540.03
-99.12107590,35.35824063,539.96
-99.12107620,35.35844432,539.86
-99.12107649,35.35863692,539.82
-99.12107655,35.35868065,539.83
-99.12107675,35.35881130,539.61
-99.12107715,35.35908046,539.60
-99.12107718,35.35910417,539.53
-99.12107750,35.35931832,539.45
-99.12107754,35.35934177,539.48
-99.12107783,35.35953491,539.29
-99.12107810,35.35971534,539.03
-99.12107827,35.35983048,538.99
-99.12107848,35.35997069,538.78
-99.12107897,35.36022560,538.56
-99.12107954,35.36023786,538.47
-99.12127613,35.36023767,538.80
-99.12133292,35.36023761,538.84
-99.12139687,35.36023755,538.97
-99.12159896,35.36023734,539.09
-99.12165939,35.36023728,539.14
-99.12171498,35.36023723,539.24
-99.12182769,35.36023711,539.38
-99.12187128,35.36023707,539.45
-99.12203122,35.36023691,539.51
-99.12206005,35.36023688,539.45
-99.12215571,35.36023678,539.47
-99.12256605,35.36023637,539.24
-99.12290793,35.36023602,538.93
-99.12291971,35.36023601,539.00
-99.12314635,35.36023578,539.33
-99.12367293,35.36023515,539.26
-99.12383672,35.36023507,539.21
-99.12396693,35.36023494,539.14
-99.12444024,35.36023445,538.91
-99.12489945,35.36023389,539.09
-99.12518817,35.36023368,539.20
-99.12564387,35.36023321,539.00
-99.12581195,35.36023303,538.81
-99.12585311,35.36023299,538.81
-99.12595823,35.36023288,539.62
-99.12622912,35.36023260,538.73
-99.12641415,35.36023240,538.63
-99.12652290,35.36023229,538.71
-99.12660380,35.36023220,538.67
-99.12661183,35.36023220,538.70
-99.12708107,35.36023170,538.66
-99.12709802,35.36023169,538.68
-99.12717826,35.36023160,538.64
-99.12726423,35.36023151,538.60
-99.12727733,35.36023150,538.63
-99.12743803,35.36023133,538.58
-99.12765058,35.36023110,538.53
-99.12784122,35.36023090,538.59
-99.12792102,35.36023082,538.58
-99.12797089,35.36023076,538.62
-99.12831618,35.36023031,538.89
-99.12870275,35.36022990,539.44
-99.12900060,35.36022967,539.14
-99.12918101,35.36022948,538.97
-99.12947787,35.36022916,538.59
-99.12985443,35.36022866,538.55
-99.13030880,35.36022827,537.67
-99.13033951,35.36022823,537.47
-99.13043065,35.36022813,537.08
-99.13043813,35.36022813,537.93
-99.13058222,35.36022797,536.83
-99.13059124,35.36022796,541.99
-99.13069449,35.36022785,537.12
-99.13072696,35.36022781,537.00
-99.13095239,35.36022757,537.20
-99.13113467,35.36022737,537.17
-99.13123032,35.36022727,537.13
-99.13131111,35.36022718,537.14
-99.13164804,35.36022681,537.86
-99.13173885,35.36022672,536.48
-99.13182448,35.36022662,536.22
-99.13183230,35.36022661,536.26
-99.13183813,35.36022661,536.97
-99.13186433,35.36022658,540.85
-99.13200258,35.36022643,542.58
-99.13203373,35.36022639,546.94
-99.13204044,35.36022639,535.52
-99.13207787,35.36022635,540.90
-99.13208260,35.36022616,540.92
-99.13208469,35.36022562,539.45
-99.13208556,35.36021976,540.88
-99.13208566,35.36021281,539.68
-99.13208585,35.36019523,547.04
-99.13208581,35.36016917,544.10
-99.13208570,35.36010118,547.06
-99.13208567,35.36008162,536.44
-99.13208509,35.35979641,536.70
-99.13208450,35.35943141,537.76
-99.13208442,35.35931446,538.00
-99.13208418,35.35916721,538.42
-99.13208398,35.35904846,538.71
-99.13208398,35.35904477,538.72
-99.13208388,35.35898300,538.61
-99.13208385,35.35896641,538.62
-99.13208377,35.35891429,538.80
-99.13208368,35.35886461,538.90
-99.13208362,35.35882556,538.97
-99.13208357,35.35879265,539.04
-99.13208353,35.35877227,539.08
-99.13208348,35.35874171,539.19
-99.13208345,35.35872259,539.30
-99.13208331,35.35863468,539.52
-99.13208322,35.35857823,539.42
-99.13208302,35.35845722,539.65
-99.13208300,35.35844280,539.68
-99.13208293,35.35839979,539.68
-99.13208291,35.35838888,539.67
-99.13208288,35.35837274,539.67
-99.13208284,35.35834704,539.66
-99.13208255,35.35816823,539.83
-99.13208246,35.35811016,539.91
-99.13208230,35.35801441,540.13
-99.13208157,35.35756672,540.51
-99.13208156,35.35755716,540.52
-99.13208152,35.35753525,540.63
-99.13208146,35.35750116,540.72
-99.13208127,35.35738205,540.99
-99.13208090,35.35715266,541.44
-99.13208074,35.35705321,541.51
-99.13208064,35.35699613,541.38
-99.13208017,35.35670615,541.84
-99.13208005,35.35662968,542.07
-99.13208003,35.35662319,542.09
-99.13207988,35.35652770,542.26
-99.13207961,35.35636504,542.33
-99.13207958,35.35634367,542.32
-99.13207949,35.35628948,542.29
-99.13207948,35.35628533,542.31
-99.13207933,35.35618939,542.56
-99.13207933,35.35618813,542.49
-99.13207914,35.35607487,542.32
-99.13207911,35.35605404,542.39
-99.13207910,35.35605188,542.40
-99.13207881,35.35587001,542.55
-99.13207870,35.35580500,542.56
-99.13207859,35.35573854,542.57
-99.13207826,35.35553034,542.67
-99.13207804,35.35539996,542.76
-99.13207789,35.35530294,542.80
-99.13207752,35.35507806,542.99
-99.13207739,35.35499727,543.03
-99.13207729,35.35493694,543.05
-99.13207722,35.35489610,543.04
-99.13207721,35.35488987,543.07
-99.13207716,35.35485759,543.08
-99.13207710,35.35482062,543.10
-99.13207709,35.35481206,543.10
-99.13207698,35.35474741,543.11
-99.13207670,35.35457645,543.10
-99.13207661,35.35452081,543.13
-99.13207645,35.35441919,543.17
-99.13207630,35.35433056,543.22
-99.13207626,35.35430684,543.23
-99.13207614,35.35423074,543.35
-99.13207584,35.35404959,543.46
-99.13207582,35.35403426,543.50
-99.13207564,35.35392579,543.62
-99.13207556,35.35387205,543.72
-99.13207534,35.35373905,543.73
-99.13207529,35.35370758,544.75
-99.13207516,35.35362976,543.77
-99.13207460,35.35335484,544.33
-99.13207426,35.35307676,544.20
-99.13207425,35.35307252,543.30
-99.13207414,35.35300264,543.26
-99.13207411,35.35298515,543.24
-99.13207392,35.35286441,543.00
-99.13207353,35.35262844,542.73
-99.13207343,35.35256523,542.25
-99.13207335,35.35251762,542.05
-99.13207320,35.35242565,541.77
-99.13207298,35.35228958,541.83
-99.13207295,35.35227263,541.86
-99.13207293,35.35226127,541.80
-99.13207229,35.35186417,540.36
-99.13207208,35.35173721,539.91
-99.13207196,35.35166652,539.69
-99.13207193,35.35164614,539.65
-99.13207176,35.35154335,539.49
-99.13207168,35.35148924,539.40
-99.13207162,35.35145696,539.32
-99.13207161,35.35144867,539.29
-99.13207157,35.35142405,539.26
-99.13207139,35.35131396,539.35
-99.13207124,35.35121982,539.09
-99.13207090,35.35121279,539.06
-99.13207023,35.35121125,539.06
-99.13206704,35.35121009,539.03
-99.13203831,35.35120958,539.02
-99.13186310,35.35120977,539.02
-99.13173598,35.35120991,539.33
-99.13166521,35.35120998,539.38
-99.13154261,35.35121012,539.02
-99.13145643,35.35121021,538.99
-99.13127208,35.35121041,539.47
-99.13113979,35.35121055,539.49
-99.13107915,35.35121062,539.36
-99.13098978,35.35121072,539.21
-99.13092903,35.35121078,539.07
-99.13065025,35.35121108,539.03
-99.13063627,35.35121110,538.89
-99.13049330,35.35121125,537.98
-99.13044114,35.35121131,537.80
-99.13037961,35.35121138,538.57
-99.13030862,35.35121145,537.44
-99.13026504,35.35121150,537.32
-99.13022993,35.35121154,537.37
-99.13018657,35.35121158,537.63
-99.13007717,35.35121170,537.38
-99.12984131,35.35121196,536.91
-99.12973357,35.35121207,536.85
-99.12965509,35.35121216,536.82
-99.12959874,35.35121222,536.84
-99.12954294,35.35121228,536.79
-99.12932283,35.35121251,536.75
-99.12899408,35.35121286,536.96
-99.12885849,35.35121301,537.37
-99.12880654,35.35121306,537.45
-99.12867326,35.35121321,536.97
-99.12858840,35.35121330,537.10
-99.12853590,35.35121335,537.18
-99.12846469,35.35121343,537.26
-99.12841176,35.35121348,537.41
-99.12840867,35.35121349,538.27
-99.12838941,35.35121351,537.50
-99.12824182,35.35121366,537.58
-99.12808917,35.35121383,537.59
-99.12794158,35.35121398,537.61
-99.12785519,35.35121407,537.57
-99.12782789,35.35121410,537.56
-99.12768283,35.35121426,537.49
-99.12744775,35.35121450,537.45
-99.12741209,35.35121454,537.45
-99.12716380,35.35121480,537.59
-99.12694302,35.35121503,537.61
-99.12685387,35.35121513,537.66
-99.12683373,35.35121515,537.67
-99.12673512,35.35121525,537.71
-99.12663518,35.35121536,537.91
-99.12646074,35.35121554,538.16
-99.12642343,35.35121558,538.16
-99.12634969,35.35121566,538.34
-99.12597219,35.35121605,539.66
-99.12563408,35.35121640,539.63
-99.12553767,35.35121650,539.52
-99.12538931,35.35121666,539.35
-99.12492739,35.35121722,539.06
-99.12449783,35.35121776,538.43
-99.12404362,35.35121814,538.74
-99.12379522,35.35121839,539.03
-99.12355078,35.35121864,539.67
-99.12331360,35.35121888,539.10
-99.12298650,35.35121913,538.81
-99.12298133,35.35121913,538.83
-99.12297671,35.35121914,538.77
-99.12297164,35.35121914,538.76
-99.12296658,35.35121915,538.80
-99.12296174,35.35121915,538.76
-99.12295701,35.35121916,538.75
-99.12295238,35.35121916,538.76
-99.12259337,35.35121961,538.72
-99.12233737,35.35121978,538.73
-99.12207961,35.35122004,539.21
-99.12156883,35.35122056,538.64
-99.12129104,35.35122084,538.40
-99.12106762,35.35122187,538.24
-99.12106641,35.35122467,538.28
-99.12106588,35.35131123,538.38
-99.12106570,35.35141105,538.63
-99.12106607,35.35165893,538.77
-99.12106610,35.35168002,538.85
-99.12106652,35.35196171,539.29
-99.12106675,35.35211509,539.35
-99.12106684,35.35217406,539.38
-99.12106685,35.35217956,539.32
-99.12106725,35.35244538,539.56
-99.12106729,35.35247387,539.54
-99.12106731,35.35249019,539.47
-99.12106760,35.35268180,539.62
-99.12106784,35.35284329,539.68
-99.12106803,35.35297350,539.89
-99.12106816,35.35305880,539.92
-99.12106821,35.35309234,539.89
-99.12106834,35.35317611,539.94
-99.12106853,35.35330775,539.97
-99.12106918,35.35374426,540.56
-99.12106920,35.35375364,540.54
-99.12106956,35.35399656,540.57
-99.12106958,35.35401170,540.61
-99.12106971,35.35409457,540.59
-99.12107000,35.35428834,540.53
-99.12107005,35.35432306,540.55
-99.12107033,35.35451106,540.49
-99.12107072,35.35477453,540.37
-99.12107078,35.35481051,540.38
-99.12107081,35.35483233,540.36
-99.12107081,35.35483567,540.41
-99.12107100,35.35496163,540.40
-99.12107135,35.35519842,540.41
-99.12107172,35.35544160,540.44
-99.12107185,35.35553114,540.47
-99.12107189,35.35555449,540.44
-99.12107194,35.35559255,540.47
-99.12107203,35.35564809,540.45
-99.12107203,35.35565269,540.53
-99.12107208,35.35568668,540.52
-99.12107223,35.35578361,540.46
-99.12107269,35.35609226,540.83
-99.12107272,35.35611390,540.85
-99.12107288,35.35622039,540.87
-99.12107299,35.35629208,540.94
-99.12107300,35.35630199,540.96
-99.12107308,35.35635501,541.09
-99.12107315,35.35640425,541.16
-99.12107323,35.35645744,541.01
-99.12107347,35.35661398,540.79
-99.12107355,35.35667006,540.77
-99.12107371,35.35677394,540.71
-99.12107397,35.35695157,540.60
     </coordinates>
    </LineString>
   </MultiGeometry>
  </Placemark>
 </Document>
</kml>
