<kml>
 <Document>
  <Style id="yellow">
   <LineStyle>
   <color>ff00ffff</color>
   <width>1</width>
   </LineStyle>
  </Style>
  <Style id="red">
   <LineStyle>
   <color>ffff0000</color>
   <width>2</width>
   </LineStyle>
  </Style>
  <Style id="green">
   <LineStyle>
   <color>ff00ff00</color>
   <width>1</width>
   </LineStyle>
  </Style>
  <Placemark>
  <styleUrl>#yellow</styleUrl>
   <MultiGeometry>
    <LineString>
     <coordinates>
-99.09904799,35.34666169,507.92
-99.09904808,35.34673482,508.81
-99.09904812,35.34677350,509.02
-99.09904815,35.34679235,509.00
-99.09904817,35.34681435,509.01
-99.09904822,35.34685087,508.98
-99.09904827,35.34689144,509.37
-99.09904847,35.34705654,510.59
-99.09904862,35.34718088,511.21
-99.09904873,35.34727060,511.80
-99.09904876,35.34729675,512.05
-99.09904895,35.34745067,512.26
-99.09904896,35.34746212,512.25
-99.09904898,35.34747484,512.27
-99.09904913,35.34759656,511.51
-99.09904921,35.34766022,511.15
-99.09904922,35.34767384,511.05
-99.09904933,35.34775995,510.80
-99.09904984,35.34808708,512.30
-99.09905020,35.34847815,515.63
-99.09905068,35.34886795,513.80
-99.09905083,35.34898841,512.89
-99.09905094,35.34908129,512.25
-99.09905118,35.34927668,510.83
-99.09905122,35.34930680,510.63
-99.09905138,35.34944196,509.86
-99.09905143,35.34948561,509.59
-99.09905146,35.34950644,509.51
-99.09905159,35.34961311,509.21
-99.09905167,35.34968055,509.11
-99.09905186,35.34983402,508.98
-99.09905192,35.34988713,509.01
-99.09905199,35.34993726,509.12
-99.09905221,35.35012184,509.67
-99.09905228,35.35017973,509.69
-99.09905251,35.35036403,507.09
-99.09905271,35.35053472,506.11
-99.09905276,35.35057196,505.39
-99.09905279,35.35059496,505.22
-99.09905286,35.35065239,504.78
-99.09905286,35.35065393,504.80
-99.09905289,35.35067503,504.74
-99.09905291,35.35069288,504.80
-99.09905335,35.35096086,505.59
-99.09905348,35.35116113,506.41
-99.09905379,35.35123750,507.10
-99.09905556,35.35124047,507.19
-99.09906051,35.35124056,507.22
-99.09908010,35.35124081,507.34
-99.09909540,35.35124098,507.47
-99.09925994,35.35124085,508.58
-99.09926654,35.35124084,508.47
-99.09940676,35.35124073,508.84
-99.09941204,35.35124072,508.86
-99.09950867,35.35124064,509.31
-99.09951329,35.35124064,509.27
-99.09967871,35.35124050,510.61
-99.09977303,35.35124043,510.71
-99.09979714,35.35124041,510.85
-99.09993130,35.35124030,511.24
-99.09993603,35.35124029,511.25
-99.10008428,35.35124017,511.78
-99.10019808,35.35124007,512.20
-99.10034424,35.35123995,512.87
-99.10039509,35.35123991,513.00
-99.10040522,35.35123990,512.99
-99.10054763,35.35123978,513.11
-99.10063546,35.35123971,513.05
-99.10064008,35.35123971,513.06
-99.10075245,35.35123961,512.79
-99.10075696,35.35123961,512.77
-99.10083158,35.35123955,512.67
-99.10092546,35.35123947,512.93
-99.10106161,35.35123936,513.39
-99.10112643,35.35123930,513.55
-99.10120601,35.35123923,514.12
-99.10128063,35.35123917,514.80
-99.10135591,35.35123911,515.23
-99.10145804,35.35123902,515.44
-99.10148600,35.35123900,515.51
-99.10159892,35.35123890,516.01
-99.10165494,35.35123886,516.34
-99.10177028,35.35123876,517.17
-99.10191578,35.35123864,518.02
-99.10196233,35.35123860,518.23
-99.10203189,35.35123854,518.56
-99.10208802,35.35123849,518.92
-99.10216275,35.35123843,518.97
-99.10221470,35.35123839,519.22
-99.10222813,35.35123837,519.26
-99.10223308,35.35123837,519.28
-99.10232267,35.35123829,519.43
-99.10236922,35.35123825,519.64
-99.10243504,35.35123820,519.85
-99.10245826,35.35123818,519.85
-99.10250581,35.35123814,520.04
-99.10260497,35.35123805,520.05
-99.10265185,35.35123802,520.01
-99.10269489,35.35123798,520.02
-99.10279218,35.35123790,520.00
-99.10280880,35.35123788,519.99
-99.10289927,35.35123780,520.23
-99.10293240,35.35123778,520.36
-99.10299381,35.35123772,520.61
-99.10313578,35.35123760,521.50
-99.10314261,35.35123760,521.59
-99.10316407,35.35123758,521.82
-99.10321217,35.35123754,521.83
-99.10325531,35.35123750,522.03
-99.10335821,35.35123741,523.43
-99.10345980,35.35123733,523.16
-99.10349854,35.35123729,523.09
-99.10351109,35.35123728,523.11
-99.10355665,35.35123724,523.09
-99.10357019,35.35123723,523.18
-99.10367144,35.35123714,523.27
-99.10368201,35.35123714,523.26
-99.10379845,35.35123704,523.82
-99.10384644,35.35123699,523.88
-99.10403233,35.35123683,525.49
-99.10404972,35.35123682,525.52
-99.10412445,35.35123676,525.23
-99.10419147,35.35123670,526.03
-99.10419665,35.35123669,526.05
-99.10434919,35.35123656,526.64
-99.10439816,35.35123652,526.93
-99.10453387,35.35123640,526.97
-99.10466660,35.35123629,527.42
-99.10479603,35.35123617,527.75
-99.10483103,35.35123614,527.85
-99.10527875,35.35123576,528.35
-99.10544626,35.35123561,528.79
-99.10556237,35.35123551,528.85
-99.10589035,35.35123522,529.45
-99.10604784,35.35123508,529.89
-99.10630219,35.35123486,529.86
-99.10658889,35.35123452,529.57
-99.10688110,35.35123435,529.83
-99.10697641,35.35123426,530.02
-99.10716021,35.35123410,530.11
-99.10716241,35.35123410,530.18
-99.10740828,35.35123388,530.13
-99.10754927,35.35123376,530.22
-99.10759098,35.35123372,530.21
-99.10769543,35.35123363,530.06
-99.10813280,35.35123324,530.62
-99.10831990,35.35123307,530.23
-99.10845374,35.35123295,530.67
-99.10859362,35.35123282,530.84
-99.10873175,35.35123270,530.71
-99.10882794,35.35123261,531.11
-99.10883201,35.35123261,531.13
-99.10907381,35.35123239,531.28
-99.10916219,35.35123231,531.15
-99.10933069,35.35123216,531.03
-99.10945605,35.35123204,531.13
-99.10960309,35.35123191,531.19
-99.10989122,35.35123165,530.53
-99.11002758,35.35123153,530.52
-99.11005487,35.35122690,530.56
-99.11005586,35.35122176,530.54
-99.11005662,35.35121689,530.45
-99.11005868,35.35119696,530.28
-99.11005899,35.35118118,530.12
-99.11005928,35.35114656,529.99
-99.11005905,35.35097875,529.80
-99.11005847,35.35063088,529.82
-99.11005832,35.35044099,529.32
-99.11005825,35.35039112,529.17
-99.11005794,35.35016200,528.71
-99.11005791,35.35013838,528.57
-99.11005758,35.34997544,527.89
-99.11005700,35.34963001,527.48
-99.11005678,35.34939142,527.29
-99.11005670,35.34924958,527.24
-99.11005658,35.34915878,527.15
-99.11005642,35.34903795,527.24
-99.11005637,35.34900477,527.20
-99.11005609,35.34879639,527.16
-99.11005600,35.34873282,527.02
-99.11005595,35.34869189,526.76
-99.11005588,35.34864265,526.52
-99.11005586,35.34862760,526.50
-99.11005577,35.34856231,526.76
-99.11005567,35.34848666,526.91
-99.11005558,35.34842526,526.65
-99.11005551,35.34836953,526.65
-99.11005546,35.34833319,526.60
-99.11005544,35.34831886,526.65
-99.11005536,35.34825880,526.59
-99.11005509,35.34806124,525.98
-99.11005454,35.34773772,524.93
-99.11005419,35.34740094,524.47
-99.11005400,35.34725991,523.96
-99.11005366,35.34708832,523.08
-99.11005339,35.34680898,521.89
-99.11005331,35.34674901,521.43
-99.11005319,35.34666110,521.04
-99.11005285,35.34640980,520.60
-99.11005265,35.34626183,519.53
-99.11005261,35.34623406,519.43
-99.11005214,35.34588546,518.24
-99.11005205,35.34581982,517.94
-99.11005168,35.34563020,517.03
-99.11005144,35.34536645,516.23
-99.11005093,35.34499180,514.63
-99.11005062,35.34476565,514.46
-99.11005025,35.34448911,514.07
-99.11005011,35.34439235,513.67
-99.11004995,35.34427279,512.68
-99.11004980,35.34415999,511.96
-99.11004971,35.34409579,510.40
-99.11004961,35.34402275,512.72
-99.11004923,35.34374242,511.09
-99.11004910,35.34364512,511.11
-99.11004893,35.34360157,511.08
-99.11004849,35.34319229,511.83
-99.11004799,35.34282783,514.46
-99.11004792,35.34277517,514.83
-99.11004783,35.34271034,515.05
-99.11004761,35.34254560,515.50
-99.11004721,35.34241071,515.51
-99.11004430,35.34221820,517.73
-99.11004353,35.34221793,514.80
-99.11003880,35.34221793,514.68
-99.11003418,35.34221794,514.64
-99.11002978,35.34221794,514.66
-99.10948284,35.34221537,512.02
-99.10943739,35.34221523,512.04
-99.10925967,35.34221539,511.26
-99.10871779,35.34221588,509.58
-99.10865044,35.34221594,509.54
-99.10864549,35.34221613,509.57
-99.10863042,35.34221695,509.46
-99.10810771,35.34222842,509.56
-99.10807985,35.34221898,509.46
-99.10804728,35.34221648,509.49
-99.10770448,35.34221679,509.78
-99.10762536,35.34221686,509.83
-99.10747217,35.34221700,509.81
-99.10745489,35.34221701,509.81
-99.10745016,35.34221702,509.79
-99.10744488,35.34221702,509.79
-99.10743982,35.34221702,509.80
-99.10743443,35.34221703,509.77
-99.10742958,35.34221703,509.72
-99.10742419,35.34221704,509.68
-99.10741902,35.34221704,509.70
-99.10699798,35.34221742,509.58
-99.10692975,35.34221748,509.61
-99.10671285,35.34221767,509.87
-99.10650772,35.34221785,510.04
-99.10642133,35.34221793,510.10
-99.10621191,35.34221811,510.09
-99.10612575,35.34221819,510.18
-99.10600348,35.34221829,510.29
-99.10590378,35.34221838,510.18
-99.10578614,35.34221848,510.11
-99.10570504,35.34221855,510.03
-99.10538381,35.34221892,510.32
-99.10506203,35.34221911,510.69
-99.10494439,35.34221922,510.58
-99.10485878,35.34221929,510.55
-99.10453359,35.34221957,509.82
-99.10452896,35.34221958,509.77
-99.10445711,35.34222234,509.52
-99.10445216,35.34222253,509.45
-99.10444863,35.34222298,509.49
-99.10426369,35.34225569,509.60
-99.10401253,35.34240658,602.31
-99.10362164,35.34222829,509.53
-99.10346360,35.34222248,509.55
-99.10318826,35.34222082,509.58
-99.10275787,35.34222110,509.57
-99.10267819,35.34222116,509.51
-99.10236214,35.34222143,509.55
-99.10203827,35.34222171,511.04
-99.10194374,35.34222178,512.83
-99.10174445,35.34222195,515.03
-99.10164320,35.34222204,515.44
-99.10151775,35.34222214,516.20
-99.10144016,35.34222221,516.93
-99.10109176,35.34222250,515.78
-99.10097225,35.34222260,515.00
-99.10061833,35.34222290,514.48
-99.10052634,35.34222297,513.80
-99.10027752,35.34222318,514.76
-99.10012829,35.34222330,514.18
-99.10003079,35.34222338,513.28
-99.09951478,35.34222381,508.62
-99.09909858,35.34222415,506.34
-99.09908956,35.34222416,504.10
-99.09908461,35.34222425,504.05
-99.09907426,35.34222453,503.98
-99.09904433,35.34222546,503.84
-99.09904302,35.34222988,507.48
-99.09904260,35.34224476,509.17
-99.09904273,35.34235170,503.91
-99.09904279,35.34240084,504.30
-99.09904289,35.34248533,504.06
-99.09904302,35.34259164,507.87
-99.09904308,35.34263843,504.08
-99.09904314,35.34268713,503.73
-99.09904329,35.34281147,503.30
-99.09904347,35.34296485,503.88
-99.09904353,35.34300984,502.48
-99.09904365,35.34310876,507.82
-99.09904366,35.34311777,507.91
-99.09904370,35.34315141,503.30
-99.09904377,35.34320704,506.83
-99.09904388,35.34329874,508.38
-99.09904392,35.34332615,505.03
-99.09904394,35.34334365,509.99
-99.09904394,35.34334437,505.21
-99.09904416,35.34352958,511.83
-99.09904425,35.34359964,511.86
-99.09904432,35.34365473,503.08
-99.09904436,35.34368764,512.69
-99.09904437,35.34370261,512.65
-99.09904449,35.34379314,498.58
-99.09904453,35.34382804,507.12
-99.09904453,35.34382867,510.38
-99.09904453,35.34383308,510.51
-99.09904455,35.34384706,508.87
-99.09904455,35.34384868,509.49
-99.09904461,35.34389377,510.25
-99.09904462,35.34390188,509.92
-99.09904466,35.34393930,508.09
-99.09904468,35.34394913,505.31
-99.09904479,35.34404363,500.92
-99.09904480,35.34404976,500.90
-99.09904490,35.34413696,500.91
-99.09904495,35.34417140,501.21
-99.09904497,35.34419313,501.50
-99.09904499,35.34420909,501.75
-99.09904507,35.34426860,501.59
-99.09904507,35.34426896,501.59
-99.09904516,35.34434903,501.69
-99.09904531,35.34446652,501.84
-99.09904550,35.34462423,502.23
-99.09904555,35.34466381,502.33
-99.09904561,35.34471539,502.59
-99.09904568,35.34476814,503.52
-99.09904575,35.34482549,503.52
-99.09904576,35.34483531,503.51
-99.09904588,35.34493685,504.83
-99.09904592,35.34497012,505.35
-99.09904615,35.34515524,505.34
-99.09904615,35.34516055,505.30
-99.09904636,35.34532611,505.76
-99.09904638,35.34534576,505.83
-99.09904657,35.34550428,506.44
-99.09904659,35.34551672,506.49
-99.09904710,35.34593826,508.47
-99.09904713,35.34595972,508.88
-99.09904725,35.34605855,509.72
-99.09904748,35.34624385,508.89
-99.09904760,35.34634574,508.74
-99.09904787,35.34656728,508.01
-99.09904792,35.34660317,507.88
-99.09904795,35.34663130,507.84
-99.09904799,35.34666169,507.92
     </coordinates>
    </LineString>
   </MultiGeometry>
  </Placemark>
 </Document>
</kml>
