<kml>
 <Document>
  <Style id="yellow">
   <LineStyle>
   <color>ff00ffff</color>
   <width>1</width>
   </LineStyle>
  </Style>
  <Style id="red">
   <LineStyle>
   <color>ffff0000</color>
   <width>2</width>
   </LineStyle>
  </Style>
  <Style id="green">
   <LineStyle>
   <color>ff00ff00</color>
   <width>1</width>
   </LineStyle>
  </Style>
  <Placemark>
  <styleUrl>#yellow</styleUrl>
   <MultiGeometry>
    <LineString>
     <coordinates>
-99.12108894,35.36697663,530.18
-99.12108917,35.36713361,530.21
-99.12108938,35.36727094,530.14
-99.12108950,35.36735227,529.91
-99.12108956,35.36739483,530.33
-99.12108968,35.36747039,529.93
-99.12108971,35.36749212,529.90
-99.12108985,35.36758347,529.80
-99.12109019,35.36781267,529.03
-99.12109030,35.36788715,528.93
-99.12109079,35.36821366,528.00
-99.12109083,35.36824224,527.87
-99.12109089,35.36828092,527.64
-99.12109104,35.36838597,527.04
-99.12109119,35.36848245,526.57
-99.12109134,35.36858281,525.91
-99.12109143,35.36864746,525.55
-99.12109155,35.36872590,525.09
-99.12109156,35.36873059,525.06
-99.12109158,35.36874538,524.92
-99.12109169,35.36881616,524.50
-99.12109169,35.36882076,524.50
-99.12109188,35.36894682,523.79
-99.12109211,35.36909857,522.39
-99.12109224,35.36918639,520.97
-99.12109226,35.36919929,520.71
-99.12109230,35.36922616,520.23
-99.12109256,35.36925204,519.78
-99.12109608,35.36925248,519.75
-99.12110544,35.36925311,519.73
-99.12111006,35.36925337,519.75
-99.12111480,35.36925364,519.74
-99.12112448,35.36925417,519.80
-99.12112955,35.36925444,519.77
-99.12116522,35.36925458,519.89
-99.12120815,35.36925463,519.71
-99.12123655,35.36925460,519.68
-99.12158640,35.36925425,521.84
-99.12161260,35.36925422,521.90
-99.12175879,35.36925407,522.37
-99.12195011,35.36925388,522.46
-99.12204038,35.36925379,523.00
-99.12213483,35.36925369,523.29
-99.12224371,35.36925358,523.48
-99.12233199,35.36925349,523.58
-99.12244450,35.36925338,523.77
-99.12252288,35.36925330,523.92
-99.12275493,35.36925307,523.57
-99.12277948,35.36925304,523.43
-99.12285049,35.36925297,523.19
-99.12286975,35.36925295,523.15
-99.12291555,35.36925290,521.16
-99.12330326,35.36925251,519.53
-99.12331713,35.36925249,519.31
-99.12343448,35.36925237,521.20
-99.12349613,35.36925231,522.03
-99.12355634,35.36925225,522.54
-99.12362272,35.36925218,522.61
-99.12369340,35.36925211,522.82
-99.12395132,35.36925184,524.64
-99.12424029,35.36925155,525.38
-99.12452904,35.36925125,526.35
-99.12467193,35.36925110,526.92
-99.12497323,35.36925079,527.32
-99.12512558,35.36925063,527.61
-99.12527255,35.36925048,527.88
-99.12536491,35.36925039,527.97
-99.12544857,35.36925030,528.03
-99.12560082,35.36925014,528.32
-99.12562900,35.36925011,528.36
-99.12594384,35.36924978,529.72
-99.12606152,35.36924966,530.41
-99.12624260,35.36924947,529.74
-99.12627552,35.36924944,529.77
-99.12642028,35.36924929,529.73
-99.12644813,35.36924926,529.78
-99.12664914,35.36924905,529.85
-99.12679401,35.36924889,530.24
-99.12681526,35.36924887,530.26
-99.12697092,35.36924871,530.53
-99.12713879,35.36924853,530.73
-99.12718239,35.36924849,530.84
-99.12740663,35.36924825,531.20
-99.12749789,35.36924815,531.29
-99.12754324,35.36924811,531.34
-99.12769328,35.36924795,531.73
-99.12771211,35.36924793,531.87
-99.12786193,35.36924777,531.75
-99.12788043,35.36924775,531.79
-99.12803939,35.36924758,532.15
-99.12808155,35.36924754,532.26
-99.12821233,35.36924740,532.63
-99.12835940,35.36924724,532.71
-99.12855447,35.36924703,533.00
-99.12910456,35.36924645,533.34
-99.12939463,35.36924614,533.74
-99.12954555,35.36924598,533.48
-99.12961347,35.36924590,538.17
-99.12993998,35.36924555,533.72
-99.13005876,35.36924542,534.31
-99.13013692,35.36924534,534.24
-99.13021057,35.36924526,534.08
-99.13034388,35.36924512,534.71
-99.13041147,35.36924504,535.16
-99.13046321,35.36924499,535.05
-99.13060103,35.36924484,535.39
-99.13060797,35.36924483,535.48
-99.13072003,35.36924471,536.16
-99.13085544,35.36924457,536.22
-99.13085951,35.36924456,536.22
-99.13107637,35.36924433,537.03
-99.13111534,35.36924428,537.08
-99.13118800,35.36924420,537.01
-99.13131569,35.36924407,537.07
-99.13140905,35.36924396,537.08
-99.13152728,35.36924384,537.23
-99.13168359,35.36924367,537.17
-99.13168822,35.36924366,539.40
-99.13173060,35.36924361,537.16
-99.13183100,35.36924350,537.03
-99.13188956,35.36924344,537.07
-99.13194570,35.36924338,537.08
-99.13205546,35.36924317,537.30
-99.13209894,35.36924213,537.39
-99.13210045,35.36922301,537.36
-99.13210051,35.36919659,537.27
-99.13210050,35.36919037,537.26
-99.13210041,35.36913140,536.98
-99.13210024,35.36902753,536.76
-99.13209988,35.36880806,536.77
-99.13209988,35.36880580,536.78
-99.13209987,35.36880364,536.79
-99.13209976,35.36873538,536.81
-99.13209956,35.36861293,536.89
-99.13209949,35.36856956,536.93
-99.13209944,35.36853971,536.82
-99.13209909,35.36832151,536.68
-99.13209856,35.36799645,536.35
-99.13209852,35.36797210,536.33
-99.13209850,35.36795975,536.30
-99.13209839,35.36789321,536.22
-99.13209830,35.36783739,536.18
-99.13209797,35.36763190,536.08
-99.13209747,35.36733064,535.26
-99.13209741,35.36728835,535.34
-99.13209724,35.36718926,535.40
-99.13209721,35.36716789,535.38
-99.13209675,35.36688593,535.44
-99.13209671,35.36686375,535.45
-99.13209614,35.36650830,535.20
-99.13209580,35.36630470,535.03
-99.13209537,35.36603889,535.24
-99.13209524,35.36595864,534.93
-99.13209518,35.36592004,534.82
-99.13209510,35.36587243,534.65
-99.13209503,35.36583051,534.61
-99.13209495,35.36578127,534.53
-99.13209483,35.36570706,534.34
-99.13209478,35.36567893,534.27
-99.13209475,35.36565603,534.20
-99.13209469,35.36562149,534.00
-99.13209449,35.36550139,533.40
-99.13209402,35.36521213,532.42
-99.13209378,35.36506173,532.16
-99.13209377,35.36505704,532.12
-99.13209375,35.36504712,532.09
-99.13209354,35.36491457,532.15
-99.13209348,35.36487697,532.12
-99.13209345,35.36485749,532.09
-99.13209302,35.36459429,531.83
-99.13209281,35.36446896,530.97
-99.13209274,35.36442117,529.45
-99.13209273,35.36441982,529.42
-99.13209256,35.36431324,534.89
-99.13209251,35.36428366,533.85
-99.13209251,35.36428069,537.72
-99.13209250,35.36427473,537.59
-99.13209246,35.36425418,535.31
-99.13209192,35.36391929,531.92
-99.13209184,35.36387393,532.20
-99.13209178,35.36383210,532.34
-99.13209169,35.36378178,532.49
-99.13209116,35.36345231,533.02
-99.13209091,35.36329776,533.02
-99.13209080,35.36323292,533.03
-99.13209071,35.36317837,533.22
-99.13209062,35.36312066,533.24
-99.13209038,35.36297396,533.30
-99.13208966,35.36253583,533.20
-99.13208918,35.36224125,533.39
-99.13208917,35.36223295,533.40
-99.13208903,35.36214675,533.52
-99.13208893,35.36208742,533.64
-99.13208889,35.36206362,533.69
-99.13208874,35.36197056,533.82
-99.13208869,35.36193603,533.85
-99.13208813,35.36159095,534.06
-99.13208770,35.36133081,534.75
-99.13208750,35.36120593,534.96
-99.13208745,35.36117897,534.93
-99.13208740,35.36114561,535.00
-99.13208730,35.36108492,534.94
-99.13208728,35.36107212,535.71
-99.13208725,35.36105544,534.92
-99.13208718,35.36100999,534.92
-99.13208692,35.36085310,535.22
-99.13208691,35.36084697,539.35
-99.13208680,35.36077619,550.09
-99.13208672,35.36072731,544.74
-99.13208670,35.36071469,537.28
-99.13208661,35.36066023,534.40
-99.13208655,35.36062515,544.81
-99.13208648,35.36058341,552.52
-99.13208643,35.36055212,549.60
-99.13208643,35.36054743,553.15
-99.13208641,35.36053769,553.05
-99.13208631,35.36047457,553.65
-99.13208624,35.36043111,532.48
-99.13208603,35.36030298,533.76
-99.13208595,35.36025303,541.73
-99.13208569,35.36023301,534.50
-99.13208425,35.36022643,540.95
-99.13203098,35.36022649,535.80
-99.13192575,35.36022660,536.51
-99.13162118,35.36022693,536.93
-99.13153323,35.36022703,537.40
-99.13143274,35.36022714,537.30
-99.13142592,35.36022715,537.31
-99.13120071,35.36022739,537.16
-99.13083990,35.36022778,537.02
-99.13081634,35.36022781,537.05
-99.13060049,35.36022804,539.47
-99.13054259,35.36022810,537.41
-99.13043384,35.36022822,537.05
-99.13024144,35.36022843,537.75
-99.13014171,35.36022854,537.54
-99.13000710,35.36022868,537.86
-99.12976142,35.36022895,538.41
-99.12956131,35.36022916,538.47
-99.12928283,35.36022955,538.87
-99.12889780,35.36022987,539.27
-99.12861414,35.36023017,539.42
-99.12851156,35.36023028,539.23
-99.12840468,35.36023039,539.04
-99.12802427,35.36023080,538.62
-99.12762922,35.36023122,538.56
-99.12746126,35.36023139,538.52
-99.12699334,35.36023189,538.71
-99.12679411,35.36023209,538.71
-99.12677947,35.36023211,538.73
-99.12645410,35.36023245,538.71
-99.12632972,35.36023258,538.68
-99.12612125,35.36023280,539.31
-99.12599015,35.36023294,542.03
-99.12596307,35.36023296,539.77
-99.12567502,35.36023326,539.01
-99.12549472,35.36023345,539.21
-99.12545543,35.36023349,539.17
-99.12533952,35.36023361,539.18
-99.12504387,35.36023392,539.12
-99.12473016,35.36023424,539.05
-99.12458410,35.36023439,538.96
-99.12428118,35.36023470,538.91
-99.12413204,35.36023486,539.03
-99.12366765,35.36023533,539.25
-99.12352290,35.36023548,539.16
-99.12337541,35.36023563,539.17
-99.12336715,35.36023564,539.15
-99.12306501,35.36023595,539.17
-99.12277222,35.36023625,538.99
-99.12264574,35.36023638,539.07
-99.12262494,35.36023640,539.13
-99.12250276,35.36023652,539.34
-99.12245807,35.36023657,539.38
-99.12243276,35.36023659,539.41
-99.12236858,35.36023666,539.40
-99.12231465,35.36023671,539.41
-99.12219984,35.36023683,539.46
-99.12199390,35.36023704,539.48
-99.12194646,35.36023708,539.52
-99.12154910,35.36023748,539.08
-99.12141382,35.36023762,538.98
-99.12117827,35.36023786,538.59
-99.12111465,35.36023792,538.53
-99.12108416,35.36023822,538.50
-99.12108152,35.36024201,538.52
-99.12107944,35.36024616,538.48
-99.12107903,35.36026870,538.49
-99.12107926,35.36049250,538.38
-99.12107936,35.36056121,538.34
-99.12107938,35.36057609,538.29
-99.12107951,35.36066067,538.32
-99.12107960,35.36072099,538.33
-99.12108014,35.36108690,537.94
-99.12108025,35.36115614,537.91
-99.12108033,35.36121061,537.87
-99.12108043,35.36128103,538.03
-99.12108050,35.36132765,538.06
-99.12108056,35.36136389,538.07
-99.12108057,35.36137255,538.07
-99.12108086,35.36156695,537.31
-99.12108091,35.36160140,537.28
-99.12108133,35.36188218,536.99
-99.12108138,35.36191230,536.99
-99.12108142,35.36194332,536.96
-99.12108143,35.36194756,536.91
-99.12108144,35.36195576,536.89
-99.12108146,35.36196604,536.91
-99.12108147,35.36197380,536.89
-99.12108148,35.36198164,536.90
-99.12108148,35.36198281,536.85
-99.12108161,35.36206604,536.67
-99.12108162,35.36207506,536.60
-99.12108173,35.36214638,536.48
-99.12108175,35.36216333,536.41
-99.12108181,35.36220156,536.33
-99.12108221,35.36246882,536.22
-99.12108226,35.36250065,536.23
-99.12108233,35.36255052,536.32
-99.12108242,35.36260876,536.49
-99.12108247,35.36264438,536.56
-99.12108260,35.36272941,536.42
-99.12108262,35.36274276,536.39
-99.12108262,35.36274645,536.39
-99.12108276,35.36283815,536.22
-99.12108311,35.36307268,536.11
-99.12108326,35.36317250,536.14
-99.12108338,35.36325374,536.18
-99.12108347,35.36331172,537.19
-99.12108352,35.36335058,536.59
-99.12108355,35.36337123,538.40
-99.12108360,35.36340027,540.41
-99.12108361,35.36340541,536.63
-99.12108362,35.36341163,536.70
-99.12108362,35.36341641,540.34
-99.12108373,35.36348836,537.87
-99.12108374,35.36349449,539.94
-99.12108375,35.36350387,536.63
-99.12108377,35.36351316,542.44
-99.12108379,35.36352813,541.82
-99.12108381,35.36354093,541.86
-99.12108386,35.36357582,536.40
-99.12108415,35.36376888,536.37
-99.12108422,35.36381955,536.03
-99.12108438,35.36392279,535.77
-99.12108462,35.36408699,535.49
-99.12108466,35.36410944,535.40
-99.12108481,35.36421431,535.35
-99.12108499,35.36432882,535.07
-99.12108500,35.36433856,535.03
-99.12108506,35.36438202,534.70
-99.12108525,35.36450357,533.94
-99.12108547,35.36465208,533.35
-99.12108573,35.36482728,533.00
-99.12108593,35.36496163,533.08
-99.12108606,35.36504693,532.61
-99.12108609,35.36507118,532.54
-99.12108622,35.36515820,532.33
-99.12108624,35.36516812,532.33
-99.12108628,35.36519814,532.29
-99.12108639,35.36526928,532.36
-99.12108646,35.36531906,532.44
-99.12108650,35.36534620,532.40
-99.12108653,35.36536315,532.39
-99.12108675,35.36551382,532.19
-99.12108690,35.36561364,532.53
-99.12108707,35.36572824,531.81
-99.12108735,35.36591056,531.51
-99.12108750,35.36601002,531.51
-99.12108766,35.36612363,531.51
-99.12108781,35.36622020,531.54
-99.12108786,35.36625690,531.48
-99.12108788,35.36626430,531.45
-99.12108791,35.36628540,531.41
-99.12108793,35.36630298,531.25
-99.12108797,35.36632958,531.04
-99.12108801,35.36635510,530.82
-99.12108834,35.36657745,530.60
-99.12108839,35.36661082,530.61
-99.12108845,35.36664814,530.60
-99.12108862,35.36676600,530.55
-99.12108883,35.36690693,530.26
-99.12108891,35.36695887,530.20
-99.12108894,35.36697663,530.18
     </coordinates>
    </LineString>
   </MultiGeometry>
  </Placemark>
 </Document>
</kml>
