<kml>
 <Document>
  <Style id="yellow">
   <LineStyle>
   <color>ff00ffff</color>
   <width>1</width>
   </LineStyle>
  </Style>
  <Style id="red">
   <LineStyle>
   <color>ffff0000</color>
   <width>2</width>
   </LineStyle>
  </Style>
  <Style id="green">
   <LineStyle>
   <color>ff00ff00</color>
   <width>1</width>
   </LineStyle>
  </Style>
  <Placemark>
  <styleUrl>#yellow</styleUrl>
   <MultiGeometry>
    <LineString>
     <coordinates>
-99.05684584,35.39635265,503.74
-99.05687711,35.39635263,503.68
-99.05699197,35.39635258,503.87
-99.05724459,35.39635246,503.79
-99.05729667,35.39635244,503.66
-99.05733158,35.39635242,503.60
-99.05740437,35.39635239,503.47
-99.05760909,35.39635229,502.89
-99.05761261,35.39635229,502.84
-99.05796004,35.39635203,501.46
-99.05825197,35.39635198,500.07
-99.05840680,35.39635191,498.80
-99.05845514,35.39635188,497.72
-99.05849302,35.39635186,497.46
-99.05864708,35.39635179,498.27
-99.05904010,35.39635160,499.03
-99.05939172,35.39635142,499.01
-99.05942729,35.39635141,499.02
-99.05954126,35.39635135,498.97
-99.05995377,35.39635115,498.29
-99.06030792,35.39635097,497.51
-99.06036298,35.39635094,497.39
-99.06040835,35.39635092,497.25
-99.06046837,35.39635089,496.98
-99.06050493,35.39635087,496.79
-99.06051032,35.39635087,496.71
-99.06061263,35.39635082,496.24
-99.06063817,35.39635081,496.14
-99.06064214,35.39635080,496.22
-99.06068553,35.39635078,495.75
-99.06069323,35.39635078,495.91
-99.06082604,35.39635071,495.42
-99.06088837,35.39635068,494.92
-99.06090962,35.39635067,494.85
-99.06095466,35.39635065,494.63
-99.06109980,35.39635057,494.22
-99.06111808,35.39635056,494.20
-99.06118856,35.39635053,493.94
-99.06134614,35.39635045,491.66
-99.06139657,35.39635042,491.58
-99.06147994,35.39635038,491.10
-99.06157431,35.39635033,490.76
-99.06159182,35.39635032,490.63
-99.06165161,35.39635029,489.43
-99.06180578,35.39635021,486.55
-99.06194718,35.39635014,486.98
-99.06205576,35.39635009,487.83
-99.06212359,35.39635005,488.37
-99.06217458,35.39635002,488.86
-99.06233469,35.39634994,491.75
-99.06250175,35.39634986,493.50
-99.06254073,35.39634984,493.76
-99.06267276,35.39634977,494.64
-99.06274511,35.39634973,495.28
-99.06288199,35.39634966,495.99
-99.06292031,35.39634964,495.87
-99.06300213,35.39634960,495.55
-99.06311313,35.39634954,495.26
-99.06321467,35.39634948,495.55
-99.06336906,35.39634940,494.62
-99.06355758,35.39634931,494.55
-99.06375635,35.39634920,494.73
-99.06380018,35.39634918,494.84
-99.06394653,35.39634910,494.88
-99.06399509,35.39634907,495.53
-99.06434583,35.39634889,496.27
-99.06474160,35.39634868,496.72
-99.06528592,35.39634838,494.71
-99.06548557,35.39634828,493.39
-99.06558061,35.39634822,493.07
-99.06562157,35.39634820,492.91
-99.06565318,35.39634818,492.79
-99.06572839,35.39634814,492.47
-99.06577343,35.39634812,492.40
-99.06589742,35.39634805,492.12
-99.06592099,35.39634804,492.08
-99.06597627,35.39634801,491.98
-99.06600788,35.39634799,491.88
-99.06606987,35.39634796,491.83
-99.06607119,35.39634471,491.83
-99.06607174,35.39634119,491.78
-99.06607228,35.39633100,491.82
-99.06607228,35.39619719,490.40
-99.06607224,35.39614841,490.32
-99.06607217,35.39606257,489.97
-99.06607203,35.39588242,490.09
-99.06607202,35.39587466,490.17
-99.06607201,35.39585843,490.15
-99.06607187,35.39569297,489.76
-99.06607183,35.39563824,489.62
-99.06607175,35.39554446,489.57
-99.06607163,35.39539289,489.51
-99.06607157,35.39532436,489.37
-99.06607146,35.39518559,489.04
-99.06607138,35.39508596,489.21
-99.06607125,35.39492717,488.67
-99.06607118,35.39484142,489.01
-99.06607114,35.39479652,488.99
-99.06607111,35.39476081,488.95
-99.06607105,35.39468282,488.64
-99.06607104,35.39467046,488.57
-99.06607101,35.39464107,488.38
-99.06607082,35.39440122,487.64
-99.06607075,35.39431556,487.54
-99.06607066,35.39420826,487.39
-99.06607043,35.39392125,486.81
-99.06607037,35.39385417,486.65
-99.06607028,35.39373821,486.42
-99.06607020,35.39363758,486.22
-99.06607009,35.39350314,486.07
-99.06606995,35.39333480,485.84
-99.06606971,35.39303895,485.52
-99.06606951,35.39279297,485.48
-99.06606948,35.39276078,485.38
-99.06606928,35.39252130,485.70
-99.06606925,35.39247612,485.66
-99.06606919,35.39240831,485.48
-99.06606879,35.39204899,484.29
-99.06606878,35.39189787,484.35
-99.06606845,35.39163602,484.19
-99.06606827,35.39141042,484.04
-99.06606807,35.39103631,482.43
-99.06606792,35.39084984,482.18
-99.06606781,35.39071766,482.08
-99.06606778,35.39068105,482.08
-99.06606761,35.39046365,481.98
-99.06606753,35.39036663,481.95
-99.06606745,35.39026555,481.94
-99.06606729,35.39006934,481.64
-99.06606704,35.38976944,481.44
-99.06606690,35.38959452,481.36
-99.06606655,35.38916847,480.96
-99.06606649,35.38908876,481.05
-99.06606644,35.38903709,481.04
-99.06606637,35.38894819,480.87
-99.06606637,35.38894521,480.88
-99.06606634,35.38890698,480.87
-99.06606623,35.38877488,480.72
-99.06606622,35.38875892,480.69
-99.06606607,35.38858319,480.54
-99.06606603,35.38853522,480.47
-99.06606602,35.38851331,480.49
-99.06606601,35.38850050,480.43
-99.06606597,35.38845650,480.36
-99.06606595,35.38843504,480.33
-99.06606595,35.38842882,480.37
-99.06606592,35.38839392,480.44
-99.06606591,35.38838049,480.53
-99.06606587,35.38833793,480.41
-99.06606585,35.38831484,480.25
-99.06606581,35.38825542,479.98
-99.06606576,35.38819934,479.76
-99.06606554,35.38793442,478.87
-99.06606544,35.38780061,478.54
-99.06606535,35.38769070,478.34
-99.06606523,35.38755021,478.02
-99.06606499,35.38739368,477.89
-99.06606484,35.38733976,477.84
-99.06606362,35.38733174,477.84
-99.06605900,35.38733138,477.82
-99.06601969,35.38733122,477.82
-99.06589086,35.38733129,477.86
-99.06569190,35.38733140,478.15
-99.06555448,35.38733147,478.33
-99.06538888,35.38733156,478.61
-99.06518352,35.38733167,479.04
-99.06513497,35.38733170,479.10
-99.06462506,35.38733197,480.50
-99.06436751,35.38733220,480.91
-99.06393335,35.38733234,481.99
-99.06339085,35.38733263,483.55
-99.06337367,35.38733264,483.63
-99.06322866,35.38733271,484.01
-99.06321600,35.38733272,484.05
-99.06315643,35.38733275,484.42
-99.06293687,35.38733286,484.74
-99.06286740,35.38733290,484.62
-99.06284890,35.38733291,484.60
-99.06265169,35.38733301,484.58
-99.06256757,35.38733306,484.62
-99.06249314,35.38733310,484.66
-99.06210390,35.38733330,484.81
-99.06180342,35.38733354,484.91
-99.06151835,35.38733360,484.42
-99.06141022,35.38733365,484.41
-99.06123999,35.38733374,483.10
-99.06117800,35.38733377,483.24
-99.06113143,35.38733379,483.12
-99.06100744,35.38733385,481.62
-99.06094854,35.38733388,481.40
-99.06051361,35.38733410,479.88
-99.06025838,35.38733423,478.04
-99.06010070,35.38733431,477.83
-99.05992012,35.38733440,477.58
-99.05959321,35.38733456,477.73
-99.05950810,35.38733460,477.83
-99.05941726,35.38733465,477.87
-99.05924659,35.38733473,478.09
-99.05908473,35.38733481,478.41
-99.05874758,35.38733497,479.44
-99.05856590,35.38733506,479.79
-99.05843366,35.38733513,480.64
-99.05830550,35.38733519,481.84
-99.05814551,35.38733527,483.17
-99.05804916,35.38733531,483.34
-99.05786858,35.38733540,484.75
-99.05785427,35.38733541,484.63
-99.05770970,35.38733547,485.20
-99.05753452,35.38733556,486.07
-99.05751183,35.38733557,485.99
-99.05735581,35.38733564,486.08
-99.05726035,35.38733569,486.14
-99.05721278,35.38733571,486.15
-99.05717424,35.38733573,486.21
-99.05711721,35.38733576,486.20
-99.05675198,35.38733593,486.21
-99.05671553,35.38733595,486.15
-99.05657922,35.38733601,486.05
-99.05614990,35.38733621,486.21
-99.05596811,35.38733629,485.92
-99.05563845,35.38733654,485.28
-99.05539170,35.38733656,481.00
-99.05536747,35.38733657,484.50
-99.05515959,35.38733676,483.77
-99.05506798,35.38733689,482.83
-99.05505807,35.38733951,482.76
-99.05505698,35.38735907,482.72
-99.05505460,35.38741723,482.63
-99.05505440,35.38744627,482.62
-99.05505465,35.38780775,483.40
-99.05505495,35.38808836,483.97
-99.05505498,35.38829467,484.50
-99.05505500,35.38833218,484.67
-99.05505515,35.38855579,484.51
-99.05505516,35.38857094,484.49
-99.05505526,35.38870538,484.42
-99.05505543,35.38896489,484.39
-99.05505572,35.38922457,485.07
-99.05505574,35.38942367,485.94
-99.05505575,35.38943890,485.91
-99.05505595,35.38973069,487.21
-99.05505596,35.38974016,487.19
-99.05505602,35.38983474,487.34
-99.05505610,35.38994863,488.10
-99.05505612,35.38998028,488.51
-99.05505613,35.38999750,488.52
-99.05505614,35.39000336,488.47
-99.05505636,35.39033608,489.42
-99.05505644,35.39044185,489.58
-99.05505646,35.39047242,489.64
-99.05505646,35.39047972,489.65
-99.05505657,35.39064184,489.97
-99.05505673,35.39070974,489.96
-99.05505689,35.39111243,490.06
-99.05505704,35.39133037,490.29
-99.05505711,35.39143307,490.95
-99.05505715,35.39149511,490.86
-99.05505715,35.39149962,490.85
-99.05505738,35.39183847,491.33
-99.05505750,35.39201430,491.43
-99.05505755,35.39208048,491.47
-99.05505778,35.39241293,491.80
-99.05505782,35.39248272,491.78
-99.05505786,35.39253421,491.78
-99.05505787,35.39255080,491.81
-99.05505788,35.39256784,491.79
-99.05505799,35.39273601,491.22
-99.05505810,35.39289524,491.62
-99.05505816,35.39298280,491.72
-99.05505838,35.39314095,491.70
-99.05505849,35.39347187,491.78
-99.05505853,35.39352678,492.36
-99.05505880,35.39391397,492.82
-99.05505888,35.39403894,493.07
-99.05505935,35.39440205,494.98
-99.05505948,35.39475722,495.83
-99.05505951,35.39480528,496.10
-99.05505971,35.39509473,497.31
-99.05505990,35.39554133,498.01
-99.05506003,35.39573627,498.63
-99.05506005,35.39575377,498.84
-99.05506007,35.39579037,499.06
-99.05506011,35.39584114,498.97
-99.05506024,35.39603509,500.13
-99.05506029,35.39611083,500.19
-99.05506034,35.39618080,500.64
-99.05506051,35.39627142,500.96
-99.05506088,35.39633427,501.35
-99.05506199,35.39635104,501.38
-99.05507091,35.39635221,501.31
-99.05507576,35.39635284,501.35
-99.05508061,35.39635347,501.34
-99.05553298,35.39635326,500.75
-99.05569409,35.39635319,498.82
-99.05579154,35.39635314,498.19
-99.05582623,35.39635313,498.25
-99.05601046,35.39635304,500.89
-99.05607742,35.39635301,501.16
-99.05628400,35.39635291,501.96
-99.05634920,35.39635288,502.17
-99.05641989,35.39635285,502.35
-99.05653816,35.39635279,502.80
-99.05660974,35.39635276,502.97
-99.05684584,35.39635265,503.74
     </coordinates>
    </LineString>
   </MultiGeometry>
  </Placemark>
 </Document>
</kml>
