<kml>
 <Document>
  <Style id="yellow">
   <LineStyle>
   <color>ff00ffff</color>
   <width>1</width>
   </LineStyle>
  </Style>
  <Style id="red">
   <LineStyle>
   <color>ffff0000</color>
   <width>2</width>
   </LineStyle>
  </Style>
  <Style id="green">
   <LineStyle>
   <color>ff00ff00</color>
   <width>1</width>
   </LineStyle>
  </Style>
  <Placemark>
  <styleUrl>#yellow</styleUrl>
   <MultiGeometry>
    <LineString>
     <coordinates>
-99.08070779,35.35125466,494.48
-99.08091591,35.35125452,487.29
-99.08097590,35.35125448,490.28
-99.08098624,35.35125447,490.80
-99.08116696,35.35125435,485.96
-99.08130894,35.35125426,484.91
-99.08131455,35.35125425,484.81
-99.08140920,35.35125419,484.20
-99.08141349,35.35125419,484.37
-99.08158992,35.35125407,497.74
-99.08159564,35.35125406,497.67
-99.08161116,35.35125405,497.70
-99.08161380,35.35125405,486.91
-99.08162701,35.35125404,497.61
-99.08166454,35.35125402,497.14
-99.08169073,35.35125400,490.85
-99.08176623,35.35125395,496.50
-99.08177185,35.35125394,496.45
-99.08188279,35.35125387,484.78
-99.08212415,35.35125371,484.08
-99.08213922,35.35125370,484.80
-99.08220878,35.35125365,488.35
-99.08242362,35.35125350,499.78
-99.08252465,35.35125343,488.02
-99.08266927,35.35125333,495.79
-99.08281114,35.35125324,486.31
-99.08281565,35.35125323,486.61
-99.08289181,35.35125318,490.72
-99.08311743,35.35125303,485.04
-99.08355547,35.35125272,489.19
-99.08358705,35.35125270,491.08
-99.08381642,35.35125254,486.41
-99.08382357,35.35125254,492.78
-99.08384074,35.35125253,491.74
-99.08384547,35.35125252,491.60
-99.08388476,35.35125250,490.14
-99.08389368,35.35125249,486.92
-99.08390392,35.35125248,486.94
-99.08390909,35.35125248,486.95
-99.08391118,35.35125248,491.81
-99.08406867,35.35125237,500.50
-99.08418886,35.35125229,492.13
-99.08424125,35.35125225,492.83
-99.08429419,35.35125221,495.80
-99.08432577,35.35125219,497.59
-99.08436121,35.35125216,487.16
-99.08436605,35.35125216,487.28
-99.08448129,35.35125208,493.79
-99.08448998,35.35125207,494.46
-99.08450770,35.35125206,495.41
-99.08451243,35.35125206,495.59
-99.08452113,35.35125205,496.12
-99.08454985,35.35125203,495.96
-99.08458705,35.35125201,492.76
-99.08459135,35.35125200,492.38
-99.08459630,35.35125200,492.26
-99.08460455,35.35125199,491.50
-99.08460874,35.35125199,491.19
-99.08465826,35.35125196,486.61
-99.08466277,35.35125195,486.34
-99.08467576,35.35125194,485.64
-99.08468457,35.35125194,485.07
-99.08485153,35.35125182,501.11
-99.08486936,35.35125181,500.16
-99.08487673,35.35125180,498.86
-99.08488520,35.35125180,498.24
-99.08488619,35.35125180,498.20
-99.08489016,35.35125179,498.21
-99.08489082,35.35125179,498.28
-99.08494860,35.35125175,493.08
-99.08499075,35.35125172,489.70
-99.08499559,35.35125172,489.61
-99.08505040,35.35125168,489.71
-99.08520328,35.35125157,498.53
-99.08522463,35.35125156,499.88
-99.08535879,35.35125146,502.95
-99.08536693,35.35125146,501.89
-99.08538785,35.35125144,500.22
-99.08539181,35.35125144,490.10
-99.08539313,35.35125144,500.30
-99.08546907,35.35125139,493.53
-99.08547732,35.35125138,492.51
-99.08548250,35.35125138,495.61
-99.08548679,35.35125137,495.77
-99.08557021,35.35125131,486.01
-99.08557517,35.35125131,486.10
-99.08570041,35.35125122,490.68
-99.08579341,35.35125116,498.56
-99.08579694,35.35125115,497.77
-99.08580233,35.35125115,497.89
-99.08581410,35.35125114,496.17
-99.08581928,35.35125114,496.15
-99.08582346,35.35125114,495.85
-99.08583281,35.35125113,495.31
-99.08587959,35.35125110,490.63
-99.08588476,35.35125109,490.64
-99.08588939,35.35125109,490.63
-99.08598095,35.35125102,490.60
-99.08607528,35.35125096,496.33
-99.08635230,35.35125076,494.84
-99.08644849,35.35125069,492.93
-99.08646654,35.35125068,491.76
-99.08647952,35.35125067,490.18
-99.08648459,35.35125066,490.15
-99.08651981,35.35125064,490.19
-99.08657957,35.35125060,493.89
-99.08658430,35.35125059,494.06
-99.08690248,35.35125036,491.33
-99.08690721,35.35125036,491.42
-99.08691217,35.35125036,491.34
-99.08744926,35.35124979,491.98
-99.08747358,35.35124995,492.02
-99.08747798,35.35124995,492.03
-99.08748282,35.35124995,492.06
-99.08791855,35.35124963,492.02
-99.08792350,35.35124963,492.01
-99.08792856,35.35124962,492.02
-99.08804522,35.35124665,492.06
-99.08804753,35.35123844,492.05
-99.08804742,35.35114314,491.88
-99.08804718,35.35091654,491.13
-99.08804704,35.35079202,497.53
-99.08804700,35.35075261,500.40
-99.08804699,35.35074585,499.78
-99.08804694,35.35069707,491.54
-99.08804688,35.35064703,502.45
-99.08804678,35.35055064,502.18
-99.08804642,35.35022107,501.47
-99.08804619,35.35001043,500.41
-99.08804615,35.34997256,505.69
-99.08804610,35.34992162,494.34
-99.08804603,35.34986057,506.70
-99.08804598,35.34981215,503.21
-99.08804583,35.34967374,504.08
-99.08804540,35.34927564,498.41
-99.08804529,35.34917646,492.42
-99.08804524,35.34912885,492.32
-99.08804510,35.34900685,492.75
-99.08804494,35.34885807,493.13
-99.08804485,35.34877403,493.83
-99.08804466,35.34859613,494.15
-99.08804434,35.34830533,495.21
-99.08804420,35.34817270,496.25
-99.08804408,35.34806431,496.49
-99.08804388,35.34787550,497.73
-99.08804379,35.34779371,498.13
-99.08804362,35.34763583,498.92
-99.08804357,35.34759507,499.14
-99.08804339,35.34742528,500.06
-99.08804302,35.34708787,500.74
-99.08804290,35.34697092,500.83
-99.08804275,35.34683603,501.33
-99.08804236,35.34647661,506.26
-99.08804207,35.34621296,505.50
-99.08804207,35.34620836,505.50
-99.08804167,35.34594056,504.52
-99.08804147,35.34565950,504.15
-99.08804128,35.34548539,505.50
-99.08804115,35.34536185,505.77
-99.08804107,35.34528404,503.98
-99.08804096,35.34518575,503.76
-99.08804057,35.34493337,504.48
-99.08804034,35.34461561,508.70
-99.08804001,35.34430850,510.73
-99.08803979,35.34411238,513.03
-99.08803969,35.34401797,514.57
-99.08803947,35.34381275,514.87
-99.08803943,35.34377361,515.24
-99.08803933,35.34368362,515.92
-99.08803931,35.34366541,515.96
-99.08803924,35.34360265,516.44
-99.08803870,35.34341222,517.79
-99.08803853,35.34304946,519.64
-99.08803849,35.34290610,519.77
-99.08803823,35.34267454,519.50
-99.08803813,35.34257499,518.70
-99.08803776,35.34223975,516.26
-99.08803688,35.34223361,516.23
-99.08783395,35.34223286,515.80
-99.08750942,35.34223310,515.22
-99.08720767,35.34223331,514.87
-99.08691109,35.34223353,514.55
-99.08661815,35.34223374,514.17
-99.08636152,35.34223392,513.86
-99.08629384,35.34223397,513.67
-99.08620954,35.34223403,513.38
-99.08606076,35.34223414,512.84
-99.08586950,35.34223427,512.22
-99.08577750,35.34223434,511.92
-99.08523243,35.34223472,510.36
-99.08514264,35.34223479,510.32
-99.08502742,35.34223487,509.75
-99.08498967,35.34223489,509.56
-99.08469706,35.34223510,509.12
-99.08457237,35.34223519,508.70
-99.08424322,35.34223542,507.34
-99.08416883,35.34223547,507.15
-99.08374471,35.34223576,505.15
-99.08371500,35.34223578,504.76
-99.08363356,35.34223584,504.77
-99.08332620,35.34223605,503.96
-99.08298582,35.34223629,502.04
-99.08252726,35.34223660,499.24
-99.08230617,35.34223675,498.93
-99.08210358,35.34223689,498.97
-99.08201356,35.34223695,499.53
-99.08189063,35.34223703,498.67
-99.08181987,35.34223708,497.88
-99.08177641,35.34223711,497.88
-99.08175682,35.34223712,497.88
-99.08174174,35.34223713,497.83
-99.08169805,35.34223716,497.30
-99.08166658,35.34223718,496.87
-99.08161321,35.34223722,496.55
-99.08156049,35.34223726,496.19
-99.08154894,35.34223726,496.09
-99.08151064,35.34223729,495.91
-99.08148632,35.34223731,495.80
-99.08144087,35.34223734,495.66
-99.08142701,35.34223735,495.63
-99.08138244,35.34223738,495.50
-99.08134271,35.34223740,495.34
-99.08126249,35.34223746,495.23
-99.08122991,35.34223748,495.11
-99.08119051,35.34223750,495.04
-99.08112988,35.34223755,495.00
-99.08110270,35.34223756,495.04
-99.08103953,35.34223761,495.13
-99.08091045,35.34223769,495.19
-99.08088701,35.34223771,495.08
-99.08079214,35.34223777,494.98
-99.08073844,35.34223781,494.90
-99.08069035,35.34223784,494.89
-99.08062069,35.34223789,494.85
-99.08061574,35.34223789,494.86
-99.08050734,35.34223796,494.98
-99.08045705,35.34223800,495.09
-99.08038398,35.34223804,495.13
-99.08017335,35.34223818,495.16
-99.08016036,35.34223819,495.16
-99.08004834,35.34223827,495.10
-99.08004360,35.34223827,495.15
-99.08001488,35.34223829,502.65
-99.08000124,35.34223830,501.20
-99.07993785,35.34223834,494.99
-99.07993312,35.34223834,495.02
-99.07988338,35.34223838,498.16
-99.07987622,35.34223838,499.15
-99.07986984,35.34223838,498.54
-99.07984057,35.34223840,500.85
-99.07983540,35.34223841,500.97
-99.07978235,35.34223844,495.28
-99.07977729,35.34223845,495.22
-99.07964160,35.34223854,492.66
-99.07964116,35.34223854,497.58
-99.07961266,35.34223855,494.65
-99.07958196,35.34223857,503.34
-99.07957447,35.34223858,490.57
-99.07957348,35.34223858,502.31
-99.07951450,35.34223862,504.51
-99.07946421,35.34223865,502.56
-99.07945881,35.34223866,502.72
-99.07911360,35.34223888,493.73
-99.07910875,35.34223889,493.98
-99.07910380,35.34223889,494.06
-99.07906760,35.34223891,496.04
-99.07906319,35.34223891,495.98
-99.07905659,35.34223892,506.50
-99.07904647,35.34223893,506.72
-99.07897208,35.34223897,494.96
-99.07875407,35.34223912,495.23
-99.07874912,35.34223912,495.20
-99.07862741,35.34223920,500.98
-99.07861211,35.34223921,501.86
-99.07860254,35.34223922,502.40
-99.07859737,35.34223922,502.60
-99.07840687,35.34223934,497.32
-99.07840203,35.34223935,497.49
-99.07839741,35.34223935,497.59
-99.07839224,35.34223935,497.68
-99.07809522,35.34223954,498.49
-99.07809038,35.34223955,498.50
-99.07773272,35.34223978,499.46
-99.07772799,35.34223978,499.45
-99.07733898,35.34224003,499.19
-99.07733435,35.34224003,499.10
-99.07725182,35.34224009,498.35
-99.07716026,35.34224014,498.01
-99.07707343,35.34224038,497.84
-99.07706859,35.34224065,497.84
-99.07706309,35.34224102,497.84
-99.07703657,35.34224284,497.84
-99.07703383,35.34225059,497.82
-99.07703319,35.34227819,497.65
-99.07703324,35.34232661,497.48
-99.07703334,35.34243806,497.44
-99.07703342,35.34251560,497.67
-99.07703370,35.34281523,500.84
-99.07703381,35.34293110,501.58
-99.07703394,35.34306978,501.85
-99.07703395,35.34307312,501.82
-99.07703396,35.34308385,501.82
-99.07703397,35.34309755,501.84
-99.07703399,35.34311478,501.86
-99.07703405,35.34318718,501.33
-99.07703406,35.34318754,501.34
-99.07703415,35.34328898,501.06
-99.07703418,35.34331531,501.01
-99.07703427,35.34341143,500.83
-99.07703466,35.34370566,500.43
-99.07703479,35.34396525,500.16
-99.07703508,35.34426416,499.95
-99.07703510,35.34429049,499.89
-99.07703541,35.34461799,499.64
-99.07703549,35.34470203,499.67
-99.07703561,35.34482529,499.65
-99.07703562,35.34483412,499.68
-99.07703582,35.34504575,499.54
-99.07703589,35.34512393,499.74
-99.07703609,35.34533483,499.65
-99.07703610,35.34534403,499.63
-99.07703614,35.34538019,499.76
-99.07703617,35.34541211,499.81
-99.07703624,35.34548623,499.63
-99.07703630,35.34555620,499.40
-99.07703642,35.34568334,498.92
-99.07703654,35.34580425,498.13
-99.07703658,35.34584492,497.77
-99.07703674,35.34601877,496.86
-99.07703684,35.34612471,496.18
-99.07703687,35.34615357,495.63
-99.07703707,35.34636511,498.87
-99.07703708,35.34637079,498.86
-99.07703709,35.34638575,499.76
-99.07703711,35.34640271,493.98
-99.07703713,35.34643273,495.63
-99.07703715,35.34644626,495.44
-99.07703716,35.34646023,497.33
-99.07703719,35.34649342,497.43
-99.07703721,35.34650983,494.29
-99.07703725,35.34655031,495.12
-99.07703739,35.34670396,497.39
-99.07703750,35.34682001,499.10
-99.07703759,35.34691739,500.11
-99.07703761,35.34693380,500.41
-99.07703778,35.34710972,504.03
-99.07703789,35.34722415,501.56
-99.07703790,35.34724227,501.22
-99.07703800,35.34734200,499.61
-99.07703808,35.34743181,500.14
-99.07703811,35.34745651,498.43
-99.07703823,35.34758068,497.39
-99.07703824,35.34759997,499.04
-99.07703827,35.34762378,498.53
-99.07703833,35.34768753,496.53
-99.07703833,35.34769140,499.79
-99.07703835,35.34771593,499.67
-99.07703837,35.34772891,496.22
-99.07703837,35.34773261,498.40
-99.07703849,35.34785768,495.67
-99.07703850,35.34787337,498.43
-99.07703855,35.34792007,495.23
-99.07703857,35.34794848,494.94
-99.07703865,35.34802395,494.38
-99.07703880,35.34819166,492.99
-99.07703898,35.34837146,491.99
-99.07703907,35.34847019,491.77
-99.07703907,35.34847245,491.73
-99.07703909,35.34849265,491.71
-99.07703920,35.34860292,491.28
-99.07703929,35.34870590,490.86
-99.07703939,35.34880833,490.43
-99.07703974,35.34917415,489.90
-99.07703987,35.34931319,489.36
-99.07703992,35.34936503,489.34
-99.07704024,35.34969947,487.77
-99.07704027,35.34973193,487.70
-99.07704038,35.34984645,487.22
-99.07704055,35.35003409,486.84
-99.07704061,35.35009171,486.80
-99.07704068,35.35016682,486.88
-99.07704070,35.35018530,486.86
-99.07704071,35.35020099,486.96
-99.07704073,35.35021731,486.96
-99.07704094,35.35043913,487.05
-99.07704109,35.35059710,486.92
-99.07704112,35.35063497,486.81
-99.07704121,35.35072217,486.73
-99.07704122,35.35073633,486.76
-99.07704124,35.35075111,486.64
-99.07704139,35.35091702,486.45
-99.07704171,35.35124785,486.50
-99.07704248,35.35125498,486.44
-99.07704270,35.35125525,486.42
-99.07706813,35.35125649,486.45
-99.07707374,35.35125676,486.42
-99.07716212,35.35125688,486.52
-99.07726294,35.35125682,486.48
-99.07779001,35.35125657,486.92
-99.07779474,35.35125657,486.93
-99.07779947,35.35125657,486.92
-99.07780432,35.35125656,486.93
-99.07780894,35.35125656,486.92
-99.07781334,35.35125656,486.91
-99.07781840,35.35125655,486.94
-99.07784735,35.35125645,486.96
-99.07790447,35.35125623,487.02
-99.07799549,35.35125590,487.07
-99.07802421,35.35125579,487.10
-99.07805261,35.35125568,487.14
-99.07808222,35.35125557,487.13
-99.07811017,35.35125546,487.17
-99.07813901,35.35125536,487.18
-99.07816762,35.35125525,487.24
-99.07819624,35.35125514,487.26
-99.07822573,35.35125503,487.28
-99.07825875,35.35125492,487.30
-99.07828737,35.35125481,487.33
-99.07880916,35.35125591,492.03
-99.07881378,35.35125591,491.99
-99.07882369,35.35125590,492.00
-99.07884735,35.35125589,491.65
-99.07886650,35.35125587,491.64
-99.07903544,35.35125576,490.23
-99.07904017,35.35125576,490.31
-99.07917092,35.35125568,489.15
-99.07930223,35.35125559,487.90
-99.07930674,35.35125559,487.92
-99.07931191,35.35125558,487.90
-99.07931686,35.35125558,487.88
-99.07932159,35.35125558,487.89
-99.07932644,35.35125557,487.88
-99.07933161,35.35125557,487.86
-99.07940689,35.35125552,487.88
-99.07986661,35.35125522,493.95
-99.07992285,35.35125518,496.00
-99.07997733,35.35125514,495.40
-99.07998701,35.35125514,495.43
-99.07999681,35.35125513,487.36
-99.08000209,35.35125513,495.33
-99.08000727,35.35125512,495.22
-99.08006218,35.35125509,490.65
-99.08012580,35.35125505,494.35
-99.08020526,35.35125499,493.70
-99.08023608,35.35125497,493.46
-99.08026381,35.35125496,500.63
-99.08028098,35.35125494,501.40
-99.08029232,35.35125494,501.94
-99.08060379,35.35125473,490.47
-99.08066982,35.35125468,505.02
-99.08070779,35.35125466,494.48
     </coordinates>
    </LineString>
   </MultiGeometry>
  </Placemark>
 </Document>
</kml>
