<kml>
 <Document>
  <Style id="yellow">
   <LineStyle>
   <color>ff00ffff</color>
   <width>1</width>
   </LineStyle>
  </Style>
  <Style id="red">
   <LineStyle>
   <color>ffff0000</color>
   <width>2</width>
   </LineStyle>
  </Style>
  <Style id="green">
   <LineStyle>
   <color>ff00ff00</color>
   <width>1</width>
   </LineStyle>
  </Style>
  <Placemark>
  <styleUrl>#yellow</styleUrl>
   <MultiGeometry>
    <LineString>
     <coordinates>
-99.08015121,35.39633944,501.76
-99.08030417,35.39633933,501.41
-99.08082097,35.39633890,500.60
-99.08108162,35.39633872,501.30
-99.08146848,35.39633855,503.09
-99.08159324,35.39633847,503.55
-99.08167726,35.39633841,503.86
-99.08168200,35.39633841,503.88
-99.08168751,35.39633841,503.91
-99.08169301,35.39633840,503.89
-99.08169830,35.39633840,503.92
-99.08170314,35.39633840,503.93
-99.08170821,35.39633839,503.92
-99.08171338,35.39633839,503.91
-99.08171779,35.39633839,503.91
-99.08171834,35.39633839,503.94
-99.08185533,35.39633829,503.70
-99.08220551,35.39633796,502.65
-99.08246639,35.39633788,501.78
-99.08259358,35.39633779,500.92
-99.08281756,35.39633764,499.35
-99.08305586,35.39633747,496.95
-99.08329703,35.39633722,495.04
-99.08362464,35.39633708,494.54
-99.08362871,35.39633708,494.53
-99.08374962,35.39633699,495.47
-99.08377165,35.39633698,495.94
-99.08397328,35.39633684,497.77
-99.08399861,35.39633682,497.97
-99.08430144,35.39633661,499.83
-99.08450428,35.39633647,501.13
-99.08464226,35.39633637,501.76
-99.08478388,35.39633627,501.94
-99.08483222,35.39633624,501.97
-99.08488034,35.39633621,501.97
-99.08503440,35.39633610,501.79
-99.08503704,35.39633609,501.81
-99.08513714,35.39633602,501.64
-99.08515840,35.39633601,501.58
-99.08524363,35.39633595,501.41
-99.08553985,35.39633565,500.72
-99.08582110,35.39633554,499.82
-99.08597516,35.39633543,498.82
-99.08610962,35.39633533,498.15
-99.08619320,35.39633528,499.50
-99.08625795,35.39633523,500.61
-99.08642335,35.39633511,501.18
-99.08672640,35.39633489,503.24
-99.08686097,35.39633480,503.65
-99.08714464,35.39633459,504.64
-99.08749196,35.39633425,506.00
-99.08777376,35.39633414,507.00
-99.08792605,35.39633403,507.48
-99.08806426,35.39633384,507.89
-99.08807373,35.39633356,507.97
-99.08809256,35.39633300,507.98
-99.08809475,35.39632876,507.99
-99.08809617,35.39631488,508.00
-99.08809616,35.39599739,507.90
-99.08809615,35.39599009,507.87
-99.08809584,35.39570678,507.61
-99.08809570,35.39558208,507.46
-99.08809561,35.39549966,507.49
-99.08809558,35.39546982,507.38
-99.08809525,35.39516370,507.66
-99.08809490,35.39484567,508.26
-99.08809481,35.39475965,508.52
-99.08809462,35.39458391,508.81
-99.08809442,35.39440259,509.18
-99.08809413,35.39413217,510.19
-99.08809399,35.39401008,510.88
-99.08809354,35.39359684,510.66
-99.08809349,35.39355094,510.53
-99.08809341,35.39347638,510.27
-99.08809338,35.39344743,510.33
-99.08809333,35.39340163,510.41
-99.08809328,35.39335483,510.19
-99.08809323,35.39330397,508.27
-99.08809303,35.39312291,506.68
-99.08809287,35.39297441,505.80
-99.08809229,35.39254088,504.26
-99.08809191,35.39229373,501.44
-99.08809177,35.39206776,499.26
-99.08809163,35.39183459,496.91
-99.08809148,35.39170150,495.35
-99.08809139,35.39161963,494.44
-99.08809117,35.39140971,493.62
-99.08809104,35.39129231,492.12
-99.08809102,35.39127636,491.98
-99.08809085,35.39111549,490.99
-99.08809039,35.39069342,489.04
-99.08809005,35.39038333,498.73
-99.08809003,35.39036610,495.51
-99.08808997,35.39031182,497.32
-99.08808990,35.39024645,495.01
-99.08808989,35.39024059,485.64
-99.08808988,35.39022968,492.41
-99.08808982,35.39016746,490.41
-99.08808976,35.39011598,485.30
-99.08808964,35.39000877,484.77
-99.08808954,35.38991165,486.40
-99.08808953,35.38990832,486.48
-99.08808937,35.38975368,487.02
-99.08808922,35.38962077,486.85
-99.08808913,35.38953809,486.83
-99.08808913,35.38953475,486.82
-99.08808911,35.38951455,486.85
-99.08808888,35.38931014,486.58
-99.08808858,35.38903495,486.26
-99.08808843,35.38889014,486.31
-99.08808841,35.38887607,495.03
-99.08808823,35.38871169,502.99
-99.08808784,35.38835129,487.36
-99.08808746,35.38799936,486.97
-99.08808715,35.38771677,493.71
-99.08808710,35.38766628,496.12
-99.08808690,35.38749072,487.71
-99.08808642,35.38734762,487.79
-99.08808562,35.38731958,487.83
-99.08807086,35.38731896,487.84
-99.08803210,35.38731737,487.85
-99.08802715,35.38731719,487.84
-99.08775584,35.38731739,488.05
-99.08734426,35.38731778,488.10
-99.08719010,35.38731780,488.32
-99.08704113,35.38731790,488.35
-99.08662789,35.38731820,488.39
-99.08639259,35.38731837,488.43
-99.08632553,35.38731842,488.21
-99.08631100,35.38731843,488.13
-99.08624791,35.38731847,488.13
-99.08618834,35.38731852,488.22
-99.08598805,35.38731866,488.39
-99.08596537,35.38731867,488.45
-99.08582520,35.38731877,488.47
-99.08577257,35.38731881,488.34
-99.08574625,35.38731883,488.25
-99.08565652,35.38731889,488.09
-99.08555257,35.38731897,488.11
-99.08543476,35.38731905,488.29
-99.08541791,35.38731906,488.34
-99.08539787,35.38731908,488.34
-99.08535867,35.38731910,488.34
-99.08529481,35.38731915,488.51
-99.08526442,35.38731917,488.58
-99.08515740,35.38731925,488.78
-99.08504663,35.38731932,488.90
-99.08471377,35.38731956,489.12
-99.08452791,35.38731969,488.71
-99.08437673,35.38731979,488.17
-99.08419064,35.38731992,487.37
-99.08411478,35.38731998,487.00
-99.08393850,35.38732010,486.19
-99.08385019,35.38732016,486.14
-99.08377466,35.38732021,486.08
-99.08347439,35.38732042,485.85
-99.08311401,35.38732076,486.05
-99.08281484,35.38732087,486.53
-99.08242924,35.38732114,487.57
-99.08229040,35.38732123,487.87
-99.08214825,35.38732133,488.11
-99.08171475,35.38732162,487.85
-99.08126110,35.38732202,486.52
-99.08103593,35.38732208,485.92
-99.08052283,35.38732242,484.27
-99.08045401,35.38732247,484.50
-99.08027850,35.38732259,483.50
-99.08014857,35.38732267,484.14
-99.08012523,35.38732269,483.30
-99.08012082,35.38732269,483.20
-99.08011543,35.38732270,483.27
-99.08011014,35.38732270,483.39
-99.08002304,35.38732276,483.32
-99.07991580,35.38732283,482.89
-99.07974205,35.38732294,482.58
-99.07938210,35.38732318,482.07
-99.07891778,35.38732348,481.83
-99.07871617,35.38732361,481.60
-99.07871133,35.38732362,481.58
-99.07870648,35.38732362,481.52
-99.07870153,35.38732362,481.52
-99.07869657,35.38732363,481.45
-99.07869184,35.38732363,481.44
-99.07868732,35.38732363,481.42
-99.07866321,35.38732374,481.38
-99.07863909,35.38732385,481.35
-99.07856213,35.38732417,481.28
-99.07851456,35.38732438,481.28
-99.07849023,35.38732448,481.27
-99.07846589,35.38732459,481.21
-99.07838926,35.38732491,481.09
-99.07836570,35.38732501,481.11
-99.07831218,35.38732523,480.93
-99.07828873,35.38732534,480.92
-99.07826396,35.38732544,480.88
-99.07823555,35.38732555,480.83
-99.07771000,35.38732427,480.23
-99.07770493,35.38732427,480.21
-99.07770042,35.38732427,480.17
-99.07769569,35.38732428,480.14
-99.07769117,35.38732428,480.11
-99.07732836,35.38732451,477.14
-99.07707919,35.38732629,478.50
-99.07707776,35.38733044,478.45
-99.07707745,35.38734433,478.50
-99.07707650,35.38738833,478.75
-99.07707640,35.38740330,478.79
-99.07707620,35.38754054,479.79
-99.07707643,35.38777750,480.59
-99.07707652,35.38787713,480.57
-99.07707670,35.38806532,480.64
-99.07707679,35.38816351,480.58
-99.07707689,35.38826603,480.70
-99.07707701,35.38839055,480.93
-99.07707705,35.38842689,480.98
-99.07707711,35.38849650,481.19
-99.07707731,35.38870831,483.67
-99.07707738,35.38878035,483.79
-99.07707777,35.38919414,483.76
-99.07707802,35.38945418,483.62
-99.07707805,35.38948385,483.72
-99.07707840,35.38985354,487.00
-99.07707865,35.39010863,487.74
-99.07707872,35.39018347,488.11
-99.07707886,35.39033594,488.97
-99.07707887,35.39034054,489.08
-99.07707902,35.39050410,489.74
-99.07707903,35.39051574,489.97
-99.07707906,35.39054306,490.14
-99.07707909,35.39057570,490.30
-99.07707910,35.39058949,490.47
-99.07707918,35.39067038,490.68
-99.07707918,35.39067615,490.61
-99.07707924,35.39073683,490.91
-99.07707926,35.39075504,490.94
-99.07707930,35.39079751,491.03
-99.07707932,35.39081933,491.06
-99.07707952,35.39102843,490.89
-99.07707956,35.39106946,490.47
-99.07707957,35.39107604,490.37
-99.07707963,35.39114042,489.81
-99.07707966,35.39118019,489.49
-99.07707967,35.39118199,489.50
-99.07707967,35.39118614,489.47
-99.07707978,35.39130417,489.61
-99.07707980,35.39131806,489.67
-99.07707984,35.39136152,489.53
-99.07707992,35.39144438,488.50
-99.07708011,35.39165249,487.64
-99.07708018,35.39171768,487.90
-99.07708021,35.39175880,487.70
-99.07708036,35.39190893,486.47
-99.07708037,35.39191750,486.43
-99.07708037,35.39192561,486.39
-99.07708040,35.39194788,486.45
-99.07708043,35.39198882,486.82
-99.07708047,35.39203057,486.36
-99.07708062,35.39218403,485.25
-99.07708067,35.39224183,485.18
-99.07708073,35.39229620,485.06
-99.07708083,35.39240251,485.05
-99.07708083,35.39240882,485.02
-99.07708087,35.39245229,484.96
-99.07708088,35.39246184,485.03
-99.07708113,35.39272378,485.53
-99.07708123,35.39282630,486.97
-99.07708128,35.39287400,491.56
-99.07708131,35.39290899,490.06
-99.07708136,35.39296309,492.15
-99.07708138,35.39298013,487.51
-99.07708146,35.39307102,487.47
-99.07708166,35.39327670,488.04
-99.07708170,35.39332295,488.19
-99.07708189,35.39351835,488.93
-99.07708202,35.39365946,489.69
-99.07708208,35.39372204,489.77
-99.07708215,35.39379219,490.33
-99.07708217,35.39381789,490.46
-99.07708220,35.39384602,490.65
-99.07708224,35.39388605,490.81
-99.07708232,35.39396829,491.14
-99.07708232,35.39397406,491.19
-99.07708265,35.39431607,492.31
-99.07708267,35.39434140,492.41
-99.07708270,35.39436701,492.51
-99.07708293,35.39460731,493.91
-99.07708319,35.39488728,495.36
-99.07708337,35.39507249,495.98
-99.07708340,35.39510261,496.17
-99.07708355,35.39526230,496.68
-99.07708383,35.39555462,497.13
-99.07708393,35.39566580,497.63
-99.07708398,35.39571927,497.70
-99.07708411,35.39584722,497.97
-99.07708422,35.39596741,498.44
-99.07708441,35.39616362,499.53
-99.07708444,35.39619518,499.88
-99.07708444,35.39620329,499.85
-99.07708445,35.39620780,499.76
-99.07708453,35.39629076,500.12
-99.07708501,35.39633259,500.37
-99.07708545,35.39633467,500.36
-99.07708744,35.39633945,500.35
-99.07709239,35.39633998,500.47
-99.07710352,35.39634115,500.42
-99.07714812,35.39634139,500.52
-99.07724348,35.39634133,500.49
-99.07777074,35.39634036,501.74
-99.07781280,35.39634042,501.87
-99.07785520,35.39634049,501.97
-99.07789826,35.39634055,502.12
-99.07793977,35.39634061,502.26
-99.07797787,35.39634068,502.35
-99.07805749,35.39634081,502.53
-99.07806245,35.39634080,502.56
-99.07806685,35.39634080,502.59
-99.07807181,35.39634080,502.55
-99.07807643,35.39634079,502.59
-99.07808095,35.39634079,502.58
-99.07808568,35.39634079,502.60
-99.07809064,35.39634078,502.60
-99.07809537,35.39634078,502.62
-99.07861018,35.39633765,503.51
-99.07894363,35.39634014,502.42
-99.07935923,35.39633996,501.33
-99.07962109,35.39633979,501.81
-99.07975302,35.39633970,502.02
-99.07981843,35.39633966,502.00
-99.07982338,35.39633965,502.02
-99.07982801,35.39633965,502.06
-99.07983263,35.39633965,502.04
-99.07983759,35.39633964,502.06
-99.07984266,35.39633964,502.06
-99.07984717,35.39633964,502.14
-99.07985224,35.39633963,502.09
-99.07985730,35.39633963,502.10
-99.07986677,35.39633962,502.17
-99.07989265,35.39633961,502.09
-99.08015121,35.39633944,501.76
     </coordinates>
    </LineString>
   </MultiGeometry>
  </Placemark>
 </Document>
</kml>
