<kml>
 <Document>
  <Style id="yellow">
   <LineStyle>
   <color>ff00ffff</color>
   <width>1</width>
   </LineStyle>
  </Style>
  <Style id="red">
   <LineStyle>
   <color>ffff0000</color>
   <width>2</width>
   </LineStyle>
  </Style>
  <Style id="green">
   <LineStyle>
   <color>ff00ff00</color>
   <width>1</width>
   </LineStyle>
  </Style>
  <Placemark>
  <styleUrl>#yellow</styleUrl>
   <MultiGeometry>
    <LineString>
     <coordinates>
-99.07063620,35.38732852,478.58
-99.07064600,35.38732851,478.60
-99.07077097,35.38732844,478.58
-99.07092832,35.38732835,479.93
-99.07100782,35.38732830,480.25
-99.07106309,35.38732827,480.22
-99.07132878,35.38732811,479.28
-99.07143669,35.38732805,478.79
-99.07166825,35.38732791,478.51
-99.07172385,35.38732788,478.53
-99.07187998,35.38732779,478.57
-99.07195838,35.38732774,478.52
-99.07210416,35.38732765,478.42
-99.07223497,35.38732757,478.51
-99.07239408,35.38732748,478.55
-99.07259624,35.38732736,478.59
-99.07270271,35.38732729,478.72
-99.07274147,35.38732727,478.83
-99.07309349,35.38732706,479.23
-99.07343383,35.38732685,479.06
-99.07382857,35.38732661,479.11
-99.07412928,35.38732634,479.18
-99.07452060,35.38732619,479.29
-99.07484586,35.38732598,479.57
-99.07485082,35.38732598,479.53
-99.07485588,35.38732598,479.49
-99.07522364,35.38732575,479.74
-99.07558161,35.38732553,479.91
-99.07565108,35.38732548,479.92
-99.07565593,35.38732548,479.90
-99.07566088,35.38732548,479.95
-99.07566606,35.38732547,479.93
-99.07593362,35.38732531,479.92
-99.07634565,35.38732496,480.19
-99.07661927,35.38732487,480.23
-99.07662411,35.38732487,480.27
-99.07662929,35.38732487,480.29
-99.07663435,35.38732486,480.33
-99.07663942,35.38732486,480.31
-99.07669557,35.38732482,480.47
-99.07700277,35.38732463,478.95
-99.07707522,35.38732233,478.41
-99.07707544,35.38731908,478.44
-99.07707587,35.38731178,478.41
-99.07707553,35.38706481,475.96
-99.07707541,35.38682144,478.50
-99.07707528,35.38668853,479.06
-99.07707519,35.38659079,479.36
-99.07707506,35.38645545,479.67
-99.07707492,35.38630595,480.00
-99.07707487,35.38625401,480.31
-99.07707484,35.38622570,480.38
-99.07707474,35.38611876,480.17
-99.07707448,35.38584951,480.63
-99.07707445,35.38581074,480.77
-99.07707407,35.38541616,482.79
-99.07707406,35.38540589,482.80
-99.07707400,35.38534403,483.19
-99.07707389,35.38522167,483.74
-99.07707385,35.38518669,483.89
-99.07707378,35.38511004,484.08
-99.07707365,35.38497154,483.99
-99.07707357,35.38488516,484.15
-99.07707349,35.38480726,484.07
-99.07707345,35.38476298,484.10
-99.07707344,35.38475009,484.12
-99.07707337,35.38467669,484.15
-99.07707323,35.38453161,483.83
-99.07707323,35.38453089,483.83
-99.07707313,35.38442305,483.57
-99.07707308,35.38437318,483.31
-99.07707301,35.38430619,483.59
-99.07707295,35.38423883,483.83
-99.07707294,35.38422350,483.76
-99.07707290,35.38418392,484.02
-99.07707280,35.38408113,484.33
-99.07707280,35.38407833,484.39
-99.07707279,35.38407067,484.38
-99.07707260,35.38387122,484.88
-99.07707247,35.38373019,485.18
-99.07707242,35.38368213,486.08
-99.07707236,35.38361992,485.86
-99.07707234,35.38359395,486.40
-99.07707227,35.38352334,486.53
-99.07707225,35.38350351,486.54
-99.07707212,35.38336465,486.99
-99.07707210,35.38334337,487.03
-99.07707205,35.38329071,487.30
-99.07707203,35.38327556,487.39
-99.07707199,35.38322453,487.58
-99.07707191,35.38314608,487.89
-99.07707186,35.38308828,488.17
-99.07707169,35.38291218,488.85
-99.07707158,35.38279776,489.30
-99.07707118,35.38249488,490.70
-99.07707106,35.38224818,492.15
-99.07707094,35.38212122,494.00
-99.07707090,35.38207984,495.29
-99.07707085,35.38203268,496.32
-99.07707070,35.38186965,496.10
-99.07707069,35.38185811,496.11
-99.07707064,35.38180690,496.17
-99.07707050,35.38166515,496.11
-99.07707050,35.38165965,496.10
-99.07707027,35.38141818,496.20
-99.07707016,35.38130132,495.80
-99.07707009,35.38122621,495.96
-99.07707004,35.38117896,496.48
-99.07706981,35.38094064,498.42
-99.07706959,35.38070080,499.23
-99.07706944,35.38055058,499.18
-99.07706935,35.38044814,498.80
-99.07706927,35.38037222,498.58
-99.07706927,35.38036789,498.56
-99.07706927,35.38036393,498.55
-99.07706925,35.38034950,498.58
-99.07706910,35.38019477,498.32
-99.07706901,35.38009973,497.89
-99.07706891,35.37999135,497.40
-99.07706885,35.37992444,497.03
-99.07706883,35.37990975,496.89
-99.07706878,35.37985736,496.33
-99.07706866,35.37972202,495.38
-99.07706844,35.37949407,497.03
-99.07706839,35.37943925,498.12
-99.07706835,35.37940318,498.39
-99.07706808,35.37911725,501.23
-99.07706786,35.37889030,506.94
-99.07706781,35.37883566,509.40
-99.07706775,35.37876650,511.82
-99.07706771,35.37872809,511.83
-99.07706769,35.37870825,511.86
-99.07706759,35.37860410,510.33
-99.07706757,35.37857868,510.01
-99.07706728,35.37838959,511.68
-99.07706700,35.37832882,512.06
-99.07706677,35.37831403,512.08
-99.07706544,35.37830808,512.14
-99.07706048,35.37830790,512.15
-99.07705509,35.37830782,512.15
-99.07661338,35.37830810,513.74
-99.07656769,35.37830813,513.89
-99.07656318,35.37830813,513.93
-99.07655845,35.37830813,513.96
-99.07638020,35.37830825,514.07
-99.07615153,35.37830839,513.08
-99.07614702,35.37830839,513.08
-99.07609802,35.37830842,512.81
-99.07574296,35.37830865,507.22
-99.07573779,35.37830865,507.23
-99.07573603,35.37830865,507.25
-99.07544582,35.37830883,504.89
-99.07532207,35.37830891,504.07
-99.07531678,35.37830891,504.05
-99.07513182,35.37830903,503.34
-99.07475893,35.37830926,502.76
-99.07461943,35.37830935,502.79
-99.07436104,35.37830951,501.89
-99.07416364,35.37830963,504.11
-99.07392858,35.37830977,505.57
-99.07392374,35.37830977,505.51
-99.07369077,35.37830992,504.69
-99.07341873,35.37831017,504.61
-99.07303053,35.37831032,510.05
-99.07279646,35.37831046,509.67
-99.07241949,35.37831069,508.72
-99.07225402,35.37831078,508.21
-99.07224532,35.37831079,508.15
-99.07216759,35.37831084,506.73
-99.07207445,35.37831089,505.96
-99.07193166,35.37831098,505.09
-99.07153895,35.37831121,503.39
-99.07147069,35.37831125,503.04
-99.07140386,35.37831129,502.69
-99.07133824,35.37831133,502.32
-99.07133020,35.37831133,502.28
-99.07125347,35.37831138,501.62
-99.07116704,35.37831143,501.09
-99.07111353,35.37831146,500.80
-99.07103151,35.37831151,500.68
-99.07100553,35.37831152,500.62
-99.07088663,35.37831159,500.58
-99.07082024,35.37831163,500.28
-99.07071356,35.37831170,499.30
-99.07061040,35.37831176,499.30
-99.07054489,35.37831179,498.65
-99.07045978,35.37831184,498.34
-99.07040165,35.37831188,498.04
-99.07019842,35.37831200,496.76
-99.07012795,35.37831204,495.78
-99.07011375,35.37831204,495.58
-99.07010847,35.37831205,495.46
-99.06982464,35.37831221,494.18
-99.06963825,35.37831232,491.24
-99.06956801,35.37831236,489.96
-99.06947641,35.37831241,493.91
-99.06944029,35.37831243,491.58
-99.06936014,35.37831248,491.26
-99.06928363,35.37831252,492.29
-99.06919390,35.37831258,493.13
-99.06911375,35.37831262,493.51
-99.06889708,35.37831274,494.26
-99.06855325,35.37831294,496.77
-99.06850139,35.37831297,496.49
-99.06841596,35.37831302,496.70
-99.06802820,35.37831324,499.49
-99.06783873,35.37831334,500.73
-99.06781869,35.37831335,500.86
-99.06763780,35.37831346,504.55
-99.06763252,35.37831346,504.74
-99.06750018,35.37831353,504.20
-99.06742741,35.37831357,502.78
-99.06737885,35.37831360,501.43
-99.06710075,35.37831376,499.00
-99.06689234,35.37831387,498.04
-99.06682254,35.37831391,497.95
-99.06675285,35.37831395,497.98
-99.06655335,35.37831406,497.50
-99.06643379,35.37831412,497.15
-99.06636432,35.37831416,497.23
-99.06616505,35.37831427,495.90
-99.06606860,35.37831432,495.44
-99.06606376,35.37831451,495.42
-99.06605880,35.37831478,495.39
-99.06605815,35.37831875,495.41
-99.06605804,35.37832299,495.31
-99.06605794,35.37833877,495.23
-99.06605797,35.37850882,494.41
-99.06605799,35.37853741,494.35
-99.06605801,35.37855301,494.23
-99.06605802,35.37856797,494.24
-99.06605808,35.37864642,494.02
-99.06605809,35.37865165,494.04
-99.06605823,35.37882802,493.50
-99.06605824,35.37883758,493.46
-99.06605824,35.37884245,493.52
-99.06605828,35.37888744,493.29
-99.06605829,35.37890629,493.21
-99.06605834,35.37896652,493.13
-99.06605838,35.37901052,493.27
-99.06605852,35.37917896,493.62
-99.06605862,35.37930123,494.12
-99.06605879,35.37951610,494.71
-99.06605887,35.37961745,494.36
-99.06605888,35.37962439,494.33
-99.06605892,35.37967146,494.10
-99.06605892,35.37967516,494.06
-99.06605895,35.37971122,493.92
-99.06605901,35.37978679,493.50
-99.06605904,35.37981555,493.35
-99.06605910,35.37989120,493.00
-99.06605940,35.38026693,491.24
-99.06605947,35.38034349,490.88
-99.06605948,35.38035629,490.83
-99.06605953,35.38042347,490.47
-99.06605956,35.38045295,490.32
-99.06605968,35.38060362,489.58
-99.06605970,35.38062788,489.44
-99.06605970,35.38063266,489.42
-99.06605979,35.38074519,488.78
-99.06605999,35.38099288,486.77
-99.06606003,35.38103688,486.89
-99.06606031,35.38137538,484.14
-99.06606041,35.38149683,483.64
-99.06606062,35.38175607,482.10
-99.06606083,35.38201170,480.91
-99.06606117,35.38243486,479.66
-99.06606122,35.38249040,479.50
-99.06606132,35.38261628,479.28
-99.06606143,35.38275442,478.95
-99.06606144,35.38276587,478.84
-99.06606154,35.38288769,478.64
-99.06606157,35.38292727,478.44
-99.06606163,35.38300085,485.10
-99.06606165,35.38302366,484.38
-99.06606165,35.38302501,484.32
-99.06606166,35.38303060,481.17
-99.06606167,35.38304674,479.83
-99.06606168,35.38306388,486.73
-99.06606169,35.38307172,485.14
-99.06606170,35.38308705,485.67
-99.06606174,35.38313421,474.02
-99.06606180,35.38321040,472.00
-99.06606182,35.38323195,484.66
-99.06606184,35.38325170,478.73
-99.06606185,35.38326369,473.93
-99.06606190,35.38332500,485.33
-99.06606190,35.38332708,486.86
-99.06606190,35.38333141,484.75
-99.06606195,35.38338551,489.06
-99.06606200,35.38345340,489.56
-99.06606201,35.38346810,488.71
-99.06606203,35.38348451,477.46
-99.06606205,35.38351553,477.44
-99.06606206,35.38352067,486.52
-99.06606207,35.38353960,477.32
-99.06606207,35.38354267,481.95
-99.06606214,35.38361769,479.83
-99.06606215,35.38363672,477.52
-99.06606216,35.38364456,485.63
-99.06606222,35.38371706,480.66
-99.06606224,35.38375204,488.27
-99.06606225,35.38376349,486.46
-99.06606229,35.38381227,476.71
-99.06606231,35.38383157,489.16
-99.06606235,35.38388378,478.12
-99.06606241,35.38394915,472.76
-99.06606248,35.38404329,472.94
-99.06606249,35.38404834,472.95
-99.06606258,35.38415951,484.23
-99.06606265,35.38425176,476.75
-99.06606265,35.38425482,477.20
-99.06606274,35.38436429,480.87
-99.06606275,35.38437222,478.97
-99.06606275,35.38437303,481.79
-99.06606279,35.38441884,479.90
-99.06606282,35.38446059,479.96
-99.06606283,35.38446906,478.54
-99.06606285,35.38449034,481.38
-99.06606285,35.38449846,479.19
-99.06606290,35.38455337,476.30
-99.06606295,35.38461739,476.30
-99.06606296,35.38462379,486.17
-99.06606300,35.38468502,483.05
-99.06606308,35.38478222,483.28
-99.06606323,35.38495724,476.32
-99.06606328,35.38501819,487.36
-99.06606328,35.38502360,485.62
-99.06606333,35.38508636,476.28
-99.06606337,35.38512693,476.37
-99.06606338,35.38515047,476.45
-99.06606342,35.38519456,476.32
-99.06606343,35.38520673,482.74
-99.06606347,35.38525092,480.30
-99.06606348,35.38526688,481.71
-99.06606350,35.38529438,481.25
-99.06606351,35.38529898,488.09
-99.06606351,35.38530556,486.80
-99.06606352,35.38531214,476.29
-99.06606354,35.38534334,484.24
-99.06606365,35.38547616,473.48
-99.06606365,35.38547976,483.31
-99.06606365,35.38548229,473.42
-99.06606378,35.38563512,477.02
-99.06606379,35.38564297,473.67
-99.06606383,35.38569896,482.77
-99.06606384,35.38571573,482.04
-99.06606387,35.38575180,479.68
-99.06606390,35.38578534,484.11
-99.06606390,35.38578805,484.31
-99.06606400,35.38590049,476.68
-99.06606411,35.38604169,489.04
-99.06606416,35.38610418,490.93
-99.06606417,35.38611013,492.83
-99.06606420,35.38615305,477.02
-99.06606422,35.38617731,477.10
-99.06606428,35.38625242,486.91
-99.06606429,35.38626198,477.56
-99.06606430,35.38627063,481.48
-99.06606439,35.38637865,477.21
-99.06606440,35.38639326,477.20
-99.06606445,35.38645449,477.34
-99.06606446,35.38646999,477.35
-99.06606447,35.38648091,477.39
-99.06606462,35.38666115,477.40
-99.06606479,35.38687224,477.47
-99.06606483,35.38692192,477.47
-99.06606499,35.38711750,477.70
-99.06606503,35.38717304,477.74
-99.06606508,35.38722759,477.80
-99.06606548,35.38731424,477.83
-99.06606571,35.38732714,477.83
-99.06606648,35.38733029,477.84
-99.06612385,35.38733098,477.90
-99.06639637,35.38733092,477.79
-99.06651440,35.38733086,477.80
-99.06666525,35.38733078,487.37
-99.06666690,35.38733077,486.64
-99.06674079,35.38733073,484.91
-99.06675907,35.38733072,483.58
-99.06676710,35.38733072,485.08
-99.06687314,35.38733066,475.18
-99.06705592,35.38733056,476.04
-99.06718452,35.38733049,474.96
-99.06735508,35.38733039,478.92
-99.06754491,35.38733029,476.58
-99.06755030,35.38733028,477.09
-99.06769774,35.38733020,476.17
-99.06771337,35.38733019,476.54
-99.06820038,35.38732992,478.33
-99.06828759,35.38732987,491.98
-99.06841399,35.38732980,483.88
-99.06841939,35.38732979,484.49
-99.06849470,35.38732975,480.77
-99.06849999,35.38732975,481.50
-99.06871855,35.38732962,483.98
-99.06872384,35.38732962,484.32
-99.06872868,35.38732962,485.26
-99.06873386,35.38732962,485.76
-99.06885002,35.38732955,478.41
-99.06888933,35.38732953,484.73
-99.06889902,35.38732952,485.87
-99.06891367,35.38732951,488.30
-99.06902543,35.38732945,479.59
-99.06904491,35.38732944,483.17
-99.06906837,35.38732942,486.80
-99.06914302,35.38732938,476.20
-99.06914798,35.38732938,476.86
-99.06927405,35.38732931,477.07
-99.06944208,35.38732921,474.68
-99.06959755,35.38732912,478.00
-99.06962419,35.38732911,481.56
-99.06962838,35.38732910,482.69
-99.06974807,35.38732903,478.96
-99.06993404,35.38732893,478.80
-99.06994087,35.38732892,478.85
-99.07027207,35.38732873,478.61
-99.07031369,35.38732871,478.61
-99.07047643,35.38732861,478.66
-99.07063620,35.38732852,478.58
     </coordinates>
    </LineString>
   </MultiGeometry>
  </Placemark>
 </Document>
</kml>
