<kml>
 <Document>
  <Style id="yellow">
   <LineStyle>
   <color>ff00ffff</color>
   <width>1</width>
   </LineStyle>
  </Style>
  <Style id="red">
   <LineStyle>
   <color>ffff0000</color>
   <width>2</width>
   </LineStyle>
  </Style>
  <Style id="green">
   <LineStyle>
   <color>ff00ff00</color>
   <width>1</width>
   </LineStyle>
  </Style>
  <Placemark>
  <styleUrl>#yellow</styleUrl>
   <MultiGeometry>
    <LineString>
     <coordinates>
-99.09305281,35.36927959,519.37
-99.09331977,35.36927938,520.58
-99.09344493,35.36927928,520.95
-99.09346728,35.36927927,521.13
-99.09357505,35.36927918,521.82
-99.09357582,35.36927918,521.79
-99.09372575,35.36927907,522.58
-99.09387228,35.36927895,522.69
-99.09394394,35.36927890,522.50
-99.09399601,35.36927886,522.32
-99.09405215,35.36927881,522.54
-99.09429995,35.36927862,523.23
-99.09435268,35.36927858,523.18
-99.09465442,35.36927834,523.15
-99.09473853,35.36927828,523.43
-99.09483430,35.36927820,523.73
-99.09519306,35.36927792,524.34
-99.09535521,35.36927779,524.51
-99.09544031,35.36927772,524.61
-99.09553135,35.36927765,524.20
-99.09554269,35.36927764,524.18
-99.09573203,35.36927749,523.83
-99.09582384,35.36927742,523.76
-99.09590530,35.36927736,523.87
-99.09601032,35.36927727,524.31
-99.09653047,35.36927677,526.56
-99.09700042,35.36927648,525.72
-99.09712371,35.36927638,526.08
-99.09748908,35.36927609,527.16
-99.09764143,35.36927597,527.43
-99.09773181,35.36927589,527.63
-99.09775592,35.36927587,527.66
-99.09808023,35.36927561,527.92
-99.09811501,35.36927558,527.93
-99.09818558,35.36927552,527.88
-99.09822014,35.36927550,527.89
-99.09845583,35.36927530,527.80
-99.09852992,35.36927525,527.68
-99.09874513,35.36927507,527.46
-99.09890134,35.36927494,527.16
-99.09904951,35.36927482,527.20
-99.09905447,35.36927473,527.19
-99.09906460,35.36927445,527.14
-99.09907406,35.36927417,527.12
-99.09907527,35.36927038,527.19
-99.09907543,35.36922385,526.92
-99.09907524,35.36906840,526.07
-99.09907517,35.36900997,525.88
-99.09907495,35.36882855,525.37
-99.09907491,35.36879447,525.40
-99.09907482,35.36872450,525.05
-99.09907469,35.36861990,524.89
-99.09907458,35.36852478,524.73
-99.09907455,35.36850196,524.67
-99.09907440,35.36837527,524.45
-99.09907426,35.36826734,524.28
-99.09907404,35.36808142,523.71
-99.09907388,35.36795157,523.39
-99.09907368,35.36778620,522.87
-99.09907361,35.36773003,522.41
-99.09907360,35.36772344,522.45
-99.09907357,35.36769892,522.28
-99.09907346,35.36761245,521.48
-99.09907334,35.36751362,521.37
-99.09907319,35.36738693,520.53
-99.09907315,35.36735673,520.45
-99.09907309,35.36730759,520.39
-99.09907286,35.36711526,520.41
-99.09907280,35.36706747,520.57
-99.09907279,35.36706115,520.54
-99.09907277,35.36704294,520.69
-99.09907249,35.36681716,520.32
-99.09907248,35.36680426,520.28
-99.09907245,35.36677974,520.15
-99.09907231,35.36666829,519.99
-99.09907227,35.36663754,520.03
-99.09907212,35.36651617,519.94
-99.09907205,35.36645757,519.92
-99.09907204,35.36645008,519.81
-99.09907195,35.36637452,519.85
-99.09907193,35.36635865,519.92
-99.09907172,35.36618345,519.30
-99.09907152,35.36602494,519.40
-99.09907147,35.36597949,519.68
-99.09907135,35.36588003,518.57
-99.09907118,35.36574595,517.83
-99.09907039,35.36536896,518.18
-99.09907035,35.36524236,519.00
-99.09907013,35.36497726,515.50
-99.09906999,35.36477222,515.08
-99.09906986,35.36466086,515.52
-99.09906983,35.36463940,522.61
-99.09906973,35.36455735,522.39
-99.09906969,35.36452119,521.49
-99.09906962,35.36446655,517.38
-99.09906956,35.36442173,517.75
-99.09906955,35.36441182,517.80
-99.09906943,35.36431083,518.44
-99.09906938,35.36427034,518.69
-99.09906935,35.36424374,518.86
-99.09906934,35.36424004,518.88
-99.09906925,35.36416764,519.51
-99.09906921,35.36413148,519.98
-99.09906920,35.36412445,520.08
-99.09906920,35.36412237,520.11
-99.09906919,35.36411191,520.23
-99.09906914,35.36407071,520.69
-99.09906908,35.36402283,520.96
-99.09906882,35.36381066,520.70
-99.09906882,35.36381021,520.70
-99.09906874,35.36374384,520.43
-99.09906827,35.36336009,518.88
-99.09906825,35.36334755,518.96
-99.09906822,35.36332456,519.16
-99.09906812,35.36323746,520.02
-99.09906786,35.36302899,521.00
-99.09906779,35.36297128,521.11
-99.09906767,35.36286749,521.29
-99.09906763,35.36284170,521.33
-99.09906763,35.36283702,521.32
-99.09906758,35.36279824,521.36
-99.09906748,35.36271817,521.46
-99.09906744,35.36268454,521.47
-99.09906735,35.36260492,521.48
-99.09906722,35.36250204,521.49
-99.09906681,35.36216517,522.23
-99.09906681,35.36216291,522.27
-99.09906661,35.36199989,522.58
-99.09906633,35.36177410,523.08
-99.09906618,35.36165454,523.61
-99.09906614,35.36161910,523.71
-99.09906607,35.36156176,523.87
-99.09906594,35.36145148,524.11
-99.09906590,35.36141938,524.19
-99.09906575,35.36129792,524.47
-99.09906554,35.36112516,524.98
-99.09906534,35.36096655,524.96
-99.09906524,35.36088035,524.62
-99.09906521,35.36085564,524.56
-99.09906514,35.36080109,524.43
-99.09906508,35.36074852,524.20
-99.09906506,35.36073175,524.12
-99.09906504,35.36071417,524.11
-99.09906490,35.36059956,523.70
-99.09906489,35.36059875,523.71
-99.09906489,35.36059740,523.68
-99.09906489,35.36059731,523.69
-99.09906479,35.36051048,523.45
-99.09906478,35.36050687,523.45
-99.09906478,35.36050462,523.47
-99.09906476,35.36048893,523.45
-99.09906475,35.36047630,523.41
-99.09906474,35.36047162,523.39
-99.09906473,35.36046043,523.36
-99.09906471,35.36044547,523.35
-99.09906468,35.36042482,523.32
-99.09906468,35.36042256,523.31
-99.09906457,35.36033095,523.16
-99.09906456,35.36032716,523.17
-99.09906384,35.36027306,523.07
-99.09906327,35.36026360,523.08
-99.09906052,35.36025801,523.05
-99.09873492,35.36025827,523.19
-99.09872876,35.36025828,523.19
-99.09851016,35.36025846,523.26
-99.09850256,35.36025846,523.23
-99.09829728,35.36025863,522.83
-99.09816927,35.36025874,522.72
-99.09790069,35.36025895,522.15
-99.09788462,35.36025897,522.12
-99.09780592,35.36025903,522.06
-99.09756409,35.36025923,521.95
-99.09725799,35.36025947,521.43
-99.09693493,35.36025973,520.30
-99.09655034,35.36026004,519.04
-99.09605920,35.36026043,520.92
-99.09605446,35.36026043,520.93
-99.09563773,35.36026077,522.06
-99.09553360,35.36026085,522.32
-99.09552821,35.36026085,522.28
-99.09552337,35.36026086,522.32
-99.09542287,35.36026094,522.46
-99.09504346,35.36026123,522.38
-99.09490168,35.36026135,522.02
-99.09467395,35.36026152,520.86
-99.09456498,35.36026161,520.13
-99.09438974,35.36026175,519.40
-99.09413933,35.36026194,518.90
-99.09377984,35.36026222,518.74
-99.09372073,35.36026227,518.94
-99.09361099,35.36026235,519.22
-99.09353405,35.36026241,519.39
-99.09346976,35.36026246,519.61
-99.09309123,35.36026275,520.96
-99.09295628,35.36026286,521.24
-99.09276024,35.36026301,521.05
-99.09269662,35.36026306,520.91
-99.09264004,35.36026310,520.81
-99.09250686,35.36026320,520.39
-99.09242981,35.36026326,520.14
-99.09237719,35.36026330,519.91
-99.09217741,35.36026345,519.35
-99.09211027,35.36026351,519.14
-99.09204940,35.36026355,518.96
-99.09197246,35.36026361,518.71
-99.09159547,35.36026390,518.56
-99.09107593,35.36026429,517.29
-99.09097642,35.36026436,516.99
-99.09078083,35.36026451,516.41
-99.09069948,35.36026457,516.20
-99.09061847,35.36026463,515.77
-99.09047714,35.36026474,515.25
-99.09039161,35.36026480,515.04
-99.09030576,35.36026487,514.80
-99.09014461,35.36026499,514.34
-99.08993735,35.36026514,513.71
-99.08979888,35.36026524,513.36
-99.08965204,35.36026535,512.97
-99.08962750,35.36026537,512.87
-99.08959161,35.36026540,512.70
-99.08953262,35.36026544,512.54
-99.08930036,35.36026561,511.86
-99.08926998,35.36026564,511.82
-99.08913206,35.36026574,511.44
-99.08887065,35.36026593,511.14
-99.08878545,35.36026599,511.07
-99.08862210,35.36026611,511.18
-99.08859018,35.36026614,511.21
-99.08848914,35.36026621,511.23
-99.08845039,35.36026624,511.31
-99.08814142,35.36026646,511.57
-99.08813680,35.36026656,511.55
-99.08807010,35.36026823,511.99
-99.08806107,35.36026860,511.75
-99.08805747,35.36029935,511.84
-99.08805780,35.36060331,512.40
-99.08805784,35.36064055,512.40
-99.08805787,35.36066976,512.43
-99.08805831,35.36107128,511.25
-99.08805832,35.36108265,511.19
-99.08805862,35.36135829,509.43
-99.08805867,35.36140320,509.19
-99.08805910,35.36179886,507.92
-99.08805912,35.36181779,507.93
-99.08805948,35.36215025,508.52
-99.08805994,35.36257016,506.96
-99.08806018,35.36279162,505.94
-99.08806026,35.36286492,505.55
-99.08806061,35.36318800,505.81
-99.08806064,35.36322100,506.28
-99.08806080,35.36335914,500.79
-99.08806081,35.36337690,500.75
-99.08806121,35.36364200,499.85
-99.08806135,35.36387157,501.25
-99.08806155,35.36405443,503.74
-99.08806181,35.36429320,504.41
-99.08806193,35.36440185,504.78
-99.08806199,35.36445640,505.02
-99.08806219,35.36464801,505.89
-99.08806225,35.36470347,506.23
-99.08806232,35.36476072,506.54
-99.08806245,35.36488732,507.38
-99.08806275,35.36515729,508.72
-99.08806282,35.36522798,509.14
-99.08806308,35.36546098,509.47
-99.08806332,35.36568441,509.78
-99.08806349,35.36583896,510.36
-99.08806359,35.36593310,510.92
-99.08806364,35.36598089,511.16
-99.08806403,35.36623733,512.62
-99.08806439,35.36646807,511.86
-99.08806455,35.36681757,511.07
-99.08806469,35.36694777,511.14
-99.08806473,35.36698717,511.16
-99.08806507,35.36719231,510.40
-99.08806530,35.36750601,510.67
-99.08806552,35.36771060,512.86
-99.08806555,35.36774090,512.85
-99.08806557,35.36775307,512.88
-99.08806577,35.36794251,513.83
-99.08806583,35.36799932,514.17
-99.08806584,35.36800274,514.20
-99.08806593,35.36809093,514.62
-99.08806597,35.36812691,514.79
-99.08806630,35.36842717,515.97
-99.08806685,35.36873284,516.46
-99.08806711,35.36916998,514.01
-99.08806721,35.36926664,514.35
-99.08806755,35.36927638,514.37
-99.08806844,35.36928098,514.40
-99.08807317,35.36928106,514.46
-99.08808264,35.36928115,514.59
-99.08833792,35.36928313,516.83
-99.08834299,35.36928312,516.80
-99.08849645,35.36928301,517.56
-99.08856029,35.36928296,518.18
-99.08867027,35.36928288,519.22
-99.08886886,35.36928274,519.75
-99.08887337,35.36928273,519.73
-99.08891124,35.36928270,519.83
-99.08896683,35.36928266,519.89
-99.08904301,35.36928261,519.83
-99.08912822,35.36928255,519.84
-99.08919207,35.36928250,519.88
-99.08934706,35.36928238,520.07
-99.08943634,35.36928232,520.11
-99.08952155,35.36928225,520.21
-99.08952661,35.36928225,520.25
-99.09001186,35.36928189,520.51
-99.09001935,35.36928188,520.54
-99.09002408,35.36928188,520.55
-99.09010818,35.36928182,520.98
-99.09018513,35.36928176,521.34
-99.09027144,35.36928170,521.69
-99.09034883,35.36928164,521.91
-99.09054433,35.36928149,522.63
-99.09062932,35.36928143,522.71
-99.09064726,35.36928141,522.60
-99.09065255,35.36928141,522.64
-99.09075239,35.36928134,522.65
-99.09084574,35.36928127,522.02
-99.09095297,35.36928119,521.83
-99.09138284,35.36928077,521.74
-99.09188471,35.36928048,518.12
-99.09215992,35.36928027,516.99
-99.09253751,35.36927998,515.77
-99.09270209,35.36927986,514.49
-99.09300735,35.36927962,519.12
-99.09305281,35.36927959,519.37
     </coordinates>
    </LineString>
   </MultiGeometry>
  </Placemark>
 </Document>
</kml>
