<kml>
 <Document>
  <Style id="yellow">
   <LineStyle>
   <color>ff00ffff</color>
   <width>1</width>
   </LineStyle>
  </Style>
  <Style id="red">
   <LineStyle>
   <color>ffff0000</color>
   <width>2</width>
   </LineStyle>
  </Style>
  <Style id="green">
   <LineStyle>
   <color>ff00ff00</color>
   <width>1</width>
   </LineStyle>
  </Style>
  <Placemark>
  <styleUrl>#yellow</styleUrl>
   <MultiGeometry>
    <LineString>
     <coordinates>
-99.06915622,35.39634623,486.56
-99.06942239,35.39634608,497.71
-99.06942778,35.39634607,496.13
-99.06972742,35.39634590,493.26
-99.06987036,35.39634582,492.84
-99.06987619,35.39634582,491.62
-99.06988302,35.39634581,489.30
-99.06988963,35.39634581,486.96
-99.06989260,35.39634581,486.94
-99.07019973,35.39634554,489.08
-99.07045752,35.39634548,488.42
-99.07069868,35.39634534,487.56
-99.07096451,35.39634509,486.48
-99.07130413,35.39634498,486.86
-99.07133309,35.39634496,486.85
-99.07138242,35.39634493,486.82
-99.07142052,35.39634491,486.80
-99.07145874,35.39634489,486.81
-99.07161334,35.39634480,486.60
-99.07168900,35.39634475,486.48
-99.07197454,35.39634458,490.79
-99.07208951,35.39634451,489.81
-99.07215371,35.39634448,489.13
-99.07215668,35.39634447,488.17
-99.07230832,35.39634438,490.63
-99.07234477,35.39634436,481.04
-99.07236106,35.39634435,481.09
-99.07253968,35.39634425,481.68
-99.07266213,35.39634417,482.72
-99.07278690,35.39634410,485.94
-99.07283634,35.39634407,487.18
-99.07307431,35.39634392,487.10
-99.07323509,35.39634383,492.73
-99.07360245,35.39634351,490.39
-99.07397818,35.39634337,492.38
-99.07400318,35.39634336,492.61
-99.07418356,35.39634325,493.54
-99.07428696,35.39634318,494.18
-99.07470553,35.39634293,496.90
-99.07499273,35.39634275,498.58
-99.07527100,35.39634257,498.78
-99.07528719,35.39634256,498.72
-99.07529247,35.39634256,498.76
-99.07529765,35.39634256,498.76
-99.07530282,35.39634255,498.72
-99.07530778,35.39634255,498.75
-99.07534302,35.39634253,498.76
-99.07558727,35.39634238,498.97
-99.07562614,35.39634235,499.01
-99.07590728,35.39634218,500.62
-99.07591212,35.39634217,500.61
-99.07591675,35.39634217,500.62
-99.07591972,35.39634217,500.58
-99.07592181,35.39634217,500.57
-99.07592677,35.39634216,500.57
-99.07614029,35.39634203,500.38
-99.07621782,35.39634198,500.34
-99.07638487,35.39634188,500.14
-99.07689076,35.39634155,500.30
-99.07697468,35.39634150,500.31
-99.07698238,35.39634150,500.36
-99.07698679,35.39634149,500.36
-99.07699196,35.39634149,500.44
-99.07699692,35.39634149,500.47
-99.07700188,35.39634148,500.44
-99.07700628,35.39634148,500.44
-99.07701102,35.39634148,500.47
-99.07701542,35.39634147,500.42
-99.07705892,35.39634091,500.43
-99.07708424,35.39633918,500.35
-99.07708438,35.39625568,499.80
-99.07708435,35.39622151,499.71
-99.07708432,35.39619076,499.85
-99.07708430,35.39617011,499.70
-99.07708414,35.39600132,498.66
-99.07708397,35.39582107,497.94
-99.07708392,35.39576967,497.58
-99.07708351,35.39545724,497.09
-99.07708336,35.39517916,496.62
-99.07708331,35.39512803,496.47
-99.07708321,35.39502037,495.84
-99.07708320,35.39500928,495.82
-99.07708312,35.39492984,495.51
-99.07708281,35.39459911,493.89
-99.07708257,35.39435042,492.47
-99.07708245,35.39422842,492.12
-99.07708239,35.39416485,491.75
-99.07708236,35.39413095,491.54
-99.07708234,35.39410588,491.43
-99.07708229,35.39405422,491.25
-99.07708228,35.39404520,491.20
-99.07708224,35.39400571,491.25
-99.07708218,35.39393556,491.07
-99.07708214,35.39389687,490.84
-99.07708208,35.39383258,490.62
-99.07708206,35.39381428,490.49
-99.07708193,35.39367569,489.60
-99.07708188,35.39362898,489.42
-99.07708162,35.39335244,488.30
-99.07708161,35.39333954,488.22
-99.07708157,35.39329978,488.08
-99.07708144,35.39316110,487.68
-99.07708134,35.39305695,487.43
-99.07708124,35.39294830,487.69
-99.07708116,35.39286733,492.92
-99.07708115,35.39286192,487.02
-99.07708106,35.39276580,486.13
-99.07708076,35.39244615,484.94
-99.07708068,35.39236455,485.04
-99.07708065,35.39233056,485.06
-99.07708028,35.39194374,486.45
-99.07708026,35.39192164,486.39
-99.07708025,35.39191308,486.41
-99.07708023,35.39189522,486.53
-99.07708013,35.39178188,487.44
-99.07708007,35.39172418,487.90
-99.07708000,35.39164654,487.75
-99.07707994,35.39158865,487.90
-99.07707987,35.39151363,488.28
-99.07707973,35.39136025,489.42
-99.07707948,35.39109931,490.31
-99.07707947,35.39109552,490.24
-99.07707945,35.39107262,490.39
-99.07707939,35.39100310,491.03
-99.07707924,35.39085080,490.95
-99.07707923,35.39083764,490.95
-99.07707921,35.39081501,491.00
-99.07707912,35.39072376,490.82
-99.07707906,35.39065577,490.59
-99.07707904,35.39063593,490.61
-99.07707894,35.39053909,490.04
-99.07707870,35.39028500,488.68
-99.07707870,35.39028418,488.66
-99.07707854,35.39011214,487.66
-99.07707850,35.39007589,487.52
-99.07707850,35.39006769,487.51
-99.07707811,35.38966671,484.18
-99.07707808,35.38962830,484.08
-99.07707806,35.38961234,484.13
-99.07707792,35.38946627,483.64
-99.07707765,35.38929161,483.61
-99.07707748,35.38899847,483.78
-99.07707742,35.38893328,483.80
-99.07707733,35.38884645,483.78
-99.07707713,35.38863194,481.53
-99.07707711,35.38861327,481.41
-99.07707700,35.38849037,481.13
-99.07707697,35.38846170,481.11
-99.07707696,35.38845638,481.07
-99.07707694,35.38843194,480.98
-99.07707692,35.38841526,480.93
-99.07707671,35.38818722,480.56
-99.07707658,35.38805648,480.56
-99.07707655,35.38802348,480.65
-99.07707642,35.38788489,480.54
-99.07707634,35.38780230,480.64
-99.07707600,35.38744739,479.30
-99.07707589,35.38732702,478.45
-99.07707413,35.38732630,478.48
-99.07706873,35.38732612,478.48
-99.07705816,35.38732586,478.59
-99.07701940,35.38732498,478.88
-99.07701423,35.38732489,478.91
-99.07700839,35.38732481,478.96
-99.07670053,35.38732491,480.49
-99.07661431,35.38732497,480.25
-99.07660914,35.38732497,480.19
-99.07660451,35.38732497,480.23
-99.07659956,35.38732498,480.20
-99.07635104,35.38732513,480.15
-99.07593891,35.38732539,479.89
-99.07564613,35.38732558,479.93
-99.07564128,35.38732558,479.91
-99.07563600,35.38732558,479.90
-99.07558689,35.38732561,479.90
-99.07522893,35.38732584,479.83
-99.07487856,35.38732605,479.52
-99.07484080,35.38732608,479.52
-99.07483529,35.38732608,479.50
-99.07482990,35.38732608,479.52
-99.07452512,35.38732627,479.29
-99.07413445,35.38732651,479.20
-99.07383309,35.38732670,479.17
-99.07343901,35.38732694,479.05
-99.07309866,35.38732714,479.23
-99.07273586,35.38732736,478.82
-99.07271229,35.38732738,478.77
-99.07270734,35.38732738,478.71
-99.07259128,35.38732745,478.58
-99.07247963,35.38732752,478.59
-99.07239903,35.38732757,478.55
-99.07234717,35.38732760,478.49
-99.07223013,35.38732767,478.51
-99.07204526,35.38732778,478.55
-99.07195288,35.38732783,478.51
-99.07171901,35.38732797,478.54
-99.07167309,35.38732800,478.50
-99.07159535,35.38732804,478.63
-99.07143129,35.38732814,478.85
-99.07134464,35.38732819,479.20
-99.07132361,35.38732821,479.28
-99.07121515,35.38732827,479.86
-99.07105792,35.38732836,480.26
-99.07101266,35.38732839,480.23
-99.07092380,35.38732844,479.71
-99.07065084,35.38732860,478.59
-99.07063136,35.38732861,478.58
-99.07047170,35.38732870,478.66
-99.07030885,35.38732880,478.64
-99.07027703,35.38732882,478.61
-99.07023001,35.38732885,478.73
-99.07006727,35.38732894,478.76
-99.06992886,35.38732902,478.79
-99.06974333,35.38732913,479.00
-99.06965481,35.38732918,479.28
-99.06960658,35.38732921,479.72
-99.06959248,35.38732921,477.77
-99.06943734,35.38732930,474.66
-99.06930664,35.38732938,482.80
-99.06914280,35.38732947,477.06
-99.06913807,35.38732948,476.13
-99.06902036,35.38732954,479.61
-99.06901563,35.38732955,478.69
-99.06890893,35.38732961,488.15
-99.06889418,35.38732961,485.82
-99.06888471,35.38732962,484.44
-99.06884496,35.38732964,478.43
-99.06872417,35.38732971,485.55
-99.06866812,35.38732974,476.29
-99.06851056,35.38732983,483.67
-99.06850032,35.38732984,482.21
-99.06846894,35.38732986,477.42
-99.06840882,35.38732989,483.51
-99.06828263,35.38732996,491.90
-99.06819587,35.38733001,478.41
-99.06809479,35.38733007,486.69
-99.06795286,35.38733015,477.05
-99.06787810,35.38733019,479.35
-99.06786389,35.38733020,479.44
-99.06779518,35.38733024,479.17
-99.06769278,35.38733029,475.93
-99.06754039,35.38733038,476.79
-99.06739924,35.38733046,478.78
-99.06734991,35.38733049,478.95
-99.06717946,35.38733058,474.79
-99.06706186,35.38733065,484.46
-99.06705118,35.38733065,476.14
-99.06700185,35.38733068,482.06
-99.06699646,35.38733068,484.11
-99.06690540,35.38733073,481.14
-99.06689890,35.38733074,480.23
-99.06688250,35.38733075,477.28
-99.06686862,35.38733075,475.31
-99.06686114,35.38733076,475.35
-99.06676127,35.38733081,484.63
-99.06675411,35.38733082,483.65
-99.06650956,35.38733095,477.81
-99.06645473,35.38733098,477.86
-99.06636928,35.38733103,477.80
-99.06629441,35.38733107,477.86
-99.06619124,35.38733113,477.94
-99.06612859,35.38733134,477.92
-99.06606836,35.38733209,477.85
-99.06606748,35.38733354,477.83
-99.06606539,35.38734400,477.82
-99.06606529,35.38734706,477.83
-99.06606525,35.38743471,477.88
-99.06606550,35.38761496,478.17
-99.06606564,35.38791459,478.81
-99.06606566,35.38793902,478.90
-99.06606584,35.38816634,479.61
-99.06606589,35.38822350,479.82
-99.06606600,35.38836317,480.54
-99.06606602,35.38838653,480.51
-99.06606604,35.38840979,480.38
-99.06606605,35.38841646,480.37
-99.06606610,35.38848256,480.39
-99.06606611,35.38848914,480.40
-99.06606612,35.38850429,480.43
-99.06606612,35.38851033,480.46
-99.06606618,35.38857417,480.54
-99.06606618,35.38858111,480.55
-99.06606646,35.38891834,480.90
-99.06606659,35.38907749,481.05
-99.06606659,35.38908119,481.06
-99.06606665,35.38915693,480.97
-99.06606689,35.38945448,481.35
-99.06606694,35.38951084,481.36
-99.06606702,35.38961435,481.39
-99.06606708,35.38968838,481.34
-99.06606712,35.38973247,481.39
-99.06606737,35.39003643,481.64
-99.06606745,35.39013417,481.79
-99.06606751,35.39020892,481.90
-99.06606759,35.39030279,481.95
-99.06606774,35.39048809,481.99
-99.06606783,35.39060738,482.06
-99.06606811,35.39094939,482.32
-99.06606817,35.39101566,482.42
-99.06606823,35.39109041,482.51
-99.06606829,35.39116751,482.23
-99.06606832,35.39120493,482.44
-99.06606841,35.39131376,482.79
-99.06606868,35.39164143,484.19
-99.06606887,35.39187524,484.34
-99.06606900,35.39203069,484.30
-99.06606902,35.39205945,484.29
-99.06606932,35.39243582,485.47
-99.06606956,35.39272589,486.14
-99.06606967,35.39285799,485.45
-99.06606973,35.39293355,485.67
-99.06606978,35.39299450,485.74
-99.06606984,35.39307195,485.39
-99.06606988,35.39311785,485.56
-99.06606994,35.39319395,485.71
-99.06607001,35.39327114,485.81
-99.06607028,35.39360224,486.16
-99.06607036,35.39370160,486.35
-99.06607047,35.39384109,486.64
-99.06607050,35.39388149,486.72
-99.06607050,35.39388221,486.73
-99.06607052,35.39390087,486.76
-99.06607074,35.39416561,487.30
-99.06607082,35.39426840,487.52
-99.06607088,35.39433657,487.57
-99.06607088,35.39434685,487.58
-99.06607092,35.39439004,487.61
-99.06607094,35.39442115,487.67
-99.06607100,35.39448553,487.62
-99.06607104,35.39453809,487.83
-99.06607117,35.39469409,488.71
-99.06607117,35.39469679,488.71
-99.06607122,35.39476478,488.92
-99.06607126,35.39480806,489.00
-99.06607128,35.39482708,489.01
-99.06607139,35.39496153,488.73
-99.06607141,35.39499372,488.77
-99.06607144,35.39502482,488.90
-99.06607146,35.39505377,489.07
-99.06607160,35.39522455,488.98
-99.06607164,35.39526828,489.13
-99.06607164,35.39527261,489.15
-99.06607169,35.39533762,489.44
-99.06607176,35.39541841,489.51
-99.06607186,35.39554600,489.56
-99.06607201,35.39572931,489.82
-99.06607203,35.39574761,489.70
-99.06607204,35.39576709,489.78
-99.06607214,35.39589107,490.06
-99.06607216,35.39590811,490.00
-99.06607227,35.39604156,489.93
-99.06607227,35.39605013,490.00
-99.06607232,35.39611072,490.29
-99.06607233,35.39612281,490.32
-99.06607241,35.39622253,490.52
-99.06607242,35.39622902,490.68
-99.06607246,35.39627708,491.21
-99.06607247,35.39628763,491.36
-99.06607271,35.39631892,491.81
-99.06607294,35.39632812,491.81
-99.06607339,35.39633750,491.79
-99.06607395,35.39634750,491.80
-99.06611568,35.39634775,491.79
-99.06618858,35.39634789,491.31
-99.06632183,35.39634782,490.50
-99.06655011,35.39634769,490.18
-99.06656211,35.39634769,490.16
-99.06675548,35.39634758,490.09
-99.06694941,35.39634747,490.25
-99.06696559,35.39634746,490.11
-99.06724971,35.39634731,489.69
-99.06735410,35.39634725,489.62
-99.06749847,35.39634717,489.58
-99.06777564,35.39634701,488.67
-99.06783720,35.39634698,488.57
-99.06792133,35.39634693,488.57
-99.06833219,35.39634670,487.78
-99.06845575,35.39634663,487.42
-99.06875483,35.39634637,487.33
-99.06915622,35.39634623,486.56
     </coordinates>
    </LineString>
   </MultiGeometry>
  </Placemark>
 </Document>
</kml>
