<kml>
 <Document>
  <Style id="yellow">
   <LineStyle>
   <color>ff00ffff</color>
   <width>1</width>
   </LineStyle>
  </Style>
  <Style id="red">
   <LineStyle>
   <color>ffff0000</color>
   <width>2</width>
   </LineStyle>
  </Style>
  <Style id="green">
   <LineStyle>
   <color>ff00ff00</color>
   <width>1</width>
   </LineStyle>
  </Style>
  <Placemark>
  <styleUrl>#yellow</styleUrl>
   <MultiGeometry>
    <LineString>
     <coordinates>
-99.11153198,35.35123015,529.03
-99.11188956,35.35122982,528.86
-99.11220246,35.35122953,529.02
-99.11241411,35.35122933,528.96
-99.11283883,35.35122893,528.71
-99.11290035,35.35122888,529.00
-99.11302890,35.35122876,529.02
-99.11340321,35.35122841,529.36
-99.11344525,35.35122837,529.42
-99.11363279,35.35122819,529.43
-99.11374263,35.35122809,529.42
-99.11375914,35.35122807,529.46
-99.11381263,35.35122802,529.51
-99.11389308,35.35122795,529.60
-99.11426101,35.35122760,530.62
-99.11444569,35.35122742,530.80
-99.11483860,35.35122705,532.09
-99.11538582,35.35122644,532.33
-99.11553407,35.35122639,532.42
-99.11559713,35.35122633,532.51
-99.11567021,35.35122626,532.64
-99.11603109,35.35122591,533.51
-99.11634498,35.35122561,534.21
-99.11641817,35.35122554,534.33
-99.11647067,35.35122549,534.41
-99.11656455,35.35122540,534.40
-99.11674681,35.35122522,534.71
-99.11678137,35.35122519,534.84
-99.11686094,35.35122511,535.03
-99.11693633,35.35122504,535.15
-99.11724196,35.35122474,534.07
-99.11726717,35.35122472,535.43
-99.11750203,35.35122449,537.18
-99.11750699,35.35122449,537.25
-99.11753516,35.35122446,536.92
-99.11765380,35.35122434,535.68
-99.11765887,35.35122434,535.71
-99.11766360,35.35122433,535.73
-99.11766866,35.35122433,535.75
-99.11767329,35.35122432,535.75
-99.11767780,35.35122432,535.67
-99.11767989,35.35122432,535.74
-99.11771841,35.35122428,538.07
-99.11792224,35.35122408,541.75
-99.11817879,35.35122383,536.43
-99.11821324,35.35122380,538.96
-99.11859921,35.35122342,536.87
-99.11881724,35.35122312,537.32
-99.11934266,35.35121791,537.48
-99.11937931,35.35121778,537.47
-99.11941243,35.35121766,537.50
-99.11944919,35.35121753,537.48
-99.11948232,35.35121741,537.51
-99.11951886,35.35121728,537.49
-99.12005849,35.35122153,540.07
-99.12011913,35.35122192,537.78
-99.12012375,35.35122191,537.76
-99.12012838,35.35122191,537.75
-99.12013333,35.35122190,537.78
-99.12013817,35.35122190,537.76
-99.12014268,35.35122190,537.81
-99.12014698,35.35122189,537.75
-99.12015160,35.35122189,537.77
-99.12019320,35.35122175,537.76
-99.12023502,35.35122162,537.76
-99.12027266,35.35122150,537.73
-99.12035168,35.35122124,537.75
-99.12039318,35.35122110,537.74
-99.12043467,35.35122097,537.76
-99.12051391,35.35122071,537.79
-99.12104121,35.35122091,538.25
-99.12106454,35.35121881,538.26
-99.12106506,35.35105209,538.14
-99.12106498,35.35099889,538.17
-99.12106465,35.35077861,538.19
-99.12106458,35.35073352,538.11
-99.12106450,35.35068041,538.13
-99.12106442,35.35062793,538.30
-99.12106402,35.35035923,537.84
-99.12106401,35.35035283,537.85
-99.12106395,35.35031270,538.10
-99.12106377,35.35019061,537.69
-99.12106333,35.34989567,537.25
-99.12106279,35.34960397,537.17
-99.12106263,35.34942291,537.08
-99.12106233,35.34922671,536.65
-99.12106230,35.34920471,536.86
-99.12106226,35.34917504,537.02
-99.12106224,35.34916494,537.06
-99.12106222,35.34915403,537.01
-99.12106221,35.34914727,537.02
-99.12106216,35.34911066,536.83
-99.12106209,35.34906431,547.87
-99.12106205,35.34903879,545.16
-99.12106200,35.34900570,544.40
-99.12106193,35.34895692,539.83
-99.12106188,35.34892320,546.14
-99.12106185,35.34890625,536.83
-99.12106185,35.34890372,546.18
-99.12106184,35.34889867,545.86
-99.12106182,35.34888596,546.48
-99.12106181,35.34887938,544.05
-99.12106181,35.34887676,536.55
-99.12106181,35.34887469,547.36
-99.12106181,35.34887333,543.95
-99.12106179,35.34886017,546.40
-99.12106179,35.34885963,545.33
-99.12106171,35.34880814,536.55
-99.12106165,35.34877081,539.45
-99.12106161,35.34874331,536.18
-99.12106140,35.34860463,535.96
-99.12106139,35.34859264,535.95
-99.12106127,35.34851699,535.86
-99.12106127,35.34851329,535.87
-99.12106107,35.34837750,535.93
-99.12106093,35.34828886,535.60
-99.12106052,35.34800997,535.27
-99.12106049,35.34799301,535.18
-99.12106033,35.34788508,534.91
-99.12106019,35.34779022,534.89
-99.12105999,35.34765353,534.48
-99.12105993,35.34761755,534.45
-99.12105988,35.34758238,534.38
-99.12105977,35.34750917,534.35
-99.12105969,35.34745696,534.49
-99.12105957,35.34737608,534.09
-99.12105943,35.34727806,533.75
-99.12105898,35.34697897,533.48
-99.12105896,35.34696563,533.38
-99.12105834,35.34655193,532.10
-99.12105824,35.34648070,532.20
-99.12105816,35.34642669,532.02
-99.12105807,35.34636988,531.68
-99.12105803,35.34634481,531.54
-99.12105802,35.34633408,531.55
-99.12105795,35.34629026,531.42
-99.12105742,35.34593464,530.90
-99.12105742,35.34593175,530.89
-99.12105730,35.34585123,531.09
-99.12105717,35.34576485,530.56
-99.12105693,35.34560353,530.15
-99.12105685,35.34554898,530.05
-99.12105665,35.34541580,529.95
-99.12105648,35.34530057,529.89
-99.12105644,35.34527685,529.83
-99.12105632,35.34519651,529.75
-99.12105604,35.34500544,529.89
-99.12105594,35.34494332,529.66
-99.12105533,35.34460608,529.03
-99.12105480,35.34417436,528.69
-99.12105472,35.34412088,528.61
-99.12105453,35.34399717,528.80
-99.12105436,35.34388094,532.91
-99.12105385,35.34354371,527.66
-99.12105383,35.34352947,527.55
-99.12105364,35.34340206,527.18
-99.12105362,35.34338556,526.89
-99.12105358,35.34335977,526.79
-99.12105340,35.34323840,526.21
-99.12105338,35.34322478,526.20
-99.12105327,35.34315472,525.76
-99.12105321,35.34311252,525.53
-99.12105316,35.34307546,525.33
-99.12105311,35.34304517,525.15
-99.12105286,35.34287565,524.23
-99.12105264,35.34272705,523.28
-99.12105262,35.34271930,523.27
-99.12105256,35.34267899,523.08
-99.12105206,35.34234050,521.05
-99.12105190,35.34223184,520.38
-99.12105142,35.34220885,520.21
-99.12104999,35.34220813,520.21
-99.12086676,35.34220435,520.23
-99.12086225,35.34220435,520.20
-99.12044077,35.34220513,520.12
-99.12014650,35.34220506,519.74
-99.12014199,35.34220507,519.72
-99.12012735,35.34220517,519.71
-99.12010402,35.34220538,519.61
-99.12007959,35.34220558,519.56
-99.11954752,35.34220566,518.57
-99.11954245,35.34220566,518.63
-99.11949524,35.34220607,518.83
-99.11946168,35.34220637,518.79
-99.11943780,35.34220658,518.83
-99.11889945,35.34220630,518.88
-99.11889494,35.34220630,518.87
-99.11847203,35.34220672,520.59
-99.11841942,35.34220677,517.50
-99.11841425,35.34220677,517.52
-99.11825446,35.34220693,517.41
-99.11801269,35.34220717,517.46
-99.11800763,35.34220717,517.46
-99.11766923,35.34220750,523.32
-99.11766417,35.34220751,523.27
-99.11763622,35.34220753,522.95
-99.11760838,35.34220756,522.35
-99.11758901,35.34220758,522.11
-99.11753134,35.34220763,516.93
-99.11720803,35.34220795,516.53
-99.11720341,35.34220795,516.49
-99.11719878,35.34220796,516.49
-99.11717754,35.34220798,516.41
-99.11676113,35.34220838,516.73
-99.11675573,35.34220839,516.70
-99.11655336,35.34220858,520.03
-99.11651209,35.34220862,520.15
-99.11647952,35.34220865,524.64
-99.11623081,35.34220889,517.61
-99.11622047,35.34220899,517.66
-99.11568861,35.34221049,516.96
-99.11565593,35.34221035,516.91
-99.11561378,35.34221011,516.82
-99.11553432,35.34220974,516.70
-99.11552046,35.34220966,516.64
-99.11550120,35.34220959,516.59
-99.11549647,35.34220960,516.59
-99.11549152,35.34220960,516.59
-99.11495317,35.34221228,516.05
-99.11493435,35.34221221,515.99
-99.11485005,35.34221174,515.92
-99.11477500,35.34221127,515.80
-99.11473780,35.34221104,515.80
-99.11468630,35.34221082,515.66
-99.11460201,35.34221045,515.31
-99.11459705,35.34221045,515.34
-99.11459243,35.34221046,515.29
-99.11458803,35.34221046,515.27
-99.11458308,35.34221047,515.22
-99.11405012,35.34221232,515.17
-99.11400797,35.34221209,515.13
-99.11396065,35.34221186,515.04
-99.11391806,35.34221163,515.00
-99.11388032,35.34221140,515.07
-99.11384235,35.34221116,515.04
-99.11383718,35.34221117,515.02
-99.11383245,35.34221117,515.06
-99.11333757,35.34221416,513.41
-99.11325503,35.34221379,513.16
-99.11324051,35.34221371,513.16
-99.11320210,35.34221348,513.12
-99.11314917,35.34221317,513.12
-99.11313475,35.34221309,513.13
-99.11307191,35.34221279,512.98
-99.11305695,35.34221271,512.91
-99.11298399,35.34221233,512.78
-99.11296968,35.34221225,512.76
-99.11295471,35.34221218,512.76
-99.11292599,35.34221202,512.75
-99.11292093,35.34221203,512.76
-99.11291609,35.34221203,512.71
-99.11287526,35.34221207,512.07
-99.11250506,35.34221242,513.96
-99.11250011,35.34221242,513.85
-99.11249505,35.34221243,513.86
-99.11195615,35.34221356,516.08
-99.11190156,35.34221316,516.17
-99.11187570,35.34221300,516.21
-99.11187075,35.34221301,516.25
-99.11151134,35.34221334,516.89
-99.11150682,35.34221334,516.93
-99.11150209,35.34221335,516.95
-99.11149736,35.34221335,516.93
-99.11149263,35.34221335,516.96
-99.11148779,35.34221336,516.99
-99.11148305,35.34221336,517.00
-99.11147865,35.34221337,516.96
-99.11105178,35.34221475,516.63
-99.11085524,35.34221538,516.44
-99.11077622,35.34221564,516.33
-99.11069721,35.34221589,516.29
-99.11061754,35.34221614,516.19
-99.11007193,35.34221781,514.82
-99.11004849,35.34221792,514.73
-99.11004817,35.34222631,514.80
-99.11004786,35.34224588,514.92
-99.11004747,35.34228267,515.09
-99.11004753,35.34240187,515.47
-99.11004755,35.34242036,515.53
-99.11004812,35.34275867,514.88
-99.11004834,35.34292269,513.88
-99.11004860,35.34311303,512.37
-99.11004908,35.34354621,510.98
-99.11004921,35.34364070,511.10
-99.11004938,35.34376865,511.24
-99.11004940,35.34378777,511.23
-99.11004955,35.34389796,511.64
-99.11004962,35.34394683,512.16
-99.11004970,35.34400589,512.10
-99.11004973,35.34402924,511.46
-99.11004984,35.34410778,510.46
-99.11004992,35.34416928,512.03
-99.11005003,35.34425025,512.55
-99.11005057,35.34464483,514.29
-99.11005115,35.34490992,514.99
-99.11005142,35.34511371,515.43
-99.11005169,35.34539476,516.34
-99.11005176,35.34552371,516.55
-99.11005180,35.34555247,516.72
-99.11005184,35.34558060,516.89
-99.11005242,35.34592793,518.44
-99.11005256,35.34611657,518.68
-99.11005266,35.34618969,519.30
-99.11005290,35.34636264,520.01
-99.11005291,35.34637238,520.10
-99.11005301,35.34644794,520.39
-99.11005321,35.34651007,520.19
-99.11005370,35.34695397,522.65
-99.11005382,35.34704260,522.68
-99.11005414,35.34727596,523.99
-99.11005443,35.34749129,524.76
-99.11005469,35.34768758,524.88
-99.11005481,35.34777396,525.06
-99.11005495,35.34787865,525.47
-99.11005507,35.34796756,525.76
-99.11005547,35.34826385,526.59
-99.11005550,35.34828450,526.57
-99.11005598,35.34863914,526.50
-99.11005605,35.34868846,526.73
-99.11005626,35.34883958,527.09
-99.11005630,35.34886925,527.10
-99.11005638,35.34893120,527.00
-99.11005687,35.34921297,527.38
-99.11005709,35.34945075,527.30
-99.11005767,35.34980232,527.56
-99.11005782,35.34999339,527.90
-99.11005803,35.35014559,528.61
-99.11005840,35.35042277,529.27
-99.11005874,35.35067146,529.93
-99.11005883,35.35073990,529.99
-99.11005954,35.35109687,529.96
-99.11005972,35.35122708,530.53
-99.11007787,35.35122778,530.38
-99.11012300,35.35122946,530.18
-99.11016384,35.35123095,530.07
-99.11017726,35.35123139,530.00
-99.11031484,35.35123126,529.94
-99.11056522,35.35123104,529.53
-99.11069696,35.35123092,529.37
-99.11119564,35.35123046,529.25
-99.11132034,35.35123034,529.11
-99.11153198,35.35123015,529.03
     </coordinates>
    </LineString>
   </MultiGeometry>
  </Placemark>
 </Document>
</kml>
