<kml>
 <Document>
  <Style id="yellow">
   <LineStyle>
   <color>ff00ffff</color>
   <width>1</width>
   </LineStyle>
  </Style>
  <Style id="red">
   <LineStyle>
   <color>ffff0000</color>
   <width>2</width>
   </LineStyle>
  </Style>
  <Style id="green">
   <LineStyle>
   <color>ff00ff00</color>
   <width>1</width>
   </LineStyle>
  </Style>
  <Placemark>
  <styleUrl>#yellow</styleUrl>
   <MultiGeometry>
    <LineString>
     <coordinates>
-99.12111390,35.38368523,530.73
-99.12111412,35.38383149,530.50
-99.12111430,35.38395042,530.34
-99.12111432,35.38396575,530.31
-99.12111471,35.38415357,530.43
-99.12111504,35.38444364,530.16
-99.12111511,35.38449206,530.25
-99.12111517,35.38453174,530.19
-99.12111519,35.38454463,530.21
-99.12111525,35.38458926,530.23
-99.12111540,35.38468538,530.22
-99.12111570,35.38489079,530.34
-99.12111578,35.38493993,530.34
-99.12111578,35.38494191,530.32
-99.12111582,35.38497086,530.24
-99.12111586,35.38499277,530.29
-99.12111592,35.38503821,530.28
-99.12111596,35.38506066,530.24
-99.12111601,35.38509619,530.15
-99.12111610,35.38515760,530.40
-99.12111620,35.38522026,536.52
-99.12111625,35.38525858,540.55
-99.12111627,35.38527121,540.78
-99.12111628,35.38527527,541.90
-99.12111634,35.38531945,530.53
-99.12111640,35.38535723,530.48
-99.12111646,35.38539970,534.74
-99.12111649,35.38541683,530.49
-99.12111660,35.38549320,540.98
-99.12111669,35.38555127,538.26
-99.12111671,35.38556344,531.31
-99.12111677,35.38560691,535.49
-99.12111683,35.38564279,530.15
-99.12111708,35.38580996,529.88
-99.12111718,35.38587750,529.95
-99.12111725,35.38592421,529.93
-99.12111733,35.38597948,529.86
-99.12111783,35.38631473,529.71
-99.12111786,35.38633493,529.70
-99.12111807,35.38647180,529.55
-99.12111809,35.38648551,529.55
-99.12111813,35.38651075,529.60
-99.12111823,35.38657856,529.28
-99.12111827,35.38660814,529.13
-99.12111830,35.38662906,529.17
-99.12111845,35.38672770,528.85
-99.12111854,35.38678811,532.66
-99.12111856,35.38680037,528.58
-99.12111868,35.38688279,527.92
-99.12111876,35.38693797,527.50
-99.12111877,35.38693960,527.50
-99.12111889,35.38702526,526.53
-99.12111896,35.38706863,526.16
-99.12111909,35.38715293,526.22
-99.12111909,35.38715717,527.82
-99.12111911,35.38716925,527.51
-99.12111911,35.38717016,526.91
-99.12111913,35.38718386,529.55
-99.12111914,35.38718819,528.50
-99.12111915,35.38719856,527.27
-99.12111931,35.38723039,526.55
-99.12111945,35.38725077,526.18
-99.12111972,35.38728079,530.55
-99.12111984,35.38728719,529.42
-99.12116752,35.38728841,526.15
-99.12122697,35.38728835,525.30
-99.12127983,35.38728830,531.08
-99.12129612,35.38728828,525.90
-99.12159319,35.38728798,530.41
-99.12161103,35.38728796,534.72
-99.12162050,35.38728795,534.69
-99.12163085,35.38728794,534.57
-99.12165177,35.38728792,534.72
-99.12165673,35.38728792,534.82
-99.12167688,35.38728790,534.83
-99.12168227,35.38728789,533.66
-99.12172697,35.38728785,534.66
-99.12173204,35.38728784,534.78
-99.12181330,35.38728776,527.67
-99.12198958,35.38728758,532.56
-99.12199619,35.38728757,534.96
-99.12201656,35.38728755,535.04
-99.12209319,35.38728748,529.01
-99.12213944,35.38728743,534.82
-99.12214428,35.38728742,534.92
-99.12219460,35.38728737,529.24
-99.12224834,35.38728732,537.42
-99.12225043,35.38728732,536.49
-99.12227333,35.38728729,535.01
-99.12233015,35.38728724,539.09
-99.12239588,35.38728717,534.98
-99.12243255,35.38728713,538.54
-99.12243618,35.38728713,537.11
-99.12252680,35.38728704,534.23
-99.12252790,35.38728704,535.23
-99.12253748,35.38728703,535.11
-99.12254552,35.38728702,529.00
-99.12258538,35.38728698,535.14
-99.12259088,35.38728697,535.33
-99.12259595,35.38728697,535.32
-99.12260068,35.38728696,535.16
-99.12260542,35.38728696,535.23
-99.12261092,35.38728695,535.45
-99.12261753,35.38728695,534.96
-99.12262480,35.38728694,535.15
-99.12272643,35.38728684,528.97
-99.12302306,35.38728653,536.88
-99.12302625,35.38728653,535.79
-99.12302746,35.38728653,535.48
-99.12307448,35.38728648,535.55
-99.12310101,35.38728645,535.49
-99.12310300,35.38728645,535.57
-99.12320782,35.38728635,530.22
-99.12325825,35.38728629,534.59
-99.12326243,35.38728629,533.32
-99.12327190,35.38728628,530.46
-99.12341482,35.38728613,530.70
-99.12347879,35.38728607,531.00
-99.12360135,35.38728594,534.50
-99.12363350,35.38728591,536.19
-99.12365232,35.38728589,535.99
-99.12365717,35.38728589,536.19
-99.12366146,35.38728588,536.01
-99.12380857,35.38728573,536.44
-99.12381385,35.38728573,536.68
-99.12386604,35.38728567,536.58
-99.12393266,35.38728560,536.69
-99.12393717,35.38728560,536.73
-99.12396052,35.38728558,536.46
-99.12398452,35.38728555,536.54
-99.12398915,35.38728555,536.59
-99.12401282,35.38728552,536.65
-99.12407910,35.38728545,536.52
-99.12408373,35.38728545,536.67
-99.12411214,35.38728542,536.64
-99.12460300,35.38728491,536.95
-99.12468338,35.38728483,536.86
-99.12502923,35.38728375,534.36
-99.12538223,35.38728411,535.21
-99.12546481,35.38728402,535.57
-99.12568195,35.38728380,536.12
-99.12597770,35.38728349,538.01
-99.12599245,35.38728347,537.95
-99.12599697,35.38728347,537.97
-99.12600170,35.38728346,537.97
-99.12600611,35.38728346,537.97
-99.12601084,35.38728345,537.98
-99.12601591,35.38728345,537.99
-99.12602086,35.38728344,538.03
-99.12602571,35.38728344,538.04
-99.12603022,35.38728343,538.07
-99.12603550,35.38728343,538.00
-99.12604046,35.38728342,538.02
-99.12604497,35.38728342,538.07
-99.12604949,35.38728341,538.04
-99.12605455,35.38728341,538.09
-99.12605863,35.38728340,538.10
-99.12605918,35.38728340,538.10
-99.12606402,35.38728340,538.14
-99.12606865,35.38728339,538.15
-99.12607327,35.38728339,538.16
-99.12607779,35.38728338,538.24
-99.12608241,35.38728338,538.19
-99.12608748,35.38728337,538.12
-99.12609254,35.38728337,538.14
-99.12609761,35.38728336,538.13
-99.12610234,35.38728336,538.12
-99.12610719,35.38728335,538.13
-99.12611236,35.38728335,538.11
-99.12611688,35.38728334,538.11
-99.12612161,35.38728334,538.10
-99.12612645,35.38728333,538.12
-99.12613119,35.38728333,538.12
-99.12613614,35.38728332,538.11
-99.12614110,35.38728332,538.04
-99.12614583,35.38728331,537.98
-99.12615046,35.38728331,537.99
-99.12630472,35.38728315,538.02
-99.12630967,35.38728314,538.05
-99.12631474,35.38728314,538.07
-99.12631936,35.38728313,538.07
-99.12632432,35.38728313,538.09
-99.12632927,35.38728312,538.12
-99.12633401,35.38728312,538.14
-99.12633863,35.38728311,538.13
-99.12634359,35.38728311,538.17
-99.12634810,35.38728310,538.17
-99.12635328,35.38728310,538.20
-99.12635790,35.38728309,538.18
-99.12636264,35.38728309,538.20
-99.12636693,35.38728308,538.30
-99.12637177,35.38728308,538.29
-99.12637684,35.38728307,538.27
-99.12639137,35.38728306,538.37
-99.12639644,35.38728305,538.37
-99.12640613,35.38728304,538.38
-99.12641075,35.38728304,538.41
-99.12641593,35.38728303,538.39
-99.12642055,35.38728303,538.41
-99.12642551,35.38728302,538.42
-99.12643002,35.38728302,538.45
-99.12643476,35.38728301,538.49
-99.12643927,35.38728301,538.56
-99.12644379,35.38728300,538.62
-99.12644863,35.38728300,538.69
-99.12652593,35.38728292,538.76
-99.12655114,35.38728289,538.73
-99.12700952,35.38728241,540.12
-99.12721135,35.38728220,540.59
-99.12728765,35.38728212,541.04
-99.12740051,35.38728200,540.83
-99.12759364,35.38728179,541.00
-99.12769230,35.38728169,540.84
-99.12778061,35.38728160,541.09
-99.12789743,35.38728147,540.52
-99.12799521,35.38728137,540.33
-99.12840921,35.38728093,541.28
-99.12848277,35.38728085,541.47
-99.12869417,35.38728063,541.52
-99.12880560,35.38728051,542.01
-99.12899400,35.38728031,542.16
-99.12922093,35.38728006,542.44
-99.12932289,35.38727995,542.30
-99.12952901,35.38727973,542.62
-99.12985229,35.38727939,543.01
-99.12995293,35.38727928,543.03
-99.13007933,35.38727914,543.03
-99.13015300,35.38727906,543.16
-99.13027235,35.38727893,543.36
-99.13039810,35.38727880,543.62
-99.13042673,35.38727877,543.66
-99.13050050,35.38727869,543.77
-99.13061248,35.38727857,543.94
-99.13072336,35.38727845,544.19
-99.13083930,35.38727832,544.40
-99.13098751,35.38727816,544.77
-99.13104487,35.38727810,544.97
-99.13107746,35.38727806,545.03
-99.13116654,35.38727797,545.20
-99.13126278,35.38727786,545.41
-99.13140713,35.38727771,545.60
-99.13151349,35.38727759,545.77
-99.13169968,35.38727739,546.06
-99.13174329,35.38727734,545.99
-99.13184470,35.38727723,545.66
-99.13194853,35.38727712,545.25
-99.13195646,35.38727711,545.23
-99.13206183,35.38727690,545.23
-99.13211512,35.38727675,545.32
-99.13212701,35.38727431,545.30
-99.13212755,35.38726953,545.31
-99.13212884,35.38725176,545.38
-99.13212917,35.38724689,545.38
-99.13212948,35.38723436,545.39
-99.13212972,35.38711155,545.40
-99.13212957,35.38702246,545.47
-99.13212948,35.38696710,545.55
-99.13212920,35.38679307,545.72
-99.13212916,35.38677143,545.82
-99.13212893,35.38662996,546.31
-99.13212864,35.38644998,546.72
-99.13212855,35.38639877,546.79
-99.13212833,35.38626117,547.11
-99.13212832,35.38625188,547.16
-99.13212829,35.38623836,547.25
-99.13212763,35.38582980,547.97
-99.13212729,35.38562404,547.91
-99.13212728,35.38561593,548.01
-99.13212718,35.38555407,547.35
-99.13212709,35.38549762,546.86
-99.13212676,35.38529709,546.51
-99.13212652,35.38515282,546.70
-99.13212611,35.38490206,546.88
-99.13212602,35.38484634,546.91
-99.13212592,35.38478232,546.94
-99.13212558,35.38457168,546.91
-99.13212551,35.38453291,546.91
-99.13212538,35.38445392,546.89
-99.13212532,35.38441236,546.91
-99.13212519,35.38433779,546.89
-99.13212482,35.38411110,546.79
-99.13212453,35.38393005,546.65
-99.13212451,35.38391968,546.63
-99.13212449,35.38390417,546.64
-99.13212448,35.38390119,546.63
-99.13212405,35.38363718,546.22
-99.13212399,35.38359687,546.05
-99.13212374,35.38344503,546.40
-99.13212356,35.38333322,545.80
-99.13212355,35.38333052,545.76
-99.13212355,35.38332655,545.75
-99.13212354,35.38332520,545.77
-99.13212343,35.38325459,545.56
-99.13212342,35.38325009,545.56
-99.13212311,35.38305767,545.22
-99.13212302,35.38300672,545.22
-99.13212290,35.38293278,545.15
-99.13212279,35.38286534,545.16
-99.13212278,35.38285479,545.16
-99.13212272,35.38282188,545.19
-99.13212269,35.38280060,545.17
-99.13212267,35.38278725,545.17
-99.13212257,35.38272693,545.17
-99.13212224,35.38252802,545.27
-99.13212158,35.38219106,544.17
-99.13212136,35.38198728,543.97
-99.13212107,35.38181127,543.93
-99.13212094,35.38172885,543.95
-99.13212093,35.38171975,543.98
-99.13212071,35.38158503,544.11
-99.13212054,35.38148441,544.25
-99.13212038,35.38138558,544.37
-99.13212008,35.38120155,544.58
-99.13212000,35.38114970,544.64
-99.13211995,35.38111976,544.78
-99.13211947,35.38082446,544.42
-99.13211934,35.38074935,544.28
-99.13211920,35.38066135,544.11
-99.13211908,35.38058921,544.16
-99.13211896,35.38051392,544.22
-99.13211838,35.38015668,543.04
-99.13211808,35.37997327,542.71
-99.13211801,35.37993080,542.64
-99.13211773,35.37976147,542.05
-99.13211764,35.37970719,542.14
-99.13211729,35.37949078,541.08
-99.13211721,35.37944209,541.03
-99.13211717,35.37941774,541.05
-99.13211645,35.37897700,540.74
-99.13211641,35.37894770,540.66
-99.13211625,35.37885176,540.55
-99.13211611,35.37876393,540.38
-99.13211610,35.37876213,540.35
-99.13211604,35.37872137,540.31
-99.13211603,35.37871524,540.32
-99.13211572,35.37852354,540.04
-99.13211553,35.37841237,540.16
-99.13211545,35.37836187,545.84
-99.13211518,35.37826305,545.83
-99.13211231,35.37826016,545.85
-99.13206508,35.37826022,556.81
-99.13206013,35.37826022,556.65
-99.13205649,35.37826022,544.28
-99.13204989,35.37826023,556.27
-99.13204515,35.37826024,556.17
-99.13204086,35.37826024,552.48
-99.13204075,35.37826024,543.77
-99.13200937,35.37826028,555.09
-99.13198912,35.37826030,554.50
-99.13188100,35.37826042,543.00
-99.13185678,35.37826044,546.83
-99.13183597,35.37826047,546.21
-99.13183113,35.37826047,546.12
-99.13182100,35.37826048,545.84
-99.13175351,35.37826056,547.52
-99.13175329,35.37826056,543.68
-99.13174845,35.37826056,543.61
-99.13170122,35.37826061,545.85
-99.13161721,35.37826070,539.60
-99.13161182,35.37826071,539.45
-99.13160708,35.37826072,539.45
-99.13158044,35.37826074,551.60
-99.13152550,35.37826080,552.41
-99.13150117,35.37826083,549.00
-99.13144844,35.37826089,547.45
-99.13141100,35.37826093,546.23
-99.13140153,35.37826094,554.69
-99.13136630,35.37826098,547.34
-99.13136168,35.37826098,547.33
-99.13135827,35.37826099,544.69
-99.13135254,35.37826099,538.95
-99.13131841,35.37826103,545.81
-99.13131181,35.37826104,551.93
-99.13130597,35.37826104,551.66
-99.13126821,35.37826108,550.48
-99.13120876,35.37826115,548.53
-99.13120303,35.37826115,548.26
-99.13117099,35.37826119,547.32
-99.13113819,35.37826123,546.23
-99.13111595,35.37826125,545.55
-99.13111044,35.37826126,545.30
-99.13104648,35.37826132,546.69
-99.13098229,35.37826139,548.51
-99.13090753,35.37826148,539.03
-99.13089443,35.37826149,545.81
-99.13083003,35.37826156,545.50
-99.13080184,35.37826159,538.79
-99.13066962,35.37826173,538.55
-99.13061501,35.37826179,538.67
-99.13057978,35.37826183,546.50
-99.13056282,35.37826185,545.95
-99.13051284,35.37826190,542.05
-99.13050569,35.37826191,546.80
-99.13041717,35.37826201,553.35
-99.13041486,35.37826201,551.05
-99.13041464,35.37826201,552.60
-99.13041398,35.37826201,550.29
-99.13041331,35.37826201,552.73
-99.13041243,35.37826201,553.50
-99.13041210,35.37826201,538.34
-99.13040682,35.37826202,553.37
-99.13040660,35.37826202,553.43
-99.13040230,35.37826202,538.38
-99.13040208,35.37826202,550.44
-99.13039933,35.37826202,552.72
-99.13039592,35.37826203,538.36
-99.13039427,35.37826203,538.35
-99.13039339,35.37826203,538.37
-99.13038788,35.37826204,552.70
-99.13038381,35.37826204,551.20
-99.13038326,35.37826204,538.35
-99.13038260,35.37826204,538.34
-99.13038238,35.37826204,553.01
-99.13038128,35.37826204,538.37
-99.13038073,35.37826204,552.04
-99.13037896,35.37826205,552.01
-99.13037863,35.37826205,538.35
-99.13037643,35.37826205,538.38
-99.13033647,35.37826209,538.35
-99.13033416,35.37826210,538.29
-99.13033383,35.37826210,538.28
-99.13032810,35.37826210,538.36
-99.13032127,35.37826211,538.35
-99.13030432,35.37826213,538.23
-99.13025511,35.37826218,538.11
-99.13025434,35.37826218,538.12
-99.13025048,35.37826219,538.09
-99.13024872,35.37826219,538.11
-99.13023331,35.37826220,538.09
-99.13023133,35.37826221,538.05
-99.13019973,35.37826224,538.00
-99.13019588,35.37826224,537.96
-99.13018850,35.37826225,537.98
-99.13015591,35.37826229,537.80
-99.13015239,35.37826229,537.82
-99.13014897,35.37826229,537.78
-99.13011253,35.37826233,537.87
-99.13010703,35.37826243,537.85
-99.12987022,35.37826539,544.07
-99.12953046,35.37826458,545.83
-99.12945383,35.37826430,546.34
-99.12944414,35.37826431,546.49
-99.12943919,35.37826432,546.46
-99.12901125,35.37826442,545.26
-99.12896435,35.37826483,543.82
-99.12841585,35.37826424,544.64
-99.12811308,35.37826447,536.47
-99.12787913,35.37826481,536.17
-99.12747100,35.37826515,536.82
-99.12701069,35.37826563,537.67
-99.12700596,35.37826564,537.65
-99.12700089,35.37826564,537.66
-99.12699561,35.37826565,537.68
-99.12699054,35.37826566,537.69
-99.12698559,35.37826566,537.70
-99.12698053,35.37826567,537.65
-99.12697546,35.37826567,537.71
-99.12697062,35.37826568,537.66
-99.12696566,35.37826568,537.68
-99.12686570,35.37826579,537.62
-99.12653761,35.37826613,536.72
-99.12637654,35.37826630,536.12
-99.12623639,35.37826645,535.66
-99.12568734,35.37826702,533.94
-99.12530465,35.37826742,533.68
-99.12508611,35.37826764,533.48
-99.12487671,35.37826786,533.29
-99.12447882,35.37826827,532.26
-99.12432722,35.37826843,531.97
-99.12396247,35.37826880,545.43
-99.12386151,35.37826890,531.34
-99.12379567,35.37826897,531.67
-99.12365266,35.37826912,531.86
-99.12316273,35.37826962,538.58
-99.12312816,35.37826965,530.68
-99.12311572,35.37826967,535.51
-99.12301047,35.37826977,535.86
-99.12290500,35.37826988,530.13
-99.12289949,35.37826989,530.21
-99.12288958,35.37826990,530.14
-99.12283597,35.37826995,531.03
-99.12281505,35.37826997,534.10
-99.12281208,35.37826997,535.20
-99.12275527,35.37827003,538.89
-99.12274690,35.37827004,532.37
-99.12266301,35.37827013,533.60
-99.12265794,35.37827013,533.71
-99.12264792,35.37827014,533.72
-99.12263295,35.37827016,533.88
-99.12262690,35.37827016,534.24
-99.12258462,35.37827021,529.95
-99.12253981,35.37827025,529.96
-99.12252605,35.37827026,536.17
-99.12249566,35.37827030,530.02
-99.12222791,35.37827057,529.87
-99.12188727,35.37827091,529.85
-99.12167787,35.37827112,529.97
-99.12160080,35.37827120,529.83
-99.12145394,35.37827135,529.62
-99.12144931,35.37827135,529.59
-99.12144436,35.37827136,529.60
-99.12143918,35.37827136,529.58
-99.12122141,35.37827167,529.29
-99.12113983,35.37827202,529.13
-99.12110823,35.37827278,529.09
-99.12110604,35.37827711,529.00
-99.12110599,35.37831786,528.61
-99.12110609,35.37845636,529.21
-99.12110619,35.37852282,528.54
-99.12110622,35.37854220,528.45
-99.12110628,35.37858287,528.42
-99.12110637,35.37864355,528.30
-99.12110643,35.37868683,528.27
-99.12110643,35.37868873,528.28
-99.12110649,35.37872263,528.26
-99.12110690,35.37900296,529.24
-99.12110702,35.37908159,529.29
-99.12110702,35.37908303,529.39
-99.12110708,35.37912325,529.33
-99.12110745,35.37936652,529.49
-99.12110750,35.37939998,529.53
-99.12110758,35.37945381,529.66
-99.12110799,35.37972918,530.10
-99.12110811,35.37981060,529.56
-99.12110830,35.37993612,529.68
-99.12110830,35.37993837,529.67
-99.12110832,35.37995172,529.69
-99.12110843,35.38002376,529.73
-99.12110847,35.38004874,529.83
-99.12110871,35.38021402,530.40
-99.12110872,35.38021645,530.36
-99.12110875,35.38023764,530.52
-99.12110877,35.38025459,530.42
-99.12110878,35.38025658,530.42
-99.12110881,35.38028002,530.43
-99.12110882,35.38028444,530.42
-99.12110885,35.38030401,530.34
-99.12110898,35.38039300,530.55
-99.12110900,35.38040716,530.59
-99.12110908,35.38045747,530.82
-99.12110909,35.38046243,530.78
-99.12110912,35.38048407,530.84
-99.12110940,35.38067090,530.90
-99.12110962,35.38082202,530.97
-99.12110994,35.38103500,531.22
-99.12111005,35.38110605,531.11
-99.12111044,35.38137151,531.22
-99.12111065,35.38150712,531.44
-99.12111082,35.38162506,531.14
-99.12111086,35.38165257,531.17
-99.12111106,35.38178250,531.26
-99.12111110,35.38181216,531.61
-99.12111118,35.38186383,532.45
-99.12111180,35.38228095,532.40
-99.12111195,35.38237734,532.42
-99.12111204,35.38243811,532.40
-99.12111228,35.38259943,532.56
-99.12111254,35.38277327,531.47
-99.12111255,35.38277859,531.52
-99.12111255,35.38278355,531.42
-99.12111281,35.38295739,531.44
-99.12111287,35.38299184,531.44
-99.12111287,35.38299725,531.40
-99.12111319,35.38321104,531.25
-99.12111333,35.38330022,531.11
-99.12111390,35.38368523,530.73
     </coordinates>
    </LineString>
   </MultiGeometry>
  </Placemark>
 </Document>
</kml>
