<kml>
 <Document>
  <Style id="yellow">
   <LineStyle>
   <color>ff00ffff</color>
   <width>1</width>
   </LineStyle>
  </Style>
  <Style id="red">
   <LineStyle>
   <color>ffff0000</color>
   <width>2</width>
   </LineStyle>
  </Style>
  <Style id="green">
   <LineStyle>
   <color>ff00ff00</color>
   <width>1</width>
   </LineStyle>
  </Style>
  <Placemark>
  <styleUrl>#yellow</styleUrl>
   <MultiGeometry>
    <LineString>
     <coordinates>
-97.62898096,33.36868456,352.09
-97.62929744,33.36868805,354.00
-97.62971657,33.36869268,355.16
-97.62972076,33.36869273,355.17
-97.63020791,33.36869738,351.97
-97.63045250,33.36870080,345.84
-97.63045723,33.36870086,345.84
-97.63053471,33.36870171,343.27
-97.63056222,33.36870201,342.36
-97.63056652,33.36870206,342.16
-97.63057114,33.36870211,341.88
-97.63057555,33.36870216,341.71
-97.63058006,33.36870221,341.63
-97.63058490,33.36870227,341.37
-97.63061939,33.36870265,339.92
-97.63066797,33.36870318,338.61
-97.63067259,33.36870323,338.55
-97.63067743,33.36870329,338.50
-97.63077468,33.36870436,337.63
-97.63112126,33.36870818,334.19
-97.63125968,33.36870971,333.25
-97.63126430,33.36870976,333.22
-97.63127462,33.36870987,333.15
-97.63142948,33.36871158,335.24
-97.63150804,33.36871245,339.09
-97.63151728,33.36871255,338.99
-97.63153748,33.36871277,341.07
-97.63162066,33.36871369,335.47
-97.63164044,33.36871391,334.86
-97.63169804,33.36871454,341.15
-97.63170449,33.36871461,340.01
-97.63171394,33.36871472,338.31
-97.63174296,33.36871504,332.85
-97.63174575,33.36871507,332.17
-97.63201883,33.36871808,333.39
-97.63202560,33.36871815,332.24
-97.63210587,33.36871904,332.86
-97.63211146,33.36871910,332.66
-97.63211641,33.36871915,332.47
-97.63219056,33.36871997,330.59
-97.63221442,33.36872023,329.18
-97.63232382,33.36872144,331.99
-97.63244622,33.36872279,337.81
-97.63245202,33.36872285,337.56
-97.63256282,33.36872407,337.82
-97.63256959,33.36872415,336.53
-97.63261881,33.36872469,327.32
-97.63273079,33.36872592,333.59
-97.63277013,33.36872635,326.05
-97.63277743,33.36872643,324.68
-97.63286018,33.36872735,324.61
-97.63286599,33.36872741,324.42
-97.63293197,33.36872814,335.07
-97.63294852,33.36872832,334.59
-97.63297614,33.36872862,334.80
-97.63298356,33.36872871,333.43
-97.63298732,33.36872875,332.73
-97.63302429,33.36872915,325.88
-97.63319043,33.36873098,322.18
-97.63346103,33.36873396,321.17
-97.63395302,33.36873929,318.43
-97.63435258,33.36874378,330.90
-97.63447681,33.36874514,325.54
-97.63472227,33.36874775,320.79
-97.63475183,33.36874763,316.96
-97.63476957,33.36874701,316.91
-97.63482474,33.36874500,316.74
-97.63482905,33.36874478,316.75
-97.63483148,33.36874002,316.75
-97.63483215,33.36870405,316.73
-97.63483777,33.36835111,315.41
-97.63483812,33.36832893,315.33
-97.63484220,33.36806066,314.55
-97.63484593,33.36782874,314.02
-97.63484673,33.36777770,314.11
-97.63484919,33.36762035,310.35
-97.63485088,33.36751223,313.26
-97.63485302,33.36737535,315.86
-97.63485846,33.36702665,321.39
-97.63485858,33.36701908,308.08
-97.63486388,33.36667976,326.60
-97.63486435,33.36664964,326.33
-97.63486633,33.36652295,322.36
-97.63486699,33.36648111,320.28
-97.63486829,33.36639761,322.47
-97.63486836,33.36639292,320.22
-97.63486890,33.36635820,315.07
-97.63486957,33.36631573,314.54
-97.63486969,33.36630816,313.35
-97.63487055,33.36625306,307.90
-97.63487154,33.36618967,320.35
-97.63487185,33.36616983,312.52
-97.63487232,33.36613962,314.55
-97.63487325,33.36608020,314.84
-97.63487400,33.36603169,317.52
-97.63487403,33.36603006,311.37
-97.63487471,33.36598669,316.92
-97.63487495,33.36597091,317.48
-97.63487498,33.36596938,312.08
-97.63487522,33.36595387,312.21
-97.63487569,33.36592366,318.86
-97.63487676,33.36585540,317.11
-97.63487744,33.36581149,317.49
-97.63488234,33.36549795,320.44
-97.63488264,33.36547875,316.15
-97.63488422,33.36537766,318.65
-97.63489108,33.36493816,324.47
-97.63489154,33.36490895,321.31
-97.63489158,33.36490624,321.74
-97.63489165,33.36490200,322.76
-97.63489206,33.36487549,320.43
-97.63489308,33.36481039,320.77
-97.63489704,33.36455691,317.64
-97.63490002,33.36436584,322.99
-97.63490092,33.36430821,321.78
-97.63490403,33.36410920,320.29
-97.63490708,33.36391389,313.71
-97.63490796,33.36385798,315.61
-97.63491053,33.36369342,313.04
-97.63491268,33.36355554,315.09
-97.63491351,33.36350261,316.67
-97.63491539,33.36338178,316.40
-97.63491619,33.36333065,314.39
-97.63491747,33.36324895,312.73
-97.63491831,33.36319485,312.66
-97.63491834,33.36319278,315.71
-97.63491865,33.36317348,316.86
-97.63491996,33.36308917,322.06
-97.63492007,33.36308232,323.28
-97.63492022,33.36307276,319.97
-97.63492055,33.36305184,323.49
-97.63492156,33.36298664,324.76
-97.63492216,33.36294823,322.09
-97.63492497,33.36276878,323.89
-97.63492503,33.36276473,323.17
-97.63492532,33.36274615,313.67
-97.63492534,33.36274480,320.08
-97.63492544,33.36273849,313.74
-97.63492580,33.36271513,321.43
-97.63492725,33.36262261,325.82
-97.63492769,33.36259412,323.39
-97.63492828,33.36255661,322.86
-97.63492854,33.36253993,322.84
-97.63492873,33.36252748,322.33
-97.63492926,33.36249394,320.37
-97.63492982,33.36245787,319.06
-97.63493028,33.36242874,320.32
-97.63493170,33.36233776,317.01
-97.63493217,33.36230764,315.45
-97.63493228,33.36230061,315.47
-97.63493259,33.36228077,320.87
-97.63493295,33.36225768,315.69
-97.63493317,33.36224362,323.05
-97.63493341,33.36222829,323.19
-97.63493357,33.36221783,319.98
-97.63493404,33.36218762,322.18
-97.63493414,33.36218113,324.47
-97.63493592,33.36206724,321.40
-97.63493602,33.36206129,324.24
-97.63493672,33.36201584,319.47
-97.63493731,33.36197851,316.91
-97.63493742,33.36197148,319.89
-97.63493846,33.36190475,317.38
-97.63493872,33.36188798,317.46
-97.63493959,33.36183243,317.62
-97.63494171,33.36169672,324.74
-97.63494175,33.36169392,324.72
-97.63494272,33.36163189,321.08
-97.63494318,33.36160240,325.13
-97.63494556,33.36145001,319.29
-97.63494589,33.36142873,324.70
-97.63494612,33.36141430,326.29
-97.63494626,33.36140501,323.77
-97.63494668,33.36137859,321.41
-97.63494752,33.36132485,326.53
-97.63494828,33.36127579,326.70
-97.63494891,33.36123558,319.55
-97.63494893,33.36123413,319.60
-97.63494919,33.36121763,323.68
-97.63494967,33.36118715,319.69
-97.63494972,33.36118382,323.62
-97.63495045,33.36113720,319.52
-97.63495059,33.36112782,319.53
-97.63495167,33.36105893,322.48
-97.63495182,33.36104946,319.48
-97.63495190,33.36104378,319.83
-97.63495236,33.36101483,319.44
-97.63495241,33.36101168,319.48
-97.63495458,33.36087254,325.12
-97.63495523,33.36083079,322.11
-97.63495656,33.36074576,325.98
-97.63495665,33.36073971,324.69
-97.63495671,33.36073584,324.42
-97.63496115,33.36045152,317.97
-97.63496117,33.36045062,317.97
-97.63496134,33.36043962,317.97
-97.63496164,33.36042050,317.86
-97.63496182,33.36040878,317.82
-97.63496250,33.36036523,319.43
-97.63496424,33.36025413,317.26
-97.63496641,33.36011500,316.64
-97.63496721,33.36006369,316.63
-97.63496759,33.36003961,317.27
-97.63496980,33.35989795,316.27
-97.63496992,33.35988984,316.18
-97.63497199,33.35973663,315.61
-97.63496817,33.35973388,315.57
-97.63495616,33.35973194,315.44
-97.63490835,33.35973115,314.96
-97.63488847,33.35973093,314.68
-97.63483023,33.35973029,314.23
-97.63457384,33.35972747,315.76
-97.63453247,33.35972701,315.72
-97.63450496,33.35972671,315.44
-97.63429305,33.35972438,312.84
-97.63427006,33.35972413,312.79
-97.63423900,33.35972379,312.61
-97.63410157,33.35972227,312.44
-97.63388483,33.35971998,311.55
-97.63354344,33.35971613,311.60
-97.63349734,33.35971562,312.94
-97.63341998,33.35971477,310.07
-97.63338591,33.35971440,309.70
-97.63338494,33.35971439,317.09
-97.63315413,33.35971185,310.33
-97.63299929,33.35971014,308.51
-97.63299305,33.35971007,308.90
-97.63296415,33.35970975,310.29
-97.63285444,33.35970855,307.91
-97.63281360,33.35970810,309.50
-97.63247490,33.35970437,308.03
-97.63233027,33.35970277,307.97
-97.63229932,33.35970243,307.48
-97.63208108,33.35970003,306.89
-97.63201843,33.35969934,307.65
-97.63190560,33.35969809,309.96
-97.63190034,33.35969803,310.09
-97.63186402,33.35969763,310.94
-97.63159387,33.35969466,310.08
-97.63159140,33.35969463,310.19
-97.63158656,33.35969458,310.40
-97.63145214,33.35969309,310.96
-97.63137380,33.35969223,311.18
-97.63133985,33.35969186,311.32
-97.63115040,33.35968977,311.90
-97.63099717,33.35968808,312.74
-97.63090175,33.35968703,313.03
-97.63089734,33.35968698,313.07
-97.63083781,33.35968632,313.33
-97.63075787,33.35968544,313.75
-97.63056015,33.35968326,314.53
-97.63036103,33.35968106,315.10
-97.63016643,33.35967891,316.02
-97.63016202,33.35967887,316.01
-97.62992337,33.35967623,317.12
-97.62944411,33.35967094,320.08
-97.62943971,33.35967089,320.13
-97.62938652,33.35967031,322.41
-97.62924199,33.35966871,321.06
-97.62918955,33.35966813,323.25
-97.62912819,33.35966745,325.70
-97.62908553,33.35966698,322.14
-97.62908048,33.35966693,327.70
-97.62907178,33.35966683,328.12
-97.62905437,33.35966664,328.91
-97.62888577,33.35966478,330.27
-97.62886600,33.35966456,322.79
-97.62886160,33.35966451,322.80
-97.62865947,33.35966228,323.31
-97.62865496,33.35966223,323.38
-97.62857770,33.35966137,326.67
-97.62853902,33.35966095,328.12
-97.62850925,33.35966062,329.43
-97.62838331,33.35965923,323.40
-97.62824534,33.35965770,322.73
-97.62807943,33.35965587,321.35
-97.62807491,33.35965582,321.33
-97.62806621,33.35965572,321.72
-97.62804579,33.35965550,327.22
-97.62804107,33.35965544,327.26
-97.62803129,33.35965534,327.28
-97.62802677,33.35965529,327.15
-97.62801109,33.35965511,324.00
-97.62799346,33.35965492,324.61
-97.62793501,33.35965427,320.17
-97.62777425,33.35965249,318.83
-97.62759878,33.35965055,317.43
-97.62743706,33.35964877,316.31
-97.62743255,33.35964872,316.30
-97.62742803,33.35964867,316.26
-97.62742341,33.35964862,316.18
-97.62742320,33.35964861,316.21
-97.62741879,33.35964857,316.18
-97.62741385,33.35964851,316.14
-97.62740944,33.35964846,316.11
-97.62740493,33.35964841,316.08
-97.62718475,33.35964598,315.24
-97.62702121,33.35964417,321.66
-97.62696662,33.35964356,316.31
-97.62696071,33.35964350,323.91
-97.62695673,33.35964346,324.07
-97.62694814,33.35964336,324.45
-97.62694405,33.35964332,324.64
-97.62693932,33.35964326,324.66
-97.62685401,33.35964232,314.16
-97.62669078,33.35964051,312.91
-97.62668616,33.35964046,313.02
-97.62668132,33.35964041,313.13
-97.62633596,33.35963659,318.38
-97.62612223,33.35963422,315.78
-97.62611804,33.35963418,315.91
-97.62611299,33.35963412,316.00
-97.62608183,33.35963378,316.74
-97.62607732,33.35963373,316.77
-97.62607248,33.35963367,316.84
-97.62606818,33.35963362,316.88
-97.62602251,33.35963330,317.06
-97.62599984,33.35963314,317.23
-97.62588614,33.35963233,317.75
-97.62581823,33.35963185,318.00
-97.62579587,33.35963169,318.11
-97.62575052,33.35963137,318.31
-97.62572796,33.35963121,318.42
-97.62568282,33.35963089,318.61
-97.62566036,33.35963073,318.74
-97.62561512,33.35963041,318.94
-97.62559256,33.35963025,319.06
-97.62557063,33.35963010,319.23
-97.62505482,33.35962601,319.15
-97.62500109,33.35962551,318.73
-97.62494769,33.35962501,318.24
-97.62484001,33.35962399,317.35
-97.62478596,33.35962349,316.83
-97.62470075,33.35962272,316.40
-97.62461059,33.35962190,315.77
-97.62456578,33.35962150,315.51
-97.62422750,33.35961865,314.58
-97.62422706,33.35963253,314.58
-97.62422629,33.35966130,314.71
-97.62422263,33.35988664,316.58
-97.62422007,33.36004949,317.65
-97.62421841,33.36015499,318.48
-97.62421833,33.36016013,318.57
-97.62421652,33.36027483,319.38
-97.62421464,33.36039485,320.04
-97.62421302,33.36049755,320.82
-97.62420637,33.36092678,328.98
-97.62420475,33.36102290,326.77
-97.62420441,33.36104445,322.72
-97.62420386,33.36107953,329.50
-97.62420355,33.36109900,331.91
-97.62420279,33.36114725,329.41
-97.62420250,33.36116618,331.58
-97.62420142,33.36123435,323.08
-97.62419878,33.36140207,323.22
-97.62419588,33.36158675,323.49
-97.62419311,33.36176267,323.77
-97.62418941,33.36199766,323.98
-97.62418577,33.36222868,324.15
-97.62417872,33.36267693,324.34
-97.62417688,33.36279362,324.53
-97.62417502,33.36291192,324.74
-97.62416889,33.36330129,323.98
-97.62416487,33.36356351,324.80
-97.62416171,33.36375720,325.15
-97.62415720,33.36405729,325.52
-97.62415215,33.36436469,328.13
-97.62415160,33.36439941,326.05
-97.62415116,33.36442763,332.62
-97.62415063,33.36446135,326.15
-97.62414491,33.36483178,326.66
-97.62414348,33.36492250,326.77
-97.62414303,33.36495072,326.83
-97.62414245,33.36498778,326.80
-97.62413910,33.36520077,327.10
-97.62413592,33.36540285,327.03
-97.62413426,33.36550817,326.89
-97.62413365,33.36554649,326.88
-97.62413352,33.36555515,326.88
-97.62413168,33.36567165,326.86
-97.62412604,33.36602350,326.60
-97.62412371,33.36617120,326.44
-97.62412261,33.36624109,326.54
-97.62411876,33.36648599,326.12
-97.62411839,33.36650926,326.07
-97.62411589,33.36666778,326.14
-97.62411507,33.36672044,326.21
-97.62410987,33.36705029,326.29
-97.62410819,33.36715697,325.99
-97.62410615,33.36728655,332.69
-97.62410608,33.36729141,325.53
-97.62410599,33.36729673,330.76
-97.62410347,33.36745715,335.25
-97.62410173,33.36756725,330.37
-97.62410100,33.36761387,325.81
-97.62410100,33.36761405,330.61
-97.62409943,33.36771333,318.79
-97.62409875,33.36775697,328.90
-97.62409811,33.36779773,319.06
-97.62409810,33.36779791,323.83
-97.62409737,33.36784435,320.52
-97.62409711,33.36786094,327.36
-97.62409525,33.36797898,334.58
-97.62409482,33.36800648,334.11
-97.62409364,33.36808123,331.43
-97.62409194,33.36818899,334.94
-97.62409087,33.36825752,334.55
-97.62409066,33.36827033,328.04
-97.62409019,33.36830062,330.73
-97.62408906,33.36837231,334.76
-97.62408708,33.36849792,334.21
-97.62408695,33.36850640,336.54
-97.62408666,33.36852443,334.43
-97.62408516,33.36861965,330.17
-97.62408544,33.36862940,330.30
-97.62408641,33.36862950,331.32
-97.62411896,33.36863040,332.99
-97.62413540,33.36863085,331.82
-97.62414367,33.36863103,330.66
-97.62414410,33.36863104,331.22
-97.62414614,33.36863106,328.75
-97.62439686,33.36863384,335.36
-97.62440019,33.36863388,333.33
-97.62440116,33.36863389,334.97
-97.62440385,33.36863392,332.14
-97.62466435,33.36863680,338.51
-97.62466811,33.36863685,336.58
-97.62467800,33.36863696,326.52
-97.62488551,33.36863925,336.50
-97.62488573,33.36863926,338.14
-97.62488584,33.36863926,339.19
-97.62489787,33.36863939,329.23
-97.62511667,33.36864182,333.21
-97.62511678,33.36864182,332.07
-97.62532064,33.36864407,332.85
-97.62532097,33.36864408,332.14
-97.62532140,33.36864408,330.64
-97.62532666,33.36864414,328.50
-97.62559436,33.36864711,336.54
-97.62559511,33.36864711,335.35
-97.62559683,33.36864713,332.54
-97.62560597,33.36864723,325.29
-97.62586539,33.36865011,332.32
-97.62586625,33.36865012,331.33
-97.62596781,33.36865124,334.68
-97.62598113,33.36865139,334.36
-97.62601208,33.36865173,333.41
-97.62601627,33.36865178,333.17
-97.62604604,33.36865211,332.07
-97.62605066,33.36865216,331.94
-97.62608978,33.36865259,336.02
-97.62609107,33.36865261,334.81
-97.62609666,33.36865267,329.85
-97.62611224,33.36865284,330.06
-97.62627796,33.36865467,338.64
-97.62631170,33.36865505,337.52
-97.62631589,33.36865509,337.35
-97.62632492,33.36865519,337.03
-97.62633631,33.36865532,335.87
-97.62635082,33.36865548,336.18
-97.62656027,33.36865780,334.32
-97.62676070,33.36866001,336.72
-97.62683388,33.36866082,338.87
-97.62701399,33.36866282,340.01
-97.62701840,33.36866287,340.05
-97.62710921,33.36866387,340.21
-97.62728352,33.36866580,342.58
-97.62751071,33.36866831,342.20
-97.62752983,33.36866852,342.26
-97.62778818,33.36867138,343.85
-97.62785127,33.36867208,344.17
-97.62802031,33.36867394,345.14
-97.62823073,33.36867627,346.55
-97.62828124,33.36867683,346.91
-97.62859558,33.36868030,349.12
-97.62897633,33.36868451,352.05
-97.62898096,33.36868456,352.09
     </coordinates>
    </LineString>
   </MultiGeometry>
  </Placemark>
 </Document>
</kml>
