<kml>
 <Document>
  <Style id="yellow">
   <LineStyle>
   <color>ff00ffff</color>
   <width>1</width>
   </LineStyle>
  </Style>
  <Style id="red">
   <LineStyle>
   <color>ffff0000</color>
   <width>2</width>
   </LineStyle>
  </Style>
  <Style id="green">
   <LineStyle>
   <color>ff00ff00</color>
   <width>1</width>
   </LineStyle>
  </Style>
  <Placemark>
  <styleUrl>#yellow</styleUrl>
   <MultiGeometry>
    <LineString>
     <coordinates>
-97.57537197,33.35906210,304.99
-97.57556420,33.35906431,310.08
-97.57573806,33.35906630,304.47
-97.57574225,33.35906635,304.42
-97.57605579,33.35906995,305.11
-97.57624749,33.35907214,309.77
-97.57629778,33.35907272,308.20
-97.57629917,33.35907274,305.05
-97.57631981,33.35907297,309.62
-97.57632539,33.35907304,311.29
-97.57632872,33.35907308,312.25
-97.57649388,33.35907497,311.85
-97.57653095,33.35907539,310.64
-97.57659918,33.35907618,304.98
-97.57660079,33.35907620,308.42
-97.57660950,33.35907630,308.30
-97.57661154,33.35907632,308.97
-97.57661218,33.35907633,307.57
-97.57661616,33.35907637,308.81
-97.57661820,33.35907640,309.47
-97.57669933,33.35907733,305.13
-97.57670363,33.35907737,305.13
-97.57675606,33.35907798,315.12
-97.57679356,33.35907841,313.94
-97.57679829,33.35907846,313.79
-97.57684557,33.35907900,312.22
-97.57687813,33.35907938,311.26
-97.57694303,33.35908012,305.21
-97.57706939,33.35908157,305.00
-97.57707412,33.35908162,304.97
-97.57727033,33.35908387,305.11
-97.57735049,33.35908479,305.37
-97.57755605,33.35908714,306.08
-97.57763459,33.35908804,306.25
-97.57763911,33.35908810,306.26
-97.57788131,33.35909087,309.76
-97.57790935,33.35909119,306.77
-97.57792085,33.35909132,310.59
-97.57792676,33.35909139,311.47
-97.57792987,33.35909143,313.23
-97.57793363,33.35909147,312.70
-97.57796791,33.35909186,306.97
-97.57814650,33.35909391,312.08
-97.57815123,33.35909396,312.03
-97.57827523,33.35909538,313.19
-97.57827780,33.35909541,315.02
-97.57828264,33.35909547,315.51
-97.57843726,33.35909724,314.49
-97.57846929,33.35909761,313.43
-97.57857642,33.35909883,317.49
-97.57857706,33.35909884,309.94
-97.57861714,33.35909930,312.69
-97.57861843,33.35909931,313.99
-97.57861907,33.35909932,316.05
-97.57862348,33.35909937,314.28
-97.57873985,33.35910070,312.10
-97.57874479,33.35910076,312.00
-97.57891951,33.35910276,308.20
-97.57892381,33.35910281,308.04
-97.57914591,33.35910535,308.26
-97.57950824,33.35910950,308.76
-97.57979955,33.35911283,309.85
-97.57980374,33.35911288,309.71
-97.58012223,33.35911652,310.69
-97.58012556,33.35911656,312.08
-97.58040408,33.35911975,311.34
-97.58041869,33.35911991,315.24
-97.58068184,33.35912292,312.45
-97.58071945,33.35912335,322.57
-97.58083066,33.35912462,323.06
-97.58083529,33.35912468,323.06
-97.58084044,33.35912474,323.04
-97.58100968,33.35912667,313.74
-97.58101398,33.35912672,313.76
-97.58105836,33.35912723,313.79
-97.58106362,33.35912729,313.82
-97.58106835,33.35912734,313.82
-97.58121363,33.35912900,317.74
-97.58124255,33.35912834,314.62
-97.58124517,33.35912593,314.70
-97.58124671,33.35903748,318.27
-97.58124770,33.35897625,317.12
-97.58124802,33.35895678,314.41
-97.58124819,33.35894650,323.73
-97.58124820,33.35894568,320.65
-97.58124841,33.35893270,324.27
-97.58124885,33.35890583,314.06
-97.58124931,33.35887697,313.83
-97.58125058,33.35879898,313.21
-97.58125091,33.35877887,313.00
-97.58125188,33.35871872,312.70
-97.58125225,33.35869591,322.12
-97.58125264,33.35867220,321.60
-97.58125271,33.35866769,320.76
-97.58125368,33.35860799,316.02
-97.58125412,33.35858067,316.93
-97.58125444,33.35856110,314.40
-97.58125454,33.35855488,317.42
-97.58125580,33.35847707,312.58
-97.58125591,33.35847075,312.50
-97.58125784,33.35835137,315.22
-97.58125813,33.35833342,315.63
-97.58125848,33.35831241,317.66
-97.58125903,33.35827797,317.24
-97.58125933,33.35825993,311.59
-97.58125952,33.35824812,316.82
-97.58125996,33.35822089,311.42
-97.58126033,33.35819826,315.23
-97.58126138,33.35813334,317.25
-97.58126155,33.35812315,316.93
-97.58126155,33.35812288,318.35
-97.58126162,33.35811873,318.04
-97.58126337,33.35801106,311.12
-97.58126363,33.35799492,311.08
-97.58126446,33.35794389,310.92
-97.58126482,33.35792170,310.90
-97.58126546,33.35788194,314.09
-97.58126603,33.35784713,317.96
-97.58126628,33.35783144,310.81
-97.58126680,33.35779916,318.49
-97.58126749,33.35775705,321.42
-97.58126812,33.35771783,317.57
-97.58126833,33.35770502,319.38
-97.58126873,33.35768050,317.91
-97.58126888,33.35767148,310.20
-97.58126895,33.35766715,314.11
-97.58126923,33.35764957,309.49
-97.58127137,33.35751765,321.61
-97.58127189,33.35748582,312.28
-97.58127252,33.35744695,319.82
-97.58127382,33.35736670,321.28
-97.58127398,33.35735714,321.19
-97.58127400,33.35735606,319.49
-97.58127406,33.35735236,321.15
-97.58127447,33.35732703,318.00
-97.58127471,33.35731188,320.41
-97.58127619,33.35722054,311.37
-97.58127627,33.35721612,311.38
-97.58127696,33.35717329,320.91
-97.58127713,33.35716292,311.76
-97.58127748,33.35714155,321.11
-97.58127833,33.35708880,319.87
-97.58128065,33.35694578,312.36
-97.58128071,33.35694245,312.39
-97.58128160,33.35688726,314.01
-97.58128198,33.35686391,322.44
-97.58128227,33.35684615,317.34
-97.58128336,33.35677906,321.52
-97.58128342,33.35677500,322.45
-97.58128454,33.35670629,314.61
-97.58128540,33.35665354,322.06
-97.58128600,33.35661603,312.94
-97.58128631,33.35659718,313.03
-97.58128670,33.35657338,319.91
-97.58128748,33.35652514,321.23
-97.58128911,33.35642478,321.49
-97.58128937,33.35640882,312.35
-97.58129032,33.35635003,319.54
-97.58129032,33.35634985,316.97
-97.58129194,33.35625039,320.37
-97.58129216,33.35623641,325.11
-97.58129248,33.35621711,325.04
-97.58129249,33.35621648,323.82
-97.58129281,33.35619655,316.71
-97.58129312,33.35617726,320.26
-97.58129454,33.35608979,323.10
-97.58129461,33.35608573,318.25
-97.58129470,33.35608041,320.99
-97.58129586,33.35600837,314.40
-97.58129882,33.35582595,320.06
-97.58130073,33.35570837,317.92
-97.58130164,33.35565237,329.55
-97.58130319,33.35555697,326.09
-97.58130328,33.35555138,326.30
-97.58130619,33.35537176,321.08
-97.58130792,33.35526572,330.03
-97.58130887,33.35520675,321.96
-97.58130892,33.35520368,329.02
-97.58130912,33.35519124,335.41
-97.58130941,33.35517339,334.59
-97.58130971,33.35515499,333.10
-97.58131123,33.35506130,322.47
-97.58131342,33.35492659,328.25
-97.58131394,33.35489413,334.92
-97.58131419,33.35487871,323.27
-97.58131425,33.35487546,327.24
-97.58131512,33.35482190,336.55
-97.58131536,33.35480675,337.96
-97.58131675,33.35472100,324.20
-97.58131758,33.35466978,324.52
-97.58131795,33.35464742,335.61
-97.58131833,33.35462388,328.30
-97.58131868,33.35460206,333.96
-97.58131893,33.35458700,325.24
-97.58131974,33.35453687,334.66
-97.58132015,33.35451189,333.56
-97.58132043,33.35449449,331.01
-97.58132282,33.35434715,337.41
-97.58132331,33.35431685,329.21
-97.58132381,33.35428637,331.48
-97.58132453,33.35424201,331.28
-97.58132479,33.35422551,326.66
-97.58132517,33.35420252,326.81
-97.58132829,33.35400982,324.26
-97.58132830,33.35400928,321.15
-97.58132984,33.35391460,316.57
-97.58133040,33.35388015,315.17
-97.58133115,33.35383372,313.93
-97.58133217,33.35377069,313.38
-97.58133278,33.35373336,316.27
-97.58133279,33.35373291,320.61
-97.58133331,33.35370089,319.53
-97.58133437,33.35363507,318.10
-97.58133524,33.35358178,310.96
-97.58133572,33.35355211,310.65
-97.58133814,33.35340270,309.85
-97.58133832,33.35339206,310.99
-97.58133869,33.35336889,309.34
-97.58133894,33.35335365,319.94
-97.58133907,33.35334553,314.83
-97.58133967,33.35330892,313.98
-97.58134095,33.35322984,307.82
-97.58134116,33.35321704,307.88
-97.58134177,33.35317908,318.04
-97.58134269,33.35312218,321.69
-97.58134286,33.35311181,317.00
-97.58134328,33.35308638,310.82
-97.58134401,33.35304102,316.97
-97.58134461,33.35300387,311.16
-97.58134627,33.35290162,317.22
-97.58134731,33.35283742,321.34
-97.58134737,33.35283372,317.01
-97.58134794,33.35279864,321.32
-97.58134880,33.35274562,309.49
-97.58134913,33.35272552,304.40
-97.58134925,33.35271794,304.33
-97.58134929,33.35271560,304.30
-97.58135264,33.35250929,302.99
-97.58135334,33.35246600,302.68
-97.58135375,33.35244103,302.51
-97.58135436,33.35240325,302.29
-97.58135568,33.35232182,301.86
-97.58135654,33.35226862,311.64
-97.58135669,33.35225933,310.90
-97.58135710,33.35223408,310.86
-97.58136186,33.35194067,298.83
-97.58136589,33.35169243,306.83
-97.58136647,33.35165699,309.54
-97.58136666,33.35164491,296.93
-97.58136673,33.35164049,306.86
-97.58136852,33.35153012,299.15
-97.58136860,33.35152525,298.71
-97.58136949,33.35147088,305.66
-97.58136974,33.35145492,302.74
-97.58136978,33.35145275,302.89
-97.58137128,33.35135997,294.71
-97.58137388,33.35120000,294.25
-97.58137523,33.35111669,294.19
-97.58138002,33.35082174,292.00
-97.58138055,33.35078855,291.73
-97.58138112,33.35075339,291.14
-97.58138336,33.35061588,289.66
-97.58138554,33.35048116,289.36
-97.58138585,33.35046196,289.37
-97.58138625,33.35043743,289.36
-97.58138787,33.35033770,289.20
-97.58138834,33.35030857,289.21
-97.58138857,33.35029433,289.22
-97.58138881,33.35027981,289.20
-97.58138904,33.35026538,289.20
-97.58138978,33.35018025,289.18
-97.58138998,33.35014770,289.18
-97.58138998,33.35013453,289.16
-97.58138878,33.35011594,289.15
-97.58138804,33.35011503,289.15
-97.58124003,33.35011063,289.17
-97.58123541,33.35011058,289.16
-97.58118319,33.35010998,289.15
-97.58096520,33.35010749,289.23
-97.58082864,33.35010593,289.01
-97.58082412,33.35010588,289.02
-97.58075740,33.35010512,295.41
-97.58066694,33.35010408,288.57
-97.58050255,33.35010220,288.49
-97.58049782,33.35010215,288.55
-97.58043400,33.35010142,295.11
-97.58042906,33.35010136,295.48
-97.58042358,33.35010130,296.21
-97.58041950,33.35010125,296.13
-97.58041456,33.35010120,296.35
-97.58040908,33.35010113,297.30
-97.58039447,33.35010097,298.91
-97.58008686,33.35009745,290.40
-97.58008267,33.35009740,290.41
-97.57967772,33.35009277,290.94
-97.57967332,33.35009272,290.97
-97.57920734,33.35008739,291.05
-97.57920294,33.35008734,291.08
-97.57879423,33.35008266,299.12
-97.57878789,33.35008259,299.47
-97.57875716,33.35008223,289.98
-97.57875244,33.35008218,290.04
-97.57872772,33.35008190,289.88
-97.57848953,33.35007917,289.20
-97.57848544,33.35007912,289.53
-97.57848061,33.35007907,289.34
-97.57845633,33.35007879,291.55
-97.57831880,33.35007722,304.71
-97.57831128,33.35007713,305.47
-97.57826895,33.35007664,300.63
-97.57802957,33.35007390,289.43
-97.57798595,33.35007340,289.58
-97.57769424,33.35007006,290.58
-97.57762129,33.35006923,290.72
-97.57761646,33.35006917,290.75
-97.57761205,33.35006912,290.75
-97.57745873,33.35006736,291.14
-97.57718723,33.35006425,292.24
-97.57711127,33.35006338,292.31
-97.57710676,33.35006333,292.31
-97.57694978,33.35006153,291.69
-97.57666721,33.35005829,293.44
-97.57666238,33.35005824,293.43
-97.57662789,33.35005784,293.69
-97.57645426,33.35005585,303.32
-97.57621037,33.35005305,299.21
-97.57614279,33.35005228,305.12
-97.57613785,33.35005222,305.16
-97.57613162,33.35005215,305.16
-97.57612345,33.35005206,306.62
-97.57612130,33.35005203,307.36
-97.57611625,33.35005198,307.36
-97.57610809,33.35005188,306.56
-97.57609917,33.35005178,307.04
-97.57609885,33.35005178,309.18
-97.57609380,33.35005172,309.16
-97.57608552,33.35005162,307.81
-97.57607618,33.35005152,308.33
-97.57606694,33.35005141,308.86
-97.57577201,33.35004803,298.41
-97.57551426,33.35004507,299.82
-97.57534977,33.35004318,308.75
-97.57517324,33.35004116,302.07
-97.57503851,33.35003961,309.39
-97.57500875,33.35003927,311.10
-97.57495256,33.35003862,313.84
-97.57493988,33.35003848,314.57
-97.57489164,33.35003792,304.08
-97.57455792,33.35003409,306.54
-97.57425752,33.35003064,307.20
-97.57419112,33.35002988,310.93
-97.57417006,33.35002964,312.05
-97.57400063,33.35002769,307.52
-97.57396721,33.35002731,309.24
-97.57393724,33.35002697,313.42
-97.57391833,33.35002675,313.54
-97.57390876,33.35002664,313.39
-97.57390371,33.35002658,313.41
-97.57389329,33.35002646,313.43
-97.57388932,33.35002642,313.29
-97.57388910,33.35002641,313.62
-97.57387621,33.35002627,312.99
-97.57387138,33.35002621,313.00
-97.57384881,33.35002595,312.75
-97.57383001,33.35002573,312.51
-97.57381637,33.35002558,312.25
-97.57371021,33.35002436,311.28
-97.57370484,33.35002430,311.42
-97.57353487,33.35002234,309.51
-97.57352982,33.35002229,309.54
-97.57352488,33.35002223,309.59
-97.57352015,33.35002217,309.57
-97.57351553,33.35002212,309.59
-97.57351112,33.35002207,309.56
-97.57350640,33.35002202,309.56
-97.57350199,33.35002197,309.59
-97.57349716,33.35002191,309.53
-97.57349243,33.35002186,309.51
-97.57348717,33.35002180,309.56
-97.57348276,33.35002175,309.57
-97.57347760,33.35002169,309.58
-97.57347578,33.35002167,309.59
-97.57347298,33.35002163,309.56
-97.57333363,33.35002003,317.37
-97.57332933,33.35001998,317.57
-97.57330892,33.35001975,318.61
-97.57317150,33.35001817,309.14
-97.57290612,33.35001512,307.56
-97.57272423,33.35001303,317.59
-97.57272036,33.35001298,317.85
-97.57251998,33.35001068,314.11
-97.57248044,33.35001022,316.38
-97.57246400,33.35001004,317.27
-97.57245573,33.35000994,317.65
-97.57244370,33.35000980,318.21
-97.57234764,33.35000870,307.85
-97.57225406,33.35000762,312.93
-97.57222645,33.35000730,314.51
-97.57221033,33.35000712,315.52
-97.57216983,33.35000665,317.56
-97.57215403,33.35000647,318.52
-97.57179679,33.35000236,308.15
-97.57150132,33.34999941,317.47
-97.57111207,33.34999457,316.94
-97.57109531,33.34999438,316.84
-97.57109069,33.34999433,316.84
-97.57108166,33.34999422,316.90
-97.57107758,33.34999418,316.72
-97.57107296,33.34999412,316.60
-97.57065070,33.34999026,306.09
-97.57064870,33.34999429,306.08
-97.57064737,33.34999707,306.10
-97.57064514,33.35013314,313.20
-97.57064514,33.35013323,312.43
-97.57063817,33.35056614,307.39
-97.57063618,33.35068120,307.51
-97.57063352,33.35084449,309.94
-97.57063221,33.35092448,314.92
-97.57063184,33.35094729,307.79
-97.57062870,33.35113899,307.46
-97.57062685,33.35125243,307.14
-97.57062633,33.35128417,307.06
-97.57062545,33.35133800,316.92
-97.57062544,33.35133827,315.67
-97.57062544,33.35133845,314.49
-97.57062491,33.35137127,312.29
-97.57062469,33.35138435,314.23
-97.57062193,33.35155360,312.51
-97.57062156,33.35157614,315.62
-97.57061807,33.35178930,305.20
-97.57061271,33.35212384,303.60
-97.57060813,33.35239750,302.80
-97.57060470,33.35260715,302.59
-97.57060130,33.35281508,302.07
-97.57059957,33.35292121,301.97
-97.57059430,33.35324357,302.01
-97.57059275,33.35333816,301.99
-97.57058821,33.35361598,308.21
-97.57058662,33.35371336,301.70
-97.57058392,33.35387864,301.61
-97.57058333,33.35391453,301.63
-97.57057970,33.35413680,301.72
-97.57057846,33.35421245,301.72
-97.57057237,33.35458486,301.94
-97.57057090,33.35467503,302.14
-97.57057048,33.35470082,302.13
-97.57056674,33.35492940,302.53
-97.57056532,33.35501641,303.10
-97.57055967,33.35536186,304.05
-97.57055855,33.35543011,304.30
-97.57055797,33.35546600,304.53
-97.57055366,33.35572939,305.72
-97.57055156,33.35585761,306.36
-97.57055042,33.35592750,306.87
-97.57054881,33.35602578,307.28
-97.57054786,33.35608394,308.24
-97.57054652,33.35616627,308.90
-97.57054583,33.35620847,309.17
-97.57054283,33.35639205,309.99
-97.57053894,33.35662947,320.39
-97.57053258,33.35701847,314.00
-97.57052920,33.35722568,315.22
-97.57052884,33.35724723,315.30
-97.57052325,33.35758961,315.42
-97.57051815,33.35790791,314.90
-97.57051109,33.35833315,314.98
-97.57051065,33.35836020,314.94
-97.57050635,33.35862260,314.95
-97.57050223,33.35887499,317.56
-97.57050165,33.35891024,315.52
-97.57050145,33.35894902,315.67
-97.57050138,33.35899249,315.90
-97.57050232,33.35900098,315.97
-97.57050321,33.35900577,315.98
-97.57102843,33.35901218,313.12
-97.57103262,33.35901223,313.09
-97.57103681,33.35901227,313.04
-97.57106829,33.35901246,312.82
-97.57111214,33.35901269,312.60
-97.57112557,33.35901275,312.53
-97.57121337,33.35901313,312.05
-97.57125807,33.35901338,311.76
-97.57130192,33.35901361,311.37
-97.57183797,33.35902149,308.14
-97.57184238,33.35902154,308.12
-97.57184678,33.35902159,308.09
-97.57186655,33.35902182,308.11
-97.57187117,33.35902188,308.10
-97.57233257,33.35902718,305.01
-97.57253233,33.35902948,303.95
-97.57253695,33.35902953,303.95
-97.57254146,33.35902958,303.92
-97.57273767,33.35903184,303.10
-97.57274250,33.35903190,303.07
-97.57311096,33.35903613,300.86
-97.57311558,33.35903618,300.86
-97.57312030,33.35903624,300.85
-97.57317725,33.35903689,300.66
-97.57330534,33.35903837,316.03
-97.57332694,33.35903861,315.42
-97.57337357,33.35903915,313.94
-97.57354345,33.35904110,308.48
-97.57368969,33.35904278,303.94
-97.57371989,33.35904313,305.47
-97.57376287,33.35904362,299.80
-97.57376792,33.35904368,299.84
-97.57377286,33.35904374,299.83
-97.57380983,33.35904416,300.00
-97.57386248,33.35904477,310.83
-97.57389665,33.35904516,309.72
-97.57392211,33.35904545,308.97
-97.57396080,33.35904590,307.66
-97.57396520,33.35904595,307.56
-97.57416291,33.35904822,301.28
-97.57445411,33.35905156,302.47
-97.57478732,33.35905539,304.02
-97.57479183,33.35905544,304.01
-97.57500513,33.35905780,304.96
-97.57536778,33.35906205,305.05
-97.57537197,33.35906210,304.99
     </coordinates>
    </LineString>
   </MultiGeometry>
  </Placemark>
 </Document>
</kml>
