<kml>
 <Document>
  <Style id="yellow">
   <LineStyle>
   <color>ff00ffff</color>
   <width>1</width>
   </LineStyle>
  </Style>
  <Style id="red">
   <LineStyle>
   <color>ffff0000</color>
   <width>2</width>
   </LineStyle>
  </Style>
  <Style id="green">
   <LineStyle>
   <color>ff00ff00</color>
   <width>1</width>
   </LineStyle>
  </Style>
  <Placemark>
  <styleUrl>#yellow</styleUrl>
   <MultiGeometry>
    <LineString>
     <coordinates>
-97.60691885,33.37745769,310.48
-97.60697281,33.37745829,312.13
-97.60721979,33.37746106,305.23
-97.60722925,33.37746117,305.29
-97.60734156,33.37746243,308.35
-97.60738681,33.37746294,309.83
-97.60739121,33.37746299,309.91
-97.60743130,33.37746344,311.07
-97.60743571,33.37746349,311.08
-97.60766324,33.37746604,306.16
-97.60767710,33.37746620,306.36
-97.60768140,33.37746624,306.58
-97.60768591,33.37746629,306.74
-97.60776663,33.37746720,308.95
-97.60777802,33.37746733,308.79
-97.60781994,33.37746780,310.31
-97.60782929,33.37746790,310.49
-97.60785992,33.37746825,311.46
-97.60786207,33.37746827,312.84
-97.60786852,33.37746834,311.51
-97.60787303,33.37746839,311.81
-97.60791763,33.37746889,312.82
-97.60811765,33.37747114,306.67
-97.60813205,33.37747130,306.69
-97.60813678,33.37747135,306.69
-97.60814161,33.37747140,306.68
-97.60824382,33.37747255,309.44
-97.60825145,33.37747264,313.24
-97.60828004,33.37747296,314.72
-97.60833185,33.37747354,312.12
-97.60835872,33.37747384,312.73
-97.60840332,33.37747434,313.83
-97.60848457,33.37747525,306.42
-97.60848898,33.37747530,306.47
-97.60849392,33.37747536,306.47
-97.60863633,33.37747695,310.21
-97.60864084,33.37747700,310.37
-97.60864536,33.37747705,310.59
-97.60866760,33.37747730,311.23
-97.60868512,33.37747750,311.63
-97.60872973,33.37747800,312.91
-97.60873424,33.37747805,313.01
-97.60875165,33.37747825,313.42
-97.60875606,33.37747829,313.53
-97.60877358,33.37747849,314.17
-97.60877841,33.37747855,314.08
-97.60878250,33.37747859,314.36
-97.60882194,33.37747903,315.50
-97.60883849,33.37747922,314.17
-97.60887546,33.37747963,305.63
-97.60888138,33.37747970,316.30
-97.60890695,33.37747999,308.28
-97.60896865,33.37748068,310.11
-97.60907548,33.37748187,312.93
-97.60908891,33.37748203,313.26
-97.60910772,33.37748224,313.45
-97.60917930,33.37748304,313.10
-97.60942445,33.37748579,307.21
-97.60945143,33.37748609,307.53
-97.60955235,33.37748722,313.73
-97.60956321,33.37748734,310.58
-97.60956439,33.37748735,303.87
-97.60973893,33.37748931,303.88
-97.60977709,33.37748974,303.90
-97.60978149,33.37748979,304.01
-97.60978622,33.37748984,304.13
-97.60991369,33.37749127,303.84
-97.61012800,33.37749367,304.02
-97.61028201,33.37749539,304.26
-97.61028674,33.37749544,304.26
-97.61029168,33.37749550,304.25
-97.61046289,33.37749742,304.02
-97.61067709,33.37749981,305.71
-97.61068172,33.37749987,305.97
-97.61069601,33.37750003,306.62
-97.61070504,33.37750013,307.14
-97.61080478,33.37750124,302.80
-97.61083337,33.37750156,304.33
-97.61084282,33.37750167,304.68
-97.61085228,33.37750178,305.18
-97.61102113,33.37750367,303.43
-97.61107229,33.37750424,306.14
-97.61109518,33.37750449,307.19
-97.61116977,33.37750533,304.21
-97.61158721,33.37751000,306.73
-97.61178851,33.37751225,306.92
-97.61188137,33.37751329,311.87
-97.61196445,33.37751422,316.23
-97.61200228,33.37751464,308.92
-97.61242176,33.37751933,313.03
-97.61245616,33.37751972,314.93
-97.61246852,33.37751986,315.57
-97.61250893,33.37752031,309.31
-97.61257492,33.37752105,306.78
-97.61257997,33.37752110,306.79
-97.61258105,33.37752111,317.57
-97.61262898,33.37752165,306.69
-97.61269336,33.37752237,310.07
-97.61278310,33.37752337,314.78
-97.61293411,33.37752506,305.60
-97.61297720,33.37752554,305.35
-97.61301493,33.37752596,307.49
-97.61301944,33.37752601,307.65
-97.61304513,33.37752630,309.00
-97.61315228,33.37752750,304.42
-97.61319465,33.37752662,304.14
-97.61319524,33.37752329,308.21
-97.61319542,33.37751202,306.38
-97.61319625,33.37746008,313.20
-97.61319713,33.37740417,304.57
-97.61319730,33.37739344,310.48
-97.61319753,33.37737919,309.72
-97.61319766,33.37737099,308.89
-97.61319875,33.37730210,306.15
-97.61319897,33.37728875,307.93
-97.61319911,33.37727964,308.20
-97.61319914,33.37727757,308.88
-97.61320048,33.37719353,308.15
-97.61320187,33.37710588,304.75
-97.61320355,33.37700020,311.82
-97.61320393,33.37697595,309.25
-97.61320400,33.37697144,311.71
-97.61320414,33.37696251,304.70
-97.61320426,33.37695512,312.41
-97.61320442,33.37694538,310.23
-97.61320448,33.37694105,304.39
-97.61320467,33.37692924,314.88
-97.61320529,33.37689028,313.76
-97.61320567,33.37686648,311.61
-97.61320574,33.37686170,312.95
-97.61320659,33.37680832,305.84
-97.61320680,33.37679533,304.23
-97.61320793,33.37672401,304.13
-97.61320909,33.37665106,305.69
-97.61320934,33.37663537,314.65
-97.61320981,33.37660588,311.89
-97.61321034,33.37657207,313.93
-97.61321176,33.37648298,314.15
-97.61321176,33.37648289,312.29
-97.61321215,33.37645818,315.63
-97.61321237,33.37644411,315.17
-97.61321242,33.37644087,315.18
-97.61321268,33.37642482,313.19
-97.61321273,33.37642184,316.09
-97.61321302,33.37640308,314.89
-97.61321448,33.37631156,304.22
-97.61321518,33.37626711,310.53
-97.61321527,33.37626170,310.57
-97.61321669,33.37617233,304.88
-97.61321738,33.37612887,304.83
-97.61321934,33.37600525,305.38
-97.61322225,33.37582220,305.95
-97.61322239,33.37581336,305.98
-97.61322352,33.37574158,306.07
-97.61322355,33.37573996,306.08
-97.61322525,33.37563302,306.18
-97.61322783,33.37547062,306.54
-97.61322835,33.37543752,306.46
-97.61322959,33.37535926,306.68
-97.61323016,33.37532373,306.63
-97.61323019,33.37532183,306.65
-97.61323293,33.37514925,306.54
-97.61323375,33.37509767,311.71
-97.61323514,33.37500975,310.00
-97.61323578,33.37496944,310.81
-97.61323606,33.37495186,312.09
-97.61323647,33.37492607,314.58
-97.61323702,33.37489108,314.23
-97.61323791,33.37483518,307.08
-97.61323820,33.37481714,307.00
-97.61323842,33.37480308,311.90
-97.61324058,33.37466710,311.22
-97.61324113,33.37463265,313.76
-97.61324121,33.37462715,312.75
-97.61324199,33.37457819,316.99
-97.61324285,33.37452426,313.20
-97.61324308,33.37450930,311.93
-97.61324381,33.37446349,313.20
-97.61324831,33.37418017,309.89
-97.61324939,33.37411191,307.92
-97.61325034,33.37405230,310.58
-97.61325156,33.37397521,308.91
-97.61325190,33.37395375,309.05
-97.61325197,33.37394924,309.06
-97.61325474,33.37377476,310.17
-97.61325536,33.37373598,310.46
-97.61325622,33.37368143,310.90
-97.61325776,33.37358476,311.15
-97.61325886,33.37351542,311.63
-97.61325921,33.37349342,311.73
-97.61326062,33.37340424,312.06
-97.61326283,33.37326528,311.98
-97.61326315,33.37324500,311.96
-97.61326437,33.37316835,312.23
-97.61326447,33.37316177,312.25
-97.61326455,33.37315672,312.22
-97.61327016,33.37280333,323.79
-97.61327136,33.37272786,322.17
-97.61327151,33.37271812,320.86
-97.61327160,33.37271262,319.99
-97.61327202,33.37268611,316.49
-97.61327366,33.37258295,317.23
-97.61327400,33.37256140,320.56
-97.61327416,33.37255157,320.23
-97.61327534,33.37247682,314.72
-97.61327562,33.37245924,314.75
-97.61327694,33.37237619,318.08
-97.61327727,33.37235527,321.36
-97.61327754,33.37233841,315.18
-97.61327754,33.37233823,316.28
-97.61328045,33.37215500,315.43
-97.61328091,33.37212632,318.62
-97.61328148,33.37209035,319.43
-97.61328294,33.37199792,316.56
-97.61328318,33.37198295,317.97
-97.61328322,33.37198070,319.52
-97.61328398,33.37193245,321.33
-97.61328585,33.37181469,317.17
-97.61328641,33.37177979,317.12
-97.61328652,33.37177258,320.77
-97.61328676,33.37175716,322.11
-97.61328726,33.37172605,322.00
-97.61329083,33.37150071,317.63
-97.61329111,33.37148367,326.44
-97.61329174,33.37144354,322.32
-97.61329238,33.37140360,322.05
-97.61329243,33.37140044,316.14
-97.61329279,33.37137736,323.03
-97.61329329,33.37134616,316.25
-97.61329345,33.37133579,316.23
-97.61329442,33.37127483,320.18
-97.61329448,33.37127077,316.32
-97.61329464,33.37126094,322.61
-97.61329490,33.37124453,321.93
-97.61329537,33.37121514,321.69
-97.61329649,33.37114417,323.27
-97.61329689,33.37111901,318.40
-97.61329700,33.37111243,322.71
-97.61329708,33.37110702,320.83
-97.61329852,33.37101658,319.37
-97.61330125,33.37084417,328.86
-97.61330148,33.37083019,328.08
-97.61330155,33.37082559,327.87
-97.61330246,33.37076797,318.37
-97.61330269,33.37075382,324.84
-97.61330314,33.37072541,329.10
-97.61330334,33.37071243,322.39
-97.61330362,33.37069494,328.24
-97.61330376,33.37068601,322.04
-97.61330387,33.37067943,330.52
-97.61330471,33.37062640,331.02
-97.61330480,33.37062072,330.00
-97.61330487,33.37061631,331.52
-97.61330584,33.37055526,329.19
-97.61330607,33.37054038,330.61
-97.61330617,33.37053416,330.57
-97.61330668,33.37050197,329.36
-97.61330695,33.37048520,328.36
-97.61330703,33.37048006,328.40
-97.61330705,33.37047870,328.56
-97.61330756,33.37044669,329.99
-97.61330834,33.37039791,330.61
-97.61330846,33.37039033,330.54
-97.61330889,33.37036310,330.96
-97.61330909,33.37035039,324.19
-97.61331026,33.37027663,332.26
-97.61331142,33.37020368,328.07
-97.61331199,33.37016779,320.95
-97.61331203,33.37016527,324.78
-97.61331278,33.37011784,330.71
-97.61331419,33.37002911,321.07
-97.61331523,33.36996364,330.95
-97.61331591,33.36992045,324.47
-97.61331616,33.36990458,331.78
-97.61331618,33.36990377,331.73
-97.61331618,33.36990368,329.94
-97.61331632,33.36989502,322.84
-97.61331675,33.36986797,327.43
-97.61331799,33.36978979,323.48
-97.61331874,33.36974218,322.89
-97.61331975,33.36967888,327.10
-97.61332002,33.36966138,325.65
-97.61332016,33.36965291,323.94
-97.61332018,33.36965147,325.16
-97.61332025,33.36964687,323.14
-97.61332086,33.36960872,321.64
-97.61332088,33.36960746,326.63
-97.61332119,33.36958780,325.43
-97.61332236,33.36951386,321.86
-97.61332289,33.36948068,330.88
-97.61332302,33.36947266,330.55
-97.61332343,33.36944687,322.29
-97.61332387,33.36941918,331.76
-97.61332413,33.36940277,329.64
-97.61332425,33.36939484,324.39
-97.61332557,33.36931188,324.32
-97.61332574,33.36930142,323.53
-97.61332743,33.36919447,329.03
-97.61332774,33.36917500,326.41
-97.61332779,33.36917184,334.73
-97.61332795,33.36916183,334.73
-97.61332837,33.36913541,326.64
-97.61332919,33.36908401,332.36
-97.61332980,33.36904533,332.52
-97.61333051,33.36900070,323.35
-97.61333067,33.36899033,335.28
-97.61333110,33.36896318,335.07
-97.61333120,33.36895723,327.57
-97.61333209,33.36890124,334.26
-97.61333260,33.36886850,336.72
-97.61333267,33.36886472,333.94
-97.61333302,33.36884244,334.76
-97.61333305,33.36884019,330.84
-97.61333308,33.36883830,335.19
-97.61333310,33.36883703,327.30
-97.61333430,33.36876156,323.50
-97.61333477,33.36873225,328.23
-97.61333551,33.36868554,330.69
-97.61333579,33.36866778,335.35
-97.61333624,33.36863929,329.63
-97.61333646,33.36862567,326.61
-97.61333717,33.36858058,328.37
-97.61333784,33.36853189,328.33
-97.61333769,33.36851439,337.09
-97.61333741,33.36851150,332.75
-97.61333408,33.36851120,325.67
-97.61327187,33.36851014,324.87
-97.61326703,33.36851009,324.90
-97.61326241,33.36851003,324.86
-97.61323995,33.36850978,331.36
-97.61321491,33.36850950,332.14
-97.61310970,33.36850833,330.93
-97.61310508,33.36850828,330.90
-97.61301954,33.36850732,330.57
-97.61299718,33.36850707,332.46
-97.61298977,33.36850699,331.65
-97.61298117,33.36850689,330.32
-97.61289488,33.36850593,330.06
-97.61289015,33.36850587,330.06
-97.61266780,33.36850339,329.19
-97.61255614,33.36850214,328.79
-97.61255152,33.36850209,328.79
-97.61254712,33.36850204,328.80
-97.61254293,33.36850199,328.83
-97.61245394,33.36850100,329.28
-97.61236636,33.36850002,335.93
-97.61230887,33.36849938,335.78
-97.61227845,33.36849904,335.63
-97.61224288,33.36849864,335.46
-97.61193994,33.36849525,334.20
-97.61173812,33.36849299,333.35
-97.61172447,33.36849284,333.26
-97.61172017,33.36849279,333.27
-97.61171598,33.36849275,333.31
-97.61171168,33.36849270,333.30
-97.61169395,33.36849259,333.39
-97.61162796,33.36849221,333.71
-97.61112651,33.36848751,333.07
-97.61102108,33.36848624,332.58
-97.61094586,33.36848530,332.14
-97.61083066,33.36848383,331.42
-97.61077306,33.36848310,331.04
-97.61041844,33.36847832,336.69
-97.60996988,33.36847321,331.69
-97.60996536,33.36847315,331.52
-97.60996085,33.36847310,331.41
-97.60992087,33.36847266,330.22
-97.60990142,33.36847244,330.52
-97.60989691,33.36847239,330.33
-97.60988809,33.36847229,329.97
-97.60988380,33.36847224,329.87
-97.60986069,33.36847198,329.49
-97.60985596,33.36847193,329.55
-97.60984747,33.36847183,329.21
-97.60984360,33.36847179,328.94
-97.60983984,33.36847175,328.72
-97.60979396,33.36847123,327.85
-97.60978471,33.36847113,327.75
-97.60977934,33.36847107,328.01
-97.60977149,33.36847098,327.56
-97.60971443,33.36847034,325.74
-97.60970132,33.36847020,325.48
-97.60969605,33.36847014,325.58
-97.60968595,33.36847003,325.35
-97.60968144,33.36846997,325.30
-97.60967703,33.36846993,325.29
-97.60965876,33.36846972,325.14
-97.60965436,33.36846967,325.04
-97.60964974,33.36846962,325.00
-97.60963641,33.36846947,324.79
-97.60963211,33.36846942,324.76
-97.60962749,33.36846937,324.58
-97.60954453,33.36846844,333.10
-97.60942492,33.36846710,332.70
-97.60924137,33.36846504,323.56
-97.60922697,33.36846488,323.50
-97.60913799,33.36846389,331.53
-97.60899699,33.36846231,322.60
-97.60894895,33.36846177,322.37
-97.60894423,33.36846171,322.29
-97.60894057,33.36846167,330.71
-97.60893960,33.36846166,322.29
-97.60893617,33.36846162,330.70
-97.60885643,33.36846073,330.46
-97.60870447,33.36845903,329.88
-97.60846955,33.36845639,328.81
-97.60837057,33.36845528,331.35
-97.60836617,33.36845524,331.33
-97.60836198,33.36845519,331.28
-97.60835822,33.36845515,330.62
-97.60830051,33.36845450,330.08
-97.60829685,33.36845446,329.66
-97.60828417,33.36845432,328.96
-97.60827987,33.36845427,328.93
-97.60826601,33.36845411,329.38
-97.60826107,33.36845406,334.69
-97.60825741,33.36845402,328.94
-97.60825279,33.36845396,328.87
-97.60814415,33.36845275,334.30
-97.60811997,33.36845247,334.21
-97.60807494,33.36845197,324.13
-97.60806075,33.36845181,324.49
-97.60805602,33.36845176,324.47
-97.60800186,33.36845115,333.78
-97.60799520,33.36845108,322.73
-97.60799068,33.36845102,322.69
-97.60798649,33.36845098,322.48
-97.60798187,33.36845093,322.39
-97.60790686,33.36845008,320.84
-97.60783712,33.36844930,318.77
-97.60783239,33.36844925,318.80
-97.60782809,33.36844920,318.79
-97.60782358,33.36844915,318.59
-97.60781917,33.36844910,318.65
-97.60781487,33.36844905,318.58
-97.60781046,33.36844900,318.54
-97.60780606,33.36844895,318.69
-97.60780133,33.36844890,318.70
-97.60779692,33.36844885,318.39
-97.60778822,33.36844875,318.18
-97.60777059,33.36844856,317.69
-97.60776587,33.36844850,317.64
-97.60776157,33.36844846,317.68
-97.60768194,33.36844756,315.93
-97.60766904,33.36844742,315.43
-97.60766442,33.36844737,315.20
-97.60761993,33.36844687,314.39
-97.60760735,33.36844673,313.78
-97.60760263,33.36844667,313.85
-97.60759811,33.36844662,313.65
-97.60759317,33.36844657,313.83
-97.60756652,33.36844627,313.27
-97.60756222,33.36844622,313.11
-97.60754481,33.36844602,312.62
-97.60749076,33.36844542,311.78
-97.60748624,33.36844537,311.90
-97.60748184,33.36844532,311.95
-97.60747754,33.36844527,311.95
-97.60747324,33.36844522,311.83
-97.60746840,33.36844517,311.91
-97.60746378,33.36844511,311.79
-97.60744551,33.36844491,311.48
-97.60694084,33.36844033,329.66
-97.60676396,33.36843798,330.09
-97.60675525,33.36843789,329.92
-97.60622621,33.36843122,326.27
-97.60622137,33.36843117,325.82
-97.60621675,33.36843112,325.97
-97.60621192,33.36843106,325.62
-97.60620762,33.36843102,325.56
-97.60620321,33.36843097,325.99
-97.60619827,33.36843091,325.51
-97.60619408,33.36843086,325.63
-97.60603503,33.36842908,321.61
-97.60603062,33.36842903,321.62
-97.60602632,33.36842898,321.68
-97.60602213,33.36842893,321.69
-97.60601741,33.36842888,321.74
-97.60601289,33.36842883,321.81
-97.60600806,33.36842877,321.84
-97.60577228,33.36842613,321.96
-97.60540622,33.36842418,324.96
-97.60520645,33.36842121,320.60
-97.60519151,33.36842095,320.58
-97.60502400,33.36841772,319.48
-97.60478080,33.36841499,322.22
-97.60432558,33.36840987,316.46
-97.60432300,33.36840984,323.81
-97.60432096,33.36840982,316.40
-97.60431892,33.36840979,324.12
-97.60431279,33.36840972,323.67
-97.60428410,33.36840940,323.32
-97.60427926,33.36840935,323.21
-97.60426873,33.36840923,322.66
-97.60424358,33.36840895,322.26
-97.60423692,33.36840887,321.60
-97.60423133,33.36840881,317.47
-97.60414740,33.36840786,318.08
-97.60402984,33.36840654,319.36
-97.60390442,33.36840513,320.76
-97.60389056,33.36840498,315.19
-97.60388605,33.36840492,315.36
-97.60386875,33.36840473,314.48
-97.60386756,33.36840472,321.14
-97.60383307,33.36840433,313.98
-97.60382845,33.36840428,313.94
-97.60382382,33.36840423,313.94
-97.60381888,33.36840417,313.87
-97.60373860,33.36840327,322.58
-97.60366961,33.36840249,323.37
-97.60361427,33.36840187,323.90
-97.60360545,33.36840177,324.11
-97.60358267,33.36840151,324.30
-97.60336914,33.36839911,315.82
-97.60294573,33.36839434,309.50
-97.60293713,33.36839425,309.48
-97.60266933,33.36839123,312.42
-97.60265159,33.36839112,312.76
-97.60259741,33.36839187,304.06
-97.60259610,33.36839284,318.15
-97.60259555,33.36839374,320.02
-97.60259320,33.36839967,320.31
-97.60259141,33.36842427,316.14
-97.60259044,33.36847792,326.19
-97.60259031,33.36848639,311.06
-97.60258794,33.36863419,327.62
-97.60258700,33.36869316,327.08
-97.60258386,33.36888964,320.38
-97.60258317,33.36893310,324.56
-97.60258273,33.36896034,305.72
-97.60258227,33.36898937,318.81
-97.60258149,33.36903797,324.09
-97.60258034,33.36910975,320.35
-97.60257910,33.36918748,322.58
-97.60257857,33.36922075,324.14
-97.60257560,33.36940623,321.86
-97.60257544,33.36941633,317.63
-97.60257386,33.36951507,316.39
-97.60257275,33.36958414,317.27
-97.60257244,33.36960407,316.61
-97.60257176,33.36964645,306.42
-97.60257130,33.36967531,315.43
-97.60257080,33.36970659,315.86
-97.60257064,33.36971660,314.34
-97.60256902,33.36981751,309.69
-97.60256625,33.36999100,320.33
-97.60256524,33.37005430,305.77
-97.60256485,33.37007864,305.63
-97.60256404,33.37012932,314.13
-97.60256355,33.37015998,305.55
-97.60256158,33.37028279,311.57
-97.60255913,33.37043617,315.88
-97.60255795,33.37050993,312.39
-97.60255574,33.37064808,322.89
-97.60255526,33.37067792,322.32
-97.60255394,33.37076079,320.77
-97.60254963,33.37102986,313.22
-97.60254789,33.37113906,316.84
-97.60254744,33.37116728,319.95
-97.60254719,33.37118297,318.78
-97.60254519,33.37130804,317.02
-97.60254282,33.37145574,312.71
-97.60254084,33.37157982,317.44
-97.60253603,33.37188054,316.46
-97.60253554,33.37191111,318.54
-97.60253427,33.37199028,316.62
-97.60253306,33.37206638,320.23
-97.60253145,33.37216674,313.09
-97.60253023,33.37224330,310.75
-97.60252874,33.37233609,304.50
-97.60252721,33.37243167,311.26
-97.60252631,33.37248802,312.38
-97.60252461,33.37259479,311.46
-97.60252130,33.37280155,304.64
-97.60252121,33.37280705,308.60
-97.60252044,33.37285547,314.13
-97.60251977,33.37289731,306.02
-97.60251881,33.37295746,311.12
-97.60251799,33.37300822,318.58
-97.60251669,33.37308983,304.64
-97.60251209,33.37337702,309.44
-97.60251055,33.37347360,309.63
-97.60250988,33.37351553,306.59
-97.60250492,33.37382536,305.04
-97.60250470,33.37383951,304.69
-97.60250409,33.37387721,306.32
-97.60250385,33.37389272,305.29
-97.60250261,33.37397008,310.31
-97.60250130,33.37405196,305.75
-97.60250064,33.37409308,308.83
-97.60249887,33.37420399,299.86
-97.60249678,33.37433428,301.88
-97.60249630,33.37436458,298.00
-97.60248982,33.37476954,296.50
-97.60248821,33.37486999,301.16
-97.60248768,33.37490318,297.63
-97.60248605,33.37500525,298.31
-97.60248579,33.37502175,295.39
-97.60248499,33.37507144,299.06
-97.60248456,33.37509831,298.11
-97.60248218,33.37524709,301.25
-97.60248164,33.37528117,302.43
-97.60248103,33.37531932,300.98
-97.60247779,33.37552166,307.50
-97.60247737,33.37554763,303.87
-97.60247551,33.37566422,304.54
-97.60247465,33.37571815,303.32
-97.60247454,33.37572500,297.86
-97.60247384,33.37576891,302.46
-97.60247369,33.37577775,302.50
-97.60247364,33.37578118,296.74
-97.60247340,33.37579632,291.79
-97.60247260,33.37584601,309.12
-97.60247174,33.37589984,293.07
-97.60246930,33.37605268,299.89
-97.60246870,33.37608965,303.17
-97.60246818,33.37612265,307.47
-97.60246615,33.37624944,298.78
-97.60246554,33.37628749,301.93
-97.60246495,33.37632419,302.01
-97.60245963,33.37666332,290.22
-97.60245312,33.37706386,290.29
-97.60245286,33.37708036,288.52
-97.60244950,33.37730336,290.04
-97.60244868,33.37736820,290.07
-97.60245092,33.37740303,289.70
-97.60246471,33.37740761,289.89
-97.60265892,33.37740980,288.18
-97.60307421,33.37741420,288.11
-97.60336730,33.37741777,293.53
-97.60338525,33.37741797,297.07
-97.60341792,33.37741834,297.88
-97.60341964,33.37741836,289.13
-97.60342996,33.37741847,289.26
-97.60346360,33.37741885,299.47
-97.60347037,33.37741893,300.99
-97.60350035,33.37741927,303.02
-97.60352561,33.37741955,304.75
-97.60359633,33.37742035,303.45
-97.60361761,33.37742059,303.89
-97.60362395,33.37742066,304.23
-97.60366769,33.37742115,301.69
-97.60367629,33.37742125,302.24
-97.60368897,33.37742139,303.09
-97.60369295,33.37742143,303.50
-97.60369714,33.37742148,303.64
-97.60371509,33.37742168,289.49
-97.60373508,33.37742191,298.37
-97.60377227,33.37742233,299.36
-97.60387448,33.37742348,302.28
-97.60388899,33.37742364,295.56
-97.60390801,33.37742385,303.49
-97.60391005,33.37742388,303.41
-97.60391134,33.37742389,289.68
-97.60391811,33.37742397,303.71
-97.60392252,33.37742402,304.26
-97.60392295,33.37742402,303.79
-97.60393896,33.37742420,304.14
-97.60394993,33.37742432,304.69
-97.60395476,33.37742438,304.68
-97.60398647,33.37742474,298.60
-97.60402333,33.37742515,299.56
-97.60403473,33.37742528,300.17
-97.60405912,33.37742555,300.00
-97.60406396,33.37742561,288.94
-97.60406901,33.37742566,288.87
-97.60410082,33.37742602,303.03
-97.60410523,33.37742607,303.40
-97.60413403,33.37742640,305.36
-97.60430987,33.37742837,304.02
-97.60436898,33.37742904,297.75
-97.60445152,33.37742997,296.83
-97.60448892,33.37743039,299.49
-97.60454008,33.37743096,302.99
-97.60455115,33.37743109,303.80
-97.60455523,33.37743113,304.00
-97.60457082,33.37743131,303.87
-97.60459092,33.37743153,304.52
-97.60463047,33.37743198,295.01
-97.60463702,33.37743205,305.76
-97.60466249,33.37743234,295.06
-97.60467195,33.37743244,298.02
-97.60467227,33.37743245,295.26
-97.60470774,33.37743285,296.16
-97.60472322,33.37743302,296.67
-97.60474987,33.37743332,303.57
-97.60479125,33.37743379,306.40
-97.60479985,33.37743388,299.18
-97.60485445,33.37743450,300.73
-97.60491474,33.37743517,302.45
-97.60495515,33.37743563,303.71
-97.60500330,33.37743617,304.73
-97.60501341,33.37743628,305.15
-97.60505726,33.37743678,306.12
-97.60506263,33.37743684,306.39
-97.60518988,33.37743827,310.04
-97.60521739,33.37743858,294.57
-97.60533551,33.37743990,303.01
-97.60539161,33.37744053,307.11
-97.60541569,33.37744080,308.91
-97.60542020,33.37744085,309.13
-97.60542794,33.37744094,309.75
-97.60543213,33.37744099,309.95
-97.60543450,33.37744101,309.55
-97.60543901,33.37744107,309.69
-97.60544374,33.37744112,309.51
-97.60545363,33.37744123,309.98
-97.60545825,33.37744128,310.14
-97.60551489,33.37744192,299.94
-97.60555089,33.37744232,301.34
-97.60555530,33.37744237,301.45
-97.60560119,33.37744289,302.52
-97.60561044,33.37744299,302.54
-97.60561183,33.37744301,305.55
-97.60563440,33.37744326,303.40
-97.60564902,33.37744343,303.88
-97.60570201,33.37744402,297.06
-97.60570652,33.37744407,297.06
-97.60571136,33.37744413,297.07
-97.60578326,33.37744493,299.36
-97.60579261,33.37744504,299.34
-97.60580174,33.37744514,299.63
-97.60581625,33.37744530,300.01
-97.60582614,33.37744542,300.26
-97.60583141,33.37744548,300.71
-97.60591094,33.37744637,298.00
-97.60596812,33.37744701,304.50
-97.60597758,33.37744712,304.83
-97.60600036,33.37744737,305.20
-97.60600993,33.37744748,305.60
-97.60602884,33.37744769,306.26
-97.60603346,33.37744774,306.19
-97.60604776,33.37744790,306.56
-97.60640340,33.37745190,303.56
-97.60640759,33.37745195,303.45
-97.60651388,33.37745314,306.42
-97.60651829,33.37745319,306.69
-97.60658256,33.37745391,308.46
-97.60658707,33.37745396,308.57
-97.60659062,33.37745400,301.86
-97.60660416,33.37745415,302.05
-97.60667381,33.37745494,310.69
-97.60667832,33.37745499,310.71
-97.60674603,33.37745575,305.78
-97.60683696,33.37745677,308.15
-97.60684115,33.37745681,308.33
-97.60686931,33.37745713,309.07
-97.60691885,33.37745769,310.48
     </coordinates>
    </LineString>
   </MultiGeometry>
  </Placemark>
 </Document>
</kml>
