<kml>
 <Document>
  <Style id="yellow">
   <LineStyle>
   <color>ff00ffff</color>
   <width>1</width>
   </LineStyle>
  </Style>
  <Style id="red">
   <LineStyle>
   <color>ffff0000</color>
   <width>2</width>
   </LineStyle>
  </Style>
  <Style id="green">
   <LineStyle>
   <color>ff00ff00</color>
   <width>1</width>
   </LineStyle>
  </Style>
  <Placemark>
  <styleUrl>#yellow</styleUrl>
   <MultiGeometry>
    <LineString>
     <coordinates>
-97.56346321,33.37696229,285.21
-97.56349083,33.37696261,279.05
-97.56354521,33.37696324,282.50
-97.56361711,33.37696408,281.17
-97.56363399,33.37696427,280.95
-97.56363420,33.37696427,278.36
-97.56372147,33.37696528,277.99
-97.56380702,33.37696627,285.11
-97.56381454,33.37696636,277.53
-97.56384840,33.37696675,285.17
-97.56390041,33.37696735,286.21
-97.56390772,33.37696744,286.19
-97.56406098,33.37696921,275.78
-97.56414019,33.37697013,283.21
-97.56423412,33.37697122,275.06
-97.56429807,33.37697196,285.92
-97.56431021,33.37697210,283.78
-97.56438824,33.37697300,279.22
-97.56440834,33.37697323,279.62
-97.56447669,33.37697402,282.37
-97.56447776,33.37697403,280.29
-97.56449109,33.37697419,281.03
-97.56455514,33.37697493,282.81
-97.56455557,33.37697493,279.19
-97.56455611,33.37697494,277.30
-97.56459770,33.37697542,275.44
-97.56460609,33.37697552,283.15
-97.56467820,33.37697635,284.44
-97.56469852,33.37697659,277.40
-97.56479718,33.37697773,283.72
-97.56479793,33.37697774,286.59
-97.56479965,33.37697776,274.95
-97.56480298,33.37697780,286.66
-97.56481652,33.37697795,286.89
-97.56488520,33.37697875,279.83
-97.56495097,33.37697951,275.51
-97.56520332,33.37698242,276.78
-97.56534099,33.37698402,277.59
-97.56556551,33.37698661,278.84
-97.56596015,33.37699117,279.32
-97.56596456,33.37699122,279.34
-97.56622196,33.37699420,284.14
-97.56638102,33.37699603,279.35
-97.56686261,33.37700160,275.41
-97.56704671,33.37700372,274.79
-97.56705123,33.37700377,274.73
-97.56724554,33.37700602,275.96
-97.56725005,33.37700607,276.01
-97.56744018,33.37700826,276.80
-97.56744448,33.37700831,276.56
-97.56760612,33.37701018,276.78
-97.56761095,33.37701024,276.81
-97.56793875,33.37701402,276.90
-97.56794348,33.37701407,276.96
-97.56794563,33.37701410,277.77
-97.56823086,33.37701739,281.76
-97.56847913,33.37702025,279.36
-97.56848364,33.37702030,279.41
-97.56848848,33.37702036,279.41
-97.56863389,33.37702204,277.71
-97.56886464,33.37702470,278.88
-97.56886668,33.37702472,280.04
-97.56886937,33.37702475,278.95
-97.56903327,33.37702664,286.31
-97.56909334,33.37702734,287.50
-97.56911204,33.37702755,287.94
-97.56930872,33.37702982,281.46
-97.56931345,33.37702987,281.45
-97.56939169,33.37703078,281.52
-97.56949401,33.37703195,283.93
-97.56969036,33.37703422,281.70
-97.56977194,33.37703516,281.64
-97.56977623,33.37703521,281.63
-97.56978967,33.37703527,281.66
-97.57005023,33.37703593,281.89
-97.57009967,33.37703605,281.68
-97.57019760,33.37703628,280.96
-97.57020233,33.37703624,280.96
-97.57020354,33.37702787,280.92
-97.57020511,33.37701057,281.05
-97.57020535,33.37700227,281.17
-97.57020901,33.37679200,281.41
-97.57021199,33.37660995,282.66
-97.57021337,33.37652573,282.74
-97.57021420,33.37647514,290.93
-97.57021516,33.37641653,287.00
-97.57021682,33.37631455,282.99
-97.57021883,33.37619183,283.29
-97.57022043,33.37609453,283.20
-97.57022203,33.37599625,283.29
-97.57022230,33.37598002,283.26
-97.57022420,33.37586379,283.45
-97.57022664,33.37571483,287.11
-97.57022712,33.37568525,288.14
-97.57022821,33.37561862,289.95
-97.57022861,33.37559445,288.17
-97.57022929,33.37555261,283.82
-97.57023100,33.37544819,283.93
-97.57023437,33.37524270,293.27
-97.57023562,33.37516605,292.44
-97.57023666,33.37510239,293.58
-97.57023707,33.37507723,293.72
-97.57023728,33.37506443,294.71
-97.57023755,33.37504793,288.91
-97.57024148,33.37480808,285.71
-97.57024244,33.37474928,286.28
-97.57024264,33.37473693,285.79
-97.57024272,33.37473242,285.78
-97.57024677,33.37448482,286.96
-97.57024730,33.37445253,287.01
-97.57025031,33.37426814,286.99
-97.57025079,33.37423928,286.99
-97.57025379,33.37405606,287.60
-97.57025564,33.37394289,292.58
-97.57026028,33.37365290,288.32
-97.57026373,33.37344849,288.32
-97.57026929,33.37310873,289.05
-97.57027065,33.37302568,289.16
-97.57027245,33.37291522,289.56
-97.57027519,33.37274787,289.03
-97.57027618,33.37268736,288.97
-97.57027661,33.37266103,289.02
-97.57027782,33.37258727,289.02
-97.57027789,33.37258322,289.05
-97.57028031,33.37243507,289.25
-97.57028102,33.37239169,289.39
-97.57028308,33.37226600,289.72
-97.57028426,33.37219377,289.83
-97.57028962,33.37186591,290.25
-97.57029061,33.37180559,290.36
-97.57029163,33.37173670,290.46
-97.57029853,33.37132156,291.41
-97.57029868,33.37131272,291.47
-97.57030027,33.37121515,291.76
-97.57030381,33.37099911,292.19
-97.57030884,33.37069172,293.27
-97.57031201,33.37049767,293.88
-97.57031261,33.37046115,294.04
-97.57031294,33.37044068,296.51
-97.57031486,33.37032364,298.43
-97.57031553,33.37028261,300.90
-97.57031579,33.37026692,304.66
-97.57031618,33.37024285,303.12
-97.57031763,33.37015430,301.52
-97.57031810,33.37012527,303.51
-97.57031857,33.37009677,295.54
-97.57031939,33.37004682,305.15
-97.57032020,33.36999731,302.34
-97.57032149,33.36991842,296.02
-97.57032245,33.36985944,303.61
-97.57032392,33.36976982,303.92
-97.57032398,33.36976621,303.27
-97.57032489,33.36971039,302.86
-97.57032520,33.36969155,296.42
-97.57033006,33.36939462,303.14
-97.57033348,33.36917866,294.85
-97.57033780,33.36892158,293.87
-97.57034002,33.36878588,293.16
-97.57034182,33.36867560,297.44
-97.57034272,33.36862060,301.29
-97.57034279,33.36861636,300.15
-97.57034388,33.36854963,296.72
-97.57034583,33.36843052,299.65
-97.57034842,33.36827227,299.76
-97.57034923,33.36822285,297.14
-97.57034950,33.36820617,298.15
-97.57034965,33.36819707,297.16
-97.57035031,33.36815658,289.23
-97.57035214,33.36803196,288.55
-97.57035048,33.36802779,288.50
-97.57033594,33.36802303,288.44
-97.57030897,33.36802272,288.37
-97.57014627,33.36802084,295.94
-97.57014187,33.36802079,295.14
-97.57013735,33.36802074,295.57
-97.57013316,33.36802069,296.36
-97.57012865,33.36802064,296.34
-97.57012833,33.36802064,295.63
-97.57012478,33.36802059,296.79
-97.57012005,33.36802054,296.71
-97.56962980,33.36801543,285.94
-97.56943486,33.36801310,285.40
-97.56942583,33.36801299,285.29
-97.56942132,33.36801294,285.24
-97.56941627,33.36801288,285.24
-97.56941165,33.36801283,285.24
-97.56940649,33.36801277,285.25
-97.56940112,33.36801271,285.43
-97.56907550,33.36800886,284.27
-97.56875559,33.36800490,283.36
-97.56864297,33.36800352,289.92
-97.56861170,33.36800315,290.59
-97.56860095,33.36800303,292.01
-97.56854002,33.36800233,293.99
-97.56853519,33.36800227,293.79
-97.56853228,33.36800224,294.69
-97.56852799,33.36800219,294.74
-97.56852336,33.36800214,294.85
-97.56851778,33.36800207,294.34
-97.56851015,33.36800198,294.86
-97.56850649,33.36800194,295.26
-97.56850187,33.36800189,295.38
-97.56849628,33.36800182,294.96
-97.56849284,33.36800178,295.62
-97.56848479,33.36800169,296.25
-97.56848145,33.36800165,296.89
-97.56848016,33.36800164,296.26
-97.56847479,33.36800158,295.85
-97.56847286,33.36800155,297.08
-97.56846190,33.36800143,296.30
-97.56845513,33.36800135,297.39
-97.56845190,33.36800131,297.96
-97.56844707,33.36800126,297.85
-97.56844223,33.36800120,297.63
-97.56843739,33.36800114,297.61
-97.56843288,33.36800109,297.75
-97.56842611,33.36800101,298.86
-97.56842106,33.36800096,298.76
-97.56841633,33.36800090,298.79
-97.56841128,33.36800084,298.55
-97.56840741,33.36800080,298.80
-97.56787977,33.36799471,280.57
-97.56787558,33.36799466,280.43
-97.56786171,33.36799450,280.34
-97.56785731,33.36799445,280.33
-97.56785301,33.36799440,280.25
-97.56784850,33.36799435,280.11
-97.56783904,33.36799424,280.18
-97.56783431,33.36799419,280.24
-97.56782485,33.36799408,280.14
-97.56782034,33.36799403,280.16
-97.56780218,33.36799382,280.21
-97.56779788,33.36799377,280.23
-97.56778864,33.36799366,280.20
-97.56778434,33.36799361,280.13
-97.56777951,33.36799356,280.20
-97.56777478,33.36799350,280.18
-97.56777037,33.36799345,280.15
-97.56776048,33.36799334,280.21
-97.56775586,33.36799328,280.20
-97.56775135,33.36799323,280.20
-97.56769203,33.36799255,280.04
-97.56767408,33.36799234,280.02
-97.56766979,33.36799229,279.96
-97.56766506,33.36799223,279.99
-97.56766065,33.36799218,279.96
-97.56765582,33.36799213,279.96
-97.56765162,33.36799208,279.89
-97.56764271,33.36799198,279.78
-97.56762863,33.36799181,279.79
-97.56758317,33.36799129,279.82
-97.56757876,33.36799124,279.76
-97.56756952,33.36799113,279.71
-97.56756490,33.36799108,279.81
-97.56755545,33.36799097,279.76
-97.56754201,33.36799081,279.66
-97.56753331,33.36799071,279.59
-97.56727464,33.36798773,279.12
-97.56726454,33.36798761,279.05
-97.56725928,33.36798755,279.01
-97.56724961,33.36798744,279.02
-97.56722467,33.36798715,279.09
-97.56721984,33.36798710,279.23
-97.56715869,33.36798639,282.76
-97.56715815,33.36798638,284.00
-97.56715439,33.36798634,282.89
-97.56715052,33.36798630,283.26
-97.56714461,33.36798623,284.57
-97.56713376,33.36798610,284.33
-97.56712892,33.36798605,284.41
-97.56709969,33.36798571,285.85
-97.56709593,33.36798567,286.13
-97.56709206,33.36798562,286.39
-97.56708992,33.36798560,285.78
-97.56708615,33.36798555,286.19
-97.56708218,33.36798551,286.53
-97.56707885,33.36798547,287.03
-97.56707347,33.36798541,286.88
-97.56706649,33.36798533,286.38
-97.56704489,33.36798508,288.67
-97.56703737,33.36798499,287.91
-97.56701458,33.36798473,288.48
-97.56701007,33.36798467,290.00
-97.56700223,33.36798458,290.70
-97.56647104,33.36797845,279.48
-97.56637271,33.36797731,279.07
-97.56625138,33.36797591,279.40
-97.56598197,33.36797280,279.71
-97.56597767,33.36797275,279.78
-97.56592738,33.36797217,279.10
-97.56583786,33.36797114,278.93
-97.56582013,33.36797093,279.03
-97.56556126,33.36796794,288.67
-97.56534902,33.36796549,292.38
-97.56534429,33.36796543,292.36
-97.56526412,33.36796451,287.07
-97.56518836,33.36796363,279.34
-97.56512721,33.36796292,277.57
-97.56504769,33.36796200,279.65
-97.56502072,33.36796169,289.77
-97.56482911,33.36795948,278.93
-97.56466931,33.36795763,279.07
-97.56462289,33.36795709,278.78
-97.56452284,33.36795593,278.27
-97.56438862,33.36795438,278.82
-97.56438389,33.36795433,278.89
-97.56428793,33.36795322,278.18
-97.56413866,33.36795149,282.86
-97.56412190,33.36795130,281.69
-97.56411760,33.36795125,281.42
-97.56406806,33.36795067,278.20
-97.56400229,33.36794991,288.79
-97.56397371,33.36794958,286.67
-97.56377458,33.36794728,279.59
-97.56373965,33.36794687,286.59
-97.56371107,33.36794654,284.62
-97.56348282,33.36794390,287.73
-97.56342393,33.36794322,283.58
-97.56323264,33.36794101,284.23
-97.56284352,33.36793650,275.09
-97.56280494,33.36793606,285.83
-97.56275777,33.36793551,281.75
-97.56274584,33.36793537,279.33
-97.56274100,33.36793532,279.42
-97.56267416,33.36793454,275.87
-97.56264085,33.36793416,279.38
-97.56263709,33.36793411,289.32
-97.56263279,33.36793406,279.83
-97.56262236,33.36793394,279.57
-97.56247106,33.36793219,290.08
-97.56244849,33.36793193,288.45
-97.56243527,33.36793177,287.35
-97.56242646,33.36793167,286.62
-97.56228192,33.36793000,292.55
-97.56226860,33.36792984,291.17
-97.56204185,33.36792722,273.81
-97.56187496,33.36792528,279.11
-97.56165036,33.36792268,275.49
-97.56144823,33.36792034,273.78
-97.56128263,33.36791842,274.21
-97.56108006,33.36791607,274.54
-97.56089060,33.36791388,274.85
-97.56074768,33.36791222,275.24
-97.56063527,33.36791091,275.52
-97.56054662,33.36790989,275.24
-97.56039574,33.36790814,274.83
-97.56027484,33.36790673,280.69
-97.56019511,33.36790581,284.89
-97.56019156,33.36790577,285.72
-97.56016910,33.36790551,287.21
-97.56008807,33.36790457,277.05
-97.56004197,33.36790403,288.67
-97.56003681,33.36790397,273.05
-97.56001210,33.36790369,272.80
-97.55994945,33.36790296,281.07
-97.55992118,33.36790263,281.19
-97.55991420,33.36790255,282.04
-97.55990130,33.36790240,283.22
-97.55984327,33.36790173,272.10
-97.55978879,33.36790110,281.74
-97.55977149,33.36790089,280.53
-97.55975891,33.36790075,279.28
-97.55967853,33.36789982,283.79
-97.55967348,33.36789976,279.00
-97.55967208,33.36789974,283.19
-97.55966005,33.36789960,282.22
-97.55965425,33.36789953,281.79
-97.55964189,33.36789939,282.16
-97.55960879,33.36789919,285.93
-97.55960646,33.36790358,286.65
-97.55960603,33.36792269,282.80
-97.55960559,33.36794307,278.86
-97.55960509,33.36797328,274.66
-97.55960489,33.36798581,282.97
-97.55959971,33.36829960,276.99
-97.55959609,33.36851944,284.30
-97.55959511,33.36857895,283.16
-97.55959354,33.36867408,284.68
-97.55959292,33.36871159,271.26
-97.55959265,33.36872818,284.29
-97.55959182,33.36877877,271.11
-97.55959126,33.36885172,276.87
-97.55958419,33.36924774,272.34
-97.55958370,33.36927786,274.66
-97.55958325,33.36930482,272.27
-97.55958639,33.36934905,274.99
-97.55963550,33.36950014,271.02
-97.55968772,33.36993770,271.11
-97.55964960,33.37003998,271.09
-97.55963501,33.37024715,271.06
-97.56012674,33.37013715,270.98
-97.56020117,33.37037574,275.46
-97.56020640,33.37039718,275.87
-97.56017636,33.37058983,271.04
-97.55993545,33.37080006,271.06
-97.55981069,33.37086336,271.07
-97.55958133,33.37090796,271.11
-97.55957090,33.37098675,271.09
-97.55955561,33.37111861,271.08
-97.55955493,33.37113357,271.09
-97.55955016,33.37131236,271.10
-97.55954684,33.37152660,271.18
-97.55954228,33.37178358,271.14
-97.55954092,33.37187276,271.10
-97.55953442,33.37231280,271.09
-97.55952985,33.37253794,278.35
-97.55952972,33.37254543,280.44
-97.55952937,33.37256707,280.31
-97.55952929,33.37257185,278.86
-97.55952916,33.37257942,283.94
-97.55952847,33.37262171,284.54
-97.55952822,33.37263695,271.96
-97.55952803,33.37264831,280.66
-97.55952664,33.37273271,280.33
-97.55952637,33.37274867,281.78
-97.55952636,33.37274948,283.84
-97.55952573,33.37278790,278.25
-97.55952541,33.37280719,283.14
-97.55952502,33.37283109,285.52
-97.55952479,33.37284506,285.22
-97.55952324,33.37293857,283.69
-97.55952087,33.37308230,274.72
-97.55952077,33.37308834,274.79
-97.55952068,33.37309384,274.85
-97.55951939,33.37317202,275.23
-97.55951826,33.37324064,275.85
-97.55951717,33.37330673,276.39
-97.55951684,33.37332720,276.39
-97.55951680,33.37332909,276.41
-97.55951669,33.37333577,276.37
-97.55951644,33.37335146,276.32
-97.55951249,33.37359068,283.82
-97.55951219,33.37360925,285.21
-97.55951213,33.37361295,283.98
-97.55951198,33.37362197,283.69
-97.55951133,33.37366110,281.03
-97.55951118,33.37367003,284.61
-97.55951115,33.37367219,284.62
-97.55951106,33.37367724,283.28
-97.55951076,33.37369599,288.52
-97.55951049,33.37371186,285.02
-97.55951017,33.37373125,277.76
-97.55951011,33.37373531,285.85
-97.55950962,33.37376470,289.96
-97.55950920,33.37379022,286.52
-97.55950913,33.37379437,290.09
-97.55950882,33.37381358,279.17
-97.55950880,33.37381457,288.62
-97.55950780,33.37387507,286.13
-97.55950770,33.37388111,282.70
-97.55950718,33.37391294,284.94
-97.55950598,33.37398580,287.89
-97.55950568,33.37400365,285.14
-97.55950566,33.37400483,287.29
-97.55950561,33.37400825,279.52
-97.55950395,33.37410852,278.00
-97.55950343,33.37414017,288.44
-97.55950342,33.37414071,280.17
-97.55950338,33.37414333,281.32
-97.55950306,33.37416271,289.24
-97.55950280,33.37417831,278.01
-97.55950278,33.37417967,288.14
-97.55950236,33.37420527,281.27
-97.55950192,33.37423205,290.90
-97.55950189,33.37423377,280.07
-97.55950176,33.37424188,280.79
-97.55950118,33.37427696,282.62
-97.55950062,33.37431068,289.47
-97.55950050,33.37431790,283.98
-97.55949994,33.37435189,290.55
-97.55949958,33.37437398,288.76
-97.55949937,33.37438679,281.19
-97.55949819,33.37445838,281.68
-97.55949701,33.37452970,275.60
-97.55949635,33.37456956,275.91
-97.55949631,33.37457208,278.94
-97.55949346,33.37474530,279.90
-97.55949336,33.37475134,277.08
-97.55949244,33.37480689,277.48
-97.55949100,33.37489399,277.46
-97.55949080,33.37490661,277.87
-97.55948860,33.37503952,284.07
-97.55948845,33.37504863,285.52
-97.55948841,33.37505152,282.44
-97.55948637,33.37517505,277.90
-97.55948524,33.37524376,278.21
-97.55948368,33.37533808,279.27
-97.55948126,33.37548505,279.86
-97.55948095,33.37550372,279.89
-97.55947959,33.37558613,282.52
-97.55947889,33.37562896,283.26
-97.55947789,33.37568911,283.52
-97.55947724,33.37572878,281.07
-97.55947717,33.37573302,281.86
-97.55947544,33.37583771,284.58
-97.55947487,33.37587260,279.94
-97.55947299,33.37598631,279.37
-97.55947147,33.37607864,279.39
-97.55946951,33.37619766,280.41
-97.55946944,33.37620208,281.61
-97.55946919,33.37621678,288.50
-97.55946866,33.37624933,278.71
-97.55946823,33.37627539,285.82
-97.55946681,33.37636132,279.39
-97.55946304,33.37658963,277.82
-97.55946153,33.37668170,277.59
-97.55946100,33.37671389,277.76
-97.55946017,33.37676384,277.51
-97.55945983,33.37678476,277.69
-97.55945793,33.37689991,277.19
-97.55945836,33.37691281,277.15
-97.55945854,33.37691497,277.15
-97.55946788,33.37691553,277.19
-97.55947261,33.37691577,277.25
-97.55947734,33.37691600,277.26
-97.55955568,33.37691700,280.06
-97.55957589,33.37691724,279.75
-97.55960168,33.37691754,282.63
-97.55971539,33.37691886,283.72
-97.55971657,33.37691887,284.28
-97.55980996,33.37691995,278.01
-97.56010165,33.37692334,278.75
-97.56014979,33.37692390,283.44
-97.56023094,33.37692484,285.49
-97.56027178,33.37692531,284.76
-97.56027447,33.37692534,284.99
-97.56029263,33.37692555,284.47
-97.56037979,33.37692657,286.35
-97.56038151,33.37692659,287.63
-97.56038602,33.37692664,291.56
-97.56044803,33.37692736,290.55
-97.56050091,33.37692797,285.86
-97.56052413,33.37692824,280.13
-97.56052907,33.37692830,280.15
-97.56069136,33.37693018,280.58
-97.56080377,33.37693148,280.75
-97.56102377,33.37693403,280.80
-97.56131685,33.37693743,280.86
-97.56131814,33.37693745,283.44
-97.56131857,33.37693745,284.41
-97.56141379,33.37693856,279.05
-97.56141444,33.37693856,280.82
-97.56152847,33.37693989,276.13
-97.56180382,33.37694308,282.74
-97.56180392,33.37694308,281.41
-97.56220652,33.37694774,282.21
-97.56238718,33.37694984,282.48
-97.56247617,33.37695087,288.34
-97.56257150,33.37695197,289.94
-97.56266146,33.37695301,289.33
-97.56266941,33.37695310,289.48
-97.56267016,33.37695311,283.62
-97.56268510,33.37695329,281.99
-97.56275399,33.37695408,283.04
-97.56275636,33.37695411,281.71
-97.56276495,33.37695421,283.29
-97.56285459,33.37695525,289.79
-97.56285469,33.37695525,285.48
-97.56291746,33.37695598,289.08
-97.56298055,33.37695671,286.72
-97.56301838,33.37695715,289.61
-97.56301881,33.37695715,285.57
-97.56311177,33.37695823,289.63
-97.56315777,33.37695876,289.69
-97.56320044,33.37695925,283.09
-97.56320979,33.37695936,286.95
-97.56320989,33.37695936,289.79
-97.56321108,33.37695938,288.99
-97.56329319,33.37696033,290.55
-97.56336939,33.37696121,287.86
-97.56337057,33.37696122,287.13
-97.56338497,33.37696139,286.15
-97.56346321,33.37696229,285.21
     </coordinates>
    </LineString>
   </MultiGeometry>
  </Placemark>
 </Document>
</kml>
