<kml>
 <Document>
  <Style id="yellow">
   <LineStyle>
   <color>ff00ffff</color>
   <width>1</width>
   </LineStyle>
  </Style>
  <Style id="red">
   <LineStyle>
   <color>ffff0000</color>
   <width>2</width>
   </LineStyle>
  </Style>
  <Style id="green">
   <LineStyle>
   <color>ff00ff00</color>
   <width>1</width>
   </LineStyle>
  </Style>
  <Placemark>
  <styleUrl>#yellow</styleUrl>
   <MultiGeometry>
    <LineString>
     <coordinates>
-97.62574872,33.35061117,308.59
-97.62602464,33.35061422,308.58
-97.62606375,33.35061466,302.40
-97.62606858,33.35061471,302.25
-97.62607310,33.35061476,302.26
-97.62607761,33.35061481,302.23
-97.62610974,33.35061516,302.12
-97.62615991,33.35061572,303.92
-97.62621750,33.35061636,305.76
-97.62622642,33.35061646,306.07
-97.62625833,33.35061681,306.46
-97.62626295,33.35061686,306.70
-97.62627617,33.35061701,307.34
-97.62629218,33.35061718,309.12
-97.62629411,33.35061721,307.61
-97.62630776,33.35061736,307.81
-97.62631227,33.35061741,307.80
-97.62633010,33.35061760,308.63
-97.62633977,33.35061771,308.67
-97.62634450,33.35061776,308.52
-97.62635148,33.35061784,300.92
-97.62644711,33.35061890,304.56
-97.62652469,33.35061976,307.50
-97.62653360,33.35061985,299.86
-97.62653833,33.35061991,299.85
-97.62654714,33.35062000,308.45
-97.62657411,33.35062030,309.53
-97.62658066,33.35062038,299.65
-97.62667876,33.35062146,303.16
-97.62668349,33.35062151,303.34
-97.62673828,33.35062212,304.45
-97.62674667,33.35062221,304.84
-97.62682306,33.35062306,306.85
-97.62683251,33.35062316,306.96
-97.62685035,33.35062336,307.53
-97.62685508,33.35062341,307.66
-97.62686453,33.35062351,307.79
-97.62686872,33.35062356,308.10
-97.62687281,33.35062361,308.31
-97.62687710,33.35062365,308.45
-97.62688688,33.35062376,308.29
-97.62689118,33.35062381,308.49
-97.62690461,33.35062396,308.72
-97.62691385,33.35062406,302.90
-97.62707867,33.35062588,309.16
-97.62720997,33.35062733,297.17
-97.62721469,33.35062739,297.15
-97.62721899,33.35062743,297.22
-97.62722393,33.35062749,297.15
-97.62722877,33.35062754,297.23
-97.62728614,33.35062818,305.49
-97.62734395,33.35062882,299.90
-97.62734771,33.35062886,300.34
-97.62735254,33.35062891,300.17
-97.62736125,33.35062901,300.45
-97.62737554,33.35062917,300.68
-97.62740304,33.35062947,301.36
-97.62740766,33.35062952,301.49
-97.62741658,33.35062962,301.86
-97.62754014,33.35063098,304.78
-97.62756185,33.35063123,305.81
-97.62758731,33.35063151,306.76
-97.62759225,33.35063156,306.93
-97.62759515,33.35063159,297.60
-97.62759558,33.35063160,305.76
-97.62760934,33.35063175,306.14
-97.62761224,33.35063178,307.60
-97.62765984,33.35063231,307.11
-97.62780123,33.35063387,305.40
-97.62785904,33.35063451,297.17
-97.62786398,33.35063456,297.15
-97.62786860,33.35063462,297.16
-97.62787365,33.35063467,297.19
-97.62787376,33.35063467,297.17
-97.62787881,33.35063473,297.21
-97.62794832,33.35063550,299.98
-97.62797121,33.35063575,299.62
-97.62797604,33.35063580,299.66
-97.62799055,33.35063596,299.70
-97.62799506,33.35063601,299.83
-97.62805018,33.35063662,301.39
-97.62813506,33.35063756,306.90
-97.62817245,33.35063797,303.92
-97.62830665,33.35063946,296.14
-97.62832159,33.35063962,307.31
-97.62833104,33.35063973,307.35
-97.62834383,33.35063987,308.01
-97.62836349,33.35064008,308.16
-97.62838702,33.35064034,308.84
-97.62840851,33.35064058,307.28
-97.62842344,33.35064075,307.68
-97.62844257,33.35064096,308.47
-97.62844708,33.35064101,308.66
-97.62847244,33.35064129,299.49
-97.62850983,33.35064170,300.47
-97.62851391,33.35064175,300.85
-97.62904845,33.35064729,298.03
-97.62930717,33.35065051,297.79
-97.62932995,33.35065076,298.52
-97.62935284,33.35065101,299.34
-97.62938045,33.35065131,300.49
-97.62940323,33.35065157,301.33
-97.62942622,33.35065182,302.01
-97.62987438,33.35065668,287.45
-97.62998085,33.35065794,301.39
-97.63000320,33.35065819,302.29
-97.63001180,33.35065828,302.56
-97.63006133,33.35065883,304.36
-97.63007025,33.35065893,304.72
-97.63010119,33.35065927,305.88
-97.63010592,33.35065932,306.02
-97.63011054,33.35065937,306.07
-97.63011494,33.35065942,306.32
-97.63023012,33.35066069,300.56
-97.63033499,33.35066185,292.36
-97.63065958,33.35066543,293.18
-97.63066409,33.35066548,293.22
-97.63070363,33.35066591,296.65
-97.63092873,33.35066840,296.32
-97.63093442,33.35066846,296.46
-97.63094065,33.35066853,293.48
-97.63124408,33.35067187,292.67
-97.63124848,33.35067192,292.69
-97.63146262,33.35067428,292.11
-97.63151613,33.35067487,292.25
-97.63163249,33.35067615,292.58
-97.63165699,33.35067643,297.27
-97.63177947,33.35067777,293.71
-97.63182030,33.35067822,294.96
-97.63196654,33.35067984,299.52
-97.63196772,33.35067985,295.84
-97.63201263,33.35068034,295.95
-97.63210858,33.35068140,300.79
-97.63222225,33.35068265,295.61
-97.63251472,33.35068588,295.14
-97.63256307,33.35068641,303.90
-97.63261625,33.35068699,298.75
-97.63262087,33.35068704,298.78
-97.63270049,33.35068792,294.16
-97.63274067,33.35068836,303.08
-97.63274938,33.35068846,303.37
-97.63276711,33.35068865,304.15
-97.63277753,33.35068877,296.43
-97.63283985,33.35068946,303.66
-97.63285134,33.35068958,307.02
-97.63298468,33.35069105,299.25
-97.63304732,33.35069174,301.50
-97.63313844,33.35069274,298.10
-97.63315294,33.35069290,298.52
-97.63315724,33.35069295,298.60
-97.63323449,33.35069380,296.11
-97.63362280,33.35069807,293.34
-97.63362623,33.35069811,302.92
-97.63363547,33.35069821,303.19
-97.63364429,33.35069831,303.48
-97.63373443,33.35069930,300.73
-97.63380287,33.35070006,302.74
-97.63399423,33.35070216,298.53
-97.63412113,33.35070356,302.22
-97.63437502,33.35070635,294.00
-97.63442928,33.35070695,295.54
-97.63443798,33.35070704,295.81
-97.63489774,33.35071210,304.11
-97.63498681,33.35071308,306.59
-97.63509534,33.35071373,303.47
-97.63510480,33.35071320,303.18
-97.63511267,33.35071149,296.63
-97.63511354,33.35069003,298.13
-97.63511360,33.35068651,301.81
-97.63511394,33.35066496,299.65
-97.63511439,33.35063575,300.12
-97.63511502,33.35059535,303.02
-97.63511510,33.35059030,297.43
-97.63511527,33.35057921,305.23
-97.63511568,33.35055306,301.86
-97.63511616,33.35052258,303.37
-97.63511694,33.35047280,301.43
-97.63511854,33.35037028,295.20
-97.63512096,33.35021491,294.72
-97.63512124,33.35019687,294.75
-97.63512145,33.35018371,294.69
-97.63512201,33.35014737,294.53
-97.63512277,33.35009913,294.35
-97.63512386,33.35002915,294.25
-97.63512397,33.35002194,294.25
-97.63512405,33.35001707,294.22
-97.63512417,33.35000904,294.20
-97.63512445,33.34999155,294.14
-97.63512477,33.34997072,294.11
-97.63512518,33.34994439,294.07
-97.63512701,33.34982698,293.85
-97.63512838,33.34973961,293.77
-97.63512925,33.34968397,302.58
-97.63512933,33.34967892,303.14
-97.63512939,33.34967504,299.32
-97.63513186,33.34951670,292.61
-97.63513252,33.34947396,292.43
-97.63513483,33.34932598,291.83
-97.63513544,33.34928739,291.84
-97.63513582,33.34926250,291.80
-97.63513780,33.34913590,291.53
-97.63513807,33.34911831,291.46
-97.63513931,33.34903905,291.21
-97.63513991,33.34900046,291.07
-97.63514029,33.34897629,291.09
-97.63514212,33.34885916,290.69
-97.63514526,33.34865798,290.03
-97.63514529,33.34865618,290.04
-97.63514626,33.34859360,289.93
-97.63514691,33.34855230,289.83
-97.63514808,33.34847736,289.64
-97.63515343,33.34813417,288.52
-97.63515396,33.34810044,288.26
-97.63515758,33.34786843,287.44
-97.63515905,33.34777438,287.00
-97.63515933,33.34775607,286.88
-97.63515994,33.34771748,286.71
-97.63516165,33.34760756,286.07
-97.63516207,33.34758050,286.06
-97.63516232,33.34756463,286.07
-97.63516364,33.34748023,286.12
-97.63516398,33.34745814,285.99
-97.63516415,33.34744741,285.93
-97.63516473,33.34741044,285.75
-97.63516475,33.34740881,285.76
-97.63516702,33.34726373,294.55
-97.63516705,33.34726147,294.30
-97.63516709,33.34725922,294.25
-97.63516830,33.34718158,286.80
-97.63516866,33.34715822,285.94
-97.63516873,33.34715426,289.21
-97.63517054,33.34703811,290.17
-97.63517094,33.34701214,284.99
-97.63517112,33.34700096,290.12
-97.63517134,33.34698653,290.97
-97.63517139,33.34698356,290.86
-97.63517140,33.34698257,292.30
-97.63517165,33.34696706,289.94
-97.63517234,33.34692287,285.02
-97.63517273,33.34689780,285.02
-97.63517541,33.34672566,284.69
-97.63517601,33.34668734,284.53
-97.63517611,33.34668112,284.52
-97.63517702,33.34662241,284.45
-97.63517750,33.34659176,284.61
-97.63517890,33.34650203,284.56
-97.63517966,33.34645334,284.62
-97.63518059,33.34639401,284.70
-97.63518583,33.34605784,285.42
-97.63518671,33.34600193,285.57
-97.63518861,33.34587993,292.97
-97.63519107,33.34572249,285.71
-97.63519206,33.34565882,285.97
-97.63519354,33.34556387,286.87
-97.63519449,33.34550310,287.13
-97.63520106,33.34508199,287.85
-97.63520205,33.34501842,288.12
-97.63520416,33.34488370,288.39
-97.63520431,33.34487387,288.39
-97.63520577,33.34478009,288.51
-97.63520582,33.34477702,288.52
-97.63520823,33.34462283,290.45
-97.63520842,33.34461065,289.96
-97.63520919,33.34456115,290.87
-97.63520929,33.34455475,291.25
-97.63520958,33.34453581,292.56
-97.63521128,33.34442679,286.86
-97.63521268,33.34433752,284.19
-97.63521371,33.34427142,284.56
-97.63521452,33.34421921,287.02
-97.63521770,33.34401551,289.05
-97.63521779,33.34401010,289.05
-97.63521827,33.34397899,289.20
-97.63522456,33.34357619,288.00
-97.63522586,33.34349233,291.32
-97.63522802,33.34335427,292.78
-97.63522802,33.34335418,291.72
-97.63522922,33.34327717,291.05
-97.63522928,33.34327357,291.02
-97.63522960,33.34325283,290.97
-97.63523129,33.34314435,289.91
-97.63523229,33.34308050,297.16
-97.63523250,33.34306707,294.89
-97.63523354,33.34300070,289.49
-97.63523420,33.34295805,289.59
-97.63523459,33.34293334,289.73
-97.63523508,33.34290151,299.13
-97.63523534,33.34288483,290.07
-97.63523675,33.34279439,288.76
-97.63523722,33.34276427,288.59
-97.63523778,33.34272856,296.04
-97.63524298,33.34239510,288.50
-97.63524325,33.34237806,291.35
-97.63524413,33.34232170,296.59
-97.63524497,33.34226804,297.99
-97.63524505,33.34226263,289.63
-97.63524511,33.34225903,289.78
-97.63524599,33.34220267,298.43
-97.63524680,33.34215037,298.12
-97.63524716,33.34212747,292.29
-97.63524763,33.34209753,291.40
-97.63524946,33.34198012,286.77
-97.63525121,33.34186786,291.63
-97.63525144,33.34185289,293.76
-97.63525278,33.34176704,295.36
-97.63525323,33.34173828,288.46
-97.63525376,33.34170428,288.55
-97.63525288,33.34169877,298.01
-97.63525065,33.34169721,297.86
-97.63515825,33.34169620,299.86
-97.63512323,33.34169581,288.90
-97.63493092,33.34169370,289.58
-97.63472132,33.34169139,289.72
-97.63456812,33.34168971,291.11
-97.63436894,33.34168752,291.15
-97.63436851,33.34168752,292.75
-97.63403622,33.34168386,293.19
-97.63386636,33.34168199,294.08
-97.63369200,33.34168007,293.95
-97.63349873,33.34167795,294.36
-97.63321725,33.34167485,295.61
-97.63321156,33.34167479,295.74
-97.63319609,33.34167462,296.38
-97.63317804,33.34167442,296.77
-97.63317223,33.34167435,296.94
-97.63302602,33.34167274,296.80
-97.63286938,33.34167102,298.14
-97.63281018,33.34167037,297.44
-97.63280492,33.34167031,297.56
-97.63278247,33.34167006,298.24
-97.63275539,33.34166976,299.14
-97.63268406,33.34166898,298.41
-97.63266182,33.34166873,302.26
-97.63237723,33.34166560,299.42
-97.63237250,33.34166555,299.39
-97.63222789,33.34166395,301.10
-97.63208726,33.34166241,301.35
-97.63205202,33.34166202,300.46
-97.63201657,33.34166163,301.52
-97.63198509,33.34166128,302.62
-97.63197994,33.34166122,302.69
-97.63196425,33.34166105,303.21
-97.63195942,33.34166100,303.31
-97.63193352,33.34166071,302.09
-97.63177979,33.34165902,303.05
-97.63166451,33.34165775,302.02
-97.63161928,33.34165725,303.45
-97.63160585,33.34165710,305.80
-97.63160489,33.34165709,303.49
-97.63159908,33.34165703,304.11
-97.63159360,33.34165697,304.33
-97.63120330,33.34165266,306.91
-97.63117859,33.34165239,307.69
-97.63082170,33.34164846,307.03
-97.63044192,33.34164427,308.54
-97.63013799,33.34164092,309.47
-97.62984104,33.34163764,308.05
-97.62983685,33.34163759,308.11
-97.62953496,33.34163426,308.47
-97.62953056,33.34163421,308.67
-97.62952121,33.34163411,308.88
-97.62909234,33.34162938,310.04
-97.62878164,33.34162595,311.54
-97.62877713,33.34162590,311.76
-97.62877240,33.34162584,311.79
-97.62875006,33.34162560,312.58
-97.62844881,33.34162227,310.05
-97.62822256,33.34161977,307.29
-97.62821794,33.34161972,307.37
-97.62815187,33.34161899,309.44
-97.62811405,33.34161857,306.01
-97.62810900,33.34161852,305.93
-97.62791455,33.34161637,307.22
-97.62790531,33.34161627,307.43
-97.62790112,33.34161622,307.55
-97.62789650,33.34161617,307.72
-97.62789198,33.34161612,307.85
-97.62788726,33.34161607,307.93
-97.62754798,33.34161232,311.43
-97.62754293,33.34161226,311.53
-97.62753799,33.34161221,311.58
-97.62748503,33.34161162,311.65
-97.62748374,33.34161161,317.90
-97.62748041,33.34161157,311.61
-97.62747203,33.34161148,312.08
-97.62746311,33.34161138,320.43
-97.62744506,33.34161118,312.83
-97.62727113,33.34160926,318.54
-97.62714092,33.34160782,312.95
-97.62710912,33.34160747,323.68
-97.62709204,33.34160728,324.24
-97.62696559,33.34160588,318.54
-97.62694571,33.34160566,312.10
-97.62694141,33.34160561,312.07
-97.62693647,33.34160556,312.05
-97.62691649,33.34160534,315.18
-97.62690521,33.34160521,316.17
-97.62688727,33.34160501,318.22
-97.62688104,33.34160494,319.10
-97.62687728,33.34160490,318.78
-97.62675867,33.34160359,312.39
-97.62675437,33.34160354,312.52
-97.62643100,33.34159997,312.70
-97.62642541,33.34159991,313.28
-97.62642122,33.34159986,313.11
-97.62641488,33.34159979,314.15
-97.62640887,33.34159972,315.03
-97.62640554,33.34159969,312.70
-97.62640500,33.34159968,314.61
-97.62640371,33.34159967,315.47
-97.62639995,33.34159962,315.12
-97.62637470,33.34159934,313.79
-97.62630337,33.34159856,315.92
-97.62629864,33.34159850,316.07
-97.62606530,33.34159592,312.92
-97.62605240,33.34159578,313.47
-97.62595915,33.34159475,313.26
-97.62595389,33.34159469,313.71
-97.62593552,33.34159458,314.15
-97.62541554,33.34158873,312.30
-97.62541092,33.34158868,312.30
-97.62494015,33.34158347,313.18
-97.62493585,33.34158342,313.20
-97.62491802,33.34158322,315.65
-97.62489965,33.34158302,317.81
-97.62488611,33.34158287,319.60
-97.62488181,33.34158282,319.74
-97.62487762,33.34158277,320.10
-97.62487289,33.34158272,320.40
-97.62486860,33.34158267,321.20
-97.62486849,33.34158267,320.55
-97.62486398,33.34158262,321.03
-97.62485108,33.34158257,321.86
-97.62472140,33.34158213,322.07
-97.62466251,33.34158211,320.51
-97.62451262,33.34158216,313.82
-97.62451116,33.34160631,313.83
-97.62450991,33.34163119,313.82
-97.62450895,33.34168529,314.61
-97.62450855,33.34171072,317.72
-97.62450795,33.34174887,316.67
-97.62450696,33.34181226,318.67
-97.62450599,33.34187366,318.19
-97.62450398,33.34200180,320.54
-97.62450274,33.34208034,314.72
-97.62450133,33.34217015,320.26
-97.62450110,33.34218458,319.82
-97.62449825,33.34236619,316.50
-97.62449476,33.34258801,317.78
-97.62449269,33.34271994,318.36
-97.62448771,33.34303644,320.29
-97.62448718,33.34307008,320.65
-97.62448660,33.34310705,325.15
-97.62447970,33.34354565,330.07
-97.62447963,33.34355034,328.23
-97.62447895,33.34359317,332.44
-97.62447858,33.34361706,324.06
-97.62447510,33.34383817,332.04
-97.62447489,33.34385187,328.09
-97.62447438,33.34388407,325.59
-97.62447153,33.34406513,331.67
-97.62446911,33.34421924,329.38
-97.62446831,33.34426982,331.29
-97.62446402,33.34454954,327.40
-97.62446094,33.34473845,327.35
-97.62446034,33.34477669,327.23
-97.62445997,33.34480022,327.14
-97.62445938,33.34483764,330.16
-97.62445870,33.34488102,332.60
-97.62445864,33.34488498,332.66
-97.62445841,33.34489986,326.89
-97.62445338,33.34521952,328.42
-97.62445255,33.34527246,330.30
-97.62444828,33.34554397,324.14
-97.62444729,33.34560682,323.83
-97.62444682,33.34563657,329.51
-97.62444654,33.34565407,328.58
-97.62444602,33.34568752,323.42
-97.62444482,33.34576345,322.91
-97.62443955,33.34609889,326.25
-97.62443547,33.34635822,316.35
-97.62443183,33.34658988,313.57
-97.62443163,33.34660250,313.71
-97.62443030,33.34668717,314.96
-97.62442968,33.34672631,315.54
-97.62442444,33.34706644,318.65
-97.62442061,33.34730287,311.82
-97.62441963,33.34736527,311.92
-97.62441626,33.34757934,321.31
-97.62441447,33.34769332,319.39
-97.62441440,33.34769801,318.85
-97.62441297,33.34778908,316.73
-97.62441208,33.34784535,318.09
-97.62441153,33.34788052,307.36
-97.62441063,33.34793733,315.26
-97.62440837,33.34808151,313.50
-97.62440821,33.34809125,315.07
-97.62440800,33.34810469,314.10
-97.62440567,33.34825293,304.70
-97.62440537,33.34827205,313.04
-97.62440507,33.34829126,312.85
-97.62440401,33.34835852,310.04
-97.62440174,33.34850253,313.39
-97.62440096,33.34855258,311.96
-97.62440057,33.34857737,314.06
-97.62439903,33.34867485,315.64
-97.62439851,33.34870821,312.38
-97.62439845,33.34871209,315.10
-97.62439671,33.34882282,306.17
-97.62439622,33.34885384,309.82
-97.62439594,33.34887134,305.93
-97.62439527,33.34891399,313.61
-97.62439391,33.34900064,313.47
-97.62439337,33.34903482,310.92
-97.62439272,33.34907630,314.67
-97.62439115,33.34917639,314.42
-97.62439082,33.34919695,314.29
-97.62438822,33.34936215,311.06
-97.62438792,33.34938171,306.16
-97.62438711,33.34943302,317.75
-97.62438685,33.34944934,317.54
-97.62438674,33.34945629,311.97
-97.62438661,33.34946494,318.28
-97.62438235,33.34973555,314.93
-97.62437903,33.34994674,309.66
-97.62437822,33.34999822,304.42
-97.62437645,33.35011040,310.87
-97.62437631,33.35011978,309.22
-97.62437494,33.35020688,298.76
-97.62437275,33.35034566,301.94
-97.62436985,33.35053683,305.11
-97.62436936,33.35058155,304.65
-97.62436963,33.35059211,304.55
-97.62437337,33.35059359,304.57
-97.62457070,33.35059813,305.62
-97.62457500,33.35059817,305.67
-97.62457994,33.35059823,305.69
-97.62458467,33.35059828,305.72
-97.62458951,33.35059833,305.72
-97.62459380,33.35059838,305.77
-97.62475959,33.35060022,309.99
-97.62476840,33.35060031,310.31
-97.62477324,33.35060037,310.49
-97.62478720,33.35060052,310.59
-97.62480128,33.35060068,311.46
-97.62483727,33.35060108,312.08
-97.62484200,33.35060113,312.46
-97.62485113,33.35060123,312.55
-97.62485597,33.35060128,312.51
-97.62486070,33.35060134,312.55
-97.62486542,33.35060139,312.66
-97.62486983,33.35060144,313.05
-97.62487423,33.35060149,312.78
-97.62510331,33.35060402,305.43
-97.62510760,33.35060407,305.43
-97.62511663,33.35060417,305.46
-97.62512114,33.35060422,305.44
-97.62518507,33.35060493,307.00
-97.62529853,33.35060619,310.70
-97.62530337,33.35060624,310.70
-97.62530809,33.35060629,310.78
-97.62532561,33.35060649,311.17
-97.62538040,33.35060709,312.35
-97.62540254,33.35060734,312.90
-97.62556725,33.35060916,304.23
-97.62557198,33.35060921,304.23
-97.62557649,33.35060926,304.18
-97.62558122,33.35060931,304.18
-97.62569908,33.35061062,307.13
-97.62572132,33.35061087,307.88
-97.62574872,33.35061117,308.59
     </coordinates>
    </LineString>
   </MultiGeometry>
  </Placemark>
 </Document>
</kml>
