<kml>
 <Document>
  <Style id="yellow">
   <LineStyle>
   <color>ff00ffff</color>
   <width>1</width>
   </LineStyle>
  </Style>
  <Style id="red">
   <LineStyle>
   <color>ffff0000</color>
   <width>2</width>
   </LineStyle>
  </Style>
  <Style id="green">
   <LineStyle>
   <color>ff00ff00</color>
   <width>1</width>
   </LineStyle>
  </Style>
  <Placemark>
  <styleUrl>#yellow</styleUrl>
   <MultiGeometry>
    <LineString>
     <coordinates>
-97.57492820,33.40415058,274.36
-97.57496400,33.40415099,286.70
-97.57498614,33.40415125,283.72
-97.57502184,33.40415166,279.38
-97.57504044,33.40415187,276.88
-97.57506785,33.40415218,273.23
-97.57517912,33.40415346,279.12
-97.57530447,33.40415490,279.18
-97.57547380,33.40415685,274.50
-97.57551175,33.40415728,288.24
-97.57554529,33.40415767,284.07
-97.57561313,33.40415845,275.46
-97.57565527,33.40415893,285.84
-97.57566527,33.40415905,284.49
-97.57587061,33.40416140,276.40
-97.57600629,33.40416296,276.80
-97.57612293,33.40416430,282.81
-97.57615734,33.40416469,276.25
-97.57627807,33.40416608,277.32
-97.57629419,33.40416626,275.40
-97.57640482,33.40416753,274.97
-97.57656103,33.40416933,275.15
-97.57664746,33.40417032,280.71
-97.57668832,33.40417079,275.66
-97.57674250,33.40417141,275.07
-97.57674723,33.40417146,275.06
-97.57684861,33.40417263,278.19
-97.57685624,33.40417271,274.76
-97.57687388,33.40417292,278.60
-97.57687936,33.40417298,278.74
-97.57688592,33.40417305,279.31
-97.57689118,33.40417311,279.42
-97.57689559,33.40417317,279.32
-97.57695451,33.40417384,276.40
-97.57720962,33.40417677,279.48
-97.57722252,33.40417691,277.94
-97.57731993,33.40417803,282.10
-97.57732670,33.40417811,281.18
-97.57734003,33.40417826,279.53
-97.57743410,33.40417934,273.90
-97.57750721,33.40418018,276.62
-97.57757214,33.40418092,278.62
-97.57757676,33.40418098,278.62
-97.57758676,33.40418109,278.92
-97.57779457,33.40418347,277.70
-97.57789434,33.40418462,281.09
-97.57790230,33.40418471,279.97
-97.57790961,33.40418479,279.00
-97.57803894,33.40418628,277.68
-97.57836308,33.40418999,275.68
-97.57839898,33.40419040,274.06
-97.57840382,33.40419046,274.06
-97.57840823,33.40419051,274.03
-97.57841307,33.40419056,274.14
-97.57846553,33.40419116,275.78
-97.57856218,33.40419227,279.47
-97.57856713,33.40419233,279.70
-97.57857153,33.40419238,279.76
-97.57858035,33.40419248,279.73
-97.57865625,33.40419335,274.09
-97.57875473,33.40419448,285.65
-97.57876419,33.40419459,286.16
-97.57926260,33.40420002,273.14
-97.57931270,33.40420087,272.91
-97.57931721,33.40420092,272.86
-97.57933119,33.40420108,273.36
-97.57933602,33.40420114,273.65
-97.57934549,33.40420124,273.71
-97.57935452,33.40420135,274.14
-97.57936333,33.40420145,274.54
-97.57936806,33.40420150,274.51
-97.57989443,33.40420681,270.86
-97.58006428,33.40420947,271.04
-97.58006869,33.40420952,271.23
-97.58007299,33.40420957,271.25
-97.58008622,33.40420972,272.13
-97.58009095,33.40420978,272.33
-97.58028801,33.40421203,278.62
-97.58030123,33.40421219,279.22
-97.58030586,33.40421224,279.17
-97.58034166,33.40421265,280.45
-97.58034596,33.40421270,280.43
-97.58035079,33.40421275,280.48
-97.58035477,33.40421280,280.98
-97.58035939,33.40421285,281.02
-97.58039079,33.40421321,281.95
-97.58039541,33.40421326,282.05
-97.58039960,33.40421331,282.31
-97.58040810,33.40421341,282.72
-97.58042605,33.40421361,283.03
-97.58043024,33.40421366,283.41
-97.58047884,33.40421422,284.86
-97.58048314,33.40421427,285.36
-97.58049238,33.40421437,285.12
-97.58051167,33.40421180,280.56
-97.58051254,33.40420441,278.58
-97.58051273,33.40419973,281.45
-97.58051598,33.40401326,273.62
-97.58051807,33.40388449,280.36
-97.58051853,33.40385600,279.50
-97.58052241,33.40361777,275.74
-97.58052533,33.40343815,275.84
-97.58052563,33.40342003,280.60
-97.58052637,33.40337413,282.92
-97.58052664,33.40335745,289.21
-97.58053137,33.40306692,276.97
-97.58053189,33.40303464,288.35
-97.58053281,33.40297855,289.63
-97.58053293,33.40297080,289.78
-97.58053333,33.40294609,277.48
-97.58053376,33.40291958,285.53
-97.58053399,33.40290588,288.77
-97.58053440,33.40288027,288.98
-97.58053519,33.40283203,278.02
-97.58053547,33.40281462,287.84
-97.58053617,33.40277152,289.22
-97.58053790,33.40266548,292.03
-97.58053860,33.40262247,288.43
-97.58053867,33.40261769,289.84
-97.58053878,33.40261102,279.17
-97.58053911,33.40259073,285.50
-97.58054021,33.40252328,285.04
-97.58054332,33.40233203,287.56
-97.58054372,33.40230751,286.07
-97.58054377,33.40230435,280.91
-97.58054393,33.40229461,288.62
-97.58054419,33.40227847,289.08
-97.58054427,33.40227360,289.28
-97.58054508,33.40222356,290.68
-97.58054657,33.40213213,292.74
-97.58054861,33.40200661,282.38
-97.58054975,33.40193655,292.20
-97.58055221,33.40178515,289.23
-97.58055428,33.40165819,292.97
-97.58055431,33.40165657,284.17
-97.58055545,33.40158633,284.32
-97.58055578,33.40156613,290.37
-97.58055608,33.40154773,289.30
-97.58055673,33.40150752,294.08
-97.58056009,33.40130085,292.46
-97.58056039,33.40128236,295.97
-97.58056045,33.40127903,292.67
-97.58056054,33.40127307,294.60
-97.58056167,33.40120364,285.81
-97.58056361,33.40108444,293.16
-97.58056439,33.40103647,294.14
-97.58056602,33.40093638,296.23
-97.58056728,33.40085901,296.41
-97.58056791,33.40082006,286.77
-97.58056807,33.40080996,293.80
-97.58057040,33.40066695,287.26
-97.58057105,33.40062710,286.97
-97.58057183,33.40057876,293.88
-97.58057191,33.40057398,293.64
-97.58057248,33.40053918,296.80
-97.58057261,33.40053115,290.49
-97.58057720,33.40024910,293.37
-97.58057837,33.40017660,287.19
-97.58057929,33.40012061,287.18
-97.58058003,33.40007480,287.10
-97.58058202,33.39995271,287.41
-97.58058284,33.39990195,289.89
-97.58058290,33.39989825,287.77
-97.58058480,33.39978121,289.02
-97.58058651,33.39967625,287.95
-97.58058698,33.39964722,288.16
-97.58058976,33.39947634,288.04
-97.58059010,33.39945578,288.30
-97.58059120,33.39938780,294.09
-97.58059196,33.39934091,289.25
-97.58059340,33.39925281,288.12
-97.58059607,33.39908861,297.01
-97.58059611,33.39908582,292.92
-97.58059812,33.39896210,288.33
-97.58059878,33.39892180,287.95
-97.58059886,33.39891711,287.83
-97.58060193,33.39872802,295.73
-97.58060428,33.39858366,296.11
-97.58060433,33.39858032,296.60
-97.58060784,33.39836454,287.65
-97.58060924,33.39827843,287.77
-97.58061270,33.39806563,288.69
-97.58061322,33.39803380,288.71
-97.58061341,33.39802190,288.81
-97.58061349,33.39801703,290.77
-97.58061536,33.39790206,288.37
-97.58061723,33.39778736,288.54
-97.58061961,33.39763425,289.09
-97.58062458,33.39733507,290.47
-97.58062504,33.39730685,290.46
-97.58062647,33.39721875,290.66
-97.58062986,33.39699747,290.32
-97.58063396,33.39675167,290.68
-97.58063725,33.39655600,290.06
-97.58063862,33.39647178,290.19
-97.58064150,33.39629478,290.35
-97.58064345,33.39617467,290.85
-97.58064483,33.39609000,290.88
-97.58064616,33.39600822,290.83
-97.58064838,33.39587161,290.45
-97.58064895,33.39583617,296.86
-97.58064906,33.39582968,290.56
-97.58064990,33.39577774,298.65
-97.58065049,33.39574140,296.19
-97.58065478,33.39547747,289.67
-97.58065783,33.39529010,288.91
-97.58065904,33.39521589,288.73
-97.58065856,33.39519866,288.69
-97.58064997,33.39519838,288.68
-97.58064126,33.39519810,288.69
-97.58060935,33.39519710,288.67
-97.58043133,33.39519507,288.58
-97.58020000,33.39519242,288.94
-97.58002768,33.39519045,289.06
-97.57985515,33.39518847,293.93
-97.57985063,33.39518842,293.35
-97.57978904,33.39518772,288.83
-97.57960758,33.39518564,288.77
-97.57936313,33.39518284,288.11
-97.57915814,33.39518049,287.64
-97.57897593,33.39517841,287.53
-97.57877889,33.39517615,287.30
-97.57876921,33.39517604,286.68
-97.57861947,33.39517432,286.30
-97.57857497,33.39517381,286.16
-97.57850208,33.39517298,285.81
-97.57803166,33.39516885,285.72
-97.57781453,33.39516519,285.83
-97.57777433,33.39516464,285.85
-97.57762437,33.39516292,286.51
-97.57741045,33.39516047,286.53
-97.57727167,33.39515888,286.56
-97.57725673,33.39515870,286.61
-97.57702465,33.39515604,286.62
-97.57699003,33.39515565,286.47
-97.57686190,33.39515418,286.19
-97.57683835,33.39515391,286.16
-97.57664002,33.39515163,285.53
-97.57648877,33.39514990,285.39
-97.57632613,33.39514803,285.15
-97.57580509,33.39514214,283.58
-97.57569319,33.39514085,283.21
-97.57555097,33.39513922,282.79
-97.57501940,33.39513303,289.46
-97.57501499,33.39513298,290.75
-97.57489331,33.39513158,282.87
-97.57474722,33.39512990,289.16
-97.57462629,33.39512851,288.22
-97.57461038,33.39512833,292.57
-97.57460629,33.39512828,293.59
-97.57451675,33.39512725,282.98
-97.57439130,33.39512581,283.01
-97.57416211,33.39512318,283.00
-97.57415717,33.39512312,282.90
-97.57414685,33.39512300,283.02
-97.57387091,33.39511983,285.76
-97.57385414,33.39511964,290.55
-97.57384769,33.39511957,292.34
-97.57371385,33.39511803,290.44
-97.57371117,33.39511800,291.58
-97.57369902,33.39511786,286.07
-97.57369644,33.39511783,289.98
-97.57369375,33.39511780,292.41
-97.57369235,33.39511778,289.80
-97.57369117,33.39511777,291.68
-97.57368784,33.39511773,291.23
-97.57349585,33.39511552,286.69
-97.57349262,33.39511548,287.72
-97.57314337,33.39511147,283.93
-97.57313885,33.39511142,283.85
-97.57313412,33.39511136,283.87
-97.57312327,33.39511124,283.87
-97.57300448,33.39510987,284.09
-97.57298997,33.39510970,288.39
-97.57287538,33.39510839,284.45
-97.57273929,33.39510682,284.37
-97.57266479,33.39510596,284.15
-97.57265985,33.39510591,284.18
-97.57265501,33.39510585,284.17
-97.57250409,33.39510411,283.67
-97.57225964,33.39510130,282.84
-97.57210495,33.39509952,282.30
-97.57210033,33.39509947,282.25
-97.57178407,33.39509583,281.69
-97.57156736,33.39509333,278.45
-97.57156371,33.39509329,278.65
-97.57156242,33.39509328,278.63
-97.57155812,33.39509323,278.55
-97.57103568,33.39508721,280.46
-97.57103106,33.39508716,280.72
-97.57101881,33.39508702,288.63
-97.57101418,33.39508696,288.64
-97.57100978,33.39508691,288.64
-97.57097322,33.39508676,290.46
-97.57096011,33.39508670,290.47
-97.57091517,33.39508654,290.44
-97.57040081,33.39507990,282.80
-97.57039651,33.39507985,282.80
-97.57039210,33.39507980,282.82
-97.57037974,33.39507966,288.96
-97.57037953,33.39507965,287.92
-97.57031395,33.39507935,292.69
-97.57028804,33.39507923,294.09
-97.57026535,33.39507915,293.86
-97.56991175,33.39507814,284.43
-97.56990867,33.39516099,284.20
-97.56990514,33.39535692,283.60
-97.56990454,33.39539299,283.46
-97.56989844,33.39577188,291.46
-97.56989159,33.39618387,281.92
-97.56988869,33.39636096,281.32
-97.56988817,33.39639252,283.71
-97.56988576,33.39653932,281.08
-97.56988473,33.39660235,281.10
-97.56988416,33.39663706,289.66
-97.56988360,33.39667169,289.79
-97.56988330,33.39668972,289.81
-97.56988208,33.39676438,281.17
-97.56988187,33.39677737,281.06
-97.56988164,33.39679116,280.89
-97.56988151,33.39679901,282.59
-97.56987746,33.39704616,283.27
-97.56987727,33.39705752,284.49
-97.56987550,33.39716582,281.50
-97.56987414,33.39724896,281.62
-97.56987222,33.39736636,281.61
-97.56987099,33.39744111,281.61
-97.56986702,33.39768348,282.23
-97.56986407,33.39786364,282.77
-97.56986333,33.39790873,282.86
-97.56985798,33.39823532,283.04
-97.56985648,33.39832694,283.05
-97.56985573,33.39837274,282.87
-97.56985512,33.39840971,282.88
-97.56985452,33.39844668,282.78
-97.56984956,33.39874902,287.56
-97.56984937,33.39876065,286.00
-97.56984916,33.39877346,285.95
-97.56984762,33.39886777,286.01
-97.56984729,33.39888752,289.88
-97.56984690,33.39891178,291.23
-97.56984633,33.39894613,280.59
-97.56984486,33.39903621,287.57
-97.56984399,33.39908941,287.81
-97.56984121,33.39925857,278.47
-97.56984049,33.39930257,286.10
-97.56984035,33.39931123,277.91
-97.56983949,33.39936389,277.89
-97.56983863,33.39941646,277.26
-97.56983797,33.39945631,284.90
-97.56983670,33.39953377,276.10
-97.56983619,33.39956551,281.25
-97.56983517,33.39962736,275.28
-97.56983309,33.39975414,287.25
-97.56983236,33.39979914,284.60
-97.56983208,33.39981591,286.77
-97.56983195,33.39982384,282.57
-97.56983101,33.39988146,286.09
-97.56983094,33.39988561,286.28
-97.56983055,33.39990960,285.56
-97.56982834,33.40004413,278.58
-97.56982741,33.40010085,275.26
-97.56982559,33.40021203,271.09
-97.56982546,33.40022023,275.80
-97.56982437,33.40028651,277.38
-97.56982343,33.40034385,282.68
-97.56982330,33.40035197,271.19
-97.56982168,33.40045080,280.89
-97.56982141,33.40046721,276.13
-97.56982040,33.40052888,281.31
-97.56982026,33.40053718,282.52
-97.56981965,33.40057451,279.21
-97.56981959,33.40057811,279.25
-97.56981937,33.40059173,282.54
-97.56981568,33.40081688,280.57
-97.56981537,33.40083582,281.23
-97.56981365,33.40094078,275.90
-97.56980904,33.40122202,277.95
-97.56980853,33.40125331,273.67
-97.56980815,33.40127639,273.57
-97.56980764,33.40130741,273.15
-97.56980756,33.40131237,273.16
-97.56980502,33.40146737,282.66
-97.56980226,33.40163608,277.48
-97.56980032,33.40175411,278.75
-97.56979698,33.40195834,271.40
-97.56979686,33.40196565,273.95
-97.56979594,33.40202128,279.53
-97.56979468,33.40209838,276.90
-97.56979427,33.40212353,270.42
-97.56979283,33.40221127,275.49
-97.56979255,33.40222813,277.18
-97.56979157,33.40228791,275.55
-97.56979150,33.40229242,273.77
-97.56978983,33.40239413,274.15
-97.56978897,33.40244688,276.04
-97.56978824,33.40249134,274.10
-97.56978804,33.40250369,268.08
-97.56978784,33.40251568,272.25
-97.56978709,33.40256149,268.61
-97.56978648,33.40259855,267.29
-97.56978545,33.40266185,268.17
-97.56978516,33.40267943,270.69
-97.56978432,33.40273038,272.71
-97.56978357,33.40277654,266.79
-97.56978107,33.40292911,272.57
-97.56978080,33.40294543,273.06
-97.56977816,33.40310675,271.78
-97.56977802,33.40311522,272.89
-97.56977667,33.40319755,270.36
-97.56977516,33.40328979,272.51
-97.56977468,33.40331900,271.57
-97.56977320,33.40340899,271.64
-97.56977266,33.40344218,264.73
-97.56977088,33.40355056,263.93
-97.56976992,33.40360917,271.35
-97.56976977,33.40361828,263.13
-97.56976971,33.40362234,270.20
-97.56976836,33.40370439,275.38
-97.56976802,33.40372540,266.41
-97.56976774,33.40374208,266.86
-97.56976761,33.40375047,270.07
-97.56976752,33.40375588,265.38
-97.56976704,33.40378536,269.91
-97.56976647,33.40381972,264.80
-97.56976511,33.40390285,265.66
-97.56976432,33.40395109,264.75
-97.56976398,33.40397192,273.00
-97.56976240,33.40406813,264.33
-97.56976250,33.40408843,260.01
-97.56976398,33.40409007,264.60
-97.56977021,33.40409032,265.70
-97.56977902,33.40409060,263.25
-97.56988899,33.40409259,270.29
-97.56989738,33.40409269,269.83
-97.56990533,33.40409278,268.46
-97.56990888,33.40409282,267.08
-97.56991350,33.40409287,267.21
-97.56991769,33.40409292,266.35
-97.56992501,33.40409301,264.25
-97.56992963,33.40409306,263.92
-97.56993801,33.40409316,262.64
-97.57024763,33.40409673,270.96
-97.57024785,33.40409673,271.70
-97.57025258,33.40409678,271.18
-97.57025667,33.40409683,269.57
-97.57025688,33.40409683,270.29
-97.57026548,33.40409693,269.06
-97.57027817,33.40409708,267.14
-97.57068702,33.40410179,265.60
-97.57110157,33.40410656,274.50
-97.57110598,33.40410661,274.53
-97.57111630,33.40410673,272.12
-97.57112103,33.40410679,272.07
-97.57115231,33.40410715,264.86
-97.57115661,33.40410720,264.89
-97.57139614,33.40410996,266.23
-97.57148602,33.40411099,270.28
-97.57149290,33.40411107,273.76
-97.57150268,33.40411118,267.09
-97.57152461,33.40411144,269.82
-97.57175048,33.40411404,277.49
-97.57181467,33.40411478,269.57
-97.57187724,33.40411550,276.50
-97.57188197,33.40411555,276.56
-97.57188326,33.40411556,275.52
-97.57188756,33.40411562,275.57
-97.57189433,33.40411569,273.76
-97.57189852,33.40411574,273.90
-97.57190003,33.40411576,276.74
-97.57191594,33.40411594,271.07
-97.57191701,33.40411595,270.24
-97.57192185,33.40411601,270.30
-97.57213945,33.40411851,281.11
-97.57214041,33.40411853,280.46
-97.57214493,33.40411858,280.63
-97.57214708,33.40411860,279.22
-97.57215084,33.40411865,279.67
-97.57215643,33.40411871,278.81
-97.57218449,33.40411903,272.90
-97.57218954,33.40411909,272.84
-97.57219610,33.40411917,271.75
-97.57230651,33.40412044,281.58
-97.57230974,33.40412047,280.94
-97.57232834,33.40412069,278.90
-97.57233511,33.40412077,277.86
-97.57233930,33.40412081,277.53
-97.57234274,33.40412085,277.09
-97.57256260,33.40412338,278.75
-97.57259528,33.40412376,273.74
-97.57263312,33.40412420,277.36
-97.57272956,33.40412530,283.00
-97.57273697,33.40412539,281.99
-97.57278890,33.40412599,275.73
-97.57279621,33.40412607,274.74
-97.57297575,33.40412814,281.91
-97.57297983,33.40412818,282.01
-97.57298241,33.40412821,280.92
-97.57298790,33.40412828,280.72
-97.57299532,33.40412836,279.70
-97.57321399,33.40413088,276.39
-97.57328032,33.40413164,285.75
-97.57333461,33.40413226,286.01
-97.57334482,33.40413238,284.06
-97.57334955,33.40413244,277.38
-97.57338105,33.40413280,277.73
-97.57338783,33.40413288,277.17
-97.57357941,33.40413508,284.67
-97.57363875,33.40413576,277.79
-97.57370422,33.40413651,286.01
-97.57371594,33.40413665,286.76
-97.57371841,33.40413668,285.97
-97.57372368,33.40413674,285.72
-97.57372906,33.40413680,284.02
-97.57373228,33.40413684,284.52
-97.57374776,33.40413702,281.21
-97.57375109,33.40413705,280.14
-97.57375991,33.40413715,279.48
-97.57376152,33.40413717,278.34
-97.57376690,33.40413723,278.23
-97.57376733,33.40413724,278.35
-97.57388978,33.40413865,282.35
-97.57392160,33.40413901,278.37
-97.57399159,33.40413982,285.14
-97.57399546,33.40413986,284.76
-97.57404792,33.40414047,278.12
-97.57407029,33.40414072,282.84
-97.57408598,33.40414090,279.65
-97.57409071,33.40414096,279.82
-97.57409705,33.40414103,278.00
-97.57410189,33.40414109,277.97
-97.57419736,33.40414218,277.70
-97.57432572,33.40414366,279.98
-97.57457546,33.40414653,285.58
-97.57465255,33.40414741,275.74
-97.57471641,33.40414815,280.60
-97.57472963,33.40414830,279.21
-97.57476027,33.40414865,275.19
-97.57485251,33.40414971,283.74
-97.57492820,33.40415058,274.36
     </coordinates>
    </LineString>
   </MultiGeometry>
  </Placemark>
 </Document>
</kml>
