<kml>
 <Document>
  <Style id="yellow">
   <LineStyle>
   <color>ff00ffff</color>
   <width>1</width>
   </LineStyle>
  </Style>
  <Style id="red">
   <LineStyle>
   <color>ffff0000</color>
   <width>2</width>
   </LineStyle>
  </Style>
  <Style id="green">
   <LineStyle>
   <color>ff00ff00</color>
   <width>1</width>
   </LineStyle>
  </Style>
  <Placemark>
  <styleUrl>#yellow</styleUrl>
   <MultiGeometry>
    <LineString>
     <coordinates>
-97.59739750,33.35029412,311.05
-97.59740234,33.35029418,310.86
-97.59788319,33.35029681,316.48
-97.59798654,33.35029834,318.63
-97.59802221,33.35029883,318.93
-97.59805391,33.35029928,319.19
-97.59814878,33.35030053,318.22
-97.59827083,33.35030218,317.86
-97.59840212,33.35030394,316.60
-97.59859390,33.35030646,314.08
-97.59882886,33.35030974,315.76
-97.59904041,33.35031267,306.30
-97.59909016,33.35031323,314.85
-97.59909650,33.35031331,313.72
-97.59910015,33.35031335,314.23
-97.59910144,33.35031336,313.23
-97.59910509,33.35031340,313.89
-97.59910939,33.35031345,313.85
-97.59911003,33.35031346,309.59
-97.59911089,33.35031347,312.70
-97.59911465,33.35031351,309.58
-97.59911541,33.35031352,312.74
-97.59912003,33.35031357,312.79
-97.59912303,33.35031360,313.96
-97.59912830,33.35031366,313.48
-97.59913593,33.35031375,311.16
-97.59913915,33.35031379,312.02
-97.59914356,33.35031384,312.31
-97.59916590,33.35031409,309.73
-97.59917396,33.35031418,310.58
-97.59919158,33.35031438,307.46
-97.59919631,33.35031443,307.56
-97.59920061,33.35031448,307.69
-97.59920501,33.35031453,308.01
-97.59929054,33.35031549,317.43
-97.59932008,33.35031583,318.88
-97.59932589,33.35031589,319.29
-97.59933706,33.35031602,319.71
-97.59936940,33.35031638,321.14
-97.59961491,33.35031915,310.87
-97.59964768,33.35031952,312.43
-97.59975007,33.35032068,317.11
-97.59975523,33.35032074,317.20
-97.59978746,33.35032110,318.66
-97.60026472,33.35032648,314.24
-97.60034681,33.35032741,323.60
-97.60035626,33.35032751,323.60
-97.60036078,33.35032756,323.72
-97.60036529,33.35032761,323.93
-97.60036830,33.35032765,322.76
-97.60036980,33.35032767,324.06
-97.60037474,33.35032772,322.18
-97.60037678,33.35032774,323.15
-97.60037840,33.35032776,322.52
-97.60038087,33.35032779,323.28
-97.60038302,33.35032781,322.46
-97.60038678,33.35032786,321.02
-97.60038731,33.35032786,319.65
-97.60038882,33.35032788,322.05
-97.60039129,33.35032791,321.10
-97.60039344,33.35032793,321.99
-97.60039623,33.35032796,320.95
-97.60039892,33.35032799,321.82
-97.60043491,33.35032840,319.04
-97.60043727,33.35032843,318.14
-97.60043964,33.35032845,319.02
-97.60044523,33.35032852,318.79
-97.60044770,33.35032854,322.26
-97.60047907,33.35032890,315.03
-97.60048369,33.35032895,314.99
-97.60048767,33.35032899,324.40
-97.60048863,33.35032901,315.06
-97.60049239,33.35032905,324.29
-97.60049336,33.35032906,315.03
-97.60052334,33.35032940,326.03
-97.60078883,33.35033239,315.69
-97.60079323,33.35033244,315.63
-97.60132400,33.35033842,315.42
-97.60132851,33.35033847,315.40
-97.60175657,33.35034329,314.95
-97.60176119,33.35034334,314.98
-97.60176559,33.35034339,315.00
-97.60222802,33.35034860,313.73
-97.60223264,33.35034865,313.74
-97.60224156,33.35034866,313.74
-97.60225059,33.35034867,313.75
-97.60225951,33.35034868,313.83
-97.60226821,33.35034869,313.89
-97.60228616,33.35034871,313.80
-97.60280660,33.35035511,313.23
-97.60281112,33.35035516,313.23
-97.60285582,33.35035521,313.38
-97.60287388,33.35035515,313.40
-97.60287817,33.35035511,313.39
-97.60287974,33.35033817,313.32
-97.60288042,33.35031572,313.16
-97.60288318,33.35015639,312.74
-97.60288475,33.35005774,312.99
-97.60288725,33.34990165,311.89
-97.60289226,33.34958100,311.37
-97.60289564,33.34937631,310.46
-97.60290059,33.34906612,309.93
-97.60290548,33.34876053,308.76
-97.60290725,33.34864953,308.51
-97.60290781,33.34861472,308.40
-97.60290875,33.34855566,308.18
-97.60290882,33.34855133,308.20
-97.60291600,33.34810164,306.64
-97.60291831,33.34795710,306.25
-97.60291991,33.34785728,305.95
-97.60292200,33.34772635,311.00
-97.60292255,33.34769163,311.65
-97.60292421,33.34758793,312.02
-97.60292527,33.34752175,304.28
-97.60293020,33.34721273,309.63
-97.60293460,33.34693761,305.73
-97.60293587,33.34685763,308.86
-97.60293591,33.34685547,301.61
-97.60294205,33.34647125,300.07
-97.60294280,33.34642381,308.67
-97.60294641,33.34619811,310.42
-97.60294711,33.34615411,304.33
-97.60295055,33.34593860,297.79
-97.60295067,33.34593121,309.46
-97.60295268,33.34580569,303.56
-97.60295414,33.34571425,306.52
-97.60295549,33.34562949,304.90
-97.60295580,33.34560983,311.86
-97.60295660,33.34556033,306.93
-97.60295696,33.34553779,307.10
-97.60295794,33.34547593,311.25
-97.60295806,33.34546853,305.57
-97.60296486,33.34504283,305.33
-97.60296640,33.34494662,309.43
-97.60296727,33.34489207,306.09
-97.60296951,33.34475167,305.19
-97.60297020,33.34470857,305.84
-97.60297142,33.34463219,304.81
-97.60297274,33.34454977,311.49
-97.60297354,33.34449937,310.67
-97.60297403,33.34446889,308.42
-97.60297720,33.34427033,308.23
-97.60297942,33.34413156,298.29
-97.60297961,33.34411956,300.96
-97.60298112,33.34402488,300.53
-97.60298250,33.34393859,298.29
-97.60298458,33.34380793,300.67
-97.60298774,33.34361036,294.80
-97.60298850,33.34356248,310.62
-97.60299042,33.34344237,310.28
-97.60299183,33.34335454,307.00
-97.60299215,33.34333399,310.42
-97.60299321,33.34326771,308.29
-97.60299599,33.34309377,300.23
-97.60299708,33.34302533,301.22
-97.60299747,33.34300134,304.09
-97.60299771,33.34298601,301.00
-97.60300040,33.34281757,302.13
-97.60300176,33.34273218,312.08
-97.60300405,33.34258935,310.57
-97.60300405,33.34258908,303.19
-97.60300425,33.34257663,309.72
-97.60300494,33.34253335,312.34
-97.60300555,33.34249521,311.13
-97.60300652,33.34243425,305.44
-97.60301061,33.34217825,307.25
-97.60301255,33.34205697,305.12
-97.60301366,33.34198709,314.01
-97.60301709,33.34177266,305.96
-97.60301769,33.34173524,310.51
-97.60301774,33.34173172,303.89
-97.60301800,33.34171585,316.05
-97.60301834,33.34169430,316.13
-97.60301918,33.34164164,309.28
-97.60302041,33.34156436,302.90
-97.60302091,33.34153325,302.69
-97.60302295,33.34140548,306.46
-97.60302379,33.34134650,301.56
-97.60302378,33.34134028,305.59
-97.60302057,33.34133934,303.81
-97.60287630,33.34133718,302.22
-97.60250738,33.34133303,310.34
-97.60240048,33.34133183,310.09
-97.60238673,33.34133167,309.89
-97.60231024,33.34133081,309.79
-97.60226146,33.34133026,309.65
-97.60214920,33.34132900,309.22
-97.60214469,33.34132895,309.15
-97.60207110,33.34132812,299.77
-97.60204563,33.34132783,308.83
-97.60201695,33.34132751,299.36
-97.60193928,33.34132663,299.15
-97.60186203,33.34132576,298.92
-97.60183034,33.34132541,298.77
-97.60180241,33.34132509,308.02
-97.60131811,33.34131964,306.55
-97.60119477,33.34131825,306.07
-97.60114331,33.34131767,296.57
-97.60113869,33.34131762,296.54
-97.60113397,33.34131756,296.53
-97.60112956,33.34131751,296.60
-97.60111098,33.34131730,296.45
-97.60110163,33.34131720,296.59
-97.60108766,33.34131704,296.40
-97.60107886,33.34131694,296.46
-97.60107413,33.34131689,296.49
-97.60106972,33.34131684,296.43
-97.60106478,33.34131678,296.38
-97.60105114,33.34131663,296.37
-97.60104641,33.34131658,296.37
-97.60104179,33.34131653,296.34
-97.60103706,33.34131647,296.35
-97.60092791,33.34131524,310.98
-97.60092383,33.34131520,310.85
-97.60091900,33.34131514,310.82
-97.60090460,33.34131498,310.84
-97.60089579,33.34131488,310.41
-97.60088183,33.34131472,310.03
-97.60087291,33.34131462,309.90
-97.60086797,33.34131457,309.83
-97.60084251,33.34131428,308.74
-97.60081876,33.34131401,308.36
-97.60079534,33.34131375,304.92
-97.60078299,33.34131361,307.36
-97.60076752,33.34131344,307.65
-97.60075033,33.34131324,306.72
-97.60074528,33.34131318,306.71
-97.60074152,33.34131314,306.38
-97.60073045,33.34131302,304.67
-97.60069994,33.34131267,305.76
-97.60067190,33.34131236,305.20
-97.60066374,33.34131227,304.65
-97.60065815,33.34131220,304.99
-97.60063215,33.34131191,303.96
-97.60062689,33.34131185,304.00
-97.60061668,33.34131174,304.17
-97.60061389,33.34131170,303.40
-97.60048454,33.34131025,303.98
-97.60047982,33.34131019,303.93
-97.60045833,33.34130995,312.81
-97.60035240,33.34130876,297.92
-97.60034886,33.34130872,297.26
-97.60034445,33.34130867,297.22
-97.60033951,33.34130861,297.13
-97.60033328,33.34130854,312.47
-97.60029836,33.34130815,296.43
-97.60029364,33.34130809,296.44
-97.60015118,33.34130649,302.94
-97.59993288,33.34130403,319.07
-97.59992826,33.34130398,319.10
-97.59992418,33.34130393,318.92
-97.59991795,33.34130386,320.28
-97.59991311,33.34130380,320.25
-97.59985188,33.34130311,320.02
-97.59979999,33.34130253,319.90
-97.59979526,33.34130248,319.92
-97.59979064,33.34130242,319.93
-97.59959587,33.34130023,319.38
-97.59927389,33.34129660,318.44
-97.59917151,33.34129544,299.70
-97.59916722,33.34129539,299.69
-97.59904120,33.34129415,299.79
-97.59898254,33.34129358,318.23
-97.59846321,33.34128799,323.86
-97.59833397,33.34128635,322.43
-97.59815123,33.34128402,320.32
-97.59791424,33.34128125,315.29
-97.59771087,33.34127895,310.01
-97.59770647,33.34127890,310.04
-97.59770206,33.34127885,309.78
-97.59769744,33.34127880,309.89
-97.59766521,33.34127844,308.68
-97.59759195,33.34127761,307.06
-97.59758292,33.34127751,306.94
-97.59756530,33.34127731,306.46
-97.59756058,33.34127726,306.53
-97.59754672,33.34127710,306.16
-97.59754178,33.34127704,305.64
-97.59753705,33.34127699,305.78
-97.59746829,33.34127621,304.27
-97.59738095,33.34127523,302.01
-97.59717157,33.34127286,296.35
-97.59716673,33.34127281,296.35
-97.59716243,33.34127276,296.44
-97.59715782,33.34127271,296.37
-97.59715352,33.34127266,296.42
-97.59714901,33.34127261,296.43
-97.59683733,33.34126990,295.32
-97.59652751,33.34126558,306.28
-97.59645844,33.34126480,306.17
-97.59642438,33.34126442,306.11
-97.59622724,33.34126219,309.72
-97.59621865,33.34126209,306.15
-97.59617911,33.34126165,306.17
-97.59617310,33.34126158,308.12
-97.59616891,33.34126153,308.38
-97.59616375,33.34126147,307.91
-97.59616031,33.34126143,306.17
-97.59615913,33.34126142,307.84
-97.59613474,33.34126114,307.31
-97.59612905,33.34126108,306.79
-97.59601528,33.34125979,306.08
-97.59600991,33.34125973,306.14
-97.59600572,33.34125969,306.03
-97.59597800,33.34125937,303.41
-97.59595877,33.34125916,302.96
-97.59589442,33.34125843,301.24
-97.59588937,33.34125837,301.09
-97.59586004,33.34125804,300.28
-97.59585413,33.34125797,299.78
-97.59582459,33.34125764,299.30
-97.59581975,33.34125758,299.20
-97.59578011,33.34125714,298.18
-97.59577517,33.34125708,298.19
-97.59577055,33.34125703,305.99
-97.59574950,33.34125679,297.42
-97.59571834,33.34125644,305.87
-97.59570942,33.34125634,296.10
-97.59569449,33.34125617,296.07
-97.59568998,33.34125612,296.08
-97.59554483,33.34125474,306.85
-97.59507192,33.34124958,294.42
-97.59496406,33.34124826,294.18
-97.59464541,33.34124475,294.22
-97.59458709,33.34125013,294.24
-97.59458154,33.34125476,294.26
-97.59421301,33.34142699,131.50
-97.59390379,33.34125123,294.71
-97.59389468,33.34123625,294.17
-97.59389017,33.34123620,294.20
-97.59388588,33.34123615,294.26
-97.59386740,33.34123594,294.33
-97.59386278,33.34123589,294.33
-97.59385805,33.34123584,294.35
-97.59384892,33.34123573,294.35
-97.59357260,33.34123269,294.81
-97.59349858,33.34123203,295.25
-97.59298946,33.34122654,295.82
-97.59294284,33.34122592,295.65
-97.59289267,33.34122526,295.39
-97.59275913,33.34122357,294.96
-97.59268490,33.34122264,294.75
-97.59229590,33.34121778,293.55
-97.59229096,33.34121772,293.52
-97.59228644,33.34121767,293.51
-97.59228150,33.34121761,293.40
-97.59228087,33.34123654,293.40
-97.59227619,33.34151454,292.00
-97.59227512,33.34158109,291.96
-97.59227471,33.34160643,291.54
-97.59227413,33.34164222,290.63
-97.59227361,33.34167487,290.39
-97.59227154,33.34180327,289.35
-97.59227020,33.34188668,288.61
-97.59226671,33.34210318,286.52
-97.59226559,33.34217270,286.53
-97.59226445,33.34224376,287.18
-97.59226277,33.34234800,298.12
-97.59226217,33.34238551,297.32
-97.59226184,33.34240625,289.19
-97.59225943,33.34255593,293.97
-97.59225933,33.34256224,290.77
-97.59225904,33.34257992,292.60
-97.59225713,33.34269849,282.44
-97.59225676,33.34272176,282.34
-97.59225653,33.34273609,282.13
-97.59225369,33.34291274,293.25
-97.59225319,33.34294376,293.44
-97.59225305,33.34295224,289.48
-97.59225258,33.34298172,288.26
-97.59225249,33.34298731,290.91
-97.59225181,33.34302951,301.82
-97.59225176,33.34303258,298.65
-97.59225137,33.34305674,302.44
-97.59225125,33.34306387,288.39
-97.59225048,33.34311193,304.19
-97.59225030,33.34312311,288.44
-97.59225017,33.34313123,300.49
-97.59224949,33.34317343,295.97
-97.59224901,33.34320318,295.45
-97.59224895,33.34320697,295.69
-97.59224824,33.34325088,298.48
-97.59224811,33.34325936,297.43
-97.59224803,33.34326414,299.49
-97.59224734,33.34330715,292.81
-97.59224720,33.34331545,292.69
-97.59224682,33.34333925,292.28
-97.59224536,33.34342996,288.91
-97.59224428,33.34349705,296.97
-97.59224408,33.34350977,298.59
-97.59224402,33.34351364,296.88
-97.59224353,33.34354376,300.65
-97.59224352,33.34354448,300.48
-97.59224233,33.34361815,289.58
-97.59224221,33.34362582,295.45
-97.59224207,33.34363447,295.30
-97.59224148,33.34367117,289.72
-97.59223983,33.34377352,297.87
-97.59223927,33.34380877,301.21
-97.59223856,33.34385260,301.56
-97.59223808,33.34388271,302.15
-97.59223777,33.34390183,300.19
-97.59223719,33.34393781,298.71
-97.59223716,33.34393979,305.69
-97.59223596,33.34401437,304.82
-97.59223579,33.34402446,305.45
-97.59223505,33.34407054,297.45
-97.59223460,33.34409877,296.59
-97.59223424,33.34412104,296.88
-97.59223325,33.34418254,302.28
-97.59223271,33.34421635,305.98
-97.59223261,33.34422257,292.06
-97.59223200,33.34426017,304.61
-97.59223180,33.34427271,303.20
-97.59223177,33.34427442,306.47
-97.59223019,33.34437262,304.90
-97.59222904,33.34444385,307.10
-97.59222855,33.34447460,306.42
-97.59222839,33.34448461,306.04
-97.59222835,33.34448704,300.42
-97.59222812,33.34450102,293.89
-97.59222800,33.34450868,298.88
-97.59222677,33.34458488,295.93
-97.59222624,33.34461824,307.32
-97.59222604,33.34463033,303.71
-97.59222586,33.34464169,294.87
-97.59222417,33.34474665,307.95
-97.59222404,33.34475494,307.43
-97.59222343,33.34479236,308.81
-97.59222137,33.34492068,297.23
-97.59221831,33.34511094,298.53
-97.59221713,33.34518416,299.57
-97.59221683,33.34520273,302.30
-97.59221662,33.34521581,302.90
-97.59221598,33.34525585,300.03
-97.59221504,33.34531410,300.47
-97.59221449,33.34534809,300.70
-97.59221079,33.34557830,301.45
-97.59220842,33.34572501,303.17
-97.59220790,33.34575747,311.34
-97.59220620,33.34586333,310.56
-97.59220352,33.34602952,311.41
-97.59220346,33.34603348,307.72
-97.59220288,33.34606946,309.38
-97.59220187,33.34613249,309.56
-97.59220161,33.34614818,307.67
-97.59220122,33.34617244,306.07
-97.59219961,33.34627235,307.21
-97.59219925,33.34629480,307.40
-97.59219860,33.34633511,307.70
-97.59219539,33.34653502,308.38
-97.59219538,33.34653565,308.38
-97.59219518,33.34654782,308.42
-97.59219388,33.34662844,308.60
-97.59219381,33.34663321,308.61
-97.59219323,33.34666919,308.60
-97.59219124,33.34679264,308.74
-97.59219095,33.34681085,308.75
-97.59218424,33.34722772,308.23
-97.59218357,33.34726892,313.17
-97.59218329,33.34728660,311.22
-97.59218164,33.34738903,313.23
-97.59218131,33.34740968,312.59
-97.59218109,33.34742321,308.02
-97.59218039,33.34746640,309.11
-97.59218032,33.34747100,307.77
-97.59217879,33.34756622,307.60
-97.59217812,33.34760779,311.12
-97.59217764,33.34763727,309.37
-97.59217707,33.34767271,307.85
-97.59217391,33.34786901,311.02
-97.59217378,33.34787704,316.41
-97.59217337,33.34790256,310.57
-97.59217145,33.34802204,310.19
-97.59217069,33.34806919,308.40
-97.59217063,33.34807289,308.71
-97.59217001,33.34811131,313.55
-97.59216997,33.34811392,313.66
-97.59216956,33.34813953,318.12
-97.59216880,33.34818678,313.91
-97.59216613,33.34835260,316.74
-97.59216607,33.34835648,311.02
-97.59216490,33.34842916,315.95
-97.59216429,33.34846658,315.21
-97.59216283,33.34855774,306.74
-97.59216271,33.34856478,310.26
-97.59216254,33.34857560,314.80
-97.59216233,33.34858876,313.95
-97.59216047,33.34870391,317.42
-97.59216040,33.34870833,317.42
-97.59216022,33.34871987,317.94
-97.59216020,33.34872086,318.69
-97.59215972,33.34875098,316.02
-97.59215958,33.34875964,315.70
-97.59215816,33.34884782,306.69
-97.59215787,33.34886586,307.01
-97.59215566,33.34900310,310.14
-97.59215552,33.34901131,317.41
-97.59215505,33.34904061,311.72
-97.59215386,33.34911491,315.86
-97.59215370,33.34912483,316.85
-97.59215349,33.34913791,304.96
-97.59215237,33.34920698,316.92
-97.59215181,33.34924196,310.35
-97.59215166,33.34925152,317.93
-97.59215110,33.34928597,306.72
-97.59215075,33.34930770,313.81
-97.59215062,33.34931590,313.13
-97.59215049,33.34932429,308.77
-97.59214934,33.34939535,315.33
-97.59214928,33.34939895,307.22
-97.59214896,33.34941897,307.23
-97.59214868,33.34943637,313.34
-97.59214748,33.34951122,316.23
-97.59214747,33.34951158,307.41
-97.59214734,33.34951987,307.21
-97.59214679,33.34955396,318.80
-97.59214550,33.34963403,307.47
-97.59214542,33.34963872,313.16
-97.59214539,33.34964106,312.75
-97.59214510,33.34965910,311.51
-97.59214411,33.34972005,314.98
-97.59214376,33.34974223,314.81
-97.59214269,33.34980887,315.90
-97.59214200,33.34985116,318.49
-97.59214198,33.34985270,313.04
-97.59214159,33.34987686,312.36
-97.59214134,33.34989228,319.03
-97.59214107,33.34990896,315.54
-97.59214027,33.34995919,315.03
-97.59213972,33.34999309,315.61
-97.59213922,33.35002393,308.38
-97.59213880,33.35005035,311.94
-97.59213846,33.35007163,314.56
-97.59213832,33.35007975,317.29
-97.59213780,33.35011212,308.68
-97.59213596,33.35022682,308.98
-97.59213642,33.35023169,308.85
-97.59214155,33.35023283,308.88
-97.59219761,33.35023527,314.40
-97.59234782,33.35023697,309.66
-97.59235093,33.35023701,317.37
-97.59235190,33.35023702,318.60
-97.59235254,33.35023703,309.68
-97.59235577,33.35023706,318.82
-97.59245279,33.35023816,310.04
-97.59253724,33.35023912,319.53
-97.59254164,33.35023917,319.49
-97.59290136,33.35024325,321.96
-97.59291038,33.35024335,321.84
-97.59291457,33.35024340,321.73
-97.59292349,33.35024350,321.66
-97.59294090,33.35024370,321.35
-97.59299376,33.35024430,311.58
-97.59299816,33.35024435,311.57
-97.59314203,33.35024598,317.92
-97.59315095,33.35024608,317.69
-97.59315557,33.35024613,317.57
-97.59343051,33.35024925,312.74
-97.59389187,33.35025447,324.55
-97.59389885,33.35025455,314.40
-97.59390315,33.35025460,314.34
-97.59390788,33.35025465,314.30
-97.59416950,33.35025761,319.60
-97.59438138,33.35026001,315.78
-97.59439040,33.35026012,315.71
-97.59450623,33.35026143,324.95
-97.59461259,33.35026263,323.09
-97.59461732,33.35026268,322.83
-97.59465482,33.35026311,322.32
-97.59488206,33.35026568,327.12
-97.59493138,33.35026624,317.34
-97.59494545,33.35026640,317.12
-97.59494706,33.35026642,326.12
-97.59495029,33.35026645,317.11
-97.59496640,33.35026664,325.74
-97.59498993,33.35026690,325.27
-97.59510328,33.35026818,323.30
-97.59510812,33.35026824,323.26
-97.59518902,33.35026915,321.70
-97.59520331,33.35026932,321.52
-97.59521266,33.35026942,321.31
-97.59523683,33.35026970,320.87
-97.59535223,33.35027100,318.77
-97.59545387,33.35027215,316.97
-97.59545860,33.35027220,316.96
-97.59546343,33.35027226,316.91
-97.59546870,33.35027232,316.75
-97.59547342,33.35027237,316.66
-97.59564716,33.35027434,316.67
-97.59565199,33.35027439,316.64
-97.59565693,33.35027445,316.63
-97.59566134,33.35027450,316.62
-97.59566618,33.35027455,316.62
-97.59567112,33.35027461,316.65
-97.59567165,33.35027461,321.65
-97.59567595,33.35027466,316.61
-97.59568036,33.35027471,316.60
-97.59568476,33.35027476,316.58
-97.59568562,33.35027477,321.46
-97.59569110,33.35027483,321.21
-97.59599355,33.35027825,315.97
-97.59599871,33.35027831,315.92
-97.59603234,33.35027869,326.25
-97.59609691,33.35027942,325.17
-97.59623358,33.35028097,322.43
-97.59623863,33.35028103,322.40
-97.59624927,33.35028115,322.04
-97.59637605,33.35028258,319.93
-97.59641322,33.35028300,319.17
-97.59653141,33.35028434,317.05
-97.59670386,33.35028628,314.08
-97.59670966,33.35028635,323.54
-97.59671514,33.35028641,323.42
-97.59672599,33.35028654,323.26
-97.59683687,33.35028779,321.25
-97.59726965,33.35029268,317.88
-97.59727438,33.35029273,317.71
-97.59727857,33.35029278,317.50
-97.59727910,33.35029279,318.52
-97.59728329,33.35029283,317.77
-97.59728802,33.35029289,317.68
-97.59729264,33.35029294,317.57
-97.59730081,33.35029303,316.24
-97.59730962,33.35029313,316.58
-97.59732648,33.35029332,313.80
-97.59733078,33.35029337,313.65
-97.59733143,33.35029338,315.14
-97.59733551,33.35029342,313.62
-97.59733626,33.35029343,315.23
-97.59734464,33.35029353,313.80
-97.59734948,33.35029358,314.00
-97.59739321,33.35029407,311.10
-97.59739750,33.35029412,311.05
     </coordinates>
    </LineString>
   </MultiGeometry>
  </Placemark>
 </Document>
</kml>
