<kml>
 <Document>
  <Style id="yellow">
   <LineStyle>
   <color>ff00ffff</color>
   <width>1</width>
   </LineStyle>
  </Style>
  <Style id="red">
   <LineStyle>
   <color>ffff0000</color>
   <width>2</width>
   </LineStyle>
  </Style>
  <Style id="green">
   <LineStyle>
   <color>ff00ff00</color>
   <width>1</width>
   </LineStyle>
  </Style>
  <Placemark>
  <styleUrl>#yellow</styleUrl>
   <MultiGeometry>
    <LineString>
     <coordinates>
-97.56341942,33.34990562,299.08
-97.56346648,33.34990617,300.25
-97.56348044,33.34990633,300.10
-97.56349388,33.34990648,300.02
-97.56355060,33.34990714,300.31
-97.56367481,33.34990858,300.63
-97.56367609,33.34990859,299.94
-97.56368071,33.34990865,297.46
-97.56368361,33.34990868,295.87
-97.56378665,33.34990987,290.22
-97.56393148,33.34991155,290.48
-97.56407244,33.34991318,290.58
-97.56420008,33.34991465,290.57
-97.56425584,33.34991530,290.47
-97.56426036,33.34991535,290.48
-97.56431902,33.34991603,290.41
-97.56446729,33.34991774,290.30
-97.56476543,33.34992119,289.79
-97.56483570,33.34992200,289.89
-97.56498730,33.34992375,289.80
-97.56510860,33.34992516,300.85
-97.56511344,33.34992521,297.93
-97.56511558,33.34992524,297.29
-97.56514567,33.34992558,301.20
-97.56523280,33.34992659,299.00
-97.56523667,33.34992664,297.89
-97.56526933,33.34992701,300.20
-97.56534991,33.34992794,303.51
-97.56537312,33.34992821,302.26
-97.56542383,33.34992880,299.00
-97.56548163,33.34992947,298.51
-97.56549109,33.34992958,290.95
-97.56549571,33.34992963,290.87
-97.56551666,33.34992987,298.25
-97.56577269,33.34993283,292.27
-97.56609609,33.34993657,293.71
-97.56642496,33.34994036,294.09
-97.56642969,33.34994042,294.06
-97.56671688,33.34994373,295.88
-97.56672580,33.34994384,295.83
-97.56701267,33.34994715,296.84
-97.56726429,33.34995005,298.64
-97.56727815,33.34995021,298.53
-97.56754439,33.34995328,299.71
-97.56754869,33.34995333,299.71
-97.56783856,33.34995668,301.03
-97.56822051,33.34996108,302.06
-97.56822556,33.34996114,302.02
-97.56823437,33.34996124,301.99
-97.56855680,33.34996496,302.75
-97.56856164,33.34996502,302.73
-97.56889965,33.34996891,310.98
-97.56913559,33.34997163,303.35
-97.56913999,33.34997168,303.34
-97.56914429,33.34997173,303.38
-97.56914902,33.34997179,303.37
-97.56915385,33.34997184,303.44
-97.56915826,33.34997189,303.42
-97.56916266,33.34997194,303.42
-97.56916750,33.34997200,303.39
-97.56917212,33.34997205,303.40
-97.56917652,33.34997210,303.38
-97.56918071,33.34997215,303.39
-97.56918512,33.34997220,303.38
-97.56918942,33.34997225,303.37
-97.56919414,33.34997231,303.40
-97.56919833,33.34997235,303.39
-97.56920317,33.34997241,303.42
-97.56920757,33.34997246,303.44
-97.56921198,33.34997251,303.45
-97.56921660,33.34997257,303.44
-97.56922122,33.34997262,303.49
-97.56922562,33.34997267,303.50
-97.56925689,33.34997303,303.48
-97.56926162,33.34997308,303.50
-97.56926591,33.34997313,303.49
-97.56927086,33.34997319,303.59
-97.56927494,33.34997324,303.55
-97.56927934,33.34997329,303.56
-97.56928407,33.34997334,303.59
-97.56928880,33.34997340,303.55
-97.56929288,33.34997344,303.55
-97.56929772,33.34997350,303.54
-97.56930234,33.34997355,303.53
-97.56930706,33.34997361,303.56
-97.56931125,33.34997366,303.59
-97.56931566,33.34997371,303.60
-97.56932007,33.34997376,303.62
-97.56932393,33.34997380,303.67
-97.56932866,33.34997386,303.61
-97.56970911,33.34997824,304.88
-97.56971427,33.34997830,304.85
-97.57000957,33.34997827,305.42
-97.57026952,33.34998469,312.34
-97.57027382,33.34998474,312.37
-97.57029155,33.34998495,312.39
-97.57029584,33.34998500,312.57
-97.57030498,33.34998510,312.47
-97.57033087,33.34998540,312.56
-97.57034408,33.34998555,312.89
-97.57034828,33.34998560,313.09
-97.57039222,33.34998611,313.47
-97.57040984,33.34998631,313.55
-97.57043186,33.34998656,313.20
-97.57046248,33.34998692,314.05
-97.57047130,33.34998702,313.79
-97.57047968,33.34998711,313.98
-97.57049311,33.34998709,315.68
-97.57064421,33.34998612,306.12
-97.57064632,33.34998245,306.03
-97.57064783,33.34994919,305.95
-97.57064830,33.34993341,305.96
-97.57064985,33.34983837,305.80
-97.57065001,33.34982863,305.74
-97.57065418,33.34957381,315.10
-97.57065508,33.34951844,314.13
-97.57065702,33.34940014,305.29
-97.57065702,33.34940005,306.77
-97.57065709,33.34939554,309.09
-97.57065863,33.34930113,308.15
-97.57065864,33.34930104,308.93
-97.57065918,33.34926804,308.83
-97.57066071,33.34917435,308.88
-97.57066157,33.34912151,306.87
-97.57066266,33.34905479,304.90
-97.57066674,33.34879843,303.34
-97.57067201,33.34848275,309.16
-97.57067257,33.34844848,309.49
-97.57067338,33.34839907,303.23
-97.57067396,33.34836336,301.98
-97.57067811,33.34810962,309.60
-97.57067877,33.34806931,302.06
-97.57067911,33.34804839,309.64
-97.57068069,33.34795155,299.14
-97.57068689,33.34757211,296.58
-97.57068997,33.34738375,295.46
-97.57069104,33.34731828,295.07
-97.57069341,33.34717320,295.33
-97.57069342,33.34717302,296.69
-97.57069443,33.34711062,303.89
-97.57070095,33.34671171,297.95
-97.57070188,33.34665517,295.15
-97.57070188,33.34665508,296.12
-97.57070296,33.34658925,298.81
-97.57070353,33.34655409,295.87
-97.57070671,33.34635941,295.59
-97.57070699,33.34634246,301.57
-97.57070843,33.34625436,288.99
-97.57070850,33.34624994,300.41
-97.57070884,33.34622902,288.63
-97.57070932,33.34619972,300.29
-97.57071082,33.34610792,296.24
-97.57071177,33.34604985,293.35
-97.57071402,33.34591207,291.45
-97.57071552,33.34582064,286.20
-97.57071627,33.34577429,286.18
-97.57071662,33.34575301,289.14
-97.57071710,33.34572344,294.10
-97.57071856,33.34563408,287.56
-97.57072077,33.34549909,288.15
-97.57072231,33.34540486,298.07
-97.57072274,33.34537826,294.66
-97.57072327,33.34534598,290.87
-97.57072356,33.34532840,290.75
-97.57072486,33.34524860,295.23
-97.57072832,33.34503679,288.81
-97.57073132,33.34485374,297.43
-97.57073207,33.34480757,295.02
-97.57073579,33.34457962,297.17
-97.57073650,33.34453625,297.22
-97.57073709,33.34450018,299.89
-97.57073742,33.34448007,297.31
-97.57073880,33.34439549,295.69
-97.57074222,33.34418612,293.87
-97.57074391,33.34408278,287.76
-97.57074431,33.34405871,290.59
-97.57074471,33.34403418,291.74
-97.57074530,33.34399820,294.94
-97.57074615,33.34394563,295.92
-97.57074726,33.34387809,284.44
-97.57074759,33.34385754,286.84
-97.57074784,33.34384248,286.65
-97.57074882,33.34378260,286.00
-97.57074895,33.34377485,285.72
-97.57075050,33.34367963,291.89
-97.57075113,33.34364122,288.30
-97.57075252,33.34355627,281.95
-97.57075354,33.34349343,282.11
-97.57075505,33.34340100,282.21
-97.57075872,33.34317666,281.53
-97.57076283,33.34292526,279.42
-97.57076624,33.34271634,277.55
-97.57076987,33.34249406,280.56
-97.57077102,33.34242400,283.56
-97.57077115,33.34241571,285.00
-97.57077138,33.34240155,274.91
-97.57077306,33.34229903,270.83
-97.57077404,33.34223888,279.92
-97.57077404,33.34223879,280.56
-97.57077463,33.34220308,277.24
-97.57077545,33.34215277,275.52
-97.57077572,33.34213627,275.50
-97.57078003,33.34187207,274.99
-97.57078051,33.34184303,274.95
-97.57078228,33.34173438,274.99
-97.57078585,33.34151634,274.75
-97.57079001,33.34126134,274.58
-97.57079224,33.34112509,274.65
-97.57079439,33.34098659,274.49
-97.57079420,33.34097856,274.49
-97.57079310,33.34097386,274.49
-97.57078869,33.34097381,274.51
-97.57078440,33.34097376,274.50
-97.57077967,33.34097370,274.50
-97.57077526,33.34097365,274.51
-97.57077054,33.34097360,274.50
-97.57076613,33.34097355,274.52
-97.57076184,33.34097350,274.49
-97.57075732,33.34097345,274.52
-97.57075281,33.34097340,274.54
-97.57074830,33.34097334,274.53
-97.57058404,33.34097154,274.57
-97.57057974,33.34097149,274.58
-97.57057501,33.34097144,274.55
-97.57057061,33.34097139,274.54
-97.57056588,33.34097133,274.53
-97.57056148,33.34097128,274.54
-97.57055718,33.34097123,274.55
-97.57055278,33.34097118,274.54
-97.57054837,33.34097113,274.56
-97.57054364,33.34097108,274.50
-97.57053892,33.34097102,274.48
-97.57053419,33.34097097,274.50
-97.57052979,33.34097092,274.53
-97.57052506,33.34097086,274.50
-97.57052033,33.34097081,274.49
-97.57051603,33.34097076,274.48
-97.57051152,33.34097071,274.48
-97.57039335,33.34096944,274.32
-97.57038862,33.34096938,274.32
-97.57038400,33.34096933,274.34
-97.57037949,33.34096928,274.32
-97.57037498,33.34096923,274.32
-97.57037047,33.34096917,274.31
-97.56983689,33.34096105,274.40
-97.56958884,33.34095819,274.35
-97.56939955,33.34095601,274.45
-97.56914633,33.34095309,289.08
-97.56914161,33.34095304,288.93
-97.56913753,33.34095299,289.12
-97.56909638,33.34095251,290.21
-97.56906888,33.34095220,289.09
-97.56906061,33.34095210,290.82
-97.56905233,33.34095201,286.76
-97.56903622,33.34095182,288.89
-97.56857040,33.34094645,274.33
-97.56834265,33.34094383,274.17
-97.56806838,33.34094066,274.42
-97.56806387,33.34094061,274.48
-97.56805936,33.34094056,274.51
-97.56783977,33.34093803,273.76
-97.56783494,33.34093797,273.79
-97.56760687,33.34093534,273.58
-97.56732798,33.34093212,273.36
-97.56703845,33.34092878,273.36
-97.56666159,33.34092443,273.96
-97.56637250,33.34092110,273.95
-97.56636326,33.34092099,274.10
-97.56635445,33.34092089,274.17
-97.56612552,33.34091824,274.23
-97.56611649,33.34091814,274.33
-97.56590088,33.34091565,273.28
-97.56562994,33.34091252,273.15
-97.56525555,33.34090820,278.91
-97.56524975,33.34090813,284.75
-97.56524040,33.34090802,278.80
-97.56521784,33.34090776,279.14
-97.56513136,33.34090676,279.81
-97.56512642,33.34090670,285.77
-97.56512599,33.34090670,287.25
-97.56496904,33.34090488,273.20
-97.56496452,33.34090483,273.23
-97.56496023,33.34090478,273.27
-97.56494884,33.34090465,273.29
-97.56486322,33.34090366,273.19
-97.56475880,33.34090246,273.04
-97.56460678,33.34090070,273.26
-97.56440568,33.34089837,272.95
-97.56429889,33.34089714,272.81
-97.56417374,33.34089569,280.30
-97.56403848,33.34089413,272.78
-97.56396049,33.34089323,272.76
-97.56386627,33.34089214,284.00
-97.56385746,33.34089203,284.14
-97.56379558,33.34089132,281.25
-97.56373123,33.34089057,272.87
-97.56367021,33.34088987,272.93
-97.56353399,33.34088829,272.83
-97.56339240,33.34088665,273.15
-97.56339143,33.34088664,273.17
-97.56338778,33.34088660,273.20
-97.56325081,33.34088502,273.69
-97.56308343,33.34088308,273.90
-97.56296677,33.34088173,273.96
-97.56292551,33.34088125,274.08
-97.56277103,33.34087946,274.51
-97.56260065,33.34087749,274.84
-97.56241307,33.34087532,274.98
-97.56224785,33.34087341,275.47
-97.56208251,33.34087149,276.01
-97.56184982,33.34086880,277.46
-97.56165086,33.34086649,279.02
-97.56144202,33.34086407,279.87
-97.56143536,33.34086400,288.87
-97.56143504,33.34086399,287.59
-97.56120653,33.34086135,281.83
-97.56099296,33.34085887,282.09
-97.56082011,33.34085687,281.82
-97.56076135,33.34085619,292.55
-97.56071365,33.34085563,293.52
-97.56070430,33.34085553,292.41
-97.56069388,33.34085540,284.43
-97.56051329,33.34085331,280.63
-97.56041940,33.34085222,280.27
-97.56022592,33.34084998,279.12
-97.56008100,33.34084830,278.33
-97.56005377,33.34085114,278.30
-97.56005175,33.34085635,278.36
-97.56004932,33.34100378,280.20
-97.56004688,33.34115166,281.10
-97.56004116,33.34149944,282.76
-97.56003869,33.34164948,283.61
-97.56003439,33.34191098,285.31
-97.56003041,33.34215263,286.45
-97.56002869,33.34225705,283.39
-97.56002772,33.34231593,283.34
-97.56002621,33.34240755,283.48
-97.56002418,33.34253108,283.34
-97.56002404,33.34253938,283.33
-97.56002328,33.34258590,283.30
-97.56002025,33.34276958,284.68
-97.56001643,33.34300204,284.54
-97.56001388,33.34315686,289.97
-97.56001347,33.34318157,284.02
-97.56001346,33.34318229,283.99
-97.56001281,33.34322151,281.64
-97.56001105,33.34332882,282.95
-97.56001091,33.34333738,294.14
-97.56000802,33.34351267,281.80
-97.56000794,33.34351736,292.23
-97.56000732,33.34355541,292.30
-97.56000664,33.34359653,290.16
-97.56000599,33.34363603,293.71
-97.56000549,33.34366641,293.18
-97.56000533,33.34367633,293.26
-97.56000182,33.34388931,279.85
-97.55999768,33.34414711,279.88
-97.55999626,33.34438384,279.82
-97.55998828,33.34471194,279.78
-97.55998800,33.34472862,279.91
-97.55998689,33.34479625,280.16
-97.55998655,33.34481671,283.89
-97.55998520,33.34489868,282.21
-97.55998469,33.34492970,280.85
-97.55998418,33.34496081,280.99
-97.55998395,33.34497478,280.93
-97.55998204,33.34509056,281.50
-97.55997932,33.34525611,282.46
-97.55997889,33.34528181,282.59
-97.55997794,33.34533988,284.66
-97.55997596,33.34545999,283.82
-97.55997390,33.34558487,295.56
-97.55997379,33.34559155,292.66
-97.55997374,33.34559488,295.42
-97.55997357,33.34560498,289.81
-97.55997295,33.34564276,285.32
-97.55997118,33.34575034,295.77
-97.55997080,33.34577360,296.00
-97.55997071,33.34577865,290.06
-97.55997071,33.34577883,296.03
-97.55997056,33.34578776,294.43
-97.55997053,33.34578983,286.64
-97.55997052,33.34579019,291.93
-97.55997038,33.34579903,286.70
-97.55996918,33.34587189,293.64
-97.55996868,33.34590209,287.45
-97.55996794,33.34594736,296.49
-97.55996787,33.34595151,293.56
-97.55996606,33.34606151,291.49
-97.55996589,33.34607179,292.26
-97.55996582,33.34607576,290.79
-97.55996512,33.34611814,288.76
-97.55996343,33.34622112,290.77
-97.55996290,33.34625331,292.32
-97.55996203,33.34630633,296.97
-97.55996049,33.34639938,288.54
-97.55996047,33.34640055,288.59
-97.55995879,33.34650272,289.21
-97.55995860,33.34651453,289.28
-97.55995846,33.34652273,289.29
-97.55995842,33.34652535,289.31
-97.55995833,33.34653058,289.31
-97.55995825,33.34653581,289.37
-97.55995707,33.34660740,289.64
-97.55995582,33.34668324,289.68
-97.55995509,33.34672733,290.07
-97.55995491,33.34673851,290.09
-97.55995468,33.34675231,290.26
-97.55995062,33.34699883,291.89
-97.55994878,33.34711073,292.63
-97.55994444,33.34737466,295.76
-97.55994289,33.34746844,299.99
-97.55994277,33.34747601,300.67
-97.55994135,33.34756213,295.73
-97.55994055,33.34761091,304.55
-97.55994034,33.34762317,304.00
-97.55994011,33.34763724,295.38
-97.55993996,33.34764670,300.73
-97.55993995,33.34764716,295.27
-97.55993867,33.34772452,304.28
-97.55993854,33.34773273,293.92
-97.55993764,33.34778728,294.24
-97.55993740,33.34780207,294.26
-97.55993731,33.34780712,301.91
-97.55993627,33.34787060,294.50
-97.55993616,33.34787718,299.64
-97.55993505,33.34794490,295.04
-97.55993266,33.34808998,296.06
-97.55993165,33.34815112,296.49
-97.55993101,33.34818998,296.87
-97.55993060,33.34821478,297.10
-97.55992997,33.34825292,297.34
-97.55992493,33.34855914,298.91
-97.55991949,33.34888970,299.05
-97.55991936,33.34889782,298.91
-97.55991814,33.34897158,298.75
-97.55991725,33.34902577,307.36
-97.55991701,33.34903992,308.26
-97.55991672,33.34905796,309.41
-97.55991666,33.34906129,307.52
-97.55991425,33.34920809,301.18
-97.55991343,33.34925787,301.32
-97.55991177,33.34935822,301.70
-97.55990828,33.34957057,302.57
-97.55990822,33.34957400,302.59
-97.55990714,33.34963956,302.74
-97.55990618,33.34969781,302.94
-97.55990599,33.34970953,302.99
-97.55990373,33.34985317,309.95
-97.55990412,33.34985534,303.37
-97.55990722,33.34986331,303.35
-97.55995167,33.34986545,303.09
-97.55998046,33.34986578,302.94
-97.56005632,33.34986666,308.70
-97.56008672,33.34986702,311.22
-97.56009629,33.34986713,306.69
-97.56020544,33.34986839,302.02
-97.56021576,33.34986851,302.00
-97.56028388,33.34986930,301.72
-97.56033394,33.34986988,301.56
-97.56041571,33.34987083,301.27
-97.56043139,33.34987101,308.92
-97.56056440,33.34987256,300.83
-97.56080410,33.34987533,299.96
-97.56101125,33.34987774,299.26
-97.56114523,33.34987929,298.78
-97.56125858,33.34988060,298.31
-97.56137998,33.34988201,297.99
-97.56149881,33.34988339,304.72
-97.56151009,33.34988352,299.21
-97.56151396,33.34988356,297.28
-97.56160915,33.34988466,299.76
-97.56161775,33.34988476,296.28
-97.56173153,33.34988608,298.44
-97.56174012,33.34988618,294.94
-97.56182167,33.34988713,299.20
-97.56210488,33.34989041,295.52
-97.56211004,33.34989047,292.75
-97.56222769,33.34989183,293.84
-97.56223306,33.34989189,291.64
-97.56233824,33.34989311,291.65
-97.56244246,33.34989431,291.63
-97.56282226,33.34989871,290.64
-97.56290252,33.34989964,290.58
-97.56290714,33.34989969,290.59
-97.56295925,33.34990030,290.62
-97.56306916,33.34990157,290.61
-97.56329060,33.34990413,290.56
-97.56337537,33.34990511,297.57
-97.56339868,33.34990538,297.42
-97.56340362,33.34990544,297.38
-97.56341942,33.34990562,299.08
     </coordinates>
    </LineString>
   </MultiGeometry>
  </Placemark>
 </Document>
</kml>
