<kml>
 <Document>
  <Style id="yellow">
   <LineStyle>
   <color>ff00ffff</color>
   <width>1</width>
   </LineStyle>
  </Style>
  <Style id="red">
   <LineStyle>
   <color>ffff0000</color>
   <width>2</width>
   </LineStyle>
  </Style>
  <Style id="green">
   <LineStyle>
   <color>ff00ff00</color>
   <width>1</width>
   </LineStyle>
  </Style>
  <Placemark>
  <styleUrl>#yellow</styleUrl>
   <MultiGeometry>
    <LineString>
     <coordinates>
-97.57494107,33.36807589,297.05
-97.57499158,33.36807647,303.09
-97.57499577,33.36807652,302.99
-97.57539618,33.36808112,297.72
-97.57540091,33.36808117,297.70
-97.57540499,33.36808122,297.72
-97.57593017,33.36808725,299.15
-97.57617658,33.36809007,296.06
-97.57629801,33.36809146,294.48
-97.57630274,33.36809152,294.41
-97.57631166,33.36809162,294.35
-97.57631596,33.36809167,294.36
-97.57641354,33.36809279,294.20
-97.57677472,33.36809693,294.62
-97.57677988,33.36809699,294.64
-97.57683920,33.36809767,295.44
-97.57698771,33.36809937,297.02
-97.57723370,33.36810219,297.27
-97.57723853,33.36810225,297.26
-97.57724229,33.36810229,304.63
-97.57725121,33.36810239,304.56
-97.57736319,33.36810368,303.16
-97.57745239,33.36810470,307.75
-97.57745679,33.36810475,307.63
-97.57746077,33.36810480,307.47
-97.57747839,33.36810500,305.15
-97.57748258,33.36810505,305.07
-97.57748516,33.36810508,304.10
-97.57748978,33.36810513,303.97
-97.57752611,33.36810555,299.69
-97.57753707,33.36810567,308.73
-97.57754814,33.36810580,297.14
-97.57755265,33.36810585,296.99
-97.57770299,33.36810757,306.41
-97.57770976,33.36810765,305.21
-97.57771406,33.36810770,305.18
-97.57781078,33.36810881,305.51
-97.57791856,33.36811004,296.35
-97.57792662,33.36811013,308.52
-97.57792845,33.36811016,296.25
-97.57793801,33.36811027,307.28
-97.57794199,33.36811031,306.98
-97.57794554,33.36811035,306.61
-97.57794962,33.36811040,306.39
-97.57797541,33.36811069,303.07
-97.57799873,33.36811096,300.66
-97.57800217,33.36811100,300.14
-97.57822591,33.36811356,300.47
-97.57822655,33.36811357,300.49
-97.57823408,33.36811366,299.90
-97.57824149,33.36811374,300.25
-97.57825106,33.36811385,300.13
-97.57826395,33.36811400,296.16
-97.57826857,33.36811405,296.05
-97.57827298,33.36811410,295.75
-97.57854003,33.36811716,301.92
-97.57861052,33.36811797,293.42
-97.57861804,33.36811805,292.21
-97.57863051,33.36811820,291.37
-97.57864609,33.36811838,289.05
-97.57865061,33.36811843,289.00
-97.57874625,33.36811952,303.61
-97.57875119,33.36811958,306.52
-97.57881288,33.36812029,310.60
-97.57882341,33.36812041,298.28
-97.57895849,33.36812195,308.65
-97.57897418,33.36812213,306.49
-97.57899900,33.36812242,304.10
-97.57928905,33.36812574,298.08
-97.57929840,33.36812584,298.16
-97.57950376,33.36812819,298.98
-97.57977167,33.36813126,300.88
-97.57977607,33.36813131,300.86
-97.57994565,33.36813325,300.99
-97.58018863,33.36813603,306.80
-97.58019335,33.36813608,306.07
-97.58019808,33.36813614,305.27
-97.58020238,33.36813619,305.11
-97.58021667,33.36813635,302.58
-97.58022087,33.36813640,302.72
-97.58040398,33.36813849,309.66
-97.58040871,33.36813855,309.36
-97.58041323,33.36813860,308.77
-97.58065491,33.36814136,312.14
-97.58066007,33.36814142,311.53
-97.58066480,33.36814147,310.93
-97.58070488,33.36814193,305.44
-97.58085985,33.36814371,311.65
-97.58086404,33.36814375,311.55
-97.58086909,33.36814381,310.94
-97.58087446,33.36814387,306.53
-97.58089660,33.36814413,306.79
-97.58090122,33.36814418,306.84
-97.58099224,33.36814522,307.50
-97.58101169,33.36814544,318.55
-97.58103383,33.36814569,315.51
-97.58103823,33.36814575,315.04
-97.58108745,33.36814622,308.06
-97.58109532,33.36814523,319.59
-97.58109749,33.36814372,318.24
-97.58109873,33.36814048,317.93
-97.58109896,33.36813940,308.13
-97.58110044,33.36804824,317.96
-97.58110078,33.36802723,308.34
-97.58110098,33.36801497,316.81
-97.58110106,33.36801019,319.67
-97.58110213,33.36794419,317.01
-97.58110237,33.36792958,318.51
-97.58110250,33.36792110,318.71
-97.58110295,33.36789351,318.32
-97.58110316,33.36788089,318.40
-97.58110345,33.36786285,308.77
-97.58110416,33.36781894,318.68
-97.58110437,33.36780595,320.91
-97.58110439,33.36780487,319.40
-97.58110442,33.36780280,308.60
-97.58110556,33.36773273,316.95
-97.58110797,33.36758431,316.66
-97.58110883,33.36753120,313.73
-97.58110905,33.36751786,309.10
-97.58110913,33.36751317,311.11
-97.58110923,33.36750659,315.71
-97.58111032,33.36743941,309.19
-97.58111390,33.36721912,314.85
-97.58111393,33.36721759,312.05
-97.58111415,33.36720397,311.22
-97.58111451,33.36718179,314.27
-97.58111480,33.36716367,315.23
-97.58111486,33.36715979,318.84
-97.58111535,33.36712985,318.72
-97.58111690,33.36703427,320.94
-97.58111697,33.36703003,314.11
-97.58111730,33.36700993,318.09
-97.58111757,33.36699306,310.93
-97.58111792,33.36697151,319.79
-97.58111849,33.36693626,316.95
-97.58111927,33.36688820,311.25
-97.58111935,33.36688342,311.34
-97.58111992,33.36684807,317.30
-97.58112117,33.36677124,318.57
-97.58112324,33.36664365,320.29
-97.58112482,33.36654645,321.03
-97.58112490,33.36654185,322.35
-97.58112499,33.36653599,321.13
-97.58112503,33.36653391,321.75
-97.58112526,33.36651958,312.77
-97.58112731,33.36639307,313.05
-97.58112801,33.36634988,322.40
-97.58112810,33.36634465,314.62
-97.58113118,33.36615475,312.47
-97.58113217,33.36609388,320.27
-97.58113266,33.36606368,319.72
-97.58113539,33.36589578,312.09
-97.58113825,33.36571931,312.08
-97.58113857,33.36569966,311.89
-97.58113866,33.36569388,312.75
-97.58113968,33.36563104,315.03
-97.58114267,33.36544718,313.21
-97.58114788,33.36512608,310.60
-97.58114920,33.36504475,309.01
-97.58115201,33.36487171,308.75
-97.58115368,33.36476900,308.36
-97.58115471,33.36470534,308.10
-97.58115516,33.36467748,308.11
-97.58116109,33.36431211,308.46
-97.58116228,33.36423898,313.91
-97.58116242,33.36423041,313.20
-97.58116244,33.36422933,313.17
-97.58116357,33.36415936,306.60
-97.58116365,33.36415485,306.68
-97.58116435,33.36411148,306.34
-97.58116558,33.36403583,313.24
-97.58116564,33.36403222,312.94
-97.58116579,33.36402266,314.24
-97.58116704,33.36394601,305.90
-97.58116734,33.36392753,305.99
-97.58116747,33.36391960,305.95
-97.58116794,33.36389065,309.73
-97.58116831,33.36386784,312.03
-97.58116887,33.36383321,306.04
-97.58116892,33.36383015,319.38
-97.58116896,33.36382771,305.94
-97.58116937,33.36380219,320.43
-97.58116938,33.36380192,318.86
-97.58117025,33.36374809,321.36
-97.58117081,33.36371383,323.32
-97.58117088,33.36370950,323.26
-97.58117108,33.36369723,322.98
-97.58117218,33.36362943,318.11
-97.58117260,33.36360310,317.05
-97.58117324,33.36356423,313.39
-97.58117368,33.36353682,309.36
-97.58117468,33.36347523,313.96
-97.58117603,33.36339201,303.48
-97.58117669,33.36335143,309.92
-97.58117836,33.36324827,304.86
-97.58117968,33.36316739,312.29
-97.58118088,33.36309336,308.10
-97.58118123,33.36307163,312.99
-97.58118201,33.36302366,315.32
-97.58118205,33.36302122,304.59
-97.58118628,33.36276090,312.59
-97.58118628,33.36276036,312.64
-97.58118660,33.36274061,311.00
-97.58118725,33.36270085,311.44
-97.58118754,33.36268290,306.10
-97.58118756,33.36268146,314.50
-97.58118767,33.36267497,316.31
-97.58118860,33.36261780,317.13
-97.58119007,33.36252709,306.77
-97.58119038,33.36250797,306.81
-97.58119070,33.36248840,307.20
-97.58119317,33.36233638,308.49
-97.58119390,33.36229138,308.92
-97.58119400,33.36228480,308.97
-97.58119407,33.36228065,309.01
-97.58119546,33.36219508,317.39
-97.58119636,33.36213962,313.08
-97.58119748,33.36207046,315.34
-97.58119987,33.36192330,309.49
-97.58120263,33.36175351,310.22
-97.58120436,33.36164648,310.38
-97.58120442,33.36164278,317.96
-97.58120461,33.36163106,310.50
-97.58120513,33.36159932,312.82
-97.58120604,33.36154332,320.47
-97.58120644,33.36151835,310.85
-97.58120673,33.36150049,323.14
-97.58120696,33.36148652,320.74
-97.58120746,33.36145595,318.89
-97.58120897,33.36136244,311.56
-97.58121107,33.36123350,313.30
-97.58121243,33.36114982,318.95
-97.58121395,33.36105595,321.62
-97.58121406,33.36104901,318.92
-97.58121407,33.36104856,317.33
-97.58121411,33.36104621,321.25
-97.58121480,33.36100365,320.31
-97.58121498,33.36099229,312.93
-97.58121845,33.36077191,313.54
-97.58122245,33.36053242,314.82
-97.58122417,33.36042620,324.01
-97.58122486,33.36038346,315.44
-97.58122611,33.36030654,321.54
-97.58122612,33.36030591,315.58
-97.58122665,33.36027354,325.14
-97.58122758,33.36021619,316.03
-97.58122907,33.36012449,322.91
-97.58123073,33.36002214,321.06
-97.58123089,33.36001231,320.26
-97.58123123,33.35999149,323.13
-97.58123182,33.35995488,325.15
-97.58123327,33.35986552,316.08
-97.58123373,33.35983720,318.13
-97.58123405,33.35981737,321.63
-97.58123432,33.35980068,320.26
-97.58123442,33.35979482,320.63
-97.58123605,33.35969446,322.79
-97.58123746,33.35960763,324.58
-97.58123748,33.35960591,318.28
-97.58123765,33.35959554,325.53
-97.58123766,33.35959527,315.77
-97.58123778,33.35958752,322.91
-97.58123799,33.35957481,323.97
-97.58123805,33.35957102,319.26
-97.58123824,33.35955912,321.99
-97.58123965,33.35947255,315.60
-97.58124070,33.35940763,315.45
-97.58124252,33.35929528,324.11
-97.58124368,33.35922404,322.60
-97.58124433,33.35918419,323.69
-97.58124450,33.35915361,314.85
-97.58124436,33.35914919,314.92
-97.58124344,33.35913926,314.78
-97.58124188,33.35912959,314.62
-97.58105374,33.35912726,313.76
-97.58104826,33.35912720,313.74
-97.58104342,33.35912715,313.72
-97.58100560,33.35912671,313.64
-97.58071547,33.35912340,322.39
-97.58071096,33.35912335,322.14
-97.58070795,33.35912331,321.15
-97.58041794,33.35911999,316.25
-97.58041450,33.35911996,315.23
-97.58041031,33.35911991,315.31
-97.58039956,33.35911978,311.36
-97.58039548,33.35911974,311.19
-97.58012137,33.35911660,312.31
-97.58011739,33.35911656,310.91
-97.57979525,33.35911287,309.81
-97.57950395,33.35910954,308.75
-97.57949932,33.35910949,308.73
-97.57914129,33.35910539,308.28
-97.57913721,33.35910534,308.52
-97.57891500,33.35910280,308.12
-97.57865217,33.35909979,307.71
-97.57862090,33.35909943,316.24
-97.57861918,33.35909941,314.64
-97.57861456,33.35909936,314.23
-97.57861327,33.35909934,316.41
-97.57860940,33.35909930,313.33
-97.57848519,33.35909788,313.01
-97.57846316,33.35909763,313.88
-97.57841577,33.35909708,315.33
-97.57828060,33.35909554,317.02
-97.57827909,33.35909552,315.92
-97.57827329,33.35909545,314.90
-97.57813478,33.35909387,312.76
-97.57797769,33.35909207,306.99
-97.57797275,33.35909201,307.01
-97.57792729,33.35909149,314.23
-97.57792579,33.35909147,313.35
-97.57792300,33.35909144,311.80
-97.57791666,33.35909137,310.85
-97.57790484,33.35909123,306.86
-97.57790043,33.35909118,306.82
-97.57764340,33.35908824,306.27
-97.57755121,33.35908718,306.08
-97.57735532,33.35908493,305.39
-97.57726582,33.35908391,305.10
-97.57708336,33.35908182,304.88
-97.57707842,33.35908176,304.93
-97.57693830,33.35908016,305.22
-97.57693325,33.35908010,305.19
-97.57682601,33.35907887,313.05
-97.57677476,33.35907828,314.82
-97.57676057,33.35907812,315.10
-97.57670835,33.35907752,305.10
-97.57662379,33.35907655,307.88
-97.57661938,33.35907650,307.88
-97.57661616,33.35907646,311.85
-97.57660638,33.35907635,308.76
-97.57660359,33.35907632,307.85
-97.57659488,33.35907622,305.05
-97.57653525,33.35907553,310.76
-97.57632099,33.35907308,311.44
-97.57631110,33.35907296,310.03
-97.57630433,33.35907289,308.05
-97.57630207,33.35907286,308.21
-97.57629971,33.35907283,306.68
-97.57629423,33.35907277,305.08
-97.57627897,33.35907260,308.86
-97.57626103,33.35907239,309.44
-97.57606503,33.35907014,305.12
-97.57606041,33.35907009,305.10
-97.57574665,33.35906649,304.40
-97.57559977,33.35906480,309.32
-97.57558633,33.35906465,309.69
-97.57556860,33.35906445,310.18
-97.57538046,33.35906229,304.92
-97.57537616,33.35906224,304.96
-97.57495247,33.35905737,307.11
-97.57491400,33.35905693,308.49
-97.57479656,33.35905559,304.01
-97.57445841,33.35905170,302.48
-97.57416743,33.35904836,301.32
-97.57393973,33.35904575,308.53
-97.57393554,33.35904570,308.76
-97.57393135,33.35904565,308.95
-97.57391792,33.35904549,309.31
-97.57391373,33.35904545,309.42
-97.57387118,33.35904496,310.69
-97.57386710,33.35904491,310.91
-97.57381466,33.35904431,300.03
-97.57375814,33.35904366,299.75
-97.57375341,33.35904360,299.72
-97.57374847,33.35904355,299.70
-97.57371785,33.35904320,304.64
-97.57371322,33.35904314,306.05
-97.57371183,33.35904313,304.96
-97.57370785,33.35904308,306.19
-97.57368185,33.35904278,309.74
-97.57367594,33.35904271,310.16
-97.57364274,33.35904233,314.45
-97.57357859,33.35904160,307.66
-97.57354829,33.35904125,308.56
-97.57352282,33.35904096,309.36
-97.57336540,33.35903915,314.37
-97.57333123,33.35903875,315.43
-97.57332264,33.35903865,315.66
-97.57318649,33.35903709,300.62
-97.57318187,33.35903704,300.66
-97.57310601,33.35903617,300.89
-97.57310139,33.35903611,300.88
-97.57309688,33.35903606,300.90
-97.57274734,33.35903204,303.07
-97.57252738,33.35902951,303.96
-97.57252308,33.35902946,303.96
-97.57251846,33.35902941,304.00
-97.57251384,33.35902936,304.01
-97.57234160,33.35902738,304.96
-97.57233719,33.35902733,304.98
-97.57187590,33.35902202,308.13
-97.57183367,33.35902153,308.19
-97.57182905,33.35902148,308.28
-97.57182432,33.35902143,308.27
-97.57174297,33.35902085,312.55
-97.57162037,33.35901989,319.10
-97.57160113,33.35901976,320.22
-97.57151526,33.35901940,318.28
-97.57102380,33.35901221,313.13
-97.57101951,33.35901216,313.16
-97.57101499,33.35901211,313.20
-97.57101080,33.35901206,313.23
-97.57060782,33.35900986,317.00
-97.57050712,33.35900942,315.96
-97.57050293,33.35900946,315.98
-97.57049953,33.35906642,316.48
-97.57049900,33.35907895,316.64
-97.57049741,33.35916984,317.32
-97.57049720,33.35918247,317.33
-97.57049544,33.35928986,317.52
-97.57049508,33.35931222,317.64
-97.57049353,33.35940708,321.16
-97.57049037,33.35960032,323.30
-97.57048815,33.35973602,323.15
-97.57048349,33.36002087,316.66
-97.57047919,33.36029039,312.98
-97.57047310,33.36065630,309.42
-97.57047019,33.36083403,307.52
-97.57046830,33.36094972,312.27
-97.57046644,33.36106333,305.17
-97.57046590,33.36109660,305.04
-97.57046576,33.36110490,310.96
-97.57046576,33.36110508,309.17
-97.57046499,33.36115206,304.46
-97.57046422,33.36119913,304.20
-97.57046031,33.36143853,302.27
-97.57045748,33.36161157,306.02
-97.57045690,33.36164691,305.71
-97.57045608,33.36169696,309.43
-97.57045583,33.36171220,309.69
-97.57045328,33.36186837,299.92
-97.57045271,33.36190327,304.49
-97.57045048,33.36203943,299.10
-97.57045018,33.36205764,299.07
-97.57044338,33.36247991,296.24
-97.57044051,33.36264871,295.81
-97.57043894,33.36274510,295.59
-97.57043763,33.36282526,295.37
-97.57043741,33.36283816,295.33
-97.57043617,33.36291426,295.03
-97.57043180,33.36318170,293.43
-97.57043122,33.36321669,297.52
-97.57042891,33.36335808,292.53
-97.57042829,33.36339595,290.63
-97.57042519,33.36358558,290.31
-97.57042449,33.36362850,290.32
-97.57041977,33.36392381,291.12
-97.57041704,33.36409026,291.24
-97.57041221,33.36437935,288.96
-97.57041213,33.36438386,289.04
-97.57041149,33.36442308,295.84
-97.57041100,33.36445311,288.69
-97.57041024,33.36449981,291.21
-97.57040912,33.36456834,287.79
-97.57040828,33.36461974,297.11
-97.57040784,33.36464643,296.81
-97.57040713,33.36468998,292.66
-97.57040650,33.36472849,290.31
-97.57040501,33.36481956,295.42
-97.57040423,33.36486726,290.32
-97.57040282,33.36495346,286.18
-97.57040183,33.36501397,296.74
-97.57039992,33.36513083,291.03
-97.57039848,33.36521874,298.30
-97.57039840,33.36522334,298.55
-97.57039762,33.36527122,290.41
-97.57039663,33.36533155,291.00
-97.57039429,33.36547483,295.93
-97.57039399,33.36549331,294.50
-97.57039371,33.36551035,297.60
-97.57039306,33.36554976,294.09
-97.57039164,33.36563668,292.29
-97.57039052,33.36570530,291.93
-97.57038883,33.36580855,293.46
-97.57038862,33.36582135,295.51
-97.57038799,33.36586003,285.31
-97.57038696,33.36592261,296.24
-97.57038512,33.36603532,296.15
-97.57038496,33.36604515,285.33
-97.57038435,33.36608266,292.54
-97.57038331,33.36614623,287.06
-97.57038268,33.36618483,284.71
-97.57038248,33.36619700,288.28
-97.57038208,33.36622144,291.44
-97.57038136,33.36626535,287.75
-97.57038045,33.36632062,285.74
-97.57037976,33.36636318,292.92
-97.57037905,33.36640629,285.88
-97.57037708,33.36652702,293.81
-97.57037644,33.36656598,292.12
-97.57037482,33.36666507,294.60
-97.57037446,33.36668672,292.17
-97.57037319,33.36676462,286.23
-97.57036939,33.36699726,284.92
-97.57036898,33.36702197,292.37
-97.57036865,33.36704226,295.69
-97.57036732,33.36712377,286.74
-97.57036592,33.36720880,282.75
-97.57036455,33.36729293,294.37
-97.57036350,33.36735695,290.43
-97.57036308,33.36738292,287.72
-97.57036280,33.36739996,290.76
-97.57036253,33.36741610,290.37
-97.57036181,33.36746056,286.01
-97.57036153,33.36747769,289.08
-97.57036145,33.36748220,294.73
-97.57036118,33.36749897,295.24
-97.57035557,33.36784180,297.30
-97.57035486,33.36788517,295.78
-97.57035479,33.36788932,287.72
-97.57035351,33.36796776,288.17
-97.57035306,33.36800158,288.34
-97.57035331,33.36800618,288.37
-97.57035432,33.36802315,288.47
-97.57035894,33.36802320,288.56
-97.57036324,33.36802325,288.58
-97.57036743,33.36802330,288.66
-97.57050177,33.36802449,288.93
-97.57053723,33.36802480,289.03
-97.57056894,33.36802508,289.10
-97.57063589,33.36802567,289.25
-97.57077022,33.36802676,289.63
-97.57083728,33.36802736,289.77
-97.57087275,33.36802768,289.74
-97.57090434,33.36802795,289.88
-97.57102567,33.36802908,289.25
-97.57113626,33.36802999,290.63
-97.57116818,33.36803026,290.74
-97.57119462,33.36803048,290.87
-97.57126168,33.36803107,291.22
-97.57132401,33.36803161,291.47
-97.57180798,33.36803988,301.43
-97.57181142,33.36803992,301.98
-97.57181625,33.36803998,301.89
-97.57182055,33.36804003,301.96
-97.57182528,33.36804008,301.65
-97.57183914,33.36804024,301.48
-97.57184527,33.36804031,300.35
-97.57185032,33.36804037,300.03
-97.57185472,33.36804042,300.28
-97.57186472,33.36804054,299.27
-97.57186676,33.36804056,297.72
-97.57187084,33.36804061,297.82
-97.57187536,33.36804066,297.71
-97.57188062,33.36804072,297.28
-97.57196713,33.36804171,293.52
-97.57197143,33.36804176,293.52
-97.57197605,33.36804182,293.54
-97.57198089,33.36804187,293.52
-97.57198518,33.36804192,293.54
-97.57198980,33.36804198,293.56
-97.57199453,33.36804203,293.55
-97.57208899,33.36804312,293.58
-97.57209404,33.36804317,293.55
-97.57209910,33.36804323,293.53
-97.57210178,33.36804326,300.69
-97.57252443,33.36804812,294.77
-97.57258848,33.36804886,293.90
-97.57259740,33.36804896,300.88
-97.57260202,33.36804902,300.92
-97.57271035,33.36805026,304.53
-97.57272776,33.36805046,304.31
-97.57274173,33.36805062,304.05
-97.57295311,33.36805305,301.21
-97.57314009,33.36805520,306.37
-97.57334717,33.36805758,295.87
-97.57358510,33.36806032,295.81
-97.57359015,33.36806038,295.76
-97.57359488,33.36806043,295.73
-97.57359939,33.36806048,295.76
-97.57360444,33.36806054,295.77
-97.57360928,33.36806060,295.78
-97.57361379,33.36806065,295.83
-97.57389803,33.36806391,296.24
-97.57390265,33.36806397,296.22
-97.57390695,33.36806402,296.20
-97.57436227,33.36806925,304.44
-97.57436679,33.36806930,304.39
-97.57437979,33.36806945,304.16
-97.57461610,33.36807207,301.11
-97.57493226,33.36807579,297.06
-97.57493656,33.36807584,297.05
-97.57494107,33.36807589,297.05
     </coordinates>
    </LineString>
   </MultiGeometry>
  </Placemark>
 </Document>
</kml>
