<kml>
 <Document>
  <Style id="yellow">
   <LineStyle>
   <color>ff00ffff</color>
   <width>1</width>
   </LineStyle>
  </Style>
  <Style id="red">
   <LineStyle>
   <color>ffff0000</color>
   <width>2</width>
   </LineStyle>
  </Style>
  <Style id="green">
   <LineStyle>
   <color>ff00ff00</color>
   <width>1</width>
   </LineStyle>
  </Style>
  <Placemark>
  <styleUrl>#yellow</styleUrl>
   <MultiGeometry>
    <LineString>
     <coordinates>
-97.62834168,33.40475265,301.21
-97.62837125,33.40475298,301.15
-97.62838125,33.40475309,305.25
-97.62844930,33.40475384,309.41
-97.62853477,33.40475479,305.31
-97.62857434,33.40475523,308.50
-97.62857875,33.40475528,308.07
-97.62867185,33.40475630,313.80
-97.62890698,33.40475890,312.08
-97.62936143,33.40476392,312.51
-97.62936454,33.40476396,306.07
-97.62937035,33.40476402,311.71
-97.62946023,33.40476502,310.02
-97.62949668,33.40476542,306.68
-97.62961429,33.40476672,310.33
-97.62962881,33.40476688,301.77
-97.62968805,33.40476753,303.44
-97.62977760,33.40476852,308.74
-97.62980254,33.40476880,301.12
-97.62986146,33.40476945,300.83
-97.62998488,33.40477081,301.87
-97.63014422,33.40477257,308.09
-97.63014916,33.40477263,307.63
-97.63015808,33.40477272,301.49
-97.63039310,33.40477532,304.31
-97.63041084,33.40477551,309.71
-97.63053394,33.40477687,305.17
-97.63058243,33.40477741,314.97
-97.63063103,33.40477795,304.11
-97.63069263,33.40477863,310.04
-97.63073477,33.40477909,305.82
-97.63077079,33.40477949,302.23
-97.63082476,33.40478008,303.56
-97.63095496,33.40478152,312.01
-97.63103763,33.40478243,312.12
-97.63136049,33.40478599,306.25
-97.63138737,33.40478629,311.60
-97.63142145,33.40478667,311.70
-97.63143155,33.40478678,311.81
-97.63144091,33.40478688,311.75
-97.63146187,33.40478711,311.23
-97.63148305,33.40478735,311.43
-97.63150348,33.40478757,306.78
-97.63154401,33.40478802,310.84
-97.63156820,33.40478829,313.72
-97.63157379,33.40478835,313.10
-97.63157981,33.40478841,312.45
-97.63161368,33.40478879,316.19
-97.63170431,33.40478979,315.14
-97.63172732,33.40479004,309.26
-97.63173183,33.40479009,309.07
-97.63185214,33.40479142,315.48
-97.63189052,33.40479184,307.79
-97.63189503,33.40479189,307.80
-97.63191449,33.40479211,307.80
-97.63210457,33.40479420,308.34
-97.63211543,33.40479432,315.36
-97.63214156,33.40479461,312.50
-97.63227874,33.40479612,314.33
-97.63234035,33.40479680,315.64
-97.63234723,33.40479688,314.94
-97.63239593,33.40479741,316.31
-97.63250086,33.40479857,320.46
-97.63281071,33.40480199,311.14
-97.63316356,33.40480587,312.29
-97.63346825,33.40480923,313.57
-97.63350394,33.40480962,313.21
-97.63403896,33.40481299,320.89
-97.63425376,33.40481545,319.69
-97.63426720,33.40481550,319.19
-97.63426839,33.40476700,319.59
-97.63426840,33.40476655,318.05
-97.63426841,33.40476591,315.99
-97.63426987,33.40467286,312.44
-97.63427649,33.40424291,313.20
-97.63428292,33.40383885,313.66
-97.63428326,33.40381712,313.69
-97.63428482,33.40371712,313.62
-97.63428498,33.40370693,313.63
-97.63428505,33.40370260,313.64
-97.63428522,33.40369196,313.64
-97.63428746,33.40354877,313.67
-97.63428856,33.40347825,313.89
-97.63428915,33.40344083,313.92
-97.63429202,33.40325706,317.87
-97.63429231,33.40323876,323.85
-97.63429850,33.40284308,314.65
-97.63429938,33.40278654,314.69
-97.63430019,33.40273524,314.81
-97.63430316,33.40254533,314.96
-97.63430523,33.40241323,315.11
-97.63430765,33.40225859,315.41
-97.63431161,33.40200502,315.97
-97.63431405,33.40184947,316.41
-97.63431567,33.40174605,316.74
-97.63431572,33.40174253,316.75
-97.63431602,33.40172359,316.81
-97.63432247,33.40131133,329.55
-97.63432292,33.40128229,329.73
-97.63432564,33.40110871,320.56
-97.63432564,33.40110853,319.82
-97.63432777,33.40097255,326.99
-97.63432908,33.40088878,329.22
-97.63433049,33.40079834,321.21
-97.63433112,33.40075839,321.07
-97.63433410,33.40056804,331.69
-97.63433491,33.40051592,328.68
-97.63434074,33.40014332,322.69
-97.63434195,33.40006623,322.64
-97.63434238,33.40003845,322.68
-97.63434395,33.39993854,322.59
-97.63434730,33.39972411,322.41
-97.63434772,33.39969751,322.41
-97.63434837,33.39965603,322.38
-97.63435083,33.39949850,321.87
-97.63435143,33.39946018,321.70
-97.63435380,33.39930878,320.97
-97.63435410,33.39928984,320.96
-97.63435439,33.39927127,326.86
-97.63435458,33.39925873,326.87
-97.63435470,33.39925134,325.99
-97.63435588,33.39917569,320.82
-97.63435799,33.39904070,320.18
-97.63436339,33.39869588,319.82
-97.63436493,33.39859759,319.75
-97.63436526,33.39857622,323.46
-97.63436554,33.39855846,323.33
-97.63436595,33.39853231,319.78
-97.63436756,33.39842915,319.85
-97.63436914,33.39832843,320.13
-97.63437056,33.39823735,324.47
-97.63437541,33.39792752,319.50
-97.63437826,33.39774510,318.54
-97.63437851,33.39772923,318.48
-97.63437911,33.39769091,318.25
-97.63437954,33.39766368,320.38
-97.63438030,33.39761507,316.63
-97.63438258,33.39746935,325.18
-97.63438332,33.39742210,316.85
-97.63438487,33.39732264,321.44
-97.63438514,33.39730587,324.27
-97.63438638,33.39722634,316.42
-97.63438948,33.39702787,322.55
-97.63439158,33.39689360,315.43
-97.63439381,33.39675122,315.23
-97.63439700,33.39654040,315.02
-97.63440105,33.39628846,314.39
-97.63440198,33.39622894,314.43
-97.63440392,33.39610523,314.65
-97.63440442,33.39607322,314.65
-97.63440587,33.39598016,314.40
-97.63440652,33.39593913,314.20
-97.63440679,33.39592173,314.22
-97.63440706,33.39590459,314.23
-97.63440787,33.39585266,314.47
-97.63440829,33.39581857,314.52
-97.63440522,33.39580212,314.57
-97.63434804,33.39580050,314.44
-97.63429989,33.39579970,314.29
-97.63415906,33.39579815,313.99
-97.63398330,33.39579621,313.52
-97.63391321,33.39579544,313.55
-97.63348084,33.39579077,311.69
-97.63307449,33.39578620,310.36
-97.63296033,33.39578495,309.95
-97.63285928,33.39578383,309.55
-97.63284691,33.39578370,309.53
-97.63284186,33.39578364,309.54
-97.63283670,33.39578358,309.49
-97.63273984,33.39578252,309.26
-97.63268384,33.39578190,309.14
-97.63242390,33.39577913,309.07
-97.63212871,33.39577578,309.38
-97.63212408,33.39577573,309.38
-97.63211914,33.39577568,309.34
-97.63186286,33.39577285,309.08
-97.63181029,33.39577227,309.38
-97.63175740,33.39577169,309.61
-97.63166312,33.39577065,310.03
-97.63145565,33.39576836,310.80
-97.63144156,33.39576820,310.86
-97.63143705,33.39576815,310.86
-97.63143221,33.39576810,310.87
-97.63137040,33.39576742,311.07
-97.63105994,33.39576399,312.04
-97.63090836,33.39576232,312.41
-97.63085859,33.39576177,313.20
-97.63071981,33.39576024,311.92
-97.63053201,33.39575817,314.03
-97.63018500,33.39575434,326.14
-97.63018037,33.39575429,326.27
-97.63015382,33.39575399,326.97
-97.62993119,33.39575154,315.49
-97.62992635,33.39575148,315.51
-97.62992216,33.39575144,315.54
-97.62991732,33.39575138,315.60
-97.62980832,33.39575018,319.39
-97.62970963,33.39574909,322.97
-97.62962471,33.39574815,325.73
-97.62960235,33.39574790,326.21
-97.62914483,33.39574285,315.51
-97.62914020,33.39574280,315.49
-97.62913580,33.39574275,315.47
-97.62913139,33.39574270,315.67
-97.62907366,33.39574206,317.83
-97.62905592,33.39574187,318.30
-97.62902099,33.39574148,319.66
-97.62901626,33.39574143,319.50
-97.62899465,33.39574119,320.58
-97.62898100,33.39574104,320.75
-97.62855562,33.39573634,312.62
-97.62855110,33.39573629,312.65
-97.62854648,33.39573624,312.64
-97.62851552,33.39573589,313.78
-97.62846779,33.39573537,315.64
-97.62841189,33.39573475,311.73
-97.62820925,33.39573251,311.00
-97.62797695,33.39572994,310.50
-97.62792094,33.39572932,310.42
-97.62791642,33.39572927,310.42
-97.62791180,33.39572922,310.40
-97.62771755,33.39572707,310.02
-97.62745815,33.39572420,309.19
-97.62745353,33.39572415,309.17
-97.62733937,33.39572289,309.00
-97.62733453,33.39572283,308.98
-97.62732991,33.39572278,308.97
-97.62718156,33.39572114,308.92
-97.62699322,33.39571906,309.47
-97.62671329,33.39571596,310.23
-97.62662750,33.39571501,310.41
-97.62662256,33.39571496,310.41
-97.62661793,33.39571491,310.44
-97.62649710,33.39571357,310.86
-97.62649227,33.39571351,310.87
-97.62621782,33.39571048,312.02
-97.62598583,33.39570791,312.18
-97.62570999,33.39570485,311.63
-97.62542264,33.39570167,310.55
-97.62541802,33.39570162,310.55
-97.62520721,33.39569928,310.26
-97.62520248,33.39569923,310.25
-97.62498200,33.39569679,315.88
-97.62497770,33.39569674,315.50
-97.62497297,33.39569669,313.71
-97.62496383,33.39569658,309.81
-97.62495953,33.39569654,309.82
-97.62472239,33.39569391,315.59
-97.62471282,33.39569380,312.12
-97.62470293,33.39569369,309.10
-97.62440032,33.39569034,307.77
-97.62412329,33.39568727,306.93
-97.62398580,33.39568574,306.66
-97.62366210,33.39568332,306.81
-97.62365971,33.39568492,306.82
-97.62365871,33.39568734,306.84
-97.62365787,33.39574046,307.06
-97.62365683,33.39580664,308.24
-97.62365634,33.39583766,308.18
-97.62365626,33.39584262,308.34
-97.62365473,33.39593956,310.04
-97.62365430,33.39596661,311.56
-97.62365376,33.39600114,307.83
-97.62365253,33.39607887,307.59
-97.62365207,33.39610845,307.64
-97.62364970,33.39625876,308.04
-97.62364951,33.39627040,308.02
-97.62364945,33.39627445,308.02
-97.62364929,33.39628482,308.05
-97.62364929,33.39628491,308.04
-97.62364916,33.39629312,308.06
-97.62364837,33.39634280,308.11
-97.62364825,33.39635047,308.16
-97.62364622,33.39647914,308.33
-97.62364593,33.39649754,308.36
-97.62364558,33.39652017,308.41
-97.62364457,33.39658392,308.55
-97.62364329,33.39666544,308.69
-97.62363845,33.39697193,309.97
-97.62363650,33.39709583,310.61
-97.62363400,33.39725426,311.10
-97.62363262,33.39734209,311.35
-97.62363219,33.39736896,311.43
-97.62363209,33.39737536,311.50
-97.62363104,33.39744182,311.86
-97.62363006,33.39750449,312.22
-97.62362941,33.39754534,312.36
-97.62362734,33.39767672,312.90
-97.62362561,33.39778673,313.08
-97.62362014,33.39813371,311.42
-97.62361875,33.39822163,311.14
-97.62361354,33.39855184,310.12
-97.62361102,33.39871162,308.90
-97.62360697,33.39897528,308.21
-97.62360317,33.39920982,307.49
-97.62359741,33.39957511,306.48
-97.62359600,33.39966411,306.31
-97.62359580,33.39967682,306.29
-97.62359497,33.39972993,306.13
-97.62359478,33.39974147,306.20
-97.62358929,33.40008990,305.67
-97.62358830,33.40015284,305.65
-97.62358786,33.40018043,305.72
-97.62358764,33.40019441,305.75
-97.62358678,33.40024896,314.29
-97.62358634,33.40027718,309.13
-97.62358563,33.40032191,304.48
-97.62358525,33.40034590,309.23
-97.62358504,33.40035933,313.21
-97.62358423,33.40041073,309.00
-97.62358286,33.40049774,311.56
-97.62358243,33.40052489,313.36
-97.62358170,33.40057123,304.43
-97.62358145,33.40058711,319.82
-97.62358123,33.40060126,313.32
-97.62358105,33.40061208,316.82
-97.62358009,33.40067331,313.18
-97.62357912,33.40073463,305.94
-97.62357816,33.40079540,314.23
-97.62357813,33.40079730,317.73
-97.62357786,33.40081452,315.93
-97.62357748,33.40083886,314.53
-97.62357699,33.40086970,316.67
-97.62357619,33.40092074,317.65
-97.62357569,33.40095239,303.43
-97.62357463,33.40101957,303.35
-97.62357336,33.40110027,306.72
-97.62357306,33.40111903,315.29
-97.62357229,33.40116781,303.47
-97.62357215,33.40117647,315.95
-97.62357195,33.40118927,302.96
-97.62357176,33.40120154,317.16
-97.62357054,33.40127881,305.94
-97.62356940,33.40135113,304.79
-97.62356912,33.40136871,303.13
-97.62356891,33.40138242,302.89
-97.62356802,33.40143833,309.59
-97.62356795,33.40144284,304.03
-97.62356763,33.40146349,307.93
-97.62356533,33.40160938,312.99
-97.62356530,33.40161119,314.84
-97.62356522,33.40161624,311.62
-97.62356495,33.40163346,312.66
-97.62356491,33.40163580,315.61
-97.62356485,33.40163968,305.93
-97.62356479,33.40164374,312.68
-97.62356469,33.40164969,315.46
-97.62356469,33.40165005,302.62
-97.62356442,33.40166718,302.57
-97.62356428,33.40167557,310.62
-97.62356421,33.40168053,302.42
-97.62356362,33.40171750,302.35
-97.62356345,33.40172814,310.59
-97.62356303,33.40175501,302.28
-97.62356266,33.40177819,311.83
-97.62356265,33.40177927,305.58
-97.62356241,33.40179424,311.38
-97.62356228,33.40180280,302.37
-97.62356184,33.40183067,302.23
-97.62356167,33.40184131,302.17
-97.62356149,33.40185294,302.09
-97.62356115,33.40187449,312.48
-97.62356017,33.40193653,306.67
-97.62355870,33.40202967,308.97
-97.62355840,33.40204870,309.62
-97.62355795,33.40207701,308.21
-97.62355781,33.40208576,301.85
-97.62355707,33.40213283,310.19
-97.62355685,33.40214681,311.22
-97.62355625,33.40218513,306.41
-97.62355595,33.40220371,311.92
-97.62355555,33.40222941,306.04
-97.62355508,33.40225943,305.53
-97.62355479,33.40227729,313.90
-97.62355464,33.40228721,301.89
-97.62355252,33.40242120,309.25
-97.62355237,33.40243103,301.77
-97.62355104,33.40251552,309.07
-97.62355082,33.40252923,309.28
-97.62355077,33.40253220,301.58
-97.62354894,33.40264870,301.51
-97.62354742,33.40274456,301.39
-97.62354720,33.40275889,304.05
-97.62354587,33.40284302,301.24
-97.62354587,33.40284311,301.20
-97.62354511,33.40289136,300.88
-97.62354363,33.40298541,301.21
-97.62354214,33.40307982,301.20
-97.62354163,33.40311192,302.77
-97.62354115,33.40314230,305.04
-97.62354017,33.40320443,301.03
-97.62353979,33.40322869,301.02
-97.62353905,33.40327531,300.96
-97.62353752,33.40337278,300.84
-97.62353542,33.40350543,300.43
-97.62353471,33.40355042,300.45
-97.62353385,33.40360498,304.70
-97.62353381,33.40360786,309.69
-97.62353368,33.40361625,306.02
-97.62353157,33.40374979,307.38
-97.62353137,33.40376242,306.56
-97.62353085,33.40379560,306.54
-97.62352753,33.40400615,310.69
-97.62352706,33.40403582,307.11
-97.62352689,33.40404664,307.58
-97.62352643,33.40407567,305.95
-97.62352525,33.40415079,304.66
-97.62352511,33.40415917,299.40
-97.62352504,33.40416350,298.52
-97.62352504,33.40416386,298.56
-97.62352494,33.40416990,301.95
-97.62352404,33.40422698,309.00
-97.62352252,33.40432392,304.91
-97.62352216,33.40434655,307.18
-97.62352157,33.40438406,304.51
-97.62352094,33.40442401,299.82
-97.62352026,33.40446711,299.83
-97.62351926,33.40453014,308.07
-97.62351889,33.40455367,308.90
-97.62351868,33.40456684,308.85
-97.62351829,33.40459182,311.98
-97.62351798,33.40461138,309.42
-97.62351726,33.40465701,308.39
-97.62351681,33.40469218,309.83
-97.62351716,33.40469732,308.40
-97.62351983,33.40469862,310.56
-97.62352896,33.40469908,310.85
-97.62354960,33.40469958,307.98
-97.62362980,33.40470047,300.27
-97.62367335,33.40470095,300.53
-97.62367872,33.40470101,307.37
-97.62370141,33.40470126,306.07
-97.62375753,33.40470188,305.39
-97.62376247,33.40470194,299.68
-97.62380247,33.40470238,302.79
-97.62390783,33.40470355,299.29
-97.62403824,33.40470500,298.09
-97.62404243,33.40470504,298.07
-97.62416435,33.40470640,297.11
-97.62445495,33.40470962,295.42
-97.62465159,33.40471180,299.45
-97.62465610,33.40471185,299.78
-97.62467051,33.40471201,301.13
-97.62487876,33.40471432,304.44
-97.62492671,33.40471485,297.86
-97.62493595,33.40471495,298.39
-97.62498165,33.40471546,301.94
-97.62504465,33.40471616,293.18
-97.62507206,33.40471646,295.34
-97.62514012,33.40471721,300.48
-97.62516678,33.40471751,302.54
-97.62526526,33.40471860,301.19
-97.62531880,33.40471919,305.43
-97.62532772,33.40471929,306.09
-97.62544115,33.40472055,301.05
-97.62544964,33.40472064,301.92
-97.62547157,33.40472089,303.69
-97.62581582,33.40472470,295.33
-97.62599214,33.40472665,297.07
-97.62601773,33.40472694,296.45
-97.62606482,33.40472746,302.96
-97.62607331,33.40472755,303.60
-97.62608739,33.40472771,296.83
-97.62618007,33.40472874,297.33
-97.62620265,33.40472898,297.34
-97.62630661,33.40473014,307.32
-97.62634004,33.40473051,297.89
-97.62634886,33.40473060,298.35
-97.62635768,33.40473070,299.04
-97.62639058,33.40473107,301.87
-97.62640455,33.40473122,298.23
-97.62642165,33.40473141,308.23
-97.62642960,33.40473150,307.62
-97.62650196,33.40473230,300.10
-97.62650421,33.40473232,308.83
-97.62652797,33.40473259,307.05
-97.62662549,33.40473367,306.53
-97.62663344,33.40473376,305.92
-97.62678267,33.40473541,302.77
-97.62701521,33.40473798,299.51
-97.62701564,33.40473799,309.70
-97.62710155,33.40473894,307.42
-97.62715713,33.40473955,313.42
-97.62717024,33.40473970,312.68
-97.62717454,33.40473974,313.02
-97.62718121,33.40473982,311.61
-97.62724496,33.40474052,307.92
-97.62730259,33.40474116,310.42
-97.62733065,33.40474147,308.22
-97.62736301,33.40474183,302.85
-97.62736753,33.40474188,303.03
-97.62737473,33.40474196,304.74
-97.62741161,33.40474237,301.93
-97.62744827,33.40474277,299.12
-97.62752460,33.40474362,302.55
-97.62754062,33.40474379,303.12
-97.62755718,33.40474398,301.90
-97.62758911,33.40474433,299.30
-97.62763136,33.40474480,299.73
-97.62779757,33.40474664,300.48
-97.62789229,33.40474768,300.74
-97.62796400,33.40474848,300.96
-97.62798281,33.40474869,300.96
-97.62810957,33.40475009,301.01
-97.62816945,33.40475075,301.14
-97.62819912,33.40475108,301.11
-97.62834168,33.40475265,301.21
     </coordinates>
    </LineString>
   </MultiGeometry>
  </Placemark>
 </Document>
</kml>
