<kml>
 <Document>
  <Style id="yellow">
   <LineStyle>
   <color>ff00ffff</color>
   <width>1</width>
   </LineStyle>
  </Style>
  <Style id="red">
   <LineStyle>
   <color>ffff0000</color>
   <width>2</width>
   </LineStyle>
  </Style>
  <Style id="green">
   <LineStyle>
   <color>ff00ff00</color>
   <width>1</width>
   </LineStyle>
  </Style>
  <Placemark>
  <styleUrl>#yellow</styleUrl>
   <MultiGeometry>
    <LineString>
     <coordinates>
-97.60500866,33.39547374,298.74
-97.60501339,33.39547379,298.80
-97.60521452,33.39547605,299.19
-97.60521915,33.39547611,299.24
-97.60522377,33.39547616,299.28
-97.60527322,33.39547671,299.51
-97.60527795,33.39547677,299.52
-97.60557432,33.39548010,300.73
-97.60558260,33.39548019,300.69
-97.60581103,33.39548276,301.38
-97.60604441,33.39548538,311.89
-97.60604925,33.39548543,311.89
-97.60605624,33.39548551,302.50
-97.60631843,33.39548846,311.74
-97.60632434,33.39548852,303.15
-97.60632907,33.39548858,303.19
-97.60655019,33.39549106,309.77
-97.60688795,33.39549485,305.76
-97.60715756,33.39549788,316.18
-97.60715842,33.39549789,314.15
-97.60715864,33.39549789,313.59
-97.60748210,33.39550152,306.91
-97.60766141,33.39550354,313.15
-97.60766227,33.39550355,312.14
-97.60766560,33.39550358,308.58
-97.60786028,33.39550577,305.33
-97.60786942,33.39550587,306.58
-97.60792693,33.39550652,304.86
-97.60793187,33.39550657,304.84
-97.60814440,33.39550896,304.02
-97.60816396,33.39550917,306.97
-97.60819482,33.39550952,310.58
-97.60820288,33.39550961,310.48
-97.60820675,33.39550965,311.00
-97.60840412,33.39551187,303.99
-97.60841229,33.39551196,305.01
-97.60842992,33.39551216,307.78
-97.60844260,33.39551230,308.88
-97.60850205,33.39551297,309.66
-97.60850463,33.39551300,308.20
-97.60850807,33.39551303,308.67
-97.60875123,33.39551576,307.55
-97.60876542,33.39551592,309.41
-97.60881455,33.39551647,308.72
-97.60881766,33.39551651,305.06
-97.60881799,33.39551651,307.09
-97.60882229,33.39551656,305.00
-97.60895720,33.39551807,300.57
-97.60908093,33.39551946,300.17
-97.60908598,33.39551951,300.17
-97.60918832,33.39552066,299.87
-97.60919337,33.39552072,299.86
-97.60938343,33.39552285,299.40
-97.60947384,33.39552386,299.37
-97.60947846,33.39552391,299.34
-97.60963487,33.39552567,299.14
-97.60969722,33.39552636,298.97
-97.60970195,33.39552642,298.98
-97.60987932,33.39552840,298.81
-97.60995145,33.39552921,299.00
-97.61017849,33.39553176,299.23
-97.61023772,33.39553242,299.31
-97.61051271,33.39553550,299.56
-97.61083778,33.39553914,300.89
-97.61101043,33.39554107,300.99
-97.61101473,33.39554112,300.96
-97.61128670,33.39554417,300.79
-97.61156834,33.39554732,302.61
-97.61157727,33.39554742,303.91
-97.61159017,33.39554756,305.04
-97.61159500,33.39554762,305.85
-97.61184010,33.39555036,302.46
-97.61212121,33.39555350,303.38
-97.61224731,33.39555491,312.74
-97.61224903,33.39555493,310.36
-97.61234846,33.39555604,304.30
-97.61239372,33.39555655,309.43
-97.61239770,33.39555660,309.93
-97.61242167,33.39555686,313.01
-97.61243446,33.39555701,314.06
-97.61264581,33.39555937,313.90
-97.61264634,33.39555938,312.45
-97.61271235,33.39556011,312.88
-97.61271977,33.39556020,313.93
-97.61290714,33.39556229,306.66
-97.61290762,33.39555869,306.73
-97.61290842,33.39554247,306.84
-97.61290908,33.39552777,312.92
-97.61290928,33.39552227,307.36
-97.61291003,33.39548179,316.25
-97.61291035,33.39546141,311.88
-97.61291217,33.39534680,307.45
-97.61291275,33.39531037,307.69
-97.61291328,33.39527737,307.77
-97.61291402,33.39523057,312.10
-97.61291420,33.39521957,312.48
-97.61291587,33.39511416,308.28
-97.61291658,33.39506961,311.41
-97.61291662,33.39506718,308.35
-97.61291703,33.39504085,308.62
-97.61291804,33.39497746,310.75
-97.61291915,33.39490766,308.90
-97.61292083,33.39480216,310.53
-97.61292215,33.39471921,313.23
-97.61292297,33.39466700,307.80
-97.61292471,33.39455753,310.87
-97.61292636,33.39445392,311.03
-97.61292724,33.39439865,316.88
-97.61292729,33.39439522,316.73
-97.61292868,33.39430811,311.19
-97.61292873,33.39430460,311.17
-97.61293128,33.39414409,310.44
-97.61293132,33.39414148,310.43
-97.61293154,33.39412768,310.37
-97.61293214,33.39409017,317.27
-97.61293268,33.39405608,316.33
-97.61293362,33.39399693,315.22
-97.61293436,33.39395013,309.32
-97.61293457,33.39393706,309.38
-97.61293490,33.39391632,313.99
-97.61293504,33.39390748,319.60
-97.61293651,33.39381497,311.33
-97.61293821,33.39370802,319.41
-97.61293865,33.39368025,314.25
-97.61293880,33.39367123,314.34
-97.61293892,33.39366357,321.10
-97.61293999,33.39359594,317.71
-97.61294027,33.39357872,317.15
-97.61294036,33.39357286,316.09
-97.61294081,33.39354418,311.16
-97.61294089,33.39353940,313.19
-97.61294101,33.39353165,317.01
-97.61294132,33.39351253,311.43
-97.61294196,33.39347204,314.83
-97.61294238,33.39344544,314.23
-97.61294295,33.39340964,308.41
-97.61294354,33.39337240,315.26
-97.61294522,33.39326672,306.14
-97.61294636,33.39319495,305.92
-97.61294951,33.39299684,305.45
-97.61294989,33.39297258,305.48
-97.61295118,33.39289170,305.47
-97.61295189,33.39284688,305.67
-97.61295369,33.39273354,312.98
-97.61295400,33.39271442,312.84
-97.61295473,33.39266798,315.08
-97.61295502,33.39265022,314.11
-97.61295536,33.39262858,305.80
-97.61295576,33.39260315,305.84
-97.61295666,33.39254697,309.33
-97.61295683,33.39253615,306.06
-97.61295688,33.39253273,306.02
-97.61295694,33.39252894,312.99
-97.61295702,33.39252434,313.03
-97.61295777,33.39247664,311.76
-97.61295802,33.39246140,313.28
-97.61295906,33.39239594,312.30
-97.61296053,33.39230333,311.50
-97.61296184,33.39222046,313.19
-97.61296204,33.39220829,306.17
-97.61296223,33.39219585,311.96
-97.61296392,33.39208998,305.52
-97.61296439,33.39206014,305.49
-97.61296521,33.39200865,305.34
-97.61296763,33.39185635,309.04
-97.61296808,33.39182776,311.45
-97.61296844,33.39180549,304.75
-97.61296862,33.39179377,314.12
-97.61296872,33.39178764,310.55
-97.61296876,33.39178538,304.63
-97.61296903,33.39176807,309.82
-97.61296911,33.39176329,311.24
-97.61296917,33.39175950,311.39
-97.61296928,33.39175220,309.37
-97.61296933,33.39174923,312.18
-97.61296993,33.39171171,304.22
-97.61297049,33.39167637,307.52
-97.61297055,33.39167258,307.35
-97.61297055,33.39167240,310.57
-97.61297161,33.39160549,303.69
-97.61297199,33.39158187,304.41
-97.61297336,33.39149521,304.76
-97.61297406,33.39145166,303.85
-97.61297419,33.39144318,307.44
-97.61297451,33.39142298,306.71
-97.61297452,33.39142235,313.39
-97.61297559,33.39135527,310.63
-97.61297586,33.39133804,308.10
-97.61297778,33.39121712,306.61
-97.61297795,33.39120657,306.43
-97.61297851,33.39117114,308.38
-97.61297865,33.39116221,309.83
-97.61297926,33.39112389,307.56
-97.61298112,33.39100684,305.50
-97.61298155,33.39097970,310.64
-97.61298232,33.39093119,309.50
-97.61298244,33.39092397,300.54
-97.61298258,33.39091541,307.80
-97.61298279,33.39090170,307.91
-97.61298292,33.39089341,310.27
-97.61298309,33.39088286,306.11
-97.61298387,33.39083416,300.16
-97.61298407,33.39082136,300.23
-97.61298469,33.39078204,308.38
-97.61298540,33.39073741,309.19
-97.61298577,33.39071460,305.85
-97.61298589,33.39070657,307.18
-97.61298671,33.39065490,304.23
-97.61298702,33.39063534,302.26
-97.61298703,33.39063516,303.31
-97.61298740,33.39061189,305.61
-97.61298742,33.39061063,302.33
-97.61298776,33.39058899,308.21
-97.61298835,33.39055220,308.10
-97.61298890,33.39051721,299.05
-97.61298908,33.39050567,308.96
-97.61298917,33.39050044,309.35
-97.61299022,33.39043425,309.21
-97.61299046,33.39041901,298.62
-97.61299052,33.39041559,303.47
-97.61299123,33.39037086,301.36
-97.61299166,33.39034363,298.46
-97.61299175,33.39033804,298.48
-97.61299220,33.39030928,300.62
-97.61299235,33.39029981,299.16
-97.61299385,33.39020549,305.16
-97.61299397,33.39019818,304.26
-97.61299560,33.39009530,307.79
-97.61299775,33.38995995,297.17
-97.61300097,33.38975724,296.53
-97.61300260,33.38965463,296.23
-97.61300263,33.38965310,296.23
-97.61300384,33.38957690,300.85
-97.61300452,33.38953380,305.89
-97.61300606,33.38943723,300.01
-97.61300642,33.38941414,295.67
-97.61300714,33.38936906,295.57
-97.61300815,33.38930539,302.74
-97.61300834,33.38929331,302.98
-97.61300850,33.38928330,303.81
-97.61300936,33.38922893,301.62
-97.61300970,33.38920783,304.00
-97.61300977,33.38920359,301.98
-97.61301028,33.38917158,302.27
-97.61301142,33.38909944,301.75
-97.61301188,33.38907077,300.49
-97.61301217,33.38905237,300.54
-97.61301370,33.38895589,293.98
-97.61301488,33.38888159,293.37
-97.61301516,33.38886419,293.00
-97.61301790,33.38869133,294.07
-97.61302060,33.38852171,293.49
-97.61302098,33.38849791,293.42
-97.61302122,33.38848267,293.37
-97.61302147,33.38846689,293.30
-97.61302384,33.38831738,292.59
-97.61302436,33.38828465,292.47
-97.61302493,33.38824867,292.25
-97.61302664,33.38814110,291.49
-97.61302692,33.38812361,291.35
-97.61302811,33.38804894,291.54
-97.61302882,33.38800422,290.68
-97.61302993,33.38793443,289.94
-97.61303024,33.38791459,289.78
-97.61303307,33.38773632,288.82
-97.61303347,33.38771143,288.74
-97.61303411,33.38767121,288.50
-97.61303462,33.38763866,288.16
-97.61303803,33.38741729,286.79
-97.61304191,33.38718014,285.97
-97.61304215,33.38716454,289.05
-97.61304272,33.38712910,292.11
-97.61304306,33.38710773,288.55
-97.61304325,33.38709538,285.94
-97.61304461,33.38700990,291.19
-97.61304466,33.38700674,292.39
-97.61304901,33.38673253,291.11
-97.61304931,33.38671377,294.59
-97.61305047,33.38662766,290.52
-97.61305144,33.38655299,296.44
-97.61305145,33.38654560,293.25
-97.61304758,33.38654537,292.76
-97.61304307,33.38654523,292.47
-97.61299599,33.38654461,289.89
-97.61289054,33.38654344,295.34
-97.61288592,33.38654338,295.19
-97.61287281,33.38654324,292.04
-97.61282755,33.38654273,296.77
-97.61281552,33.38654260,297.70
-97.61280423,33.38654247,298.68
-97.61276854,33.38654207,289.26
-97.61273415,33.38654169,298.46
-97.61271695,33.38654150,297.48
-97.61271233,33.38654144,297.33
-97.61266697,33.38654094,288.85
-97.61250187,33.38653909,286.85
-97.61238675,33.38653780,281.12
-97.61235686,33.38653747,289.34
-97.61234246,33.38653731,289.27
-97.61233590,33.38653724,290.19
-97.61228528,33.38653667,294.73
-97.61228173,33.38653663,295.07
-97.61227894,33.38653660,295.71
-97.61225486,33.38653633,295.70
-97.61223712,33.38653613,294.88
-97.61210857,33.38653469,288.41
-97.61209954,33.38653459,288.06
-97.61183093,33.38653159,293.67
-97.61151158,33.38652801,289.06
-97.61147503,33.38652761,287.21
-97.61122652,33.38652482,285.03
-97.61079754,33.38652002,284.69
-97.61069048,33.38651882,290.24
-97.61063824,33.38651824,287.66
-97.61042520,33.38651585,297.02
-97.61033577,33.38651485,300.33
-97.61033169,33.38651481,300.07
-97.61032997,33.38651479,299.10
-97.61032427,33.38651472,297.70
-97.61028450,33.38651428,285.64
-97.60994097,33.38651052,283.97
-97.60956541,33.38650622,285.75
-97.60956218,33.38650619,286.97
-97.60956046,33.38650617,285.85
-97.60955756,33.38650613,285.14
-97.60953574,33.38650589,278.57
-97.60950263,33.38650552,284.47
-97.60937548,33.38650409,296.64
-97.60928529,33.38650308,292.12
-97.60927487,33.38650297,283.18
-97.60924843,33.38650267,290.41
-97.60910299,33.38650104,283.41
-97.60894660,33.38649929,283.21
-97.60894176,33.38649923,283.19
-97.60887620,33.38649850,283.36
-97.60867455,33.38649624,283.24
-97.60835133,33.38649261,283.31
-97.60834671,33.38649256,283.35
-97.60824363,33.38649141,283.34
-97.60801221,33.38648881,282.84
-97.60776004,33.38648598,283.06
-97.60775521,33.38648593,283.09
-97.60727130,33.38648050,285.14
-97.60726668,33.38648044,285.14
-97.60726216,33.38648039,285.14
-97.60721970,33.38648028,285.13
-97.60718755,33.38648019,285.09
-97.60665647,33.38647359,288.05
-97.60665185,33.38647354,288.36
-97.60665163,33.38647354,286.77
-97.60664679,33.38647349,287.21
-97.60664658,33.38647348,285.83
-97.60664217,33.38647343,286.15
-97.60621018,33.38646858,282.17
-97.60620556,33.38646853,282.16
-97.60598446,33.38646605,286.38
-97.60575648,33.38646349,290.36
-97.60573509,33.38646324,290.70
-97.60572401,33.38646312,290.94
-97.60561911,33.38646194,288.68
-97.60559245,33.38646164,282.00
-97.60555375,33.38646121,293.80
-97.60538758,33.38645934,281.88
-97.60538274,33.38645929,281.89
-97.60507146,33.38645579,297.73
-97.60506802,33.38645575,298.31
-97.60501707,33.38645518,285.48
-97.60486046,33.38645341,290.60
-97.60477350,33.38645244,281.35
-97.60476845,33.38645238,281.43
-97.60476372,33.38645233,281.41
-97.60454907,33.38644991,293.94
-97.60454767,33.38644990,293.33
-97.60454412,33.38644986,293.85
-97.60450693,33.38644944,283.64
-97.60450403,33.38644941,282.36
-97.60410171,33.38644488,292.91
-97.60408300,33.38644467,294.52
-97.60407645,33.38644460,293.85
-97.60406323,33.38644445,290.81
-97.60405893,33.38644440,293.62
-97.60395219,33.38644320,282.10
-97.60394736,33.38644315,282.03
-97.60365370,33.38643984,284.12
-97.60365220,33.38643982,283.61
-97.60364671,33.38643976,283.52
-97.60363940,33.38643968,281.16
-97.60347581,33.38643784,289.96
-97.60339068,33.38643688,291.25
-97.60318280,33.38643454,280.83
-97.60317388,33.38643444,294.90
-97.60316915,33.38643439,295.08
-97.60316442,33.38643433,295.17
-97.60315980,33.38643428,296.47
-97.60315969,33.38643428,295.10
-97.60315926,33.38643428,281.31
-97.60315378,33.38643421,294.80
-97.60315012,33.38643417,295.26
-97.60274500,33.38642961,288.54
-97.60272630,33.38642940,288.89
-97.60272200,33.38642935,288.90
-97.60247198,33.38642654,293.25
-97.60246704,33.38642648,293.31
-97.60241641,33.38642591,294.15
-97.60233375,33.38642507,295.86
-97.60230476,33.38642952,280.06
-97.60230395,33.38643989,280.09
-97.60230246,33.38648632,280.10
-97.60230201,33.38650769,280.14
-97.60230185,33.38651733,280.22
-97.60229878,33.38670931,280.43
-97.60229709,33.38681490,280.49
-97.60229573,33.38689966,283.15
-97.60229573,33.38690011,284.55
-97.60229247,33.38710372,283.99
-97.60228979,33.38727081,280.86
-97.60228909,33.38731481,291.10
-97.60228908,33.38731544,292.97
-97.60228908,33.38731553,281.09
-97.60228894,33.38732401,292.12
-97.60228846,33.38735439,282.95
-97.60228725,33.38742996,287.56
-97.60228723,33.38743077,289.97
-97.60228686,33.38745430,284.73
-97.60228616,33.38749759,291.84
-97.60228488,33.38757793,292.49
-97.60228487,33.38757847,293.96
-97.60228390,33.38763897,287.33
-97.60228390,33.38763925,287.96
-97.60228363,33.38765602,286.97
-97.60228343,33.38766810,288.16
-97.60228343,33.38766846,288.88
-97.60228020,33.38787017,288.43
-97.60228019,33.38787062,289.67
-97.60227942,33.38791896,284.95
-97.60227877,33.38795953,294.70
-97.60227876,33.38795989,295.46
-97.60227707,33.38806567,298.11
-97.60227620,33.38812004,288.77
-97.60227497,33.38819713,297.81
-97.60227424,33.38824222,285.30
-97.60227381,33.38826972,296.56
-97.60227380,33.38827017,297.55
-97.60227249,33.38835214,285.27
-97.60227248,33.38835232,297.11
-97.60227248,33.38835277,298.23
-97.60227007,33.38850327,294.52
-97.60226837,33.38860913,292.03
-97.60226837,33.38860940,292.60
-97.60226835,33.38861021,294.32
-97.60226775,33.38864772,297.51
-97.60226753,33.38866179,297.27
-97.60226752,33.38866251,298.81
-97.60226481,33.38883176,285.08
-97.60226480,33.38883239,286.49
-97.60226433,33.38886170,285.46
-97.60225932,33.38917441,287.37
-97.60225626,33.38936557,289.24
-97.60225547,33.38941526,288.32
-97.60224930,33.38980083,292.23
-97.60224876,33.38983410,294.24
-97.60224875,33.38983509,296.02
-97.60224873,33.38983600,297.60
-97.60224824,33.38986711,296.96
-97.60224823,33.38986774,298.14
-97.60224733,33.38992346,292.50
-97.60224616,33.38999659,300.11
-97.60224616,33.38999695,300.75
-97.60224428,33.39011417,290.63
-97.60224376,33.39014664,296.87
-97.60223779,33.39051949,289.38
-97.60223778,33.39052022,290.69
-97.60223777,33.39052103,292.27
-97.60223237,33.39086521,290.15
-97.60223020,33.39099352,290.92
-97.60223019,33.39099452,292.77
-97.60223009,33.39100056,295.86
-97.60222989,33.39101309,299.24
-97.60222988,33.39101363,300.37
-97.60222733,33.39117278,290.62
-97.60222682,33.39120516,290.65
-97.60222569,33.39127531,300.47
-97.60222404,33.39137874,294.11
-97.60222403,33.39137919,295.04
-97.60221921,33.39168694,289.65
-97.60221210,33.39212427,291.43
-97.60220789,33.39238739,294.57
-97.60220762,33.39240434,289.67
-97.60220595,33.39250867,294.59
-97.60220447,33.39260101,299.03
-97.60220103,33.39281579,298.55
-97.60220103,33.39281606,299.22
-97.60220046,33.39285132,296.31
-97.60220046,33.39285177,297.53
-97.60219727,33.39306395,297.91
-97.60219302,33.39331624,300.88
-97.60219301,33.39331660,302.11
-97.60219200,33.39337972,299.09
-97.60218991,33.39351056,291.22
-97.60218990,33.39351101,292.64
-97.60218989,33.39351155,294.36
-97.60218720,33.39367972,300.88
-97.60218719,33.39368044,302.92
-97.60218688,33.39369956,299.48
-97.60218285,33.39395123,290.33
-97.60217827,33.39423743,294.56
-97.60217725,33.39430118,291.20
-97.60217700,33.39431678,299.14
-97.60217700,33.39431696,299.82
-97.60217534,33.39442057,299.66
-97.60217515,33.39443247,297.45
-97.60217513,33.39443328,299.47
-97.60217309,33.39456069,292.27
-97.60217308,33.39456169,294.48
-97.60217284,33.39457684,298.32
-97.60216622,33.39499000,294.22
-97.60216613,33.39499541,298.03
-97.60216611,33.39499658,300.36
-97.60216464,33.39508856,297.24
-97.60216463,33.39508919,298.50
-97.60216241,33.39522778,299.91
-97.60216139,33.39529153,302.85
-97.60216138,33.39529225,304.06
-97.60215932,33.39542120,304.29
-97.60215929,33.39542300,307.17
-97.60215923,33.39543969,295.50
-97.60216362,33.39544127,297.97
-97.60219511,33.39544198,304.47
-97.60234754,33.39544379,295.18
-97.60235227,33.39544384,295.16
-97.60239753,33.39544435,296.00
-97.60242096,33.39544462,296.38
-97.60256232,33.39544621,298.68
-97.60261876,33.39544685,295.63
-97.60279774,33.39544886,302.54
-97.60286536,33.39544962,303.58
-97.60287880,33.39544977,303.83
-97.60288363,33.39544983,303.88
-97.60295125,33.39545059,305.02
-97.60295587,33.39545064,305.09
-97.60304026,33.39545159,302.44
-97.60304488,33.39545164,302.58
-97.60320366,33.39545343,305.09
-97.60320473,33.39545344,305.45
-97.60320806,33.39545348,303.53
-97.60320925,33.39545349,300.96
-97.60320946,33.39545350,305.33
-97.60321043,33.39545351,302.81
-97.60326246,33.39545409,294.48
-97.60327192,33.39545420,294.64
-97.60340640,33.39545571,303.92
-97.60341790,33.39545584,296.50
-97.60341984,33.39545587,294.12
-97.60372115,33.39545926,302.83
-97.60372492,33.39545930,297.44
-97.60373029,33.39545936,302.19
-97.60373201,33.39545938,294.79
-97.60381178,33.39546028,298.00
-97.60388014,33.39546105,299.22
-97.60388896,33.39546114,299.30
-97.60392132,33.39546151,299.89
-97.60398033,33.39546217,295.37
-97.60398109,33.39546218,295.37
-97.60398549,33.39546223,295.43
-97.60399001,33.39546228,295.46
-97.60399452,33.39546233,295.50
-97.60401226,33.39546253,301.40
-97.60402108,33.39546263,301.48
-97.60402978,33.39546273,301.69
-97.60403924,33.39546284,301.83
-97.60410310,33.39546355,302.79
-97.60411847,33.39546373,297.55
-97.60426660,33.39546539,296.47
-97.60433411,33.39546615,296.81
-97.60433916,33.39546621,296.83
-97.60447730,33.39546776,297.27
-97.60471186,33.39547040,297.58
-97.60477410,33.39547110,297.76
-97.60477915,33.39547116,297.77
-97.60500866,33.39547374,298.74
     </coordinates>
    </LineString>
   </MultiGeometry>
  </Placemark>
 </Document>
</kml>
