<kml>
 <Document>
  <Style id="yellow">
   <LineStyle>
   <color>ff00ffff</color>
   <width>1</width>
   </LineStyle>
  </Style>
  <Style id="red">
   <LineStyle>
   <color>ffff0000</color>
   <width>2</width>
   </LineStyle>
  </Style>
  <Style id="green">
   <LineStyle>
   <color>ff00ff00</color>
   <width>1</width>
   </LineStyle>
  </Style>
  <Placemark>
  <styleUrl>#yellow</styleUrl>
   <MultiGeometry>
    <LineString>
     <coordinates>
-97.61797765,33.40463763,302.06
-97.61798206,33.40463768,311.46
-97.61799915,33.40463787,310.91
-97.61800797,33.40463797,310.65
-97.61803872,33.40463831,309.86
-97.61804323,33.40463836,309.75
-97.61804796,33.40463841,309.61
-97.61806946,33.40463865,308.94
-97.61810043,33.40463900,308.18
-97.61810462,33.40463904,308.08
-97.61828793,33.40464109,300.54
-97.61829040,33.40464111,303.51
-97.61829255,33.40464114,300.51
-97.61829341,33.40464115,302.26
-97.61830169,33.40464124,309.05
-97.61830448,33.40464127,309.78
-97.61830534,33.40464128,307.53
-97.61830642,33.40464129,308.99
-97.61835275,33.40464181,308.92
-97.61835662,33.40464185,308.73
-97.61839071,33.40464223,300.02
-97.61870324,33.40464571,309.40
-97.61872420,33.40464594,304.34
-97.61923843,33.40465167,302.81
-97.61929541,33.40465230,301.20
-97.61934142,33.40465281,302.04
-97.61934884,33.40465290,301.32
-97.61960321,33.40465573,302.37
-97.61965191,33.40465627,308.44
-97.61977673,33.40465766,314.56
-97.61985994,33.40465858,312.34
-97.62000863,33.40466024,308.33
-97.62044792,33.40466512,306.03
-97.62053135,33.40466605,312.24
-97.62072702,33.40466823,306.97
-97.62082141,33.40466928,313.25
-97.62083055,33.40466938,312.93
-97.62088850,33.40467002,311.41
-97.62103235,33.40467162,307.54
-97.62103708,33.40467168,307.49
-97.62120705,33.40467356,311.22
-97.62132488,33.40467487,308.03
-97.62136402,33.40467531,309.17
-97.62137014,33.40467538,309.57
-97.62139143,33.40467561,311.30
-97.62140519,33.40467577,312.36
-97.62143949,33.40467615,315.11
-97.62146153,33.40467639,314.18
-97.62147067,33.40467649,313.83
-97.62147948,33.40467659,313.60
-97.62148830,33.40467669,313.40
-97.62149314,33.40467674,313.24
-97.62156162,33.40467750,311.52
-97.62160108,33.40467794,312.02
-97.62160323,33.40467797,310.56
-97.62165677,33.40467856,306.94
-97.62166010,33.40467860,316.65
-97.62166988,33.40467871,307.94
-97.62174718,33.40467957,306.69
-97.62185889,33.40468081,312.16
-97.62194232,33.40468173,314.63
-97.62197855,33.40468214,305.99
-97.62205359,33.40468297,311.78
-97.62206047,33.40468305,312.49
-97.62209896,33.40468347,305.80
-97.62213637,33.40468389,305.61
-97.62245847,33.40468747,314.47
-97.62247471,33.40468765,304.44
-97.62247933,33.40468770,304.38
-97.62250707,33.40468801,313.09
-97.62251642,33.40468811,312.96
-97.62261662,33.40468922,303.92
-97.62288615,33.40469221,303.03
-97.62288949,33.40469225,302.97
-97.62298614,33.40469332,310.87
-97.62313536,33.40469498,309.46
-97.62315192,33.40469516,310.81
-97.62326373,33.40469641,301.74
-97.62326728,33.40469644,308.42
-97.62330426,33.40469686,311.31
-97.62346112,33.40469860,301.14
-97.62346800,33.40469867,310.80
-97.62347338,33.40469873,311.12
-97.62348305,33.40469875,311.48
-97.62349811,33.40469874,311.70
-97.62351553,33.40469848,310.47
-97.62351640,33.40469777,300.87
-97.62351764,33.40462590,310.37
-97.62351789,33.40461030,300.44
-97.62351824,33.40458839,311.14
-97.62351880,33.40455232,308.98
-97.62351886,33.40454898,310.56
-97.62351890,33.40454637,300.10
-97.62351903,33.40453816,307.23
-97.62351907,33.40453564,310.09
-97.62352038,33.40445232,299.80
-97.62352048,33.40444583,308.44
-97.62352054,33.40444249,308.13
-97.62352065,33.40443528,307.86
-97.62352081,33.40442545,307.02
-97.62352108,33.40440823,309.73
-97.62352115,33.40440372,309.02
-97.62352226,33.40433302,306.59
-97.62352300,33.40428604,299.00
-97.62352313,33.40427829,309.76
-97.62352344,33.40425818,308.83
-97.62352345,33.40425773,299.12
-97.62352353,33.40425277,299.07
-97.62352388,33.40423041,299.17
-97.62352490,33.40416557,301.88
-97.62352564,33.40411904,307.91
-97.62352645,33.40406774,299.42
-97.62352730,33.40401399,299.64
-97.62352807,33.40396467,308.92
-97.62352815,33.40396007,308.83
-97.62352830,33.40395024,307.75
-97.62352877,33.40392040,303.42
-97.62353035,33.40382058,305.59
-97.62353060,33.40380470,308.11
-97.62353068,33.40379966,307.51
-97.62353109,33.40377342,303.84
-97.62353119,33.40376719,307.02
-97.62353149,33.40374799,304.11
-97.62353195,33.40371877,307.85
-97.62353263,33.40367585,302.77
-97.62353284,33.40366251,309.61
-97.62353354,33.40361805,304.55
-97.62353358,33.40361534,304.34
-97.62353410,33.40358288,305.79
-97.62353569,33.40348207,300.54
-97.62353865,33.40329433,300.89
-97.62353873,33.40328910,300.93
-97.62353922,33.40325808,300.98
-97.62353931,33.40325231,301.00
-97.62354110,33.40313888,308.22
-97.62354114,33.40313635,306.74
-97.62354168,33.40310227,309.54
-97.62354172,33.40309956,304.78
-97.62354175,33.40309767,301.57
-97.62354189,33.40308892,308.16
-97.62354263,33.40304149,305.36
-97.62354281,33.40303040,306.22
-97.62354291,33.40302382,305.73
-97.62354299,33.40301913,307.83
-97.62354411,33.40294762,310.07
-97.62354454,33.40292039,301.03
-97.62354480,33.40290407,300.88
-97.62354568,33.40284843,301.33
-97.62354673,33.40278162,301.21
-97.62354795,33.40270443,301.25
-97.62354840,33.40267602,301.42
-97.62355010,33.40256836,304.52
-97.62355091,33.40251642,310.81
-97.62355100,33.40251128,309.68
-97.62355115,33.40250127,307.74
-97.62355310,33.40237765,309.63
-97.62355334,33.40236295,308.57
-97.62355343,33.40235709,308.81
-97.62355363,33.40234428,312.38
-97.62355378,33.40233500,311.65
-97.62355477,33.40227169,314.01
-97.62355486,33.40226646,314.17
-97.62355507,33.40225294,312.66
-97.62355562,33.40221777,308.18
-97.62355672,33.40214834,313.51
-97.62355720,33.40211813,309.55
-97.62355748,33.40209983,307.90
-97.62355757,33.40209451,307.04
-97.62355786,33.40207593,304.74
-97.62355799,33.40206755,305.04
-97.62355994,33.40194419,302.04
-97.62356029,33.40192210,306.52
-97.62356038,33.40191597,302.16
-97.62356090,33.40188314,301.96
-97.62356118,33.40186556,311.60
-97.62356206,33.40180965,308.56
-97.62356284,33.40176033,302.26
-97.62356306,33.40174635,310.38
-97.62356365,33.40170920,302.39
-97.62356434,33.40166547,313.94
-97.62356446,33.40165780,312.69
-97.62356472,33.40164112,312.71
-97.62356530,33.40160433,308.42
-97.62356551,33.40159099,310.12
-97.62356596,33.40156213,302.78
-97.62356661,33.40152137,302.70
-97.62356739,33.40147160,305.94
-97.62356750,33.40146448,309.24
-97.62357119,33.40123102,316.70
-97.62357173,33.40119667,316.92
-97.62357229,33.40116132,310.62
-97.62357449,33.40102155,311.91
-97.62357465,33.40101145,311.31
-97.62357509,33.40098332,316.92
-97.62357581,33.40093814,317.30
-97.62357681,33.40087457,317.85
-97.62357691,33.40086790,315.26
-97.62357814,33.40079035,316.36
-97.62357821,33.40078575,316.31
-97.62357907,33.40073084,315.76
-97.62357967,33.40069315,304.08
-97.62357974,33.40068864,312.15
-97.62357986,33.40068070,314.20
-97.62357994,33.40067619,312.96
-97.62358025,33.40065645,315.29
-97.62358096,33.40061127,314.06
-97.62358100,33.40060902,307.59
-97.62358110,33.40060234,312.21
-97.62358140,33.40058314,317.25
-97.62358253,33.40051172,313.63
-97.62358268,33.40050225,315.74
-97.62358281,33.40049405,314.01
-97.62358300,33.40048187,309.31
-97.62358329,33.40046330,312.93
-97.62358417,33.40040793,314.60
-97.62358452,33.40038530,312.60
-97.62358744,33.40020036,311.47
-97.62359013,33.40002993,305.70
-97.62359023,33.40002326,305.71
-97.62359186,33.39991974,305.77
-97.62359210,33.39990477,305.81
-97.62359238,33.39988701,305.89
-97.62359384,33.39979467,306.02
-97.62359839,33.39950576,306.66
-97.62359907,33.39946311,306.74
-97.62359959,33.39942966,306.86
-97.62360158,33.39930360,307.17
-97.62360359,33.39917646,307.69
-97.62360655,33.39898863,308.28
-97.62360698,33.39896103,308.23
-97.62361064,33.39872902,308.85
-97.62361215,33.39863335,309.25
-97.62361572,33.39840675,310.43
-97.62361811,33.39825553,311.10
-97.62361851,33.39822974,311.16
-97.62361976,33.39815057,311.29
-97.62362162,33.39803253,312.19
-97.62362642,33.39772857,313.06
-97.62362666,33.39771306,313.00
-97.62362674,33.39770792,313.00
-97.62362806,33.39762460,312.70
-97.62362807,33.39762352,312.71
-97.62362992,33.39750647,312.21
-97.62363314,33.39730232,311.22
-97.62363381,33.39725967,311.12
-97.62363671,33.39706860,310.63
-97.62364107,33.39679916,309.12
-97.62364150,33.39677193,309.00
-97.62364251,33.39670755,308.82
-97.62364352,33.39664380,308.62
-97.62364826,33.39634289,308.10
-97.62364974,33.39624948,308.10
-97.62365034,33.39621106,308.05
-97.62365397,33.39598103,310.33
-97.62365630,33.39583342,307.38
-97.62365753,33.39573486,307.02
-97.62365781,33.39571024,306.94
-97.62365770,33.39568319,306.79
-97.62364362,33.39568276,306.79
-97.62360278,33.39568158,306.82
-97.62359311,33.39568139,306.81
-97.62341971,33.39567946,306.96
-97.62335940,33.39567879,307.07
-97.62307270,33.39567561,307.62
-97.62289275,33.39567361,319.70
-97.62288544,33.39567353,318.53
-97.62288189,33.39567349,316.85
-97.62268667,33.39567133,314.50
-97.62264582,33.39567087,313.87
-97.62257455,33.39567008,319.59
-97.62254047,33.39566970,309.63
-97.62252392,33.39566952,311.80
-97.62237524,33.39566787,309.36
-97.62237084,33.39566782,309.34
-97.62226248,33.39566662,314.08
-97.62224506,33.39566642,309.42
-97.62223141,33.39566627,318.09
-97.62222657,33.39566622,318.02
-97.62221303,33.39566607,317.89
-97.62216444,33.39566553,316.92
-97.62197900,33.39566347,308.96
-97.62172068,33.39566060,307.83
-97.62158265,33.39565907,307.04
-97.62157781,33.39565901,307.02
-97.62157340,33.39565896,306.99
-97.62146268,33.39565773,306.60
-97.62115222,33.39565428,310.30
-97.62112567,33.39565399,309.86
-97.62104451,33.39565309,308.47
-97.62074630,33.39564977,303.52
-97.62074190,33.39564972,303.55
-97.62034157,33.39564527,305.86
-97.62032759,33.39564521,305.88
-97.61979128,33.39563915,307.00
-97.61978687,33.39563910,306.95
-97.61942610,33.39563509,307.18
-97.61942191,33.39563504,308.37
-97.61942170,33.39563504,309.75
-97.61941890,33.39563501,310.55
-97.61917832,33.39563233,307.30
-97.61917348,33.39563228,307.28
-97.61916853,33.39563222,307.26
-97.61916413,33.39563217,307.22
-97.61913811,33.39563189,307.15
-97.61913489,33.39563185,309.64
-97.61882034,33.39562835,307.04
-97.61881561,33.39562830,307.05
-97.61856267,33.39562548,308.25
-97.61853235,33.39562514,315.86
-97.61843120,33.39562402,306.10
-97.61838777,33.39562353,316.37
-97.61837261,33.39562336,315.96
-97.61832456,33.39562283,315.34
-97.61832337,33.39562281,304.20
-97.61824877,33.39562198,306.26
-97.61824812,33.39562198,304.40
-97.61824468,33.39562194,308.00
-97.61815224,33.39562091,312.34
-97.61814729,33.39562085,312.28
-97.61810762,33.39562041,311.53
-97.61805527,33.39561983,319.17
-97.61800088,33.39561922,318.17
-97.61797389,33.39561892,309.51
-97.61795777,33.39561874,309.56
-97.61795110,33.39561867,317.32
-97.61776599,33.39561661,314.41
-97.61761345,33.39561491,319.88
-97.61760872,33.39561485,320.03
-97.61749627,33.39561360,309.96
-97.61728439,33.39561124,311.32
-97.61705155,33.39560865,312.16
-97.61704714,33.39560860,312.16
-97.61669207,33.39560464,313.60
-97.61639817,33.39560136,314.49
-97.61639387,33.39560131,314.47
-97.61605740,33.39559756,313.86
-97.61605299,33.39559751,313.84
-97.61574855,33.39559412,312.25
-97.61574393,33.39559406,312.23
-97.61544229,33.39559070,311.44
-97.61506217,33.39558646,310.65
-97.61500143,33.39558578,310.83
-97.61474806,33.39558295,311.17
-97.61474623,33.39558293,311.16
-97.61449877,33.39558017,314.42
-97.61447791,33.39557993,311.90
-97.61442427,33.39557933,312.07
-97.61428807,33.39557781,319.18
-97.61422540,33.39557711,312.53
-97.61409457,33.39557565,320.42
-97.61405286,33.39557519,312.60
-97.61404953,33.39557515,315.95
-97.61404641,33.39557511,316.82
-97.61402534,33.39557488,312.35
-97.61372467,33.39557152,311.08
-97.61371854,33.39557145,319.25
-97.61371574,33.39557142,322.12
-97.61371252,33.39557138,320.62
-97.61347140,33.39556869,312.42
-97.61346796,33.39556865,311.82
-97.61344861,33.39556843,309.63
-97.61331714,33.39556697,309.81
-97.61331467,33.39556694,308.83
-97.61331445,33.39556693,310.71
-97.61313589,33.39556494,307.96
-97.61313181,33.39556489,307.80
-97.61303409,33.39556380,307.36
-97.61297346,33.39556312,314.83
-97.61295809,33.39556295,312.77
-97.61295444,33.39556291,312.24
-97.61291380,33.39556255,308.66
-97.61291012,33.39556413,306.68
-97.61290932,33.39557404,306.77
-97.61290854,33.39558909,306.63
-97.61290787,33.39562417,306.59
-97.61290742,33.39565257,306.52
-97.61290682,33.39569026,305.66
-97.61290612,33.39573463,306.12
-97.61290536,33.39578251,305.74
-97.61290530,33.39578594,305.69
-97.61290420,33.39585546,308.29
-97.61290029,33.39610127,304.10
-97.61289979,33.39613301,304.05
-97.61289917,33.39617178,308.43
-97.61289901,33.39618233,310.53
-97.61289426,33.39648098,302.58
-97.61289184,33.39663337,303.34
-97.61289165,33.39664527,303.08
-97.61288869,33.39683184,310.22
-97.61288820,33.39686267,305.48
-97.61288794,33.39687854,302.09
-97.61288766,33.39689622,301.96
-97.61288711,33.39693130,301.92
-97.61288547,33.39703436,301.40
-97.61288284,33.39719974,300.56
-97.61288217,33.39724167,300.89
-97.61288034,33.39735699,298.62
-97.61288034,33.39735717,302.02
-97.61287942,33.39741488,303.46
-97.61287918,33.39742985,297.76
-97.61287902,33.39744031,299.07
-97.61287670,33.39758603,301.30
-97.61287634,33.39760893,301.47
-97.61287587,33.39763833,301.79
-97.61287436,33.39773364,302.10
-97.61287104,33.39794212,301.52
-97.61287060,33.39797025,301.22
-97.61286605,33.39826295,301.24
-97.61286115,33.39856439,301.46
-97.61286102,33.39857314,301.44
-97.61286070,33.39859325,301.48
-97.61285798,33.39876403,303.61
-97.61285755,33.39879099,307.63
-97.61285748,33.39879568,303.80
-97.61285558,33.39891516,300.58
-97.61285550,33.39892048,300.59
-97.61284886,33.39933815,300.02
-97.61284326,33.39969045,307.07
-97.61284268,33.39972688,308.71
-97.61284243,33.39974257,310.52
-97.61284187,33.39977810,309.10
-97.61284088,33.39984041,299.51
-97.61283987,33.39990371,301.05
-97.61283941,33.39993238,300.45
-97.61283744,33.40005673,300.58
-97.61283718,33.40007305,301.32
-97.61283702,33.40008297,302.33
-97.61283659,33.40010975,300.30
-97.61283595,33.40015060,300.45
-97.61283508,33.40020515,306.08
-97.61283441,33.40024726,307.94
-97.61283439,33.40024825,309.43
-97.61283322,33.40032210,298.11
-97.61283285,33.40034510,306.21
-97.61283267,33.40035673,306.47
-97.61283258,33.40036259,306.84
-97.61283248,33.40036881,308.10
-97.61283175,33.40041435,306.46
-97.61283158,33.40042517,297.87
-97.61283152,33.40042914,309.21
-97.61283140,33.40043653,309.06
-97.61282896,33.40059036,307.94
-97.61282856,33.40061525,308.68
-97.61282849,33.40061985,297.33
-97.61282825,33.40063500,306.86
-97.61282771,33.40066881,297.23
-97.61282724,33.40069839,308.48
-97.61282687,33.40072156,305.30
-97.61282674,33.40072986,298.45
-97.61282625,33.40076070,302.27
-97.61282623,33.40076214,302.01
-97.61282586,33.40078549,305.55
-97.61282460,33.40086476,298.30
-97.61282224,33.40101291,296.53
-97.61282214,33.40101949,299.76
-97.61282138,33.40106701,305.06
-97.61282033,33.40113329,296.27
-97.61281947,33.40118730,296.43
-97.61281944,33.40118901,300.03
-97.61281829,33.40126151,303.65
-97.61281788,33.40128739,300.58
-97.61281788,33.40128757,295.66
-97.61281650,33.40137449,302.97
-97.61281633,33.40138486,298.21
-97.61281625,33.40138973,297.88
-97.61281584,33.40141561,295.95
-97.61281526,33.40145240,298.68
-97.61281497,33.40147062,299.28
-97.61281343,33.40156719,295.49
-97.61281256,33.40162183,295.73
-97.61281196,33.40165971,294.79
-97.61280883,33.40185700,294.68
-97.61280775,33.40192454,294.43
-97.61280749,33.40194095,294.39
-97.61280723,33.40195763,298.90
-97.61280607,33.40203049,294.00
-97.61280594,33.40203861,292.58
-97.61280555,33.40207648,291.71
-97.61280641,33.40209038,291.36
-97.61280779,33.40209815,291.24
-97.61296202,33.40244078,291.22
-97.61284371,33.40262525,291.26
-97.61279478,33.40276774,291.32
-97.61279463,33.40277053,291.36
-97.61279138,33.40295493,295.40
-97.61278972,33.40305890,294.63
-97.61278945,33.40307576,295.57
-97.61278921,33.40309136,293.29
-97.61278913,33.40309596,294.17
-97.61278868,33.40312418,295.94
-97.61278792,33.40317233,294.63
-97.61278668,33.40325006,296.48
-97.61278646,33.40326422,293.79
-97.61278629,33.40327513,293.44
-97.61278612,33.40328568,298.45
-97.61278557,33.40332039,299.11
-97.61278368,33.40343915,291.78
-97.61278101,33.40360714,293.72
-97.61278046,33.40364158,293.92
-97.61277994,33.40367414,294.15
-97.61277975,33.40368622,294.06
-97.61277971,33.40368892,293.96
-97.61277432,33.40402779,294.37
-97.61277429,33.40403004,293.04
-97.61277367,33.40406855,298.67
-97.61277258,33.40413753,294.33
-97.61277200,33.40417414,299.06
-97.61277187,33.40418180,294.41
-97.61277143,33.40420984,294.04
-97.61276897,33.40436440,293.61
-97.61276881,33.40437468,293.66
-97.61276791,33.40443121,294.01
-97.61276602,33.40455655,295.28
-97.61276580,33.40457766,295.84
-97.61276803,33.40457912,296.26
-97.61288446,33.40458079,294.21
-97.61305680,33.40458271,297.45
-97.61310399,33.40458324,294.79
-97.61319097,33.40458421,297.44
-97.61319613,33.40458427,297.69
-97.61319774,33.40458429,300.02
-97.61320151,33.40458433,301.42
-97.61320333,33.40458435,300.41
-97.61320581,33.40458438,301.37
-97.61330364,33.40458547,296.15
-97.61330945,33.40458554,304.98
-97.61332504,33.40458571,304.30
-97.61338825,33.40458642,300.68
-97.61344190,33.40458702,297.64
-97.61346835,33.40458731,296.23
-97.61347351,33.40458737,296.12
-97.61372046,33.40459013,296.66
-97.61391430,33.40459230,297.62
-97.61403052,33.40459359,304.64
-97.61414964,33.40459493,298.18
-97.61432165,33.40459685,299.06
-97.61432574,33.40459689,299.09
-97.61433036,33.40459694,299.17
-97.61455140,33.40459941,299.79
-97.61478642,33.40460204,300.66
-97.61496919,33.40460408,301.44
-97.61497403,33.40460413,301.45
-97.61498349,33.40460424,301.52
-97.61551287,33.40461015,303.27
-97.61551728,33.40461020,303.26
-97.61597118,33.40461526,304.05
-97.61597957,33.40461536,308.43
-97.61598806,33.40461545,311.14
-97.61652411,33.40462143,304.10
-97.61652529,33.40462144,309.53
-97.61652594,33.40462145,308.52
-97.61652787,33.40462147,312.44
-97.61653002,33.40462149,308.99
-97.61653142,33.40462151,314.32
-97.61653594,33.40462156,314.54
-97.61653626,33.40462156,313.91
-97.61654077,33.40462161,314.26
-97.61707177,33.40462753,304.13
-97.61707628,33.40462759,304.15
-97.61708134,33.40462764,307.50
-97.61708295,33.40462766,310.24
-97.61708714,33.40462771,310.41
-97.61710090,33.40462786,308.41
-97.61725873,33.40462962,304.03
-97.61726357,33.40462967,304.04
-97.61743902,33.40463163,307.56
-97.61759932,33.40463341,303.10
-97.61760416,33.40463347,303.00
-97.61771705,33.40463473,305.32
-97.61771758,33.40463473,302.66
-97.61797765,33.40463763,302.06
     </coordinates>
    </LineString>
   </MultiGeometry>
  </Placemark>
 </Document>
</kml>
