<kml>
 <Document>
  <Style id="yellow">
   <LineStyle>
   <color>ff00ffff</color>
   <width>1</width>
   </LineStyle>
  </Style>
  <Style id="red">
   <LineStyle>
   <color>ffff0000</color>
   <width>2</width>
   </LineStyle>
  </Style>
  <Style id="green">
   <LineStyle>
   <color>ff00ff00</color>
   <width>1</width>
   </LineStyle>
  </Style>
  <Placemark>
  <styleUrl>#yellow</styleUrl>
   <MultiGeometry>
    <LineString>
     <coordinates>
-97.59606871,33.35929789,315.84
-97.59615843,33.35929890,315.34
-97.59630242,33.35930053,314.43
-97.59638365,33.35930145,313.92
-97.59651604,33.35930295,312.72
-97.59654473,33.35930327,319.37
-97.59657406,33.35930360,323.05
-97.59664025,33.35930435,325.03
-97.59674556,33.35930554,319.86
-97.59679219,33.35930607,314.80
-97.59679445,33.35930609,313.04
-97.59679477,33.35930610,313.16
-97.59679875,33.35930614,313.18
-97.59680337,33.35930620,313.30
-97.59680509,33.35930621,309.58
-97.59680810,33.35930625,313.44
-97.59680842,33.35930625,308.56
-97.59684828,33.35930670,314.73
-97.59694940,33.35930785,320.97
-97.59695316,33.35930789,319.71
-97.59695617,33.35930792,317.89
-97.59698002,33.35930819,309.05
-97.59716721,33.35931031,321.00
-97.59717011,33.35931034,318.92
-97.59717043,33.35931034,319.54
-97.59718891,33.35931055,312.05
-97.59738641,33.35931278,323.40
-97.59738663,33.35931279,324.11
-97.59739404,33.35931287,320.55
-97.59740941,33.35931304,315.00
-97.59741317,33.35931309,312.59
-97.59757703,33.35931494,324.94
-97.59758896,33.35931507,319.61
-97.59778485,33.35931729,322.65
-97.59778904,33.35931733,320.47
-97.59781569,33.35931763,310.64
-97.59794657,33.35931911,327.25
-97.59794667,33.35931911,326.41
-97.59795151,33.35931917,325.12
-97.59816760,33.35932161,325.70
-97.59816782,33.35932161,325.00
-97.59816814,33.35932161,324.00
-97.59817340,33.35932167,321.88
-97.59817845,33.35932173,321.14
-97.59836972,33.35932389,328.88
-97.59837015,33.35932390,328.08
-97.59855723,33.35932601,324.94
-97.59856324,33.35932608,323.08
-97.59856453,33.35932609,321.37
-97.59876708,33.35932838,328.04
-97.59877289,33.35932844,326.89
-97.59878213,33.35932855,322.21
-97.59889270,33.35932979,312.93
-97.59896093,33.35933056,325.46
-97.59896802,33.35933064,323.02
-97.59898403,33.35933083,323.42
-97.59899328,33.35933093,312.92
-97.59913544,33.35933253,317.53
-97.59918530,33.35933310,328.37
-97.59920560,33.35933332,320.20
-97.59921463,33.35933343,326.77
-97.59933251,33.35933476,330.43
-97.59934014,33.35933484,328.60
-97.59934186,33.35933486,327.49
-97.59936238,33.35933509,318.55
-97.59936464,33.35933512,318.62
-97.59954548,33.35933716,331.52
-97.59954720,33.35933718,330.56
-97.59955816,33.35933730,326.82
-97.59957245,33.35933746,319.85
-97.59957525,33.35933750,319.82
-97.59963005,33.35933811,326.54
-97.59964348,33.35933827,328.06
-97.59974459,33.35933941,330.90
-97.59974663,33.35933943,329.88
-97.59975673,33.35933954,326.93
-97.59980412,33.35934008,323.34
-97.59988557,33.35934100,332.73
-97.59994521,33.35934167,330.49
-97.59994736,33.35934169,329.50
-97.59997078,33.35934196,320.92
-97.59997175,33.35934197,320.93
-97.60003730,33.35934271,328.44
-97.60013594,33.35934382,330.83
-97.60015765,33.35934406,321.56
-97.60025231,33.35934513,329.42
-97.60025908,33.35934521,330.32
-97.60027832,33.35934543,332.64
-97.60030722,33.35934575,333.52
-97.60031571,33.35934585,330.16
-97.60042778,33.35934711,325.53
-97.60055877,33.35934859,324.60
-97.60059004,33.35934894,324.71
-97.60074950,33.35935074,325.45
-97.60091702,33.35935262,329.41
-97.60091896,33.35935265,328.79
-97.60110936,33.35935479,327.28
-97.60129440,33.35935688,328.09
-97.60142098,33.35935830,328.70
-97.60184908,33.35936304,331.09
-97.60206678,33.35936558,335.17
-97.60208043,33.35936573,336.59
-97.60208526,33.35936579,337.18
-97.60211782,33.35936615,341.07
-97.60227803,33.35936796,336.03
-97.60248381,33.35937027,338.14
-97.60269313,33.35937263,339.61
-97.60269775,33.35937259,339.64
-97.60272871,33.35937213,339.82
-97.60273333,33.35937200,339.86
-97.60273471,33.35936669,339.84
-97.60273717,33.35929322,339.82
-97.60274033,33.35909592,339.88
-97.60274239,33.35896671,339.97
-97.60274437,33.35884308,340.16
-97.60274593,33.35874497,340.16
-97.60274609,33.35873551,340.13
-97.60275004,33.35848799,340.03
-97.60275061,33.35845219,339.95
-97.60275125,33.35841242,339.90
-97.60275440,33.35821558,339.24
-97.60275684,33.35806283,338.74
-97.60276204,33.35773749,337.70
-97.60276600,33.35748942,336.97
-97.60277049,33.35720854,336.09
-97.60277118,33.35716553,335.43
-97.60277358,33.35701548,334.15
-97.60277642,33.35683757,333.38
-97.60277774,33.35675525,333.10
-97.60277803,33.35673694,333.07
-97.60277961,33.35663802,332.50
-97.60278022,33.35659970,332.35
-97.60278270,33.35644488,331.98
-97.60278709,33.35616976,331.98
-97.60279369,33.35575668,331.62
-97.60279612,33.35560493,330.87
-97.60279712,33.35554235,334.75
-97.60279804,33.35548482,334.17
-97.60279880,33.35543739,334.58
-97.60279929,33.35540619,329.97
-97.60280193,33.35524117,336.88
-97.60280342,33.35514794,334.28
-97.60280350,33.35514325,335.86
-97.60280375,33.35512756,337.87
-97.60280378,33.35512566,328.02
-97.60280564,33.35500880,328.31
-97.60280872,33.35481610,329.93
-97.60280977,33.35475073,328.41
-97.60281009,33.35473035,325.65
-97.60281032,33.35471637,328.97
-97.60281196,33.35461331,333.69
-97.60281221,33.35459816,334.78
-97.60281364,33.35450826,329.34
-97.60281446,33.35445704,323.54
-97.60281643,33.35433414,327.73
-97.60281738,33.35427417,323.13
-97.60281864,33.35419581,326.85
-97.60281926,33.35415650,329.58
-97.60281941,33.35414766,330.57
-97.60282027,33.35409338,332.53
-97.60282054,33.35407642,322.07
-97.60282225,33.35396948,331.20
-97.60282363,33.35388337,326.50
-97.60282838,33.35358625,319.87
-97.60283100,33.35342205,319.28
-97.60283135,33.35340023,330.03
-97.60283183,33.35337038,323.45
-97.60283210,33.35335316,327.63
-97.60283340,33.35327209,318.79
-97.60283441,33.35320861,329.04
-97.60283514,33.35316290,328.79
-97.60283585,33.35311871,322.20
-97.60283620,33.35309653,327.41
-97.60283681,33.35305866,323.17
-97.60283990,33.35285838,325.59
-97.60284497,33.35254765,318.28
-97.60285164,33.35212998,318.07
-97.60285745,33.35176677,317.24
-97.60286370,33.35137569,316.11
-97.60286834,33.35107803,315.41
-97.60287203,33.35085432,314.80
-97.60287562,33.35062961,314.06
-97.60287915,33.35040860,313.57
-97.60287922,33.35040382,313.55
-97.60287956,33.35037623,313.45
-97.60287953,33.35037099,313.45
-97.60287809,33.35036043,313.41
-97.60280220,33.35035515,313.23
-97.60279758,33.35035510,313.21
-97.60277931,33.35035508,313.16
-97.60273041,33.35035507,313.07
-97.60222362,33.35034864,313.71
-97.60175216,33.35034333,314.94
-97.60174754,33.35034328,314.87
-97.60131959,33.35033846,315.44
-97.60083825,33.35033304,318.21
-97.60078388,33.35033242,315.59
-97.60077916,33.35033237,315.59
-97.60053687,33.35032964,315.19
-97.60051871,33.35032943,325.99
-97.60051710,33.35032942,315.20
-97.60051635,33.35032941,317.13
-97.60051452,33.35032939,316.17
-97.60051399,33.35032938,325.90
-97.60051162,33.35032935,315.36
-97.60050829,33.35032932,325.46
-97.60049830,33.35032920,325.02
-97.60048358,33.35032904,324.52
-97.60047746,33.35032897,319.20
-97.60046424,33.35032882,320.56
-97.60046005,33.35032877,320.39
-97.60045790,33.35032875,319.53
-97.60045393,33.35032870,323.16
-97.60045285,33.35032869,319.63
-97.60044877,33.35032865,319.34
-97.60044759,33.35032863,321.57
-97.60043845,33.35032853,322.29
-97.60043717,33.35032852,321.81
-97.60043362,33.35032848,321.29
-97.60043007,33.35032844,322.62
-97.60038280,33.35032790,319.67
-97.60037410,33.35032780,324.16
-97.60026021,33.35032652,314.33
-97.59977897,33.35032109,318.91
-97.59970355,33.35032024,315.42
-97.59969280,33.35032012,315.00
-97.59961007,33.35031919,310.88
-97.59933233,33.35031606,319.87
-97.59932180,33.35031594,319.45
-97.59925067,33.35031513,308.37
-97.59924659,33.35031509,308.25
-97.59924229,33.35031504,308.09
-97.59921586,33.35031474,310.04
-97.59916601,33.35031418,313.15
-97.59916300,33.35031415,312.26
-97.59916257,33.35031414,312.21
-97.59915763,33.35031409,312.09
-97.59914452,33.35031394,314.99
-97.59914055,33.35031389,314.56
-97.59913603,33.35031384,314.35
-97.59913195,33.35031380,314.05
-97.59910735,33.35031352,315.40
-97.59910187,33.35031346,316.32
-97.59909757,33.35031341,316.22
-97.59903590,33.35031271,306.50
-97.59903020,33.35031265,306.29
-97.59898873,33.35031245,305.60
-97.59895681,33.35031236,305.08
-97.59842591,33.35030817,305.29
-97.59833394,33.35030695,306.53
-97.59821973,33.35030539,306.83
-97.59817912,33.35030484,307.21
-97.59814216,33.35030434,307.32
-97.59810638,33.35030384,307.30
-97.59806953,33.35030334,307.34
-97.59803333,33.35030284,307.33
-97.59793319,33.35030144,306.41
-97.59779170,33.35029957,308.94
-97.59771466,33.35029852,309.20
-97.59748389,33.35029528,310.32
-97.59744757,33.35029478,310.39
-97.59744284,33.35029473,310.59
-97.59743855,33.35029468,310.55
-97.59743403,33.35029463,310.63
-97.59742984,33.35029458,310.65
-97.59742544,33.35029453,310.66
-97.59742071,33.35029448,310.69
-97.59741588,33.35029442,310.74
-97.59739826,33.35029422,312.91
-97.59738987,33.35029413,313.81
-97.59735001,33.35029368,315.35
-97.59734539,33.35029362,315.50
-97.59734110,33.35029358,315.85
-97.59734088,33.35029357,315.25
-97.59732391,33.35029338,317.96
-97.59731939,33.35029333,318.10
-97.59731499,33.35029328,318.17
-97.59731069,33.35029323,318.71
-97.59731026,33.35029323,317.80
-97.59730596,33.35029318,318.13
-97.59730166,33.35029313,318.03
-97.59729726,33.35029308,318.11
-97.59728866,33.35029298,319.11
-97.59728394,33.35029293,319.00
-97.59684117,33.35028793,321.37
-97.59677294,33.35028716,322.51
-97.59673093,33.35028668,323.25
-97.59671395,33.35028649,314.03
-97.59670923,33.35028644,314.04
-97.59670407,33.35028638,323.80
-97.59650981,33.35028418,317.75
-97.59631459,33.35028198,321.13
-97.59606597,33.35027916,325.93
-97.59603685,33.35027883,326.27
-97.59601354,33.35027857,315.80
-97.59600333,33.35027846,315.89
-97.59574944,33.35027558,320.44
-97.59572183,33.35027527,316.51
-97.59571699,33.35027522,316.51
-97.59571259,33.35027517,316.58
-97.59570818,33.35027512,316.57
-97.59570313,33.35027506,316.55
-97.59569884,33.35027501,316.55
-97.59569379,33.35027495,316.55
-97.59568927,33.35027490,316.56
-97.59567369,33.35027473,317.85
-97.59566961,33.35027468,318.24
-97.59548266,33.35027257,316.70
-97.59547783,33.35027251,316.75
-97.59524113,33.35026983,320.93
-97.59516957,33.35026902,322.22
-97.59516012,33.35026892,322.34
-97.59507857,33.35026799,323.97
-97.59497081,33.35026678,325.75
-97.59496135,33.35026667,325.98
-97.59495931,33.35026665,317.16
-97.59495619,33.35026661,326.10
-97.59495469,33.35026659,317.15
-97.59495190,33.35026656,326.13
-97.59489098,33.35026587,327.23
-97.59488636,33.35026582,327.27
-97.59464504,33.35026309,322.60
-97.59460325,33.35026262,323.42
-97.59455178,33.35026203,324.28
-97.59439986,33.35026031,315.80
-97.59439513,33.35026026,315.75
-97.59429338,33.35025911,317.67
-97.59416037,33.35025760,319.97
-97.59397288,33.35025548,323.24
-97.59392131,33.35025489,314.28
-97.59391701,33.35025485,314.29
-97.59391218,33.35025479,314.39
-97.59389617,33.35025461,324.63
-97.59383954,33.35025397,315.64
-97.59360811,33.35025135,320.05
-97.59349551,33.35025007,321.87
-97.59348681,33.35024997,322.02
-97.59318264,33.35024653,317.33
-97.59314622,33.35024611,317.90
-97.59312011,33.35024582,318.45
-97.59299505,33.35024440,320.66
-97.59293671,33.35024374,321.53
-97.59255486,33.35023941,319.47
-97.59253304,33.35023916,319.97
-97.59252853,33.35023911,319.88
-97.59246664,33.35023841,310.02
-97.59246203,33.35023836,310.01
-97.59245751,33.35023831,310.03
-97.59237639,33.35023739,318.50
-97.59237070,33.35023732,316.00
-97.59236887,33.35023730,312.32
-97.59236436,33.35023725,319.08
-97.59236253,33.35023723,309.81
-97.59236232,33.35023723,318.33
-97.59220266,33.35023542,314.47
-97.59213720,33.35023621,308.86
-97.59213561,33.35024855,317.48
-97.59213383,33.35035919,319.52
-97.59213288,33.35041762,309.25
-97.59213267,33.35043078,309.40
-97.59213240,33.35044747,309.34
-97.59213172,33.35049003,318.93
-97.59213127,33.35051780,309.16
-97.59213126,33.35051843,321.27
-97.59213108,33.35052970,318.27
-97.59213100,33.35053484,319.84
-97.59213036,33.35057416,319.16
-97.59213024,33.35058173,319.24
-97.59213007,33.35059273,320.54
-97.59212969,33.35061618,321.55
-97.59212941,33.35063367,309.58
-97.59212898,33.35066027,320.91
-97.59212749,33.35075279,315.35
-97.59212703,33.35078155,316.22
-97.59212689,33.35078985,319.04
-97.59212661,33.35080770,312.76
-97.59212649,33.35081464,315.40
-97.59212616,33.35083520,309.72
-97.59212462,33.35093105,309.95
-97.59212287,33.35103980,310.05
-97.59212218,33.35108254,310.17
-97.59212159,33.35111915,313.90
-97.59212104,33.35115351,309.84
-97.59212072,33.35117307,314.31
-97.59211981,33.35122979,309.76
-97.59211971,33.35123574,310.08
-97.59211930,33.35126162,310.25
-97.59211747,33.35137542,309.44
-97.59211573,33.35148290,310.28
-97.59211408,33.35158579,310.18
-97.59211270,33.35167163,310.08
-97.59211148,33.35174702,310.17
-97.59211107,33.35177244,310.18
-97.59211084,33.35178714,310.24
-97.59210781,33.35197479,310.16
-97.59210706,33.35202150,310.11
-97.59210694,33.35202907,310.08
-97.59210504,33.35214693,309.90
-97.59210431,33.35219264,313.63
-97.59210229,33.35231789,313.12
-97.59210205,33.35233277,314.73
-97.59210197,33.35233773,309.46
-97.59210184,33.35234575,310.29
-97.59210178,33.35234963,312.56
-97.59210142,33.35237217,317.17
-97.59210071,33.35241627,315.82
-97.59209991,33.35246577,309.37
-97.59209963,33.35248290,310.63
-97.59209872,33.35253953,312.20
-97.59209864,33.35254476,309.88
-97.59209781,33.35259625,312.31
-97.59209761,33.35260851,312.14
-97.59209749,33.35261636,310.87
-97.59209702,33.35264530,310.33
-97.59209680,33.35265874,313.93
-97.59209673,33.35266334,310.31
-97.59209654,33.35267524,312.66
-97.59209550,33.35273935,317.52
-97.59209506,33.35276685,311.93
-97.59209295,33.35289805,319.50
-97.59209191,33.35296271,320.92
-97.59209154,33.35298561,320.38
-97.59209083,33.35302961,321.12
-97.59209059,33.35304431,323.54
-97.59208997,33.35308308,312.37
-97.59208898,33.35314467,318.72
-97.59208885,33.35315288,320.60
-97.59208822,33.35319183,322.00
-97.59208781,33.35321699,322.96
-97.59208772,33.35322276,319.21
-97.59208747,33.35323863,320.52
-97.59208672,33.35328462,321.19
-97.59208633,33.35330941,323.49
-97.59208588,33.35333710,322.83
-97.59208517,33.35338092,318.36
-97.59208501,33.35339111,320.28
-97.59208480,33.35340418,321.68
-97.59208385,33.35346307,320.65
-97.59208378,33.35346721,322.01
-97.59208332,33.35349616,314.42
-97.59208210,33.35357163,318.85
-97.59208038,33.35367894,320.25
-97.59207956,33.35372952,314.55
-97.59207885,33.35377371,317.35
-97.59207878,33.35377812,318.08
-97.59207869,33.35378344,314.65
-97.59207837,33.35380382,320.53
-97.59207808,33.35382132,315.05
-97.59207787,33.35383475,322.12
-97.59207731,33.35386911,323.79
-97.59207730,33.35387019,323.69
-97.59207684,33.35389841,324.24
-97.59207477,33.35402727,323.70
-97.59207423,33.35406072,324.41
-97.59207422,33.35406126,318.41
-97.59207386,33.35408335,323.11
-97.59207333,33.35411627,324.25
-97.59207333,33.35411654,323.02
-97.59207310,33.35413106,316.37
-97.59207298,33.35413827,325.24
-97.59207297,33.35413881,316.29
-97.59207283,33.35414738,321.63
-97.59207279,33.35415017,316.39
-97.59207176,33.35421374,327.82
-97.59207025,33.35430752,317.04
-97.59206949,33.35435531,327.50
-97.59206944,33.35435784,327.81
-97.59206928,33.35436803,317.31
-97.59206923,33.35437109,326.66
-97.59206878,33.35439895,324.71
-97.59206848,33.35441753,323.77
-97.59206833,33.35442673,326.34
-97.59206722,33.35449589,318.03
-97.59206652,33.35453917,319.20
-97.59206597,33.35457353,326.41
-97.59206379,33.35470869,318.86
-97.59206362,33.35471933,327.67
-97.59206341,33.35473250,319.07
-97.59206322,33.35474440,322.64
-97.59206262,33.35478137,322.31
-97.59206234,33.35479904,324.96
-97.59206205,33.35481690,329.44
-97.59206170,33.35483881,331.48
-97.59206060,33.35490734,331.08
-97.59206059,33.35490752,329.69
-97.59206053,33.35491131,328.40
-97.59206039,33.35491987,331.36
-97.59205934,33.35498543,328.49
-97.59205930,33.35498750,328.76
-97.59205845,33.35504034,330.51
-97.59205815,33.35505946,323.98
-97.59205798,33.35506965,332.07
-97.59205724,33.35511573,329.52
-97.59205708,33.35512574,321.23
-97.59205632,33.35517317,321.20
-97.59205561,33.35521690,320.90
-97.59205547,33.35522573,320.93
-97.59205495,33.35525766,332.25
-97.59205455,33.35528299,326.73
-97.59205428,33.35529931,326.61
-97.59205326,33.35536271,326.26
-97.59205142,33.35547713,324.91
-97.59205072,33.35552060,326.18
-97.59204984,33.35557551,323.35
-97.59204915,33.35561834,322.94
-97.59204906,33.35562375,323.09
-97.59204720,33.35573917,328.34
-97.59204654,33.35577993,324.60
-97.59204524,33.35586072,329.56
-97.59204524,33.35586117,329.66
-97.59204342,33.35597362,331.85
-97.59204298,33.35600112,330.20
-97.59204115,33.35611500,329.35
-97.59204015,33.35617713,330.84
-97.59203885,33.35625784,328.02
-97.59203858,33.35627443,331.26
-97.59203314,33.35661248,333.67
-97.59203302,33.35661951,332.96
-97.59203251,33.35665161,336.17
-97.59203215,33.35667398,333.41
-97.59203114,33.35673628,328.69
-97.59202862,33.35689282,329.18
-97.59202641,33.35703042,329.83
-97.59202422,33.35716613,330.09
-97.59202244,33.35727695,330.71
-97.59202070,33.35738489,330.86
-97.59202045,33.35740058,330.94
-97.59201923,33.35747632,330.55
-97.59201873,33.35750680,330.41
-97.59201803,33.35755044,329.90
-97.59201748,33.35758498,329.56
-97.59201691,33.35762032,329.30
-97.59201690,33.35762050,335.35
-97.59201635,33.35765513,329.26
-97.59201536,33.35771618,332.59
-97.59201510,33.35773223,333.56
-97.59201497,33.35774079,332.57
-97.59201432,33.35778101,333.69
-97.59201332,33.35784314,332.11
-97.59201087,33.35799517,333.19
-97.59201061,33.35801113,333.16
-97.59201036,33.35802664,334.42
-97.59200986,33.35805784,333.95
-97.59200978,33.35806279,335.58
-97.59200962,33.35807280,327.42
-97.59200930,33.35809264,329.45
-97.59200913,33.35810337,328.29
-97.59200855,33.35813917,327.21
-97.59200831,33.35815432,327.13
-97.59200740,33.35821031,331.95
-97.59200736,33.35821284,327.14
-97.59200706,33.35823178,327.33
-97.59200630,33.35827857,327.09
-97.59200604,33.35829481,334.56
-97.59200585,33.35830698,327.31
-97.59200579,33.35831049,327.28
-97.59200565,33.35831924,327.38
-97.59200399,33.35842222,330.01
-97.59200386,33.35843015,329.29
-97.59200096,33.35861049,332.08
-97.59200053,33.35863700,327.99
-97.59199988,33.35867749,327.88
-97.59199779,33.35880743,328.31
-97.59199395,33.35904566,328.68
-97.59199375,33.35905820,328.65
-97.59199290,33.35911076,332.38
-97.59199248,33.35913718,328.19
-97.59199202,33.35916577,327.77
-97.59199147,33.35920608,326.80
-97.59199112,33.35924819,326.70
-97.59199324,33.35924984,326.49
-97.59204855,33.35925236,324.93
-97.59205306,33.35925241,325.06
-97.59207208,33.35925263,325.57
-97.59222348,33.35925434,321.86
-97.59224691,33.35925461,322.54
-97.59230246,33.35925524,328.81
-97.59230558,33.35925527,326.51
-97.59230977,33.35925532,326.71
-97.59231009,33.35925532,325.23
-97.59231396,33.35925537,322.75
-97.59232481,33.35925549,321.01
-97.59245827,33.35925701,329.63
-97.59246181,33.35925705,320.34
-97.59262955,33.35925895,319.30
-97.59284166,33.35926135,317.66
-97.59297211,33.35926283,321.85
-97.59298758,33.35926301,315.61
-97.59301488,33.35926332,316.54
-97.59313082,33.35926463,320.31
-97.59313523,33.35926468,320.47
-97.59313985,33.35926473,320.61
-97.59317133,33.35926509,321.78
-97.59319980,33.35926541,329.50
-97.59329608,33.35926650,325.81
-97.59330436,33.35926660,326.05
-97.59334798,33.35926709,318.88
-97.59336625,33.35926730,328.21
-97.59350669,33.35926889,324.10
-97.59366540,33.35927069,321.85
-97.59366852,33.35927072,329.44
-97.59367722,33.35927082,329.80
-97.59372074,33.35927131,330.98
-97.59390932,33.35927345,329.60
-97.59397841,33.35927423,331.86
-97.59404052,33.35927494,325.59
-97.59416979,33.35927640,329.92
-97.59437921,33.35927877,336.75
-97.59442037,33.35927924,338.67
-97.59442177,33.35927925,337.57
-97.59456500,33.35928087,332.84
-97.59464387,33.35928177,335.39
-97.59465569,33.35928190,330.07
-97.59465709,33.35928192,328.92
-97.59478840,33.35928340,325.17
-97.59491648,33.35928485,322.96
-97.59495076,33.35928524,322.48
-97.59508540,33.35928676,331.06
-97.59508787,33.35928679,330.16
-97.59509765,33.35928690,326.68
-97.59513139,33.35928728,328.12
-97.59516835,33.35928770,320.82
-97.59517276,33.35928775,320.87
-97.59525410,33.35928867,323.52
-97.59529988,33.35928919,325.65
-97.59543280,33.35929070,319.08
-97.59549114,33.35929136,326.16
-97.59571497,33.35929389,325.25
-97.59571830,33.35929393,324.69
-97.59571959,33.35929394,323.24
-97.59572206,33.35929397,322.10
-97.59572539,33.35929401,321.59
-97.59573528,33.35929412,317.43
-97.59581898,33.35929506,324.51
-97.59586186,33.35929555,316.85
-97.59598210,33.35929691,316.17
-97.59606871,33.35929789,315.84
     </coordinates>
    </LineString>
   </MultiGeometry>
  </Placemark>
 </Document>
</kml>
