<kml>
 <Document>
  <Style id="yellow">
   <LineStyle>
   <color>ff00ffff</color>
   <width>1</width>
   </LineStyle>
  </Style>
  <Style id="red">
   <LineStyle>
   <color>ffff0000</color>
   <width>2</width>
   </LineStyle>
  </Style>
  <Style id="green">
   <LineStyle>
   <color>ff00ff00</color>
   <width>1</width>
   </LineStyle>
  </Style>
  <Placemark>
  <styleUrl>#yellow</styleUrl>
   <MultiGeometry>
    <LineString>
     <coordinates>
-97.60797376,33.35041315,307.09
-97.60797945,33.35041322,310.20
-97.60817038,33.35041536,305.73
-97.60827868,33.35041657,307.14
-97.60827976,33.35041658,306.41
-97.60828309,33.35041662,307.18
-97.60838355,33.35041775,306.57
-97.60861455,33.35042034,307.85
-97.60871920,33.35042151,308.66
-97.60872404,33.35042156,308.69
-97.60882912,33.35042274,309.20
-97.60905840,33.35042531,311.28
-97.60906259,33.35042536,311.41
-97.60908118,33.35042556,311.53
-97.60939298,33.35042906,312.97
-97.60948849,33.35043013,314.35
-97.60970575,33.35043256,314.89
-97.60971047,33.35043261,314.86
-97.60971456,33.35043266,315.06
-97.60974754,33.35043303,320.08
-97.60974840,33.35043304,320.13
-97.60975281,33.35043309,320.33
-97.60975689,33.35043313,320.52
-97.60994362,33.35043522,314.92
-97.61007696,33.35043672,315.02
-97.61008190,33.35043677,315.03
-97.61015378,33.35043758,315.28
-97.61034385,33.35043970,315.41
-97.61058807,33.35044244,315.47
-97.61079501,33.35044475,315.37
-97.61100098,33.35044706,315.34
-97.61122542,33.35044957,314.91
-97.61142688,33.35045182,314.86
-97.61168260,33.35045468,314.67
-97.61185300,33.35045658,314.33
-97.61208272,33.35045915,313.41
-97.61231318,33.35046173,312.68
-97.61252678,33.35046412,311.90
-97.61258254,33.35046474,311.59
-97.61258802,33.35046480,311.66
-97.61274629,33.35046657,311.00
-97.61285642,33.35046780,319.14
-97.61286125,33.35046785,319.24
-97.61286684,33.35046792,319.38
-97.61297418,33.35046912,314.79
-97.61298771,33.35046927,308.98
-97.61299276,33.35046932,308.99
-97.61299717,33.35046937,317.91
-97.61317101,33.35047131,308.83
-97.61340073,33.35047388,309.73
-97.61340116,33.35047389,309.76
-97.61340535,33.35047393,309.68
-97.61346659,33.35047462,319.37
-97.61348700,33.35047484,312.08
-97.61350688,33.35047507,312.63
-97.61351215,33.35047512,312.70
-97.61358564,33.35047595,310.37
-97.61359896,33.35047591,310.70
-97.61362315,33.35047564,310.43
-97.61362412,33.35046149,310.38
-97.61362449,33.35045212,310.39
-97.61362576,33.35037836,310.14
-97.61362872,33.35019883,319.07
-97.61362994,33.35012164,312.03
-97.61363002,33.35011650,317.56
-97.61363044,33.35008990,310.24
-97.61363414,33.34985662,310.11
-97.61363543,33.34977529,310.07
-97.61363680,33.34968890,315.45
-97.61363846,33.34958403,317.11
-97.61363872,33.34956771,315.44
-97.61363906,33.34954625,314.66
-97.61363915,33.34954057,313.54
-97.61363987,33.34949530,318.31
-97.61364000,33.34948719,318.49
-97.61364035,33.34946501,315.00
-97.61364041,33.34946122,312.83
-97.61364209,33.34935554,312.26
-97.61364277,33.34931207,317.86
-97.61364349,33.34926717,313.47
-97.61364366,33.34925599,324.26
-97.61364491,33.34917763,322.28
-97.61364509,33.34916590,319.67
-97.61364610,33.34910233,323.15
-97.61364611,33.34910188,320.87
-97.61364650,33.34907690,313.19
-97.61364670,33.34906428,315.19
-97.61364698,33.34904670,311.99
-97.61364738,33.34902181,314.58
-97.61364869,33.34893867,316.84
-97.61365000,33.34885616,309.78
-97.61365098,33.34879457,310.15
-97.61365123,33.34877889,310.22
-97.61365193,33.34873470,310.29
-97.61365352,33.34863443,310.08
-97.61365369,33.34862334,318.17
-97.61365393,33.34860855,310.15
-97.61365410,33.34859737,316.23
-97.61365517,33.34853028,315.36
-97.61365548,33.34851026,313.61
-97.61365577,33.34849232,310.29
-97.61365686,33.34842334,312.71
-97.61365792,33.34835652,322.36
-97.61365950,33.34825679,311.35
-97.61365960,33.34825057,316.12
-97.61365977,33.34823975,312.02
-97.61365989,33.34823262,315.91
-97.61366131,33.34814254,312.04
-97.61366295,33.34803947,313.01
-97.61366378,33.34798672,314.26
-97.61366447,33.34794362,313.85
-97.61366461,33.34793433,313.75
-97.61366522,33.34789619,313.37
-97.61366531,33.34789033,313.36
-97.61366640,33.34782144,313.38
-97.61366763,33.34774425,313.26
-97.61366829,33.34770214,313.15
-97.61366932,33.34763730,313.02
-97.61366979,33.34760764,312.96
-97.61367161,33.34749294,312.60
-97.61367270,33.34742423,312.40
-97.61367296,33.34740782,312.39
-97.61367380,33.34735470,312.38
-97.61367586,33.34722513,312.64
-97.61367801,33.34708924,313.00
-97.61367895,33.34702999,313.00
-97.61368281,33.34678617,313.57
-97.61368302,33.34677336,313.58
-97.61368334,33.34675299,313.53
-97.61368514,33.34663937,313.58
-97.61368547,33.34661890,313.69
-97.61368556,33.34661313,313.70
-97.61368634,33.34656353,313.90
-97.61369089,33.34627651,315.02
-97.61369117,33.34625911,315.15
-97.61369117,33.34625875,315.18
-97.61369241,33.34618093,315.34
-97.61369783,33.34583873,325.93
-97.61369787,33.34583647,326.98
-97.61369797,33.34582971,323.83
-97.61369838,33.34580401,316.88
-97.61369908,33.34575965,317.04
-97.61369929,33.34574684,317.07
-97.61370112,33.34563115,318.74
-97.61370366,33.34547092,319.17
-97.61370419,33.34543737,319.24
-97.61370528,33.34536884,319.39
-97.61370890,33.34514052,320.59
-97.61370925,33.34511834,320.76
-97.61371201,33.34494440,321.91
-97.61371460,33.34478065,322.97
-97.61371666,33.34465062,324.22
-97.61371691,33.34463502,324.29
-97.61371802,33.34456513,324.67
-97.61371849,33.34453529,324.84
-97.61372041,33.34441401,325.56
-97.61372088,33.34438443,325.78
-97.61372146,33.34434791,326.06
-97.61372275,33.34426657,326.36
-97.61372404,33.34418515,326.64
-97.61372774,33.34395133,328.24
-97.61372933,33.34385124,328.76
-97.61373171,33.34370092,329.39
-97.61373502,33.34349217,331.87
-97.61373565,33.34345259,333.84
-97.61373696,33.34336963,335.69
-97.61374286,33.34299758,338.36
-97.61374496,33.34286485,338.92
-97.61374512,33.34285484,338.78
-97.61374643,33.34277251,339.43
-97.61374703,33.34273473,342.89
-97.61374954,33.34257575,339.43
-97.61374967,33.34256809,339.38
-97.61375142,33.34245763,338.91
-97.61375387,33.34230271,339.69
-97.61375428,33.34227719,337.39
-97.61375468,33.34225194,337.00
-97.61375626,33.34215203,336.09
-97.61375684,33.34211506,335.82
-97.61375762,33.34206619,335.59
-97.61376189,33.34179666,334.61
-97.61376256,33.34175419,334.74
-97.61376370,33.34168242,334.38
-97.61376506,33.34159675,334.21
-97.61376532,33.34158052,334.91
-97.61376532,33.34158025,336.80
-97.61376626,33.34149395,333.96
-97.61376617,33.34146581,333.89
-97.61376366,33.34146100,333.89
-97.61375894,33.34146086,333.87
-97.61371823,33.34145996,333.66
-97.61366785,33.34145885,333.45
-97.61364991,33.34145847,333.41
-97.61362263,33.34145790,333.33
-97.61359535,33.34145732,333.20
-97.61357869,33.34145713,333.06
-97.61315681,33.34145242,331.29
-97.61315229,33.34145237,331.42
-97.61311029,33.34145190,332.19
-97.61306141,33.34145136,331.93
-97.61305432,33.34145128,331.06
-97.61304894,33.34145122,330.97
-97.61295644,33.34145019,335.51
-97.61293378,33.34144993,335.99
-97.61291970,33.34144978,336.36
-97.61287351,33.34144926,337.30
-97.61285535,33.34144906,337.64
-97.61283247,33.34144880,338.07
-97.61282334,33.34144870,338.19
-97.61274523,33.34144783,330.02
-97.61274051,33.34144777,330.05
-97.61260514,33.34144626,329.95
-97.61222526,33.34144202,328.42
-97.61222053,33.34144196,328.45
-97.61221634,33.34144192,328.43
-97.61178049,33.34143704,337.66
-97.61173859,33.34143658,327.67
-97.61173440,33.34143653,327.66
-97.61167220,33.34143583,329.08
-97.61164126,33.34143549,329.63
-97.61137139,33.34143247,324.85
-97.61136720,33.34143242,324.86
-97.61136258,33.34143237,324.85
-97.61092329,33.34142746,323.02
-97.61091845,33.34142740,322.98
-97.61044618,33.34142212,321.91
-97.60993061,33.34141635,320.18
-97.60992588,33.34141630,320.19
-97.60992126,33.34141625,320.20
-97.60957265,33.34141234,319.03
-97.60956792,33.34141229,319.05
-97.60956351,33.34141224,319.06
-97.60915538,33.34140767,317.40
-97.60915087,33.34140762,317.38
-97.60914646,33.34140757,317.33
-97.60914206,33.34140752,317.33
-97.60913755,33.34140747,317.29
-97.60913260,33.34140741,317.26
-97.60912777,33.34140736,317.25
-97.60912283,33.34140730,317.23
-97.60911842,33.34140725,317.21
-97.60911348,33.34140720,317.19
-97.60906847,33.34140670,316.84
-97.60889647,33.34140477,317.86
-97.60886875,33.34140446,321.07
-97.60883824,33.34140412,321.79
-97.60877958,33.34140346,318.46
-97.60863197,33.34140181,315.55
-97.60862735,33.34140175,315.52
-97.60813445,33.34139623,313.97
-97.60812919,33.34139617,313.95
-97.60781848,33.34139359,312.84
-97.60741365,33.34139058,311.61
-97.60723703,33.34138878,311.68
-97.60707029,33.34138700,311.79
-97.60706578,33.34138695,311.75
-97.60706116,33.34138690,311.84
-97.60652638,33.34137991,317.68
-97.60650350,33.34137965,317.60
-97.60648588,33.34137954,317.37
-97.60617001,33.34137690,314.50
-97.60589102,33.34137305,309.84
-97.60587147,33.34137274,309.73
-97.60577543,33.34137130,308.67
-97.60577049,33.34137124,308.62
-97.60576555,33.34137119,308.54
-97.60576093,33.34137114,308.52
-97.60575620,33.34137108,308.52
-97.60575137,33.34137103,308.52
-97.60574664,33.34137097,308.52
-97.60574148,33.34137092,308.52
-97.60573676,33.34137086,308.51
-97.60573149,33.34137080,308.52
-97.60572666,33.34137075,308.50
-97.60572215,33.34137070,308.50
-97.60571677,33.34137064,308.51
-97.60571172,33.34137058,308.51
-97.60570689,33.34137053,308.51
-97.60569668,33.34137041,308.49
-97.60563781,33.34136984,308.48
-97.60559344,33.34136943,308.51
-97.60507167,33.34136186,307.76
-97.60506673,33.34136181,307.66
-97.60506189,33.34136175,307.59
-97.60505738,33.34136170,307.61
-97.60505244,33.34136164,307.53
-97.60455943,33.34135611,307.69
-97.60455460,33.34135605,307.65
-97.60454987,33.34135600,307.66
-97.60454536,33.34135595,307.68
-97.60454042,33.34135589,307.70
-97.60453558,33.34135584,307.71
-97.60453107,33.34135579,307.71
-97.60452602,33.34135573,307.73
-97.60422306,33.34135233,310.25
-97.60421812,33.34135227,310.10
-97.60418471,33.34135189,310.13
-97.60391226,33.34134883,305.77
-97.60389013,33.34134858,311.05
-97.60388927,33.34134857,305.66
-97.60388487,33.34134852,305.64
-97.60388089,33.34134848,311.05
-97.60387133,33.34134837,305.63
-97.60384748,33.34134810,314.53
-97.60384308,33.34134805,314.48
-97.60383448,33.34134796,305.53
-97.60383405,33.34134795,314.48
-97.60382503,33.34134785,305.51
-97.60382492,33.34134785,314.46
-97.60380730,33.34134765,305.45
-97.60379280,33.34134749,314.43
-97.60376573,33.34134718,311.68
-97.60375133,33.34134702,311.68
-97.60374198,33.34134692,311.66
-97.60371846,33.34134665,311.97
-97.60368419,33.34134627,312.00
-97.60364046,33.34134578,311.99
-97.60363487,33.34134571,311.87
-97.60358771,33.34134518,312.21
-97.60358288,33.34134513,312.29
-97.60354947,33.34134475,313.42
-97.60353357,33.34134457,312.17
-97.60352948,33.34134453,312.39
-97.60348587,33.34134404,313.36
-97.60346363,33.34134379,313.23
-97.60341421,33.34134323,313.05
-97.60339670,33.34134303,312.43
-97.60339143,33.34134297,313.05
-97.60338681,33.34134292,312.91
-97.60336812,33.34134271,312.69
-97.60336307,33.34134266,312.72
-97.60334287,33.34134243,312.74
-97.60334266,33.34134243,303.80
-97.60321181,33.34134095,312.44
-97.60320601,33.34134089,313.24
-97.60320053,33.34134083,313.17
-97.60319376,33.34134075,312.35
-97.60318903,33.34134070,312.33
-97.60308417,33.34133979,303.42
-97.60302519,33.34133931,303.58
-97.60302455,33.34134606,310.77
-97.60302312,33.34141495,307.54
-97.60302198,33.34147293,302.35
-97.60302166,33.34149331,308.52
-97.60302063,33.34155751,307.49
-97.60302036,33.34157437,305.97
-97.60302028,33.34157924,305.97
-97.60301821,33.34170936,303.84
-97.60301690,33.34179105,314.31
-97.60301633,33.34182667,312.92
-97.60301389,33.34197942,306.67
-97.60301284,33.34204561,308.78
-97.60301219,33.34208592,307.20
-97.60301118,33.34214940,306.03
-97.60300927,33.34226870,305.81
-97.60300736,33.34238871,304.02
-97.60300636,33.34245120,305.93
-97.60300606,33.34246978,303.50
-97.60300600,33.34247348,310.23
-97.60300477,33.34255093,307.73
-97.60300255,33.34268998,302.80
-97.60300226,33.34270792,305.68
-97.60299675,33.34305265,301.02
-97.60299631,33.34308033,302.30
-97.60299324,33.34327258,307.13
-97.60299171,33.34336861,311.29
-97.60299117,33.34340234,310.32
-97.60298835,33.34357871,309.59
-97.60298695,33.34366663,294.99
-97.60298537,33.34376564,303.24
-97.60298524,33.34377394,298.34
-97.60298471,33.34380712,309.20
-97.60298445,33.34382290,300.14
-97.60298440,33.34382651,306.95
-97.60298412,33.34384364,307.29
-97.60298364,33.34387367,304.73
-97.60298109,33.34403345,300.73
-97.60298084,33.34404923,301.08
-97.60298047,33.34407213,300.92
-97.60297989,33.34410865,298.33
-97.60297861,33.34418900,311.61
-97.60297765,33.34424905,300.75
-97.60297737,33.34426636,300.67
-97.60297719,33.34427791,298.44
-97.60297697,33.34429134,300.73
-97.60297665,33.34431172,298.37
-97.60297603,33.34435004,306.12
-97.60297453,33.34444409,307.95
-97.60297339,33.34451560,310.49
-97.60296974,33.34474400,300.72
-97.60296466,33.34506204,304.76
-97.60295763,33.34550262,307.59
-97.60295716,33.34553166,307.54
-97.60295531,33.34564771,304.64
-97.60295238,33.34583103,307.01
-97.60295136,33.34589496,311.03
-97.60294804,33.34610280,311.01
-97.60294687,33.34617593,312.67
-97.60294171,33.34649929,300.27
-97.60294108,33.34653815,301.45
-97.60293974,33.34662210,311.60
-97.60293726,33.34677729,309.45
-97.60293592,33.34686124,309.17
-97.60293579,33.34686990,307.93
-97.60293326,33.34702779,311.02
-97.60293155,33.34713527,310.80
-97.60293096,33.34717215,309.64
-97.60292940,33.34726990,304.28
-97.60292632,33.34746260,304.28
-97.60292618,33.34747116,304.28
-97.60292354,33.34763627,313.88
-97.60292164,33.34775565,308.72
-97.60292138,33.34777198,307.70
-97.60291981,33.34786990,305.94
-97.60291294,33.34830020,307.32
-97.60291224,33.34834366,307.46
-97.60291178,33.34837261,307.55
-97.60291147,33.34839182,307.59
-97.60290809,33.34861057,308.37
-97.60290321,33.34890886,309.11
-97.60290200,33.34898488,309.56
-97.60289932,33.34915260,310.09
-97.60289600,33.34936026,310.44
-97.60289583,33.34937081,310.48
-97.60289452,33.34945296,310.68
-97.60289409,33.34947983,310.85
-97.60288786,33.34986991,311.72
-97.60288528,33.35003159,312.65
-97.60288280,33.35020662,312.88
-97.60288211,33.35025657,312.95
-97.60288130,33.35032069,313.19
-97.60288105,33.35034323,313.34
-97.60288290,33.35035507,313.41
-97.60329193,33.35036057,313.53
-97.60329676,33.35036063,313.53
-97.60342720,33.35036209,313.47
-97.60343192,33.35036215,313.46
-97.60375952,33.35036583,313.21
-97.60376403,33.35036588,313.21
-97.60378735,33.35036615,313.28
-97.60379239,33.35036620,313.32
-97.60412171,33.35036990,314.67
-97.60412815,33.35036998,315.34
-97.60413234,33.35037002,315.07
-97.60414416,33.35037016,317.70
-97.60422474,33.35037106,312.40
-97.60422937,33.35037111,312.46
-97.60454847,33.35037470,313.39
-97.60455298,33.35037475,313.41
-97.60470308,33.35037644,313.35
-97.60470802,33.35037649,313.36
-97.60490217,33.35037868,313.16
-97.60490669,33.35037873,313.18
-97.60519163,33.35038193,313.10
-97.60523804,33.35038245,312.01
-97.60524212,33.35038250,312.25
-97.60554404,33.35038589,310.85
-97.60554855,33.35038594,310.87
-97.60562118,33.35038675,310.72
-97.60562591,33.35038681,310.73
-97.60587013,33.35038955,310.31
-97.60587443,33.35038960,310.30
-97.60630409,33.35039442,308.61
-97.60630850,33.35039447,308.62
-97.60638575,33.35039534,318.95
-97.60656421,33.35039725,307.54
-97.60692490,33.35040139,305.67
-97.60692963,33.35040144,305.51
-97.60722241,33.35040473,304.19
-97.60758997,33.35040885,304.11
-97.60759910,33.35040895,304.14
-97.60760351,33.35040900,304.18
-97.60797376,33.35041315,307.09
     </coordinates>
    </LineString>
   </MultiGeometry>
  </Placemark>
 </Document>
</kml>
