<kml>
 <Document>
  <Style id="yellow">
   <LineStyle>
   <color>ff00ffff</color>
   <width>1</width>
   </LineStyle>
  </Style>
  <Style id="red">
   <LineStyle>
   <color>ffff0000</color>
   <width>2</width>
   </LineStyle>
  </Style>
  <Style id="green">
   <LineStyle>
   <color>ff00ff00</color>
   <width>1</width>
   </LineStyle>
  </Style>
  <Placemark>
  <styleUrl>#yellow</styleUrl>
   <MultiGeometry>
    <LineString>
     <coordinates>
-89.51007492,46.25101478,518.81
-89.51007699,46.25101473,515.26
-89.51008373,46.25101459,519.31
-89.51011211,46.25101396,521.06
-89.51023096,46.25101135,519.15
-89.51027205,46.25101045,515.21
-89.51038870,46.25100789,516.73
-89.51065802,46.25100197,520.31
-89.51066100,46.25100190,515.55
-89.51098632,46.25099475,537.37
-89.51109623,46.25099234,526.96
-89.51110102,46.25099223,520.04
-89.51144384,46.25098470,531.50
-89.51145239,46.25098451,519.30
-89.51154934,46.25098238,535.92
-89.51167545,46.25097961,533.45
-89.51178963,46.25097710,541.49
-89.51209162,46.25097046,543.70
-89.51215953,46.25096896,537.93
-89.51221604,46.25096772,532.58
-89.51240410,46.25096359,542.31
-89.51246424,46.25096226,543.97
-89.51258892,46.25095952,539.45
-89.51266423,46.25095787,529.62
-89.51278865,46.25095513,528.53
-89.51286499,46.25095345,523.74
-89.51291113,46.25095244,532.12
-89.51292072,46.25095223,529.01
-89.51294392,46.25095172,524.41
-89.51297593,46.25095101,533.58
-89.51313237,46.25094757,531.67
-89.51323593,46.25094529,526.28
-89.51336203,46.25094252,536.16
-89.51337059,46.25094233,535.08
-89.51346520,46.25094025,533.66
-89.51361918,46.25093686,541.91
-89.51368579,46.25093540,543.80
-89.51370148,46.25093505,543.05
-89.51382551,46.25093232,535.01
-89.51383329,46.25093215,534.07
-89.51383782,46.25093205,530.15
-89.51391416,46.25093037,521.87
-89.51394968,46.25092959,521.53
-89.51403612,46.25092769,536.77
-89.51417623,46.25092461,537.07
-89.51417869,46.25092455,536.59
-89.51426125,46.25092274,518.99
-89.51432191,46.25092140,518.12
-89.51437907,46.25092014,535.95
-89.51439553,46.25091978,529.80
-89.51440797,46.25091951,518.22
-89.51442313,46.25091917,519.52
-89.51443830,46.25091884,530.77
-89.51444828,46.25091862,541.32
-89.51448262,46.25091786,536.17
-89.51451528,46.25091715,537.04
-89.51459720,46.25091534,541.36
-89.51465383,46.25091410,540.14
-89.51468779,46.25091335,525.43
-89.51471242,46.25091281,537.59
-89.51474910,46.25091200,540.44
-89.51475674,46.25091183,527.44
-89.51480509,46.25091077,533.44
-89.51492705,46.25090808,525.78
-89.51499004,46.25090670,527.79
-89.51514699,46.25090324,525.49
-89.51519896,46.25090210,540.00
-89.51520583,46.25090195,533.77
-89.51521503,46.25090174,538.85
-89.51525560,46.25090085,524.26
-89.51545857,46.25089638,520.36
-89.51568681,46.25089136,541.09
-89.51583547,46.25088808,528.16
-89.51615274,46.25088110,529.42
-89.51616195,46.25088089,518.58
-89.51616389,46.25088085,536.52
-89.51626278,46.25087867,535.17
-89.51643360,46.25087491,530.14
-89.51643995,46.25087477,518.41
-89.51661596,46.25087090,537.74
-89.51665640,46.25087000,538.87
-89.51668413,46.25086939,537.79
-89.51672573,46.25086839,519.81
-89.51683899,46.25086544,521.27
-89.51684446,46.25086307,519.71
-89.51684459,46.25086298,520.35
-89.51684573,46.25085971,536.34
-89.51684588,46.25085440,536.14
-89.51684573,46.25084820,520.21
-89.51684415,46.25081097,537.38
-89.51684048,46.25072789,533.55
-89.51683773,46.25066782,530.66
-89.51683506,46.25060956,540.71
-89.51683413,46.25058915,542.94
-89.51683052,46.25051030,522.08
-89.51683023,46.25050400,525.11
-89.51682632,46.25041859,529.54
-89.51682432,46.25037480,522.72
-89.51682373,46.25036185,532.04
-89.51681194,46.25010425,522.83
-89.51680849,46.25002909,517.36
-89.51680436,46.24993872,527.21
-89.51679929,46.24982795,522.72
-89.51679888,46.24981896,520.50
-89.51679417,46.24971601,513.90
-89.51679389,46.24970999,513.99
-89.51679167,46.24966143,514.24
-89.51678778,46.24957638,514.13
-89.51678148,46.24944448,514.16
-89.51676599,46.24910029,516.09
-89.51676321,46.24903960,518.67
-89.51676094,46.24899006,514.05
-89.51674766,46.24869982,514.09
-89.51673830,46.24849824,513.90
-89.51672465,46.24819703,518.20
-89.51672278,46.24815621,526.04
-89.51672022,46.24810028,519.89
-89.51671356,46.24795471,523.75
-89.51671191,46.24791866,520.43
-89.51670912,46.24785761,520.85
-89.51670112,46.24768300,518.21
-89.51669863,46.24762851,531.51
-89.51669675,46.24758733,523.18
-89.51669534,46.24755658,522.13
-89.51669201,46.24748393,519.60
-89.51668946,46.24742818,520.74
-89.51668112,46.24724593,520.25
-89.51667590,46.24713174,535.65
-89.51667473,46.24710612,533.27
-89.51667377,46.24708535,532.33
-89.51667223,46.24705154,534.57
-89.51665626,46.24670250,536.47
-89.51665513,46.24667786,521.16
-89.51665325,46.24663686,539.96
-89.51665126,46.24659344,541.35
-89.51663915,46.24632864,528.64
-89.51663833,46.24631075,531.62
-89.51663697,46.24628108,535.57
-89.51663215,46.24617561,519.31
-89.51662944,46.24611654,530.12
-89.51662804,46.24608588,524.11
-89.51662667,46.24605594,520.04
-89.51662585,46.24603805,519.97
-89.51662531,46.24602627,516.03
-89.51662308,46.24597744,529.12
-89.51661456,46.24579142,516.12
-89.51661428,46.24578512,520.14
-89.51661372,46.24577298,526.73
-89.51660865,46.24566212,525.33
-89.51660594,46.24560296,520.59
-89.51659954,46.24546314,516.15
-89.51659542,46.24537305,531.49
-89.51659420,46.24534644,518.64
-89.51659294,46.24531892,516.15
-89.51659165,46.24529060,517.34
-89.51658876,46.24522757,519.77
-89.51658818,46.24521472,516.06
-89.51658610,46.24516940,516.88
-89.51658299,46.24510143,533.39
-89.51658007,46.24503750,534.16
-89.51657249,46.24487197,529.83
-89.51656963,46.24480948,537.52
-89.51656685,46.24474852,516.99
-89.51656390,46.24468414,536.68
-89.51656274,46.24465870,527.53
-89.51655552,46.24450090,536.98
-89.51655487,46.24448687,536.69
-89.51655363,46.24445972,534.36
-89.51655303,46.24444659,518.19
-89.51655138,46.24441054,524.09
-89.51655060,46.24439345,538.08
-89.51653979,46.24415725,536.24
-89.51653019,46.24394749,517.68
-89.51652709,46.24387969,515.87
-89.51652578,46.24385110,526.21
-89.51652441,46.24382116,534.17
-89.51652145,46.24375633,529.52
-89.51651675,46.24365356,515.17
-89.51651623,46.24364232,515.19
-89.51651505,46.24361652,522.13
-89.51651429,46.24359997,524.38
-89.51651299,46.24357156,529.63
-89.51651051,46.24351726,523.81
-89.51650999,46.24350593,525.23
-89.51650606,46.24341997,528.38
-89.51648958,46.24305987,519.13
-89.51648826,46.24303101,522.44
-89.51648396,46.24293696,534.12
-89.51648302,46.24291646,528.88
-89.51647434,46.24272665,540.42
-89.51647299,46.24269725,523.06
-89.51646880,46.24260554,521.91
-89.51646259,46.24246995,531.44
-89.51646005,46.24241430,520.53
-89.51645987,46.24241043,534.26
-89.51645910,46.24239353,518.19
-89.51645805,46.24237060,537.66
-89.51645694,46.24234632,527.10
-89.51645329,46.24226666,536.25
-89.51645233,46.24224562,517.91
-89.51645185,46.24223519,536.22
-89.51644986,46.24219167,534.34
-89.51644627,46.24211309,533.75
-89.51644398,46.24206319,536.52
-89.51644167,46.24201266,517.55
-89.51644048,46.24198667,532.94
-89.51643902,46.24195457,533.67
-89.51643759,46.24192337,529.98
-89.51643679,46.24190584,535.01
-89.51643579,46.24188687,531.98
-89.51643523,46.24188040,536.81
-89.51643208,46.24187660,532.20
-89.51642571,46.24187629,532.14
-89.51641375,46.24187575,532.08
-89.51640816,46.24187551,532.10
-89.51633843,46.24187687,533.60
-89.51618357,46.24188019,534.65
-89.51589887,46.24188646,531.12
-89.51580285,46.24188857,528.60
-89.51576177,46.24188947,518.82
-89.51561767,46.24189265,532.38
-89.51549262,46.24189540,533.31
-89.51545841,46.24189615,539.39
-89.51540009,46.24189744,539.19
-89.51539038,46.24189765,536.62
-89.51538454,46.24189778,541.04
-89.51532221,46.24189915,520.16
-89.51525651,46.24190060,539.37
-89.51516204,46.24190268,528.31
-89.51513639,46.24190324,538.58
-89.51492594,46.24190787,535.75
-89.51489963,46.24190845,536.78
-89.51486024,46.24190932,541.68
-89.51485363,46.24190947,537.36
-89.51483290,46.24190992,522.60
-89.51482590,46.24191008,522.85
-89.51479363,46.24191079,523.52
-89.51478054,46.24191107,523.73
-89.51468491,46.24191318,524.53
-89.51461001,46.24191483,519.52
-89.51456089,46.24191591,537.87
-89.51454521,46.24191625,533.82
-89.51451956,46.24191682,539.59
-89.51446876,46.24191794,542.30
-89.51440176,46.24191941,538.16
-89.51432569,46.24192109,535.92
-89.51427256,46.24192225,535.35
-89.51423770,46.24192302,535.50
-89.51416254,46.24192468,537.19
-89.51400406,46.24192816,536.96
-89.51395093,46.24192933,538.63
-89.51383728,46.24193183,538.30
-89.51361647,46.24193669,528.93
-89.51358835,46.24193731,532.16
-89.51339565,46.24194155,515.65
-89.51327190,46.24194427,531.05
-89.51326542,46.24194441,529.25
-89.51310214,46.24194800,528.16
-89.51309916,46.24194807,528.69
-89.51309242,46.24194822,526.86
-89.51308335,46.24194842,524.44
-89.51307894,46.24194851,523.29
-89.51307272,46.24194865,528.89
-89.51305730,46.24194899,517.49
-89.51305458,46.24194905,529.12
-89.51303773,46.24194942,528.63
-89.51300702,46.24195010,530.29
-89.51256915,46.24195973,534.60
-89.51236958,46.24196411,526.92
-89.51236362,46.24196425,526.98
-89.51196411,46.24197303,535.37
-89.51194687,46.24197341,535.81
-89.51194143,46.24197353,535.90
-89.51146559,46.24198417,529.32
-89.51110093,46.24199200,520.49
-89.51089813,46.24199646,524.91
-89.51089268,46.24199658,524.92
-89.51060370,46.24200293,530.77
-89.51053139,46.24200452,532.18
-89.51028881,46.24200985,537.18
-89.51017982,46.24201224,538.87
-89.51015507,46.24201279,541.75
-89.51012397,46.24201347,544.60
-89.51012384,46.24201347,543.15
-89.50982437,46.24202005,543.51
-89.50976463,46.24202136,544.34
-89.50964346,46.24202403,543.68
-89.50959565,46.24202508,543.45
-89.50956001,46.24202586,546.65
-89.50946463,46.24202795,529.55
-89.50938494,46.24202970,544.54
-89.50935941,46.24203026,541.55
-89.50926416,46.24203236,539.12
-89.50922036,46.24203332,540.65
-89.50906149,46.24203681,543.80
-89.50899164,46.24203834,542.25
-89.50895704,46.24203910,544.12
-89.50895665,46.24203911,542.25
-89.50895600,46.24203912,538.19
-89.50886361,46.24204115,541.31
-89.50883264,46.24204183,539.49
-89.50879195,46.24204273,536.93
-89.50869281,46.24204490,519.96
-89.50856322,46.24204775,545.10
-89.50848495,46.24204947,521.12
-89.50836288,46.24205215,545.49
-89.50824677,46.24205470,544.65
-89.50814116,46.24205701,545.32
-89.50809801,46.24205796,546.23
-89.50802518,46.24205956,545.11
-89.50794794,46.24206125,542.68
-89.50759119,46.24206908,544.57
-89.50759067,46.24206910,541.09
-89.50746886,46.24207177,542.30
-89.50742972,46.24207263,545.96
-89.50741378,46.24207298,523.53
-89.50738890,46.24207352,547.21
-89.50730001,46.24207548,544.85
-89.50705301,46.24208090,543.89
-89.50694183,46.24208333,541.22
-89.50684502,46.24208546,541.11
-89.50680563,46.24208632,540.26
-89.50668330,46.24208901,529.18
-89.50655397,46.24209184,537.43
-89.50647570,46.24209356,534.46
-89.50631177,46.24209716,516.94
-89.50620966,46.24209940,528.10
-89.50609018,46.24210202,529.12
-89.50576711,46.24210910,539.71
-89.50576660,46.24210911,537.69
-89.50564958,46.24211168,542.06
-89.50554785,46.24211391,524.52
-89.50543369,46.24211642,542.91
-89.50520056,46.24212153,543.69
-89.50485352,46.24212914,532.00
-89.50472069,46.24213205,539.53
-89.50471992,46.24213206,534.63
-89.50464255,46.24213376,538.05
-89.50458424,46.24213504,534.76
-89.50449132,46.24213708,536.27
-89.50434515,46.24214028,528.65
-89.50427504,46.24214182,516.07
-89.50408753,46.24214611,516.04
-89.50383966,46.24215208,516.08
-89.50354334,46.24215965,516.02
-89.50350693,46.24216342,516.06
-89.50349281,46.24216949,516.01
-89.50348783,46.24221982,516.12
-89.50348873,46.24241331,516.05
-89.50349652,46.24259017,516.10
-89.50351470,46.24299254,521.26
-89.50351581,46.24301699,527.92
-89.50351640,46.24302994,529.39
-89.50351756,46.24305539,526.97
-89.50351937,46.24309504,528.44
-89.50352094,46.24312966,533.31
-89.50352397,46.24319628,535.71
-89.50352527,46.24322479,532.91
-89.50352707,46.24326426,535.67
-89.50352789,46.24328233,527.32
-89.50353193,46.24337107,538.47
-89.50353428,46.24342259,527.74
-89.50353435,46.24342430,539.55
-89.50353910,46.24352860,543.57
-89.50354315,46.24361762,538.94
-89.50354612,46.24368280,542.01
-89.50354867,46.24373882,545.75
-89.50355214,46.24381498,545.05
-89.50355502,46.24387837,545.38
-89.50355655,46.24391199,537.80
-89.50355923,46.24397089,540.64
-89.50356139,46.24401827,540.79
-89.50356835,46.24417122,539.04
-89.50356968,46.24420035,541.20
-89.50357282,46.24426931,541.59
-89.50357331,46.24428010,540.95
-89.50357495,46.24431625,524.25
-89.50357581,46.24433504,538.59
-89.50357690,46.24435895,539.95
-89.50357736,46.24436911,536.07
-89.50357786,46.24438017,529.20
-89.50357798,46.24438278,518.77
-89.50357801,46.24438341,537.95
-89.50357879,46.24440049,533.50
-89.50358012,46.24442981,539.25
-89.50358060,46.24444042,540.58
-89.50358124,46.24445435,540.77
-89.50358315,46.24449643,539.89
-89.50358359,46.24450605,540.31
-89.50358422,46.24451981,540.53
-89.50358428,46.24452107,534.84
-89.50359276,46.24470755,527.39
-89.50359312,46.24471537,534.84
-89.50359597,46.24477795,528.02
-89.50359621,46.24478317,536.43
-89.50359641,46.24478766,531.79
-89.50359758,46.24481338,533.25
-89.50359760,46.24481383,517.99
-89.50361517,46.24519974,515.97
-89.50361901,46.24528416,516.12
-89.50362179,46.24534531,524.48
-89.50362288,46.24536922,517.32
-89.50362382,46.24538972,525.14
-89.50362610,46.24543981,522.64
-89.50362772,46.24547541,517.04
-89.50363235,46.24557728,517.29
-89.50363483,46.24563159,527.86
-89.50363506,46.24563663,527.91
-89.50363526,46.24564112,527.65
-89.50363644,46.24566702,517.47
-89.50364068,46.24576026,523.86
-89.50364264,46.24580324,527.01
-89.50364285,46.24580791,529.32
-89.50364376,46.24582778,523.04
-89.50364429,46.24583938,518.06
-89.50364585,46.24587382,518.61
-89.50364874,46.24593721,531.67
-89.50364914,46.24594611,526.06
-89.50364997,46.24596418,530.99
-89.50365133,46.24599412,532.70
-89.50365339,46.24603935,532.64
-89.50365399,46.24605257,527.68
-89.50365707,46.24612027,534.34
-89.50365732,46.24612567,535.63
-89.50365734,46.24612612,533.83
-89.50365868,46.24615552,531.07
-89.50365921,46.24616730,533.27
-89.50366047,46.24619481,527.74
-89.50366051,46.24619580,524.06
-89.50366081,46.24620245,535.34
-89.50366180,46.24622403,533.44
-89.50366559,46.24630729,537.14
-89.50366641,46.24632545,532.03
-89.50366665,46.24633058,529.78
-89.50367269,46.24646329,526.63
-89.50367431,46.24649890,524.96
-89.50368058,46.24663655,532.08
-89.50368128,46.24665202,528.46
-89.50368203,46.24666847,535.28
-89.50368254,46.24667962,535.04
-89.50368279,46.24668529,533.98
-89.50368414,46.24671478,525.50
-89.50368543,46.24674310,524.95
-89.50368708,46.24677934,529.85
-89.50368729,46.24678392,529.13
-89.50368952,46.24683301,520.64
-89.50369078,46.24686071,530.49
-89.50369304,46.24691025,527.84
-89.50369443,46.24694082,533.32
-89.50369505,46.24695458,523.32
-89.50369862,46.24703298,532.25
-89.50370061,46.24707668,532.39
-89.50370087,46.24708235,531.09
-89.50370089,46.24708289,529.22
-89.50370135,46.24709278,531.80
-89.50370243,46.24711651,531.27
-89.50370263,46.24712101,530.38
-89.50370369,46.24714421,524.02
-89.50371103,46.24730542,516.11
-89.50372098,46.24752409,516.05
-89.50372819,46.24768252,516.11
-89.50374863,46.24813146,527.70
-89.50375485,46.24826803,517.20
-89.50375600,46.24829330,526.44
-89.50375859,46.24835021,517.21
-89.50376312,46.24844966,517.15
-89.50376727,46.24854092,517.13
-89.50377161,46.24863623,517.19
-89.50377244,46.24865430,517.16
-89.50377404,46.24868946,517.18
-89.50378029,46.24882685,518.40
-89.50378282,46.24888241,520.35
-89.50378755,46.24898626,519.55
-89.50378756,46.24898644,519.75
-89.50379060,46.24905325,522.17
-89.50379136,46.24906988,518.89
-89.50379217,46.24908769,520.81
-89.50379234,46.24909146,521.64
-89.50379426,46.24913354,516.96
-89.50379521,46.24915440,522.14
-89.50379671,46.24918749,527.30
-89.50379703,46.24919441,524.80
-89.50379802,46.24921617,524.93
-89.50379811,46.24921824,517.31
-89.50379880,46.24923344,517.50
-89.50380829,46.24944167,519.03
-89.50381075,46.24949571,517.38
-89.50381102,46.24950165,517.90
-89.50381187,46.24952035,517.38
-89.50381395,46.24956602,517.25
-89.50381888,46.24967428,517.26
-89.50381990,46.24969685,517.28
-89.50382113,46.24972373,518.87
-89.50382116,46.24972445,521.75
-89.50382138,46.24972931,518.50
-89.50382342,46.24977409,523.82
-89.50382398,46.24978640,525.29
-89.50382634,46.24983819,527.63
-89.50382655,46.24984287,518.78
-89.50382678,46.24984781,530.83
-89.50382828,46.24988072,525.31
-89.50382916,46.24990023,517.51
-89.50383106,46.24994186,517.91
-89.50383112,46.24994321,523.57
-89.50383255,46.24997459,532.42
-89.50383322,46.24998934,525.32
-89.50383603,46.25005093,517.34
-89.50383729,46.25007871,517.36
-89.50384758,46.25030457,530.51
-89.50384885,46.25033263,526.58
-89.50385008,46.25035960,518.86
-89.50385061,46.25037120,529.18
-89.50385127,46.25038577,530.60
-89.50385716,46.25051497,533.13
-89.50385765,46.25052585,524.97
-89.50385786,46.25053053,525.14
-89.50385836,46.25054132,530.52
-89.50385895,46.25055444,530.63
-89.50385908,46.25055723,533.30
-89.50386057,46.25058987,537.97
-89.50386265,46.25063555,538.28
-89.50386393,46.25066369,533.44
-89.50386599,46.25070909,519.81
-89.50386662,46.25072285,530.93
-89.50386914,46.25077824,531.10
-89.50386980,46.25079271,524.35
-89.50386989,46.25079460,531.01
-89.50387109,46.25082095,526.02
-89.50387175,46.25083560,527.23
-89.50387559,46.25091985,517.09
-89.50387584,46.25092237,517.04
-89.50391679,46.25096422,517.05
-89.50426738,46.25114158,517.40
-89.50445832,46.25113803,529.10
-89.50446636,46.25113785,527.18
-89.50447517,46.25113766,525.06
-89.50462111,46.25113446,539.89
-89.50465844,46.25113364,538.84
-89.50472259,46.25113223,540.77
-89.50479803,46.25113058,542.19
-89.50486840,46.25112904,539.11
-89.50492893,46.25112771,543.13
-89.50535133,46.25111845,536.32
-89.50536662,46.25111811,542.53
-89.50556337,46.25111380,543.10
-89.50557283,46.25111359,538.07
-89.50586497,46.25110719,535.70
-89.50589478,46.25110653,536.17
-89.50611835,46.25110163,519.09
-89.50624615,46.25109883,532.80
-89.50636189,46.25109629,519.80
-89.50641529,46.25109512,519.94
-89.50642967,46.25109480,529.73
-89.50654036,46.25109237,518.09
-89.50682006,46.25108624,524.68
-89.50689030,46.25108470,517.77
-89.50698427,46.25108263,517.75
-89.50712554,46.25107953,517.76
-89.50755338,46.25107005,517.79
-89.50792160,46.25106197,517.76
-89.50850484,46.25104926,518.96
-89.50853983,46.25104849,518.28
-89.50861358,46.25104687,526.14
-89.50862563,46.25104661,519.26
-89.50863795,46.25104634,521.83
-89.50882562,46.25104222,518.03
-89.50888848,46.25104084,528.72
-89.50895445,46.25103939,531.80
-89.50908263,46.25103657,535.43
-89.50910687,46.25103604,523.06
-89.50910843,46.25103601,536.29
-89.50914446,46.25103522,535.20
-89.50914705,46.25103516,530.91
-89.50924166,46.25103308,539.73
-89.50924775,46.25103295,540.67
-89.50925074,46.25103288,522.23
-89.50929882,46.25103183,539.21
-89.50938955,46.25102983,540.98
-89.50939641,46.25102968,541.48
-89.50944502,46.25102861,536.29
-89.50945370,46.25102842,526.47
-89.50960068,46.25102520,533.25
-89.50960897,46.25102501,517.04
-89.50965239,46.25102406,532.66
-89.50967365,46.25102359,515.87
-89.50980002,46.25102082,531.19
-89.50980792,46.25102064,516.44
-89.50991861,46.25101821,515.38
-89.50995982,46.25101731,515.43
-89.50996630,46.25101717,520.95
-89.50999948,46.25101644,515.22
-89.51001815,46.25101603,515.33
-89.51002022,46.25101598,522.22
-89.51005832,46.25101514,515.27
-89.51007492,46.25101478,518.81
     </coordinates>
    </LineString>
   </MultiGeometry>
  </Placemark>
 </Document>
</kml>
