<kml>
 <Document>
  <Style id="yellow">
   <LineStyle>
   <color>ff00ffff</color>
   <width>1</width>
   </LineStyle>
  </Style>
  <Style id="red">
   <LineStyle>
   <color>ffff0000</color>
   <width>2</width>
   </LineStyle>
  </Style>
  <Style id="green">
   <LineStyle>
   <color>ff00ff00</color>
   <width>1</width>
   </LineStyle>
  </Style>
  <Placemark>
  <styleUrl>#yellow</styleUrl>
   <MultiGeometry>
    <LineString>
     <coordinates>
-89.53531911,46.23245674,520.37
-89.53536368,46.23245576,512.56
-89.53547782,46.23245322,514.49
-89.53548041,46.23245316,511.62
-89.53558704,46.23245080,517.34
-89.53560051,46.23245050,516.41
-89.53560375,46.23245043,517.91
-89.53566154,46.23244914,512.70
-89.53567255,46.23244890,509.77
-89.53567851,46.23244877,512.38
-89.53569108,46.23244849,517.54
-89.53581364,46.23244577,514.33
-89.53582530,46.23244551,510.23
-89.53585277,46.23244490,513.35
-89.53589449,46.23244397,521.49
-89.53590356,46.23244377,524.93
-89.53592040,46.23244340,526.03
-89.53592559,46.23244328,521.28
-89.53604141,46.23244071,520.39
-89.53616670,46.23243793,511.09
-89.53630339,46.23243490,512.70
-89.53641092,46.23243251,509.19
-89.53643736,46.23243192,510.75
-89.53656355,46.23242912,518.12
-89.53657469,46.23242888,522.45
-89.53658635,46.23242862,523.85
-89.53662146,46.23242784,523.34
-89.53662716,46.23242771,529.29
-89.53670671,46.23242594,531.58
-89.53678627,46.23242418,528.54
-89.53698242,46.23241982,533.90
-89.53707325,46.23241781,536.41
-89.53722431,46.23241445,534.91
-89.53730296,46.23241270,538.66
-89.53737201,46.23241117,539.31
-89.53737668,46.23241107,540.22
-89.53740596,46.23241042,515.91
-89.53742215,46.23241006,540.53
-89.53766754,46.23240461,540.30
-89.53774049,46.23240299,541.39
-89.53778428,46.23240202,540.25
-89.53810469,46.23239490,541.47
-89.53815444,46.23239379,531.90
-89.53817258,46.23239339,544.08
-89.53874550,46.23238066,541.70
-89.53881779,46.23237905,546.66
-89.53906836,46.23237349,540.25
-89.53907510,46.23237334,534.97
-89.53915893,46.23237147,534.55
-89.53919844,46.23237060,534.31
-89.53927398,46.23236892,540.53
-89.53931453,46.23236802,535.73
-89.53935949,46.23236702,537.38
-89.53939784,46.23236616,537.35
-89.53941779,46.23236572,522.07
-89.53975919,46.23235813,534.44
-89.53976048,46.23235810,535.19
-89.53981749,46.23235684,522.59
-89.53989574,46.23235510,522.74
-89.53991557,46.23235466,542.05
-89.53995159,46.23235385,539.68
-89.53999421,46.23235291,542.28
-89.54007130,46.23235119,542.01
-89.54015642,46.23234930,542.70
-89.54021421,46.23234802,540.66
-89.54022263,46.23234783,522.11
-89.54028663,46.23234641,539.09
-89.54028754,46.23234639,538.39
-89.54029142,46.23234630,535.64
-89.54030943,46.23234590,522.93
-89.54031099,46.23234586,521.78
-89.54038860,46.23234414,535.71
-89.54048395,46.23234202,532.73
-89.54052360,46.23234114,537.64
-89.54053150,46.23234096,536.31
-89.54055249,46.23234049,533.13
-89.54058268,46.23233982,535.72
-89.54063645,46.23233863,530.72
-89.54077611,46.23233552,520.39
-89.54079101,46.23233519,531.10
-89.54081498,46.23233466,526.72
-89.54087989,46.23233321,531.37
-89.54091928,46.23233234,532.53
-89.54092187,46.23233228,530.76
-89.54096048,46.23233142,524.65
-89.54097823,46.23233103,522.01
-89.54098717,46.23233083,520.68
-89.54108019,46.23232876,528.77
-89.54110507,46.23232821,521.52
-89.54115612,46.23232707,539.93
-89.54122699,46.23232549,527.49
-89.54128931,46.23232411,528.49
-89.54136899,46.23232234,537.55
-89.54138661,46.23232194,526.13
-89.54147276,46.23232003,523.26
-89.54158069,46.23231763,533.24
-89.54164275,46.23231625,538.96
-89.54164715,46.23231615,538.31
-89.54173370,46.23231422,537.35
-89.54174057,46.23231407,534.71
-89.54184901,46.23231166,519.59
-89.54191379,46.23231022,532.40
-89.54193500,46.23230894,533.22
-89.54193583,46.23229326,529.93
-89.54193513,46.23227527,526.29
-89.54193400,46.23225072,537.52
-89.54193394,46.23224947,537.94
-89.54193086,46.23218275,527.55
-89.54192964,46.23215650,524.40
-89.54192586,46.23207459,542.31
-89.54192469,46.23204932,534.28
-89.54192421,46.23203889,527.04
-89.54192399,46.23203413,529.10
-89.54192310,46.23201480,536.11
-89.54192276,46.23200742,538.34
-89.54192044,46.23195717,535.94
-89.54191872,46.23192003,531.18
-89.54191614,46.23186411,536.40
-89.54191591,46.23185925,537.04
-89.54191340,46.23180477,526.64
-89.54191316,46.23179973,522.78
-89.54191229,46.23178094,531.09
-89.54191170,46.23176799,531.16
-89.54190753,46.23167790,533.56
-89.54190307,46.23158134,537.39
-89.54190099,46.23153620,532.46
-89.54190011,46.23151714,528.22
-89.54189866,46.23148576,522.26
-89.54189762,46.23146337,524.36
-89.54189499,46.23140637,529.91
-89.54189462,46.23139828,536.15
-89.54189272,46.23135710,532.11
-89.54189213,46.23134433,525.30
-89.54188558,46.23120263,531.58
-89.54188225,46.23113052,532.40
-89.54188119,46.23110759,538.47
-89.54187736,46.23102461,533.53
-89.54187678,46.23101211,529.30
-89.54187630,46.23100168,526.79
-89.54187077,46.23088210,538.96
-89.54186927,46.23084946,531.17
-89.54186295,46.23071280,532.41
-89.54186235,46.23069976,537.08
-89.54186036,46.23065660,536.11
-89.54185957,46.23063952,537.64
-89.54185868,46.23062037,543.34
-89.54185717,46.23058764,542.57
-89.54185702,46.23058440,538.27
-89.54185234,46.23048307,544.04
-89.54185175,46.23047039,536.20
-89.54184935,46.23041843,535.01
-89.54184600,46.23034578,527.83
-89.54183962,46.23020767,538.05
-89.54183957,46.23020651,533.73
-89.54183847,46.23018286,542.59
-89.54183752,46.23016218,539.82
-89.54183638,46.23013754,539.94
-89.54182896,46.22997687,530.52
-89.54182611,46.22991519,533.29
-89.54182259,46.22983895,521.88
-89.54181479,46.22967010,534.29
-89.54181433,46.22966021,530.13
-89.54181399,46.22965292,534.23
-89.54181346,46.22964132,533.36
-89.54180893,46.22954332,532.45
-89.54180741,46.22951041,520.92
-89.54180656,46.22949207,534.50
-89.54180574,46.22947418,535.69
-89.54180407,46.22943813,533.00
-89.54180213,46.22939614,531.06
-89.54180159,46.22938445,530.31
-89.54179955,46.22934021,528.65
-89.54179852,46.22931782,526.79
-89.54179825,46.22931216,538.72
-89.54179771,46.22930029,531.76
-89.54179496,46.22924077,524.86
-89.54179225,46.22918224,523.74
-89.54179195,46.22917558,522.78
-89.54179185,46.22917352,536.34
-89.54178632,46.22905375,524.06
-89.54178233,46.22896735,538.29
-89.54178080,46.22893435,539.64
-89.54177903,46.22889605,539.86
-89.54177896,46.22889443,539.84
-89.54177783,46.22887007,539.87
-89.54177771,46.22886737,527.23
-89.54177745,46.22886171,525.71
-89.54177742,46.22886117,540.46
-89.54177582,46.22882655,521.26
-89.54177562,46.22882214,535.29
-89.54177482,46.22880488,534.59
-89.54177447,46.22879715,537.11
-89.54177367,46.22877998,539.35
-89.54177359,46.22877827,538.89
-89.54177183,46.22873997,541.31
-89.54176729,46.22864169,542.12
-89.54176478,46.22858748,527.59
-89.54176364,46.22856266,523.32
-89.54176327,46.22855466,530.66
-89.54176162,46.22851896,541.56
-89.54175970,46.22847751,539.03
-89.54175880,46.22845791,544.23
-89.54175856,46.22845270,543.82
-89.54175339,46.22834076,548.57
-89.54175092,46.22828726,538.34
-89.54174923,46.22825067,529.31
-89.54174875,46.22824033,537.99
-89.54174842,46.22823314,525.69
-89.54174621,46.22818530,526.35
-89.54174387,46.22813468,528.74
-89.54174216,46.22809764,550.48
-89.54174045,46.22806078,547.23
-89.54174027,46.22805682,543.20
-89.54173796,46.22800665,547.30
-89.54173783,46.22800395,547.48
-89.54173752,46.22799730,543.04
-89.54173330,46.22790577,550.70
-89.54173310,46.22790154,550.74
-89.54173185,46.22787457,544.47
-89.54173167,46.22787061,549.05
-89.54173047,46.22784454,553.00
-89.54172989,46.22783204,526.69
-89.54172875,46.22780741,547.66
-89.54172866,46.22780534,549.22
-89.54172810,46.22779338,552.33
-89.54172622,46.22775265,552.08
-89.54172406,46.22770581,547.85
-89.54171941,46.22760502,551.53
-89.54171884,46.22759288,548.12
-89.54171235,46.22745235,551.65
-89.54171205,46.22744569,552.51
-89.54171154,46.22743464,548.88
-89.54170920,46.22738411,527.40
-89.54170855,46.22736999,526.31
-89.54170647,46.22732485,526.30
-89.54170616,46.22731829,551.22
-89.54170505,46.22729428,548.10
-89.54170467,46.22728601,546.65
-89.54170387,46.22726875,525.66
-89.54169933,46.22717030,548.99
-89.54169739,46.22712831,547.12
-89.54169727,46.22712570,550.03
-89.54169337,46.22704127,545.53
-89.54169224,46.22701691,549.30
-89.54169066,46.22698256,548.65
-89.54168454,46.22685003,547.77
-89.54168163,46.22678700,542.49
-89.54167800,46.22670860,543.23
-89.54167237,46.22658668,543.59
-89.54166902,46.22651412,536.03
-89.54166848,46.22650235,546.65
-89.54166250,46.22637278,538.36
-89.54166175,46.22635669,538.62
-89.54166054,46.22633053,542.90
-89.54165896,46.22629627,543.04
-89.54165709,46.22625572,534.48
-89.54165196,46.22614459,534.93
-89.54164709,46.22603921,518.14
-89.54164266,46.22594337,530.97
-89.54164104,46.22590812,529.41
-89.54163691,46.22581875,527.00
-89.54163489,46.22577505,533.29
-89.54163269,46.22572731,534.71
-89.54162888,46.22564486,532.76
-89.54161606,46.22536731,528.91
-89.54161552,46.22535562,539.36
-89.54161476,46.22533908,541.82
-89.54161074,46.22525213,536.84
-89.54161023,46.22524098,528.33
-89.54160997,46.22523541,534.27
-89.54160720,46.22517544,531.18
-89.54160531,46.22513453,528.52
-89.54160377,46.22510108,535.45
-89.54160304,46.22508526,538.69
-89.54160278,46.22507968,532.02
-89.54159946,46.22500775,541.10
-89.54159937,46.22500595,541.44
-89.54159878,46.22499310,541.66
-89.54159624,46.22493807,539.61
-89.54159584,46.22492953,519.62
-89.54159578,46.22492809,535.56
-89.54159290,46.22486569,535.12
-89.54159241,46.22485517,530.25
-89.54158358,46.22466384,514.61
-89.54158308,46.22465305,517.33
-89.54157990,46.22458436,514.44
-89.54157217,46.22441677,529.80
-89.54157075,46.22438620,524.37
-89.54157050,46.22438062,522.31
-89.54156797,46.22432587,536.15
-89.54156485,46.22425843,541.70
-89.54156309,46.22422031,539.11
-89.54156300,46.22421833,531.50
-89.54156018,46.22415728,537.90
-89.54156001,46.22415351,540.06
-89.54155959,46.22414442,536.80
-89.54155835,46.22411754,536.15
-89.54155725,46.22409371,534.62
-89.54155430,46.22402979,536.55
-89.54155414,46.22402646,524.63
-89.54155398,46.22402286,517.27
-89.54155274,46.22399616,526.91
-89.54154927,46.22392091,535.81
-89.54154902,46.22391560,535.41
-89.54154803,46.22389420,528.63
-89.54154775,46.22388809,535.51
-89.54154688,46.22386912,537.63
-89.54154656,46.22386228,540.08
-89.54154402,46.22380726,532.51
-89.54153325,46.22357394,533.15
-89.54153181,46.22354274,532.76
-89.54153159,46.22353815,535.05
-89.54153159,46.22353806,527.33
-89.54152559,46.22340805,526.00
-89.54152513,46.22339825,529.15
-89.54152449,46.22338423,538.65
-89.54152314,46.22335509,536.49
-89.54152267,46.22334484,537.99
-89.54152199,46.22333298,538.77
-89.54152141,46.22332318,538.55
-89.54152033,46.22331943,538.73
-89.54148688,46.22331963,533.10
-89.54142832,46.22332075,512.74
-89.54142223,46.22332089,536.64
-89.54139581,46.22332147,535.14
-89.54134412,46.22332262,536.77
-89.54128971,46.22332383,526.63
-89.54128570,46.22332392,535.79
-89.54115175,46.22332690,533.17
-89.54108582,46.22332837,527.30
-89.54093762,46.22333167,518.44
-89.54093115,46.22333181,512.50
-89.54087091,46.22333315,534.20
-89.54086689,46.22333324,538.94
-89.54082065,46.22333427,530.50
-89.54068385,46.22333731,526.04
-89.54062310,46.22333866,529.90
-89.54061636,46.22333881,532.40
-89.54049149,46.22334159,534.25
-89.54045690,46.22334236,533.04
-89.54035664,46.22334459,532.52
-89.54035262,46.22334467,534.88
-89.54014782,46.22334923,537.85
-89.54012165,46.22334981,538.73
-89.54006919,46.22335098,531.86
-89.54006077,46.22335116,530.11
-89.54003576,46.22335172,531.15
-89.53997371,46.22335310,522.31
-89.53990480,46.22335463,533.34
-89.53985143,46.22335582,532.14
-89.53982850,46.22335633,527.34
-89.53982151,46.22335648,535.26
-89.53981814,46.22335656,537.64
-89.53978290,46.22335734,538.90
-89.53975712,46.22335791,540.51
-89.53975168,46.22335803,533.82
-89.53967979,46.22335963,531.53
-89.53964753,46.22336035,539.41
-89.53964481,46.22336041,535.75
-89.53947693,46.22336414,523.27
-89.53938405,46.22336621,532.38
-89.53935944,46.22336675,532.84
-89.53933184,46.22336737,528.73
-89.53926824,46.22336878,521.92
-89.53912626,46.22337194,526.29
-89.53907626,46.22337305,531.34
-89.53900514,46.22337463,530.05
-89.53897548,46.22337529,524.74
-89.53892755,46.22337635,523.33
-89.53888376,46.22337732,530.31
-89.53880643,46.22337904,522.41
-89.53876951,46.22337986,533.08
-89.53854761,46.22338479,525.89
-89.53850032,46.22338584,530.25
-89.53845460,46.22338686,533.75
-89.53845421,46.22338687,532.49
-89.53818878,46.22339277,528.56
-89.53814253,46.22339379,529.54
-89.53814150,46.22339382,527.86
-89.53809668,46.22339481,523.80
-89.53809564,46.22339484,522.23
-89.53807180,46.22339536,530.16
-89.53807142,46.22339537,529.52
-89.53791351,46.22339888,510.60
-89.53789550,46.22339928,510.58
-89.53787192,46.22339981,510.83
-89.53784640,46.22340037,522.82
-89.53767722,46.22340413,527.73
-89.53764743,46.22340479,533.58
-89.53764587,46.22340483,526.41
-89.53752177,46.22340758,519.25
-89.53749535,46.22340817,517.40
-89.53749405,46.22340820,511.47
-89.53727021,46.22341317,512.01
-89.53724728,46.22341368,540.35
-89.53722357,46.22341420,526.66
-89.53713043,46.22341627,534.99
-89.53702887,46.22341853,537.05
-89.53700387,46.22341908,525.39
-89.53695633,46.22342014,531.32
-89.53692822,46.22342076,532.12
-89.53692757,46.22342078,514.41
-89.53690853,46.22342120,520.36
-89.53687886,46.22342186,530.16
-89.53680736,46.22342345,526.62
-89.53675671,46.22342457,533.13
-89.53663066,46.22342737,531.48
-89.53663028,46.22342738,534.22
-89.53661007,46.22342783,536.66
-89.53660579,46.22342792,536.57
-89.53648092,46.22343069,531.36
-89.53640397,46.22343240,525.92
-89.53630655,46.22343457,512.75
-89.53627559,46.22343525,526.60
-89.53616419,46.22343773,535.22
-89.53616406,46.22343773,536.40
-89.53614942,46.22343805,527.29
-89.53613569,46.22343836,529.45
-89.53611121,46.22343890,529.13
-89.53603219,46.22344066,535.76
-89.53600395,46.22344128,512.51
-89.53598102,46.22344179,512.89
-89.53597804,46.22344186,538.93
-89.53592156,46.22344311,536.11
-89.53591379,46.22344328,531.95
-89.53591145,46.22344334,530.38
-89.53589073,46.22344380,537.74
-89.53588088,46.22344401,513.61
-89.53584345,46.22344485,533.88
-89.53583684,46.22344499,535.44
-89.53583088,46.22344512,526.66
-89.53582285,46.22344530,522.53
-89.53562633,46.22344966,515.61
-89.53553099,46.22345178,514.10
-89.53550379,46.22345238,513.10
-89.53535106,46.22345577,511.42
-89.53534536,46.22345590,529.17
-89.53533798,46.22345606,530.21
-89.53531997,46.22345646,527.00
-89.53531945,46.22345647,528.69
-89.53520546,46.22345900,526.65
-89.53520235,46.22345907,524.94
-89.53519639,46.22345920,521.64
-89.53514380,46.22346037,514.19
-89.53513991,46.22346046,525.84
-89.53510804,46.22346117,520.07
-89.53473691,46.22346940,503.36
-89.53457485,46.22347299,503.51
-89.53452368,46.22347413,503.45
-89.53451513,46.22347432,506.49
-89.53448184,46.22347506,503.13
-89.53442057,46.22347642,510.72
-89.53442005,46.22347643,517.57
-89.53427561,46.22347963,504.25
-89.53400461,46.22348564,503.23
-89.53389062,46.22348817,508.70
-89.53375641,46.22349115,508.32
-89.53371548,46.22349206,521.10
-89.53362622,46.22349404,513.77
-89.53344525,46.22349805,518.40
-89.53337180,46.22349968,512.88
-89.53331403,46.22350096,514.07
-89.53324446,46.22350250,516.02
-89.53322659,46.22350290,506.29
-89.53296310,46.22350874,502.78
-89.53262888,46.22351615,502.74
-89.53216150,46.22352651,502.80
-89.53168906,46.22353698,502.72
-89.53106506,46.22355089,502.83
-89.53062929,46.22356063,502.82
-89.53037642,46.22356624,502.86
-89.52977262,46.22357943,510.71
-89.52975293,46.22357986,506.39
-89.52974594,46.22358002,505.77
-89.52967948,46.22358149,508.79
-89.52966705,46.22358176,507.61
-89.52962222,46.22358276,505.47
-89.52957404,46.22358382,505.50
-89.52955279,46.22358429,505.47
-89.52932661,46.22358930,520.54
-89.52931236,46.22358962,519.51
-89.52931016,46.22358967,518.94
-89.52892905,46.22359810,502.88
-89.52857954,46.22360584,502.82
-89.52857203,46.22360897,502.87
-89.52856830,46.22361797,502.78
-89.52856898,46.22363838,502.82
-89.52857548,46.22377990,515.60
-89.52857735,46.22382072,520.72
-89.52858121,46.22390461,517.08
-89.52858447,46.22397555,521.36
-89.52858472,46.22398104,521.76
-89.52858997,46.22409523,505.03
-89.52860243,46.22436658,503.63
-89.52860442,46.22440974,503.35
-89.52860591,46.22444229,529.62
-89.52860619,46.22444849,504.70
-89.52860731,46.22447286,504.00
-89.52860970,46.22452474,503.35
-89.52861307,46.22459819,527.15
-89.52861348,46.22460710,527.31
-89.52861460,46.22463137,512.74
-89.52861825,46.22471094,527.48
-89.52861888,46.22472452,527.35
-89.52862014,46.22475194,502.80
-89.52862472,46.22485175,524.78
-89.52863638,46.22510548,529.38
-89.52864683,46.22533287,527.25
-89.52864987,46.22539922,530.24
-89.52865185,46.22544220,523.31
-89.52865278,46.22546252,519.24
-89.52865736,46.22556223,513.02
-89.52865898,46.22559739,510.95
-89.52866350,46.22569575,513.85
-89.52866455,46.22571868,516.68
-89.52866570,46.22574358,519.35
-89.52866767,46.22578656,513.20
-89.52867180,46.22587639,507.27
-89.52867939,46.22604173,502.80
-89.52868454,46.22615367,502.78
-89.52870487,46.22659613,508.20
-89.52870676,46.22663722,503.22
-89.52870855,46.22667624,506.55
-89.52870999,46.22670762,505.49
-89.52871068,46.22672264,505.64
-89.52871203,46.22675204,502.94
-89.52871459,46.22680769,503.18
-89.52871644,46.22684807,503.38
-89.52872058,46.22693807,504.32
-89.52872134,46.22695461,506.63
-89.52872222,46.22697367,507.15
-89.52872231,46.22697574,508.45
-89.52872290,46.22698860,503.54
-89.52872319,46.22699489,503.32
-89.52872564,46.22704830,503.31
-89.52872583,46.22705235,513.04
-89.52872758,46.22709047,513.63
-89.52873256,46.22719890,508.89
-89.52873816,46.22732073,508.67
-89.52873947,46.22734915,513.37
-89.52874294,46.22742467,509.69
-89.52874467,46.22746234,509.35
-89.52874614,46.22749426,511.51
-89.52874633,46.22749858,511.29
-89.52875067,46.22759290,516.05
-89.52875099,46.22760000,514.13
-89.52875316,46.22764711,517.15
-89.52875518,46.22769099,508.73
-89.52875535,46.22769468,520.03
-89.52875787,46.22774970,519.40
-89.52876197,46.22783881,515.05
-89.52876776,46.22796477,511.97
-89.52876810,46.22797224,518.99
-89.52877030,46.22802007,523.81
-89.52877083,46.22803158,514.65
-89.52877152,46.22804668,511.27
-89.52877186,46.22805406,512.00
-89.52877297,46.22807833,507.47
-89.52877402,46.22810099,516.60
-89.52877540,46.22813111,512.04
-89.52877618,46.22814801,507.52
-89.52878749,46.22839428,519.50
-89.52880193,46.22870844,524.96
-89.52880310,46.22873388,513.07
-89.52880392,46.22875168,514.04
-89.52880594,46.22879583,521.64
-89.52880730,46.22882541,524.46
-89.52880888,46.22885967,527.06
-89.52881039,46.22889267,528.98
-89.52881047,46.22889437,525.09
-89.52881481,46.22898887,530.24
-89.52881531,46.22899957,529.56
-89.52882012,46.22910423,529.05
-89.52882160,46.22913660,532.05
-89.52882540,46.22921923,517.85
-89.52882763,46.22926778,526.20
-89.52882936,46.22930545,531.52
-89.52882966,46.22931201,527.66
-89.52883454,46.22941802,518.36
-89.52883560,46.22944113,514.83
-89.52883578,46.22944500,525.08
-89.52883623,46.22945480,527.78
-89.52884359,46.22961502,509.36
-89.52884478,46.22964082,528.23
-89.52884735,46.22969675,529.77
-89.52884738,46.22969756,523.81
-89.52884928,46.22973883,528.26
-89.52885050,46.22976544,527.59
-89.52885092,46.22977461,514.95
-89.52885095,46.22977515,526.11
-89.52885189,46.22979556,508.38
-89.52885281,46.22981561,508.46
-89.52885430,46.22984807,518.96
-89.52885831,46.22993529,507.49
-89.52885972,46.22996613,507.46
-89.52886815,46.23014937,514.71
-89.52886832,46.23015323,520.81
-89.52886998,46.23018938,518.03
-89.52887048,46.23020008,517.44
-89.52887096,46.23021060,518.15
-89.52887376,46.23027156,519.01
-89.52887520,46.23030294,521.56
-89.52887672,46.23033584,515.71
-89.52887743,46.23035140,507.96
-89.52888001,46.23040750,522.60
-89.52888388,46.23049175,519.04
-89.52888586,46.23053482,508.89
-89.52888845,46.23059110,526.40
-89.52888854,46.23059317,511.19
-89.52888887,46.23060036,528.94
-89.52888975,46.23061943,524.60
-89.52889174,46.23066285,517.34
-89.52889220,46.23067274,520.81
-89.52889502,46.23073415,521.87
-89.52889543,46.23074305,527.22
-89.52889569,46.23074881,513.33
-89.52889625,46.23076086,515.06
-89.52889820,46.23080330,509.90
-89.52889828,46.23080500,510.50
-89.52889911,46.23082317,510.14
-89.52889964,46.23083477,505.85
-89.52889993,46.23084097,512.90
-89.52890137,46.23087226,509.89
-89.52890309,46.23090984,510.55
-89.52890681,46.23099076,518.39
-89.52890740,46.23100362,517.66
-89.52890770,46.23101000,517.34
-89.52890866,46.23103086,506.30
-89.52890924,46.23104363,508.97
-89.52890963,46.23105208,513.90
-89.52891119,46.23108607,509.29
-89.52891231,46.23111035,508.27
-89.52891492,46.23116708,507.76
-89.52891686,46.23120943,510.04
-89.52892036,46.23128549,525.34
-89.52892102,46.23129997,507.24
-89.52892113,46.23130231,525.84
-89.52892289,46.23134061,509.91
-89.52892407,46.23136624,508.95
-89.52892448,46.23137514,509.57
-89.52892503,46.23138718,507.17
-89.52892750,46.23144077,523.49
-89.52892771,46.23144554,519.98
-89.52892822,46.23145660,507.75
-89.52893002,46.23149562,524.69
-89.52893070,46.23151054,524.41
-89.52893081,46.23151288,504.36
-89.52893957,46.23170350,503.16
-89.52893980,46.23170853,512.02
-89.52894087,46.23173173,504.30
-89.52894106,46.23173595,504.93
-89.52895023,46.23193547,509.85
-89.52896813,46.23232488,502.78
-89.52897374,46.23244689,502.78
-89.52897508,46.23247611,502.77
-89.52897809,46.23254156,502.77
-89.52897945,46.23256566,502.76
-89.52898059,46.23258192,502.76
-89.52898174,46.23259558,502.77
-89.52902052,46.23259571,502.76
-89.52938061,46.23258837,519.16
-89.52939369,46.23258808,505.48
-89.52942984,46.23258728,512.97
-89.52948037,46.23258616,517.12
-89.52949916,46.23258574,503.34
-89.52955642,46.23258447,504.36
-89.52960086,46.23258349,503.39
-89.52973393,46.23258054,524.42
-89.52974921,46.23258021,520.77
-89.52974973,46.23258019,506.45
-89.52978808,46.23257934,524.46
-89.52987619,46.23257739,523.82
-89.52996960,46.23257532,524.57
-89.53007649,46.23257296,503.70
-89.53007714,46.23257294,527.20
-89.53008854,46.23257269,524.58
-89.53013298,46.23257171,504.87
-89.53017392,46.23257080,504.91
-89.53020696,46.23257007,521.81
-89.53025049,46.23256911,521.50
-89.53026915,46.23256869,504.65
-89.53032110,46.23256754,509.66
-89.53041361,46.23256549,507.39
-89.53042916,46.23256515,516.07
-89.53043136,46.23256510,516.95
-89.53043331,46.23256506,524.14
-89.53048928,46.23256382,522.41
-89.53049122,46.23256377,523.18
-89.53051104,46.23256334,504.78
-89.53056624,46.23256211,506.27
-89.53075514,46.23255793,509.58
-89.53079116,46.23255713,505.60
-89.53090556,46.23255460,506.89
-89.53091813,46.23255432,518.57
-89.53093614,46.23255392,504.38
-89.53094028,46.23255383,506.44
-89.53096879,46.23255320,518.59
-89.53101971,46.23255207,520.75
-89.53105119,46.23255137,517.52
-89.53105249,46.23255134,518.19
-89.53113748,46.23254946,516.21
-89.53114072,46.23254939,517.98
-89.53114227,46.23254935,518.80
-89.53118879,46.23254832,519.45
-89.53129321,46.23254601,518.36
-89.53131679,46.23254549,505.56
-89.53152254,46.23254093,514.11
-89.53155040,46.23254031,518.99
-89.53156387,46.23254001,518.35
-89.53160092,46.23253919,509.13
-89.53164433,46.23253823,522.83
-89.53164822,46.23253814,509.19
-89.53167257,46.23253760,525.10
-89.53167348,46.23253758,525.78
-89.53174021,46.23253610,522.51
-89.53177998,46.23253522,525.17
-89.53178413,46.23253513,524.05
-89.53184515,46.23253378,520.98
-89.53190566,46.23253244,520.56
-89.53192263,46.23253206,513.99
-89.53192820,46.23253194,512.51
-89.53193416,46.23253181,518.45
-89.53199505,46.23253046,519.51
-89.53199933,46.23253036,518.39
-89.53206865,46.23252883,515.27
-89.53207370,46.23252871,513.96
-89.53214587,46.23252712,505.08
-89.53216958,46.23252659,515.97
-89.53217994,46.23252636,520.66
-89.53220171,46.23252588,509.85
-89.53222257,46.23252542,519.76
-89.53222322,46.23252540,511.27
-89.53232414,46.23252316,521.90
-89.53233321,46.23252296,526.18
-89.53237221,46.23252210,519.37
-89.53244736,46.23252043,521.36
-89.53245695,46.23252022,519.14
-89.53246511,46.23252004,517.23
-89.53251033,46.23251904,517.01
-89.53251318,46.23251897,516.35
-89.53252354,46.23251874,513.98
-89.53252976,46.23251861,506.58
-89.53257459,46.23251761,506.22
-89.53263263,46.23251633,507.32
-89.53292492,46.23250985,514.11
-89.53306926,46.23250665,521.13
-89.53321683,46.23250337,507.12
-89.53340275,46.23249925,522.27
-89.53348567,46.23249741,519.98
-89.53358673,46.23249517,521.18
-89.53376980,46.23249111,521.65
-89.53395482,46.23248701,519.14
-89.53396790,46.23248672,524.87
-89.53402789,46.23248539,515.04
-89.53403229,46.23248529,517.00
-89.53427237,46.23247997,515.01
-89.53439338,46.23247728,529.37
-89.53448006,46.23247536,526.13
-89.53459887,46.23247272,525.27
-89.53479308,46.23246842,516.17
-89.53483130,46.23246757,520.61
-89.53484828,46.23246719,521.40
-89.53485514,46.23246704,524.34
-89.53486201,46.23246689,526.06
-89.53487160,46.23246667,516.80
-89.53497395,46.23246440,523.70
-89.53501956,46.23246339,513.34
-89.53522168,46.23245891,519.83
-89.53523593,46.23245859,526.71
-89.53524059,46.23245849,522.56
-89.53525122,46.23245825,512.52
-89.53525264,46.23245822,512.63
-89.53531911,46.23245674,520.37
     </coordinates>
    </LineString>
   </MultiGeometry>
  </Placemark>
 </Document>
</kml>
