<kml>
 <Document>
  <Style id="yellow">
   <LineStyle>
   <color>ff00ffff</color>
   <width>1</width>
   </LineStyle>
  </Style>
  <Style id="red">
   <LineStyle>
   <color>ffff0000</color>
   <width>2</width>
   </LineStyle>
  </Style>
  <Style id="green">
   <LineStyle>
   <color>ff00ff00</color>
   <width>1</width>
   </LineStyle>
  </Style>
  <Placemark>
  <styleUrl>#yellow</styleUrl>
   <MultiGeometry>
    <LineString>
     <coordinates>
-89.49485716,46.19734600,525.67
-89.49495789,46.19734380,526.68
-89.49502626,46.19734231,523.59
-89.49505306,46.19734172,521.78
-89.49508751,46.19734097,524.21
-89.49512804,46.19734009,528.44
-89.49528808,46.19733659,522.97
-89.49534091,46.19733544,510.73
-89.49534557,46.19733533,516.60
-89.49540966,46.19733393,514.25
-89.49547570,46.19733249,521.91
-89.49568391,46.19732794,507.12
-89.49594158,46.19732232,522.04
-89.49603455,46.19732028,527.20
-89.49606213,46.19731968,531.40
-89.49607857,46.19731932,509.50
-89.49618410,46.19731702,525.74
-89.49620961,46.19731646,528.49
-89.49629015,46.19731470,529.41
-89.49629222,46.19731466,531.55
-89.49635994,46.19731318,531.77
-89.49642080,46.19731185,528.44
-89.49643750,46.19731148,511.25
-89.49645200,46.19731116,526.63
-89.49651571,46.19730977,511.27
-89.49672314,46.19730524,515.23
-89.49695375,46.19730020,527.14
-89.49695621,46.19730015,529.76
-89.49695815,46.19730010,528.24
-89.49705928,46.19729789,529.18
-89.49714785,46.19729596,532.36
-89.49716455,46.19729559,520.38
-89.49716701,46.19729554,522.29
-89.49726516,46.19729339,533.30
-89.49746909,46.19728894,508.72
-89.49747479,46.19728881,515.16
-89.49756841,46.19728676,519.18
-89.49759314,46.19728622,524.52
-89.49764014,46.19728520,522.54
-89.49774826,46.19728283,519.28
-89.49775214,46.19728275,522.38
-89.49775538,46.19728268,524.83
-89.49778956,46.19728193,524.19
-89.49780575,46.19728157,517.36
-89.49781417,46.19728139,525.18
-89.49781559,46.19728136,525.24
-89.49788978,46.19727974,523.94
-89.49789406,46.19727964,526.84
-89.49791154,46.19727926,525.93
-89.49800321,46.19727726,528.11
-89.49804724,46.19727630,522.62
-89.49815289,46.19727399,519.00
-89.49817517,46.19727350,521.54
-89.49838415,46.19726893,510.01
-89.49902030,46.19725502,502.91
-89.49922929,46.19725044,502.86
-89.49933132,46.19724821,502.84
-89.49964661,46.19724122,502.83
-89.50020313,46.19722914,502.84
-89.50024832,46.19722815,502.86
-89.50039657,46.19722490,502.88
-89.50053836,46.19722180,502.84
-89.50064091,46.19721956,502.83
-89.50103078,46.19721102,502.85
-89.50127329,46.19720553,502.88
-89.50141688,46.19720221,502.85
-89.50142874,46.19720069,502.77
-89.50143186,46.19718964,502.85
-89.50142732,46.19708390,502.82
-89.50142226,46.19696952,502.82
-89.50140554,46.19660123,502.86
-89.50139488,46.19636359,502.81
-89.50138061,46.19605797,502.83
-89.50136919,46.19580072,502.84
-89.50136473,46.19569966,502.83
-89.50135260,46.19543234,502.85
-89.50133587,46.19506684,502.83
-89.50133070,46.19494995,502.82
-89.50132996,46.19493377,502.83
-89.50132047,46.19472750,502.81
-89.50130913,46.19447502,502.83
-89.50130374,46.19435616,502.84
-89.50129989,46.19427145,502.87
-89.50128716,46.19399371,502.82
-89.50127835,46.19379689,502.82
-89.50126929,46.19360313,502.85
-89.50125002,46.19317288,502.83
-89.50124148,46.19298766,502.82
-89.50122519,46.19262593,502.86
-89.50122126,46.19253925,502.83
-89.50121909,46.19249142,502.82
-89.50121628,46.19242956,502.89
-89.50121102,46.19231375,502.84
-89.50120321,46.19214165,502.79
-89.50119805,46.19202791,502.84
-89.50119602,46.19198322,502.81
-89.50118360,46.19170961,502.84
-89.50117498,46.19151980,502.84
-89.50117010,46.19141226,502.83
-89.50116921,46.19139248,502.86
-89.50115939,46.19117615,502.86
-89.50114496,46.19085839,502.84
-89.50112672,46.19045647,502.83
-89.50112164,46.19034462,502.82
-89.50111536,46.19020624,502.84
-89.50110390,46.18995367,502.85
-89.50108999,46.18965282,502.85
-89.50107671,46.18935745,502.84
-89.50107058,46.18921943,503.09
-89.50106822,46.18916755,503.43
-89.50105325,46.18884044,502.89
-89.50104431,46.18864065,512.24
-89.50103838,46.18851000,503.72
-89.50103313,46.18839428,504.02
-89.50102850,46.18829232,504.15
-89.50102678,46.18825437,503.22
-89.50102581,46.18823585,518.08
-89.50102430,46.18821978,509.76
-89.50102227,46.18821505,506.15
-89.50101952,46.18821448,511.45
-89.50099490,46.18821151,503.16
-89.50098752,46.18821167,505.31
-89.50087463,46.18821414,503.06
-89.50072368,46.18821745,503.02
-89.50060341,46.18822008,503.11
-89.50047006,46.18822300,506.00
-89.50032532,46.18822617,505.09
-89.50019884,46.18822893,504.68
-89.49993279,46.18823476,504.19
-89.49966507,46.18824061,502.83
-89.49948732,46.18824450,519.83
-89.49946272,46.18824504,517.17
-89.49940783,46.18824624,521.38
-89.49935281,46.18824744,522.90
-89.49930542,46.18824848,524.05
-89.49927383,46.18824917,523.04
-89.49926697,46.18824932,526.18
-89.49921545,46.18825045,528.47
-89.49920030,46.18825078,525.60
-89.49912858,46.18825235,527.39
-89.49910502,46.18825287,506.45
-89.49904041,46.18825428,525.54
-89.49903795,46.18825433,528.93
-89.49879923,46.18825955,525.44
-89.49879120,46.18825973,528.03
-89.49875534,46.18826051,529.23
-89.49871896,46.18826131,527.98
-89.49865578,46.18826269,526.17
-89.49849279,46.18826626,524.49
-89.49845473,46.18826709,508.90
-89.49838016,46.18826872,527.54
-89.49837032,46.18826893,532.32
-89.49830714,46.18827032,508.87
-89.49824876,46.18827159,528.33
-89.49823503,46.18827189,509.01
-89.49818752,46.18827293,508.95
-89.49786658,46.18827995,528.87
-89.49786451,46.18827999,524.65
-89.49777234,46.18828201,528.92
-89.49753050,46.18828730,507.17
-89.49747664,46.18828847,526.08
-89.49710379,46.18829662,526.79
-89.49703142,46.18829821,527.54
-89.49695543,46.18829987,531.45
-89.49692682,46.18830049,529.09
-89.49684888,46.18830219,528.16
-89.49678700,46.18830355,508.32
-89.49674078,46.18830456,524.64
-89.49672926,46.18830481,528.47
-89.49669767,46.18830550,527.65
-89.49660498,46.18830752,527.96
-89.49651435,46.18830951,531.17
-89.49648367,46.18831018,525.06
-89.49628533,46.18831451,533.57
-89.49624391,46.18831541,531.36
-89.49623795,46.18831554,533.22
-89.49619367,46.18831651,531.94
-89.49596958,46.18832141,531.65
-89.49596220,46.18832157,513.21
-89.49596064,46.18832160,536.23
-89.49551115,46.18833142,533.82
-89.49521546,46.18833788,519.00
-89.49514399,46.18833944,526.82
-89.49500689,46.18834244,529.88
-89.49496301,46.18834339,528.34
-89.49477800,46.18834743,521.72
-89.49476467,46.18834773,528.39
-89.49465204,46.18835018,512.43
-89.49455287,46.18835235,511.69
-89.49450121,46.18835348,511.11
-89.49441797,46.18835530,509.90
-89.49441409,46.18835538,511.94
-89.49438211,46.18835608,528.04
-89.49437395,46.18835626,532.18
-89.49430288,46.18835781,514.06
-89.49425407,46.18835887,515.23
-89.49421627,46.18835970,534.47
-89.49406441,46.18836301,535.52
-89.49406001,46.18836311,516.32
-89.49402829,46.18836380,532.20
-89.49398077,46.18836484,537.09
-89.49396446,46.18836520,538.39
-89.49391281,46.18836632,536.73
-89.49387345,46.18836718,535.30
-89.49361427,46.18837284,536.32
-89.49357284,46.18837374,533.95
-89.49356675,46.18837388,537.03
-89.49351704,46.18837496,536.99
-89.49340492,46.18837741,538.59
-89.49331806,46.18837930,531.92
-89.49331495,46.18837937,533.25
-89.49320905,46.18838168,515.46
-89.49316788,46.18838258,537.21
-89.49312347,46.18838355,533.70
-89.49307674,46.18838457,536.30
-89.49300618,46.18838611,534.93
-89.49294637,46.18838742,532.47
-89.49293213,46.18838773,518.90
-89.49293122,46.18838775,533.25
-89.49288694,46.18838871,535.65
-89.49275308,46.18839163,531.76
-89.49271955,46.18839236,523.72
-89.49270803,46.18839262,527.20
-89.49265288,46.18839382,523.45
-89.49259552,46.18839507,530.45
-89.49257623,46.18839549,510.92
-89.49257429,46.18839553,531.64
-89.49254477,46.18839618,533.32
-89.49253675,46.18839635,533.32
-89.49243227,46.18839863,530.84
-89.49232935,46.18840088,524.78
-89.49215380,46.18840471,511.08
-89.49200776,46.18840789,510.90
-89.49194122,46.18840934,528.44
-89.49178768,46.18841269,510.66
-89.49175440,46.18841342,510.67
-89.49139566,46.18842124,525.18
-89.49136032,46.18842201,511.05
-89.49135022,46.18842223,517.93
-89.49130077,46.18842331,526.37
-89.49129429,46.18842345,526.63
-89.49123098,46.18842483,521.23
-89.49107395,46.18842826,519.59
-89.49080298,46.18843417,508.70
-89.49074006,46.18843554,522.81
-89.49039427,46.18844308,510.07
-89.49027037,46.18844578,516.68
-89.49000057,46.18845166,518.14
-89.48978915,46.18845626,507.59
-89.48960868,46.18846020,527.39
-89.48957463,46.18846094,519.24
-89.48955625,46.18846134,520.12
-89.48947391,46.18846313,524.52
-89.48946783,46.18846327,524.82
-89.48940815,46.18846457,518.39
-89.48933396,46.18846618,510.57
-89.48927350,46.18846750,525.47
-89.48924502,46.18846812,527.08
-89.48922754,46.18846850,528.07
-89.48920994,46.18846888,528.99
-89.48918676,46.18846939,530.13
-89.48860793,46.18848200,530.76
-89.48849983,46.18848435,511.88
-89.48848624,46.18848465,532.64
-89.48838331,46.18848689,532.24
-89.48832026,46.18848827,532.26
-89.48828156,46.18848911,511.95
-89.48825502,46.18848969,532.51
-89.48812206,46.18849258,532.04
-89.48811986,46.18849263,527.78
-89.48809849,46.18849310,531.84
-89.48808105,46.18849429,532.55
-89.48807939,46.18849477,531.68
-89.48807939,46.18850341,523.54
-89.48808087,46.18854199,533.10
-89.48808244,46.18857670,535.33
-89.48808889,46.18871957,537.27
-89.48809179,46.18878377,535.52
-89.48809192,46.18878656,531.44
-89.48809627,46.18888304,536.02
-89.48809723,46.18890426,536.08
-89.48809818,46.18892530,536.33
-89.48809904,46.18894445,537.12
-89.48809957,46.18895614,535.60
-89.48810135,46.18899543,534.23
-89.48810283,46.18902825,534.60
-89.48810345,46.18904210,537.28
-89.48810464,46.18906836,533.93
-89.48810824,46.18914820,510.99
-89.48811118,46.18921330,535.24
-89.48811689,46.18933981,529.98
-89.48811709,46.18934422,519.30
-89.48811834,46.18937191,508.43
-89.48812093,46.18942919,528.95
-89.48812591,46.18953951,527.54
-89.48813356,46.18970882,526.87
-89.48813367,46.18971125,519.16
-89.48813439,46.18972735,527.24
-89.48813507,46.18974236,525.09
-89.48813587,46.18975999,525.05
-89.48813749,46.18979595,525.36
-89.48813769,46.18980036,524.00
-89.48814025,46.18985709,523.43
-89.48814292,46.18991617,525.11
-89.48814641,46.18999350,505.80
-89.48814805,46.19002973,505.93
-89.48814843,46.19003818,509.44
-89.48814919,46.19005509,505.64
-89.48814944,46.19006057,524.83
-89.48815020,46.19007739,520.72
-89.48815068,46.19008818,506.79
-89.48815160,46.19010850,506.46
-89.48815313,46.19014240,515.06
-89.48815413,46.19016443,511.35
-89.48815551,46.19019500,515.47
-89.48815707,46.19022970,508.29
-89.48815796,46.19024931,513.06
-89.48816444,46.19039290,520.40
-89.48816492,46.19040351,517.47
-89.48816571,46.19042086,521.84
-89.48816965,46.19050817,521.22
-89.48817144,46.19054792,521.12
-89.48817372,46.19059836,522.39
-89.48817439,46.19061310,505.78
-89.48817992,46.19073557,514.86
-89.48818012,46.19074006,511.01
-89.48818038,46.19074582,517.65
-89.48818113,46.19076236,519.97
-89.48818137,46.19076785,518.66
-89.48818206,46.19078313,518.42
-89.48818428,46.19083223,521.34
-89.48818533,46.19085552,516.33
-89.48818883,46.19093293,515.32
-89.48819363,46.19103921,526.73
-89.48819414,46.19105054,520.37
-89.48819894,46.19115700,514.49
-89.48819922,46.19116312,513.58
-89.48820269,46.19123990,506.01
-89.48820311,46.19124926,506.00
-89.48820551,46.19130240,525.45
-89.48820842,46.19136696,506.92
-89.48821048,46.19141236,517.93
-89.48821186,46.19144311,511.73
-89.48821272,46.19146200,518.41
-89.48821423,46.19149553,513.19
-89.48821553,46.19152431,518.88
-89.48821599,46.19153447,519.84
-89.48821645,46.19154472,505.88
-89.48821763,46.19157070,517.54
-89.48821810,46.19158122,515.05
-89.48822056,46.19163571,519.82
-89.48822264,46.19168175,519.42
-89.48822267,46.19168238,521.10
-89.48822506,46.19173534,525.49
-89.48822561,46.19174757,511.35
-89.48822570,46.19174946,520.68
-89.48822623,46.19176123,526.81
-89.48822924,46.19182795,526.72
-89.48824089,46.19208592,532.59
-89.48824356,46.19214508,536.18
-89.48824411,46.19215713,534.25
-89.48824872,46.19225937,527.90
-89.48825144,46.19231961,529.89
-89.48825294,46.19235270,535.18
-89.48825626,46.19242634,523.12
-89.48825638,46.19242904,515.93
-89.48825657,46.19243308,536.95
-89.48825688,46.19244010,536.89
-89.48825735,46.19245044,535.52
-89.48826129,46.19253774,540.07
-89.48826148,46.19254179,535.56
-89.48826526,46.19262550,534.90
-89.48826557,46.19263233,533.47
-89.48826692,46.19266237,537.15
-89.48826702,46.19266452,532.25
-89.48826707,46.19266569,537.12
-89.48826767,46.19267891,531.63
-89.48826774,46.19268044,538.04
-89.48826990,46.19272827,529.16
-89.48827062,46.19274437,530.31
-89.48827552,46.19285290,522.00
-89.48827688,46.19288284,538.09
-89.48827821,46.19291233,525.11
-89.48827918,46.19293373,521.52
-89.48828622,46.19308982,533.75
-89.48828990,46.19317120,535.04
-89.48829117,46.19319934,516.88
-89.48829528,46.19329043,535.77
-89.48829609,46.19330832,516.22
-89.48829664,46.19332046,516.09
-89.48830442,46.19349274,522.82
-89.48830468,46.19349840,536.83
-89.48830486,46.19350245,534.79
-89.48830848,46.19358274,534.62
-89.48830870,46.19358742,515.79
-89.48830896,46.19359317,535.85
-89.48830935,46.19360198,537.15
-89.48831166,46.19365314,536.83
-89.48831194,46.19365935,529.67
-89.48831508,46.19372876,514.04
-89.48831611,46.19375169,513.28
-89.48831871,46.19380915,526.60
-89.48832049,46.19384853,508.23
-89.48832393,46.19392478,527.54
-89.48832404,46.19392721,518.02
-89.48832426,46.19393206,517.93
-89.48832522,46.19395337,528.04
-89.48832937,46.19404518,506.82
-89.48832940,46.19404589,523.13
-89.48832984,46.19405570,524.51
-89.48833219,46.19410776,523.19
-89.48833718,46.19421817,525.57
-89.48833741,46.19422321,525.61
-89.48834040,46.19428939,523.89
-89.48834142,46.19431213,524.75
-89.48834317,46.19435080,516.67
-89.48834393,46.19436761,522.33
-89.48834422,46.19437409,521.41
-89.48834547,46.19440169,522.08
-89.48834597,46.19441275,521.04
-89.48834698,46.19443523,518.51
-89.48835133,46.19453153,522.45
-89.48835323,46.19457361,518.86
-89.48835360,46.19458170,518.30
-89.48835401,46.19459078,514.20
-89.48835586,46.19463178,521.05
-89.48835588,46.19463214,518.97
-89.48835848,46.19468969,517.20
-89.48835952,46.19471280,519.62
-89.48836206,46.19476908,506.77
-89.48836338,46.19479831,522.56
-89.48836467,46.19482690,518.72
-89.48836501,46.19483427,510.47
-89.48836873,46.19491681,516.54
-89.48837171,46.19498263,511.60
-89.48837201,46.19498929,525.06
-89.48837274,46.19500547,519.14
-89.48837318,46.19501536,511.77
-89.48837856,46.19513432,514.12
-89.48837948,46.19515473,521.65
-89.48837958,46.19515707,521.45
-89.48838054,46.19517820,520.69
-89.48838056,46.19517865,512.42
-89.48838124,46.19519366,521.83
-89.48838265,46.19522505,519.85
-89.48838555,46.19528906,522.60
-89.48838639,46.19530786,511.80
-89.48838674,46.19531559,525.80
-89.48838794,46.19534211,526.32
-89.48838864,46.19535758,513.17
-89.48839137,46.19541800,514.85
-89.48839218,46.19543599,518.62
-89.48839237,46.19544012,519.10
-89.48839883,46.19558327,529.26
-89.48839906,46.19558821,529.76
-89.48839915,46.19559028,520.08
-89.48839920,46.19559145,522.16
-89.48840046,46.19561923,527.21
-89.48840273,46.19566950,525.03
-89.48840340,46.19568442,522.55
-89.48840356,46.19568802,528.33
-89.48840562,46.19573352,528.17
-89.48840597,46.19574125,520.18
-89.48841251,46.19588610,526.48
-89.48841987,46.19604912,528.81
-89.48842158,46.19608679,527.79
-89.48842724,46.19621214,532.53
-89.48843011,46.19627571,514.54
-89.48843129,46.19630178,516.90
-89.48843503,46.19638459,529.73
-89.48843601,46.19640635,534.33
-89.48844069,46.19650993,536.07
-89.48844148,46.19652738,514.62
-89.48844373,46.19657728,515.40
-89.48844459,46.19659634,534.59
-89.48844527,46.19661145,535.32
-89.48844740,46.19665848,537.78
-89.48844771,46.19666549,538.34
-89.48844941,46.19670298,535.45
-89.48844982,46.19671215,538.06
-89.48845431,46.19681160,537.89
-89.48845479,46.19682221,537.00
-89.48845541,46.19683588,534.24
-89.48845887,46.19691240,517.73
-89.48845993,46.19693586,523.47
-89.48846801,46.19711489,533.53
-89.48847172,46.19719689,531.81
-89.48847383,46.19724364,525.02
-89.48847498,46.19726918,525.41
-89.48847551,46.19728096,523.98
-89.48847786,46.19733302,511.39
-89.48848111,46.19740477,528.93
-89.48848478,46.19748318,527.47
-89.48849274,46.19748435,528.60
-89.48850311,46.19748458,521.74
-89.48855361,46.19748348,528.33
-89.48856255,46.19748328,508.92
-89.48869605,46.19748037,526.44
-89.48873282,46.19747957,521.81
-89.48918032,46.19746982,531.58
-89.48918550,46.19746971,530.95
-89.48919637,46.19746947,529.53
-89.48956515,46.19746144,530.81
-89.48957667,46.19746119,529.48
-89.48967482,46.19745905,517.47
-89.48974358,46.19745755,524.74
-89.48994674,46.19745312,513.40
-89.48996422,46.19745274,529.31
-89.49045911,46.19744196,530.44
-89.49062731,46.19743829,510.34
-89.49095076,46.19743124,510.99
-89.49108956,46.19742821,516.99
-89.49112608,46.19742742,519.25
-89.49133027,46.19742296,522.63
-89.49133041,46.19742296,524.36
-89.49133274,46.19742291,529.61
-89.49136731,46.19742216,527.83
-89.49139100,46.19742164,511.46
-89.49143347,46.19742071,520.33
-89.49146766,46.19741997,528.29
-89.49146831,46.19741995,530.16
-89.49151479,46.19741894,510.97
-89.49158264,46.19741746,530.02
-89.49162148,46.19741661,526.15
-89.49165463,46.19741589,524.10
-89.49167147,46.19741552,523.28
-89.49173543,46.19741413,524.11
-89.49184653,46.19741170,515.14
-89.49196280,46.19740917,518.75
-89.49200825,46.19740818,525.86
-89.49204568,46.19740736,528.89
-89.49205305,46.19740720,522.37
-89.49208206,46.19740657,525.81
-89.49208258,46.19740656,527.85
-89.49211378,46.19740587,530.90
-89.49215755,46.19740492,522.21
-89.49226295,46.19740262,514.37
-89.49226981,46.19740247,529.28
-89.49235139,46.19740069,531.55
-89.49246002,46.19739832,534.95
-89.49248475,46.19739778,515.71
-89.49255985,46.19739614,537.22
-89.49267510,46.19739363,533.35
-89.49267639,46.19739360,536.03
-89.49269271,46.19739324,536.02
-89.49270099,46.19739306,535.16
-89.49270164,46.19739305,530.26
-89.49273764,46.19739227,531.19
-89.49288823,46.19738898,530.97
-89.49296708,46.19738726,531.11
-89.49299285,46.19738670,531.30
-89.49299363,46.19738668,530.80
-89.49302639,46.19738596,511.45
-89.49317749,46.19738267,511.21
-89.49332057,46.19737955,524.38
-89.49337366,46.19737839,529.38
-89.49338065,46.19737823,511.63
-89.49346275,46.19737644,526.53
-89.49349253,46.19737579,521.60
-89.49351104,46.19737539,528.59
-89.49353759,46.19737481,528.94
-89.49367782,46.19737175,525.71
-89.49378633,46.19736938,527.49
-89.49382918,46.19736844,510.02
-89.49385379,46.19736791,523.90
-89.49388681,46.19736719,527.57
-89.49395737,46.19736565,507.00
-89.49405785,46.19736345,510.64
-89.49433754,46.19735735,505.88
-89.49466202,46.19735026,525.43
-89.49478413,46.19734760,509.68
-89.49481935,46.19734683,513.75
-89.49485716,46.19734600,525.67
     </coordinates>
    </LineString>
   </MultiGeometry>
  </Placemark>
 </Document>
</kml>
