<kml>
 <Document>
  <Style id="yellow">
   <LineStyle>
   <color>ff00ffff</color>
   <width>1</width>
   </LineStyle>
  </Style>
  <Style id="red">
   <LineStyle>
   <color>ffff0000</color>
   <width>2</width>
   </LineStyle>
  </Style>
  <Style id="green">
   <LineStyle>
   <color>ff00ff00</color>
   <width>1</width>
   </LineStyle>
  </Style>
  <Placemark>
  <styleUrl>#yellow</styleUrl>
   <MultiGeometry>
    <LineString>
     <coordinates>
-89.52148366,46.21476221,510.96
-89.52159259,46.21475981,505.91
-89.52167976,46.21475788,502.80
-89.52184270,46.21475420,502.81
-89.52232918,46.21474355,502.84
-89.52241402,46.21474167,502.81
-89.52266698,46.21473609,502.83
-89.52291371,46.21473055,502.82
-89.52333531,46.21472133,502.81
-89.52343180,46.21471920,502.81
-89.52351016,46.21471747,502.77
-89.52369007,46.21471349,503.09
-89.52377477,46.21471162,503.11
-89.52385650,46.21470982,503.28
-89.52392994,46.21470819,507.13
-89.52397281,46.21470725,510.12
-89.52411075,46.21470420,507.29
-89.52431047,46.21469979,516.98
-89.52435710,46.21469876,510.37
-89.52435749,46.21469875,511.82
-89.52443689,46.21469699,516.26
-89.52449673,46.21469567,518.90
-89.52455877,46.21469430,521.31
-89.52493282,46.21468604,502.82
-89.52522294,46.21467944,502.79
-89.52561307,46.21467091,502.82
-89.52600772,46.21466228,502.86
-89.52651661,46.21465102,502.79
-89.52673084,46.21464629,502.77
-89.52709453,46.21463824,502.79
-89.52745110,46.21463035,502.81
-89.52764888,46.21462598,502.82
-89.52776144,46.21462349,502.78
-89.52807099,46.21461664,502.77
-89.52815259,46.21461483,502.83
-89.52815253,46.21459098,502.82
-89.52814963,46.21451094,502.82
-89.52814180,46.21434038,502.80
-89.52813270,46.21414212,502.81
-89.52812421,46.21396006,502.81
-89.52811156,46.21368447,502.78
-89.52810333,46.21350528,502.80
-89.52808651,46.21313619,502.79
-89.52808147,46.21302631,502.83
-89.52807186,46.21281700,502.79
-89.52806819,46.21273707,502.80
-89.52805325,46.21241185,502.81
-89.52805096,46.21236186,502.82
-89.52804791,46.21229550,502.80
-89.52804668,46.21226862,502.80
-89.52803730,46.21206434,502.78
-89.52803105,46.21192830,502.79
-89.52802556,46.21180872,502.81
-89.52801670,46.21161577,510.53
-89.52801168,46.21150634,523.80
-89.52800395,46.21133794,521.87
-89.52799611,46.21116728,507.20
-89.52799022,46.21103898,526.57
-89.52798981,46.21102990,526.14
-89.52798903,46.21101308,530.30
-89.52798902,46.21101282,528.95
-89.52797669,46.21074416,525.81
-89.52797590,46.21072707,525.86
-89.52796490,46.21048746,508.80
-89.52795743,46.21032463,526.21
-89.52795549,46.21028237,534.22
-89.52795531,46.21027850,533.72
-89.52793646,46.20986787,512.80
-89.52793611,46.20986023,536.92
-89.52792423,46.20960155,534.88
-89.52792423,46.20960146,535.51
-89.52792294,46.20957341,514.10
-89.52790987,46.20928856,515.49
-89.52790697,46.20922536,515.46
-89.52789943,46.20906127,534.23
-89.52789596,46.20898565,535.97
-89.52789595,46.20898538,537.45
-89.52789324,46.20892640,535.61
-89.52788515,46.20875017,534.43
-89.52788076,46.20865459,529.88
-89.52788035,46.20864551,531.84
-89.52788034,46.20864533,532.53
-89.52787132,46.20844878,529.68
-89.52786836,46.20838432,509.69
-89.52786041,46.20821114,528.97
-89.52785989,46.20819973,510.25
-89.52785986,46.20819928,523.26
-89.52785894,46.20817905,520.36
-89.52785847,46.20816880,523.34
-89.52785660,46.20812816,524.27
-89.52784974,46.20797881,522.98
-89.52784402,46.20785419,519.36
-89.52784324,46.20783702,507.49
-89.52784245,46.20781994,520.12
-89.52783022,46.20755343,515.14
-89.52782626,46.20746721,504.91
-89.52782563,46.20745345,504.56
-89.52782010,46.20733288,507.57
-89.52781830,46.20729377,508.20
-89.52781278,46.20717346,505.65
-89.52780655,46.20703779,504.59
-89.52780361,46.20697368,506.78
-89.52780121,46.20692153,504.66
-89.52779533,46.20679323,509.60
-89.52777863,46.20642944,504.85
-89.52777019,46.20624566,504.81
-89.52776364,46.20610279,504.72
-89.52776295,46.20608786,504.81
-89.52775869,46.20599507,507.81
-89.52775435,46.20590039,511.52
-89.52775336,46.20587882,504.59
-89.52774462,46.20568847,511.80
-89.52774180,46.20562976,504.45
-89.52773698,46.20562654,509.64
-89.52772511,46.20562500,509.59
-89.52770540,46.20562481,504.76
-89.52769180,46.20562493,511.10
-89.52754934,46.20562790,520.61
-89.52754778,46.20562793,509.47
-89.52754234,46.20562805,518.51
-89.52747125,46.20562963,507.05
-89.52743175,46.20563050,517.28
-89.52741880,46.20563079,521.92
-89.52740391,46.20563112,517.36
-89.52734719,46.20563237,511.26
-89.52708275,46.20563822,514.00
-89.52701269,46.20563977,512.47
-89.52664905,46.20564781,525.63
-89.52654209,46.20565018,513.46
-89.52634473,46.20565454,525.80
-89.52620707,46.20565759,523.53
-89.52617599,46.20565827,514.56
-89.52612976,46.20565929,505.87
-89.52603950,46.20566129,518.02
-89.52589303,46.20566453,504.92
-89.52569658,46.20566887,511.35
-89.52565605,46.20566977,506.91
-89.52548200,46.20567362,504.61
-89.52519088,46.20568005,504.28
-89.52518130,46.20568026,504.29
-89.52512639,46.20568148,507.73
-89.52483851,46.20568784,504.35
-89.52482362,46.20568817,504.24
-89.52476159,46.20568954,509.11
-89.52449404,46.20569545,504.27
-89.52431585,46.20569939,504.11
-89.52431287,46.20569945,505.61
-89.52427040,46.20570039,504.43
-89.52370021,46.20571299,504.23
-89.52346024,46.20571829,504.32
-89.52319412,46.20572417,504.40
-89.52308728,46.20572653,507.63
-89.52292657,46.20573007,504.30
-89.52280950,46.20573266,504.49
-89.52264245,46.20573635,504.16
-89.52258456,46.20573763,505.75
-89.52252745,46.20573889,504.18
-89.52251411,46.20573918,511.67
-89.52218078,46.20574654,512.55
-89.52188500,46.20575307,520.51
-89.52182841,46.20575432,520.89
-89.52165850,46.20575807,524.07
-89.52144522,46.20576278,516.14
-89.52143382,46.20576303,522.78
-89.52132879,46.20576535,520.80
-89.52129215,46.20576615,527.26
-89.52121198,46.20576792,515.52
-89.52117870,46.20576866,524.67
-89.52115708,46.20576914,517.81
-89.52100491,46.20577249,518.31
-89.52100258,46.20577254,517.32
-89.52089445,46.20577493,533.50
-89.52088253,46.20577519,532.31
-89.52087774,46.20577530,530.36
-89.52087295,46.20577540,528.23
-89.52079059,46.20577722,533.64
-89.52076663,46.20577775,528.63
-89.52067119,46.20577986,533.23
-89.52048432,46.20578398,523.36
-89.52043135,46.20578515,523.75
-89.52028346,46.20578841,532.16
-89.52027479,46.20578860,528.97
-89.52027194,46.20578866,530.53
-89.52024630,46.20578923,535.41
-89.51993899,46.20579601,520.47
-89.51992293,46.20579636,533.07
-89.51991167,46.20579661,528.47
-89.51980742,46.20579891,530.18
-89.51956460,46.20580427,517.09
-89.51952511,46.20580514,514.28
-89.51940169,46.20580786,535.47
-89.51916069,46.20581317,521.12
-89.51915046,46.20581340,527.30
-89.51914217,46.20581358,527.21
-89.51887009,46.20581958,508.49
-89.51865123,46.20582440,516.64
-89.51860150,46.20582550,515.14
-89.51855372,46.20582655,508.12
-89.51844300,46.20582899,515.29
-89.51843069,46.20582927,512.77
-89.51825846,46.20583306,508.12
-89.51823799,46.20583351,510.34
-89.51819422,46.20583448,505.62
-89.51802328,46.20583825,508.40
-89.51801305,46.20583847,514.24
-89.51786257,46.20584179,507.06
-89.51783952,46.20584230,507.21
-89.51773488,46.20584460,513.15
-89.51768036,46.20584580,516.28
-89.51767583,46.20584590,513.71
-89.51764449,46.20584659,515.25
-89.51761717,46.20584720,511.91
-89.51755501,46.20584857,527.73
-89.51755021,46.20584867,525.22
-89.51751913,46.20584936,526.52
-89.51750968,46.20584956,521.59
-89.51749997,46.20584978,516.37
-89.51743017,46.20585132,513.00
-89.51738821,46.20585224,509.72
-89.51733291,46.20585346,510.78
-89.51729030,46.20585440,508.61
-89.51709851,46.20585862,529.84
-89.51701239,46.20586052,521.32
-89.51694868,46.20586192,525.09
-89.51682112,46.20586473,530.58
-89.51681439,46.20586488,526.59
-89.51672827,46.20586678,518.39
-89.51641423,46.20587370,524.81
-89.51631581,46.20587587,520.79
-89.51611275,46.20588034,532.82
-89.51603168,46.20588212,536.77
-89.51578912,46.20588746,513.37
-89.51565172,46.20589049,532.23
-89.51563087,46.20589095,533.83
-89.51562712,46.20589103,531.19
-89.51560368,46.20589155,537.52
-89.51559345,46.20589177,531.01
-89.51546926,46.20589451,532.21
-89.51537316,46.20589662,525.71
-89.51537045,46.20589668,524.04
-89.51536941,46.20589671,523.36
-89.51522476,46.20589989,533.41
-89.51522281,46.20589993,533.73
-89.51515262,46.20590148,533.02
-89.51507531,46.20590318,533.48
-89.51495436,46.20590584,523.51
-89.51491706,46.20590666,510.87
-89.51491564,46.20590669,527.70
-89.51485632,46.20590800,526.87
-89.51483328,46.20590860,520.48
-89.51479858,46.20590963,509.61
-89.51479175,46.20591050,525.54
-89.51479406,46.20596103,528.23
-89.51479457,46.20597218,529.11
-89.51479468,46.20597470,528.65
-89.51479476,46.20597632,529.28
-89.51479690,46.20602316,528.24
-89.51479764,46.20603953,528.76
-89.51479767,46.20604016,532.14
-89.51479888,46.20606659,534.77
-89.51479951,46.20608035,534.88
-89.51480357,46.20616927,512.22
-89.51480470,46.20619409,531.35
-89.51480672,46.20623842,525.03
-89.51480869,46.20628139,525.71
-89.51480900,46.20628814,512.39
-89.51480944,46.20629785,524.01
-89.51481423,46.20640287,536.43
-89.51481864,46.20649925,527.18
-89.51481958,46.20651984,536.14
-89.51482210,46.20657523,526.84
-89.51482650,46.20667144,533.25
-89.51482822,46.20670911,534.99
-89.51483041,46.20675713,533.66
-89.51483172,46.20678581,534.13
-89.51483236,46.20679974,535.78
-89.51483287,46.20681098,539.24
-89.51483310,46.20681611,539.29
-89.51483366,46.20682825,536.52
-89.51483545,46.20686745,536.70
-89.51483833,46.20693048,514.78
-89.51484318,46.20703667,527.86
-89.51484622,46.20710338,532.65
-89.51484961,46.20717765,532.81
-89.51485147,46.20721838,531.23
-89.51485268,46.20724482,529.92
-89.51485548,46.20730614,531.22
-89.51485695,46.20733842,528.04
-89.51485713,46.20734219,513.36
-89.51485939,46.20739173,529.32
-89.51486222,46.20745368,523.97
-89.51486307,46.20747239,509.53
-89.51486370,46.20748614,522.47
-89.51486507,46.20751608,526.15
-89.51486665,46.20755079,513.49
-89.51486859,46.20759323,523.86
-89.51486919,46.20760627,525.54
-89.51487063,46.20763783,522.60
-89.51487110,46.20764808,519.10
-89.51487399,46.20771147,526.45
-89.51487411,46.20771407,525.23
-89.51487567,46.20774833,518.77
-89.51487928,46.20782736,517.76
-89.51487988,46.20784040,519.38
-89.51488186,46.20788374,517.65
-89.51488199,46.20788662,519.90
-89.51488457,46.20794308,504.77
-89.51488663,46.20798831,508.92
-89.51488892,46.20803848,513.65
-89.51489017,46.20806582,517.18
-89.51489035,46.20806977,519.24
-89.51489234,46.20811329,520.73
-89.51489264,46.20811985,516.71
-89.51489390,46.20814755,517.35
-89.51489474,46.20816589,525.06
-89.51489527,46.20817749,523.08
-89.51489781,46.20823305,517.23
-89.51489943,46.20826848,520.95
-89.51490190,46.20832270,520.75
-89.51490203,46.20832539,515.25
-89.51490229,46.20833124,504.70
-89.51490726,46.20844003,523.96
-89.51490805,46.20845739,506.58
-89.51490943,46.20848760,526.70
-89.51491175,46.20853840,515.80
-89.51491367,46.20858030,516.87
-89.51491401,46.20858785,523.98
-89.51491496,46.20860862,527.35
-89.51491525,46.20861492,526.96
-89.51491664,46.20864531,526.86
-89.51492073,46.20873504,526.42
-89.51492136,46.20874871,527.84
-89.51492172,46.20875671,518.43
-89.51492187,46.20875995,525.86
-89.51492719,46.20887638,530.22
-89.51492797,46.20889347,527.55
-89.51492821,46.20889868,528.31
-89.51492839,46.20890264,528.44
-89.51492949,46.20892673,518.26
-89.51493143,46.20896926,522.83
-89.51493359,46.20901656,522.92
-89.51493709,46.20909325,529.88
-89.51493769,46.20910638,531.87
-89.51493821,46.20911780,527.06
-89.51494007,46.20915844,524.49
-89.51494209,46.20920277,522.86
-89.51494241,46.20920978,522.63
-89.51494778,46.20932721,515.87
-89.51495036,46.20938367,520.19
-89.51495180,46.20941532,526.07
-89.51495255,46.20943169,526.88
-89.51495259,46.20943259,529.98
-89.51495295,46.20944050,531.49
-89.51495690,46.20952691,515.85
-89.51495796,46.20955028,530.12
-89.51496044,46.20960441,528.56
-89.51496112,46.20961934,528.04
-89.51496355,46.20967266,531.25
-89.51496384,46.20967895,522.67
-89.51496443,46.20969181,529.24
-89.51496476,46.20969909,520.76
-89.51496531,46.20971105,520.93
-89.51496647,46.20973658,511.78
-89.51496747,46.20975843,520.49
-89.51496807,46.20977165,522.84
-89.51496873,46.20978595,526.61
-89.51496948,46.20980249,523.98
-89.51497006,46.20981508,526.19
-89.51497093,46.20983423,527.76
-89.51497148,46.20984628,526.38
-89.51497303,46.20988018,528.14
-89.51497398,46.20990086,528.31
-89.51497568,46.20993808,523.50
-89.51497741,46.20997602,522.12
-89.51497760,46.20998025,520.76
-89.51497956,46.21002323,520.12
-89.51498193,46.21007493,502.99
-89.51498349,46.21010909,503.17
-89.51498373,46.21011440,504.19
-89.51498886,46.21022679,502.81
-89.51499127,46.21027957,502.89
-89.51499599,46.21038297,502.82
-89.51499928,46.21045490,502.76
-89.51500182,46.21051047,503.53
-89.51500375,46.21055282,514.43
-89.51500682,46.21062007,503.21
-89.51500877,46.21066278,504.21
-89.51501195,46.21073228,504.25
-89.51501524,46.21080439,503.11
-89.51501684,46.21083946,509.39
-89.51501693,46.21084135,512.59
-89.51501702,46.21084324,504.11
-89.51501763,46.21085672,504.79
-89.51502137,46.21093864,505.78
-89.51502155,46.21094250,505.93
-89.51502178,46.21094763,506.37
-89.51502245,46.21096228,506.40
-89.51502598,46.21103961,503.39
-89.51502994,46.21112610,505.03
-89.51503035,46.21113510,507.35
-89.51503068,46.21114238,511.68
-89.51503334,46.21120064,503.35
-89.51503346,46.21120334,509.61
-89.51503352,46.21120460,503.22
-89.51503593,46.21125729,511.46
-89.51503666,46.21127329,503.38
-89.51503901,46.21132490,516.38
-89.51504383,46.21143028,509.08
-89.51504903,46.21154420,503.76
-89.51505538,46.21168312,517.39
-89.51506193,46.21182671,503.38
-89.51506207,46.21182977,513.81
-89.51506595,46.21191464,507.15
-89.51506718,46.21194153,511.50
-89.51506771,46.21195322,509.35
-89.51506874,46.21197569,504.87
-89.51507037,46.21201148,515.99
-89.51507368,46.21208386,510.48
-89.51507635,46.21214239,503.49
-89.51507877,46.21219526,503.47
-89.51508113,46.21224696,503.49
-89.51508783,46.21239370,505.18
-89.51508847,46.21240764,507.52
-89.51509179,46.21248038,503.58
-89.51509210,46.21248703,503.73
-89.51509776,46.21261111,505.54
-89.51509836,46.21262406,503.72
-89.51510031,46.21266686,503.80
-89.51510080,46.21267747,510.99
-89.51510544,46.21277907,505.09
-89.51510558,46.21278222,507.67
-89.51510569,46.21278455,503.79
-89.51510717,46.21281701,503.66
-89.51511671,46.21302579,503.69
-89.51511709,46.21303424,509.36
-89.51511914,46.21307911,508.11
-89.51512325,46.21316902,503.80
-89.51512426,46.21319123,507.95
-89.51512661,46.21324266,503.77
-89.51512668,46.21324410,503.76
-89.51513783,46.21348831,505.60
-89.51513989,46.21353344,506.28
-89.51514171,46.21357318,509.63
-89.51514189,46.21357723,503.91
-89.51514588,46.21366445,504.80
-89.51515302,46.21382080,504.05
-89.51515404,46.21384319,503.91
-89.51515940,46.21396053,503.78
-89.51516043,46.21398301,503.73
-89.51517139,46.21422290,503.87
-89.51517711,46.21434815,504.43
-89.51518064,46.21442547,504.28
-89.51518602,46.21454326,505.04
-89.51518746,46.21457473,503.92
-89.51518807,46.21458803,503.85
-89.51519170,46.21466761,503.93
-89.51519356,46.21470816,505.48
-89.51519782,46.21480140,504.63
-89.51519807,46.21480688,506.61
-89.51519817,46.21480904,505.21
-89.51519864,46.21481947,506.96
-89.51519885,46.21482397,506.19
-89.51519901,46.21482747,507.87
-89.51520150,46.21488196,509.55
-89.51520185,46.21488978,507.33
-89.51520278,46.21489579,512.93
-89.51520414,46.21489999,513.64
-89.51521568,46.21490010,503.89
-89.51522657,46.21490013,509.38
-89.51534560,46.21489751,513.70
-89.51540674,46.21489616,503.84
-89.51551592,46.21489376,504.71
-89.51551968,46.21489368,503.82
-89.51560361,46.21489183,504.11
-89.51560504,46.21489180,513.97
-89.51560789,46.21489173,513.31
-89.51561656,46.21489154,511.29
-89.51562123,46.21489144,510.21
-89.51593156,46.21488461,503.93
-89.51606588,46.21488165,513.28
-89.51645186,46.21487315,505.79
-89.51701658,46.21486071,512.44
-89.51705362,46.21485989,511.42
-89.51717498,46.21485722,510.22
-89.51718094,46.21485709,515.25
-89.51753622,46.21484926,510.99
-89.51763854,46.21484700,514.13
-89.51768167,46.21484605,514.02
-89.51793243,46.21484053,508.29
-89.51813526,46.21483606,503.67
-89.51823914,46.21483377,514.82
-89.51832255,46.21483193,516.91
-89.51834003,46.21483154,508.94
-89.51834729,46.21483138,517.55
-89.51845648,46.21482898,517.68
-89.51853289,46.21482729,503.87
-89.51860361,46.21482573,517.85
-89.51860581,46.21482569,520.38
-89.51871189,46.21482335,519.12
-89.51871604,46.21482326,523.71
-89.51887665,46.21481972,526.53
-89.51889879,46.21481923,527.06
-89.51902391,46.21481647,515.79
-89.51904697,46.21481596,521.28
-89.51904826,46.21481593,523.62
-89.51919307,46.21481274,517.41
-89.51920304,46.21481252,514.85
-89.51927195,46.21481100,518.60
-89.51939137,46.21480837,526.66
-89.51942401,46.21480765,523.39
-89.51950820,46.21480579,524.80
-89.51951480,46.21480564,526.21
-89.51959614,46.21480385,527.20
-89.51974587,46.21480055,528.03
-89.52003898,46.21479408,524.86
-89.52021021,46.21479031,512.74
-89.52026577,46.21478908,518.92
-89.52032030,46.21478788,519.84
-89.52042728,46.21478552,528.42
-89.52045591,46.21478489,529.98
-89.52069125,46.21477969,526.19
-89.52069164,46.21477969,527.88
-89.52075303,46.21477833,526.62
-89.52083385,46.21477655,532.27
-89.52085043,46.21477618,528.10
-89.52092879,46.21477445,517.52
-89.52106220,46.21477151,517.93
-89.52110986,46.21477046,520.90
-89.52148366,46.21476221,510.96
     </coordinates>
    </LineString>
   </MultiGeometry>
  </Placemark>
 </Document>
</kml>
