<kml>
 <Document>
  <Style id="yellow">
   <LineStyle>
   <color>ff00ffff</color>
   <width>1</width>
   </LineStyle>
  </Style>
  <Style id="red">
   <LineStyle>
   <color>ffff0000</color>
   <width>2</width>
   </LineStyle>
  </Style>
  <Style id="green">
   <LineStyle>
   <color>ff00ff00</color>
   <width>1</width>
   </LineStyle>
  </Style>
  <Placemark>
  <styleUrl>#yellow</styleUrl>
   <MultiGeometry>
    <LineString>
     <coordinates>
-89.49071944,46.24689382,537.69
-89.49072287,46.24696952,534.50
-89.49072457,46.24700711,542.26
-89.49072458,46.24700729,538.43
-89.49073485,46.24723396,543.24
-89.49073636,46.24726750,544.10
-89.49073680,46.24727721,543.77
-89.49073871,46.24731929,537.91
-89.49074330,46.24742071,545.75
-89.49074427,46.24744203,542.05
-89.49074433,46.24744328,534.48
-89.49074626,46.24748590,544.98
-89.49074692,46.24750056,540.64
-89.49074703,46.24750299,546.27
-89.49074712,46.24750505,543.35
-89.49074757,46.24751504,545.90
-89.49074811,46.24752681,546.59
-89.49074831,46.24753122,541.81
-89.49074927,46.24755244,546.52
-89.49075039,46.24757717,544.69
-89.49075063,46.24758256,542.21
-89.49075122,46.24759542,546.22
-89.49075205,46.24761394,544.78
-89.49075284,46.24763129,532.75
-89.49075722,46.24772795,548.18
-89.49075947,46.24777758,550.56
-89.49076111,46.24781382,547.73
-89.49076368,46.24787065,548.67
-89.49076469,46.24789304,545.59
-89.49076628,46.24792792,546.37
-89.49076864,46.24798007,544.32
-89.49077158,46.24804508,540.76
-89.49077268,46.24806936,541.29
-89.49077418,46.24810254,540.12
-89.49077566,46.24813517,543.71
-89.49077696,46.24816395,535.01
-89.49077791,46.24818472,523.12
-89.49078288,46.24829450,537.16
-89.49078490,46.24833910,542.00
-89.49078623,46.24836841,536.31
-89.49078728,46.24839179,525.76
-89.49078796,46.24840672,536.97
-89.49078823,46.24841274,533.48
-89.49078876,46.24842434,537.19
-89.49079085,46.24847047,530.51
-89.49079414,46.24854321,537.33
-89.49079459,46.24855319,544.89
-89.49079501,46.24856227,547.02
-89.49079717,46.24861001,545.36
-89.49079761,46.24861972,545.68
-89.49080169,46.24870991,543.34
-89.49080188,46.24871413,543.68
-89.49080337,46.24874686,541.46
-89.49080368,46.24875379,537.95
-89.49080401,46.24876116,543.67
-89.49080777,46.24884406,540.33
-89.49080909,46.24887319,526.57
-89.49080983,46.24888947,542.69
-89.49081026,46.24889900,539.56
-89.49081316,46.24896311,544.02
-89.49081363,46.24897354,533.75
-89.49081426,46.24898738,525.32
-89.49081444,46.24899134,525.17
-89.49081703,46.24904852,539.56
-89.49081942,46.24910130,536.24
-89.49082016,46.24911758,528.95
-89.49082385,46.24919904,544.90
-89.49082424,46.24920767,534.03
-89.49082458,46.24921514,544.33
-89.49082653,46.24925830,539.07
-89.49082713,46.24927160,534.67
-89.49082752,46.24928014,539.90
-89.49083005,46.24933589,542.00
-89.49083171,46.24937258,531.70
-89.49083289,46.24939865,537.98
-89.49083483,46.24944145,534.39
-89.49083577,46.24946231,538.80
-89.49083716,46.24949297,539.15
-89.49084046,46.24956571,535.51
-89.49084509,46.24966803,541.38
-89.49084714,46.24971326,541.00
-89.49085278,46.24983788,547.85
-89.49085307,46.24984418,541.76
-89.49085338,46.24985101,545.80
-89.49085491,46.24988473,545.95
-89.49085642,46.24991809,545.26
-89.49085798,46.24995270,543.37
-89.49085993,46.24999568,543.27
-89.49086015,46.25000054,539.17
-89.49086468,46.25010052,550.18
-89.49086478,46.25010268,550.31
-89.49086482,46.25010358,526.95
-89.49086527,46.25011356,547.92
-89.49086560,46.25012084,544.28
-89.49086602,46.25013001,526.60
-89.49086907,46.25019754,542.63
-89.49087075,46.25023449,538.62
-89.49087105,46.25024115,539.32
-89.49087144,46.25024978,536.59
-89.49087254,46.25027406,543.99
-89.49087407,46.25030786,532.04
-89.49087649,46.25036127,545.96
-89.49087713,46.25037530,544.21
-89.49087857,46.25040713,543.04
-89.49087865,46.25040884,542.80
-89.49087979,46.25043419,542.97
-89.49088218,46.25048688,540.71
-89.49088240,46.25049183,542.31
-89.49088261,46.25049641,533.43
-89.49088289,46.25050253,539.14
-89.49088554,46.25056106,527.74
-89.49088582,46.25056727,542.37
-89.49088586,46.25056808,544.58
-89.49088736,46.25060117,540.09
-89.49088942,46.25064675,547.40
-89.49089151,46.25069279,545.79
-89.49089319,46.25073001,545.02
-89.49089786,46.25083305,547.27
-89.49089805,46.25083719,546.36
-89.49089857,46.25084879,548.33
-89.49090428,46.25097467,547.14
-89.49090441,46.25097764,542.65
-89.49090453,46.25098015,546.36
-89.49090834,46.25106431,548.40
-89.49090834,46.25106440,530.03
-89.49090891,46.25107699,530.05
-89.49091055,46.25111323,547.13
-89.49091245,46.25115504,544.87
-89.49091283,46.25116340,530.14
-89.49091436,46.25119730,545.55
-89.49092113,46.25134673,543.99
-89.49092158,46.25135671,546.81
-89.49092183,46.25136229,546.05
-89.49092369,46.25140320,537.95
-89.49092426,46.25141300,547.58
-89.49092622,46.25143051,547.63
-89.49092987,46.25143376,547.58
-89.49098444,46.25143257,548.49
-89.49102319,46.25143172,548.60
-89.49103563,46.25143145,547.98
-89.49107465,46.25143060,546.66
-89.49107776,46.25143053,545.83
-89.49108061,46.25143047,544.97
-89.49126427,46.25142647,527.94
-89.49137081,46.25142414,536.87
-89.49137898,46.25142397,544.77
-89.49138753,46.25142378,528.39
-89.49144469,46.25142253,547.85
-89.49147994,46.25142176,546.78
-89.49157728,46.25141964,540.49
-89.49160826,46.25141897,541.55
-89.49181888,46.25141437,533.89
-89.49185970,46.25141348,532.95
-89.49186242,46.25141342,542.12
-89.49187487,46.25141315,530.61
-89.49191699,46.25141223,535.27
-89.49193682,46.25141180,541.75
-89.49196884,46.25141110,544.28
-89.49198154,46.25141083,540.25
-89.49199424,46.25141055,544.57
-89.49199722,46.25141048,531.77
-89.49201563,46.25141008,541.58
-89.49202677,46.25140984,526.77
-89.49207084,46.25140888,540.04
-89.49210570,46.25140812,544.66
-89.49213240,46.25140754,536.27
-89.49215094,46.25140713,538.98
-89.49215664,46.25140701,540.30
-89.49220278,46.25140600,536.87
-89.49228094,46.25140430,543.40
-89.49231127,46.25140363,540.24
-89.49236830,46.25140239,541.75
-89.49237879,46.25140216,538.53
-89.49247406,46.25140008,527.38
-89.49257632,46.25139785,523.64
-89.49258021,46.25139777,539.50
-89.49262454,46.25139680,535.02
-89.49266070,46.25139601,523.87
-89.49269362,46.25139529,538.46
-89.49272369,46.25139464,535.93
-89.49277087,46.25139361,544.09
-89.49278927,46.25139321,538.41
-89.49280301,46.25139291,524.42
-89.49288583,46.25139110,551.06
-89.49288894,46.25139103,546.88
-89.49301765,46.25138822,552.17
-89.49304849,46.25138755,527.12
-89.49305135,46.25138749,551.92
-89.49312963,46.25138578,549.64
-89.49323695,46.25138344,536.60
-89.49336630,46.25138062,549.07
-89.49340194,46.25137984,549.35
-89.49343940,46.25137902,547.75
-89.49348684,46.25137799,548.58
-89.49353855,46.25137686,547.97
-89.49356746,46.25137623,549.29
-89.49358443,46.25137586,546.55
-89.49370420,46.25137324,550.41
-89.49370860,46.25137315,548.96
-89.49373530,46.25137256,530.98
-89.49380996,46.25137093,546.08
-89.49384625,46.25137014,548.08
-89.49385610,46.25136993,530.42
-89.49386012,46.25136984,555.72
-89.49386427,46.25136975,554.42
-89.49392259,46.25136847,543.03
-89.49394773,46.25136793,557.53
-89.49395707,46.25136772,555.49
-89.49410314,46.25136453,528.64
-89.49413476,46.25136384,550.13
-89.49416742,46.25136313,548.65
-89.49427967,46.25136068,543.95
-89.49428459,46.25136057,542.34
-89.49431272,46.25135996,541.55
-89.49432736,46.25135964,536.76
-89.49452087,46.25135541,535.74
-89.49462262,46.25135319,541.94
-89.49467511,46.25135205,541.74
-89.49470479,46.25135140,541.08
-89.49471036,46.25135128,539.43
-89.49475573,46.25135029,534.68
-89.49478657,46.25134961,542.37
-89.49484581,46.25134832,541.59
-89.49486862,46.25134782,542.50
-89.49493977,46.25134627,527.80
-89.49497594,46.25134548,533.45
-89.49498773,46.25134522,539.32
-89.49502389,46.25134443,527.25
-89.49504761,46.25134391,525.19
-89.49509505,46.25134288,538.16
-89.49522310,46.25134008,535.33
-89.49524267,46.25133965,528.64
-89.49530761,46.25133824,536.90
-89.49532809,46.25133779,529.70
-89.49533949,46.25133754,535.74
-89.49547960,46.25133448,542.79
-89.49552665,46.25133345,535.25
-89.49556735,46.25133256,537.06
-89.49559055,46.25133206,528.62
-89.49565056,46.25133075,529.22
-89.49578665,46.25132777,525.05
-89.49603148,46.25132243,521.26
-89.49604937,46.25132203,521.26
-89.49617665,46.25131925,521.09
-89.49638584,46.25131468,521.09
-89.49643548,46.25131360,521.03
-89.49703751,46.25130035,521.05
-89.49749388,46.25129047,521.10
-89.49810421,46.25127704,521.13
-89.49837211,46.25127127,533.27
-89.49841787,46.25127027,533.80
-89.49843355,46.25126993,523.27
-89.49844249,46.25126973,539.62
-89.49853231,46.25126777,541.01
-89.49856394,46.25126707,540.44
-89.49856808,46.25126698,539.46
-89.49860399,46.25126620,538.49
-89.49866361,46.25126490,544.92
-89.49866737,46.25126481,542.18
-89.49874734,46.25126306,542.55
-89.49881966,46.25126148,524.91
-89.49887604,46.25126025,543.98
-89.49889781,46.25125977,545.10
-89.49890455,46.25125963,540.03
-89.49890909,46.25125953,542.88
-89.49894512,46.25125874,544.87
-89.49898504,46.25125787,536.77
-89.49913280,46.25125463,543.13
-89.49914187,46.25125444,541.40
-89.49920136,46.25125313,543.41
-89.49921147,46.25125291,536.16
-89.49924633,46.25125215,545.37
-89.49930492,46.25125087,541.97
-89.49934950,46.25124989,525.37
-89.49942662,46.25124821,546.11
-89.49944023,46.25124791,543.29
-89.49954379,46.25124564,540.84
-89.49965577,46.25124319,543.80
-89.49969932,46.25124224,524.94
-89.49970541,46.25124211,542.89
-89.49991188,46.25123759,546.70
-89.49991706,46.25123748,545.67
-89.49992951,46.25123721,524.84
-89.50000883,46.25123547,545.00
-89.50005354,46.25123449,545.88
-89.50020169,46.25123125,532.31
-89.50030369,46.25122902,540.62
-89.50037614,46.25122743,542.81
-89.50040919,46.25122671,546.06
-89.50047115,46.25122535,542.76
-89.50048294,46.25122510,540.34
-89.50051003,46.25122450,542.12
-89.50056019,46.25122341,542.59
-89.50056628,46.25122327,541.36
-89.50058831,46.25122279,545.99
-89.50068358,46.25122070,543.69
-89.50078117,46.25121857,523.68
-89.50088045,46.25121640,531.66
-89.50090119,46.25121594,534.26
-89.50110960,46.25121138,535.93
-89.50114901,46.25121052,535.83
-89.50116287,46.25121021,524.85
-89.50116300,46.25121021,532.91
-89.50123675,46.25120860,527.28
-89.50127032,46.25120786,527.09
-89.50186821,46.25119477,533.54
-89.50187767,46.25119456,524.25
-89.50192861,46.25119345,535.33
-89.50194610,46.25119307,524.23
-89.50197514,46.25119243,535.53
-89.50198395,46.25119224,533.57
-89.50202970,46.25119124,539.51
-89.50209762,46.25118975,529.64
-89.50215296,46.25118854,521.71
-89.50223695,46.25118670,531.90
-89.50227648,46.25118583,528.05
-89.50227829,46.25118579,526.90
-89.50241840,46.25118272,517.36
-89.50277496,46.25117491,517.17
-89.50339791,46.25115677,517.24
-89.50340333,46.25115602,517.36
-89.50385501,46.25098078,517.09
-89.50386739,46.25097061,517.20
-89.50387191,46.25091597,517.02
-89.50387269,46.25088175,517.09
-89.50387250,46.25085476,524.30
-89.50386890,46.25077581,529.52
-89.50386793,46.25075441,525.70
-89.50386725,46.25073949,525.20
-89.50386488,46.25068743,524.41
-89.50386313,46.25064904,536.33
-89.50386170,46.25061757,538.82
-89.50386141,46.25061136,535.12
-89.50386052,46.25059167,534.66
-89.50386017,46.25058412,529.43
-89.50385847,46.25054662,532.93
-89.50385802,46.25053682,530.77
-89.50385719,46.25051857,533.06
-89.50385600,46.25049250,537.07
-89.50385582,46.25048854,530.20
-89.50385425,46.25045392,531.41
-89.50385419,46.25045275,534.13
-89.50385278,46.25042173,530.54
-89.50385124,46.25038784,526.37
-89.50385113,46.25038550,519.46
-89.50385045,46.25037048,526.51
-89.50384872,46.25033263,530.80
-89.50384837,46.25032490,531.58
-89.50384774,46.25031105,518.51
-89.50384509,46.25025288,518.92
-89.50384075,46.25015757,517.21
-89.50383812,46.25009984,517.23
-89.50383748,46.25008582,517.23
-89.50383373,46.25000337,520.48
-89.50383181,46.24996129,533.69
-89.50383072,46.24993728,530.62
-89.50383055,46.24993341,529.85
-89.50382969,46.24991471,528.90
-89.50382907,46.24990096,520.37
-89.50382871,46.24989304,531.17
-89.50382765,46.24986975,517.44
-89.50382686,46.24985240,522.20
-89.50382578,46.24982866,518.10
-89.50382209,46.24974765,517.25
-89.50382072,46.24971771,522.38
-89.50381871,46.24967338,519.15
-89.50381805,46.24965891,517.23
-89.50381616,46.24961755,517.26
-89.50380597,46.24939375,518.34
-89.50380566,46.24938692,521.61
-89.50380215,46.24930977,519.63
-89.50380175,46.24930105,519.11
-89.50379872,46.24923452,524.47
-89.50379722,46.24920152,525.63
-89.50379428,46.24913696,520.41
-89.50378490,46.24893079,517.14
-89.50378291,46.24888727,517.17
-89.50377575,46.24873001,518.61
-89.50377494,46.24871221,519.09
-89.50376886,46.24857860,517.11
-89.50376665,46.24852996,517.08
-89.50376538,46.24850208,517.11
-89.50376451,46.24848311,517.11
-89.50375613,46.24829897,517.60
-89.50375555,46.24828620,517.15
-89.50375506,46.24827541,530.73
-89.50375433,46.24825941,525.64
-89.50375390,46.24825005,517.35
-89.50375197,46.24820753,517.81
-89.50375123,46.24819134,517.70
-89.50374847,46.24813083,517.55
-89.50374739,46.24810709,530.79
-89.50374668,46.24809136,523.92
-89.50374665,46.24809082,529.34
-89.50374344,46.24802024,517.21
-89.50374274,46.24800477,516.40
-89.50372987,46.24772514,516.12
-89.50371728,46.24744857,516.07
-89.50370251,46.24712119,520.06
-89.50370124,46.24709332,529.91
-89.50370083,46.24708442,523.69
-89.50370053,46.24707776,528.62
-89.50369704,46.24700107,534.39
-89.50369632,46.24698515,529.84
-89.50369029,46.24685289,533.09
-89.50369008,46.24684821,527.94
-89.50368396,46.24671379,529.35
-89.50368388,46.24671190,536.62
-89.50368294,46.24669131,534.11
-89.50368266,46.24668511,534.72
-89.50367797,46.24658207,527.57
-89.50367659,46.24655186,537.80
-89.50367598,46.24653855,532.52
-89.50367470,46.24651041,525.31
-89.50367437,46.24650313,531.39
-89.50366736,46.24634919,528.02
-89.50366732,46.24634829,535.48
-89.50366714,46.24634416,530.27
-89.50366708,46.24634290,522.87
-89.50366606,46.24632060,528.61
-89.50365882,46.24616154,535.57
-89.50365790,46.24614140,535.03
-89.50365788,46.24614077,532.34
-89.50365328,46.24603980,521.35
-89.50364962,46.24595933,531.62
-89.50364483,46.24585422,521.71
-89.50364443,46.24584541,518.09
-89.50364367,46.24582859,518.03
-89.50364250,46.24580297,529.33
-89.50363846,46.24571422,527.03
-89.50363630,46.24566675,520.03
-89.50363612,46.24566288,517.57
-89.50363527,46.24564409,522.26
-89.50363472,46.24563213,529.60
-89.50363056,46.24554060,525.04
-89.50363001,46.24552855,524.48
-89.50362961,46.24551974,520.44
-89.50362935,46.24551417,518.29
-89.50362747,46.24547281,526.79
-89.50362719,46.24546669,528.46
-89.50362645,46.24545042,526.32
-89.50362546,46.24542866,524.17
-89.50362452,46.24540807,526.41
-89.50362413,46.24539953,525.77
-89.50362372,46.24539054,523.57
-89.50362346,46.24538478,521.42
-89.50361697,46.24524227,516.08
-89.50361548,46.24520936,516.12
-89.50359930,46.24485393,516.68
-89.50359908,46.24484926,528.90
-89.50359576,46.24477625,535.68
-89.50359269,46.24470881,521.68
-89.50358970,46.24464299,525.77
-89.50358929,46.24463418,522.86
-89.50358593,46.24456018,532.16
-89.50358540,46.24454868,538.23
-89.50358334,46.24450345,531.26
-89.50358282,46.24449194,518.67
-89.50358149,46.24446272,538.33
-89.50357991,46.24442801,530.87
-89.50357861,46.24439951,518.61
-89.50357679,46.24435941,538.02
-89.50357389,46.24429584,538.22
-89.50357086,46.24422921,519.91
-89.50357079,46.24422768,535.30
-89.50357055,46.24422247,539.72
-89.50356674,46.24413858,532.78
-89.50356372,46.24407231,519.41
-89.50356271,46.24405010,538.78
-89.50356201,46.24403482,539.05
-89.50356054,46.24400245,542.41
-89.50355685,46.24392135,522.83
-89.50355535,46.24388835,542.08
-89.50355427,46.24386479,545.02
-89.50354942,46.24375807,539.46
-89.50354619,46.24368712,542.75
-89.50354479,46.24365637,534.64
-89.50354300,46.24361717,545.34
-89.50354248,46.24360575,543.74
-89.50354068,46.24356619,543.43
-89.50353823,46.24351233,545.45
-89.50353274,46.24339176,539.52
-89.50353127,46.24335939,522.75
-89.50353099,46.24335336,529.70
-89.50353075,46.24334788,539.18
-89.50352868,46.24330247,528.50
-89.50352684,46.24326201,535.65
-89.50352583,46.24323998,538.72
-89.50352472,46.24321544,535.26
-89.50352398,46.24319934,535.31
-89.50352329,46.24318406,528.32
-89.50352156,46.24314611,535.62
-89.50352125,46.24313928,526.97
-89.50351921,46.24309450,530.89
-89.50351904,46.24309082,532.12
-89.50351756,46.24305809,519.95
-89.50351693,46.24304442,526.21
-89.50351545,46.24301178,526.61
-89.50351438,46.24298841,521.28
-89.50351438,46.24298823,519.72
-89.50351335,46.24296566,521.50
-89.50350948,46.24288357,516.06
-89.50349231,46.24251187,516.07
-89.50347146,46.24222198,516.08
-89.50346060,46.24218855,516.06
-89.50344959,46.24216909,516.07
-89.50328994,46.24216403,516.17
-89.50277660,46.24219157,516.21
-89.50246564,46.24218506,516.07
-89.50236473,46.24218547,516.12
-89.50202669,46.24219125,516.09
-89.50166060,46.24219918,516.11
-89.50131084,46.24220675,516.09
-89.50126121,46.24220783,516.06
-89.50075205,46.24221898,516.10
-89.50058955,46.24222253,516.11
-89.50052372,46.24222397,516.09
-89.50012783,46.24223264,516.09
-89.50005603,46.24223421,516.10
-89.49999111,46.24223563,516.10
-89.49963008,46.24224353,516.08
-89.49945345,46.24224739,516.10
-89.49938243,46.24224895,516.08
-89.49925245,46.24225179,516.06
-89.49906792,46.24225583,516.10
-89.49899185,46.24225749,516.09
-89.49873734,46.24226306,516.09
-89.49816056,46.24227603,516.17
-89.49768457,46.24228634,516.12
-89.49736655,46.24229303,516.12
-89.49676875,46.24230609,516.11
-89.49673415,46.24230685,516.08
-89.49626880,46.24231701,516.11
-89.49622668,46.24231793,516.11
-89.49596206,46.24232372,516.08
-89.49561256,46.24233135,516.10
-89.49529597,46.24233826,516.10
-89.49518142,46.24234077,516.10
-89.49487196,46.24234761,516.11
-89.49459775,46.24235369,516.11
-89.49410738,46.24236422,516.13
-89.49406423,46.24236516,516.09
-89.49384898,46.24236986,516.11
-89.49381334,46.24237063,516.11
-89.49362608,46.24237472,516.07
-89.49333891,46.24238099,516.11
-89.49271676,46.24239465,516.07
-89.49262306,46.24239670,516.11
-89.49212898,46.24240846,516.10
-89.49169469,46.24241704,516.05
-89.49144963,46.24242229,516.08
-89.49103546,46.24243132,516.12
-89.49068841,46.24243880,516.07
-89.49060638,46.24244058,516.11
-89.49052450,46.24244273,516.09
-89.49051818,46.24244350,516.08
-89.49052790,46.24265542,516.09
-89.49053421,46.24279479,516.10
-89.49054859,46.24312101,516.05
-89.49055255,46.24320849,534.02
-89.49055275,46.24321290,523.76
-89.49055317,46.24322207,526.69
-89.49055336,46.24322630,526.31
-89.49055366,46.24323286,532.28
-89.49055480,46.24325813,524.59
-89.49055643,46.24329400,529.58
-89.49056531,46.24349029,532.15
-89.49056581,46.24350126,528.92
-89.49056709,46.24352949,525.51
-89.49057365,46.24367443,537.52
-89.49057939,46.24380112,547.09
-89.49058273,46.24387485,544.86
-89.49058937,46.24402150,543.84
-89.49060378,46.24433971,541.11
-89.49060568,46.24438170,545.68
-89.49060646,46.24439896,549.33
-89.49060977,46.24447215,546.63
-89.49061018,46.24448105,526.34
-89.49061051,46.24448834,546.71
-89.49061495,46.24458652,550.47
-89.49061791,46.24465189,549.60
-89.49061793,46.24465216,542.88
-89.49062179,46.24473758,543.25
-89.49062615,46.24483379,543.11
-89.49063014,46.24492181,538.89
-89.49063130,46.24494753,535.89
-89.49063291,46.24498314,528.40
-89.49063339,46.24499366,523.32
-89.49063635,46.24505902,540.97
-89.49063682,46.24506945,523.60
-89.49063759,46.24508636,523.37
-89.49063918,46.24512142,528.00
-89.49063921,46.24512223,538.11
-89.49063938,46.24512601,540.11
-89.49064206,46.24518508,523.32
-89.49064422,46.24523283,535.81
-89.49064627,46.24527814,537.41
-89.49064961,46.24535178,523.21
-89.49065116,46.24538604,546.54
-89.49065120,46.24538703,545.05
-89.49065433,46.24545618,537.08
-89.49065622,46.24549781,529.54
-89.49065751,46.24552640,534.36
-89.49065784,46.24553350,534.59
-89.49066275,46.24564212,532.90
-89.49066823,46.24576305,523.81
-89.49067028,46.24580819,533.07
-89.49067136,46.24583220,533.88
-89.49067787,46.24597588,542.22
-89.49067944,46.24601059,543.90
-89.49067987,46.24602012,544.48
-89.49068290,46.24608702,540.23
-89.49068339,46.24609789,537.62
-89.49068981,46.24623960,545.04
-89.49069120,46.24627026,541.05
-89.49069127,46.24627170,543.94
-89.49069202,46.24628833,538.35
-89.49069343,46.24631953,543.93
-89.49069584,46.24637267,542.20
-89.49070226,46.24651456,539.13
-89.49070256,46.24652112,545.57
-89.49070270,46.24652427,541.84
-89.49070363,46.24654477,545.96
-89.49070447,46.24656320,544.86
-89.49070514,46.24657804,543.13
-89.49070690,46.24661697,531.19
-89.49071023,46.24669034,537.21
-89.49071159,46.24672046,533.30
-89.49071643,46.24682737,528.54
-89.49071745,46.24684994,542.14
-89.49071944,46.24689382,537.69
     </coordinates>
    </LineString>
   </MultiGeometry>
  </Placemark>
 </Document>
</kml>
