<kml>
 <Document>
  <Style id="yellow">
   <LineStyle>
   <color>ff00ffff</color>
   <width>1</width>
   </LineStyle>
  </Style>
  <Style id="red">
   <LineStyle>
   <color>ffff0000</color>
   <width>2</width>
   </LineStyle>
  </Style>
  <Style id="green">
   <LineStyle>
   <color>ff00ff00</color>
   <width>1</width>
   </LineStyle>
  </Style>
  <Placemark>
  <styleUrl>#yellow</styleUrl>
   <MultiGeometry>
    <LineString>
     <coordinates>
-89.46956055,46.21589632,516.56
-89.46959397,46.21589559,529.78
-89.46990523,46.21588886,533.05
-89.46995691,46.21588775,531.74
-89.47000548,46.21588670,531.26
-89.47019550,46.21588259,527.94
-89.47021571,46.21588215,509.77
-89.47026428,46.21588110,525.91
-89.47035638,46.21587911,520.60
-89.47036415,46.21587894,509.31
-89.47039303,46.21587832,525.72
-89.47049187,46.21587618,514.75
-89.47059160,46.21587402,518.09
-89.47061479,46.21587352,520.64
-89.47061790,46.21587346,516.91
-89.47119637,46.21586077,503.96
-89.47155867,46.21585302,503.99
-89.47174014,46.21584918,503.96
-89.47195231,46.21584459,503.94
-89.47218922,46.21583947,503.92
-89.47233818,46.21583624,503.98
-89.47261550,46.21583024,503.98
-89.47265682,46.21582935,503.96
-89.47276420,46.21582702,503.96
-89.47287145,46.21582470,503.95
-89.47308142,46.21582016,503.97
-89.47330162,46.21581539,503.96
-89.47362971,46.21580820,503.96
-89.47400548,46.21580015,503.96
-89.47434134,46.21579288,503.96
-89.47449315,46.21578959,503.96
-89.47482980,46.21578230,503.93
-89.47526074,46.21577288,503.93
-89.47557483,46.21576571,503.91
-89.47597275,46.21575736,503.92
-89.47606021,46.21574745,504.03
-89.47609095,46.21573905,504.00
-89.47631697,46.21542265,503.99
-89.47632648,46.21536016,503.99
-89.47631912,46.21518508,504.28
-89.47631803,46.21516080,504.23
-89.47631722,46.21514273,504.15
-89.47631022,46.21498709,507.37
-89.47630862,46.21495157,505.67
-89.47630477,46.21486588,513.24
-89.47629950,46.21474890,507.38
-89.47629946,46.21474782,517.76
-89.47629707,46.21469477,521.36
-89.47629691,46.21469126,520.59
-89.47629606,46.21467229,518.24
-89.47629390,46.21462427,514.71
-89.47629281,46.21460009,524.13
-89.47629259,46.21459514,519.81
-89.47629167,46.21457473,522.32
-89.47628864,46.21450738,514.25
-89.47628854,46.21450505,515.68
-89.47628837,46.21450136,514.93
-89.47628657,46.21446126,519.71
-89.47628056,46.21432764,510.39
-89.47627507,46.21420563,530.32
-89.47627373,46.21417586,528.53
-89.47626583,46.21400008,539.59
-89.47626030,46.21387716,542.20
-89.47625667,46.21379642,540.63
-89.47625651,46.21379291,539.04
-89.47625626,46.21378734,539.70
-89.47625567,46.21377421,543.37
-89.47625565,46.21377376,539.27
-89.47625431,46.21374409,544.12
-89.47625357,46.21372754,544.76
-89.47624703,46.21358206,543.47
-89.47624440,46.21352370,544.56
-89.47624332,46.21349961,541.25
-89.47624271,46.21348603,541.44
-89.47624213,46.21347308,523.00
-89.47624201,46.21347047,543.29
-89.47624197,46.21346958,542.76
-89.47624052,46.21343748,536.78
-89.47623919,46.21340780,542.93
-89.47623908,46.21340529,541.11
-89.47623896,46.21340259,542.76
-89.47623765,46.21337363,541.01
-89.47623583,46.21333317,540.43
-89.47623539,46.21332328,540.64
-89.47623375,46.21328678,534.91
-89.47623347,46.21328057,539.65
-89.47623278,46.21326520,539.44
-89.47622880,46.21317672,537.48
-89.47622864,46.21317321,540.91
-89.47622761,46.21315028,539.63
-89.47622693,46.21313509,538.14
-89.47622668,46.21312960,540.28
-89.47622632,46.21312151,536.76
-89.47622630,46.21312124,538.79
-89.47622587,46.21311162,537.27
-89.47622515,46.21309553,538.37
-89.47622260,46.21303897,527.17
-89.47622177,46.21302035,534.67
-89.47621611,46.21289456,529.81
-89.47621338,46.21283396,521.46
-89.47621319,46.21282973,521.26
-89.47621296,46.21282452,509.62
-89.47621180,46.21279880,509.05
-89.47621123,46.21278612,528.47
-89.47621103,46.21278172,523.17
-89.47620852,46.21272570,527.70
-89.47620465,46.21263965,510.55
-89.47620236,46.21258885,519.62
-89.47620028,46.21254263,523.31
-89.47620010,46.21253859,525.50
-89.47619500,46.21242511,527.79
-89.47619357,46.21239328,528.81
-89.47619235,46.21236631,512.78
-89.47619109,46.21233825,517.48
-89.47619046,46.21232414,517.73
-89.47618929,46.21229815,516.06
-89.47618804,46.21227037,521.40
-89.47618726,46.21225310,528.79
-89.47618724,46.21225256,530.86
-89.47618082,46.21210978,530.87
-89.47617977,46.21208640,519.15
-89.47617835,46.21205484,531.45
-89.47617417,46.21196196,529.69
-89.47616135,46.21167683,528.71
-89.47615985,46.21164356,519.17
-89.47615730,46.21158674,520.82
-89.47615709,46.21158224,519.72
-89.47615349,46.21150212,518.12
-89.47615306,46.21149241,529.67
-89.47615138,46.21145519,532.31
-89.47615118,46.21145069,531.58
-89.47615035,46.21143235,528.26
-89.47614831,46.21138694,521.78
-89.47614766,46.21137247,519.72
-89.47612953,46.21099808,511.35
-89.47612548,46.21088783,511.31
-89.47611451,46.21063516,511.34
-89.47611230,46.21058885,511.23
-89.47609312,46.21016247,511.27
-89.47607586,46.20978996,511.28
-89.47606170,46.20947804,511.31
-89.47605109,46.20924777,511.28
-89.47603489,46.20904886,511.34
-89.47602953,46.20875376,511.36
-89.47601741,46.20851309,511.34
-89.47600703,46.20843510,511.32
-89.47599100,46.20804681,511.31
-89.47598978,46.20790157,511.31
-89.47598954,46.20786152,511.36
-89.47598917,46.20785325,511.29
-89.47596933,46.20741770,511.21
-89.47595838,46.20719716,511.34
-89.47595147,46.20708391,511.32
-89.47587792,46.20683781,511.29
-89.47586896,46.20682585,511.34
-89.47574469,46.20677229,511.32
-89.47565094,46.20676596,511.32
-89.47555301,46.20676745,511.22
-89.47544156,46.20677112,511.29
-89.47509161,46.20678113,511.30
-89.47458728,46.20678864,511.31
-89.47435243,46.20679255,511.26
-89.47429493,46.20679371,511.31
-89.47408046,46.20679826,511.56
-89.47404653,46.20679900,513.30
-89.47388736,46.20680245,522.01
-89.47382753,46.20680374,521.28
-89.47381134,46.20680409,530.50
-89.47369193,46.20680668,531.35
-89.47363353,46.20680794,527.40
-89.47361811,46.20680828,527.23
-89.47350337,46.20681076,522.52
-89.47344406,46.20681204,532.44
-89.47340766,46.20681283,529.33
-89.47338526,46.20681332,530.28
-89.47330807,46.20681499,533.84
-89.47311303,46.20681921,530.56
-89.47290051,46.20682381,526.91
-89.47286153,46.20682465,517.70
-89.47274394,46.20682720,518.45
-89.47272749,46.20682755,516.53
-89.47265121,46.20682921,525.74
-89.47254980,46.20683140,520.55
-89.47250681,46.20683233,521.48
-89.47249204,46.20683265,511.51
-89.47241149,46.20683439,521.23
-89.47238494,46.20683497,522.21
-89.47236538,46.20683539,524.80
-89.47229389,46.20683694,517.07
-89.47228353,46.20683716,524.42
-89.47224365,46.20683802,520.74
-89.47219650,46.20683904,525.51
-89.47215688,46.20683990,524.78
-89.47210028,46.20684113,526.39
-89.47204407,46.20684234,527.14
-89.47202750,46.20684270,528.41
-89.47200004,46.20684330,523.17
-89.47199486,46.20684341,529.44
-89.47196572,46.20684404,527.32
-89.47195070,46.20684436,516.66
-89.47194824,46.20684442,525.34
-89.47192583,46.20684490,520.12
-89.47188646,46.20684575,523.58
-89.47185836,46.20684636,520.11
-89.47182559,46.20684707,523.88
-89.47178039,46.20684805,521.83
-89.47176097,46.20684847,514.56
-89.47170036,46.20684978,532.39
-89.47167200,46.20685039,527.15
-89.47165892,46.20685068,525.17
-89.47161009,46.20685173,529.74
-89.47157072,46.20685258,522.88
-89.47156502,46.20685271,529.96
-89.47141712,46.20685591,538.85
-89.47137685,46.20685678,520.00
-89.47132880,46.20685782,514.61
-89.47127389,46.20685900,525.25
-89.47127065,46.20685907,522.42
-89.47122765,46.20686000,525.28
-89.47117093,46.20686123,528.49
-89.47116834,46.20686129,533.45
-89.47112793,46.20686216,524.81
-89.47112042,46.20686232,533.27
-89.47108364,46.20686312,520.49
-89.47107289,46.20686335,527.70
-89.47107082,46.20686340,530.56
-89.47102873,46.20686431,520.77
-89.47095789,46.20686584,534.49
-89.47087539,46.20686762,527.78
-89.47083382,46.20686852,528.81
-89.47073358,46.20687069,516.59
-89.47071390,46.20687112,521.41
-89.47070159,46.20687138,521.83
-89.47069434,46.20687154,531.56
-89.47068838,46.20687167,516.21
-89.47065367,46.20687242,530.39
-89.47061935,46.20687316,534.18
-89.47059371,46.20687371,523.52
-89.47058724,46.20687385,530.65
-89.47058620,46.20687388,529.78
-89.47058348,46.20687394,533.16
-89.47051458,46.20687543,533.36
-89.47047987,46.20687618,528.62
-89.47045022,46.20687682,533.35
-89.47028988,46.20688028,532.06
-89.47012062,46.20688394,535.43
-89.47009277,46.20688455,530.41
-89.47005599,46.20688534,526.63
-89.46999668,46.20688662,523.63
-89.46996948,46.20688721,517.86
-89.46996417,46.20688733,531.16
-89.46995770,46.20688747,526.49
-89.46994474,46.20688775,532.78
-89.46993374,46.20688798,529.98
-89.46990745,46.20688855,533.03
-89.46985085,46.20688978,535.88
-89.46979918,46.20689089,534.19
-89.46978273,46.20689125,532.69
-89.46963677,46.20689440,532.74
-89.46963470,46.20689445,533.99
-89.46958743,46.20689547,536.76
-89.46957798,46.20689567,526.07
-89.46957642,46.20689571,527.41
-89.46957034,46.20689584,522.81
-89.46955505,46.20689617,533.16
-89.46951529,46.20689703,517.29
-89.46946621,46.20689809,530.01
-89.46938812,46.20689978,536.28
-89.46935276,46.20690054,530.26
-89.46931313,46.20690140,532.48
-89.46930458,46.20690158,526.26
-89.46928982,46.20690190,536.26
-89.46921755,46.20690346,538.45
-89.46921483,46.20690352,536.90
-89.46914231,46.20690509,536.81
-89.46908118,46.20690641,519.66
-89.46906435,46.20690678,517.32
-89.46892927,46.20690969,522.84
-89.46881932,46.20691207,536.57
-89.46881854,46.20691209,537.45
-89.46881789,46.20691210,538.05
-89.46877153,46.20691310,535.44
-89.46871428,46.20691434,538.09
-89.46871377,46.20691435,538.74
-89.46871286,46.20691437,539.92
-89.46871169,46.20691440,541.30
-89.46847651,46.20691948,541.19
-89.46832977,46.20692265,532.55
-89.46828665,46.20692358,534.59
-89.46828639,46.20692358,535.36
-89.46818472,46.20692578,533.44
-89.46818446,46.20692579,534.26
-89.46818421,46.20692579,535.17
-89.46808811,46.20692787,539.04
-89.46800626,46.20692964,517.16
-89.46795135,46.20693082,524.92
-89.46774219,46.20693534,536.86
-89.46759960,46.20693842,536.55
-89.46750519,46.20694046,538.90
-89.46745313,46.20694158,539.84
-89.46716368,46.20694783,539.62
-89.46697071,46.20695200,534.05
-89.46668812,46.20695810,534.27
-89.46659241,46.20696017,534.53
-89.46659047,46.20696021,537.36
-89.46650823,46.20696199,528.49
-89.46622383,46.20696812,526.58
-89.46598774,46.20697322,528.04
-89.46598424,46.20697330,529.03
-89.46589294,46.20697527,519.18
-89.46584825,46.20697623,515.06
-89.46527575,46.20699282,514.96
-89.46521355,46.20710045,514.92
-89.46507391,46.20720697,514.93
-89.46445159,46.20716477,516.81
-89.46442857,46.20713710,514.98
-89.46439607,46.20709739,514.94
-89.46434118,46.20704106,514.98
-89.46431554,46.20700993,515.03
-89.46430141,46.20700996,519.10
-89.46428573,46.20701012,515.27
-89.46400754,46.20701594,517.12
-89.46396144,46.20701694,515.27
-89.46391675,46.20701790,515.28
-89.46364530,46.20702375,519.62
-89.46355076,46.20702579,523.57
-89.46352538,46.20702634,515.13
-89.46351061,46.20702666,518.39
-89.46316677,46.20703407,515.31
-89.46311587,46.20703517,528.85
-89.46299595,46.20703784,523.59
-89.46299027,46.20703851,523.95
-89.46299009,46.20704022,533.41
-89.46298982,46.20704572,532.76
-89.46300197,46.20731466,524.82
-89.46301266,46.20755654,522.99
-89.46302475,46.20782683,528.49
-89.46302502,46.20783285,518.31
-89.46302909,46.20792385,537.24
-89.46303349,46.20802221,518.68
-89.46303780,46.20811852,514.97
-89.46304179,46.20820789,514.93
-89.46304536,46.20828774,518.14
-89.46305453,46.20849266,514.99
-89.46306096,46.20863644,515.08
-89.46306182,46.20865568,515.04
-89.46306893,46.20881465,514.93
-89.46308250,46.20911812,515.57
-89.46309038,46.20929418,525.43
-89.46309365,46.20936737,534.61
-89.46309373,46.20936908,527.08
-89.46309405,46.20937636,524.54
-89.46309914,46.20949020,535.48
-89.46309919,46.20949119,522.91
-89.46310396,46.20959783,523.54
-89.46310999,46.20973270,535.12
-89.46311542,46.20985409,528.56
-89.46312772,46.21012915,520.53
-89.46313412,46.21027220,515.10
-89.46313611,46.21031653,522.16
-89.46313647,46.21032481,523.28
-89.46313754,46.21034863,523.67
-89.46313914,46.21038433,514.80
-89.46314450,46.21050428,531.53
-89.46314599,46.21053764,534.33
-89.46315192,46.21067018,514.67
-89.46315289,46.21069176,523.83
-89.46315825,46.21081171,517.51
-89.46315837,46.21081431,519.07
-89.46316256,46.21090792,525.95
-89.46316689,46.21100476,526.03
-89.46316754,46.21101941,531.41
-89.46316833,46.21103686,528.33
-89.46316976,46.21106896,537.91
-89.46317111,46.21109908,532.15
-89.46317315,46.21114467,530.18
-89.46317358,46.21115429,514.74
-89.46317677,46.21122568,535.14
-89.46318131,46.21132711,512.72
-89.46318200,46.21134248,524.41
-89.46318326,46.21137072,526.49
-89.46318859,46.21148995,521.47
-89.46318909,46.21150110,520.54
-89.46319055,46.21153383,524.15
-89.46319073,46.21153769,524.16
-89.46319683,46.21167401,529.04
-89.46320288,46.21180933,512.69
-89.46320873,46.21194007,530.40
-89.46320895,46.21194511,528.18
-89.46320915,46.21194960,527.04
-89.46320969,46.21196156,527.55
-89.46321233,46.21202064,518.41
-89.46321289,46.21203305,528.52
-89.46321447,46.21206838,525.71
-89.46321536,46.21208843,526.77
-89.46321650,46.21211379,522.35
-89.46321663,46.21211667,522.40
-89.46321973,46.21218608,517.53
-89.46322062,46.21220587,518.99
-89.46322264,46.21225118,515.29
-89.46322634,46.21233382,512.48
-89.46323860,46.21260797,512.32
-89.46324481,46.21274663,512.58
-89.46324657,46.21278592,512.47
-89.46324718,46.21279968,512.40
-89.46326404,46.21317373,512.48
-89.46327045,46.21331984,512.40
-89.46328075,46.21355012,528.62
-89.46328593,46.21366593,531.40
-89.46330025,46.21398604,537.82
-89.46330088,46.21400006,537.07
-89.46330481,46.21408782,535.15
-89.46330597,46.21411381,529.63
-89.46330647,46.21412496,519.12
-89.46330796,46.21415823,537.84
-89.46331275,46.21426541,528.27
-89.46331388,46.21429059,531.01
-89.46331927,46.21441107,533.26
-89.46332215,46.21447537,533.44
-89.46332316,46.21449793,519.27
-89.46332442,46.21452626,521.82
-89.46333271,46.21471149,528.40
-89.46333884,46.21484852,529.63
-89.46335465,46.21520198,532.37
-89.46336015,46.21532490,532.97
-89.46336414,46.21541401,531.55
-89.46336630,46.21546238,532.74
-89.46336988,46.21554223,519.33
-89.46337957,46.21575884,533.74
-89.46338474,46.21587447,533.80
-89.46338598,46.21590207,527.41
-89.46338648,46.21591331,527.32
-89.46338789,46.21594478,516.18
-89.46339049,46.21600296,533.96
-89.46339160,46.21602490,535.75
-89.46339266,46.21602541,534.89
-89.46339425,46.21602619,533.50
-89.46342094,46.21602850,525.74
-89.46344206,46.21602831,525.66
-89.46394024,46.21601766,520.78
-89.46394581,46.21601754,529.40
-89.46398428,46.21601671,532.90
-89.46399684,46.21601644,537.38
-89.46405125,46.21601526,529.05
-89.46409723,46.21601427,533.96
-89.46421264,46.21601178,523.50
-89.46422430,46.21601153,541.88
-89.46422883,46.21601143,531.95
-89.46435202,46.21600878,525.14
-89.46441834,46.21600735,540.79
-89.46449890,46.21600561,535.38
-89.46450499,46.21600548,544.18
-89.46451406,46.21600528,542.95
-89.46452235,46.21600510,541.86
-89.46453556,46.21600482,532.45
-89.46459048,46.21600363,541.87
-89.46459165,46.21600361,537.71
-89.46470965,46.21600106,521.86
-89.46487610,46.21599747,535.90
-89.46488659,46.21599725,533.42
-89.46490874,46.21599677,540.42
-89.46493620,46.21599617,541.38
-89.46498905,46.21599503,542.01
-89.46508153,46.21599304,543.63
-89.46514617,46.21599164,534.75
-89.46517816,46.21599095,537.41
-89.46527375,46.21598889,540.95
-89.46533878,46.21598749,540.96
-89.46537893,46.21598662,540.51
-89.46538865,46.21598641,529.35
-89.46546300,46.21598481,533.84
-89.46547621,46.21598452,523.08
-89.46554240,46.21598309,539.23
-89.46559680,46.21598192,540.28
-89.46580237,46.21597748,538.35
-89.46583436,46.21597679,534.74
-89.46590224,46.21597533,536.00
-89.46599381,46.21597335,522.57
-89.46599640,46.21597330,538.05
-89.46604407,46.21597227,526.93
-89.46613267,46.21597036,535.38
-89.46617904,46.21596936,541.49
-89.46618293,46.21596927,536.41
-89.46622813,46.21596830,523.15
-89.46624290,46.21596798,539.71
-89.46625546,46.21596771,538.11
-89.46626686,46.21596746,539.36
-89.46636466,46.21596535,535.40
-89.46641051,46.21596436,533.55
-89.46645999,46.21596329,528.94
-89.46647865,46.21596289,533.09
-89.46649302,46.21596258,531.15
-89.46650585,46.21596230,529.66
-89.46659496,46.21596038,524.72
-89.46661284,46.21595999,533.80
-89.46673032,46.21595745,530.52
-89.46700182,46.21595159,522.57
-89.46722228,46.21594683,526.88
-89.46731126,46.21594491,525.39
-89.46744351,46.21594205,525.56
-89.46744766,46.21594196,520.65
-89.46747551,46.21594136,529.58
-89.46760853,46.21593849,536.74
-89.46769351,46.21593666,536.38
-89.46773470,46.21593577,536.84
-89.46778780,46.21593462,534.37
-89.46786708,46.21593291,534.04
-89.46795503,46.21593101,542.54
-89.46799648,46.21593011,541.18
-89.46808715,46.21592815,536.80
-89.46813481,46.21592712,535.19
-89.46834504,46.21592258,535.62
-89.46852638,46.21591866,534.00
-89.46852729,46.21591864,532.52
-89.46861045,46.21591685,533.35
-89.46861135,46.21591683,532.04
-89.46870228,46.21591486,522.92
-89.46874296,46.21591398,533.47
-89.46874490,46.21591394,531.10
-89.46886925,46.21591126,531.80
-89.46895694,46.21590936,533.95
-89.46904191,46.21590752,537.26
-89.46908712,46.21590655,529.95
-89.46909800,46.21590631,515.14
-89.46913180,46.21590558,532.28
-89.46917546,46.21590464,530.09
-89.46947558,46.21589815,537.54
-89.46949514,46.21589773,537.85
-89.46951858,46.21589722,530.23
-89.46956055,46.21589632,516.56
     </coordinates>
    </LineString>
   </MultiGeometry>
  </Placemark>
 </Document>
</kml>
