<kml>
 <Document>
  <Style id="yellow">
   <LineStyle>
   <color>ff00ffff</color>
   <width>1</width>
   </LineStyle>
  </Style>
  <Style id="red">
   <LineStyle>
   <color>ffff0000</color>
   <width>2</width>
   </LineStyle>
  </Style>
  <Style id="green">
   <LineStyle>
   <color>ff00ff00</color>
   <width>1</width>
   </LineStyle>
  </Style>
  <Placemark>
  <styleUrl>#yellow</styleUrl>
   <MultiGeometry>
    <LineString>
     <coordinates>
-89.46440588,46.23868323,533.22
-89.46440841,46.23873979,517.06
-89.46440920,46.23875732,534.42
-89.46441021,46.23877989,526.82
-89.46441036,46.23878331,529.51
-89.46441553,46.23889876,533.50
-89.46441918,46.23898023,538.84
-89.46441965,46.23899066,535.55
-89.46442217,46.23904694,537.31
-89.46442229,46.23904964,538.60
-89.46442663,46.23914648,539.75
-89.46443274,46.23928279,531.41
-89.46443294,46.23928747,526.53
-89.46443460,46.23932434,539.30
-89.46443504,46.23933414,539.64
-89.46443690,46.23937586,534.90
-89.46444147,46.23947782,533.37
-89.46444260,46.23950291,536.56
-89.46444428,46.23954058,541.33
-89.46444474,46.23955066,539.88
-89.46444530,46.23956324,541.88
-89.46444615,46.23958231,543.11
-89.46445816,46.23985035,544.57
-89.46446014,46.23989450,547.33
-89.46446240,46.23994503,545.19
-89.46446535,46.24001076,551.08
-89.46446571,46.24001894,547.93
-89.46446598,46.24002478,551.10
-89.46446617,46.24002901,530.65
-89.46446896,46.24009150,545.98
-89.46447052,46.24012612,553.34
-89.46447112,46.24013952,548.82
-89.46447296,46.24018061,553.38
-89.46447492,46.24022449,545.20
-89.46447622,46.24025353,531.63
-89.46447651,46.24025992,548.09
-89.46447843,46.24030281,551.88
-89.46447966,46.24033032,551.35
-89.46448271,46.24039821,549.70
-89.46448403,46.24042770,548.63
-89.46448440,46.24043597,549.88
-89.46448834,46.24052400,541.98
-89.46448855,46.24052876,526.82
-89.46448990,46.24055880,546.48
-89.46449478,46.24066769,546.19
-89.46449538,46.24068117,542.85
-89.46449541,46.24068180,527.23
-89.46449551,46.24068414,549.43
-89.46449641,46.24070419,548.40
-89.46449750,46.24072847,542.94
-89.46449946,46.24077217,539.50
-89.46449995,46.24078323,539.34
-89.46450044,46.24079411,540.36
-89.46450052,46.24079582,537.60
-89.46450074,46.24080076,545.38
-89.46450397,46.24087278,540.44
-89.46450530,46.24090246,543.70
-89.46450743,46.24095020,544.87
-89.46450866,46.24097745,544.73
-89.46451040,46.24101629,529.16
-89.46451112,46.24103248,546.78
-89.46451168,46.24104497,534.60
-89.46451289,46.24107195,546.42
-89.46451714,46.24116672,543.40
-89.46452080,46.24124845,539.13
-89.46452279,46.24129296,542.81
-89.46452282,46.24129350,528.77
-89.46452502,46.24134260,546.61
-89.46452667,46.24137955,536.16
-89.46452923,46.24143674,538.19
-89.46452970,46.24144726,535.83
-89.46453409,46.24154509,535.60
-89.46453410,46.24154536,537.97
-89.46453504,46.24156631,543.02
-89.46453669,46.24160326,540.10
-89.46453716,46.24161369,542.68
-89.46454067,46.24169210,545.44
-89.46454212,46.24172438,542.10
-89.46454237,46.24172987,541.77
-89.46454347,46.24175450,544.62
-89.46454688,46.24183066,543.43
-89.46454734,46.24184091,527.20
-89.46454861,46.24186915,543.23
-89.46455002,46.24190062,543.31
-89.46455007,46.24190170,543.37
-89.46455428,46.24199575,544.08
-89.46455438,46.24199800,540.17
-89.46455527,46.24201796,544.03
-89.46455595,46.24203315,540.51
-89.46456115,46.24214915,539.98
-89.46456297,46.24218970,547.64
-89.46456566,46.24224985,546.35
-89.46456597,46.24225678,549.43
-89.46456707,46.24228114,542.73
-89.46456717,46.24228357,545.49
-89.46457126,46.24237466,542.69
-89.46457344,46.24242330,548.52
-89.46457559,46.24247132,545.57
-89.46457699,46.24250252,549.40
-89.46457757,46.24251564,546.40
-89.46457761,46.24251654,537.69
-89.46457941,46.24255674,550.21
-89.46458451,46.24267039,550.37
-89.46458500,46.24268145,546.44
-89.46458582,46.24269970,549.06
-89.46458583,46.24269997,548.00
-89.46458793,46.24274691,545.52
-89.46458819,46.24275257,527.84
-89.46458870,46.24276390,543.13
-89.46459269,46.24285292,529.09
-89.46459556,46.24291712,545.44
-89.46459667,46.24294185,529.83
-89.46459951,46.24300236,536.95
-89.46460206,46.24300419,543.54
-89.46461282,46.24300405,539.05
-89.46465325,46.24300327,547.15
-89.46473931,46.24300141,545.71
-89.46474177,46.24300136,544.53
-89.46483987,46.24299924,540.33
-89.46508817,46.24299389,536.14
-89.46523267,46.24299077,543.34
-89.46525664,46.24299025,544.73
-89.46531004,46.24298910,544.19
-89.46536330,46.24298795,541.92
-89.46538222,46.24298754,546.92
-89.46555510,46.24298381,544.59
-89.46566655,46.24298141,544.29
-89.46570646,46.24298055,537.20
-89.46579511,46.24297863,522.91
-89.46585057,46.24297744,539.49
-89.46585355,46.24297737,538.05
-89.46588375,46.24297672,537.96
-89.46588919,46.24297660,539.76
-89.46599986,46.24297421,548.16
-89.46600647,46.24297407,550.50
-89.46602267,46.24297372,543.34
-89.46603317,46.24297349,542.51
-89.46606414,46.24297283,545.32
-89.46606544,46.24297280,545.21
-89.46610963,46.24297184,548.88
-89.46611287,46.24297177,547.27
-89.46617806,46.24297037,538.93
-89.46622251,46.24296941,547.28
-89.46625490,46.24296871,546.45
-89.46628575,46.24296804,545.17
-89.46629534,46.24296784,547.47
-89.46631542,46.24296740,546.49
-89.46633629,46.24296695,542.96
-89.46636273,46.24296638,546.65
-89.46646264,46.24296422,546.07
-89.46653599,46.24296264,549.69
-89.46655828,46.24296216,543.07
-89.46663591,46.24296048,545.10
-89.46666209,46.24295992,541.76
-89.46677419,46.24295750,531.00
-89.46678883,46.24295718,547.41
-89.46681280,46.24295666,550.84
-89.46702352,46.24295212,543.69
-89.46705683,46.24295140,551.23
-89.46715402,46.24294930,549.97
-89.46739468,46.24294410,545.39
-89.46744069,46.24294311,547.90
-89.46753360,46.24294110,548.08
-89.46765387,46.24293850,532.31
-89.46767693,46.24293801,545.04
-89.46775469,46.24293633,531.92
-89.46776519,46.24293610,545.06
-89.46795271,46.24293205,544.57
-89.46796541,46.24293178,539.00
-89.46809060,46.24292907,548.22
-89.46809708,46.24292893,544.98
-89.46841652,46.24292203,541.08
-89.46850542,46.24292011,540.94
-89.46865562,46.24291686,535.76
-89.46913797,46.24290635,520.41
-89.46930605,46.24290281,520.40
-89.46957573,46.24289689,520.36
-89.47005873,46.24288645,520.42
-89.47010680,46.24288532,520.38
-89.47019062,46.24288297,520.41
-89.47025530,46.24287896,520.44
-89.46995707,46.24251190,520.35
-89.47024552,46.24223367,528.15
-89.47045931,46.24221960,521.30
-89.47101553,46.24225410,520.41
-89.47102139,46.24225461,520.42
-89.47102777,46.24225510,520.46
-89.47148459,46.24234935,520.38
-89.47129989,46.24275116,520.40
-89.47127172,46.24277652,520.46
-89.47125376,46.24280994,520.42
-89.47122722,46.24286011,520.39
-89.47128996,46.24285920,520.41
-89.47172205,46.24285057,523.48
-89.47197087,46.24284519,534.96
-89.47199485,46.24284467,535.76
-89.47206742,46.24284310,531.50
-89.47207325,46.24284297,531.52
-89.47209476,46.24284251,538.83
-89.47215075,46.24284130,541.30
-89.47215995,46.24284110,538.80
-89.47227555,46.24283860,522.95
-89.47228604,46.24283837,534.61
-89.47235434,46.24283689,531.57
-89.47261093,46.24283134,540.92
-89.47262596,46.24283101,536.99
-89.47268026,46.24282984,538.96
-89.47291651,46.24282473,522.24
-89.47309418,46.24282088,520.59
-89.47332032,46.24281599,521.07
-89.47343825,46.24281343,522.46
-89.47357497,46.24281047,518.83
-89.47362124,46.24280947,520.53
-89.47387083,46.24280407,518.51
-89.47443119,46.24279193,521.79
-89.47492532,46.24278123,518.45
-89.47505673,46.24277839,518.44
-89.47514058,46.24277657,518.39
-89.47538914,46.24277118,520.34
-89.47553804,46.24276796,525.44
-89.47558275,46.24276699,530.88
-89.47559415,46.24276674,530.33
-89.47562188,46.24276614,531.66
-89.47562227,46.24276613,526.26
-89.47579204,46.24276246,518.77
-89.47580733,46.24276212,515.43
-89.47639644,46.24274909,515.39
-89.47664488,46.24274397,515.43
-89.47692441,46.24273791,520.46
-89.47693012,46.24273779,520.16
-89.47695487,46.24273725,520.21
-89.47704545,46.24273529,523.77
-89.47709288,46.24273426,532.19
-89.47718541,46.24273225,520.02
-89.47722377,46.24273142,528.70
-89.47729945,46.24272978,529.49
-89.47732317,46.24272927,527.53
-89.47741622,46.24272725,531.44
-89.47751950,46.24272501,526.18
-89.47754179,46.24272444,521.12
-89.47755588,46.24272044,515.45
-89.47755661,46.24270216,515.40
-89.47755625,46.24268263,515.47
-89.47755498,46.24264585,515.44
-89.47753656,46.24223394,515.40
-89.47753198,46.24213225,515.44
-89.47752953,46.24207794,515.46
-89.47751146,46.24168241,515.46
-89.47749762,46.24136950,515.46
-89.47747767,46.24093234,515.45
-89.47746800,46.24071465,515.46
-89.47746195,46.24058031,515.48
-89.47744490,46.24020474,515.50
-89.47743582,46.23999721,515.47
-89.47742599,46.23977898,515.42
-89.47740600,46.23933516,515.47
-89.47738642,46.23890042,515.47
-89.47737407,46.23862618,515.48
-89.47736555,46.23843682,515.46
-89.47736536,46.23843259,515.46
-89.47736251,46.23836938,515.49
-89.47735246,46.23814630,515.45
-89.47734266,46.23792853,515.45
-89.47732841,46.23761220,515.50
-89.47732577,46.23755340,515.46
-89.47732111,46.23745585,515.47
-89.47731597,46.23737333,515.45
-89.47730784,46.23731087,515.47
-89.47720458,46.23714345,515.45
-89.47728459,46.23676577,515.41
-89.47728531,46.23674992,515.44
-89.47727299,46.23639278,515.41
-89.47727208,46.23636697,515.35
-89.47727020,46.23631940,531.10
-89.47726927,46.23629881,533.95
-89.47726900,46.23629269,531.32
-89.47726710,46.23625061,535.07
-89.47726544,46.23621357,538.47
-89.47726291,46.23615746,539.81
-89.47726252,46.23614874,539.06
-89.47726177,46.23613219,536.51
-89.47726007,46.23609443,541.93
-89.47725995,46.23609173,537.16
-89.47725037,46.23587899,527.73
-89.47724374,46.23573162,552.60
-89.47724227,46.23569907,550.64
-89.47723927,46.23563244,535.32
-89.47723895,46.23562543,536.50
-89.47723859,46.23561734,539.24
-89.47723511,46.23554001,549.86
-89.47722457,46.23530596,533.53
-89.47722295,46.23527008,538.89
-89.47722206,46.23525030,545.73
-89.47721642,46.23512487,550.60
-89.47721546,46.23510356,553.47
-89.47721306,46.23505042,552.11
-89.47721246,46.23503702,548.41
-89.47721046,46.23499252,547.15
-89.47720967,46.23497498,551.24
-89.47720954,46.23497219,549.23
-89.47720888,46.23495745,550.74
-89.47720881,46.23495583,551.16
-89.47720824,46.23494324,548.14
-89.47720664,46.23490782,548.50
-89.47720628,46.23489981,543.38
-89.47720288,46.23482410,547.74
-89.47719960,46.23475145,546.48
-89.47719488,46.23464661,548.11
-89.47719301,46.23460489,530.93
-89.47719057,46.23455076,542.75
-89.47718931,46.23452280,547.34
-89.47718916,46.23451956,537.64
-89.47718764,46.23448575,544.14
-89.47718756,46.23448395,548.54
-89.47718704,46.23447235,542.35
-89.47718541,46.23443621,549.70
-89.47718458,46.23441769,545.14
-89.47718167,46.23435304,550.92
-89.47717995,46.23431491,549.47
-89.47717858,46.23428452,549.68
-89.47717836,46.23427967,547.51
-89.47717544,46.23421475,537.39
-89.47717437,46.23419092,544.84
-89.47717126,46.23412195,550.17
-89.47717052,46.23410541,541.05
-89.47716946,46.23408194,551.52
-89.47716881,46.23406755,529.28
-89.47716813,46.23405245,529.40
-89.47716476,46.23397755,551.63
-89.47716355,46.23395075,548.99
-89.47716007,46.23387343,550.88
-89.47715864,46.23384169,550.86
-89.47715788,46.23382478,543.78
-89.47715457,46.23375411,531.03
-89.47715356,46.23373460,546.63
-89.47714341,46.23373383,549.79
-89.47709349,46.23373402,549.83
-89.47698232,46.23373643,550.45
-89.47683655,46.23373959,531.19
-89.47682916,46.23373975,545.17
-89.47679418,46.23374050,529.24
-89.47672006,46.23374211,547.20
-89.47669894,46.23374257,549.26
-89.47656147,46.23374555,549.45
-89.47650485,46.23374678,543.35
-89.47644317,46.23374811,543.71
-89.47640961,46.23374884,543.28
-89.47595935,46.23375860,523.20
-89.47553656,46.23376776,532.67
-89.47549095,46.23376875,531.75
-89.47541373,46.23377042,538.61
-89.47528429,46.23377322,542.39
-89.47528221,46.23377327,543.38
-89.47525980,46.23377375,542.00
-89.47524684,46.23377404,541.72
-89.47518802,46.23377531,543.28
-89.47518555,46.23377536,544.49
-89.47513450,46.23377647,542.88
-89.47495842,46.23378028,537.10
-89.47486668,46.23378227,529.97
-89.47477093,46.23378434,546.99
-89.47471158,46.23378563,543.98
-89.47470912,46.23378568,544.99
-89.47470601,46.23378575,545.76
-89.47467297,46.23378647,544.51
-89.47463008,46.23378740,547.91
-89.47452500,46.23378967,536.93
-89.47441953,46.23379196,540.56
-89.47395048,46.23380211,539.68
-89.47390915,46.23380301,544.30
-89.47384527,46.23380439,545.34
-89.47375574,46.23380633,527.53
-89.47358328,46.23381006,546.83
-89.47349245,46.23381203,548.28
-89.47346096,46.23381271,545.80
-89.47340861,46.23381384,542.99
-89.47339579,46.23381412,548.08
-89.47330016,46.23381619,548.22
-89.47327386,46.23381676,547.06
-89.47318238,46.23381874,542.50
-89.47317681,46.23381886,544.66
-89.47317111,46.23381898,546.75
-89.47308015,46.23382095,548.29
-89.47264596,46.23383035,540.53
-89.47262276,46.23383085,536.46
-89.47257975,46.23383178,539.52
-89.47251457,46.23383319,540.26
-89.47236181,46.23383650,540.36
-89.47231801,46.23383745,541.79
-89.47219388,46.23384013,545.76
-89.47211381,46.23384187,548.62
-89.47208478,46.23384249,527.72
-89.47208193,46.23384256,549.80
-89.47206431,46.23384294,543.13
-89.47202920,46.23384370,546.61
-89.47196674,46.23384505,545.74
-89.47186516,46.23384725,544.70
-89.47176176,46.23384948,546.90
-89.47173960,46.23384996,549.77
-89.47170034,46.23385081,544.08
-89.47162130,46.23385252,550.63
-89.47158554,46.23385329,545.74
-89.47153631,46.23385436,543.63
-89.47151894,46.23385473,526.75
-89.47150236,46.23385509,543.52
-89.47148759,46.23385541,541.24
-89.47146115,46.23385598,545.65
-89.47144677,46.23385630,539.37
-89.47144496,46.23385634,527.00
-89.47137266,46.23385790,542.26
-89.47126459,46.23386024,543.60
-89.47123363,46.23386091,542.55
-89.47118763,46.23386190,545.35
-89.47113191,46.23386311,526.79
-89.47110729,46.23386364,542.97
-89.47110405,46.23386371,543.98
-89.47094222,46.23386721,541.00
-89.47093859,46.23386729,542.22
-89.47093678,46.23386733,542.86
-89.47093147,46.23386744,544.64
-89.47089052,46.23386833,540.66
-89.47087925,46.23386857,539.00
-89.47083986,46.23386942,540.36
-89.47075071,46.23387135,535.28
-89.47074048,46.23387157,538.55
-89.47072545,46.23387190,539.06
-89.47072195,46.23387197,540.33
-89.47071961,46.23387202,541.21
-89.47069914,46.23387247,538.44
-89.47069577,46.23387254,539.66
-89.47066066,46.23387330,541.96
-89.47062166,46.23387414,539.11
-89.47061946,46.23387419,539.90
-89.47056594,46.23387535,536.31
-89.47052733,46.23387618,537.13
-89.47036796,46.23387963,534.20
-89.47033673,46.23388030,540.17
-89.47000256,46.23388753,534.92
-89.46976856,46.23389258,526.82
-89.46962551,46.23389568,538.99
-89.46959947,46.23389624,547.35
-89.46959765,46.23389628,546.24
-89.46959053,46.23389643,527.02
-89.46949361,46.23389853,532.21
-89.46948117,46.23389880,527.66
-89.46942804,46.23389994,546.65
-89.46939694,46.23390062,526.88
-89.46937362,46.23390112,534.39
-89.46933682,46.23390192,544.95
-89.46923317,46.23390416,542.18
-89.46912899,46.23390641,541.19
-89.46911513,46.23390671,526.93
-89.46904231,46.23390828,540.52
-89.46901782,46.23390881,538.63
-89.46897843,46.23390966,526.90
-89.46896806,46.23390988,541.88
-89.46872317,46.23391518,541.49
-89.46820838,46.23392630,526.80
-89.46818208,46.23392687,536.63
-89.46810641,46.23392850,544.05
-89.46807000,46.23392929,539.69
-89.46796945,46.23393146,540.69
-89.46768996,46.23393750,534.60
-89.46763450,46.23393869,538.02
-89.46752061,46.23394115,545.67
-89.46738819,46.23394401,541.81
-89.46725097,46.23394698,539.08
-89.46723218,46.23394738,546.60
-89.46720769,46.23394791,539.55
-89.46711116,46.23394999,540.61
-89.46709237,46.23395040,527.22
-89.46706996,46.23395088,536.19
-89.46697861,46.23395286,537.02
-89.46692056,46.23395411,539.75
-89.46691616,46.23395421,541.60
-89.46684062,46.23395584,540.03
-89.46672620,46.23395831,527.75
-89.46663537,46.23396027,542.43
-89.46659132,46.23396122,528.15
-89.46654882,46.23396214,546.10
-89.46650295,46.23396313,544.49
-89.46647794,46.23396367,541.02
-89.46640305,46.23396528,542.23
-89.46633127,46.23396683,531.09
-89.46631896,46.23396710,527.36
-89.46631792,46.23396712,543.65
-89.46627257,46.23396810,545.48
-89.46624458,46.23396870,543.45
-89.46622748,46.23396907,533.18
-89.46620973,46.23396946,540.85
-89.46616036,46.23397052,541.22
-89.46615453,46.23397065,541.19
-89.46612382,46.23397131,541.55
-89.46608922,46.23397206,539.12
-89.46606746,46.23397253,538.27
-89.46604828,46.23397294,536.69
-89.46601679,46.23397362,541.52
-89.46600928,46.23397378,538.24
-89.46599697,46.23397405,538.93
-89.46590044,46.23397613,527.65
-89.46584187,46.23397739,529.80
-89.46583332,46.23397758,537.36
-89.46578706,46.23397858,538.39
-89.46576257,46.23397911,536.08
-89.46575311,46.23397931,537.25
-89.46574897,46.23397940,538.16
-89.46569999,46.23398046,541.42
-89.46564259,46.23398170,532.62
-89.46563935,46.23398177,534.10
-89.46555435,46.23398360,531.68
-89.46551781,46.23398439,535.55
-89.46550939,46.23398457,533.67
-89.46546766,46.23398547,532.97
-89.46542711,46.23398634,535.61
-89.46533485,46.23398834,535.88
-89.46523197,46.23399056,540.05
-89.46515293,46.23399226,523.87
-89.46514542,46.23399242,532.98
-89.46509540,46.23399350,534.92
-89.46505575,46.23399436,533.62
-89.46501818,46.23399517,531.41
-89.46501274,46.23399529,533.94
-89.46499848,46.23399559,538.39
-89.46496168,46.23399639,532.45
-89.46487604,46.23399823,527.94
-89.46482486,46.23399934,535.70
-89.46481332,46.23399959,532.41
-89.46477795,46.23400035,531.38
-89.46473519,46.23400127,533.34
-89.46467274,46.23400262,541.53
-89.46455975,46.23400506,540.89
-89.46452697,46.23400576,536.71
-89.46450494,46.23400624,545.03
-89.46449937,46.23400636,540.90
-89.46437783,46.23400898,547.52
-89.46437368,46.23400907,546.73
-89.46434621,46.23400966,540.38
-89.46422791,46.23401221,542.45
-89.46419749,46.23401350,538.24
-89.46419689,46.23401747,539.50
-89.46419719,46.23402404,524.49
-89.46419949,46.23407547,546.44
-89.46420024,46.23409228,524.94
-89.46420052,46.23409840,539.26
-89.46420379,46.23417141,538.08
-89.46420491,46.23419641,542.07
-89.46420715,46.23424649,544.25
-89.46420716,46.23424676,544.48
-89.46420828,46.23427176,543.49
-89.46421087,46.23432966,544.00
-89.46421189,46.23435232,543.83
-89.46421552,46.23443343,544.15
-89.46421607,46.23444575,538.80
-89.46421697,46.23446571,543.36
-89.46421863,46.23450284,540.34
-89.46422159,46.23456893,525.97
-89.46422235,46.23458584,542.72
-89.46422251,46.23458952,544.91
-89.46422367,46.23461533,541.65
-89.46422465,46.23463718,542.08
-89.46422966,46.23474903,548.87
-89.46423087,46.23477610,543.52
-89.46423310,46.23482600,540.91
-89.46423371,46.23483958,545.45
-89.46423399,46.23484578,543.33
-89.46423555,46.23488067,541.17
-89.46423653,46.23490252,543.37
-89.46423847,46.23494577,540.66
-89.46423927,46.23496357,538.44
-89.46424174,46.23501887,542.09
-89.46424850,46.23516966,526.11
-89.46424945,46.23519106,546.33
-89.46425251,46.23525940,544.24
-89.46425458,46.23530553,542.05
-89.46425489,46.23531254,541.60
-89.46425705,46.23536073,544.37
-89.46425728,46.23536568,543.61
-89.46426022,46.23543150,541.59
-89.46426023,46.23543168,542.05
-89.46426240,46.23548005,540.70
-89.46426603,46.23556107,538.04
-89.46426628,46.23556682,538.32
-89.46428158,46.23590833,534.54
-89.46428201,46.23591804,532.34
-89.46428229,46.23592424,535.26
-89.46428763,46.23604347,532.12
-89.46428821,46.23605633,525.79
-89.46429406,46.23618698,520.91
-89.46429502,46.23620847,535.57
-89.46429612,46.23623301,538.83
-89.46429622,46.23623526,536.02
-89.46429783,46.23627114,521.33
-89.46429880,46.23629290,540.13
-89.46429904,46.23629820,541.57
-89.46430054,46.23633165,520.98
-89.46430135,46.23634981,534.30
-89.46430517,46.23643506,537.85
-89.46430543,46.23644072,540.77
-89.46430755,46.23648811,537.19
-89.46431218,46.23659160,535.39
-89.46431239,46.23659610,531.00
-89.46431512,46.23665706,539.75
-89.46431557,46.23666731,539.77
-89.46431714,46.23670220,538.03
-89.46432207,46.23681225,533.70
-89.46432412,46.23685802,536.73
-89.46432543,46.23688733,531.68
-89.46432653,46.23691179,526.66
-89.46432952,46.23697860,523.28
-89.46433051,46.23700081,534.69
-89.46433341,46.23706555,520.48
-89.46433837,46.23717615,514.80
-89.46434126,46.23724080,514.99
-89.46434538,46.23733278,514.79
-89.46435518,46.23754858,514.77
-89.46436692,46.23781365,529.17
-89.46436713,46.23781824,522.86
-89.46436757,46.23782813,517.94
-89.46436990,46.23788010,526.95
-89.46437243,46.23793666,526.80
-89.46437509,46.23799591,526.85
-89.46437520,46.23799843,524.16
-89.46437661,46.23802990,529.93
-89.46437682,46.23803458,531.25
-89.46437955,46.23809563,524.66
-89.46437968,46.23809851,534.15
-89.46437981,46.23810138,535.02
-89.46438006,46.23810696,530.91
-89.46438022,46.23811047,528.79
-89.46438327,46.23817853,529.92
-89.46438378,46.23818986,537.06
-89.46438780,46.23827969,535.39
-89.46439232,46.23838066,528.45
-89.46439520,46.23844486,534.93
-89.46440186,46.23859359,521.57
-89.46440237,46.23860501,533.51
-89.46440243,46.23860635,534.92
-89.46440282,46.23861508,535.03
-89.46440431,46.23864817,525.48
-89.46440528,46.23866984,528.05
-89.46440588,46.23868323,533.22
     </coordinates>
    </LineString>
   </MultiGeometry>
  </Placemark>
 </Document>
</kml>
