<kml>
 <Document>
  <Style id="yellow">
   <LineStyle>
   <color>ff00ffff</color>
   <width>1</width>
   </LineStyle>
  </Style>
  <Style id="red">
   <LineStyle>
   <color>ffff0000</color>
   <width>2</width>
   </LineStyle>
  </Style>
  <Style id="green">
   <LineStyle>
   <color>ff00ff00</color>
   <width>1</width>
   </LineStyle>
  </Style>
  <Placemark>
  <styleUrl>#yellow</styleUrl>
   <MultiGeometry>
    <LineString>
     <coordinates>
-89.49537372,46.24233639,516.10
-89.49557705,46.24233204,516.10
-89.49568992,46.24232957,516.10
-89.49631013,46.24231593,516.08
-89.49687746,46.24230335,516.08
-89.49703440,46.24230001,516.06
-89.49715583,46.24229745,516.05
-89.49775272,46.24228449,516.09
-89.49790732,46.24228111,516.08
-89.49803417,46.24227807,516.06
-89.49860697,46.24226582,516.15
-89.49919322,46.24225290,516.10
-89.49931698,46.24225020,516.07
-89.49969551,46.24224192,516.09
-89.49987862,46.24223791,516.11
-89.50041525,46.24222626,516.10
-89.50068648,46.24222032,516.08
-89.50087360,46.24221623,516.10
-89.50114069,46.24221038,516.08
-89.50119991,46.24220908,516.08
-89.50136474,46.24220548,516.09
-89.50179459,46.24219607,516.08
-89.50190966,46.24219354,516.05
-89.50232188,46.24218452,516.07
-89.50292663,46.24217028,516.12
-89.50341214,46.24215281,516.17
-89.50347504,46.24214954,516.06
-89.50347373,46.24209520,516.17
-89.50345615,46.24171740,516.07
-89.50345259,46.24163359,516.11
-89.50345116,46.24160212,516.09
-89.50344996,46.24158154,516.09
-89.50343987,46.24145098,516.04
-89.50342725,46.24107675,516.06
-89.50342253,46.24097020,529.99
-89.50342120,46.24094107,522.48
-89.50342086,46.24093361,534.55
-89.50342043,46.24092408,531.46
-89.50341946,46.24090286,537.51
-89.50341767,46.24086348,519.74
-89.50341057,46.24070748,540.78
-89.50340820,46.24065533,541.76
-89.50340787,46.24064804,542.46
-89.50340556,46.24059742,539.68
-89.50340171,46.24051281,538.95
-89.50340142,46.24050643,543.02
-89.50340090,46.24049492,542.27
-89.50340033,46.24048233,538.25
-89.50339792,46.24042937,540.63
-89.50339640,46.24039602,544.49
-89.50339633,46.24039449,524.47
-89.50339617,46.24039107,544.52
-89.50339018,46.24025935,543.14
-89.50338806,46.24021277,523.52
-89.50338596,46.24016674,535.22
-89.50338579,46.24016287,540.16
-89.50338222,46.24008456,534.63
-89.50338180,46.24007520,532.43
-89.50338116,46.24006118,540.51
-89.50338071,46.24005138,537.49
-89.50337997,46.24003492,537.24
-89.50337984,46.24003214,533.06
-89.50337917,46.24001748,536.83
-89.50337587,46.23994492,540.30
-89.50337423,46.23990895,540.99
-89.50337392,46.23990203,541.47
-89.50337174,46.23985420,536.16
-89.50336994,46.23981472,536.23
-89.50336803,46.23977274,535.63
-89.50336741,46.23975907,538.12
-89.50336445,46.23969406,535.94
-89.50336372,46.23967788,538.59
-89.50336211,46.23964263,538.91
-89.50336211,46.23964245,541.00
-89.50336042,46.23960550,521.35
-89.50335816,46.23955568,521.14
-89.50335812,46.23955478,524.01
-89.50335741,46.23953932,536.81
-89.50335611,46.23951082,534.80
-89.50335540,46.23949508,538.02
-89.50335294,46.23944113,528.01
-89.50335215,46.23942360,536.66
-89.50335155,46.23941056,534.90
-89.50335048,46.23938701,534.83
-89.50334800,46.23933252,535.52
-89.50334490,46.23926427,526.01
-89.50334429,46.23925106,527.00
-89.50334306,46.23922390,528.02
-89.50334284,46.23921905,528.42
-89.50334220,46.23920511,528.89
-89.50334177,46.23919558,536.73
-89.50334137,46.23918686,540.52
-89.50333930,46.23914127,533.54
-89.50333917,46.23913848,521.00
-89.50333827,46.23911861,530.06
-89.50333826,46.23911843,537.79
-89.50333791,46.23911070,522.74
-89.50333768,46.23910567,527.87
-89.50333609,46.23907078,532.02
-89.50333571,46.23906242,539.09
-89.50333518,46.23905082,539.68
-89.50333385,46.23902160,536.41
-89.50333384,46.23902133,538.60
-89.50333350,46.23901377,537.72
-89.50332646,46.23885912,536.22
-89.50332629,46.23885544,525.73
-89.50332601,46.23884932,535.30
-89.50332454,46.23881704,535.77
-89.50332398,46.23880464,532.03
-89.50332345,46.23879304,526.94
-89.50332179,46.23875644,530.67
-89.50332176,46.23875590,535.11
-89.50331995,46.23871607,520.74
-89.50331878,46.23869044,532.61
-89.50331634,46.23863668,517.99
-89.50331439,46.23859388,533.81
-89.50331393,46.23858390,525.08
-89.50331337,46.23857158,526.26
-89.50331324,46.23856870,517.68
-89.50331040,46.23850630,535.80
-89.50330949,46.23848625,533.61
-89.50330880,46.23847106,527.45
-89.50330470,46.23838096,537.39
-89.50330469,46.23838078,519.72
-89.50330362,46.23835713,535.66
-89.50330270,46.23833699,536.16
-89.50330141,46.23830867,534.09
-89.50329928,46.23826192,537.21
-89.50329091,46.23807786,531.57
-89.50328463,46.23793984,535.07
-89.50328435,46.23793364,536.26
-89.50328391,46.23792402,519.49
-89.50327845,46.23780399,519.45
-89.50327535,46.23773601,523.43
-89.50327495,46.23772720,519.38
-89.50327431,46.23771299,537.34
-89.50326928,46.23760258,521.18
-89.50326502,46.23750889,518.70
-89.50326283,46.23746088,521.41
-89.50326105,46.23742176,520.54
-89.50325686,46.23732960,518.59
-89.50325672,46.23732645,526.68
-89.50325510,46.23729094,525.59
-89.50325446,46.23727682,518.12
-89.50325327,46.23725066,524.99
-89.50325109,46.23720273,534.53
-89.50324990,46.23717657,523.78
-89.50324903,46.23715751,518.46
-89.50324882,46.23715283,518.48
-89.50324868,46.23714986,534.25
-89.50324763,46.23712667,531.79
-89.50324651,46.23710212,527.03
-89.50324493,46.23706741,529.20
-89.50324403,46.23704754,533.71
-89.50323898,46.23693659,524.75
-89.50323727,46.23689900,529.79
-89.50323608,46.23687293,518.50
-89.50323450,46.23683813,522.18
-89.50323336,46.23681314,522.53
-89.50322956,46.23672970,521.63
-89.50322396,46.23660661,519.48
-89.50322240,46.23657226,519.78
-89.50322085,46.23653818,517.25
-89.50321893,46.23649592,526.72
-89.50321622,46.23643640,516.10
-89.50321568,46.23642462,524.34
-89.50321568,46.23642444,526.47
-89.50321512,46.23641230,523.59
-89.50321295,46.23636465,516.05
-89.50321123,46.23632679,516.51
-89.50320893,46.23627608,521.59
-89.50320731,46.23624345,516.19
-89.50320429,46.23619419,515.90
-89.50317723,46.23587023,515.80
-89.50317818,46.23561163,515.83
-89.50315301,46.23520096,515.91
-89.50315194,46.23511197,515.87
-89.50312955,46.23488790,515.83
-89.50310013,46.23463735,515.77
-89.50283612,46.23424243,515.76
-89.50304201,46.23415809,515.78
-89.50305718,46.23415524,515.91
-89.50310613,46.23406218,515.98
-89.50310631,46.23406047,516.01
-89.50310706,46.23404560,515.96
-89.50310415,46.23397600,518.23
-89.50310010,46.23388402,515.22
-89.50309895,46.23385875,518.33
-89.50309776,46.23383277,516.19
-89.50309720,46.23382036,516.39
-89.50309580,46.23378952,512.19
-89.50308202,46.23348669,513.31
-89.50307793,46.23339678,517.36
-89.50307731,46.23338320,514.88
-89.50307703,46.23337690,514.66
-89.50307642,46.23336351,522.05
-89.50307136,46.23325237,522.92
-89.50306779,46.23317676,517.08
-89.50306744,46.23317182,520.96
-89.50306548,46.23316871,521.16
-89.50306326,46.23316849,523.85
-89.50306105,46.23316836,526.70
-89.50303941,46.23316865,519.96
-89.50300701,46.23316927,512.49
-89.50283598,46.23317302,529.16
-89.50282264,46.23317331,524.03
-89.50281525,46.23317347,528.97
-89.50258721,46.23317847,531.29
-89.50254796,46.23317933,515.45
-89.50246296,46.23318119,516.37
-89.50242215,46.23318208,512.26
-89.50238898,46.23318281,517.88
-89.50233391,46.23318401,521.36
-89.50231331,46.23318447,522.98
-89.50231201,46.23318449,517.21
-89.50229737,46.23318481,521.87
-89.50225371,46.23318577,515.11
-89.50223855,46.23318610,518.69
-89.50222002,46.23318651,516.19
-89.50215109,46.23318802,514.27
-89.50211805,46.23318874,513.23
-89.50208540,46.23318946,516.44
-89.50192811,46.23319290,512.65
-89.50182445,46.23319517,528.93
-89.50181979,46.23319527,524.61
-89.50157672,46.23320060,530.55
-89.50154135,46.23320137,512.44
-89.50144871,46.23320340,520.44
-89.50116664,46.23320957,525.67
-89.50111507,46.23321070,531.22
-89.50086488,46.23321618,532.66
-89.50083132,46.23321691,527.71
-89.50079634,46.23321768,526.18
-89.50069657,46.23321986,529.41
-89.50062207,46.23322149,521.49
-89.50058942,46.23322221,537.64
-89.50056895,46.23322266,525.48
-89.50055651,46.23322293,531.71
-89.50035322,46.23322738,540.80
-89.50028234,46.23322893,533.19
-89.50019359,46.23323087,525.94
-89.50016327,46.23323153,522.99
-89.50007542,46.23323346,539.38
-89.50004692,46.23323408,528.18
-89.49991424,46.23323698,521.30
-89.49987110,46.23323793,520.10
-89.49977029,46.23324013,519.96
-89.49957633,46.23324437,535.18
-89.49957231,46.23324446,536.87
-89.49956648,46.23324459,519.12
-89.49950611,46.23324591,519.15
-89.49950533,46.23324593,538.24
-89.49948563,46.23324636,528.57
-89.49948201,46.23324644,530.54
-89.49947397,46.23324661,533.99
-89.49945778,46.23324697,519.23
-89.49938574,46.23324854,521.13
-89.49936799,46.23324893,534.32
-89.49932640,46.23324984,529.00
-89.49919462,46.23325272,519.32
-89.49918115,46.23325302,519.05
-89.49905080,46.23325587,530.81
-89.49899859,46.23325701,530.41
-89.49889856,46.23325920,527.09
-89.49888962,46.23325940,530.10
-89.49886267,46.23325999,532.21
-89.49874347,46.23326259,519.83
-89.49871224,46.23326328,523.99
-89.49871186,46.23326328,520.42
-89.49866690,46.23326427,520.54
-89.49860393,46.23326564,531.26
-89.49847397,46.23326849,520.45
-89.49840906,46.23326991,521.56
-89.49830722,46.23327213,520.43
-89.49829957,46.23327230,519.68
-89.49829361,46.23327243,522.28
-89.49826705,46.23327301,521.56
-89.49824140,46.23327357,521.34
-89.49823090,46.23327380,533.99
-89.49808203,46.23327706,527.04
-89.49807788,46.23327715,518.21
-89.49804601,46.23327784,525.06
-89.49804549,46.23327785,523.03
-89.49804458,46.23327787,521.01
-89.49801245,46.23327858,526.45
-89.49795531,46.23327983,521.58
-89.49793004,46.23328038,520.80
-89.49792888,46.23328040,516.60
-89.49782289,46.23328272,518.66
-89.49779413,46.23328335,518.14
-89.49774995,46.23328432,518.46
-89.49757283,46.23328819,514.79
-89.49757270,46.23328819,514.76
-89.49751439,46.23328947,514.76
-89.49712621,46.23329795,514.83
-89.49705391,46.23329953,514.86
-89.49682975,46.23330443,514.78
-89.49675694,46.23330602,514.74
-89.49667790,46.23330775,514.73
-89.49654471,46.23331066,514.75
-89.49590128,46.23332489,514.70
-89.49554677,46.23333246,523.22
-89.49545828,46.23333439,515.76
-89.49517232,46.23334064,519.78
-89.49517219,46.23334064,520.86
-89.49500207,46.23334435,533.17
-89.49500194,46.23334436,531.69
-89.49454184,46.23335440,530.61
-89.49449805,46.23335536,516.99
-89.49449753,46.23335537,516.13
-89.49445970,46.23335620,525.82
-89.49445879,46.23335622,524.19
-89.49437301,46.23335809,522.63
-89.49432326,46.23335918,521.24
-89.49402512,46.23336568,512.40
-89.49380369,46.23337052,512.42
-89.49377285,46.23337119,514.37
-89.49372906,46.23337215,512.58
-89.49370988,46.23337256,512.54
-89.49360338,46.23337489,512.46
-89.49355492,46.23337595,515.56
-89.49355440,46.23337596,515.66
-89.49351657,46.23337678,519.28
-89.49329630,46.23338159,512.75
-89.49325950,46.23338239,512.63
-89.49308666,46.23338616,516.87
-89.49302680,46.23338747,512.43
-89.49292897,46.23338961,512.37
-89.49287391,46.23339081,512.40
-89.49271506,46.23339427,512.38
-89.49266880,46.23339528,516.73
-89.49265921,46.23339549,512.47
-89.49265209,46.23339565,519.16
-89.49254571,46.23339797,516.55
-89.49249661,46.23339904,513.81
-89.49249596,46.23339905,521.86
-89.49243933,46.23340029,525.02
-89.49243325,46.23340042,529.43
-89.49237779,46.23340163,528.17
-89.49223656,46.23340471,515.87
-89.49211593,46.23340734,524.63
-89.49208484,46.23340802,536.03
-89.49208199,46.23340808,521.43
-89.49203340,46.23340914,515.37
-89.49200463,46.23340977,537.45
-89.49195747,46.23341080,532.52
-89.49185330,46.23341307,529.31
-89.49182194,46.23341375,531.07
-89.49182168,46.23341376,528.87
-89.49170235,46.23341636,523.23
-89.49169367,46.23341655,527.03
-89.49157511,46.23341914,531.78
-89.49151849,46.23342037,531.00
-89.49145902,46.23342167,528.54
-89.49126052,46.23342600,514.47
-89.49121867,46.23342691,513.66
-89.49117164,46.23342793,513.25
-89.49090421,46.23343376,513.18
-89.49073939,46.23343736,521.84
-89.49061954,46.23343997,530.49
-89.49054945,46.23344150,516.65
-89.49054141,46.23344167,516.72
-89.49043296,46.23344404,519.06
-89.49043219,46.23344405,520.11
-89.49039630,46.23344484,515.99
-89.49039578,46.23344485,516.77
-89.49019313,46.23344926,518.36
-89.49013548,46.23345070,520.84
-89.49011702,46.23345254,522.65
-89.49011122,46.23345330,521.97
-89.49011120,46.23345861,517.46
-89.49011132,46.23346140,526.52
-89.49011252,46.23348792,528.33
-89.49012159,46.23368825,511.79
-89.49012693,46.23380631,531.84
-89.49013002,46.23387456,511.48
-89.49013056,46.23388642,511.60
-89.49013312,46.23394298,521.25
-89.49013615,46.23400988,512.92
-89.49013727,46.23403478,510.60
-89.49014094,46.23411571,511.70
-89.49014258,46.23415212,528.10
-89.49014402,46.23418395,526.56
-89.49014597,46.23422702,529.11
-89.49015147,46.23434841,515.76
-89.49015302,46.23438266,525.51
-89.49015423,46.23440937,528.50
-89.49015848,46.23450333,529.84
-89.49015978,46.23453219,527.76
-89.49016592,46.23466778,528.73
-89.49016932,46.23474286,531.81
-89.49017076,46.23477469,520.68
-89.49018395,46.23506610,520.68
-89.49018448,46.23507788,530.27
-89.49018648,46.23512212,531.86
-89.49019164,46.23523595,537.59
-89.49019402,46.23528864,520.81
-89.49019875,46.23539303,536.76
-89.49020086,46.23543970,533.23
-89.49020138,46.23545121,524.70
-89.49020435,46.23551694,541.16
-89.49020531,46.23553798,542.14
-89.49020629,46.23555965,542.16
-89.49021067,46.23565657,537.83
-89.49021721,46.23580098,536.18
-89.49022358,46.23594160,531.17
-89.49022794,46.23603808,537.64
-89.49023119,46.23610974,533.86
-89.49023470,46.23618743,531.57
-89.49024318,46.23637472,521.73
-89.49025379,46.23660913,541.08
-89.49026179,46.23678581,537.25
-89.49027361,46.23704692,542.12
-89.49027476,46.23707237,538.20
-89.49027742,46.23713108,523.07
-89.49027831,46.23715086,534.84
-89.49027991,46.23718620,534.44
-89.49028158,46.23722298,533.00
-89.49028698,46.23734229,531.27
-89.49028995,46.23740802,542.61
-89.49029151,46.23744246,541.81
-89.49029350,46.23748651,535.98
-89.49029673,46.23755782,536.17
-89.49029711,46.23756618,539.70
-89.49030090,46.23764980,535.14
-89.49030147,46.23766239,537.96
-89.49030325,46.23770186,523.80
-89.49031074,46.23786730,533.34
-89.49031263,46.23790902,534.04
-89.49031394,46.23793798,525.35
-89.49031466,46.23795398,530.57
-89.49032345,46.23814802,518.96
-89.49033211,46.23833935,532.85
-89.49033848,46.23848007,520.60
-89.49034007,46.23851523,533.79
-89.49034281,46.23857583,535.77
-89.49034397,46.23860137,530.22
-89.49034450,46.23861305,529.73
-89.49034468,46.23861710,534.97
-89.49034593,46.23864470,533.27
-89.49034718,46.23867222,531.92
-89.49034909,46.23871439,531.76
-89.49035492,46.23884315,533.06
-89.49036066,46.23897001,524.25
-89.49036570,46.23908133,517.35
-89.49038104,46.23942013,523.25
-89.49038322,46.23946832,536.21
-89.49038939,46.23960472,536.38
-89.49039002,46.23961857,537.10
-89.49039099,46.23963997,537.93
-89.49039148,46.23965094,537.17
-89.49039436,46.23971451,539.95
-89.49040538,46.23995782,529.17
-89.49041577,46.24018737,530.65
-89.49042168,46.24031801,525.02
-89.49042391,46.24036711,531.85
-89.49042496,46.24039049,536.17
-89.49042889,46.24047707,529.17
-89.49042962,46.24049335,530.62
-89.49042982,46.24049766,530.50
-89.49043025,46.24050710,526.70
-89.49043106,46.24052509,529.09
-89.49043346,46.24057805,529.03
-89.49043488,46.24060952,524.48
-89.49043500,46.24061212,532.72
-89.49043841,46.24068756,517.74
-89.49044058,46.24073549,526.40
-89.49044077,46.24073953,517.95
-89.49044191,46.24076480,527.69
-89.49044628,46.24086128,526.91
-89.49045023,46.24094849,523.74
-89.49045101,46.24096576,529.52
-89.49045179,46.24098293,520.33
-89.49046212,46.24121104,516.07
-89.49046871,46.24135383,516.09
-89.49048401,46.24168893,516.11
-89.49049045,46.24183685,516.11
-89.49049278,46.24188828,516.09
-89.49051185,46.24230944,516.07
-89.49051367,46.24234693,516.07
-89.49051609,46.24239467,516.08
-89.49051851,46.24243377,516.10
-89.49053004,46.24244198,516.12
-89.49087048,46.24243474,516.10
-89.49095925,46.24243280,516.07
-89.49125225,46.24242641,516.11
-89.49153281,46.24242012,516.12
-89.49208938,46.24240771,516.05
-89.49247621,46.24239927,516.06
-89.49293161,46.24238978,516.10
-89.49300871,46.24238810,516.06
-89.49352565,46.24237682,516.10
-89.49395614,46.24236734,516.10
-89.49428854,46.24236017,516.10
-89.49482232,46.24234843,516.11
-89.49537372,46.24233639,516.10
     </coordinates>
    </LineString>
   </MultiGeometry>
  </Placemark>
 </Document>
</kml>
