<kml>
 <Document>
  <Style id="yellow">
   <LineStyle>
   <color>ff00ffff</color>
   <width>1</width>
   </LineStyle>
  </Style>
  <Style id="red">
   <LineStyle>
   <color>ffff0000</color>
   <width>2</width>
   </LineStyle>
  </Style>
  <Style id="green">
   <LineStyle>
   <color>ff00ff00</color>
   <width>1</width>
   </LineStyle>
  </Style>
  <Placemark>
  <styleUrl>#yellow</styleUrl>
   <MultiGeometry>
    <LineString>
     <coordinates>
-89.48264546,46.22461309,540.28
-89.48267837,46.22461237,534.11
-89.48272371,46.22461139,531.69
-89.48334800,46.22459782,542.83
-89.48341485,46.22459637,538.54
-89.48345346,46.22459553,544.67
-89.48362498,46.22459180,520.77
-89.48362912,46.22459171,532.96
-89.48366423,46.22459095,533.67
-89.48370465,46.22459007,533.12
-89.48383381,46.22458726,530.75
-89.48393305,46.22458510,533.86
-89.48400987,46.22458343,534.23
-89.48410573,46.22458135,511.19
-89.48412840,46.22458086,533.61
-89.48421870,46.22457889,526.17
-89.48428399,46.22457747,535.06
-89.48431923,46.22457671,535.95
-89.48434138,46.22457623,516.66
-89.48434384,46.22457617,531.60
-89.48460799,46.22457043,536.21
-89.48463390,46.22456986,531.87
-89.48469686,46.22456850,535.19
-89.48477420,46.22456681,528.58
-89.48493523,46.22456331,531.23
-89.48509678,46.22455980,526.52
-89.48512554,46.22455917,528.32
-89.48525068,46.22455645,530.70
-89.48546794,46.22455172,531.58
-89.48551678,46.22455066,510.30
-89.48571861,46.22454627,530.82
-89.48576110,46.22454535,526.73
-89.48579608,46.22454459,510.35
-89.48586125,46.22454317,515.31
-89.48593884,46.22454148,528.36
-89.48597836,46.22454062,529.16
-89.48599300,46.22454030,527.84
-89.48599636,46.22454023,511.88
-89.48603484,46.22453939,527.65
-89.48608420,46.22453832,530.57
-89.48611529,46.22453764,521.95
-89.48617151,46.22453642,527.55
-89.48618045,46.22453622,526.14
-89.48630184,46.22453358,524.50
-89.48631104,46.22453338,523.13
-89.48636493,46.22453221,523.92
-89.48638216,46.22453183,512.29
-89.48638708,46.22453173,528.36
-89.48649901,46.22452929,511.53
-89.48652764,46.22452867,522.55
-89.48657609,46.22452761,529.93
-89.48658192,46.22452749,510.19
-89.48661120,46.22452685,527.32
-89.48667857,46.22452538,525.17
-89.48670655,46.22452477,525.59
-89.48675876,46.22452364,510.47
-89.48681006,46.22452252,529.87
-89.48688209,46.22452095,525.36
-89.48690812,46.22452039,525.98
-89.48695010,46.22451947,531.79
-89.48702511,46.22451784,525.24
-89.48702899,46.22451776,527.12
-89.48706941,46.22451688,528.65
-89.48717564,46.22451456,526.00
-89.48724236,46.22451311,524.97
-89.48725596,46.22451281,522.84
-89.48726671,46.22451258,529.39
-89.48734924,46.22451078,523.78
-89.48735830,46.22451059,522.72
-89.48762440,46.22450479,507.92
-89.48765549,46.22450412,521.40
-89.48773153,46.22450246,518.28
-89.48776664,46.22450170,521.16
-89.48782273,46.22450048,520.50
-89.48787235,46.22449939,520.50
-89.48791938,46.22449837,524.53
-89.48795189,46.22449766,519.56
-89.48795539,46.22449759,521.62
-89.48799192,46.22449679,515.56
-89.48801926,46.22449620,519.87
-89.48803014,46.22449596,516.36
-89.48806033,46.22449530,518.87
-89.48816953,46.22449292,517.66
-89.48821216,46.22449199,517.14
-89.48832072,46.22448963,523.75
-89.48843783,46.22448708,518.71
-89.48852281,46.22448523,518.62
-89.48862528,46.22448300,507.91
-89.48874512,46.22448039,518.82
-89.48878942,46.22447942,518.85
-89.48892091,46.22447656,510.69
-89.48898996,46.22447505,520.21
-89.48905215,46.22447370,509.36
-89.48934842,46.22446724,508.20
-89.48957915,46.22446222,518.38
-89.48960156,46.22446173,514.28
-89.48966219,46.22446041,517.38
-89.48968550,46.22445981,513.31
-89.48970026,46.22445940,518.77
-89.48970298,46.22445637,515.09
-89.48970207,46.22442768,519.11
-89.48968529,46.22404814,516.08
-89.48968525,46.22404724,517.47
-89.48968520,46.22404616,519.23
-89.48968483,46.22403798,518.81
-89.48968306,46.22399886,507.39
-89.48967561,46.22383414,507.46
-89.48967399,46.22379827,511.43
-89.48966946,46.22369819,509.36
-89.48966631,46.22362842,513.29
-89.48966467,46.22359218,516.63
-89.48966315,46.22355855,516.85
-89.48966313,46.22355810,517.50
-89.48965913,46.22346972,512.76
-89.48965560,46.22339176,506.72
-89.48965506,46.22337980,507.18
-89.48965305,46.22333538,517.74
-89.48964453,46.22314701,509.40
-89.48964393,46.22313370,512.42
-89.48963618,46.22296233,518.99
-89.48963312,46.22289462,518.63
-89.48963151,46.22285919,522.72
-89.48962994,46.22282440,525.87
-89.48962888,46.22280102,524.79
-89.48962871,46.22279715,524.89
-89.48962542,46.22272450,525.63
-89.48962344,46.22268062,525.97
-89.48961977,46.22259952,525.47
-89.48961774,46.22255474,524.16
-89.48961557,46.22250673,524.64
-89.48961336,46.22245772,520.74
-89.48961294,46.22244846,522.48
-89.48961271,46.22244334,523.28
-89.48961211,46.22243012,522.46
-89.48961065,46.22239784,524.34
-89.48960702,46.22231755,504.67
-89.48960552,46.22228446,510.30
-89.48959619,46.22207819,505.04
-89.48959511,46.22205437,506.34
-89.48959131,46.22197039,504.61
-89.48959109,46.22196553,504.73
-89.48958773,46.22189108,504.95
-89.48958732,46.22188209,505.00
-89.48956724,46.22143800,504.00
-89.48956127,46.22130610,504.02
-89.48954903,46.22103545,504.63
-89.48954303,46.22090283,504.76
-89.48953979,46.22083125,518.20
-89.48953333,46.22068829,506.87
-89.48952994,46.22061330,506.28
-89.48952030,46.22040011,512.50
-89.48951268,46.22023179,512.24
-89.48950819,46.22013253,509.72
-89.48950177,46.21999037,504.52
-89.48948744,46.21967369,504.59
-89.48948108,46.21953297,504.69
-89.48947995,46.21950789,504.99
-89.48947509,46.21940053,504.42
-89.48946337,46.21914130,511.31
-89.48945924,46.21904995,508.76
-89.48945869,46.21903781,508.93
-89.48945467,46.21894898,502.93
-89.48945060,46.21885897,504.37
-89.48945004,46.21884665,504.27
-89.48944850,46.21881240,504.30
-89.48943981,46.21862025,504.34
-89.48943920,46.21860676,505.53
-89.48943906,46.21860379,505.36
-89.48943835,46.21858806,504.45
-89.48943771,46.21857394,504.38
-89.48943742,46.21856756,504.37
-89.48942988,46.21840068,504.05
-89.48942595,46.21831967,504.08
-89.48940624,46.21787791,504.16
-89.48939920,46.21772227,504.48
-89.48939892,46.21771606,504.41
-89.48939753,46.21768540,504.42
-89.48938438,46.21739444,505.12
-89.48937794,46.21725210,518.89
-89.48937524,46.21719249,527.63
-89.48937422,46.21716992,525.03
-89.48936985,46.21707326,516.11
-89.48936955,46.21706661,516.05
-89.48936674,46.21700448,525.89
-89.48936242,46.21690881,524.90
-89.48935840,46.21681988,521.61
-89.48935771,46.21680478,527.70
-89.48935253,46.21669022,519.66
-89.48935236,46.21668636,520.89
-89.48935158,46.21666909,513.69
-89.48935100,46.21665633,506.88
-89.48934648,46.21655634,515.54
-89.48934443,46.21651093,518.28
-89.48933783,46.21636509,520.86
-89.48933527,46.21630835,526.02
-89.48933311,46.21626061,509.59
-89.48932977,46.21618670,529.89
-89.48932886,46.21616656,531.41
-89.48932601,46.21610371,533.42
-89.48932517,46.21608501,530.16
-89.48932488,46.21607862,532.92
-89.48931356,46.21582821,522.71
-89.48931188,46.21579098,523.88
-89.48931165,46.21578595,517.78
-89.48930887,46.21572454,517.58
-89.48930653,46.21567266,512.60
-89.48930589,46.21565863,514.05
-89.48929788,46.21548150,508.28
-89.48929598,46.21547101,506.53
-89.48929093,46.21546833,509.51
-89.48917695,46.21547072,504.84
-89.48916373,46.21547101,509.84
-89.48911464,46.21547208,512.14
-89.48897165,46.21547519,517.12
-89.48896103,46.21547542,518.33
-89.48893305,46.21547603,521.68
-89.48891763,46.21547637,516.78
-89.48888616,46.21547706,513.00
-89.48877153,46.21547955,507.74
-89.48868008,46.21548154,525.82
-89.48862995,46.21548264,512.14
-89.48849045,46.21548567,521.01
-89.48833515,46.21548906,507.74
-89.48827130,46.21549045,526.60
-89.48817596,46.21549252,525.80
-89.48811042,46.21549395,525.44
-89.48805835,46.21549509,520.13
-89.48793478,46.21549778,521.98
-89.48792947,46.21549789,522.56
-89.48791199,46.21549827,504.52
-89.48758208,46.21550546,504.08
-89.48757690,46.21550557,504.67
-89.48752949,46.21550660,506.81
-89.48751162,46.21550699,504.17
-89.48742717,46.21550883,504.03
-89.48692577,46.21551974,504.20
-89.48667060,46.21552530,504.40
-89.48606972,46.21553837,504.15
-89.48605548,46.21553868,505.68
-89.48592919,46.21554143,504.31
-89.48588631,46.21554236,508.77
-89.48587984,46.21554251,508.04
-89.48563982,46.21554773,511.36
-89.48530266,46.21555506,524.66
-89.48515915,46.21555818,524.33
-89.48515630,46.21555825,521.46
-89.48505242,46.21556050,526.65
-89.48481603,46.21556565,531.99
-89.48469415,46.21556830,533.76
-89.48461967,46.21556992,531.97
-89.48458262,46.21557072,533.72
-89.48441553,46.21557436,531.49
-89.48437952,46.21557514,528.04
-89.48435349,46.21557570,532.27
-89.48424287,46.21557811,530.00
-89.48420751,46.21557888,526.88
-89.48419767,46.21557909,528.69
-89.48418342,46.21557940,527.39
-89.48413795,46.21558039,526.72
-89.48402008,46.21558295,516.52
-89.48400260,46.21558333,519.97
-89.48398693,46.21558367,522.05
-89.48388887,46.21558581,521.43
-89.48384859,46.21558668,523.80
-89.48382657,46.21558716,519.16
-89.48381815,46.21558734,523.83
-89.48378603,46.21558804,519.72
-89.48375624,46.21558869,519.60
-89.48370196,46.21558987,524.36
-89.48345211,46.21559530,517.37
-89.48344952,46.21559536,512.63
-89.48341519,46.21559610,524.23
-89.48341415,46.21559613,522.51
-89.48335367,46.21559744,528.33
-89.48328009,46.21559904,530.01
-89.48321106,46.21560054,524.94
-89.48320341,46.21560071,528.00
-89.48317194,46.21560139,535.51
-89.48312039,46.21560251,527.36
-89.48307311,46.21560354,524.45
-89.48305938,46.21560384,533.63
-89.48303736,46.21560432,528.41
-89.48297298,46.21560571,528.70
-89.48283089,46.21560880,527.25
-89.48280732,46.21560931,529.62
-89.48273996,46.21561078,511.20
-89.48272934,46.21561101,532.15
-89.48272844,46.21561103,512.81
-89.48268932,46.21561188,529.73
-89.48263647,46.21561303,529.14
-89.48263634,46.21561303,524.49
-89.48262183,46.21561334,523.35
-89.48254697,46.21561497,525.95
-89.48251044,46.21561577,526.24
-89.48249438,46.21561611,527.01
-89.48240241,46.21561811,526.07
-89.48227043,46.21562098,530.57
-89.48209517,46.21562479,528.25
-89.48203961,46.21562599,509.95
-89.48200852,46.21562667,528.96
-89.48200450,46.21562676,510.25
-89.48195723,46.21562778,523.88
-89.48183910,46.21563035,528.38
-89.48182718,46.21563061,528.91
-89.48162628,46.21563497,519.69
-89.48160595,46.21563541,511.48
-89.48160180,46.21563550,520.47
-89.48157344,46.21563612,520.03
-89.48149922,46.21563773,524.90
-89.48148018,46.21563815,521.32
-89.48136515,46.21564064,524.94
-89.48135674,46.21564083,512.89
-89.48119975,46.21564424,520.68
-89.48118705,46.21564451,514.97
-89.48116063,46.21564509,519.19
-89.48109703,46.21564647,506.81
-89.48101336,46.21564828,522.45
-89.48100481,46.21564847,507.49
-89.48100028,46.21564857,507.18
-89.48097139,46.21564920,506.80
-89.48096142,46.21564941,518.27
-89.48094769,46.21564971,510.13
-89.48089937,46.21565076,517.64
-89.48089808,46.21565079,517.57
-89.48089329,46.21565089,509.01
-89.48083111,46.21565224,513.34
-89.48078435,46.21565326,518.11
-89.48075534,46.21565389,519.19
-89.48066467,46.21565586,506.79
-89.48065353,46.21565610,516.97
-89.48058630,46.21565756,511.61
-89.48054252,46.21565851,516.91
-89.48046001,46.21566030,516.50
-89.48045950,46.21566031,506.66
-89.48045574,46.21566039,509.34
-89.48042802,46.21566099,521.41
-89.48041623,46.21566125,511.57
-89.48041442,46.21566129,512.95
-89.48041053,46.21566137,522.19
-89.48040173,46.21566156,506.67
-89.48037491,46.21566215,524.98
-89.48036287,46.21566241,521.11
-89.48036183,46.21566243,525.28
-89.48033398,46.21566303,521.92
-89.48025756,46.21566469,520.77
-89.48017298,46.21566653,524.03
-89.48014254,46.21566719,528.68
-89.47996172,46.21567112,525.41
-89.47992804,46.21567185,529.52
-89.47991703,46.21567209,529.11
-89.47985939,46.21567334,531.18
-89.47978427,46.21567497,531.41
-89.47977598,46.21567515,529.59
-89.47975409,46.21567562,524.62
-89.47973984,46.21567593,532.28
-89.47973777,46.21567598,533.38
-89.47971743,46.21567642,511.87
-89.47969554,46.21567689,536.84
-89.47954399,46.21568018,531.89
-89.47931058,46.21568525,537.84
-89.47920800,46.21568747,529.98
-89.47882420,46.21569580,539.60
-89.47862965,46.21570002,539.28
-89.47856579,46.21570141,518.34
-89.47844054,46.21570412,533.93
-89.47843264,46.21570429,519.04
-89.47825493,46.21570815,542.38
-89.47816322,46.21571014,531.64
-89.47796530,46.21571443,518.92
-89.47791608,46.21571550,517.64
-89.47754407,46.21572357,527.74
-89.47753708,46.21572372,514.46
-89.47751325,46.21572423,535.14
-89.47744473,46.21572572,529.26
-89.47741403,46.21572639,529.55
-89.47740678,46.21572654,513.64
-89.47737038,46.21572733,528.95
-89.47714241,46.21573228,531.82
-89.47709306,46.21573335,531.89
-89.47709124,46.21573338,528.71
-89.47708295,46.21573356,510.34
-89.47704461,46.21573440,530.32
-89.47672986,46.21574122,511.37
-89.47666639,46.21574269,504.47
-89.47663234,46.21574378,504.04
-89.47644460,46.21575523,503.92
-89.47634764,46.21581044,503.94
-89.47637467,46.21614628,503.95
-89.47638201,46.21633243,504.03
-89.47639690,46.21672686,503.97
-89.47639971,46.21695946,503.94
-89.47641895,46.21713635,503.98
-89.47649920,46.21733811,503.93
-89.47652307,46.21775629,503.98
-89.47643891,46.21780222,504.02
-89.47644035,46.21787446,503.89
-89.47645377,46.21817280,503.93
-89.47647173,46.21856923,504.66
-89.47648174,46.21879745,503.94
-89.47649464,46.21908419,507.11
-89.47649705,46.21913787,504.68
-89.47650008,46.21920512,514.99
-89.47650153,46.21923749,507.85
-89.47650197,46.21924711,504.92
-89.47650224,46.21925323,508.36
-89.47650374,46.21928659,506.56
-89.47650649,46.21934773,504.71
-89.47650763,46.21937309,515.30
-89.47651077,46.21944286,513.58
-89.47651665,46.21957342,506.11
-89.47651767,46.21959608,510.21
-89.47652138,46.21967871,510.28
-89.47652559,46.21977222,505.30
-89.47652696,46.21980261,516.75
-89.47652728,46.21980990,506.10
-89.47652907,46.21984964,513.52
-89.47652938,46.21985656,506.51
-89.47653444,46.21996905,505.03
-89.47653647,46.22001401,515.37
-89.47653952,46.22008189,523.16
-89.47653979,46.22008783,517.37
-89.47654158,46.22012766,505.41
-89.47654250,46.22014807,516.34
-89.47654255,46.22014924,516.42
-89.47654566,46.22021838,510.93
-89.47654803,46.22027099,517.74
-89.47654834,46.22027800,515.87
-89.47654967,46.22030758,517.45
-89.47655029,46.22032134,521.02
-89.47655065,46.22032934,505.24
-89.47655308,46.22038329,511.18
-89.47655435,46.22041143,515.42
-89.47655834,46.22050027,515.20
-89.47655876,46.22050962,515.84
-89.47656453,46.22063775,515.78
-89.47656959,46.22075033,517.74
-89.47656962,46.22075087,506.65
-89.47657117,46.22078539,518.40
-89.47657686,46.22091191,515.60
-89.47657689,46.22091254,517.52
-89.47657744,46.22092467,515.56
-89.47657980,46.22097718,513.98
-89.47658001,46.22098186,516.60
-89.47658392,46.22106881,515.60
-89.47658551,46.22110406,513.90
-89.47658993,46.22120233,518.52
-89.47659042,46.22121321,517.11
-89.47659081,46.22122184,513.41
-89.47659237,46.22125664,520.31
-89.47659285,46.22126725,517.26
-89.47659643,46.22134692,518.92
-89.47659838,46.22139017,507.98
-89.47659963,46.22141804,508.64
-89.47659983,46.22142236,514.90
-89.47660067,46.22144106,512.30
-89.47660073,46.22144241,516.09
-89.47660079,46.22144367,516.05
-89.47660147,46.22145877,516.50
-89.47660460,46.22152846,517.25
-89.47660506,46.22153871,517.37
-89.47660553,46.22154905,508.39
-89.47660899,46.22162602,519.13
-89.47661088,46.22166801,512.60
-89.47661215,46.22169633,506.33
-89.47661288,46.22171252,518.16
-89.47661305,46.22171611,506.48
-89.47661534,46.22176718,518.92
-89.47662112,46.22189549,507.08
-89.47662188,46.22191258,511.02
-89.47662262,46.22192894,514.63
-89.47662294,46.22193605,521.49
-89.47662311,46.22193973,520.51
-89.47662366,46.22195205,520.39
-89.47662435,46.22196743,513.89
-89.47662474,46.22197597,506.52
-89.47662513,46.22198478,513.23
-89.47662529,46.22198820,511.76
-89.47662913,46.22207371,521.67
-89.47663058,46.22210581,518.13
-89.47663242,46.22214681,519.20
-89.47663562,46.22221793,520.72
-89.47663730,46.22225525,524.55
-89.47663753,46.22226037,522.12
-89.47663837,46.22227907,516.26
-89.47663998,46.22231477,517.34
-89.47664024,46.22232044,520.14
-89.47664039,46.22232394,520.39
-89.47664226,46.22236539,524.57
-89.47664320,46.22238643,523.33
-89.47664323,46.22238706,526.78
-89.47664427,46.22241008,526.06
-89.47664452,46.22241575,508.50
-89.47664506,46.22242771,525.55
-89.47664689,46.22246844,509.89
-89.47664810,46.22249523,528.82
-89.47664999,46.22253713,529.78
-89.47665083,46.22255601,533.41
-89.47665149,46.22257049,529.65
-89.47665656,46.22268325,535.09
-89.47665679,46.22268846,535.11
-89.47666059,46.22277280,535.60
-89.47666402,46.22284896,539.10
-89.47666477,46.22286568,533.63
-89.47666733,46.22292269,526.09
-89.47666844,46.22294724,541.57
-89.47667363,46.22306260,543.25
-89.47667523,46.22309830,539.07
-89.47668049,46.22321510,539.70
-89.47668324,46.22327615,541.42
-89.47668969,46.22341948,537.65
-89.47669189,46.22346857,543.06
-89.47669607,46.22356127,542.90
-89.47669611,46.22356217,543.26
-89.47669661,46.22357341,547.07
-89.47669663,46.22357377,539.04
-89.47669718,46.22358600,546.49
-89.47669815,46.22360767,539.91
-89.47670301,46.22371557,531.55
-89.47670406,46.22373895,541.51
-89.47670717,46.22380809,536.68
-89.47670760,46.22381753,543.48
-89.47670888,46.22384595,545.69
-89.47671104,46.22389414,532.24
-89.47671144,46.22390304,543.52
-89.47671149,46.22390403,540.34
-89.47671193,46.22391392,542.81
-89.47671231,46.22392228,524.47
-89.47671345,46.22394764,524.81
-89.47671504,46.22398298,540.21
-89.47671807,46.22405032,537.00
-89.47671865,46.22406309,542.57
-89.47672065,46.22410760,532.59
-89.47672272,46.22415355,541.16
-89.47672289,46.22415741,541.42
-89.47672343,46.22416946,540.18
-89.47672427,46.22418816,543.59
-89.47672488,46.22420165,541.63
-89.47672582,46.22422251,524.58
-89.47672791,46.22426891,538.70
-89.47672807,46.22427242,541.20
-89.47673602,46.22444910,534.92
-89.47673617,46.22445261,543.58
-89.47673715,46.22447428,541.91
-89.47673881,46.22451114,544.04
-89.47673977,46.22453245,540.82
-89.47674075,46.22455439,539.04
-89.47674419,46.22463064,538.34
-89.47674495,46.22464772,537.11
-89.47674797,46.22471471,537.71
-89.47674822,46.22472029,533.10
-89.47674955,46.22473556,537.25
-89.47675001,46.22473996,535.87
-89.47676013,46.22474001,545.43
-89.47681419,46.22473965,544.70
-89.47688039,46.22473821,540.58
-89.47700696,46.22473547,543.25
-89.47700942,46.22473541,542.63
-89.47701214,46.22473535,541.92
-89.47705709,46.22473438,523.85
-89.47710127,46.22473342,543.51
-89.47713625,46.22473266,539.01
-89.47718457,46.22473162,540.21
-89.47719001,46.22473150,531.01
-89.47722059,46.22473084,536.88
-89.47723898,46.22473044,538.65
-89.47724092,46.22473040,535.35
-89.47730984,46.22472890,542.61
-89.47733394,46.22472838,523.90
-89.47741284,46.22472667,538.36
-89.47746569,46.22472552,534.28
-89.47758255,46.22472299,537.57
-89.47763605,46.22472183,540.38
-89.47769759,46.22472049,538.64
-89.47784320,46.22471734,534.37
-89.47784514,46.22471729,529.05
-89.47790033,46.22471610,533.45
-89.47790227,46.22471605,527.68
-89.47792650,46.22471553,531.36
-89.47798532,46.22471425,532.99
-89.47803817,46.22471311,523.11
-89.47809725,46.22471183,536.56
-89.47828898,46.22470767,541.30
-89.47832396,46.22470691,541.29
-89.47832409,46.22470691,542.10
-89.47837552,46.22470579,543.66
-89.47837565,46.22470579,544.35
-89.47840752,46.22470510,539.28
-89.47846491,46.22470385,534.60
-89.47859653,46.22470100,539.62
-89.47859666,46.22470099,538.05
-89.47873968,46.22469789,542.32
-89.47893427,46.22469367,537.01
-89.47938523,46.22468388,537.39
-89.47938652,46.22468386,543.09
-89.47950713,46.22468124,538.93
-89.47953861,46.22468055,541.87
-89.47965080,46.22467812,529.57
-89.47965340,46.22467806,537.95
-89.47972167,46.22467658,545.31
-89.47993426,46.22467197,544.99
-89.47994320,46.22467177,539.90
-89.47998867,46.22467079,538.62
-89.48002235,46.22467006,540.00
-89.48002922,46.22466991,546.36
-89.48005500,46.22466935,545.94
-89.48005603,46.22466932,532.58
-89.48006199,46.22466920,544.41
-89.48012094,46.22466792,542.07
-89.48018545,46.22466652,527.99
-89.48027795,46.22466451,532.69
-89.48028378,46.22466438,546.93
-89.48030257,46.22466397,546.12
-89.48044157,46.22466096,526.72
-89.48048108,46.22466010,548.71
-89.48050777,46.22465952,550.06
-89.48062087,46.22465706,550.38
-89.48068357,46.22465570,548.79
-89.48072231,46.22465486,546.55
-89.48073617,46.22465456,549.98
-89.48077322,46.22465376,549.04
-89.48078177,46.22465357,546.00
-89.48079654,46.22465325,542.93
-89.48083592,46.22465239,547.41
-89.48083890,46.22465233,547.06
-89.48100226,46.22464878,545.36
-89.48102804,46.22464822,547.33
-89.48106056,46.22464752,551.84
-89.48106522,46.22464741,551.03
-89.48109774,46.22464671,551.42
-89.48128584,46.22464262,549.57
-89.48131214,46.22464205,546.32
-89.48135710,46.22464108,550.23
-89.48136344,46.22464094,550.70
-89.48140477,46.22464004,546.79
-89.48142990,46.22463949,548.16
-89.48150491,46.22463787,547.88
-89.48150906,46.22463778,547.06
-89.48151696,46.22463760,547.24
-89.48152512,46.22463743,543.86
-89.48162772,46.22463520,546.38
-89.48164158,46.22463490,546.01
-89.48166529,46.22463438,547.52
-89.48169522,46.22463373,536.85
-89.48171919,46.22463321,543.81
-89.48174756,46.22463260,546.52
-89.48178241,46.22463184,546.09
-89.48178409,46.22463180,545.66
-89.48181492,46.22463113,543.97
-89.48194175,46.22462838,544.78
-89.48194680,46.22462827,544.11
-89.48195406,46.22462811,523.50
-89.48205290,46.22462596,542.12
-89.48212143,46.22462447,535.88
-89.48217429,46.22462333,525.57
-89.48225332,46.22462161,541.94
-89.48233830,46.22461976,525.56
-89.48241603,46.22461807,537.30
-89.48241616,46.22461807,540.61
-89.48242549,46.22461787,538.90
-89.48244803,46.22461738,541.82
-89.48247808,46.22461673,527.21
-89.48250943,46.22461604,542.41
-89.48251876,46.22461584,540.59
-89.48259740,46.22461413,537.22
-89.48264546,46.22461309,540.28
     </coordinates>
    </LineString>
   </MultiGeometry>
  </Placemark>
 </Document>
</kml>
