<kml>
 <Document>
  <Style id="yellow">
   <LineStyle>
   <color>ff00ffff</color>
   <width>1</width>
   </LineStyle>
  </Style>
  <Style id="red">
   <LineStyle>
   <color>ffff0000</color>
   <width>2</width>
   </LineStyle>
  </Style>
  <Style id="green">
   <LineStyle>
   <color>ff00ff00</color>
   <width>1</width>
   </LineStyle>
  </Style>
  <Placemark>
  <styleUrl>#yellow</styleUrl>
   <MultiGeometry>
    <LineString>
     <coordinates>
-89.45745641,46.23415797,528.85
-89.45771465,46.23415241,534.02
-89.45806968,46.23414477,535.86
-89.45811996,46.23414369,517.98
-89.45815831,46.23414287,532.75
-89.45821584,46.23414163,536.01
-89.45822336,46.23414147,534.63
-89.45825355,46.23414082,529.42
-89.45844091,46.23413679,522.24
-89.45850829,46.23413534,522.61
-89.45864382,46.23413242,523.83
-89.45877301,46.23412964,543.46
-89.45879387,46.23412919,535.51
-89.45879465,46.23412917,540.78
-89.45884000,46.23412820,544.46
-89.45892979,46.23412627,524.40
-89.45901985,46.23412433,537.33
-89.45909915,46.23412262,538.12
-89.45910381,46.23412252,537.53
-89.45917702,46.23412095,536.26
-89.45943643,46.23411536,539.45
-89.45945327,46.23411500,537.79
-89.45946597,46.23411473,534.71
-89.45951184,46.23411374,521.24
-89.45953361,46.23411327,535.02
-89.45966836,46.23411037,534.68
-89.45974922,46.23410863,535.87
-89.45977137,46.23410815,532.42
-89.45981582,46.23410720,525.51
-89.45981646,46.23410718,532.07
-89.45984199,46.23410663,533.63
-89.46001484,46.23410291,521.45
-89.46002715,46.23410265,540.22
-89.46017720,46.23409942,530.79
-89.46019858,46.23409895,532.50
-89.46052432,46.23409194,521.50
-89.46052471,46.23409193,525.58
-89.46055970,46.23409118,521.17
-89.46059637,46.23409039,539.00
-89.46063394,46.23408958,537.58
-89.46064858,46.23408926,535.67
-89.46069679,46.23408823,539.95
-89.46072322,46.23408766,539.16
-89.46074317,46.23408723,527.17
-89.46082999,46.23408536,534.82
-89.46089762,46.23408390,535.46
-89.46101800,46.23408131,529.57
-89.46103108,46.23408103,537.39
-89.46113474,46.23407879,541.75
-89.46114913,46.23407848,542.39
-89.46120199,46.23407734,542.62
-89.46120951,46.23407718,539.29
-89.46126328,46.23407602,541.87
-89.46134906,46.23407418,541.01
-89.46136759,46.23407378,543.64
-89.46151439,46.23407061,539.59
-89.46154536,46.23406995,531.06
-89.46165213,46.23406765,538.00
-89.46170940,46.23406641,539.68
-89.46173376,46.23406589,542.55
-89.46181332,46.23406417,537.68
-89.46185698,46.23406323,535.33
-89.46205251,46.23405902,530.86
-89.46212092,46.23405755,531.87
-89.46221331,46.23405556,529.52
-89.46251535,46.23404905,535.85
-89.46287258,46.23404135,528.94
-89.46295667,46.23403953,529.44
-89.46358730,46.23402594,541.74
-89.46360207,46.23402562,542.78
-89.46360687,46.23402552,540.67
-89.46362721,46.23402508,541.46
-89.46363369,46.23402494,524.30
-89.46363460,46.23402492,540.46
-89.46364626,46.23402467,542.87
-89.46383621,46.23402057,543.52
-89.46388506,46.23401952,525.73
-89.46410222,46.23401484,537.59
-89.46410987,46.23401467,543.45
-89.46413643,46.23401410,544.15
-89.46414459,46.23401392,542.93
-89.46419578,46.23401282,536.03
-89.46419638,46.23400893,524.37
-89.46419386,46.23395256,540.95
-89.46419348,46.23394419,544.68
-89.46419262,46.23392486,547.14
-89.46419196,46.23391030,547.74
-89.46419178,46.23390616,548.83
-89.46419075,46.23388332,538.04
-89.46418857,46.23383459,538.54
-89.46418751,46.23381085,543.98
-89.46418643,46.23378675,544.87
-89.46418481,46.23375051,542.60
-89.46418444,46.23374224,545.43
-89.46418390,46.23373019,526.83
-89.46418182,46.23368380,544.72
-89.46418154,46.23367750,542.33
-89.46418067,46.23365817,544.97
-89.46418022,46.23364819,543.17
-89.46417938,46.23362940,544.42
-89.46417913,46.23362382,541.85
-89.46417902,46.23362140,537.91
-89.46417828,46.23360485,544.71
-89.46417795,46.23359748,535.27
-89.46417756,46.23358866,523.82
-89.46417642,46.23356331,537.72
-89.46417631,46.23356070,545.78
-89.46417619,46.23355818,537.01
-89.46417441,46.23351844,540.14
-89.46417371,46.23350271,539.81
-89.46417329,46.23349335,538.66
-89.46417172,46.23345829,541.44
-89.46417116,46.23344588,542.96
-89.46417034,46.23342745,542.06
-89.46416955,46.23340973,542.05
-89.46416946,46.23340793,538.50
-89.46416738,46.23336136,534.41
-89.46416691,46.23335093,538.27
-89.46416662,46.23334436,534.83
-89.46416575,46.23332503,537.84
-89.46415852,46.23316354,537.18
-89.46415738,46.23313818,544.90
-89.46415727,46.23313558,547.89
-89.46415353,46.23305213,547.34
-89.46414773,46.23292256,554.08
-89.46414549,46.23287266,551.13
-89.46414487,46.23285872,552.41
-89.46414417,46.23284317,551.89
-89.46414036,46.23275802,547.88
-89.46412866,46.23249681,529.46
-89.46412806,46.23248332,536.57
-89.46412781,46.23247784,536.78
-89.46412383,46.23238882,531.67
-89.46412308,46.23237210,529.90
-89.46412261,46.23236176,529.93
-89.46411982,46.23229944,530.54
-89.46410875,46.23205217,528.97
-89.46410230,46.23191092,529.00
-89.46409609,46.23179261,528.94
-89.46408101,46.23143274,531.82
-89.46407974,46.23140442,539.92
-89.46407835,46.23137321,541.36
-89.46407746,46.23135334,542.87
-89.46407701,46.23134345,542.42
-89.46407575,46.23131531,540.13
-89.46407316,46.23125749,542.89
-89.46407073,46.23120309,540.69
-89.46406857,46.23115481,544.44
-89.46406732,46.23112702,548.99
-89.46406472,46.23106885,550.65
-89.46406349,46.23104142,547.35
-89.46406289,46.23102811,546.97
-89.46405816,46.23092237,546.95
-89.46405575,46.23087436,529.09
-89.46404796,46.23072657,528.97
-89.46404462,46.23070396,528.94
-89.46402878,46.23026616,528.87
-89.46402433,46.23016690,534.41
-89.46401912,46.23005054,539.88
-89.46401910,46.23005018,541.69
-89.46401813,46.23002851,538.75
-89.46401642,46.22999012,542.02
-89.46401593,46.22997933,542.73
-89.46401105,46.22987035,546.80
-89.46400928,46.22983079,543.52
-89.46400443,46.22972235,551.00
-89.46400299,46.22969034,545.88
-89.46399980,46.22961912,547.43
-89.46399920,46.22960573,548.48
-89.46399360,46.22948065,544.28
-89.46398959,46.22939101,543.06
-89.46398785,46.22935216,544.51
-89.46398638,46.22931925,544.98
-89.46398535,46.22929632,544.33
-89.46398471,46.22928203,545.25
-89.46397975,46.22917134,540.95
-89.46397436,46.22905076,541.34
-89.46397422,46.22904779,541.06
-89.46397302,46.22902100,543.03
-89.46397289,46.22901794,541.82
-89.46397097,46.22897505,545.15
-89.46397075,46.22897020,537.11
-89.46396894,46.22892982,546.82
-89.46396693,46.22888496,547.36
-89.46396622,46.22886895,547.57
-89.46396510,46.22884413,528.96
-89.46396368,46.22881221,549.57
-89.46396341,46.22880628,548.38
-89.46395900,46.22870773,548.85
-89.46395843,46.22869505,545.70
-89.46395834,46.22869316,549.21
-89.46395055,46.22851900,547.59
-89.46394908,46.22848627,546.69
-89.46394767,46.22845471,551.02
-89.46394366,46.22836515,548.47
-89.46393810,46.22824106,548.95
-89.46393786,46.22823558,549.13
-89.46393001,46.22806033,549.35
-89.46392627,46.22797671,541.58
-89.46392506,46.22794964,550.97
-89.46392186,46.22787834,549.81
-89.46392083,46.22785523,548.33
-89.46391964,46.22782862,528.49
-89.46391628,46.22775372,546.28
-89.46391575,46.22774185,548.49
-89.46391397,46.22770201,545.82
-89.46391312,46.22768313,546.51
-89.46391120,46.22764006,545.24
-89.46390949,46.22760203,544.65
-89.46390408,46.22748118,543.95
-89.46390339,46.22746571,545.69
-89.46390334,46.22746463,544.56
-89.46390050,46.22740124,546.81
-89.46389466,46.22727078,538.78
-89.46388887,46.22714139,546.66
-89.46388798,46.22712160,548.67
-89.46388741,46.22710866,545.66
-89.46388639,46.22708600,544.61
-89.46388160,46.22697900,548.33
-89.46388132,46.22697279,548.13
-89.46388094,46.22696416,550.48
-89.46388084,46.22696200,548.41
-89.46387976,46.22693799,548.72
-89.46387743,46.22688584,547.83
-89.46387108,46.22674404,543.84
-89.46387107,46.22674377,543.82
-89.46386940,46.22670646,547.45
-89.46386482,46.22660413,543.74
-89.46386476,46.22660288,550.36
-89.46386105,46.22651997,544.94
-89.46386095,46.22651781,548.47
-89.46386058,46.22650954,548.37
-89.46385911,46.22647663,551.76
-89.46385670,46.22642268,550.95
-89.46385633,46.22641459,552.07
-89.46385585,46.22640371,551.13
-89.46385545,46.22639490,552.19
-89.46385402,46.22636289,550.75
-89.46385039,46.22628187,537.60
-89.46384992,46.22627144,547.81
-89.46384529,46.22616795,549.89
-89.46384487,46.22615842,550.06
-89.46384375,46.22613342,530.01
-89.46383854,46.22601716,550.04
-89.46383532,46.22594523,553.76
-89.46383399,46.22591546,553.30
-89.46383312,46.22589595,544.60
-89.46383162,46.22586259,550.86
-89.46382958,46.22581691,552.23
-89.46382934,46.22581161,542.42
-89.46382765,46.22577384,531.33
-89.46382566,46.22572934,550.02
-89.46382434,46.22569984,551.97
-89.46382266,46.22566235,546.55
-89.46382197,46.22564697,550.32
-89.46382048,46.22561361,544.69
-89.46381742,46.22554537,548.82
-89.46381324,46.22545185,528.98
-89.46381260,46.22543756,547.74
-89.46380968,46.22537255,541.12
-89.46380859,46.22534809,545.40
-89.46380657,46.22530295,526.94
-89.46380563,46.22528191,542.47
-89.46380487,46.22526492,539.12
-89.46380015,46.22515953,535.44
-89.46379922,46.22513885,529.27
-89.46379597,46.22506899,535.10
-89.46379487,46.22505020,527.60
-89.46379346,46.22502755,529.68
-89.46379223,46.22502605,531.43
-89.46378776,46.22502174,531.91
-89.46372323,46.22502286,516.85
-89.46365754,46.22502418,533.82
-89.46358862,46.22502567,530.80
-89.46352022,46.22502715,534.71
-89.46351801,46.22502719,535.38
-89.46349923,46.22502760,536.48
-89.46346477,46.22502834,533.45
-89.46337045,46.22503037,539.34
-89.46331254,46.22503162,535.33
-89.46322290,46.22503356,533.82
-89.46316356,46.22503484,531.07
-89.46302805,46.22503776,539.78
-89.46301743,46.22503799,534.37
-89.46274563,46.22504384,518.48
-89.46263978,46.22504613,537.80
-89.46262592,46.22504642,532.81
-89.46248704,46.22504942,516.12
-89.46223921,46.22505476,532.12
-89.46211782,46.22505737,532.38
-89.46206017,46.22505862,536.22
-89.46191248,46.22506180,532.94
-89.46179912,46.22506424,534.47
-89.46179329,46.22506437,534.90
-89.46176583,46.22506496,515.98
-89.46169069,46.22506658,515.99
-89.46157836,46.22506900,528.30
-89.46137639,46.22507335,536.78
-89.46131602,46.22507465,534.21
-89.46126381,46.22507577,518.83
-89.46117481,46.22507769,537.48
-89.46104085,46.22508058,536.36
-89.46101196,46.22508120,539.64
-89.46070985,46.22508771,545.58
-89.46068394,46.22508826,526.98
-89.46067966,46.22508836,544.58
-89.46066878,46.22508859,545.33
-89.46056462,46.22509083,540.92
-89.46056449,46.22509084,527.98
-89.46045618,46.22509317,542.69
-89.46042172,46.22509391,546.76
-89.46036239,46.22509519,548.28
-89.46035565,46.22509533,548.90
-89.46033674,46.22509574,548.21
-89.46030707,46.22509638,544.82
-89.46027598,46.22509705,527.43
-89.46020978,46.22509847,544.97
-89.46017156,46.22509930,547.20
-89.46016663,46.22509940,541.84
-89.46000677,46.22510285,542.80
-89.45998345,46.22510335,542.00
-89.45998241,46.22510337,541.98
-89.45989185,46.22510532,535.74
-89.45989121,46.22510533,542.85
-89.45988797,46.22510540,543.89
-89.45981620,46.22510695,544.36
-89.45980441,46.22510720,524.13
-89.45978860,46.22510754,542.76
-89.45976774,46.22510799,539.01
-89.45965387,46.22511044,541.37
-89.45962096,46.22511115,544.45
-89.45960347,46.22511153,539.75
-89.45953274,46.22511305,544.77
-89.45947146,46.22511437,540.88
-89.45946524,46.22511450,545.29
-89.45944503,46.22511494,546.68
-89.45940020,46.22511590,545.74
-89.45937883,46.22511636,540.44
-89.45937701,46.22511640,527.08
-89.45930161,46.22511803,547.61
-89.45929112,46.22511825,527.26
-89.45927363,46.22511863,548.79
-89.45924474,46.22511925,542.80
-89.45921753,46.22511984,546.76
-89.45921585,46.22511987,547.47
-89.45919473,46.22512033,546.22
-89.45911156,46.22512212,546.62
-89.45907192,46.22512297,536.56
-89.45903513,46.22512376,544.24
-89.45897475,46.22512506,546.04
-89.45894820,46.22512563,546.56
-89.45893550,46.22512591,545.90
-89.45888420,46.22512701,547.53
-89.45885207,46.22512770,547.48
-89.45878807,46.22512908,541.46
-89.45874765,46.22512995,546.12
-89.45873210,46.22513028,547.89
-89.45869116,46.22513116,546.43
-89.45867704,46.22513147,546.24
-89.45866901,46.22513164,544.95
-89.45849878,46.22513530,548.46
-89.45849709,46.22513534,545.38
-89.45849619,46.22513536,537.89
-89.45842895,46.22513681,540.56
-89.45841794,46.22513704,534.69
-89.45839358,46.22513757,543.12
-89.45835873,46.22513832,545.51
-89.45833878,46.22513875,526.27
-89.45825172,46.22514062,544.17
-89.45822801,46.22514113,534.02
-89.45822102,46.22514128,542.88
-89.45811180,46.22514363,543.25
-89.45808136,46.22514428,541.72
-89.45787317,46.22514876,544.81
-89.45783974,46.22514948,546.33
-89.45783029,46.22514969,540.88
-89.45779634,46.22515042,543.25
-89.45773481,46.22515174,535.74
-89.45771110,46.22515225,543.58
-89.45767210,46.22515309,545.30
-89.45766278,46.22515329,538.44
-89.45741404,46.22515864,544.66
-89.45735703,46.22515987,536.02
-89.45732296,46.22516060,546.92
-89.45722087,46.22516279,544.61
-89.45715623,46.22516418,528.02
-89.45714353,46.22516446,542.24
-89.45710596,46.22516526,543.71
-89.45694998,46.22516862,537.72
-89.45693003,46.22516905,538.13
-89.45662014,46.22517571,541.72
-89.45659889,46.22517617,540.15
-89.45658373,46.22517649,537.33
-89.45645729,46.22517921,538.60
-89.45639057,46.22518065,541.50
-89.45628356,46.22518295,529.43
-89.45626879,46.22518327,533.73
-89.45614286,46.22518597,528.77
-89.45607420,46.22518745,528.92
-89.45598261,46.22518942,547.36
-89.45597108,46.22518966,542.92
-89.45591705,46.22519083,548.76
-89.45585616,46.22519213,544.80
-89.45584347,46.22519241,546.15
-89.45583466,46.22519260,546.95
-89.45579372,46.22519348,546.61
-89.45576910,46.22519401,549.33
-89.45573231,46.22519480,548.96
-89.45573102,46.22519482,543.70
-89.45572959,46.22519486,548.91
-89.45571340,46.22519520,548.51
-89.45566572,46.22519623,544.94
-89.45562401,46.22519712,546.30
-89.45561144,46.22519739,534.11
-89.45559278,46.22519780,546.06
-89.45558138,46.22519804,542.38
-89.45557737,46.22519813,543.56
-89.45554731,46.22519877,544.14
-89.45540623,46.22520180,541.29
-89.45534935,46.22520303,548.15
-89.45533083,46.22520343,546.87
-89.45521786,46.22520585,528.34
-89.45521034,46.22520601,547.22
-89.45512341,46.22520788,546.19
-89.45507898,46.22520884,541.31
-89.45505488,46.22520935,547.76
-89.45501135,46.22521029,550.16
-89.45500293,46.22521047,546.35
-89.45499541,46.22521063,548.39
-89.45493142,46.22521201,538.98
-89.45488750,46.22521295,550.99
-89.45482194,46.22521436,551.05
-89.45479590,46.22521492,544.25
-89.45479474,46.22521494,528.75
-89.45476377,46.22521561,545.61
-89.45474888,46.22521593,549.55
-89.45474615,46.22521599,549.70
-89.45466557,46.22521772,543.96
-89.45465521,46.22521794,541.99
-89.45465016,46.22521805,547.90
-89.45461764,46.22521875,543.46
-89.45461751,46.22521875,547.70
-89.45459095,46.22521932,541.93
-89.45458719,46.22521940,542.92
-89.45457929,46.22521957,544.87
-89.45455921,46.22522000,543.42
-89.45450842,46.22522110,538.66
-89.45449651,46.22522135,541.84
-89.45445466,46.22522225,539.13
-89.45444559,46.22522245,540.23
-89.45434299,46.22522465,540.47
-89.45422406,46.22522720,533.38
-89.45420877,46.22522753,538.07
-89.45417988,46.22522815,537.23
-89.45412093,46.22522942,536.76
-89.45400692,46.22523187,537.40
-89.45397246,46.22523261,541.29
-89.45389940,46.22523418,545.19
-89.45389253,46.22523432,546.97
-89.45387128,46.22523478,541.48
-89.45386338,46.22523495,542.36
-89.45385522,46.22523513,527.02
-89.45383825,46.22523549,527.09
-89.45380728,46.22523616,542.02
-89.45373551,46.22523770,539.62
-89.45373162,46.22523778,540.44
-89.45361930,46.22524019,545.18
-89.45354170,46.22524186,541.79
-89.45350050,46.22524274,536.32
-89.45341966,46.22524448,547.24
-89.45337017,46.22524554,534.60
-89.45335411,46.22524589,547.70
-89.45324010,46.22524833,546.28
-89.45315835,46.22525009,547.84
-89.45313607,46.22525057,548.34
-89.45311625,46.22525099,544.49
-89.45311288,46.22525107,545.34
-89.45307906,46.22525179,546.13
-89.45300185,46.22525345,544.88
-89.45289199,46.22525581,543.29
-89.45276153,46.22525861,544.60
-89.45273057,46.22525927,543.08
-89.45213371,46.22527208,531.16
-89.45209472,46.22527292,542.24
-89.45187914,46.22527755,522.59
-89.45179169,46.22527942,525.79
-89.45171746,46.22528102,526.14
-89.45166706,46.22528210,524.98
-89.45165773,46.22528230,518.42
-89.45136909,46.22528849,530.75
-89.45122140,46.22529166,523.90
-89.45109703,46.22529433,532.08
-89.45103303,46.22529570,523.87
-89.45101062,46.22529618,526.80
-89.45091553,46.22529831,530.33
-89.45084456,46.22530055,522.97
-89.45084216,46.22530493,518.40
-89.45084097,46.22531314,518.27
-89.45084011,46.22532585,528.49
-89.45084178,46.22536614,524.69
-89.45084991,46.22554876,527.55
-89.45085233,46.22560307,526.52
-89.45085341,46.22562744,532.87
-89.45085719,46.22571232,519.12
-89.45085922,46.22575791,533.27
-89.45086051,46.22578677,530.01
-89.45086503,46.22588820,533.94
-89.45086702,46.22593307,536.15
-89.45087032,46.22600707,541.72
-89.45087160,46.22603575,540.56
-89.45087844,46.22618933,532.56
-89.45087868,46.22619473,538.47
-89.45088704,46.22638247,519.24
-89.45088823,46.22640927,539.34
-89.45088875,46.22642087,519.43
-89.45089020,46.22645360,519.45
-89.45089176,46.22648849,541.83
-89.45089593,46.22658209,539.02
-89.45089712,46.22660898,542.39
-89.45089816,46.22663226,535.09
-89.45089832,46.22663577,539.44
-89.45089860,46.22664215,540.55
-89.45089894,46.22664980,537.49
-89.45090125,46.22670168,544.70
-89.45090284,46.22673729,545.33
-89.45090626,46.22681408,543.49
-89.45091155,46.22693286,545.89
-89.45091157,46.22693349,539.97
-89.45092126,46.22715100,549.29
-89.45092365,46.22720468,547.20
-89.45092652,46.22726906,548.79
-89.45092709,46.22728192,548.62
-89.45093060,46.22736068,526.81
-89.45093267,46.22740726,549.72
-89.45093557,46.22747227,549.10
-89.45093959,46.22756264,550.26
-89.45094821,46.22775614,544.09
-89.45095189,46.22783869,549.42
-89.45095596,46.22793013,551.75
-89.45095773,46.22796988,527.94
-89.45095902,46.22799892,550.80
-89.45096135,46.22805116,527.66
-89.45096386,46.22810745,527.52
-89.45096793,46.22819889,538.58
-89.45097173,46.22828432,547.10
-89.45097365,46.22832739,546.96
-89.45097521,46.22836245,545.79
-89.45098353,46.22854912,546.04
-89.45098497,46.22858167,544.50
-89.45098779,46.22864479,547.10
-89.45099357,46.22877464,547.79
-89.45099378,46.22877940,546.99
-89.45099838,46.22888263,548.75
-89.45099876,46.22889117,548.25
-89.45099897,46.22889584,548.49
-89.45100405,46.22901004,552.81
-89.45100556,46.22904385,548.11
-89.45100714,46.22907928,553.30
-89.45100894,46.22911983,553.56
-89.45102464,46.22947221,553.89
-89.45102706,46.22952670,551.51
-89.45103993,46.22981552,548.92
-89.45105709,46.23020072,543.03
-89.45106006,46.23026762,546.39
-89.45106613,46.23040385,541.19
-89.45106740,46.23043226,543.93
-89.45107271,46.23055149,546.07
-89.45107366,46.23057280,538.39
-89.45107554,46.23061497,543.20
-89.45107706,46.23064923,542.55
-89.45109161,46.23097581,516.71
-89.45110678,46.23131642,513.01
-89.45112676,46.23176493,513.00
-89.45113319,46.23190933,512.99
-89.45113382,46.23192345,512.99
-89.45114250,46.23211830,513.00
-89.45114731,46.23222620,513.00
-89.45116190,46.23255377,512.98
-89.45116295,46.23257742,512.99
-89.45116948,46.23272407,512.98
-89.45117823,46.23292045,513.04
-89.45118267,46.23302008,513.12
-89.45118925,46.23316791,513.00
-89.45119758,46.23335475,512.99
-89.45120032,46.23341635,525.27
-89.45120258,46.23346697,525.26
-89.45120644,46.23355356,525.64
-89.45122290,46.23392321,513.00
-89.45122812,46.23404037,523.12
-89.45122885,46.23405674,525.00
-89.45122887,46.23405719,524.12
-89.45123671,46.23422740,516.81
-89.45123957,46.23428287,513.47
-89.45124211,46.23428749,513.32
-89.45124425,46.23428889,521.70
-89.45127313,46.23429070,513.22
-89.45139635,46.23428814,518.54
-89.45141618,46.23428772,525.45
-89.45143963,46.23428721,522.42
-89.45167546,46.23428215,513.63
-89.45174932,46.23428057,514.61
-89.45182291,46.23427899,513.73
-89.45191919,46.23427692,513.73
-89.45215799,46.23427180,513.36
-89.45223729,46.23427010,513.28
-89.45244073,46.23426573,518.40
-89.45260373,46.23426223,519.28
-89.45267331,46.23426074,513.50
-89.45268083,46.23426058,525.22
-89.45270972,46.23425996,516.55
-89.45278552,46.23425833,525.87
-89.45279226,46.23425819,526.25
-89.45279278,46.23425817,525.07
-89.45283567,46.23425725,529.24
-89.45289385,46.23425600,522.39
-89.45291289,46.23425560,529.86
-89.45292676,46.23425530,529.84
-89.45295643,46.23425466,525.89
-89.45308847,46.23425183,527.93
-89.45318513,46.23424975,524.98
-89.45324759,46.23424841,528.74
-89.45326093,46.23424812,528.52
-89.45332974,46.23424665,520.24
-89.45334282,46.23424637,529.89
-89.45335241,46.23424616,527.21
-89.45339089,46.23424533,516.54
-89.45342160,46.23424467,522.73
-89.45349974,46.23424300,513.52
-89.45350816,46.23424282,515.45
-89.45354120,46.23424211,513.41
-89.45380657,46.23423641,517.40
-89.45392422,46.23423388,513.33
-89.45401389,46.23423195,513.28
-89.45434806,46.23422478,513.29
-89.45448567,46.23422182,513.28
-89.45465606,46.23421816,513.51
-89.45472318,46.23421672,513.24
-89.45479418,46.23421519,513.28
-89.45491469,46.23421260,513.21
-89.45496781,46.23421146,513.23
-89.45514002,46.23420776,513.31
-89.45514857,46.23420758,513.38
-89.45521025,46.23420625,513.20
-89.45553936,46.23419918,513.24
-89.45563473,46.23419713,513.22
-89.45570405,46.23419564,513.24
-89.45578465,46.23419391,513.55
-89.45632860,46.23418222,518.16
-89.45646880,46.23417920,517.65
-89.45650236,46.23417848,523.61
-89.45675840,46.23417298,525.93
-89.45681049,46.23417186,515.58
-89.45708078,46.23416604,531.13
-89.45745641,46.23415797,528.85
     </coordinates>
    </LineString>
   </MultiGeometry>
  </Placemark>
 </Document>
</kml>
