<kml>
 <Document>
  <Style id="yellow">
   <LineStyle>
   <color>ff00ffff</color>
   <width>1</width>
   </LineStyle>
  </Style>
  <Style id="red">
   <LineStyle>
   <color>ffff0000</color>
   <width>2</width>
   </LineStyle>
  </Style>
  <Style id="green">
   <LineStyle>
   <color>ff00ff00</color>
   <width>1</width>
   </LineStyle>
  </Style>
  <Placemark>
  <styleUrl>#yellow</styleUrl>
   <MultiGeometry>
    <LineString>
     <coordinates>
-81.98314091,29.70046936,27.34
-81.98338867,29.70046752,27.34
-81.98362686,29.70046573,27.35
-81.98401617,29.70046268,27.33
-81.98437768,29.70046005,27.36
-81.98472276,29.70045760,27.35
-81.98501460,29.70045544,27.97
-81.98534053,29.70045291,27.49
-81.98564358,29.70045069,27.44
-81.98584018,29.70044929,27.42
-81.98629815,29.70044585,27.41
-81.98677378,29.70044231,27.44
-81.98696320,29.70044093,28.15
-81.98712308,29.70043971,27.42
-81.98760223,29.70043614,27.62
-81.98795434,29.70043353,48.23
-81.98820868,29.70043164,48.74
-81.98836941,29.70043043,38.88
-81.98880757,29.70042716,28.74
-81.98921647,29.70042411,30.46
-81.98940196,29.70042269,35.01
-81.98990735,29.70041891,28.60
-81.99016504,29.70041702,39.62
-81.99044599,29.70041493,43.39
-81.99074924,29.70041264,37.23
-81.99116674,29.70040953,41.55
-81.99155855,29.70040661,39.77
-81.99163430,29.70040604,45.25
-81.99185380,29.70040439,33.38
-81.99235636,29.70040063,46.35
-81.99236484,29.70040032,46.52
-81.99236538,29.70039908,43.96
-81.99236470,29.70032260,40.73
-81.99236195,29.70004308,42.58
-81.99235827,29.69966973,38.96
-81.99235411,29.69924658,40.29
-81.99235257,29.69908844,38.53
-81.99235000,29.69882888,34.29
-81.99234614,29.69843645,35.94
-81.99234443,29.69826278,45.50
-81.99234142,29.69795484,44.03
-81.99233893,29.69770241,37.45
-81.99233689,29.69749468,38.11
-81.99233627,29.69743248,38.28
-81.99233190,29.69698590,38.11
-81.99233136,29.69693066,37.92
-81.99232991,29.69679308,51.31
-81.99232622,29.69641006,41.91
-81.99232534,29.69631843,34.69
-81.99232453,29.69623598,34.52
-81.99232440,29.69622283,34.49
-81.99232030,29.69580673,44.42
-81.99231611,29.69537952,50.89
-81.99231530,29.69529649,53.54
-81.99231330,29.69509907,45.77
-81.99231041,29.69479978,45.82
-81.99230931,29.69468709,45.28
-81.99230547,29.69430036,43.47
-81.99230422,29.69417029,50.81
-81.99230315,29.69406201,42.57
-81.99230264,29.69400982,48.90
-81.99229894,29.69363666,42.67
-81.99229774,29.69351379,43.00
-81.99229358,29.69309130,42.81
-81.99229149,29.69287602,42.24
-81.99228972,29.69269416,60.22
-81.99228867,29.69258729,42.13
-81.99228845,29.69256471,42.16
-81.99228744,29.69246160,42.22
-81.99228596,29.69231261,42.33
-81.99228366,29.69207949,42.51
-81.99228125,29.69183190,58.00
-81.99227795,29.69149569,44.21
-81.99227698,29.69141090,54.54
-81.99227567,29.69138422,44.70
-81.99227350,29.69137998,44.73
-81.99226649,29.69137754,44.64
-81.99226562,29.69137730,44.65
-81.99225348,29.69137719,44.58
-81.99219909,29.69137752,44.41
-81.99214917,29.69137786,57.40
-81.99209843,29.69137824,44.04
-81.99185357,29.69138007,54.12
-81.99160437,29.69138196,43.71
-81.99122390,29.69138484,62.22
-81.99084707,29.69138772,44.90
-81.99065508,29.69138910,44.92
-81.99050438,29.69139020,44.93
-81.99025930,29.69139224,45.41
-81.98987221,29.69139496,46.58
-81.98942602,29.69139823,54.74
-81.98934993,29.69139880,55.04
-81.98907140,29.69140088,46.31
-81.98860411,29.69140436,54.34
-81.98818904,29.69140746,44.99
-81.98801655,29.69140875,45.07
-81.98795056,29.69140924,56.06
-81.98795054,29.69140924,53.92
-81.98744824,29.69141299,43.91
-81.98732721,29.69141391,43.63
-81.98687141,29.69141729,59.47
-81.98664478,29.69141901,43.75
-81.98644326,29.69142053,44.34
-81.98610085,29.69142303,57.88
-81.98586960,29.69142475,44.81
-81.98566058,29.69142633,44.66
-81.98530689,29.69142895,59.08
-81.98483715,29.69143242,55.97
-81.98462704,29.69143398,42.35
-81.98450364,29.69143490,41.90
-81.98439223,29.69143573,48.57
-81.98399262,29.69143870,50.95
-81.98397594,29.69143882,52.11
-81.98390867,29.69143932,54.76
-81.98385275,29.69143974,54.84
-81.98362343,29.69144144,40.05
-81.98315474,29.69144493,38.05
-81.98267224,29.69144855,35.88
-81.98260954,29.69144900,44.46
-81.98245227,29.69145016,33.52
-81.98222495,29.69145183,32.10
-81.98211380,29.69145267,32.35
-81.98206400,29.69145308,32.65
-81.98195036,29.69145435,32.82
-81.98194639,29.69145533,32.82
-81.98194237,29.69145633,32.80
-81.98194266,29.69151446,32.93
-81.98194294,29.69155606,33.10
-81.98194462,29.69173759,47.44
-81.98194766,29.69204412,50.04
-81.98195115,29.69240657,37.91
-81.98195304,29.69260576,56.05
-81.98195421,29.69272574,50.31
-81.98195709,29.69300976,40.20
-81.98195882,29.69320031,53.14
-81.98196286,29.69361570,59.15
-81.98196606,29.69394179,53.69
-81.98196914,29.69425734,47.38
-81.98197150,29.69450301,53.18
-81.98197381,29.69473879,46.81
-81.98197777,29.69514581,41.69
-81.98197982,29.69535586,46.02
-81.98198146,29.69552305,40.68
-81.98198554,29.69594217,39.88
-81.98198776,29.69617368,47.97
-81.98199114,29.69652154,43.10
-81.98199235,29.69664475,46.50
-81.98199465,29.69688019,51.35
-81.98199850,29.69727802,33.71
-81.98200036,29.69746975,46.77
-81.98200404,29.69784908,32.83
-81.98200682,29.69813523,29.92
-81.98201020,29.69847723,36.85
-81.98201333,29.69879805,27.47
-81.98201461,29.69893337,27.51
-81.98201825,29.69930391,27.39
-81.98202159,29.69964393,27.38
-81.98202463,29.69996629,27.36
-81.98202705,29.70021217,27.35
-81.98202928,29.70043675,27.38
-81.98203129,29.70047370,27.36
-81.98203663,29.70047733,27.36
-81.98205898,29.70047739,27.37
-81.98232674,29.70047540,27.35
-81.98243381,29.70047461,27.35
-81.98269941,29.70047262,27.36
-81.98314091,29.70046936,27.34
     </coordinates>
    </LineString>
   </MultiGeometry>
  </Placemark>
 </Document>
</kml>
