<kml>
 <Document>
  <Style id="yellow">
   <LineStyle>
   <color>ff00ffff</color>
   <width>1</width>
   </LineStyle>
  </Style>
  <Style id="red">
   <LineStyle>
   <color>ffff0000</color>
   <width>2</width>
   </LineStyle>
  </Style>
  <Style id="green">
   <LineStyle>
   <color>ff00ff00</color>
   <width>1</width>
   </LineStyle>
  </Style>
  <Placemark>
  <styleUrl>#yellow</styleUrl>
   <MultiGeometry>
    <LineString>
     <coordinates>
-82.02645079,29.67306790,48.49
-82.02685787,29.67306474,35.45
-82.02709764,29.67306287,38.47
-82.02761414,29.67305886,51.14
-82.02766250,29.67305849,57.98
-82.02781934,29.67305726,37.81
-82.02826442,29.67305382,46.11
-82.02870222,29.67305044,49.24
-82.02912415,29.67304714,47.46
-82.02959148,29.67304353,38.66
-82.02992154,29.67304097,38.06
-82.03016916,29.67303904,37.96
-82.03033791,29.67303773,37.85
-82.03054632,29.67303610,52.54
-82.03066295,29.67303517,37.89
-82.03112253,29.67303162,50.36
-82.03113632,29.67303151,52.18
-82.03159060,29.67302796,37.22
-82.03160305,29.67302787,59.17
-82.03206736,29.67302426,38.07
-82.03217981,29.67302339,36.37
-82.03258832,29.67302021,54.05
-82.03276535,29.67301883,37.17
-82.03294708,29.67301740,45.60
-82.03297922,29.67301714,49.27
-82.03337634,29.67301393,57.61
-82.03341401,29.67301350,39.10
-82.03343051,29.67301120,39.10
-82.03343109,29.67299237,39.09
-82.03343076,29.67295125,39.11
-82.03342983,29.67284780,39.05
-82.03342737,29.67260766,38.95
-82.03342324,29.67220357,45.45
-82.03341928,29.67181662,62.44
-82.03341862,29.67175236,63.41
-82.03341430,29.67133104,60.38
-82.03341284,29.67118635,39.27
-82.03340891,29.67080191,55.43
-82.03340660,29.67057792,40.66
-82.03340413,29.67033511,49.82
-82.03340118,29.67004658,64.01
-82.03340007,29.66993799,42.16
-82.03339633,29.66957330,57.84
-82.03339521,29.66946193,62.43
-82.03339459,29.66940131,59.10
-82.03339165,29.66912456,45.80
-82.03338924,29.66888446,61.76
-82.03338767,29.66872670,54.69
-82.03338704,29.66866433,57.42
-82.03338274,29.66824254,62.44
-82.03337985,29.66796138,63.80
-82.03337750,29.66773050,61.31
-82.03337499,29.66748961,44.76
-82.03337226,29.66721772,60.42
-82.03337044,29.66703946,49.29
-82.03336675,29.66667858,52.48
-82.03336372,29.66638714,59.50
-82.03336086,29.66610302,47.44
-82.03335975,29.66599383,47.71
-82.03335837,29.66585875,47.95
-82.03335615,29.66564337,47.80
-82.03335364,29.66539607,47.15
-82.03335312,29.66534474,47.08
-82.03335179,29.66521519,46.76
-82.03334973,29.66501644,46.37
-82.03334652,29.66470009,52.73
-82.03334361,29.66441432,47.16
-82.03333958,29.66402257,59.83
-82.03333933,29.66399927,60.95
-82.03333923,29.66399006,54.13
-82.03333721,29.66399007,56.84
-82.03333695,29.66399008,57.20
-82.03292412,29.66399329,46.74
-82.03271259,29.66399494,47.22
-82.03249428,29.66399664,65.12
-82.03241624,29.66399725,55.04
-82.03200364,29.66400047,52.34
-82.03159833,29.66400362,62.53
-82.03127719,29.66400613,62.31
-82.03084842,29.66400945,61.69
-82.03080401,29.66400980,58.73
-82.03043266,29.66401269,57.82
-82.03037351,29.66401315,63.78
-82.03032724,29.66401351,63.54
-82.03011372,29.66401517,59.61
-82.02996701,29.66401641,44.33
-82.02958205,29.66401940,43.82
-82.02947662,29.66402015,43.90
-82.02943571,29.66402044,43.93
-82.02926665,29.66402175,50.19
-82.02876126,29.66402567,43.66
-82.02847181,29.66402793,43.76
-82.02800411,29.66403154,54.41
-82.02783245,29.66403289,49.85
-82.02753784,29.66403518,44.61
-82.02719531,29.66403782,47.55
-82.02718161,29.66403792,52.18
-82.02690933,29.66404004,47.86
-82.02649612,29.66404323,45.64
-82.02611433,29.66404622,45.22
-82.02578621,29.66404873,46.05
-82.02541905,29.66405164,47.12
-82.02504084,29.66405450,58.94
-82.02455649,29.66405826,45.33
-82.02443262,29.66405921,44.73
-82.02432616,29.66406004,44.61
-82.02426646,29.66406051,44.53
-82.02413426,29.66406155,44.68
-82.02380125,29.66406416,44.66
-82.02356258,29.66406596,47.03
-82.02350494,29.66406638,54.79
-82.02308639,29.66406960,40.19
-82.02302850,29.66407005,40.02
-82.02302116,29.66407025,40.00
-82.02300788,29.66407321,39.98
-82.02300744,29.66407823,39.98
-82.02300754,29.66409750,40.06
-82.02301181,29.66451987,62.68
-82.02301510,29.66484415,41.01
-82.02301653,29.66498594,40.58
-82.02301790,29.66512036,40.08
-82.02302225,29.66555002,39.93
-82.02302447,29.66576860,40.12
-82.02302878,29.66619667,59.55
-82.02302990,29.66630665,45.62
-82.02303291,29.66660108,39.17
-82.02303478,29.66678886,39.83
-82.02303935,29.66723985,39.40
-82.02304027,29.66732963,39.29
-82.02304329,29.66762553,47.74
-82.02304539,29.66783745,36.66
-82.02304697,29.66799370,43.97
-82.02304908,29.66820027,58.01
-82.02305183,29.66847252,52.70
-82.02305188,29.66847743,50.78
-82.02305319,29.66860671,42.46
-82.02305661,29.66894662,36.73
-82.02305763,29.66904720,37.92
-82.02305796,29.66907993,46.08
-82.02306061,29.66933950,43.72
-82.02306455,29.66972806,51.16
-82.02306569,29.66984370,49.61
-82.02306583,29.66985750,46.65
-82.02306761,29.67003281,46.06
-82.02306966,29.67023548,52.62
-82.02307282,29.67054779,49.15
-82.02307292,29.67055755,50.07
-82.02307489,29.67075259,50.49
-82.02307619,29.67088020,50.63
-82.02307682,29.67094288,52.46
-82.02307702,29.67096265,51.53
-82.02307715,29.67097521,47.71
-82.02307866,29.67112429,49.38
-82.02307981,29.67123822,36.74
-82.02307985,29.67124162,49.50
-82.02308109,29.67136494,52.86
-82.02308182,29.67143641,38.80
-82.02308435,29.67168691,51.76
-82.02308443,29.67169444,55.46
-82.02308595,29.67184472,35.53
-82.02308643,29.67189165,51.90
-82.02308685,29.67193390,40.14
-82.02308734,29.67198210,40.44
-82.02308747,29.67199460,35.28
-82.02309185,29.67242785,35.58
-82.02309537,29.67277569,53.77
-82.02309575,29.67281316,47.89
-82.02309731,29.67296715,46.61
-82.02309831,29.67305774,33.70
-82.02309871,29.67308135,38.17
-82.02310103,29.67308920,33.60
-82.02311352,29.67309350,33.60
-82.02311374,29.67309350,37.98
-82.02315598,29.67309335,37.21
-82.02333122,29.67309201,36.07
-82.02383588,29.67308812,44.25
-82.02422700,29.67308508,56.48
-82.02462092,29.67308206,48.19
-82.02495335,29.67307948,34.31
-82.02541577,29.67307591,34.53
-82.02592692,29.67307191,34.94
-82.02623432,29.67306956,40.06
-82.02639346,29.67306834,42.25
-82.02645079,29.67306790,48.49
     </coordinates>
    </LineString>
   </MultiGeometry>
  </Placemark>
 </Document>
</kml>
