<kml>
 <Document>
  <Style id="yellow">
   <LineStyle>
   <color>ff00ffff</color>
   <width>1</width>
   </LineStyle>
  </Style>
  <Style id="red">
   <LineStyle>
   <color>ffff0000</color>
   <width>2</width>
   </LineStyle>
  </Style>
  <Style id="green">
   <LineStyle>
   <color>ff00ff00</color>
   <width>1</width>
   </LineStyle>
  </Style>
  <Placemark>
  <styleUrl>#yellow</styleUrl>
   <MultiGeometry>
    <LineString>
     <coordinates>
-81.99630768,29.71841956,49.74
-81.99678532,29.71841599,49.29
-81.99699802,29.71841437,36.77
-81.99732776,29.71841185,37.29
-81.99772687,29.71840890,37.97
-81.99814962,29.71840571,38.41
-81.99856483,29.71840258,39.05
-81.99864601,29.71840196,38.90
-81.99871361,29.71840144,53.52
-81.99916425,29.71839806,37.75
-81.99951622,29.71839540,37.35
-81.99951643,29.71839540,37.35
-81.99979572,29.71839328,36.61
-82.00004740,29.71839139,35.88
-82.00023582,29.71838995,35.54
-82.00074334,29.71838611,35.37
-82.00115640,29.71838301,34.54
-82.00133201,29.71838168,33.73
-82.00156817,29.71837988,32.77
-82.00199138,29.71837667,48.79
-82.00209165,29.71837593,32.02
-82.00247227,29.71837305,32.73
-82.00275938,29.71837088,33.46
-82.00286005,29.71837006,33.65
-82.00288029,29.71836681,33.69
-82.00288043,29.71836375,33.69
-82.00287992,29.71830083,33.79
-82.00287823,29.71813215,34.49
-82.00287517,29.71782262,35.82
-82.00287456,29.71776095,43.78
-82.00287180,29.71748775,46.55
-82.00286865,29.71716684,36.27
-82.00286698,29.71699699,52.58
-82.00286598,29.71690335,36.60
-82.00286216,29.71652090,47.81
-82.00286088,29.71639132,37.46
-82.00285778,29.71607207,36.92
-82.00285409,29.71570125,37.60
-82.00285138,29.71542721,38.39
-82.00284946,29.71523495,38.58
-82.00284549,29.71483502,53.07
-82.00284418,29.71470306,51.19
-82.00284239,29.71452409,50.92
-82.00283836,29.71411754,37.75
-82.00283766,29.71404681,39.25
-82.00283471,29.71375023,35.43
-82.00283143,29.71342015,39.17
-82.00282758,29.71304170,33.55
-82.00282689,29.71296632,33.43
-82.00282508,29.71278838,33.06
-82.00282423,29.71270651,42.91
-82.00282041,29.71231275,51.21
-82.00281970,29.71224060,48.46
-82.00281665,29.71193309,32.22
-82.00281453,29.71173768,42.19
-82.00281159,29.71142881,41.38
-82.00280931,29.71119579,49.51
-82.00280794,29.71105672,33.68
-82.00280488,29.71075100,42.96
-82.00280188,29.71044776,39.52
-82.00280052,29.71031073,28.40
-82.00279748,29.71000814,39.96
-82.00279553,29.70980759,28.47
-82.00279316,29.70957009,30.40
-82.00279125,29.70938406,41.75
-82.00279096,29.70935689,46.55
-82.00279067,29.70934917,27.76
-82.00278896,29.70934796,45.37
-82.00278695,29.70934661,27.77
-82.00277686,29.70934658,44.82
-82.00270079,29.70934712,27.39
-82.00259133,29.70934791,27.04
-82.00247144,29.70934878,27.08
-82.00233065,29.70934985,27.57
-82.00181867,29.70935373,30.05
-82.00160928,29.70935531,37.53
-82.00148567,29.70935625,39.34
-82.00102543,29.70935972,36.75
-82.00093213,29.70936042,37.77
-82.00059014,29.70936301,33.23
-82.00041200,29.70936435,47.51
-81.99996186,29.70936775,35.75
-81.99963510,29.70937021,36.26
-81.99954125,29.70937092,36.18
-81.99921816,29.70937340,50.77
-81.99890114,29.70937577,34.83
-81.99883014,29.70937631,38.14
-81.99866044,29.70937759,42.65
-81.99830881,29.70938024,33.05
-81.99808600,29.70938192,33.62
-81.99774558,29.70938447,34.75
-81.99744444,29.70938673,37.68
-81.99739290,29.70938712,35.56
-81.99693999,29.70939056,36.14
-81.99684102,29.70939129,39.72
-81.99662382,29.70939293,48.59
-81.99613886,29.70939657,39.12
-81.99578978,29.70939921,39.45
-81.99533760,29.70940260,38.75
-81.99523309,29.70940338,38.49
-81.99497958,29.70940529,37.86
-81.99457812,29.70940829,36.45
-81.99450042,29.70940889,43.12
-81.99438487,29.70940983,35.76
-81.99391480,29.70941328,40.47
-81.99388614,29.70941349,34.92
-81.99385204,29.70941374,34.91
-81.99368650,29.70941499,34.68
-81.99330951,29.70941784,34.70
-81.99307594,29.70941957,41.95
-81.99292720,29.70942068,35.53
-81.99270749,29.70942233,45.13
-81.99257302,29.70942336,35.86
-81.99245927,29.70942426,38.91
-81.99245656,29.70942458,39.03
-81.99245482,29.70942493,35.73
-81.99245448,29.70942864,43.03
-81.99245442,29.70944408,35.67
-81.99245520,29.70952601,41.68
-81.99245953,29.70996618,36.75
-81.99245984,29.70999810,33.25
-81.99246081,29.71009598,39.99
-81.99246108,29.71012366,41.22
-81.99246144,29.71016039,31.51
-81.99246313,29.71033159,29.42
-81.99246674,29.71069681,27.22
-81.99246958,29.71098836,27.24
-81.99247207,29.71122076,27.18
-81.99247409,29.71144196,27.45
-81.99247630,29.71166983,29.27
-81.99247719,29.71176133,29.81
-81.99248108,29.71215581,33.05
-81.99248270,29.71232207,41.04
-81.99248467,29.71252159,47.72
-81.99248698,29.71275322,36.34
-81.99249005,29.71306848,36.33
-81.99249092,29.71315768,36.21
-81.99249209,29.71327642,39.49
-81.99249327,29.71339603,36.64
-81.99249738,29.71381292,37.57
-81.99250027,29.71410568,36.28
-81.99250260,29.71434380,41.83
-81.99250412,29.71449988,46.94
-81.99250574,29.71466431,42.43
-81.99250924,29.71501860,52.56
-81.99251311,29.71541254,40.25
-81.99251695,29.71580354,50.61
-81.99251981,29.71609480,54.28
-81.99252368,29.71648766,40.13
-81.99252747,29.71687183,51.53
-81.99253012,29.71714187,38.00
-81.99253256,29.71738857,38.81
-81.99253458,29.71759543,35.99
-81.99253785,29.71792731,51.03
-81.99254186,29.71833536,35.51
-81.99254284,29.71843041,35.74
-81.99254286,29.71843193,35.82
-81.99254482,29.71844572,35.72
-81.99255302,29.71844736,35.73
-81.99256009,29.71844773,37.24
-81.99263845,29.71844715,35.83
-81.99282233,29.71844577,36.12
-81.99285093,29.71844555,36.08
-81.99294346,29.71844486,48.53
-81.99295831,29.71844475,36.28
-81.99318501,29.71844305,35.91
-81.99358195,29.71844005,35.83
-81.99391637,29.71843754,44.07
-81.99435206,29.71843425,36.89
-81.99471230,29.71843154,36.70
-81.99489729,29.71843013,45.40
-81.99530611,29.71842707,37.41
-81.99555948,29.71842519,48.79
-81.99595975,29.71842219,41.10
-81.99614033,29.71842083,36.91
-81.99630768,29.71841956,49.74
     </coordinates>
    </LineString>
   </MultiGeometry>
  </Placemark>
 </Document>
</kml>
