<kml>
 <Document>
  <Style id="yellow">
   <LineStyle>
   <color>ff00ffff</color>
   <width>1</width>
   </LineStyle>
  </Style>
  <Style id="red">
   <LineStyle>
   <color>ffff0000</color>
   <width>2</width>
   </LineStyle>
  </Style>
  <Style id="green">
   <LineStyle>
   <color>ff00ff00</color>
   <width>1</width>
   </LineStyle>
  </Style>
  <Placemark>
  <styleUrl>#yellow</styleUrl>
   <MultiGeometry>
    <LineString>
     <coordinates>
-81.97623620,29.70052043,27.50
-81.97655795,29.70051806,27.39
-81.97701182,29.70051470,27.33
-81.97709346,29.70051407,27.35
-81.97754040,29.70051079,27.40
-81.97759912,29.70051036,27.37
-81.97777811,29.70050904,27.37
-81.97804738,29.70050702,27.38
-81.97851363,29.70050361,27.36
-81.97893500,29.70050039,27.33
-81.97916861,29.70049874,27.35
-81.97930150,29.70049779,27.38
-81.97981759,29.70049392,27.43
-81.98000601,29.70049252,27.38
-81.98049251,29.70048896,27.37
-81.98054237,29.70048857,27.40
-81.98089769,29.70048587,27.34
-81.98116105,29.70048398,27.34
-81.98137487,29.70048235,27.38
-81.98187625,29.70047874,27.37
-81.98201487,29.70047762,27.35
-81.98202312,29.70047566,27.33
-81.98202716,29.70047468,27.39
-81.98202901,29.70046865,27.34
-81.98202843,29.70036556,27.36
-81.98202514,29.70002054,27.36
-81.98202265,29.69976576,27.38
-81.98201899,29.69939557,27.38
-81.98201736,29.69923611,27.39
-81.98201426,29.69895224,27.45
-81.98201196,29.69867929,27.42
-81.98201101,29.69857077,27.71
-81.98200779,29.69823569,30.78
-81.98200736,29.69819190,29.51
-81.98200630,29.69808298,30.18
-81.98200305,29.69774968,31.03
-81.98200134,29.69757311,32.02
-81.98200079,29.69751672,32.27
-81.98199992,29.69742708,52.11
-81.98199788,29.69722211,34.08
-81.98199394,29.69681367,35.75
-81.98199114,29.69652435,50.27
-81.98198822,29.69622549,48.88
-81.98198463,29.69585489,39.98
-81.98198052,29.69543391,40.80
-81.98197739,29.69511791,48.59
-81.98197563,29.69493188,41.99
-81.98197129,29.69448732,41.01
-81.98196991,29.69434554,40.81
-81.98196785,29.69413486,40.61
-81.98196442,29.69378332,54.13
-81.98196117,29.69344343,55.01
-81.98195789,29.69310935,40.46
-81.98195587,29.69290147,39.87
-81.98195228,29.69253223,38.48
-81.98195121,29.69241839,55.78
-81.98194748,29.69204122,35.78
-81.98194611,29.69189413,34.88
-81.98194431,29.69171108,42.79
-81.98194365,29.69164430,33.46
-81.98194317,29.69159836,33.29
-81.98194240,29.69153221,39.05
-81.98194194,29.69149824,32.92
-81.98194089,29.69146889,32.85
-81.98194037,29.69146507,32.84
-81.98193840,29.69145727,32.84
-81.98193591,29.69145402,32.80
-81.98176684,29.69145522,32.67
-81.98128291,29.69145880,33.09
-81.98077309,29.69146259,33.36
-81.98034591,29.69146574,32.59
-81.98031212,29.69146599,32.61
-81.98027923,29.69146623,32.58
-81.98002705,29.69146811,45.24
-81.97967831,29.69147068,50.09
-81.97927603,29.69147365,31.86
-81.97925607,29.69147380,31.92
-81.97921020,29.69147414,32.66
-81.97899490,29.69147574,39.38
-81.97865962,29.69147825,32.83
-81.97833266,29.69148065,33.65
-81.97814665,29.69148208,33.64
-81.97780504,29.69148453,35.17
-81.97772322,29.69148513,46.32
-81.97722676,29.69148881,43.86
-81.97682635,29.69149177,51.63
-81.97666549,29.69149293,32.90
-81.97628314,29.69149575,32.34
-81.97583657,29.69149903,31.16
-81.97568859,29.69150012,31.06
-81.97532815,29.69150278,45.27
-81.97524986,29.69150335,43.73
-81.97501446,29.69150510,30.90
-81.97478066,29.69150682,31.03
-81.97442467,29.69150943,44.59
-81.97419346,29.69151115,48.29
-81.97397225,29.69151280,30.30
-81.97365998,29.69151512,43.75
-81.97332167,29.69151753,50.72
-81.97291191,29.69152066,29.61
-81.97270493,29.69152207,29.72
-81.97222838,29.69152556,31.66
-81.97207157,29.69152671,32.55
-81.97193729,29.69152772,42.37
-81.97178794,29.69152885,33.84
-81.97167197,29.69152976,47.98
-81.97162922,29.69153015,34.28
-81.97161601,29.69153073,34.42
-81.97160801,29.69153271,34.44
-81.97160770,29.69153412,34.52
-81.97160735,29.69154291,34.31
-81.97160738,29.69157563,34.27
-81.97160760,29.69160759,34.25
-81.97160834,29.69168447,45.37
-81.97160917,29.69177056,44.73
-81.97161191,29.69205370,32.37
-81.97161525,29.69240224,30.19
-81.97161640,29.69252220,41.12
-81.97161775,29.69266239,30.04
-81.97162169,29.69307203,51.73
-81.97162173,29.69307630,49.71
-81.97162196,29.69309977,30.70
-81.97162235,29.69314019,38.97
-81.97162383,29.69329457,40.51
-81.97162442,29.69335525,31.59
-81.97162870,29.69380057,46.43
-81.97162893,29.69382422,32.29
-81.97162979,29.69391403,41.05
-81.97163360,29.69430884,31.07
-81.97163710,29.69467344,36.58
-81.97163767,29.69473239,30.15
-81.97164050,29.69502476,38.30
-81.97164231,29.69521461,30.93
-81.97164280,29.69526604,29.45
-81.97164352,29.69533933,40.91
-81.97164485,29.69547475,29.70
-81.97164800,29.69580014,37.04
-81.97164930,29.69594030,46.75
-81.97165155,29.69617338,50.45
-81.97165418,29.69643887,27.47
-81.97165618,29.69664523,27.72
-81.97165863,29.69689849,27.43
-81.97166241,29.69730164,27.42
-81.97166385,29.69745284,27.40
-81.97166795,29.69787101,27.39
-81.97167180,29.69827227,27.42
-81.97167267,29.69836458,27.41
-81.97167605,29.69871665,27.37
-81.97167868,29.69898941,27.34
-81.97168253,29.69938558,27.37
-81.97168642,29.69978477,27.33
-81.97168901,29.70005920,27.40
-81.97169211,29.70038650,27.31
-81.97169323,29.70050230,27.35
-81.97169378,29.70055315,27.41
-81.97169533,29.70055345,27.39
-81.97170465,29.70055364,27.37
-81.97195043,29.70055195,27.40
-81.97220307,29.70055010,27.39
-81.97270570,29.70054633,27.38
-81.97277983,29.70054579,27.39
-81.97307131,29.70054372,27.39
-81.97345878,29.70054085,27.38
-81.97385350,29.70053798,27.73
-81.97429180,29.70053475,27.44
-81.97479107,29.70053108,27.84
-81.97517259,29.70052827,28.82
-81.97538228,29.70052672,28.73
-81.97569498,29.70052440,27.38
-81.97590235,29.70052288,27.53
-81.97614515,29.70052110,27.43
-81.97615794,29.70052101,27.42
-81.97623620,29.70052043,27.50
     </coordinates>
    </LineString>
   </MultiGeometry>
  </Placemark>
 </Document>
</kml>
