<kml>
 <Document>
  <Style id="yellow">
   <LineStyle>
   <color>ff00ffff</color>
   <width>1</width>
   </LineStyle>
  </Style>
  <Style id="red">
   <LineStyle>
   <color>ffff0000</color>
   <width>2</width>
   </LineStyle>
  </Style>
  <Style id="green">
   <LineStyle>
   <color>ff00ff00</color>
   <width>1</width>
   </LineStyle>
  </Style>
  <Placemark>
  <styleUrl>#yellow</styleUrl>
   <MultiGeometry>
    <LineString>
     <coordinates>
-81.96467056,29.66450762,48.55
-81.96515451,29.66450410,64.19
-81.96561535,29.66450074,56.10
-81.96609185,29.66449727,48.33
-81.96614622,29.66449688,48.01
-81.96666057,29.66449312,67.17
-81.96700660,29.66449060,63.08
-81.96713176,29.66448969,46.74
-81.96750764,29.66448695,46.16
-81.96781164,29.66448469,45.21
-81.96819913,29.66448188,48.77
-81.96836847,29.66448065,44.02
-81.96864461,29.66447864,53.22
-81.96905987,29.66447559,57.22
-81.96930794,29.66447375,58.50
-81.96972702,29.66447071,48.25
-81.97014609,29.66446766,36.98
-81.97032435,29.66446635,36.00
-81.97069521,29.66446363,33.90
-81.97094265,29.66446180,31.30
-81.97123925,29.66445963,27.84
-81.97132699,29.66445886,27.58
-81.97133301,29.66445557,27.72
-81.97133426,29.66445434,27.61
-81.97134534,29.66444006,27.56
-81.97134598,29.66443582,27.59
-81.97134620,29.66443409,27.60
-81.97134526,29.66432672,28.08
-81.97134351,29.66414086,30.15
-81.97134126,29.66390693,41.71
-81.97133967,29.66374114,40.47
-81.97133659,29.66342025,44.45
-81.97133590,29.66334814,38.08
-81.97133196,29.66293890,39.51
-81.97132811,29.66253744,42.99
-81.97132642,29.66236633,41.40
-81.97132349,29.66205865,58.78
-81.97132143,29.66184274,52.80
-81.97131913,29.66160267,42.91
-81.97131584,29.66126105,43.78
-81.97131250,29.66091680,54.87
-81.97131022,29.66067808,53.91
-81.97130791,29.66043490,52.66
-81.97130594,29.66023203,47.68
-81.97130242,29.65986572,52.10
-81.97129838,29.65944319,43.35
-81.97129609,29.65920431,52.49
-81.97129175,29.65875357,42.47
-81.97129028,29.65860061,50.20
-81.97128821,29.65838533,41.25
-81.97128816,29.65838040,48.22
-81.97128772,29.65833470,41.10
-81.97128381,29.65792633,40.56
-81.97128108,29.65764208,40.90
-81.97128060,29.65759190,41.15
-81.97128042,29.65757285,41.18
-81.97127842,29.65736540,41.58
-81.97127794,29.65731475,41.66
-81.97127389,29.65689432,42.15
-81.97127134,29.65663008,49.44
-81.97126737,29.65621428,58.81
-81.97126429,29.65589495,46.44
-81.97126248,29.65571342,57.40
-81.97125989,29.65544100,59.56
-81.97125973,29.65544013,47.97
-81.97125966,29.65544000,61.92
-81.97125732,29.65543563,61.11
-81.97125463,29.65543523,60.45
-81.97113164,29.65543607,58.74
-81.97108081,29.65543642,51.33
-81.97085859,29.65543806,58.83
-81.97051641,29.65544057,49.16
-81.97026849,29.65544239,46.34
-81.96995865,29.65544467,46.20
-81.96973528,29.65544627,45.52
-81.96954130,29.65544774,45.92
-81.96913617,29.65545075,46.38
-81.96886935,29.65545262,53.05
-81.96842671,29.65545590,47.48
-81.96827104,29.65545700,47.16
-81.96814707,29.65545788,49.93
-81.96768452,29.65546125,47.67
-81.96722835,29.65546459,48.14
-81.96708369,29.65546563,61.93
-81.96695338,29.65546658,49.40
-81.96659100,29.65546923,54.16
-81.96628568,29.65547149,48.56
-81.96605240,29.65547316,49.54
-81.96570489,29.65547570,49.64
-81.96560003,29.65547649,49.64
-81.96514438,29.65547979,49.13
-81.96480268,29.65548226,61.73
-81.96434416,29.65548565,48.85
-81.96410944,29.65548731,55.29
-81.96383831,29.65548927,48.28
-81.96355930,29.65549130,47.87
-81.96342001,29.65549231,51.70
-81.96301469,29.65549526,61.53
-81.96290446,29.65549606,60.79
-81.96266443,29.65549782,58.33
-81.96226563,29.65550069,46.15
-81.96213560,29.65550164,45.90
-81.96190424,29.65550332,45.29
-81.96157917,29.65550568,49.37
-81.96127756,29.65550786,58.81
-81.96104500,29.65550956,43.33
-81.96093749,29.65551063,43.20
-81.96093237,29.65551290,43.19
-81.96092948,29.65551716,43.22
-81.96092874,29.65552517,43.17
-81.96092913,29.65556778,52.16
-81.96093071,29.65573630,57.04
-81.96093291,29.65596765,49.84
-81.96093448,29.65613177,52.29
-81.96093732,29.65642714,51.00
-81.96094119,29.65683734,48.65
-81.96094447,29.65718489,41.29
-81.96094503,29.65724219,40.74
-81.96094725,29.65747306,44.01
-81.96094931,29.65769367,47.71
-81.96095299,29.65808052,49.07
-81.96095513,29.65829975,35.19
-81.96095897,29.65871120,37.31
-81.96096214,29.65904047,45.55
-81.96096341,29.65917752,37.72
-81.96096600,29.65944802,28.74
-81.96096775,29.65963499,25.41
-81.96097184,29.66005839,25.44
-81.96097276,29.66016084,25.43
-81.96097304,29.66019069,25.42
-81.96097533,29.66043170,27.21
-81.96097870,29.66078488,36.99
-81.96098024,29.66094671,37.69
-81.96098238,29.66117105,43.33
-81.96098575,29.66152624,43.22
-81.96098824,29.66178791,48.43
-81.96099050,29.66202272,45.25
-81.96099454,29.66245382,46.39
-81.96099716,29.66272888,48.82
-81.96099873,29.66289424,48.36
-81.96100293,29.66333569,47.80
-81.96100389,29.66343564,59.51
-81.96100512,29.66356444,54.02
-81.96100882,29.66395182,48.20
-81.96101163,29.66425147,57.30
-81.96101332,29.66442509,48.21
-81.96101414,29.66449487,56.41
-81.96101425,29.66450236,48.27
-81.96101534,29.66453182,56.78
-81.96101540,29.66453204,48.24
-81.96101645,29.66453244,55.58
-81.96102809,29.66453400,55.80
-81.96115783,29.66453315,48.17
-81.96144133,29.66453108,47.85
-81.96171915,29.66452907,51.95
-81.96209261,29.66452636,46.25
-81.96236054,29.66452442,45.58
-81.96284105,29.66452093,46.15
-81.96314884,29.66451868,46.99
-81.96361844,29.66451525,47.25
-81.96376006,29.66451422,53.24
-81.96389110,29.66451327,60.53
-81.96427210,29.66451047,48.04
-81.96467056,29.66450762,48.55
     </coordinates>
    </LineString>
   </MultiGeometry>
  </Placemark>
 </Document>
</kml>
