<kml>
 <Document>
  <Style id="yellow">
   <LineStyle>
   <color>ff00ffff</color>
   <width>1</width>
   </LineStyle>
  </Style>
  <Style id="red">
   <LineStyle>
   <color>ffff0000</color>
   <width>2</width>
   </LineStyle>
  </Style>
  <Style id="green">
   <LineStyle>
   <color>ff00ff00</color>
   <width>1</width>
   </LineStyle>
  </Style>
  <Placemark>
  <styleUrl>#yellow</styleUrl>
   <MultiGeometry>
    <LineString>
     <coordinates>
-81.97627029,29.69149582,32.35
-81.97671450,29.69149255,48.13
-81.97697499,29.69149058,32.71
-81.97733617,29.69148797,32.61
-81.97763656,29.69148575,42.84
-81.97793114,29.69148358,33.53
-81.97834948,29.69148039,34.68
-81.97846947,29.69147956,33.46
-81.97890495,29.69147638,32.22
-81.97900578,29.69147564,32.06
-81.97913378,29.69147469,31.93
-81.97919918,29.69147421,47.27
-81.97955939,29.69147155,46.49
-81.97976074,29.69147004,47.39
-81.98012412,29.69146736,45.10
-81.98036354,29.69146560,32.59
-81.98072037,29.69146294,43.00
-81.98108105,29.69146029,42.01
-81.98136275,29.69145820,33.02
-81.98174702,29.69145534,32.67
-81.98188643,29.69145421,32.76
-81.98193993,29.69145302,32.82
-81.98194123,29.69143262,32.72
-81.98194067,29.69134698,32.39
-81.98194027,29.69129351,32.40
-81.98193612,29.69087068,32.69
-81.98193500,29.69075324,32.81
-81.98193417,29.69066962,44.36
-81.98193044,29.69028188,33.35
-81.98192648,29.68987601,48.97
-81.98192310,29.68952727,34.75
-81.98192191,29.68940676,47.68
-81.98191949,29.68916191,34.57
-81.98191543,29.68874043,33.49
-81.98191333,29.68852474,33.34
-81.98190925,29.68810246,33.03
-81.98190895,29.68807142,32.95
-81.98190618,29.68779335,32.12
-81.98190445,29.68761241,32.07
-81.98190102,29.68725598,32.43
-81.98189700,29.68684288,46.04
-81.98189281,29.68641264,33.56
-81.98188977,29.68609892,49.28
-81.98188673,29.68578576,49.69
-81.98188645,29.68575709,45.34
-81.98188308,29.68541143,36.46
-81.98188201,29.68530933,34.40
-81.98187858,29.68495160,35.48
-81.98187650,29.68473560,47.66
-81.98187421,29.68449831,33.65
-81.98187313,29.68438727,53.83
-81.98187284,29.68435697,34.02
-81.98187209,29.68428067,58.45
-81.98186769,29.68383167,34.85
-81.98186490,29.68354200,35.10
-81.98186150,29.68319783,53.80
-81.98185962,29.68300059,46.19
-81.98185791,29.68282192,35.13
-81.98185693,29.68272046,34.93
-81.98185553,29.68257606,49.58
-81.98185445,29.68247094,35.05
-81.98185394,29.68243426,34.33
-81.98185232,29.68243042,42.13
-81.98184316,29.68243035,34.07
-81.98180758,29.68243056,34.02
-81.98131671,29.68243419,34.62
-81.98086295,29.68243756,45.05
-81.98071297,29.68243867,35.61
-81.98052364,29.68244012,35.46
-81.98014191,29.68244290,35.47
-81.98008790,29.68244329,35.56
-81.97987877,29.68244483,36.02
-81.97939829,29.68244839,37.07
-81.97903648,29.68245106,37.96
-81.97860409,29.68245426,38.40
-81.97810183,29.68245800,36.54
-81.97793900,29.68245917,35.93
-81.97773201,29.68246070,35.18
-81.97744552,29.68246281,34.58
-81.97719279,29.68246467,45.34
-81.97691155,29.68246676,33.88
-81.97661072,29.68246898,33.36
-81.97623442,29.68247176,32.68
-81.97587190,29.68247441,40.79
-81.97579579,29.68247497,43.90
-81.97543605,29.68247766,33.29
-81.97518984,29.68247944,33.32
-81.97512603,29.68247990,33.26
-81.97484154,29.68248199,45.74
-81.97447047,29.68248473,33.06
-81.97431370,29.68248587,33.39
-81.97410474,29.68248741,33.82
-81.97391916,29.68248877,34.19
-81.97353589,29.68249164,40.92
-81.97328093,29.68249349,35.31
-81.97284055,29.68249675,34.47
-81.97263559,29.68249820,33.18
-81.97239554,29.68249999,35.79
-81.97205159,29.68250250,32.56
-81.97191610,29.68250348,39.77
-81.97179044,29.68250440,35.00
-81.97171234,29.68250500,33.21
-81.97157739,29.68250604,26.49
-81.97154132,29.68250634,26.30
-81.97153955,29.68250639,26.45
-81.97152385,29.68250691,26.25
-81.97152097,29.68250831,26.23
-81.97152015,29.68251499,26.20
-81.97152281,29.68279110,26.23
-81.97152578,29.68309789,27.71
-81.97152894,29.68342800,36.71
-81.97153096,29.68363999,30.87
-81.97153295,29.68384676,31.24
-81.97153564,29.68412689,32.16
-81.97153965,29.68454279,35.38
-81.97154076,29.68465487,36.15
-81.97154505,29.68509897,37.76
-81.97154786,29.68539503,40.38
-81.97155099,29.68572266,39.77
-81.97155191,29.68581865,40.12
-81.97155418,29.68605431,41.17
-81.97155786,29.68643733,55.96
-81.97156161,29.68682555,43.25
-81.97156585,29.68726725,62.76
-81.97156883,29.68757360,44.97
-81.97157194,29.68790101,46.17
-81.97157625,29.68834714,54.39
-81.97157697,29.68842137,39.27
-81.97157746,29.68847145,46.84
-81.97158162,29.68890711,43.14
-81.97158313,29.68906400,50.94
-81.97158340,29.68909184,39.64
-81.97158403,29.68915717,39.88
-81.97158570,29.68933124,40.18
-81.97158740,29.68950755,40.06
-81.97158831,29.68960230,45.16
-81.97158973,29.68974833,39.72
-81.97159225,29.69000999,46.98
-81.97159560,29.69036037,39.48
-81.97159892,29.69070554,50.92
-81.97160269,29.69109223,35.86
-81.97160366,29.69119818,36.47
-81.97160485,29.69131752,52.41
-81.97160564,29.69139649,34.45
-81.97160677,29.69150190,34.36
-81.97160715,29.69151901,34.39
-81.97160822,29.69152905,34.44
-81.97161996,29.69152977,34.36
-81.97162282,29.69152988,34.34
-81.97167062,29.69152964,46.49
-81.97207082,29.69152668,32.57
-81.97240645,29.69152425,45.27
-81.97276721,29.69152160,29.62
-81.97307160,29.69151935,29.69
-81.97328565,29.69151778,45.96
-81.97337348,29.69151714,45.38
-81.97387665,29.69151344,37.80
-81.97420962,29.69151100,49.94
-81.97450316,29.69150883,30.78
-81.97481011,29.69150658,30.93
-81.97492248,29.69150575,30.91
-81.97496273,29.69150546,39.64
-81.97537610,29.69150241,42.13
-81.97558042,29.69150090,42.75
-81.97602137,29.69149765,31.56
-81.97627029,29.69149582,32.35
     </coordinates>
    </LineString>
   </MultiGeometry>
  </Placemark>
 </Document>
</kml>
