<kml>
 <Document>
  <Style id="yellow">
   <LineStyle>
   <color>ff00ffff</color>
   <width>1</width>
   </LineStyle>
  </Style>
  <Style id="red">
   <LineStyle>
   <color>ffff0000</color>
   <width>2</width>
   </LineStyle>
  </Style>
  <Style id="green">
   <LineStyle>
   <color>ff00ff00</color>
   <width>1</width>
   </LineStyle>
  </Style>
  <Placemark>
  <styleUrl>#yellow</styleUrl>
   <MultiGeometry>
    <LineString>
     <coordinates>
-82.00397990,29.70933732,34.69
-82.00430643,29.70933486,33.68
-82.00476312,29.70933138,35.45
-82.00490711,29.70933030,42.09
-82.00520903,29.70932801,41.58
-82.00523069,29.70932785,27.36
-82.00569651,29.70932431,26.77
-82.00602927,29.70932161,26.59
-82.00626008,29.70931999,26.58
-82.00665563,29.70931700,26.55
-82.00679464,29.70931595,26.58
-82.00710701,29.70931350,26.56
-82.00754763,29.70931016,26.57
-82.00796769,29.70930704,26.59
-82.00839437,29.70930378,26.56
-82.00888755,29.70929997,26.51
-82.00939896,29.70929604,26.55
-82.00968318,29.70929396,26.57
-82.01013684,29.70929051,29.14
-82.01041643,29.70928838,43.64
-82.01063370,29.70928672,31.34
-82.01106501,29.70928343,45.18
-82.01110451,29.70928312,39.32
-82.01125007,29.70928201,40.39
-82.01164565,29.70927899,49.25
-82.01192810,29.70927683,44.17
-82.01203387,29.70927603,49.86
-82.01224961,29.70927435,45.74
-82.01261536,29.70927158,39.10
-82.01262552,29.70927150,45.61
-82.01301574,29.70926848,44.87
-82.01312498,29.70926752,37.37
-82.01312748,29.70926583,37.52
-82.01312751,29.70925485,36.22
-82.01312585,29.70908797,35.54
-82.01312311,29.70881584,51.62
-82.01311895,29.70840072,47.07
-82.01311609,29.70811619,52.12
-82.01311210,29.70771817,55.94
-82.01310864,29.70737419,43.10
-82.01310701,29.70721143,42.99
-82.01310475,29.70698646,49.31
-82.01310421,29.70693222,43.29
-82.01310171,29.70668355,55.37
-82.01309938,29.70645178,51.49
-82.01309800,29.70631390,55.86
-82.01309479,29.70599757,48.67
-82.01309100,29.70561860,57.94
-82.01308906,29.70542324,60.56
-82.01308883,29.70540040,52.07
-82.01308883,29.70539986,52.06
-82.01308680,29.70520054,56.86
-82.01308501,29.70502366,43.78
-82.01308072,29.70459371,58.18
-82.01307676,29.70419745,50.31
-82.01307368,29.70389334,55.82
-82.01306917,29.70344224,39.68
-82.01306707,29.70323250,31.89
-82.01306601,29.70312664,30.83
-82.01306340,29.70286666,32.54
-82.01306304,29.70283110,29.52
-82.01306156,29.70268319,42.85
-82.01306029,29.70255741,38.23
-82.01305636,29.70216478,52.13
-82.01305500,29.70202981,41.02
-82.01305275,29.70180509,29.11
-82.01305098,29.70162936,52.52
-82.01305088,29.70161878,51.23
-82.01304930,29.70146216,32.95
-82.01304708,29.70124042,29.66
-82.01304334,29.70086851,30.02
-82.01303991,29.70052808,31.08
-82.01303923,29.70046302,28.43
-82.01303857,29.70040555,29.28
-82.01303806,29.70036347,29.07
-82.01303649,29.70025878,30.71
-82.01303621,29.70024434,28.28
-82.01302165,29.70024427,33.97
-82.01300944,29.70024433,29.05
-82.01295243,29.70024473,36.18
-82.01254898,29.70024786,31.43
-82.01220132,29.70025050,39.97
-82.01212079,29.70025110,34.79
-82.01163973,29.70025475,57.25
-82.01136396,29.70025686,39.76
-82.01134817,29.70025698,37.59
-82.01129584,29.70025738,34.08
-82.01127659,29.70025753,40.12
-82.01101144,29.70025955,33.94
-82.01092935,29.70026018,45.22
-82.01057845,29.70026286,42.90
-82.01040682,29.70026416,49.64
-82.00994635,29.70026768,41.15
-82.00978072,29.70026895,47.70
-82.00974491,29.70026922,44.57
-82.00926328,29.70027288,56.16
-82.00900332,29.70027486,38.81
-82.00894361,29.70027532,39.22
-82.00892985,29.70027542,57.43
-82.00856205,29.70027822,41.11
-82.00810133,29.70028175,56.47
-82.00775999,29.70028435,43.73
-82.00735890,29.70028738,50.32
-82.00733846,29.70028754,43.85
-82.00711099,29.70028927,44.14
-82.00694870,29.70029050,44.39
-82.00680763,29.70029157,58.46
-82.00631659,29.70029530,40.28
-82.00595474,29.70029805,47.23
-82.00589162,29.70029854,38.48
-82.00539976,29.70030227,38.53
-82.00521408,29.70030368,45.32
-82.00507086,29.70030476,48.47
-82.00494853,29.70030570,38.47
-82.00451934,29.70030895,45.31
-82.00406141,29.70031242,37.16
-82.00398631,29.70031299,37.65
-82.00390568,29.70031361,46.31
-82.00372764,29.70031498,38.36
-82.00338696,29.70031753,58.25
-82.00289362,29.70032131,38.27
-82.00270339,29.70032284,51.48
-82.00270173,29.70034682,38.10
-82.00270229,29.70042193,42.79
-82.00270392,29.70058623,36.98
-82.00270792,29.70098819,34.60
-82.00270881,29.70107791,52.71
-82.00271151,29.70134889,53.97
-82.00271571,29.70177167,52.76
-82.00271638,29.70184080,57.19
-82.00271872,29.70207658,56.66
-82.00271985,29.70218967,48.08
-82.00271989,29.70219440,39.67
-82.00272215,29.70242111,53.43
-82.00272597,29.70280249,28.90
-82.00272693,29.70290145,50.97
-82.00272938,29.70314321,27.67
-82.00273263,29.70347522,48.30
-82.00273447,29.70366140,27.74
-82.00273647,29.70386140,47.13
-82.00274028,29.70424679,43.87
-82.00274154,29.70437288,47.09
-82.00274508,29.70472556,33.81
-82.00274822,29.70504584,33.93
-82.00275097,29.70532170,45.23
-82.00275398,29.70562407,34.92
-82.00275510,29.70573758,35.41
-82.00275766,29.70599488,36.65
-82.00275910,29.70613661,37.11
-82.00276288,29.70652043,41.23
-82.00276533,29.70676604,46.05
-82.00276912,29.70714911,47.07
-82.00277071,29.70730936,40.87
-82.00277171,29.70741034,35.78
-82.00277248,29.70748775,48.69
-82.00277266,29.70750556,50.88
-82.00277384,29.70762476,43.27
-82.00277401,29.70764091,44.03
-82.00277464,29.70770436,39.30
-82.00277600,29.70784196,37.93
-82.00277930,29.70817370,31.68
-82.00278007,29.70825140,38.46
-82.00278029,29.70827300,36.38
-82.00278366,29.70861132,35.46
-82.00278527,29.70877505,34.33
-82.00278730,29.70897927,27.41
-82.00278970,29.70922073,31.57
-82.00279034,29.70928386,27.56
-82.00279065,29.70931000,27.57
-82.00279109,29.70934605,27.81
-82.00279504,29.70934629,45.80
-82.00289005,29.70934559,29.43
-82.00294806,29.70934515,43.86
-82.00301351,29.70934466,37.46
-82.00302740,29.70934455,47.82
-82.00303359,29.70934451,35.04
-82.00310073,29.70934400,42.75
-82.00313324,29.70934375,39.73
-82.00331442,29.70934238,43.32
-82.00336942,29.70934196,47.23
-82.00339427,29.70934177,47.24
-82.00353321,29.70934072,46.76
-82.00397990,29.70933732,34.69
     </coordinates>
    </LineString>
   </MultiGeometry>
  </Placemark>
 </Document>
</kml>
