<kml>
 <Document>
  <Style id="yellow">
   <LineStyle>
   <color>ff00ffff</color>
   <width>1</width>
   </LineStyle>
  </Style>
  <Style id="red">
   <LineStyle>
   <color>ffff0000</color>
   <width>2</width>
   </LineStyle>
  </Style>
  <Style id="green">
   <LineStyle>
   <color>ff00ff00</color>
   <width>1</width>
   </LineStyle>
  </Style>
  <Placemark>
  <styleUrl>#yellow</styleUrl>
   <MultiGeometry>
    <LineString>
     <coordinates>
-82.02641308,29.68209244,44.25
-82.02677265,29.68208971,34.73
-82.02678381,29.68208962,43.17
-82.02725828,29.68208594,53.82
-82.02726231,29.68208591,51.66
-82.02750906,29.68208400,41.34
-82.02775196,29.68208212,34.95
-82.02801766,29.68208005,40.70
-82.02840000,29.68207707,48.49
-82.02891584,29.68207308,28.71
-82.02901517,29.68207231,49.57
-82.02934854,29.68206972,30.63
-82.02958943,29.68206785,31.95
-82.03003950,29.68206433,36.73
-82.03036471,29.68206181,47.41
-82.03082703,29.68205823,45.42
-82.03094420,29.68205731,44.44
-82.03104081,29.68205656,30.23
-82.03122438,29.68205513,29.95
-82.03132314,29.68205437,29.66
-82.03138133,29.68205391,38.92
-82.03157125,29.68205243,33.63
-82.03203629,29.68204879,38.68
-82.03243678,29.68204569,30.42
-82.03265757,29.68204397,44.57
-82.03304608,29.68204093,45.71
-82.03337988,29.68203833,49.28
-82.03349867,29.68203734,46.46
-82.03350972,29.68203703,53.20
-82.03351953,29.68203674,34.89
-82.03352343,29.68203561,52.44
-82.03352370,29.68203409,45.32
-82.03352358,29.68202076,52.00
-82.03352304,29.68196687,50.01
-82.03352079,29.68174403,43.07
-82.03351689,29.68136159,49.92
-82.03351659,29.68133261,49.85
-82.03351448,29.68113136,49.65
-82.03351116,29.68080471,33.64
-82.03350668,29.68036384,32.74
-82.03350305,29.68000812,34.74
-82.03349962,29.67968222,35.60
-82.03349652,29.67937048,34.47
-82.03349572,29.67929233,33.97
-82.03349375,29.67909969,33.18
-82.03348929,29.67866303,33.74
-82.03348503,29.67824734,34.62
-82.03348053,29.67780804,34.98
-82.03347780,29.67754237,34.97
-82.03347583,29.67734862,43.36
-82.03347332,29.67710053,35.32
-82.03347086,29.67686002,35.72
-82.03346675,29.67646242,38.41
-82.03346390,29.67619327,39.54
-82.03346181,29.67598841,39.70
-82.03345957,29.67577169,39.72
-82.03345629,29.67544351,40.40
-82.03345383,29.67520856,41.29
-82.03344987,29.67481560,41.52
-82.03344887,29.67471041,41.60
-82.03344483,29.67431522,41.67
-82.03344377,29.67421112,56.91
-82.03343964,29.67381039,48.24
-82.03343744,29.67359780,52.74
-82.03343491,29.67335102,53.45
-82.03343240,29.67310763,39.01
-82.03343131,29.67302480,39.13
-82.03343036,29.67301556,39.13
-82.03342623,29.67301503,39.13
-82.03341806,29.67301401,39.12
-82.03337954,29.67301416,39.30
-82.03334669,29.67301431,57.62
-82.03297352,29.67301722,57.44
-82.03263416,29.67301987,58.21
-82.03238344,29.67302182,44.83
-82.03236042,29.67302200,38.03
-82.03194135,29.67302527,44.22
-82.03156705,29.67302818,54.35
-82.03108069,29.67303196,44.89
-82.03071089,29.67303485,44.02
-82.03055285,29.67303608,48.41
-82.03022308,29.67303865,44.11
-82.03001361,29.67304029,58.77
-82.02956357,29.67304377,54.75
-82.02939618,29.67304506,43.12
-82.02923747,29.67304629,46.97
-82.02900421,29.67304812,39.32
-82.02865872,29.67305079,63.89
-82.02818151,29.67305449,47.56
-82.02808302,29.67305525,63.89
-82.02787047,29.67305690,37.10
-82.02747544,29.67305996,50.30
-82.02729895,29.67306133,30.91
-82.02705672,29.67306321,38.51
-82.02697083,29.67306387,41.42
-82.02673322,29.67306572,34.80
-82.02634525,29.67306872,38.23
-82.02628666,29.67306920,45.18
-82.02610203,29.67307069,37.66
-82.02571709,29.67307358,46.56
-82.02544685,29.67307568,50.72
-82.02528804,29.67307690,50.51
-82.02518059,29.67307775,51.32
-82.02475748,29.67308104,48.38
-82.02424244,29.67308499,55.30
-82.02403929,29.67308658,52.54
-82.02363258,29.67308971,33.91
-82.02343260,29.67309126,33.70
-82.02342552,29.67309131,39.75
-82.02315408,29.67309343,39.59
-82.02311774,29.67309387,33.65
-82.02311051,29.67309410,36.30
-82.02310008,29.67309486,33.57
-82.02309887,29.67309575,33.56
-82.02309867,29.67309633,33.55
-82.02309920,29.67315050,33.26
-82.02310253,29.67348175,46.98
-82.02310637,29.67386204,45.13
-82.02310695,29.67391923,30.70
-82.02311002,29.67422196,39.07
-82.02311252,29.67446585,31.84
-82.02311465,29.67467836,29.46
-82.02311682,29.67489310,40.97
-82.02311954,29.67516115,52.03
-82.02312397,29.67559986,31.68
-82.02312806,29.67600387,28.63
-82.02313150,29.67634200,28.57
-82.02313423,29.67661197,29.54
-82.02313767,29.67695342,28.64
-82.02313962,29.67714591,28.63
-82.02313970,29.67715424,28.62
-82.02314315,29.67749491,28.61
-82.02314382,29.67756099,31.69
-82.02314603,29.67777786,28.65
-82.02314701,29.67787261,33.33
-82.02314815,29.67798282,28.74
-82.02315205,29.67837108,29.73
-82.02315524,29.67868641,28.71
-82.02315865,29.67902365,30.07
-82.02316243,29.67939728,30.88
-82.02316669,29.67981855,28.65
-82.02316933,29.68007999,28.56
-82.02317244,29.68038687,28.69
-82.02317391,29.68053153,29.70
-82.02317734,29.68087030,28.63
-82.02318162,29.68129329,55.81
-82.02318230,29.68136075,29.91
-82.02318396,29.68152410,32.06
-82.02318658,29.68178151,50.60
-82.02318793,29.68191375,32.36
-82.02318920,29.68203869,43.86
-82.02318985,29.68209855,44.08
-82.02319030,29.68210575,31.24
-82.02319141,29.68211156,40.59
-82.02319324,29.68211397,36.03
-82.02319958,29.68211696,42.96
-82.02320186,29.68211711,51.35
-82.02323167,29.68211709,49.48
-82.02323170,29.68211709,54.96
-82.02328519,29.68211667,44.51
-82.02376525,29.68211298,38.64
-82.02405660,29.68211073,41.88
-82.02450806,29.68210723,29.00
-82.02472510,29.68210556,39.21
-82.02481671,29.68210485,34.00
-82.02509877,29.68210267,31.41
-82.02558766,29.68209884,41.64
-82.02591058,29.68209634,36.24
-82.02621328,29.68209402,34.58
-82.02641308,29.68209244,44.25
     </coordinates>
    </LineString>
   </MultiGeometry>
  </Placemark>
 </Document>
</kml>
