<kml>
 <Document>
  <Style id="yellow">
   <LineStyle>
   <color>ff00ffff</color>
   <width>1</width>
   </LineStyle>
  </Style>
  <Style id="red">
   <LineStyle>
   <color>ffff0000</color>
   <width>2</width>
   </LineStyle>
  </Style>
  <Style id="green">
   <LineStyle>
   <color>ff00ff00</color>
   <width>1</width>
   </LineStyle>
  </Style>
  <Placemark>
  <styleUrl>#yellow</styleUrl>
   <MultiGeometry>
    <LineString>
     <coordinates>
-82.02700942,29.70013645,44.71
-82.02701129,29.70013644,44.72
-82.02713313,29.70013549,45.26
-82.02749560,29.70013268,46.36
-82.02779544,29.70013036,62.24
-82.02819837,29.70012723,65.20
-82.02822942,29.70012699,69.83
-82.02848176,29.70012502,46.09
-82.02886518,29.70012203,59.37
-82.02920587,29.70011939,48.80
-82.02970120,29.70011555,64.48
-82.03008908,29.70011251,61.26
-82.03046249,29.70010961,48.54
-82.03087554,29.70010642,48.73
-82.03128084,29.70010325,62.09
-82.03143384,29.70010207,57.92
-82.03184959,29.70009883,62.05
-82.03204129,29.70009734,51.07
-82.03230334,29.70009529,47.40
-82.03279975,29.70009143,55.46
-82.03304855,29.70008949,46.62
-82.03332818,29.70008729,46.34
-82.03368148,29.70008453,46.35
-82.03368272,29.70008451,52.64
-82.03368357,29.70008449,56.90
-82.03370085,29.70008394,46.35
-82.03370284,29.70008385,57.57
-82.03370764,29.70008125,56.24
-82.03370831,29.70008075,50.67
-82.03370822,29.70006636,46.10
-82.03370796,29.70003139,68.69
-82.03370691,29.69992564,49.00
-82.03370323,29.69956652,53.40
-82.03370287,29.69953117,59.24
-82.03370002,29.69925426,45.15
-82.03369624,29.69890106,44.73
-82.03369530,29.69880250,60.83
-82.03369245,29.69851417,47.78
-82.03369087,29.69835991,55.56
-82.03368705,29.69798879,43.07
-82.03368401,29.69768951,54.22
-82.03368326,29.69761582,57.49
-82.03368184,29.69747703,56.73
-82.03367768,29.69707099,63.99
-82.03367561,29.69687015,49.46
-82.03367114,29.69643537,51.32
-82.03366879,29.69620427,52.07
-82.03366519,29.69585101,39.12
-82.03366397,29.69573197,45.55
-82.03366003,29.69535458,53.04
-82.03365757,29.69510663,46.49
-82.03365735,29.69508542,52.70
-82.03365696,29.69504742,37.22
-82.03365249,29.69461054,48.42
-82.03365105,29.69447066,53.13
-82.03364658,29.69403524,34.11
-82.03364380,29.69376222,43.44
-82.03364002,29.69339254,31.25
-82.03363742,29.69313872,30.93
-82.03363731,29.69312819,30.89
-82.03363689,29.69308637,30.72
-82.03363510,29.69291294,41.72
-82.03363096,29.69250930,30.91
-82.03362983,29.69239725,30.82
-82.03362663,29.69208402,42.11
-82.03362388,29.69181559,52.02
-82.03362255,29.69168597,39.33
-82.03361830,29.69127012,43.26
-82.03361634,29.69107878,41.70
-82.03361595,29.69106545,30.18
-82.03361577,29.69106159,31.69
-82.03361153,29.69106090,31.80
-82.03349693,29.69106172,44.85
-82.03336288,29.69106277,34.61
-82.03295366,29.69106598,38.97
-82.03277676,29.69106734,44.80
-82.03245258,29.69106993,36.97
-82.03212166,29.69107247,43.45
-82.03201344,29.69107330,47.12
-82.03192217,29.69107400,32.41
-82.03158647,29.69107663,42.37
-82.03135774,29.69107840,40.87
-82.03101907,29.69108103,34.69
-82.03083443,29.69108249,35.24
-82.03048344,29.69108520,47.49
-82.03039495,29.69108589,46.40
-82.03000208,29.69108894,49.59
-82.02981781,29.69109038,37.64
-82.02933856,29.69109410,53.99
-82.02894998,29.69109712,36.05
-82.02846308,29.69110090,47.93
-82.02846063,29.69110092,45.98
-82.02830111,29.69110216,45.41
-82.02824959,29.69110256,42.00
-82.02813620,29.69110344,43.48
-82.02806456,29.69110399,45.42
-82.02792544,29.69110510,38.32
-82.02746206,29.69110873,32.42
-82.02735715,29.69110955,35.90
-82.02696464,29.69111271,38.75
-82.02678978,29.69111393,29.63
-82.02643674,29.69111662,37.01
-82.02596839,29.69112026,34.15
-82.02566916,29.69112256,41.33
-82.02561930,29.69112295,39.63
-82.02514887,29.69112659,50.54
-82.02475328,29.69112965,62.04
-82.02457707,29.69113101,37.38
-82.02454315,29.69113128,42.19
-82.02425974,29.69113347,35.07
-82.02377378,29.69113723,44.30
-82.02328174,29.69114105,28.84
-82.02328181,29.69117406,33.90
-82.02328192,29.69119261,36.85
-82.02328251,29.69125158,33.75
-82.02328518,29.69151469,32.97
-82.02328866,29.69185923,33.17
-82.02329044,29.69203530,28.88
-82.02329162,29.69215026,36.00
-82.02329412,29.69239499,37.99
-82.02329763,29.69274417,42.17
-82.02330195,29.69317085,33.29
-82.02330562,29.69353342,30.62
-82.02330669,29.69363836,39.95
-82.02331015,29.69398013,45.78
-82.02331286,29.69424700,46.74
-82.02331525,29.69447985,33.11
-82.02331747,29.69470084,41.38
-82.02331902,29.69485213,30.06
-82.02332259,29.69520724,30.35
-82.02332361,29.69530810,33.84
-82.02332730,29.69566923,34.35
-82.02333141,29.69607748,30.67
-82.02333405,29.69633562,37.01
-82.02333567,29.69649344,35.22
-82.02333930,29.69685495,32.39
-82.02334148,29.69707095,36.81
-82.02334566,29.69747900,29.49
-82.02334794,29.69770560,30.22
-82.02335146,29.69805388,34.56
-82.02335365,29.69827147,29.47
-82.02335624,29.69852723,33.15
-82.02335649,29.69855177,30.43
-82.02335675,29.69857754,59.10
-82.02335721,29.69862271,30.86
-82.02335749,29.69865085,37.35
-82.02335796,29.69869681,47.52
-82.02335930,29.69882909,38.90
-82.02336074,29.69897087,40.18
-82.02336114,29.69901050,35.06
-82.02336198,29.69909322,46.31
-82.02336534,29.69942514,31.74
-82.02336971,29.69985662,32.29
-82.02337042,29.69992576,41.41
-82.02337111,29.69999275,32.28
-82.02337237,29.70011449,41.99
-82.02337290,29.70015449,40.46
-82.02337325,29.70016364,38.99
-82.02337724,29.70016434,38.88
-82.02338754,29.70016447,40.40
-82.02341883,29.70016424,36.97
-82.02384843,29.70016093,36.86
-82.02432809,29.70015719,35.10
-82.02468832,29.70015440,36.93
-82.02518323,29.70015053,46.35
-82.02545748,29.70014844,54.36
-82.02594540,29.70014470,49.26
-82.02611469,29.70014338,41.04
-82.02637820,29.70014133,41.83
-82.02683435,29.70013779,43.91
-82.02700942,29.70013645,44.71
     </coordinates>
    </LineString>
   </MultiGeometry>
  </Placemark>
 </Document>
</kml>
