<kml>
 <Document>
  <Style id="yellow">
   <LineStyle>
   <color>ff00ffff</color>
   <width>1</width>
   </LineStyle>
  </Style>
  <Style id="red">
   <LineStyle>
   <color>ffff0000</color>
   <width>2</width>
   </LineStyle>
  </Style>
  <Style id="green">
   <LineStyle>
   <color>ff00ff00</color>
   <width>1</width>
   </LineStyle>
  </Style>
  <Placemark>
  <styleUrl>#yellow</styleUrl>
   <MultiGeometry>
    <LineString>
     <coordinates>
-81.99564194,29.69135164,45.01
-81.99576894,29.69135069,45.38
-81.99623563,29.69134718,45.89
-81.99667976,29.69134382,45.74
-81.99688818,29.69134227,45.43
-81.99709988,29.69134068,55.88
-81.99718340,29.69134005,58.10
-81.99725927,29.69133948,45.45
-81.99763295,29.69133666,56.29
-81.99805174,29.69133351,55.96
-81.99824266,29.69133207,61.65
-81.99871670,29.69132850,47.78
-81.99907262,29.69132580,46.64
-81.99949028,29.69132265,45.76
-81.99962426,29.69132165,45.41
-81.99987005,29.69131978,44.86
-82.00028863,29.69131664,43.83
-82.00064639,29.69131392,59.95
-82.00086862,29.69131225,42.52
-82.00107499,29.69131070,57.22
-82.00157394,29.69130693,44.15
-82.00204923,29.69130330,44.02
-82.00227856,29.69130157,43.33
-82.00238872,29.69130075,42.92
-82.00260387,29.69129896,57.11
-82.00260661,29.69129892,55.47
-82.00260953,29.69129784,42.72
-82.00261138,29.69129332,60.11
-82.00261128,29.69127137,42.77
-82.00261107,29.69124413,53.56
-82.00260957,29.69108594,59.57
-82.00260574,29.69070037,58.44
-82.00260464,29.69058977,53.17
-82.00260064,29.69019173,45.95
-82.00259903,29.69003000,49.19
-82.00259578,29.68970370,41.34
-82.00259338,29.68947068,41.51
-82.00259067,29.68918313,41.54
-82.00259024,29.68914035,41.41
-82.00258639,29.68875625,39.65
-82.00258536,29.68864925,38.18
-82.00258255,29.68836607,42.03
-82.00257978,29.68809127,36.72
-82.00257738,29.68784400,38.58
-82.00257712,29.68781788,34.03
-82.00257690,29.68779518,50.72
-82.00257606,29.68771107,46.33
-82.00257580,29.68768455,49.99
-82.00257403,29.68750650,38.06
-82.00257235,29.68734073,40.02
-82.00256914,29.68701636,42.00
-82.00256773,29.68687135,54.40
-82.00256768,29.68686631,56.10
-82.00256725,29.68682319,54.43
-82.00256344,29.68643904,43.44
-82.00255901,29.68599478,57.19
-82.00255727,29.68581834,43.95
-82.00255555,29.68564414,53.51
-82.00255519,29.68560827,43.86
-82.00255247,29.68533378,58.90
-82.00254894,29.68497787,44.38
-82.00254662,29.68474717,57.87
-82.00254276,29.68435798,54.77
-82.00254109,29.68418802,55.66
-82.00253931,29.68400809,46.11
-82.00253845,29.68392166,46.20
-82.00253760,29.68383542,46.32
-82.00253639,29.68371403,61.61
-82.00253638,29.68371235,58.46
-82.00253274,29.68334699,46.68
-82.00252943,29.68301288,47.31
-82.00252826,29.68289496,57.24
-82.00252537,29.68260471,60.70
-82.00252307,29.68237276,48.40
-82.00252233,29.68230170,48.45
-82.00252216,29.68228853,48.45
-82.00252183,29.68227668,48.58
-82.00252006,29.68227558,61.62
-82.00241513,29.68227625,60.09
-82.00213054,29.68227839,53.31
-82.00210635,29.68227858,56.35
-82.00201144,29.68227930,61.51
-82.00158141,29.68228255,56.15
-82.00142929,29.68228370,47.84
-82.00091997,29.68228756,63.06
-82.00071827,29.68228908,48.36
-82.00037225,29.68229168,52.43
-82.00001253,29.68229440,52.83
-81.99986165,29.68229554,43.73
-81.99974077,29.68229645,43.25
-81.99922418,29.68230036,48.22
-81.99884545,29.68230322,44.03
-81.99860542,29.68230501,57.81
-81.99838965,29.68230664,56.91
-81.99836088,29.68230688,53.16
-81.99798669,29.68230981,44.50
-81.99781718,29.68231097,44.15
-81.99772185,29.68231167,56.62
-81.99729519,29.68231488,52.67
-81.99685739,29.68231821,42.61
-81.99660509,29.68232008,41.89
-81.99654506,29.68232052,41.77
-81.99625240,29.68232273,41.15
-81.99606916,29.68232410,40.67
-81.99567576,29.68232709,39.88
-81.99534760,29.68232954,52.90
-81.99534619,29.68232955,54.85
-81.99520114,29.68233064,55.67
-81.99489247,29.68233296,40.38
-81.99448960,29.68233600,39.64
-81.99414474,29.68233856,39.22
-81.99376938,29.68234137,47.47
-81.99351045,29.68234334,40.04
-81.99325212,29.68234526,40.20
-81.99275710,29.68234896,39.65
-81.99225088,29.68235276,50.30
-81.99221206,29.68235311,39.05
-81.99219041,29.68235363,57.84
-81.99218869,29.68235371,58.73
-81.99218827,29.68235412,39.28
-81.99218837,29.68236712,55.85
-81.99218972,29.68251000,40.04
-81.99219024,29.68256339,55.74
-81.99219235,29.68278178,39.55
-81.99219284,29.68283117,39.60
-81.99219684,29.68323876,41.32
-81.99219734,29.68328939,58.52
-81.99220048,29.68360595,43.07
-81.99220201,29.68376310,43.56
-81.99220447,29.68401519,44.10
-81.99220637,29.68420858,44.43
-81.99221000,29.68457630,45.78
-81.99221128,29.68470470,46.16
-81.99221499,29.68508668,46.06
-81.99221625,29.68521331,45.75
-81.99221993,29.68558603,46.09
-81.99222120,29.68571721,46.18
-81.99222493,29.68609815,63.78
-81.99222582,29.68618909,59.19
-81.99222989,29.68660295,59.39
-81.99223321,29.68693720,46.42
-81.99223521,29.68714367,46.72
-81.99223634,29.68726031,46.78
-81.99223966,29.68759605,46.89
-81.99224304,29.68794234,58.50
-81.99224574,29.68821568,47.28
-81.99224784,29.68843020,65.22
-81.99224806,29.68845284,47.53
-81.99224923,29.68857204,49.86
-81.99225108,29.68876024,60.12
-81.99225315,29.68896949,50.64
-81.99225619,29.68928002,47.25
-81.99225935,29.68960065,58.79
-81.99226245,29.68991750,48.24
-81.99226402,29.69007724,63.33
-81.99226676,29.69035452,59.91
-81.99226944,29.69062638,47.12
-81.99227099,29.69078168,46.68
-81.99227532,29.69122541,45.31
-81.99227664,29.69135478,56.75
-81.99227708,29.69137501,55.40
-81.99227750,29.69137608,44.70
-81.99230027,29.69137638,52.90
-81.99231800,29.69137632,44.91
-81.99236435,29.69137609,44.98
-81.99246757,29.69137542,45.38
-81.99261507,29.69137436,57.65
-81.99296201,29.69137176,44.73
-81.99328403,29.69136935,60.59
-81.99359464,29.69136701,43.37
-81.99388293,29.69136485,43.93
-81.99418806,29.69136256,44.44
-81.99455424,29.69135982,44.54
-81.99506747,29.69135596,59.63
-81.99517457,29.69135516,44.57
-81.99564194,29.69135164,45.01
     </coordinates>
    </LineString>
   </MultiGeometry>
  </Placemark>
 </Document>
</kml>
