<kml>
 <Document>
  <Style id="yellow">
   <LineStyle>
   <color>ff00ffff</color>
   <width>1</width>
   </LineStyle>
  </Style>
  <Style id="red">
   <LineStyle>
   <color>ffff0000</color>
   <width>2</width>
   </LineStyle>
  </Style>
  <Style id="green">
   <LineStyle>
   <color>ff00ff00</color>
   <width>1</width>
   </LineStyle>
  </Style>
  <Placemark>
  <styleUrl>#yellow</styleUrl>
   <MultiGeometry>
    <LineString>
     <coordinates>
-81.99388922,29.70038914,30.12
-81.99424282,29.70038648,29.57
-81.99432043,29.70038590,45.58
-81.99436972,29.70038553,28.76
-81.99450900,29.70038445,28.92
-81.99490985,29.70038140,27.63
-81.99538433,29.70037788,27.60
-81.99587982,29.70037418,27.60
-81.99620016,29.70037176,27.64
-81.99651239,29.70036937,27.61
-81.99682254,29.70036704,27.59
-81.99717837,29.70036440,27.59
-81.99740201,29.70036254,27.64
-81.99783931,29.70035936,27.64
-81.99801569,29.70035796,27.62
-81.99825572,29.70035611,27.74
-81.99860289,29.70035365,36.22
-81.99878864,29.70035226,36.88
-81.99895896,29.70035099,39.37
-81.99922399,29.70034899,35.75
-81.99951388,29.70034681,30.55
-81.99961842,29.70034601,41.13
-81.99990870,29.70034380,31.53
-82.00034392,29.70034054,34.12
-82.00051360,29.70033926,51.96
-82.00078389,29.70033721,46.73
-82.00121058,29.70033397,36.81
-82.00152532,29.70033160,52.00
-82.00178159,29.70032968,37.74
-82.00208227,29.70032738,38.33
-82.00238304,29.70032506,47.83
-82.00259458,29.70032333,38.32
-82.00267224,29.70032263,38.30
-82.00269346,29.70032118,51.06
-82.00269755,29.70032067,50.99
-82.00269978,29.70031427,51.09
-82.00270095,29.70030942,38.28
-82.00270099,29.70030616,38.31
-82.00269900,29.70009235,46.39
-82.00269758,29.69994915,41.49
-82.00269728,29.69991838,40.35
-82.00269304,29.69949392,61.44
-82.00269104,29.69929718,53.76
-82.00268856,29.69904084,60.32
-82.00268593,29.69877670,59.04
-82.00268332,29.69851716,61.05
-82.00267991,29.69817112,41.53
-82.00267945,29.69812479,48.98
-82.00267503,29.69767929,43.73
-82.00267444,29.69761864,41.83
-82.00267296,29.69746981,50.95
-82.00267084,29.69725657,41.82
-82.00266844,29.69701447,41.02
-82.00266625,29.69679464,50.99
-82.00266549,29.69671744,40.18
-82.00266521,29.69669016,40.16
-82.00266358,29.69652777,52.71
-82.00266034,29.69620239,40.28
-82.00265736,29.69589999,40.22
-82.00265320,29.69548354,53.71
-82.00264903,29.69506009,41.95
-82.00264738,29.69489540,41.99
-82.00264299,29.69445261,51.34
-82.00263885,29.69403587,46.33
-82.00263801,29.69395110,44.17
-82.00263785,29.69393424,40.88
-82.00263488,29.69364183,40.24
-82.00263278,29.69342430,39.91
-82.00263084,29.69323462,41.00
-82.00262737,29.69288984,54.30
-82.00262513,29.69265792,58.41
-82.00262200,29.69233791,40.00
-82.00262185,29.69232340,54.77
-82.00261967,29.69210542,41.27
-82.00261713,29.69185502,41.77
-82.00261498,29.69163470,56.62
-82.00261259,29.69139108,56.79
-82.00261215,29.69134964,42.19
-82.00261170,29.69132345,42.37
-82.00261092,29.69130701,57.59
-82.00260782,29.69130105,57.78
-82.00260660,29.69130012,50.48
-82.00260246,29.69129962,55.35
-82.00259989,29.69129959,57.26
-82.00255911,29.69129955,42.71
-82.00225083,29.69130183,43.31
-82.00217126,29.69130244,62.71
-82.00180849,29.69130518,44.56
-82.00134411,29.69130867,43.32
-82.00128451,29.69130916,43.16
-82.00081434,29.69131269,53.12
-82.00043278,29.69131556,43.35
-82.00013662,29.69131780,47.54
-81.99993258,29.69131935,44.71
-81.99956928,29.69132208,45.60
-81.99944369,29.69132302,45.89
-81.99899991,29.69132637,46.93
-81.99881994,29.69132774,57.86
-81.99837306,29.69133110,48.56
-81.99808221,29.69133329,48.63
-81.99784728,29.69133506,56.85
-81.99782261,29.69133525,47.82
-81.99762246,29.69133675,47.09
-81.99739203,29.69133849,48.27
-81.99703250,29.69134119,45.24
-81.99671809,29.69134356,45.75
-81.99640728,29.69134590,52.62
-81.99636223,29.69134624,45.80
-81.99609611,29.69134824,55.04
-81.99564574,29.69135163,59.96
-81.99521228,29.69135488,58.65
-81.99506326,29.69135600,44.42
-81.99457694,29.69135967,44.49
-81.99406720,29.69136349,44.34
-81.99400029,29.69136398,44.39
-81.99385172,29.69136510,43.89
-81.99384694,29.69136513,55.77
-81.99383245,29.69136524,43.85
-81.99335651,29.69136883,44.86
-81.99321569,29.69136987,43.55
-81.99318837,29.69137007,43.63
-81.99279231,29.69137304,45.23
-81.99229039,29.69137682,44.79
-81.99228619,29.69137761,44.77
-81.99227781,29.69137920,44.67
-81.99227734,29.69138545,44.67
-81.99227726,29.69140316,44.58
-81.99227722,29.69141726,53.34
-81.99227746,29.69144502,44.35
-81.99227855,29.69155618,43.97
-81.99228103,29.69180772,58.78
-81.99228474,29.69218220,42.39
-81.99228601,29.69231572,57.38
-81.99228937,29.69265730,42.14
-81.99229036,29.69275791,55.98
-81.99229223,29.69294808,42.47
-81.99229656,29.69338936,43.25
-81.99229721,29.69345368,43.11
-81.99230100,29.69384088,42.30
-81.99230368,29.69411291,42.72
-81.99230753,29.69450117,49.61
-81.99230959,29.69471536,46.68
-81.99231207,29.69496680,46.18
-81.99231225,29.69498598,46.04
-81.99231601,29.69536797,54.07
-81.99231893,29.69566533,39.49
-81.99232101,29.69587541,43.43
-81.99232390,29.69616940,34.51
-81.99232819,29.69660720,36.23
-81.99233257,29.69704941,38.24
-81.99233612,29.69741394,42.17
-81.99234014,29.69782169,37.08
-81.99234206,29.69801838,36.93
-81.99234579,29.69839836,44.73
-81.99234671,29.69849171,35.68
-81.99235055,29.69888212,42.92
-81.99235098,29.69892595,34.05
-81.99235302,29.69913388,45.25
-81.99235738,29.69957522,42.94
-81.99235973,29.69981602,44.00
-81.99236011,29.69985468,49.12
-81.99236066,29.69991076,47.44
-81.99236208,29.70005514,42.57
-81.99236440,29.70029183,38.89
-81.99236478,29.70032958,40.64
-81.99236562,29.70038619,44.06
-81.99236577,29.70039343,32.61
-81.99236593,29.70039949,41.56
-81.99237127,29.70040052,46.39
-81.99261746,29.70039864,46.51
-81.99299380,29.70039584,32.05
-81.99348765,29.70039215,37.03
-81.99377951,29.70038996,42.64
-81.99388922,29.70038914,30.12
     </coordinates>
    </LineString>
   </MultiGeometry>
  </Placemark>
 </Document>
</kml>
