<kml>
 <Document>
  <Style id="yellow">
   <LineStyle>
   <color>ff00ffff</color>
   <width>1</width>
   </LineStyle>
  </Style>
  <Style id="red">
   <LineStyle>
   <color>ffff0000</color>
   <width>2</width>
   </LineStyle>
  </Style>
  <Style id="green">
   <LineStyle>
   <color>ff00ff00</color>
   <width>1</width>
   </LineStyle>
  </Style>
  <Placemark>
  <styleUrl>#yellow</styleUrl>
   <MultiGeometry>
    <LineString>
     <coordinates>
-81.96569984,29.70059768,45.50
-81.96581483,29.70059684,39.20
-81.96614351,29.70059443,35.50
-81.96645420,29.70059218,41.46
-81.96693039,29.70058870,39.47
-81.96734928,29.70058564,40.51
-81.96769390,29.70058311,28.49
-81.96806553,29.70058036,27.37
-81.96827062,29.70057888,27.39
-81.96856680,29.70057669,27.39
-81.96882484,29.70057482,27.37
-81.96911532,29.70057263,28.37
-81.96939619,29.70057067,28.01
-81.96952321,29.70056971,27.71
-81.96995130,29.70056660,27.57
-81.97018638,29.70056489,27.74
-81.97058333,29.70056195,27.59
-81.97106841,29.70055842,27.36
-81.97130847,29.70055666,27.42
-81.97164602,29.70055418,27.31
-81.97167111,29.70055388,27.37
-81.97168943,29.70055217,27.40
-81.97169347,29.70055105,27.39
-81.97169327,29.70051275,27.34
-81.97169140,29.70031854,27.39
-81.97168814,29.69998412,27.39
-81.97168485,29.69964475,27.38
-81.97168169,29.69931452,27.38
-81.97168058,29.69919311,27.37
-81.97167723,29.69886391,27.38
-81.97167452,29.69856517,27.37
-81.97167217,29.69831854,27.41
-81.97166966,29.69805800,27.38
-81.97166590,29.69767497,27.38
-81.97166162,29.69723753,27.42
-81.97165995,29.69704951,27.39
-81.97165644,29.69669016,27.38
-81.97165297,29.69632460,30.74
-81.97165133,29.69615334,47.68
-81.97164755,29.69576169,30.71
-81.97164489,29.69548345,29.84
-81.97164169,29.69515188,38.66
-81.97163849,29.69481846,38.54
-81.97163443,29.69439832,43.90
-81.97163348,29.69429923,41.44
-81.97162998,29.69393471,32.04
-81.97162929,29.69386309,32.24
-81.97162679,29.69360324,49.94
-81.97162362,29.69327363,43.79
-81.97162300,29.69320864,37.20
-81.97162288,29.69319685,46.10
-81.97162277,29.69318509,48.06
-81.97162272,29.69317940,45.16
-81.97162250,29.69315660,51.36
-81.97162164,29.69306746,49.80
-81.97161964,29.69285976,41.79
-81.97161757,29.69264415,38.97
-81.97161652,29.69253601,42.20
-81.97161460,29.69233826,30.50
-81.97161256,29.69212871,31.87
-81.97160917,29.69177119,33.89
-81.97160906,29.69176029,40.84
-81.97160819,29.69166930,34.16
-81.97160743,29.69159203,34.37
-81.97160704,29.69156760,34.31
-81.97160604,29.69153466,34.45
-81.97160459,29.69153354,34.49
-81.97160021,29.69153104,34.45
-81.97159345,29.69153056,47.35
-81.97158351,29.69153055,34.39
-81.97156717,29.69153059,34.49
-81.97150803,29.69153086,49.38
-81.97116669,29.69153335,46.24
-81.97116496,29.69153336,47.54
-81.97066364,29.69153705,46.99
-81.97040630,29.69153894,36.31
-81.97002536,29.69154171,36.02
-81.96953992,29.69154527,35.66
-81.96909197,29.69154855,36.03
-81.96884448,29.69155036,35.66
-81.96842021,29.69155351,50.64
-81.96830297,29.69155432,34.15
-81.96802929,29.69155632,48.11
-81.96765464,29.69155905,48.64
-81.96732311,29.69156147,50.59
-81.96696015,29.69156413,36.79
-81.96662567,29.69156657,36.99
-81.96614914,29.69157004,48.41
-81.96590134,29.69157185,54.16
-81.96547886,29.69157493,39.99
-81.96508879,29.69157778,41.31
-81.96495354,29.69157881,40.67
-81.96452017,29.69158192,41.23
-81.96415152,29.69158461,50.63
-81.96396201,29.69158598,52.68
-81.96384796,29.69158681,41.17
-81.96353794,29.69158907,56.81
-81.96317852,29.69159167,47.60
-81.96294993,29.69159334,41.53
-81.96280018,29.69159442,54.44
-81.96268631,29.69159525,52.10
-81.96237321,29.69159753,38.02
-81.96188149,29.69160110,35.84
-81.96184275,29.69160138,45.70
-81.96142679,29.69160441,34.58
-81.96138310,29.69160475,34.50
-81.96134057,29.69160524,34.42
-81.96129101,29.69160590,34.36
-81.96127786,29.69160622,34.36
-81.96127306,29.69161227,34.34
-81.96127271,29.69161503,34.34
-81.96127238,29.69166217,42.30
-81.96127455,29.69188532,44.28
-81.96127786,29.69223795,36.49
-81.96127886,29.69234119,36.20
-81.96128263,29.69273851,33.04
-81.96128387,29.69287012,32.63
-81.96128569,29.69306077,41.80
-81.96128830,29.69333543,30.86
-81.96128981,29.69349395,43.05
-81.96128991,29.69350507,29.68
-81.96129242,29.69376803,38.36
-81.96129384,29.69391747,37.56
-81.96129451,29.69398746,38.30
-81.96129630,29.69417583,30.02
-81.96129725,29.69427602,30.36
-81.96129797,29.69435135,30.68
-81.96129977,29.69454032,31.18
-81.96130271,29.69484931,30.88
-81.96130519,29.69510973,38.76
-81.96130812,29.69541588,29.27
-81.96131019,29.69563438,44.09
-81.96131347,29.69597977,40.01
-81.96131356,29.69598851,28.59
-81.96131666,29.69631306,26.51
-81.96131952,29.69660999,25.67
-81.96132207,29.69687966,25.88
-81.96132379,29.69706217,25.72
-81.96132566,29.69725797,26.00
-81.96132708,29.69740380,25.87
-81.96133036,29.69775130,25.61
-81.96133193,29.69791689,25.63
-81.96133589,29.69833366,25.63
-81.96133988,29.69875065,25.66
-81.96134145,29.69890679,25.65
-81.96134437,29.69922073,25.63
-81.96134772,29.69957491,26.27
-81.96135144,29.69996738,28.75
-81.96135199,29.70002494,29.14
-81.96135559,29.70040131,39.44
-81.96135729,29.70058093,43.30
-81.96135762,29.70061449,44.30
-81.96135774,29.70062318,42.38
-81.96135893,29.70062757,32.59
-81.96136742,29.70062876,32.61
-81.96137578,29.70062898,39.64
-81.96139492,29.70062896,40.30
-81.96142725,29.70062875,43.39
-81.96152818,29.70062803,42.85
-81.96188422,29.70062544,46.24
-81.96224685,29.70062281,35.88
-81.96251030,29.70062088,49.47
-81.96277386,29.70061898,51.72
-81.96309313,29.70061666,41.57
-81.96351966,29.70061355,47.26
-81.96393193,29.70061056,45.20
-81.96421965,29.70060844,45.63
-81.96455802,29.70060599,47.09
-81.96485646,29.70060377,47.52
-81.96514755,29.70060167,45.05
-81.96534651,29.70060025,33.55
-81.96540829,29.70059980,33.25
-81.96542600,29.70059967,47.17
-81.96569984,29.70059768,45.50
     </coordinates>
    </LineString>
   </MultiGeometry>
  </Placemark>
 </Document>
</kml>
