<kml>
 <Document>
  <Style id="yellow">
   <LineStyle>
   <color>ff00ffff</color>
   <width>1</width>
   </LineStyle>
  </Style>
  <Style id="red">
   <LineStyle>
   <color>ffff0000</color>
   <width>2</width>
   </LineStyle>
  </Style>
  <Style id="green">
   <LineStyle>
   <color>ff00ff00</color>
   <width>1</width>
   </LineStyle>
  </Style>
  <Placemark>
  <styleUrl>#yellow</styleUrl>
   <MultiGeometry>
    <LineString>
     <coordinates>
-119.04613983,37.02857566,2201.97
-119.04614647,37.02857627,2201.83
-119.04616755,37.02857595,2201.31
-119.04632162,37.02857335,2204.84
-119.04684165,37.02856437,2189.68
-119.04734068,37.02855574,2218.89
-119.04758431,37.02855156,2201.92
-119.04804515,37.02854360,2174.25
-119.04841878,37.02853714,2170.18
-119.04858182,37.02853431,2196.49
-119.04911283,37.02852513,2189.37
-119.04957598,37.02851713,2203.72
-119.05011517,37.02850782,2209.70
-119.05021364,37.02850612,2210.74
-119.05056131,37.02850007,2216.31
-119.05082646,37.02849551,2222.50
-119.05134113,37.02848663,2237.81
-119.05183862,37.02847804,2295.33
-119.05201651,37.02847496,2261.10
-119.05234825,37.02846922,2298.85
-119.05268884,37.02846333,2272.94
-119.05271161,37.02846294,2272.51
-119.05301067,37.02845776,2274.69
-119.05344013,37.02845015,2268.14
-119.05376181,37.02844471,2261.37
-119.05383559,37.02844348,2259.70
-119.05428949,37.02843560,2250.62
-119.05463739,37.02842958,2265.62
-119.05495596,37.02842406,2227.10
-119.05550954,37.02841446,2241.28
-119.05605332,37.02840503,2206.97
-119.05632714,37.02840023,2244.55
-119.05642739,37.02839847,2204.87
-119.05659156,37.02839559,2200.89
-119.05702479,37.02838821,2195.05
-119.05727070,37.02838384,2191.39
-119.05736099,37.02838213,2193.42
-119.05737413,37.02838179,2192.89
-119.05737491,37.02837767,2192.75
-119.05737494,37.02837210,2189.74
-119.05737436,37.02834924,2188.79
-119.05737030,37.02819883,2189.26
-119.05736711,37.02808055,2200.38
-119.05736158,37.02787701,2199.99
-119.05735403,37.02759590,2172.49
-119.05735264,37.02754444,2172.09
-119.05734750,37.02735501,2171.89
-119.05733988,37.02707123,2173.05
-119.05733503,37.02689340,2174.82
-119.05732457,37.02650569,2178.16
-119.05731501,37.02614992,2178.57
-119.05730718,37.02586097,2174.77
-119.05729985,37.02558816,2172.65
-119.05729486,37.02540280,2201.66
-119.05729113,37.02526479,2176.77
-119.05727938,37.02482988,2175.97
-119.05727721,37.02474880,2166.92
-119.05726889,37.02443999,2178.82
-119.05725763,37.02402249,2174.33
-119.05724738,37.02364342,2178.86
-119.05724244,37.02345992,2178.81
-119.05723952,37.02335123,2179.31
-119.05723790,37.02329115,2179.09
-119.05723533,37.02319586,2188.99
-119.05722361,37.02276214,2171.96
-119.05721804,37.02255493,2168.37
-119.05721500,37.02244224,2175.98
-119.05721081,37.02228753,2189.50
-119.05720384,37.02202972,2164.02
-119.05719786,37.02180732,2186.70
-119.05719785,37.02180701,2186.78
-119.05718726,37.02141488,2154.50
-119.05717853,37.02109328,2159.80
-119.05717292,37.02088234,2143.51
-119.05716356,37.02053568,2135.04
-119.05715773,37.02031899,2137.69
-119.05714746,37.01993823,2137.88
-119.05713831,37.01960027,2132.60
-119.05713441,37.01945530,2131.69
-119.05713389,37.01943683,2158.66
-119.05713242,37.01938871,2131.67
-119.05713188,37.01938200,2131.69
-119.05712871,37.01937522,2131.82
-119.05711755,37.01937406,2150.71
-119.05710932,37.01937412,2153.31
-119.05709670,37.01937422,2152.74
-119.05666414,37.01938172,2137.05
-119.05647872,37.01938492,2149.18
-119.05640824,37.01938614,2152.84
-119.05591592,37.01939466,2173.80
-119.05566420,37.01939904,2177.45
-119.05539910,37.01940365,2189.36
-119.05490578,37.01941217,2192.92
-119.05489828,37.01941230,2182.76
-119.05489666,37.01941232,2154.56
-119.05476745,37.01941456,2160.77
-119.05422895,37.01942390,2170.69
-119.05409848,37.01942615,2204.73
-119.05379223,37.01943151,2159.99
-119.05346251,37.01943721,2155.59
-119.05309572,37.01944351,2152.09
-119.05269891,37.01945039,2171.28
-119.05239314,37.01945569,2144.96
-119.05212357,37.01946041,2143.48
-119.05181214,37.01946572,2138.85
-119.05160810,37.01946925,2131.66
-119.05122235,37.01947592,2139.63
-119.05075294,37.01948404,2157.49
-119.05055944,37.01948738,2172.94
-119.05032759,37.01949139,2170.11
-119.05024622,37.01949281,2189.48
-119.05003020,37.01949660,2179.62
-119.04963612,37.01950336,2192.31
-119.04951740,37.01950538,2195.15
-119.04940688,37.01950729,2222.79
-119.04886702,37.01951663,2210.63
-119.04835843,37.01952540,2226.57
-119.04797170,37.01953209,2231.53
-119.04775085,37.01953593,2259.58
-119.04726291,37.01954433,2230.59
-119.04713025,37.01954662,2229.48
-119.04660299,37.01955572,2226.74
-119.04633152,37.01956040,2225.92
-119.04608002,37.01956476,2224.61
-119.04594625,37.01956718,2223.83
-119.04589810,37.01957093,2223.49
-119.04589794,37.01957824,2223.50
-119.04590288,37.01976131,2223.36
-119.04591329,37.02014896,2224.51
-119.04591940,37.02037737,2225.73
-119.04592544,37.02060493,2225.46
-119.04593454,37.02094223,2224.02
-119.04593919,37.02111652,2221.33
-119.04594243,37.02123709,2219.86
-119.04594825,37.02145365,2245.73
-119.04595472,37.02169446,2217.00
-119.04596497,37.02207767,2213.27
-119.04596963,37.02225197,2216.04
-119.04597095,37.02230108,2210.19
-119.04598031,37.02264902,2213.38
-119.04598449,37.02280591,2222.86
-119.04598958,37.02299611,2200.93
-119.04599903,37.02334735,2197.30
-119.04600801,37.02368244,2231.62
-119.04601436,37.02391817,2203.83
-119.04602390,37.02427529,2185.55
-119.04603000,37.02450183,2183.27
-119.04603613,37.02472928,2181.94
-119.04604366,37.02501119,2180.14
-119.04605318,37.02536671,2179.18
-119.04605737,37.02552286,2178.46
-119.04606742,37.02589688,2210.53
-119.04607545,37.02619643,2182.15
-119.04607662,37.02623998,2184.23
-119.04608812,37.02666867,2219.46
-119.04609515,37.02693028,2199.31
-119.04610228,37.02719656,2219.37
-119.04610897,37.02744575,2218.87
-119.04611442,37.02764875,2209.18
-119.04612093,37.02789066,2196.98
-119.04613090,37.02826317,2193.08
-119.04613834,37.02854038,2205.42
-119.04613983,37.02857566,2201.97
     </coordinates>
    </LineString>
   </MultiGeometry>
  </Placemark>
 </Document>
</kml>
