<kml>
 <Document>
  <Style id="yellow">
   <LineStyle>
   <color>ff00ffff</color>
   <width>1</width>
   </LineStyle>
  </Style>
  <Style id="red">
   <LineStyle>
   <color>ffff0000</color>
   <width>2</width>
   </LineStyle>
  </Style>
  <Style id="green">
   <LineStyle>
   <color>ff00ff00</color>
   <width>1</width>
   </LineStyle>
  </Style>
  <Placemark>
  <styleUrl>#yellow</styleUrl>
   <MultiGeometry>
    <LineString>
     <coordinates>
-119.03611148,37.07381185,2638.97
-119.03612714,37.07381249,2639.08
-119.03613868,37.07381245,2639.17
-119.03616394,37.07381203,2639.01
-119.03631351,37.07380946,2640.02
-119.03682707,37.07380064,2651.91
-119.03720324,37.07379419,2661.50
-119.03740176,37.07379078,2657.79
-119.03794488,37.07378142,2654.17
-119.03832930,37.07377478,2653.57
-119.03871424,37.07376822,2651.02
-119.03906818,37.07376208,2648.97
-119.03946892,37.07375522,2654.78
-119.03959430,37.07375308,2682.25
-119.04014183,37.07374366,2678.34
-119.04037797,37.07373960,2681.02
-119.04039467,37.07373931,2681.47
-119.04089414,37.07373071,2694.15
-119.04139970,37.07372201,2700.72
-119.04168112,37.07371716,2699.98
-119.04199248,37.07371177,2708.28
-119.04231147,37.07370629,2719.72
-119.04280595,37.07369778,2724.05
-119.04327408,37.07368971,2729.27
-119.04346771,37.07368638,2730.59
-119.04359629,37.07368414,2728.41
-119.04404414,37.07367642,2709.91
-119.04421291,37.07367353,2701.52
-119.04446223,37.07366922,2714.81
-119.04490234,37.07366165,2693.19
-119.04532621,37.07365434,2678.61
-119.04537397,37.07365351,2679.03
-119.04563975,37.07364893,2675.12
-119.04602041,37.07364235,2677.86
-119.04648907,37.07363427,2675.08
-119.04696557,37.07362603,2675.86
-119.04710965,37.07362355,2681.93
-119.04712552,37.07362327,2695.87
-119.04727811,37.07362064,2683.75
-119.04730652,37.07362007,2673.44
-119.04734737,37.07361913,2674.18
-119.04734920,37.07361567,2674.12
-119.04734396,37.07341882,2693.40
-119.04734066,37.07329526,2696.46
-119.04732896,37.07286058,2688.48
-119.04732615,37.07275548,2679.97
-119.04731405,37.07230652,2682.05
-119.04730490,37.07196587,2680.26
-119.04729882,37.07174133,2666.09
-119.04729266,37.07151090,2666.77
-119.04728628,37.07127312,2681.43
-119.04728274,37.07114165,2670.15
-119.04727650,37.07090925,2678.37
-119.04726745,37.07057300,2705.53
-119.04726664,37.07054265,2671.13
-119.04725703,37.07018612,2670.45
-119.04725269,37.07002446,2704.04
-119.04724910,37.06989032,2669.66
-119.04724567,37.06976296,2668.72
-119.04724130,37.06960038,2678.05
-119.04723231,37.06926769,2663.24
-119.04722512,37.06899869,2657.98
-119.04721522,37.06863444,2656.31
-119.04721148,37.06849226,2644.97
-119.04720036,37.06807768,2634.79
-119.04718985,37.06768690,2626.88
-119.04718843,37.06763399,2625.65
-119.04717770,37.06723834,2618.54
-119.04716921,37.06692276,2611.77
-119.04716108,37.06661965,2615.21
-119.04715629,37.06643959,2624.44
-119.04715106,37.06624412,2605.52
-119.04714143,37.06588598,2608.42
-119.04713645,37.06570069,2606.98
-119.04712542,37.06529137,2609.08
-119.04711870,37.06504065,2610.61
-119.04711467,37.06489057,2611.30
-119.04710786,37.06464090,2613.86
-119.04710731,37.06462326,2614.24
-119.04710715,37.06461858,2614.34
-119.04710266,37.06461335,2614.44
-119.04708268,37.06461173,2614.68
-119.04704800,37.06461204,2615.13
-119.04698506,37.06461299,2615.68
-119.04672803,37.06461743,2642.22
-119.04637409,37.06462355,2618.44
-119.04602531,37.06462955,2617.26
-119.04577102,37.06463394,2630.23
-119.04538421,37.06464066,2611.79
-119.04502950,37.06464672,2609.02
-119.04483531,37.06465007,2608.23
-119.04474706,37.06465159,2607.85
-119.04421408,37.06466078,2616.15
-119.04418694,37.06466125,2618.21
-119.04399054,37.06466464,2609.18
-119.04363047,37.06467085,2609.11
-119.04338976,37.06467499,2630.90
-119.04338446,37.06467508,2631.37
-119.04338017,37.06467516,2628.30
-119.04299108,37.06468186,2634.45
-119.04268014,37.06468729,2610.92
-119.04239597,37.06469213,2609.31
-119.04231467,37.06469352,2606.99
-119.04225592,37.06469454,2604.94
-119.04174656,37.06470330,2589.82
-119.04131845,37.06471070,2581.27
-119.04089149,37.06471802,2593.43
-119.04073755,37.06472067,2585.60
-119.04073675,37.06472068,2585.47
-119.04064210,37.06472231,2578.62
-119.04040251,37.06472643,2573.14
-119.03991576,37.06473481,2573.16
-119.03971287,37.06473830,2579.13
-119.03925385,37.06474620,2576.82
-119.03905328,37.06474966,2579.62
-119.03864769,37.06475662,2578.71
-119.03839224,37.06476101,2576.84
-119.03789967,37.06476948,2573.57
-119.03738790,37.06477828,2558.46
-119.03697512,37.06478536,2546.23
-119.03659054,37.06479198,2533.87
-119.03611234,37.06480018,2533.17
-119.03591519,37.06480358,2526.12
-119.03588793,37.06480425,2531.54
-119.03587025,37.06480556,2526.76
-119.03586891,37.06480730,2516.48
-119.03586646,37.06481275,2516.01
-119.03586611,37.06481586,2528.74
-119.03586911,37.06492801,2516.60
-119.03586964,37.06494794,2517.64
-119.03587796,37.06525856,2519.77
-119.03588602,37.06556050,2545.72
-119.03588937,37.06568577,2526.63
-119.03589909,37.06604942,2531.55
-119.03590705,37.06634701,2546.57
-119.03591705,37.06672029,2537.89
-119.03592541,37.06703342,2540.37
-119.03593142,37.06725840,2574.77
-119.03593773,37.06749352,2576.82
-119.03594356,37.06771260,2542.02
-119.03595183,37.06801876,2543.10
-119.03595799,37.06825190,2546.19
-119.03596227,37.06840932,2547.56
-119.03597132,37.06875081,2567.12
-119.03598205,37.06915201,2555.52
-119.03599376,37.06958998,2560.37
-119.03599889,37.06978147,2562.84
-119.03600735,37.07009772,2564.81
-119.03601606,37.07042347,2571.48
-119.03602210,37.07064962,2574.68
-119.03603144,37.07099856,2580.53
-119.03603424,37.07110339,2583.39
-119.03604309,37.07143456,2592.64
-119.03604841,37.07163348,2605.18
-119.03605154,37.07175041,2599.97
-119.03606330,37.07219002,2611.58
-119.03607143,37.07249371,2621.37
-119.03608152,37.07287079,2625.34
-119.03609201,37.07326311,2642.79
-119.03609903,37.07352615,2632.99
-119.03610470,37.07373551,2637.06
-119.03610605,37.07378250,2638.03
-119.03610689,37.07381138,2638.97
-119.03611148,37.07381185,2638.97
     </coordinates>
    </LineString>
   </MultiGeometry>
  </Placemark>
 </Document>
</kml>
