<kml>
 <Document>
  <Style id="yellow">
   <LineStyle>
   <color>ff00ffff</color>
   <width>1</width>
   </LineStyle>
  </Style>
  <Style id="red">
   <LineStyle>
   <color>ffff0000</color>
   <width>2</width>
   </LineStyle>
  </Style>
  <Style id="green">
   <LineStyle>
   <color>ff00ff00</color>
   <width>1</width>
   </LineStyle>
  </Style>
  <Placemark>
  <styleUrl>#yellow</styleUrl>
   <MultiGeometry>
    <LineString>
     <coordinates>
-119.03513676,37.03751712,2329.24
-119.03513994,37.03763536,2330.64
-119.03514213,37.03771423,2313.39
-119.03514350,37.03775794,2313.32
-119.03514376,37.03776214,2313.34
-119.03514484,37.03777801,2326.92
-119.03514727,37.03777822,2325.56
-119.03516055,37.03777814,2325.40
-119.03526258,37.03777642,2325.52
-119.03571542,37.03776865,2305.40
-119.03627429,37.03775905,2309.37
-119.03674320,37.03775100,2280.48
-119.03721557,37.03774286,2274.31
-119.03750813,37.03773786,2280.29
-119.03801308,37.03772917,2279.52
-119.03814327,37.03772695,2266.41
-119.03844970,37.03772168,2263.69
-119.03874461,37.03771661,2265.02
-119.03921024,37.03770861,2258.89
-119.03960817,37.03770176,2276.88
-119.03996987,37.03769555,2277.26
-119.04011510,37.03769305,2280.65
-119.04056932,37.03768519,2258.19
-119.04080190,37.03768124,2249.90
-119.04121670,37.03767410,2252.08
-119.04145990,37.03766991,2266.29
-119.04158351,37.03766778,2270.49
-119.04184914,37.03766319,2266.26
-119.04219233,37.03765728,2242.03
-119.04266155,37.03764922,2260.36
-119.04315730,37.03764068,2244.14
-119.04366971,37.03763186,2270.05
-119.04407368,37.03762489,2278.58
-119.04425846,37.03762171,2283.37
-119.04427888,37.03762136,2252.50
-119.04450671,37.03761743,2250.32
-119.04504062,37.03760823,2275.38
-119.04544558,37.03760121,2295.24
-119.04570796,37.03759670,2273.03
-119.04598464,37.03759195,2252.82
-119.04606313,37.03759058,2251.43
-119.04625846,37.03758716,2251.40
-119.04627792,37.03758680,2251.02
-119.04637871,37.03758490,2250.29
-119.04637918,37.03757660,2250.28
-119.04638012,37.03755398,2250.41
-119.04637984,37.03753974,2250.25
-119.04637408,37.03732359,2265.35
-119.04636499,37.03698508,2266.33
-119.04635869,37.03675041,2249.63
-119.04635148,37.03648338,2246.83
-119.04634346,37.03618348,2281.77
-119.04634277,37.03615754,2278.94
-119.04633676,37.03593580,2259.25
-119.04632929,37.03565513,2249.24
-119.04632231,37.03540149,2241.06
-119.04631615,37.03516821,2263.70
-119.04631478,37.03511542,2282.61
-119.04631347,37.03506630,2238.49
-119.04630771,37.03485154,2237.97
-119.04630542,37.03476631,2239.99
-119.04629873,37.03451692,2232.69
-119.04629541,37.03439327,2227.60
-119.04628697,37.03408060,2229.75
-119.04628282,37.03392521,2231.31
-119.04627205,37.03352354,2244.11
-119.04626834,37.03338464,2260.01
-119.04626279,37.03317771,2225.08
-119.04625363,37.03283726,2225.40
-119.04624767,37.03261443,2251.55
-119.04623655,37.03220001,2279.44
-119.04622472,37.03175923,2237.91
-119.04621824,37.03151880,2241.35
-119.04620646,37.03107907,2248.39
-119.04620517,37.03103103,2257.28
-119.04619773,37.03075452,2251.08
-119.04619100,37.03050302,2249.87
-119.04618459,37.03026575,2240.52
-119.04617368,37.02985876,2231.59
-119.04616160,37.02940875,2219.53
-119.04615435,37.02913723,2216.72
-119.04614507,37.02879130,2231.64
-119.04614341,37.02873032,2213.54
-119.04614006,37.02860995,2203.17
-119.04613919,37.02858359,2202.34
-119.04613832,37.02857738,2202.05
-119.04611401,37.02857707,2202.99
-119.04608212,37.02857750,2204.01
-119.04583765,37.02858170,2241.52
-119.04539221,37.02858939,2222.81
-119.04528286,37.02859127,2250.39
-119.04499313,37.02859627,2232.36
-119.04471279,37.02860110,2237.24
-119.04456431,37.02860366,2237.88
-119.04416427,37.02861056,2240.93
-119.04392992,37.02861459,2244.11
-119.04380168,37.02861681,2282.99
-119.04360668,37.02862021,2295.47
-119.04323480,37.02862657,2291.30
-119.04309559,37.02862897,2263.07
-119.04288899,37.02863253,2310.33
-119.04244382,37.02864020,2273.77
-119.04214091,37.02864541,2278.54
-119.04197628,37.02864826,2287.52
-119.04177697,37.02865172,2284.36
-119.04128033,37.02866025,2288.36
-119.04110482,37.02866327,2307.67
-119.04068208,37.02867056,2293.92
-119.04026801,37.02867769,2298.26
-119.03988867,37.02868418,2309.47
-119.03971270,37.02868719,2306.00
-119.03917806,37.02869640,2315.67
-119.03914419,37.02869698,2316.53
-119.03894956,37.02870032,2321.53
-119.03851238,37.02870785,2335.24
-119.03810711,37.02871481,2345.25
-119.03764014,37.02872282,2364.26
-119.03727659,37.02872905,2344.63
-119.03721605,37.02873009,2342.28
-119.03688525,37.02873582,2339.29
-119.03644386,37.02874335,2371.63
-119.03635299,37.02874491,2360.53
-119.03591481,37.02875243,2362.34
-119.03549267,37.02875968,2373.59
-119.03502596,37.02876769,2363.69
-119.03496276,37.02876877,2363.62
-119.03492709,37.02876974,2363.41
-119.03490421,37.02877092,2363.41
-119.03490351,37.02877375,2363.46
-119.03490355,37.02877893,2363.60
-119.03490868,37.02897298,2366.69
-119.03491046,37.02903938,2370.18
-119.03491839,37.02933659,2371.56
-119.03492257,37.02949236,2384.58
-119.03493386,37.02991598,2379.50
-119.03493900,37.03010881,2380.11
-119.03494991,37.03051765,2382.73
-119.03495625,37.03075401,2383.53
-119.03496394,37.03104247,2383.80
-119.03497530,37.03146899,2375.50
-119.03498729,37.03191760,2369.33
-119.03499437,37.03218307,2366.56
-119.03499896,37.03235496,2373.93
-119.03500792,37.03269001,2353.90
-119.03501343,37.03289741,2358.43
-119.03501522,37.03296445,2363.19
-119.03502374,37.03328293,2361.17
-119.03502799,37.03344301,2345.90
-119.03503096,37.03355404,2360.62
-119.03503339,37.03364493,2359.87
-119.03504499,37.03407978,2343.08
-119.03505558,37.03447613,2338.05
-119.03505887,37.03459976,2348.06
-119.03506480,37.03482126,2333.21
-119.03507092,37.03505120,2346.38
-119.03508172,37.03545389,2337.87
-119.03508690,37.03564951,2323.84
-119.03509755,37.03604872,2346.97
-119.03510222,37.03622339,2333.18
-119.03511205,37.03659181,2327.90
-119.03511539,37.03671681,2327.08
-119.03511985,37.03688402,2319.27
-119.03512962,37.03724967,2327.03
-119.03513126,37.03731128,2320.14
-119.03513663,37.03751217,2328.50
-119.03513676,37.03751712,2329.24
     </coordinates>
    </LineString>
   </MultiGeometry>
  </Placemark>
 </Document>
</kml>
