<kml>
 <Document>
  <Style id="yellow">
   <LineStyle>
   <color>ff00ffff</color>
   <width>1</width>
   </LineStyle>
  </Style>
  <Style id="red">
   <LineStyle>
   <color>ffff0000</color>
   <width>2</width>
   </LineStyle>
  </Style>
  <Style id="green">
   <LineStyle>
   <color>ff00ff00</color>
   <width>1</width>
   </LineStyle>
  </Style>
  <Placemark>
  <styleUrl>#yellow</styleUrl>
   <MultiGeometry>
    <LineString>
     <coordinates>
-119.01218036,37.01966079,2283.40
-119.01218543,37.01985291,2274.06
-119.01218909,37.01999021,2275.68
-119.01219231,37.02010266,2277.34
-119.01219346,37.02013885,2277.27
-119.01219630,37.02014167,2277.52
-119.01222427,37.02014369,2305.16
-119.01232385,37.02014213,2284.22
-119.01241925,37.02014053,2278.27
-119.01286341,37.02013289,2276.96
-119.01299579,37.02013070,2279.77
-119.01314300,37.02012824,2274.55
-119.01359208,37.02012061,2287.08
-119.01373430,37.02011819,2253.99
-119.01413739,37.02011135,2249.59
-119.01429678,37.02010865,2286.34
-119.01447953,37.02010556,2244.41
-119.01493987,37.02009774,2272.37
-119.01543846,37.02008926,2235.23
-119.01582977,37.02008260,2233.94
-119.01614938,37.02007717,2241.96
-119.01653355,37.02007062,2230.63
-119.01673759,37.02006718,2254.08
-119.01688163,37.02006474,2238.82
-119.01740179,37.02005589,2253.40
-119.01778800,37.02004933,2231.83
-119.01823802,37.02004166,2232.10
-119.01852085,37.02003685,2228.17
-119.01872107,37.02003342,2226.68
-119.01917946,37.02002565,2257.24
-119.01934833,37.02002277,2241.27
-119.01989343,37.02001348,2212.69
-119.02023174,37.02000773,2239.27
-119.02033845,37.02000591,2223.34
-119.02085343,37.01999715,2247.20
-119.02106017,37.01999362,2251.52
-119.02150788,37.01998599,2240.04
-119.02185277,37.01998012,2234.11
-119.02230359,37.01997242,2242.62
-119.02282217,37.01996359,2254.96
-119.02291840,37.01996193,2241.49
-119.02342164,37.01995335,2235.50
-119.02342787,37.01995304,2235.43
-119.02342749,37.01993210,2234.82
-119.02341830,37.01958574,2249.62
-119.02341134,37.01932338,2222.57
-119.02340468,37.01907253,2227.99
-119.02340391,37.01904316,2218.36
-119.02340155,37.01895448,2234.05
-119.02339160,37.01857985,2218.91
-119.02338600,37.01836871,2218.64
-119.02337513,37.01795854,2202.90
-119.02336682,37.01764559,2205.24
-119.02335743,37.01729120,2185.64
-119.02335564,37.01722351,2185.29
-119.02334630,37.01687139,2184.30
-119.02334203,37.01671143,2197.48
-119.02333301,37.01637055,2182.59
-119.02332774,37.01617246,2182.06
-119.02331952,37.01586402,2181.44
-119.02331558,37.01571403,2181.25
-119.02331074,37.01553082,2181.10
-119.02330637,37.01536707,2180.98
-119.02329540,37.01495255,2180.76
-119.02329195,37.01482231,2180.63
-119.02328989,37.01474479,2180.88
-119.02328575,37.01458847,2180.58
-119.02328422,37.01453092,2180.58
-119.02328020,37.01437963,2180.69
-119.02327809,37.01430073,2180.85
-119.02327398,37.01414688,2180.77
-119.02326565,37.01383189,2196.18
-119.02326335,37.01374499,2202.45
-119.02325452,37.01341180,2199.59
-119.02325028,37.01325308,2188.76
-119.02324594,37.01309052,2188.13
-119.02323827,37.01280025,2189.66
-119.02323489,37.01267166,2181.53
-119.02322374,37.01225026,2192.13
-119.02321665,37.01198338,2186.76
-119.02321146,37.01178766,2211.44
-119.02320342,37.01148491,2179.74
-119.02319887,37.01131231,2179.30
-119.02319673,37.01123191,2179.25
-119.02318969,37.01096731,2195.74
-119.02318903,37.01094870,2198.09
-119.02318846,37.01094487,2195.95
-119.02318756,37.01094478,2196.01
-119.02318720,37.01094476,2196.11
-119.02317839,37.01094482,2195.86
-119.02300067,37.01094772,2178.28
-119.02286562,37.01095001,2187.62
-119.02264106,37.01095384,2177.67
-119.02239305,37.01095810,2194.34
-119.02197417,37.01096523,2196.74
-119.02176264,37.01096882,2197.72
-119.02129582,37.01097679,2179.44
-119.02119720,37.01097845,2198.65
-119.02067448,37.01098735,2177.42
-119.02025913,37.01099446,2196.54
-119.02007158,37.01099765,2181.14
-119.01990639,37.01100044,2182.99
-119.01968126,37.01100427,2183.61
-119.01956211,37.01100629,2183.21
-119.01952020,37.01100701,2182.83
-119.01899594,37.01101593,2179.62
-119.01875723,37.01102001,2179.21
-119.01835064,37.01102691,2181.91
-119.01805176,37.01103201,2192.88
-119.01769968,37.01103800,2175.78
-119.01747695,37.01104182,2195.60
-119.01712911,37.01104769,2186.72
-119.01696015,37.01105056,2180.49
-119.01675888,37.01105399,2176.43
-119.01654428,37.01105765,2185.18
-119.01612168,37.01106482,2172.91
-119.01580581,37.01107023,2172.91
-119.01555208,37.01107449,2172.56
-119.01519227,37.01108061,2186.80
-119.01468966,37.01108914,2175.11
-119.01449440,37.01109247,2185.01
-119.01397938,37.01110122,2203.02
-119.01372114,37.01110560,2175.81
-119.01344829,37.01111025,2183.25
-119.01309631,37.01111620,2194.73
-119.01257292,37.01112506,2196.05
-119.01235373,37.01112878,2183.13
-119.01197739,37.01113517,2176.78
-119.01196660,37.01113536,2176.81
-119.01195618,37.01113943,2179.18
-119.01195621,37.01115913,2178.24
-119.01195707,37.01119439,2177.45
-119.01195773,37.01121990,2177.53
-119.01196331,37.01142956,2178.72
-119.01197331,37.01181015,2183.38
-119.01197495,37.01187295,2184.43
-119.01197948,37.01204412,2188.12
-119.01198705,37.01232830,2196.61
-119.01199641,37.01268577,2201.55
-119.01200822,37.01313434,2214.40
-119.01201393,37.01335081,2220.56
-119.01201567,37.01341684,2220.85
-119.01201755,37.01348811,2222.62
-119.01201846,37.01352276,2223.10
-119.01201871,37.01353210,2223.34
-119.01202010,37.01358496,2225.00
-119.01202288,37.01369016,2227.13
-119.01202597,37.01380741,2258.27
-119.01202695,37.01384456,2271.57
-119.01203452,37.01413148,2256.22
-119.01203748,37.01424335,2233.35
-119.01204271,37.01444058,2230.60
-119.01205427,37.01488023,2252.95
-119.01206560,37.01531002,2217.76
-119.01206782,37.01539441,2217.20
-119.01207721,37.01575045,2211.25
-119.01207949,37.01583678,2208.77
-119.01208493,37.01604283,2207.85
-119.01208535,37.01605885,2207.91
-119.01209531,37.01643570,2213.89
-119.01210372,37.01675539,2225.19
-119.01210523,37.01681174,2226.46
-119.01211160,37.01705050,2243.73
-119.01211768,37.01728330,2241.95
-119.01211956,37.01735575,2252.52
-119.01212473,37.01755130,2266.69
-119.01213212,37.01782980,2258.34
-119.01214109,37.01817160,2262.71
-119.01214630,37.01836938,2265.33
-119.01215641,37.01875302,2280.78
-119.01216046,37.01890636,2271.86
-119.01216977,37.01925829,2270.20
-119.01217360,37.01940406,2271.35
-119.01218035,37.01966016,2272.61
-119.01218036,37.01966079,2283.40
     </coordinates>
    </LineString>
   </MultiGeometry>
  </Placemark>
 </Document>
</kml>
