<kml>
 <Document>
  <Style id="yellow">
   <LineStyle>
   <color>ff00ffff</color>
   <width>1</width>
   </LineStyle>
  </Style>
  <Style id="red">
   <LineStyle>
   <color>ffff0000</color>
   <width>2</width>
   </LineStyle>
  </Style>
  <Style id="green">
   <LineStyle>
   <color>ff00ff00</color>
   <width>1</width>
   </LineStyle>
  </Style>
  <Placemark>
  <styleUrl>#yellow</styleUrl>
   <MultiGeometry>
    <LineString>
     <coordinates>
-119.04742897,37.07361800,2674.85
-119.04745437,37.07361758,2679.65
-119.04748518,37.07361705,2677.47
-119.04802656,37.07360772,2705.22
-119.04837457,37.07360168,2669.92
-119.04865204,37.07359692,2713.33
-119.04893330,37.07359205,2668.75
-119.04920250,37.07358738,2664.03
-119.04950818,37.07358211,2648.00
-119.04974922,37.07357795,2664.31
-119.05008371,37.07357217,2639.86
-119.05040536,37.07356660,2633.88
-119.05084695,37.07355897,2623.67
-119.05113634,37.07355396,2620.44
-119.05139907,37.07354941,2636.65
-119.05165215,37.07354501,2613.26
-119.05200049,37.07353901,2605.70
-119.05222035,37.07353519,2602.54
-119.05252151,37.07352991,2611.29
-119.05278310,37.07352546,2626.16
-119.05310608,37.07351984,2606.37
-119.05336403,37.07351540,2619.77
-119.05382081,37.07350749,2629.24
-119.05420813,37.07350075,2600.46
-119.05450511,37.07349563,2600.61
-119.05463594,37.07349337,2632.52
-119.05513752,37.07348467,2603.52
-119.05551369,37.07347814,2605.08
-119.05580343,37.07347312,2606.41
-119.05598444,37.07346996,2605.86
-119.05652686,37.07346058,2633.54
-119.05653451,37.07346045,2628.13
-119.05663175,37.07345875,2599.96
-119.05712606,37.07345018,2593.73
-119.05742732,37.07344496,2595.56
-119.05743652,37.07344480,2596.26
-119.05791680,37.07343646,2584.18
-119.05807977,37.07343363,2578.26
-119.05850405,37.07342627,2565.27
-119.05858872,37.07342473,2569.65
-119.05858971,37.07342397,2562.17
-119.05859131,37.07342226,2562.15
-119.05859161,37.07341410,2562.23
-119.05859106,37.07339319,2562.24
-119.05858997,37.07335267,2595.98
-119.05858715,37.07324770,2580.44
-119.05858209,37.07306029,2585.50
-119.05857017,37.07261899,2571.89
-119.05856616,37.07247366,2574.04
-119.05855609,37.07209824,2576.70
-119.05854599,37.07172579,2567.07
-119.05853523,37.07132705,2543.76
-119.05853378,37.07127320,2558.91
-119.05852459,37.07093568,2524.86
-119.05852065,37.07078783,2522.03
-119.05851328,37.07051569,2516.53
-119.05850641,37.07026161,2513.46
-119.05849612,37.06988225,2507.81
-119.05848966,37.06964192,2532.57
-119.05848766,37.06956773,2518.78
-119.05848576,37.06949776,2501.58
-119.05847533,37.06911180,2512.53
-119.05846622,37.06877466,2509.80
-119.05845766,37.06845799,2501.39
-119.05844927,37.06814856,2492.97
-119.05843953,37.06778731,2507.21
-119.05843360,37.06756860,2479.95
-119.05842564,37.06727404,2498.52
-119.05842146,37.06711987,2513.25
-119.05841337,37.06681977,2493.48
-119.05840296,37.06643531,2487.41
-119.05839087,37.06598773,2531.49
-119.05838824,37.06589086,2504.22
-119.05837840,37.06552755,2494.56
-119.05837203,37.06529030,2495.57
-119.05836523,37.06504062,2494.83
-119.05835445,37.06463993,2484.91
-119.05835093,37.06451027,2485.53
-119.05834864,37.06442602,2494.71
-119.05834809,37.06442144,2485.09
-119.05834718,37.06441780,2488.25
-119.05833868,37.06441648,2493.58
-119.05805098,37.06442146,2490.17
-119.05766468,37.06442813,2489.48
-119.05735959,37.06443342,2529.32
-119.05719338,37.06443631,2500.62
-119.05663578,37.06444598,2511.44
-119.05655401,37.06444740,2512.83
-119.05650878,37.06444818,2513.62
-119.05603639,37.06445638,2533.24
-119.05581478,37.06446022,2523.71
-119.05542779,37.06446694,2526.21
-119.05488958,37.06447626,2529.79
-119.05473655,37.06447891,2553.10
-119.05465960,37.06448025,2553.92
-119.05413360,37.06448939,2570.74
-119.05391508,37.06449315,2567.44
-119.05357031,37.06449911,2577.12
-119.05355925,37.06449930,2561.49
-119.05317036,37.06450604,2552.91
-119.05295529,37.06450976,2570.65
-119.05280833,37.06451231,2596.67
-119.05259269,37.06451615,2548.59
-119.05224054,37.06452215,2586.05
-119.05191116,37.06452785,2597.73
-119.05145024,37.06453581,2571.27
-119.05100985,37.06454343,2582.10
-119.05059765,37.06455056,2589.24
-119.05058353,37.06455080,2605.64
-119.05021695,37.06455715,2598.79
-119.04991566,37.06456235,2592.04
-119.04967972,37.06456643,2592.86
-119.04921727,37.06457443,2597.29
-119.04886492,37.06458057,2600.55
-119.04863709,37.06458447,2602.95
-119.04813227,37.06459317,2608.09
-119.04779152,37.06459905,2655.84
-119.04776237,37.06459956,2656.51
-119.04734106,37.06460693,2613.43
-119.04715167,37.06461013,2614.21
-119.04713561,37.06461127,2614.27
-119.04710812,37.06461350,2614.40
-119.04710748,37.06461864,2614.33
-119.04710774,37.06463005,2614.11
-119.04710801,37.06464092,2613.86
-119.04711524,37.06491088,2650.23
-119.04712123,37.06513423,2609.68
-119.04712636,37.06532491,2608.63
-119.04712936,37.06543621,2607.98
-119.04713731,37.06573135,2607.18
-119.04714350,37.06596264,2634.28
-119.04714705,37.06609449,2638.26
-119.04715134,37.06625229,2605.59
-119.04716074,37.06660258,2607.48
-119.04716264,37.06667421,2611.62
-119.04717150,37.06700190,2653.98
-119.04717600,37.06716851,2619.97
-119.04718691,37.06757669,2623.16
-119.04718857,37.06763908,2625.72
-119.04718858,37.06763914,2625.71
-119.04719716,37.06795650,2632.09
-119.04720247,37.06815601,2652.43
-119.04720909,37.06840208,2642.67
-119.04721534,37.06863191,2657.16
-119.04722418,37.06896121,2657.21
-119.04723596,37.06940024,2664.94
-119.04724159,37.06961031,2676.25
-119.04725302,37.07003557,2704.05
-119.04726459,37.07046605,2670.47
-119.04727393,37.07081327,2703.60
-119.04728067,37.07106348,2670.09
-119.04728619,37.07126886,2679.70
-119.04729200,37.07148476,2666.81
-119.04729773,37.07169760,2665.04
-119.04730489,37.07196483,2674.41
-119.04731004,37.07215585,2680.95
-119.04731973,37.07251630,2665.43
-119.04732696,37.07278520,2683.06
-119.04733331,37.07301567,2681.14
-119.04733938,37.07324708,2672.61
-119.04734865,37.07359144,2674.03
-119.04735040,37.07361449,2674.12
-119.04735792,37.07361841,2675.59
-119.04742897,37.07361800,2674.85
     </coordinates>
    </LineString>
   </MultiGeometry>
  </Placemark>
 </Document>
</kml>
