<kml>
 <Document>
  <Style id="yellow">
   <LineStyle>
   <color>ff00ffff</color>
   <width>1</width>
   </LineStyle>
  </Style>
  <Style id="red">
   <LineStyle>
   <color>ffff0000</color>
   <width>2</width>
   </LineStyle>
  </Style>
  <Style id="green">
   <LineStyle>
   <color>ff00ff00</color>
   <width>1</width>
   </LineStyle>
  </Style>
  <Placemark>
  <styleUrl>#yellow</styleUrl>
   <MultiGeometry>
    <LineString>
     <coordinates>
-118.97998022,37.06575077,2712.29
-118.98032936,37.06574494,2700.95
-118.98080682,37.06573694,2691.98
-118.98110340,37.06573199,2689.69
-118.98137050,37.06572754,2703.38
-118.98137348,37.06572749,2701.87
-118.98168985,37.06572221,2689.62
-118.98198523,37.06571727,2698.35
-118.98225301,37.06571279,2684.97
-118.98253812,37.06570801,2691.39
-118.98308006,37.06569896,2688.43
-118.98338032,37.06569394,2699.28
-118.98383509,37.06568634,2696.98
-118.98418851,37.06568042,2703.57
-118.98432188,37.06567819,2706.04
-118.98483899,37.06566953,2721.94
-118.98530867,37.06566167,2730.92
-118.98576125,37.06565407,2717.01
-118.98596130,37.06565073,2727.43
-118.98629070,37.06564523,2717.37
-118.98684863,37.06563587,2716.23
-118.98734864,37.06562750,2723.04
-118.98756736,37.06562382,2708.93
-118.98806886,37.06561542,2710.45
-118.98832656,37.06561110,2722.01
-118.98885272,37.06560228,2695.01
-118.98933456,37.06559418,2715.46
-118.98963990,37.06558908,2715.73
-118.98980486,37.06558631,2694.55
-118.99030315,37.06557794,2712.39
-118.99053966,37.06557397,2693.65
-118.99079524,37.06556966,2698.02
-118.99089796,37.06556789,2691.04
-118.99089825,37.06556503,2691.03
-118.99089892,37.06555856,2691.18
-118.99089888,37.06555323,2708.53
-118.99089568,37.06542959,2690.66
-118.99089225,37.06529845,2698.96
-118.99088447,37.06500092,2689.69
-118.99088028,37.06484038,2688.95
-118.99087599,37.06467630,2689.52
-118.99087195,37.06452201,2688.57
-118.99086600,37.06429495,2689.65
-118.99085975,37.06405513,2689.15
-118.99085369,37.06382341,2689.79
-118.99085365,37.06382210,2688.48
-118.99085060,37.06370523,2688.87
-118.99084635,37.06354356,2688.72
-118.99083987,37.06329617,2687.87
-118.99083417,37.06307714,2689.31
-118.99082790,37.06283697,2706.25
-118.99081662,37.06240562,2690.03
-118.99081603,37.06238285,2709.32
-118.99080587,37.06199511,2705.43
-118.99080215,37.06185247,2701.07
-118.99079553,37.06159913,2708.87
-118.99078860,37.06133358,2718.34
-118.99078284,37.06111413,2693.51
-118.99077409,37.06077863,2719.59
-118.99077066,37.06064708,2696.91
-118.99077032,37.06063422,2697.12
-118.99076816,37.06055161,2728.24
-118.99076428,37.06040305,2698.08
-118.99076163,37.06030178,2712.43
-118.99076045,37.06025667,2708.93
-118.99075430,37.06002178,2716.88
-118.99074323,37.05959783,2707.15
-118.99074103,37.05951376,2705.04
-118.99074059,37.05949668,2719.28
-118.99073560,37.05930631,2705.27
-118.99072801,37.05901623,2722.56
-118.99072327,37.05883395,2730.52
-118.99071974,37.05869950,2721.28
-118.99071269,37.05843054,2709.39
-118.99070837,37.05826711,2723.27
-118.99069906,37.05790919,2747.46
-118.99069290,37.05767212,2728.63
-118.99068213,37.05725991,2730.86
-118.99067759,37.05708644,2724.00
-118.99066831,37.05673158,2724.37
-118.99066435,37.05658372,2727.63
-118.99066395,37.05657254,2722.54
-118.99066298,37.05655949,2721.94
-118.99065864,37.05655919,2721.95
-118.99055253,37.05656094,2732.56
-118.99012019,37.05656820,2714.86
-118.98964241,37.05657623,2706.38
-118.98934693,37.05658120,2731.28
-118.98880931,37.05659019,2693.61
-118.98826003,37.05659939,2664.15
-118.98776884,37.05660763,2668.40
-118.98735875,37.05661452,2646.34
-118.98718192,37.05661747,2671.70
-118.98700130,37.05662049,2670.27
-118.98682969,37.05662337,2672.34
-118.98627508,37.05663266,2666.97
-118.98609919,37.05663560,2652.67
-118.98573439,37.05664172,2657.89
-118.98526238,37.05664962,2656.69
-118.98483042,37.05665684,2663.43
-118.98456949,37.05666123,2650.80
-118.98405964,37.05666976,2642.57
-118.98366894,37.05667629,2634.73
-118.98343174,37.05668027,2642.86
-118.98309078,37.05668596,2655.13
-118.98276079,37.05669147,2606.00
-118.98265760,37.05669319,2610.81
-118.98225171,37.05670001,2585.66
-118.98192675,37.05670541,2569.58
-118.98180168,37.05670752,2562.24
-118.98130460,37.05671581,2544.64
-118.98105305,37.05672001,2538.53
-118.98083109,37.05672372,2533.96
-118.98082096,37.05672389,2538.03
-118.98039250,37.05673105,2536.74
-118.97989083,37.05673943,2525.43
-118.97978644,37.05674116,2508.25
-118.97961773,37.05674400,2539.25
-118.97946960,37.05674649,2506.43
-118.97942741,37.05674799,2506.37
-118.97942481,37.05674992,2506.37
-118.97942426,37.05677650,2523.83
-118.97942431,37.05678728,2516.59
-118.97943031,37.05701797,2506.97
-118.97943412,37.05716439,2533.95
-118.97944030,37.05740254,2528.88
-118.97944770,37.05768761,2531.14
-118.97944795,37.05769710,2519.13
-118.97945152,37.05783460,2547.90
-118.97945605,37.05800706,2542.08
-118.97946622,37.05839935,2547.43
-118.97947195,37.05862080,2555.92
-118.97947728,37.05882526,2560.93
-118.97948278,37.05903671,2567.35
-118.97948920,37.05928451,2575.02
-118.97948964,37.05930142,2575.73
-118.97949018,37.05932220,2576.75
-118.97950121,37.05974649,2590.83
-118.97950668,37.05995701,2588.16
-118.97951665,37.06033843,2591.77
-118.97952649,37.06071730,2598.21
-118.97953721,37.06113139,2613.92
-118.97954810,37.06155023,2633.16
-118.97955871,37.06195877,2648.90
-118.97957011,37.06239615,2660.14
-118.97957825,37.06270897,2661.82
-118.97958220,37.06286250,2663.41
-118.97958486,37.06296493,2665.41
-118.97959139,37.06321617,2670.00
-118.97959705,37.06343259,2673.71
-118.97960003,37.06354644,2675.59
-118.97960927,37.06390077,2679.74
-118.97961200,37.06400674,2681.17
-118.97962159,37.06437770,2688.84
-118.97962199,37.06439344,2689.06
-118.97963347,37.06483384,2696.17
-118.97963976,37.06507595,2700.59
-118.97964589,37.06531272,2705.94
-118.97965563,37.06568588,2711.09
-118.97965741,37.06574917,2711.08
-118.97965911,37.06575518,2711.05
-118.97969764,37.06575526,2710.14
-118.97972103,37.06575510,2710.26
-118.97998022,37.06575077,2712.29
     </coordinates>
    </LineString>
   </MultiGeometry>
  </Placemark>
 </Document>
</kml>
