<kml>
 <Document>
  <Style id="yellow">
   <LineStyle>
   <color>ff00ffff</color>
   <width>1</width>
   </LineStyle>
  </Style>
  <Style id="red">
   <LineStyle>
   <color>ffff0000</color>
   <width>2</width>
   </LineStyle>
  </Style>
  <Style id="green">
   <LineStyle>
   <color>ff00ff00</color>
   <width>1</width>
   </LineStyle>
  </Style>
  <Placemark>
  <styleUrl>#yellow</styleUrl>
   <MultiGeometry>
    <LineString>
     <coordinates>
-118.99042903,37.04753649,2552.98
-118.99043065,37.04754516,2553.57
-118.99043301,37.04754915,2553.83
-118.99044322,37.04754986,2553.75
-118.99052295,37.04754857,2553.68
-118.99086349,37.04754285,2554.55
-118.99110527,37.04753880,2547.81
-118.99134769,37.04753473,2542.20
-118.99149218,37.04753229,2548.81
-118.99186686,37.04752599,2532.92
-118.99213324,37.04752153,2528.81
-118.99264849,37.04751288,2550.42
-118.99284556,37.04750957,2533.49
-118.99317435,37.04750402,2513.18
-118.99372522,37.04749475,2512.44
-118.99390376,37.04749176,2535.93
-118.99425512,37.04748587,2524.65
-118.99479674,37.04747676,2492.52
-118.99497344,37.04747379,2523.09
-118.99531731,37.04746800,2490.25
-118.99567860,37.04746193,2510.52
-118.99582971,37.04745937,2515.86
-118.99628993,37.04745164,2529.66
-118.99644215,37.04744908,2491.04
-118.99691735,37.04744107,2527.31
-118.99734733,37.04743384,2537.46
-118.99741457,37.04743270,2510.18
-118.99741574,37.04743268,2510.20
-118.99742429,37.04743254,2510.81
-118.99742713,37.04743249,2510.85
-118.99743201,37.04743241,2510.64
-118.99764615,37.04742880,2514.06
-118.99801595,37.04742256,2536.86
-118.99827920,37.04741813,2525.88
-118.99863967,37.04741206,2537.35
-118.99914745,37.04740350,2569.37
-118.99970502,37.04739410,2581.65
-118.99993215,37.04739025,2562.64
-119.00037238,37.04738283,2562.14
-119.00058499,37.04737926,2583.85
-119.00104571,37.04737149,2553.82
-119.00114768,37.04736977,2551.89
-119.00150640,37.04736372,2565.87
-119.00156999,37.04736264,2574.88
-119.00160207,37.04736210,2569.88
-119.00166610,37.04736091,2560.01
-119.00166741,37.04735797,2543.46
-119.00166582,37.04729498,2562.01
-119.00165957,37.04705682,2548.09
-119.00164785,37.04661220,2552.20
-119.00163669,37.04618588,2557.96
-119.00163634,37.04617262,2564.64
-119.00163555,37.04614246,2570.64
-119.00163349,37.04606487,2559.04
-119.00162288,37.04566103,2558.94
-119.00161797,37.04547403,2556.80
-119.00160965,37.04515687,2554.11
-119.00160082,37.04482074,2547.52
-119.00158982,37.04440160,2539.48
-119.00158719,37.04430146,2537.54
-119.00157904,37.04399099,2532.01
-119.00156758,37.04355463,2524.45
-119.00156041,37.04328268,2519.99
-119.00155047,37.04290315,2522.91
-119.00154358,37.04264260,2511.60
-119.00153965,37.04249441,2509.60
-119.00152894,37.04209052,2505.38
-119.00152530,37.04194887,2504.27
-119.00152020,37.04175298,2504.09
-119.00151581,37.04158627,2502.84
-119.00150820,37.04129380,2498.56
-119.00150602,37.04121117,2497.11
-119.00149714,37.04087436,2492.59
-119.00148886,37.04055939,2486.59
-119.00148304,37.04033603,2482.14
-119.00147366,37.03997942,2506.04
-119.00147079,37.03986962,2505.26
-119.00146755,37.03974618,2477.62
-119.00146551,37.03966905,2503.48
-119.00145469,37.03925700,2470.68
-119.00144541,37.03890318,2463.08
-119.00143464,37.03849270,2455.93
-119.00143164,37.03838330,2454.44
-119.00143137,37.03837392,2454.28
-119.00143111,37.03836779,2454.22
-119.00142758,37.03835265,2454.11
-119.00142244,37.03835252,2453.97
-119.00137761,37.03835306,2480.44
-119.00101281,37.03835921,2472.22
-119.00097173,37.03835990,2479.71
-119.00074922,37.03836366,2481.60
-119.00073784,37.03836385,2454.06
-119.00041969,37.03836923,2489.73
-118.99998577,37.03837653,2475.35
-118.99969144,37.03838155,2450.30
-118.99928306,37.03838839,2449.69
-118.99918886,37.03838998,2465.68
-118.99895181,37.03839397,2450.18
-118.99852729,37.03840114,2448.41
-118.99819406,37.03840674,2443.53
-118.99789495,37.03841177,2439.46
-118.99764357,37.03841602,2435.63
-118.99731124,37.03842160,2441.22
-118.99686452,37.03842913,2428.60
-118.99637487,37.03843739,2420.53
-118.99623655,37.03843970,2423.05
-118.99583822,37.03844640,2441.64
-118.99582597,37.03844661,2443.90
-118.99539857,37.03845382,2410.96
-118.99494915,37.03846137,2407.06
-118.99471527,37.03846531,2403.23
-118.99420666,37.03847385,2410.13
-118.99377104,37.03848118,2392.39
-118.99343548,37.03848681,2390.45
-118.99333523,37.03848849,2388.91
-118.99304728,37.03849333,2386.29
-118.99252856,37.03850205,2383.51
-118.99224368,37.03850683,2382.19
-118.99205153,37.03851007,2381.05
-118.99167074,37.03851645,2377.82
-118.99135951,37.03852168,2376.41
-118.99132120,37.03852232,2376.19
-118.99128022,37.03852301,2375.73
-118.99087675,37.03852978,2394.00
-118.99065987,37.03853342,2371.81
-118.99023022,37.03854067,2370.81
-118.99019348,37.03854170,2372.66
-118.99019433,37.03858322,2363.34
-118.99019942,37.03878091,2365.98
-118.99020403,37.03895730,2375.21
-118.99020779,37.03910105,2369.52
-118.99021254,37.03928248,2399.17
-118.99021958,37.03955261,2376.66
-118.99022583,37.03979215,2374.63
-118.99023500,37.04014351,2378.88
-118.99024579,37.04055685,2410.32
-118.99024894,37.04067561,2384.01
-118.99025810,37.04102739,2381.51
-118.99026593,37.04132798,2382.55
-118.99027143,37.04153862,2389.52
-118.99027917,37.04183510,2410.25
-118.99029031,37.04226119,2438.01
-118.99030059,37.04265471,2418.28
-118.99030759,37.04292320,2413.02
-118.99031299,37.04313016,2413.05
-118.99032024,37.04340768,2418.50
-118.99032168,37.04346267,2419.74
-118.99033102,37.04381967,2426.00
-118.99033666,37.04403642,2438.09
-118.99033886,37.04412050,2431.58
-118.99034333,37.04429159,2457.76
-118.99035003,37.04454832,2438.49
-118.99035307,37.04466465,2471.09
-118.99036039,37.04494500,2445.83
-118.99036119,37.04497562,2445.05
-118.99036144,37.04498504,2445.16
-118.99036716,37.04520393,2447.59
-118.99036897,37.04527352,2456.70
-118.99037033,37.04532542,2450.26
-118.99037096,37.04534968,2450.95
-118.99037576,37.04553300,2475.67
-118.99038528,37.04589725,2473.69
-118.99038563,37.04591079,2493.55
-118.99039635,37.04632129,2479.76
-118.99039735,37.04635960,2481.73
-118.99040280,37.04656816,2503.72
-118.99041187,37.04691527,2512.24
-118.99041680,37.04710440,2526.50
-118.99042149,37.04728411,2538.08
-118.99042793,37.04752959,2552.62
-118.99042903,37.04753649,2552.98
     </coordinates>
    </LineString>
   </MultiGeometry>
  </Placemark>
 </Document>
</kml>
