<kml>
 <Document>
  <Style id="yellow">
   <LineStyle>
   <color>ff00ffff</color>
   <width>1</width>
   </LineStyle>
  </Style>
  <Style id="red">
   <LineStyle>
   <color>ffff0000</color>
   <width>2</width>
   </LineStyle>
  </Style>
  <Style id="green">
   <LineStyle>
   <color>ff00ff00</color>
   <width>1</width>
   </LineStyle>
  </Style>
  <Placemark>
  <styleUrl>#yellow</styleUrl>
   <MultiGeometry>
    <LineString>
     <coordinates>
-119.02461255,37.06455361,2560.10
-119.02461777,37.06474851,2565.77
-119.02461968,37.06481858,2567.69
-119.02462095,37.06486505,2569.28
-119.02462436,37.06498934,2573.35
-119.02462487,37.06499361,2573.46
-119.02462569,37.06499670,2573.36
-119.02463734,37.06499665,2572.86
-119.02509807,37.06498880,2555.37
-119.02537134,37.06498412,2549.77
-119.02559926,37.06498019,2549.29
-119.02606804,37.06497222,2543.74
-119.02621174,37.06496977,2568.64
-119.02629357,37.06496837,2553.19
-119.02674979,37.06496056,2546.69
-119.02718027,37.06495319,2551.46
-119.02766922,37.06494486,2582.91
-119.02805527,37.06493825,2558.24
-119.02827679,37.06493446,2581.75
-119.02882961,37.06492497,2567.61
-119.02906803,37.06492093,2600.75
-119.02928538,37.06491719,2572.02
-119.02979181,37.06490852,2590.50
-119.03014064,37.06490257,2607.11
-119.03034697,37.06489903,2613.72
-119.03061606,37.06489443,2615.80
-119.03090764,37.06488943,2621.08
-119.03093145,37.06488902,2618.31
-119.03134171,37.06488199,2593.93
-119.03179348,37.06487425,2584.80
-119.03194403,37.06487168,2601.74
-119.03225504,37.06486634,2577.37
-119.03258990,37.06486053,2571.58
-119.03300731,37.06485342,2564.18
-119.03333281,37.06484787,2558.49
-119.03341327,37.06484649,2561.80
-119.03350612,37.06484490,2554.69
-119.03374299,37.06484082,2547.34
-119.03423591,37.06483236,2545.65
-119.03457352,37.06482659,2545.20
-119.03466478,37.06482502,2543.37
-119.03491522,37.06482072,2543.53
-119.03517059,37.06481634,2527.11
-119.03539049,37.06481250,2545.81
-119.03582390,37.06480506,2515.90
-119.03586318,37.06480395,2516.02
-119.03586366,37.06480193,2516.00
-119.03586472,37.06478962,2515.85
-119.03586516,37.06478090,2515.76
-119.03585733,37.06448930,2515.72
-119.03584900,37.06417796,2543.01
-119.03583836,37.06377865,2515.10
-119.03582875,37.06342004,2514.47
-119.03582155,37.06314960,2509.28
-119.03580997,37.06271957,2530.42
-119.03580829,37.06265816,2529.06
-119.03579752,37.06225060,2493.87
-119.03579406,37.06212128,2509.34
-119.03579173,37.06203500,2502.36
-119.03578087,37.06162795,2481.39
-119.03577097,37.06125784,2473.26
-119.03576762,37.06113251,2473.71
-119.03575933,37.06082305,2473.75
-119.03575000,37.06047283,2496.11
-119.03574675,37.06035186,2477.50
-119.03573510,37.05991963,2472.59
-119.03572783,37.05964543,2475.07
-119.03572366,37.05948793,2480.59
-119.03572086,37.05938278,2472.83
-119.03571613,37.05920564,2492.15
-119.03570894,37.05893698,2478.15
-119.03570309,37.05871987,2475.92
-119.03569573,37.05844263,2470.08
-119.03568711,37.05811997,2463.42
-119.03568264,37.05795258,2462.16
-119.03567398,37.05762860,2456.41
-119.03567361,37.05761496,2455.44
-119.03567125,37.05752642,2464.97
-119.03566984,37.05747383,2473.74
-119.03566180,37.05717286,2448.68
-119.03565462,37.05690430,2449.74
-119.03565432,37.05689315,2445.08
-119.03565063,37.05675498,2442.61
-119.03564911,37.05669795,2442.06
-119.03564890,37.05669041,2441.97
-119.03564057,37.05637915,2445.18
-119.03563002,37.05598369,2425.33
-119.03563001,37.05598334,2425.32
-119.03562730,37.05588237,2419.65
-119.03562702,37.05587222,2441.41
-119.03562556,37.05582450,2417.00
-119.03562519,37.05581352,2443.40
-119.03562315,37.05579738,2416.15
-119.03558000,37.05579666,2433.87
-119.03549444,37.05579802,2434.33
-119.03505081,37.05580564,2434.10
-119.03490647,37.05580813,2438.62
-119.03436561,37.05581740,2454.95
-119.03429388,37.05581863,2463.33
-119.03427630,37.05581894,2465.90
-119.03414081,37.05582129,2485.23
-119.03369907,37.05582885,2500.02
-119.03347118,37.05583277,2495.16
-119.03336729,37.05583455,2470.53
-119.03289530,37.05584261,2485.63
-119.03272621,37.05584553,2462.27
-119.03241275,37.05585096,2458.95
-119.03199036,37.05585812,2450.84
-119.03158044,37.05586514,2438.33
-119.03135974,37.05586895,2437.36
-119.03094285,37.05587606,2434.31
-119.03073494,37.05587964,2434.25
-119.03027451,37.05588751,2432.36
-119.03006318,37.05589114,2434.93
-119.02955204,37.05589988,2444.03
-119.02934585,37.05590343,2452.85
-119.02883131,37.05591221,2466.99
-119.02849249,37.05591805,2463.09
-119.02831193,37.05592115,2466.59
-119.02781335,37.05592962,2473.49
-119.02779422,37.05592995,2473.40
-119.02755010,37.05593412,2472.41
-119.02744106,37.05593599,2471.81
-119.02694206,37.05594452,2478.22
-119.02669532,37.05594874,2501.82
-119.02614887,37.05595807,2490.00
-119.02597423,37.05596106,2492.43
-119.02548393,37.05596944,2502.12
-119.02539715,37.05597092,2518.83
-119.02488906,37.05597959,2523.89
-119.02474112,37.05598212,2547.46
-119.02442480,37.05598753,2552.17
-119.02439915,37.05598812,2541.50
-119.02438593,37.05598951,2541.70
-119.02438491,37.05598981,2541.72
-119.02439074,37.05620902,2536.79
-119.02439715,37.05645032,2529.70
-119.02440876,37.05688580,2527.11
-119.02441615,37.05716344,2514.59
-119.02442263,37.05740896,2523.18
-119.02442278,37.05741444,2525.81
-119.02442557,37.05751922,2527.72
-119.02443596,37.05790990,2501.16
-119.02444397,37.05821175,2509.10
-119.02445142,37.05849097,2499.13
-119.02446304,37.05892898,2535.12
-119.02447135,37.05924140,2535.47
-119.02447294,37.05930120,2500.05
-119.02447459,37.05936342,2513.82
-119.02448387,37.05971208,2526.06
-119.02448831,37.05987906,2504.09
-119.02449545,37.06014719,2504.67
-119.02450543,37.06052329,2515.72
-119.02451269,37.06079662,2526.70
-119.02452065,37.06109582,2542.80
-119.02452961,37.06143298,2521.67
-119.02453179,37.06151488,2531.72
-119.02453893,37.06178341,2531.05
-119.02454456,37.06199619,2508.79
-119.02455208,37.06227758,2506.86
-119.02455825,37.06251108,2507.81
-119.02456819,37.06288452,2509.42
-119.02457101,37.06299044,2512.93
-119.02457551,37.06316006,2517.09
-119.02457988,37.06332441,2521.10
-119.02458038,37.06334302,2530.80
-119.02458355,37.06346244,2523.93
-119.02458648,37.06357248,2527.01
-119.02459047,37.06372244,2531.26
-119.02459914,37.06404791,2543.24
-119.02460869,37.06440791,2555.16
-119.02461255,37.06455361,2560.10
     </coordinates>
    </LineString>
   </MultiGeometry>
  </Placemark>
 </Document>
</kml>
