<kml>
 <Document>
  <Style id="yellow">
   <LineStyle>
   <color>ff00ffff</color>
   <width>1</width>
   </LineStyle>
  </Style>
  <Style id="red">
   <LineStyle>
   <color>ffff0000</color>
   <width>2</width>
   </LineStyle>
  </Style>
  <Style id="green">
   <LineStyle>
   <color>ff00ff00</color>
   <width>1</width>
   </LineStyle>
  </Style>
  <Placemark>
  <styleUrl>#yellow</styleUrl>
   <MultiGeometry>
    <LineString>
     <coordinates>
-119.01276039,37.03816035,2501.26
-119.01283883,37.03815906,2507.92
-119.01321453,37.03815272,2524.23
-119.01351754,37.03814757,2532.46
-119.01356059,37.03814684,2498.77
-119.01408464,37.03813793,2513.16
-119.01434055,37.03813359,2498.89
-119.01464043,37.03812851,2522.76
-119.01488682,37.03812432,2499.39
-119.01512023,37.03812032,2498.87
-119.01563910,37.03811154,2505.29
-119.01592934,37.03810661,2533.59
-119.01603805,37.03810476,2529.12
-119.01619968,37.03810201,2511.82
-119.01664061,37.03809451,2521.58
-119.01668726,37.03809372,2522.77
-119.01711442,37.03808643,2539.77
-119.01761310,37.03807796,2573.72
-119.01774182,37.03807578,2556.57
-119.01795991,37.03807207,2575.37
-119.01843590,37.03806398,2561.81
-119.01879263,37.03805790,2554.61
-119.01896529,37.03805496,2582.46
-119.01933758,37.03804857,2580.81
-119.01953940,37.03804517,2572.92
-119.01971911,37.03804210,2578.05
-119.01999523,37.03803736,2584.86
-119.02030490,37.03803215,2589.52
-119.02056879,37.03802765,2596.83
-119.02102349,37.03801991,2579.27
-119.02158266,37.03801038,2562.98
-119.02194232,37.03800425,2548.85
-119.02236785,37.03799699,2532.33
-119.02275214,37.03799042,2548.14
-119.02300381,37.03798614,2531.30
-119.02342198,37.03797900,2532.01
-119.02386829,37.03797140,2536.23
-119.02388747,37.03797100,2536.42
-119.02388784,37.03797097,2536.43
-119.02390453,37.03796847,2536.91
-119.02390599,37.03796393,2536.70
-119.02390180,37.03780370,2528.56
-119.02389243,37.03745105,2513.77
-119.02388289,37.03709133,2519.55
-119.02387675,37.03685988,2501.93
-119.02386933,37.03658085,2513.00
-119.02386770,37.03652019,2512.22
-119.02386622,37.03646468,2507.11
-119.02386069,37.03625723,2499.20
-119.02385315,37.03597147,2497.82
-119.02384999,37.03585242,2496.68
-119.02383967,37.03546336,2527.34
-119.02383023,37.03510779,2521.08
-119.02382943,37.03507777,2489.80
-119.02382258,37.03481987,2514.61
-119.02381435,37.03450970,2489.15
-119.02381392,37.03449358,2489.29
-119.02380233,37.03405707,2492.09
-119.02379726,37.03386672,2493.15
-119.02378677,37.03347166,2493.84
-119.02378446,37.03338369,2508.71
-119.02377712,37.03310782,2498.10
-119.02376738,37.03274042,2505.78
-119.02375934,37.03243846,2513.78
-119.02374823,37.03201887,2535.47
-119.02374351,37.03184143,2515.23
-119.02373527,37.03153061,2504.46
-119.02373269,37.03143363,2527.48
-119.02372638,37.03119615,2506.53
-119.02371643,37.03082105,2507.23
-119.02371055,37.03059924,2469.30
-119.02370246,37.03029448,2459.85
-119.02369881,37.03015727,2475.18
-119.02369277,37.02992939,2464.15
-119.02368911,37.02979166,2460.78
-119.02368429,37.02961003,2464.01
-119.02367233,37.02916076,2488.22
-119.02367037,37.02908550,2483.98
-119.02366831,37.02901191,2458.87
-119.02366685,37.02897486,2458.17
-119.02366519,37.02896253,2458.51
-119.02362607,37.02896272,2481.48
-119.02347785,37.02896525,2462.89
-119.02318845,37.02897019,2487.89
-119.02310473,37.02897161,2464.39
-119.02263074,37.02897972,2495.62
-119.02235057,37.02898450,2458.26
-119.02204154,37.02898976,2456.87
-119.02166219,37.02899621,2458.19
-119.02121940,37.02900376,2474.89
-119.02102489,37.02900707,2472.14
-119.02081664,37.02901062,2493.15
-119.02058544,37.02901456,2493.71
-119.02017512,37.02902155,2459.69
-119.02001885,37.02902421,2457.42
-119.01978297,37.02902822,2437.76
-119.01972030,37.02902931,2436.44
-119.01917968,37.02903851,2461.53
-119.01880248,37.02904492,2430.85
-119.01826972,37.02905401,2466.18
-119.01781656,37.02906172,2414.44
-119.01761190,37.02906518,2411.01
-119.01713185,37.02907334,2423.35
-119.01703674,37.02907496,2426.28
-119.01662079,37.02908205,2387.49
-119.01643622,37.02908517,2405.66
-119.01619354,37.02908929,2396.52
-119.01606365,37.02909151,2432.46
-119.01558844,37.02909959,2431.72
-119.01521185,37.02910597,2462.82
-119.01475240,37.02911378,2452.97
-119.01463732,37.02911573,2440.19
-119.01410777,37.02912473,2452.31
-119.01369074,37.02913181,2493.33
-119.01332739,37.02913797,2494.67
-119.01288965,37.02914540,2513.34
-119.01257160,37.02915081,2540.57
-119.01244584,37.02915296,2536.37
-119.01244053,37.02915310,2545.30
-119.01243286,37.02915354,2547.13
-119.01243090,37.02915371,2545.48
-119.01243088,37.02915419,2524.93
-119.01243950,37.02948123,2530.52
-119.01244757,37.02978717,2527.92
-119.01244758,37.02978736,2527.86
-119.01245666,37.03013101,2533.24
-119.01246304,37.03037270,2533.40
-119.01247135,37.03068812,2540.88
-119.01247494,37.03082413,2544.22
-119.01248207,37.03109431,2553.26
-119.01248430,37.03117872,2556.86
-119.01249221,37.03147838,2566.23
-119.01249951,37.03175453,2578.11
-119.01250618,37.03200688,2581.04
-119.01251509,37.03234427,2592.82
-119.01252458,37.03270124,2609.86
-119.01253338,37.03303719,2597.70
-119.01254130,37.03333756,2610.86
-119.01254346,37.03341912,2621.88
-119.01255076,37.03369449,2594.64
-119.01255949,37.03402610,2592.55
-119.01256937,37.03439867,2589.37
-119.01257604,37.03465345,2592.53
-119.01258248,37.03489629,2616.87
-119.01259248,37.03527646,2599.47
-119.01260322,37.03568310,2594.40
-119.01260574,37.03577860,2616.15
-119.01260887,37.03589686,2617.04
-119.01261824,37.03625155,2573.81
-119.01262570,37.03653501,2583.26
-119.01263112,37.03673984,2556.84
-119.01263821,37.03700779,2540.52
-119.01264929,37.03742837,2535.55
-119.01265734,37.03773009,2512.30
-119.01266654,37.03808033,2501.10
-119.01266763,37.03812208,2524.70
-119.01266917,37.03815743,2500.87
-119.01267114,37.03816139,2500.79
-119.01267680,37.03816167,2500.96
-119.01276039,37.03816035,2501.26
     </coordinates>
    </LineString>
   </MultiGeometry>
  </Placemark>
 </Document>
</kml>
