<kml>
 <Document>
  <Style id="yellow">
   <LineStyle>
   <color>ff00ffff</color>
   <width>1</width>
   </LineStyle>
  </Style>
  <Style id="red">
   <LineStyle>
   <color>ffff0000</color>
   <width>2</width>
   </LineStyle>
  </Style>
  <Style id="green">
   <LineStyle>
   <color>ff00ff00</color>
   <width>1</width>
   </LineStyle>
  </Style>
  <Placemark>
  <styleUrl>#yellow</styleUrl>
   <MultiGeometry>
    <LineString>
     <coordinates>
-118.97987889,37.07427313,2570.24
-118.97989057,37.07472112,2568.26
-118.97989136,37.07475099,2567.91
-118.97989194,37.07476439,2580.27
-118.97992947,37.07476419,2568.18
-118.97996999,37.07476372,2568.47
-118.98011943,37.07476127,2570.05
-118.98032391,37.07475785,2593.45
-118.98072600,37.07475115,2595.34
-118.98126883,37.07474208,2602.52
-118.98142948,37.07473940,2593.51
-118.98163253,37.07473599,2590.52
-118.98204350,37.07472913,2607.67
-118.98244335,37.07472244,2613.46
-118.98274683,37.07471737,2617.61
-118.98287105,37.07471530,2611.98
-118.98331325,37.07470790,2594.57
-118.98358131,37.07470342,2598.94
-118.98409522,37.07469482,2635.18
-118.98445439,37.07468880,2644.21
-118.98472793,37.07468420,2631.27
-118.98526901,37.07467514,2646.25
-118.98570005,37.07466791,2668.52
-118.98588286,37.07466489,2663.05
-118.98600869,37.07466278,2655.00
-118.98646645,37.07465510,2668.16
-118.98699767,37.07464621,2663.05
-118.98731551,37.07464088,2670.71
-118.98762130,37.07463576,2663.76
-118.98772200,37.07463407,2665.54
-118.98817957,37.07462639,2669.59
-118.98861045,37.07461916,2675.23
-118.98891146,37.07461412,2698.69
-118.98928123,37.07460792,2682.78
-118.98982515,37.07459879,2721.13
-118.99000352,37.07459580,2730.85
-118.99039567,37.07458921,2699.49
-118.99056885,37.07458631,2702.36
-118.99072640,37.07458366,2723.57
-118.99111669,37.07457711,2711.13
-118.99112567,37.07457692,2711.67
-118.99113241,37.07457650,2712.57
-118.99113472,37.07457479,2714.45
-118.99113463,37.07457009,2716.00
-118.99113238,37.07448142,2709.76
-118.99112283,37.07411595,2730.48
-118.99112245,37.07410133,2729.57
-118.99111898,37.07396868,2727.24
-118.99110867,37.07357433,2716.71
-118.99110724,37.07351991,2720.17
-118.99110017,37.07324955,2738.68
-118.99109551,37.07307127,2735.56
-118.99109255,37.07295809,2735.04
-118.99108888,37.07281792,2721.50
-118.99108855,37.07280523,2739.65
-118.99108156,37.07253835,2739.52
-118.99107089,37.07213000,2737.76
-118.99106539,37.07191969,2738.81
-118.99105800,37.07163748,2746.29
-118.99105353,37.07146622,2748.91
-118.99104555,37.07116123,2731.31
-118.99104549,37.07115880,2745.39
-118.99104113,37.07099213,2734.24
-118.99103385,37.07071360,2736.85
-118.99103042,37.07058241,2719.24
-118.99101931,37.07015775,2736.10
-118.99101809,37.07011090,2718.95
-118.99100752,37.06970685,2730.21
-118.99100745,37.06970399,2729.48
-118.99100066,37.06944461,2722.93
-118.99099456,37.06921160,2705.33
-118.99098665,37.06890875,2724.22
-118.99097672,37.06852912,2711.06
-118.99097197,37.06834745,2718.08
-118.99096157,37.06794952,2700.45
-118.99095755,37.06779592,2721.77
-118.99095583,37.06773014,2716.33
-118.99095561,37.06772153,2727.46
-118.99094639,37.06736962,2699.07
-118.99094099,37.06716340,2702.04
-118.99093025,37.06675182,2714.80
-118.99092490,37.06654750,2693.87
-118.99091715,37.06625069,2696.58
-118.99091665,37.06623169,2692.28
-118.99090552,37.06580639,2691.66
-118.99090164,37.06565751,2705.38
-118.99089944,37.06557546,2691.47
-118.99089847,37.06557130,2691.19
-118.99089356,37.06556833,2691.13
-118.99087254,37.06556845,2702.09
-118.99084325,37.06556890,2695.64
-118.99069086,37.06557145,2700.30
-118.99068212,37.06557159,2709.06
-118.99033712,37.06557738,2704.99
-118.98999815,37.06558314,2693.77
-118.98976528,37.06558702,2710.44
-118.98964834,37.06558895,2712.37
-118.98951888,37.06559112,2723.26
-118.98920765,37.06559635,2694.20
-118.98890702,37.06560138,2708.06
-118.98865011,37.06560570,2715.81
-118.98831585,37.06561134,2719.06
-118.98807037,37.06561542,2714.17
-118.98803510,37.06561600,2714.93
-118.98787200,37.06561874,2699.16
-118.98756181,37.06562394,2700.20
-118.98717543,37.06563041,2722.51
-118.98714188,37.06563097,2710.92
-118.98704178,37.06563265,2702.64
-118.98661488,37.06563980,2706.87
-118.98635475,37.06564416,2719.39
-118.98622860,37.06564628,2715.96
-118.98593208,37.06565124,2714.83
-118.98567414,37.06565558,2718.15
-118.98530749,37.06566171,2727.16
-118.98516299,37.06566412,2723.38
-118.98500168,37.06566682,2723.85
-118.98491595,37.06566826,2723.19
-118.98446632,37.06567579,2710.12
-118.98423388,37.06567968,2704.50
-118.98395306,37.06568439,2699.69
-118.98374365,37.06568791,2695.80
-118.98337061,37.06569415,2703.80
-118.98311872,37.06569835,2692.09
-118.98304738,37.06569954,2691.83
-118.98248604,37.06570891,2684.88
-118.98198971,37.06571721,2695.42
-118.98168019,37.06572238,2684.04
-118.98151164,37.06572520,2687.61
-118.98139947,37.06572707,2688.43
-118.98129376,37.06572884,2688.43
-118.98080294,37.06573704,2692.03
-118.98066326,37.06573938,2693.73
-118.98035312,37.06574458,2700.34
-118.97996360,37.06575106,2721.77
-118.97975481,37.06575457,2709.48
-118.97970146,37.06575567,2710.05
-118.97966561,37.06575660,2711.15
-118.97966155,37.06575677,2711.00
-118.97965959,37.06575727,2711.04
-118.97965898,37.06575911,2711.12
-118.97965766,37.06576463,2711.17
-118.97966638,37.06610021,2706.49
-118.97966648,37.06610417,2706.57
-118.97967064,37.06626269,2703.40
-118.97967294,37.06635103,2701.09
-118.97968332,37.06675247,2690.27
-118.97968830,37.06694287,2682.93
-118.97969746,37.06729507,2669.74
-118.97970579,37.06761663,2660.72
-118.97971369,37.06792011,2653.18
-118.97972245,37.06825645,2664.15
-118.97972840,37.06848387,2633.83
-118.97973429,37.06871221,2629.39
-118.97973953,37.06891364,2638.30
-118.97974418,37.06909250,2620.46
-118.97975053,37.06933677,2614.27
-118.97975659,37.06957031,2608.97
-118.97975796,37.06962320,2629.91
-118.97976272,37.06980574,2605.12
-118.97977370,37.07022787,2613.01
-118.97978023,37.07047940,2636.91
-118.97978557,37.07068467,2595.77
-118.97979378,37.07100061,2590.30
-118.97980223,37.07132522,2590.39
-118.97980903,37.07158591,2590.41
-118.97981670,37.07188024,2592.42
-118.97982658,37.07226096,2600.76
-118.97983072,37.07242058,2591.67
-118.97983449,37.07256603,2606.99
-118.97984112,37.07282052,2585.18
-118.97985029,37.07317222,2581.87
-118.97986102,37.07358613,2578.94
-118.97986355,37.07368173,2577.55
-118.97987293,37.07404299,2590.97
-118.97987889,37.07427313,2570.24
     </coordinates>
    </LineString>
   </MultiGeometry>
  </Placemark>
 </Document>
</kml>
