<kml>
 <Document>
  <Style id="yellow">
   <LineStyle>
   <color>ff00ffff</color>
   <width>1</width>
   </LineStyle>
  </Style>
  <Style id="red">
   <LineStyle>
   <color>ffff0000</color>
   <width>2</width>
   </LineStyle>
  </Style>
  <Style id="green">
   <LineStyle>
   <color>ff00ff00</color>
   <width>1</width>
   </LineStyle>
  </Style>
  <Placemark>
  <styleUrl>#yellow</styleUrl>
   <MultiGeometry>
    <LineString>
     <coordinates>
-119.01362069,37.07418192,2778.92
-119.01362124,37.07419178,2778.66
-119.01362236,37.07419640,2778.74
-119.01363278,37.07419646,2778.46
-119.01365879,37.07419631,2792.36
-119.01375757,37.07419471,2776.90
-119.01413010,37.07418838,2796.86
-119.01442645,37.07418334,2774.79
-119.01455019,37.07418123,2783.80
-119.01488739,37.07417548,2775.88
-119.01535336,37.07416755,2784.78
-119.01547910,37.07416545,2791.99
-119.01551984,37.07416478,2791.30
-119.01571456,37.07416147,2782.61
-119.01574890,37.07416088,2782.63
-119.01608136,37.07415522,2785.52
-119.01647226,37.07414856,2789.32
-119.01699177,37.07413973,2794.39
-119.01708442,37.07413815,2795.41
-119.01757167,37.07412984,2801.37
-119.01791723,37.07412397,2807.05
-119.01828637,37.07411772,2813.22
-119.01863690,37.07411171,2814.78
-119.01910499,37.07410378,2822.50
-119.01928498,37.07410071,2815.03
-119.01945002,37.07409786,2813.34
-119.01992820,37.07408975,2813.42
-119.02014226,37.07408611,2812.77
-119.02066033,37.07407725,2825.28
-119.02100931,37.07407128,2813.47
-119.02131851,37.07406604,2812.56
-119.02163015,37.07406073,2839.02
-119.02180820,37.07405770,2831.11
-119.02234863,37.07404849,2805.48
-119.02260484,37.07404412,2803.63
-119.02298945,37.07403755,2799.09
-119.02332841,37.07403178,2797.34
-119.02363853,37.07402649,2804.25
-119.02383412,37.07402313,2821.66
-119.02422804,37.07401642,2801.38
-119.02423322,37.07401634,2813.17
-119.02446260,37.07401242,2786.56
-119.02453448,37.07401119,2785.51
-119.02485178,37.07400571,2781.28
-119.02486009,37.07400514,2805.70
-119.02486066,37.07400503,2804.58
-119.02486353,37.07400409,2805.58
-119.02486346,37.07399072,2781.09
-119.02485451,37.07365317,2783.70
-119.02484918,37.07345333,2786.20
-119.02484357,37.07324341,2817.30
-119.02483559,37.07294259,2792.90
-119.02482437,37.07251945,2791.74
-119.02482017,37.07236185,2786.55
-119.02481195,37.07205249,2779.99
-119.02480483,37.07178491,2775.81
-119.02479686,37.07148490,2767.40
-119.02478684,37.07110814,2773.29
-119.02477863,37.07079937,2767.45
-119.02477744,37.07075536,2752.44
-119.02476660,37.07034713,2758.59
-119.02476325,37.07022143,2742.70
-119.02476228,37.07018482,2741.89
-119.02475382,37.06986794,2736.44
-119.02474962,37.06970925,2759.28
-119.02474833,37.06966018,2732.96
-119.02474750,37.06962899,2732.28
-119.02474471,37.06952452,2730.59
-119.02474201,37.06942370,2734.74
-119.02473124,37.06901843,2721.42
-119.02472472,37.06877224,2721.59
-119.02471672,37.06847271,2709.35
-119.02470623,37.06807750,2699.87
-119.02469599,37.06769243,2682.23
-119.02469174,37.06753216,2672.90
-119.02468592,37.06731341,2660.48
-119.02467949,37.06707140,2646.87
-119.02467351,37.06684679,2641.03
-119.02466583,37.06655766,2620.35
-119.02465543,37.06616701,2616.41
-119.02464696,37.06584929,2601.99
-119.02463941,37.06556412,2583.84
-119.02462968,37.06520158,2576.43
-119.02462554,37.06504603,2573.66
-119.02462502,37.06502722,2573.28
-119.02462454,37.06501310,2573.04
-119.02462409,37.06500456,2573.22
-119.02462331,37.06500126,2573.17
-119.02462214,37.06499699,2573.06
-119.02452610,37.06499862,2577.16
-119.02419074,37.06500430,2593.53
-119.02400465,37.06500747,2598.18
-119.02384229,37.06501025,2623.38
-119.02340733,37.06501767,2608.73
-119.02332266,37.06501911,2610.03
-119.02291568,37.06502607,2611.28
-119.02270830,37.06502959,2610.72
-119.02234331,37.06503582,2603.78
-119.02229077,37.06503672,2602.70
-119.02187996,37.06504373,2610.44
-119.02161142,37.06504832,2607.41
-119.02127007,37.06505413,2609.94
-119.02096004,37.06505940,2614.34
-119.02061492,37.06506529,2614.78
-119.02037807,37.06506933,2619.50
-119.02011505,37.06507382,2622.84
-119.01966891,37.06508141,2619.16
-119.01947487,37.06508472,2617.53
-119.01897660,37.06509327,2615.11
-119.01877916,37.06509656,2615.04
-119.01875452,37.06509698,2623.35
-119.01835684,37.06510376,2615.98
-119.01807207,37.06510860,2630.10
-119.01787345,37.06511197,2648.44
-119.01756255,37.06511729,2633.39
-119.01722743,37.06512304,2645.18
-119.01699754,37.06512691,2654.14
-119.01685786,37.06512925,2683.36
-119.01683161,37.06512970,2688.24
-119.01680968,37.06513007,2680.38
-119.01629350,37.06513886,2694.37
-119.01602635,37.06514342,2680.25
-119.01552025,37.06515202,2693.78
-119.01516650,37.06515801,2707.95
-119.01507845,37.06515951,2712.19
-119.01459234,37.06516778,2725.45
-119.01404636,37.06517705,2734.55
-119.01360418,37.06518456,2742.10
-119.01342762,37.06518764,2758.55
-119.01338448,37.06518896,2745.49
-119.01338367,37.06519400,2745.52
-119.01338352,37.06521073,2745.63
-119.01338507,37.06527448,2746.59
-119.01338797,37.06538522,2754.37
-119.01339873,37.06579185,2752.47
-119.01340715,37.06611047,2753.30
-119.01341109,37.06625806,2754.92
-119.01342114,37.06663752,2754.76
-119.01342462,37.06677000,2754.54
-119.01342607,37.06682509,2754.14
-119.01342962,37.06695986,2754.30
-119.01343412,37.06712942,2754.26
-119.01344227,37.06743861,2752.75
-119.01345093,37.06776571,2753.84
-119.01345962,37.06809485,2754.79
-119.01346641,37.06835165,2768.18
-119.01347343,37.06861501,2764.06
-119.01347974,37.06885528,2777.61
-119.01348302,37.06897970,2784.01
-119.01348693,37.06912752,2776.48
-119.01348811,37.06917198,2776.40
-119.01349742,37.06952427,2781.46
-119.01350392,37.06976979,2789.94
-119.01350729,37.06989694,2796.72
-119.01351320,37.07011980,2783.22
-119.01352050,37.07039700,2800.70
-119.01352287,37.07048594,2780.46
-119.01352504,37.07056766,2787.91
-119.01353399,37.07090480,2788.84
-119.01354116,37.07117719,2774.80
-119.01354422,37.07129384,2775.27
-119.01354465,37.07130981,2777.33
-119.01354861,37.07145976,2791.09
-119.01354950,37.07149336,2786.65
-119.01355270,37.07161330,2797.71
-119.01356218,37.07197226,2775.98
-119.01356757,37.07217656,2782.84
-119.01357674,37.07252267,2795.68
-119.01358615,37.07287836,2783.34
-119.01359013,37.07302946,2787.61
-119.01359027,37.07303475,2804.78
-119.01359657,37.07327299,2803.80
-119.01359876,37.07335525,2803.04
-119.01360398,37.07355170,2780.00
-119.01361498,37.07396806,2789.90
-119.01361646,37.07402400,2780.27
-119.01361735,37.07405755,2801.56
-119.01361939,37.07413423,2796.82
-119.01362069,37.07418192,2778.92
     </coordinates>
    </LineString>
   </MultiGeometry>
  </Placemark>
 </Document>
</kml>
