<kml>
 <Document>
  <Style id="yellow">
   <LineStyle>
   <color>ff00ffff</color>
   <width>1</width>
   </LineStyle>
  </Style>
  <Style id="red">
   <LineStyle>
   <color>ffff0000</color>
   <width>2</width>
   </LineStyle>
  </Style>
  <Style id="green">
   <LineStyle>
   <color>ff00ff00</color>
   <width>1</width>
   </LineStyle>
  </Style>
  <Placemark>
  <styleUrl>#yellow</styleUrl>
   <MultiGeometry>
    <LineString>
     <coordinates>
-105.53484701,40.29826680,2888.74
-105.53486901,40.29826669,2896.39
-105.53487678,40.29826666,2899.81
-105.53488337,40.29826663,2889.17
-105.53489054,40.29826659,2891.48
-105.53489913,40.29826655,2887.24
-105.53492384,40.29826644,2886.59
-105.53492619,40.29826643,2892.35
-105.53495467,40.29826630,2886.04
-105.53495714,40.29826629,2892.68
-105.53497396,40.29826621,2885.49
-105.53500420,40.29826607,2893.10
-105.53500938,40.29826604,2893.16
-105.53501244,40.29826603,2884.47
-105.53501361,40.29826603,2892.43
-105.53501397,40.29826602,2889.50
-105.53501491,40.29826602,2892.43
-105.53502632,40.29826597,2893.34
-105.53502691,40.29826596,2895.37
-105.53509233,40.29826566,2890.58
-105.53511598,40.29826555,2881.65
-105.53516257,40.29826534,2892.23
-105.53516269,40.29826534,2893.02
-105.53516304,40.29826533,2892.31
-105.53517540,40.29826528,2892.08
-105.53517975,40.29826526,2888.80
-105.53518257,40.29826524,2889.07
-105.53518281,40.29826524,2890.31
-105.53519022,40.29826521,2879.63
-105.53521893,40.29826508,2879.00
-105.53524693,40.29826495,2891.26
-105.53527376,40.29826482,2877.67
-105.53527835,40.29826480,2877.47
-105.53527894,40.29826480,2888.20
-105.53528105,40.29826479,2882.50
-105.53528788,40.29826476,2886.74
-105.53530682,40.29826467,2886.07
-105.53533106,40.29826456,2887.28
-105.53533835,40.29826452,2876.16
-105.53533883,40.29826452,2876.14
-105.53535400,40.29826445,2875.80
-105.53537248,40.29826436,2887.24
-105.53537612,40.29826435,2886.87
-105.53537812,40.29826434,2887.96
-105.53538401,40.29826431,2888.87
-105.53538883,40.29826429,2887.19
-105.53539389,40.29826427,2884.96
-105.53539695,40.29826425,2883.89
-105.53540942,40.29826419,2886.69
-105.53541142,40.29826419,2885.60
-105.53541754,40.29826416,2883.89
-105.53541836,40.29826415,2874.48
-105.53544707,40.29826402,2884.04
-105.53545437,40.29826399,2883.37
-105.53545790,40.29826397,2884.77
-105.53545837,40.29826397,2885.76
-105.53546590,40.29826393,2873.51
-105.53546884,40.29826392,2884.34
-105.53547343,40.29826390,2883.22
-105.53547896,40.29826387,2884.88
-105.53547919,40.29826387,2877.44
-105.53547966,40.29826387,2882.48
-105.53547990,40.29826387,2884.80
-105.53548143,40.29826386,2874.76
-105.53548261,40.29826386,2883.04
-105.53548449,40.29826385,2884.20
-105.53548472,40.29826385,2883.02
-105.53548625,40.29826384,2872.97
-105.53548696,40.29826383,2872.97
-105.53550296,40.29826376,2885.51
-105.53550343,40.29826376,2885.56
-105.53550367,40.29826376,2885.48
-105.53550602,40.29826375,2883.83
-105.53550637,40.29826375,2885.43
-105.53550696,40.29826374,2883.79
-105.53550779,40.29826374,2883.74
-105.53550849,40.29826374,2883.71
-105.53551073,40.29826373,2882.43
-105.53551132,40.29826372,2883.46
-105.53551155,40.29826372,2883.45
-105.53551284,40.29826372,2882.43
-105.53551355,40.29826371,2882.41
-105.53551484,40.29826371,2883.62
-105.53551626,40.29826370,2882.26
-105.53551673,40.29826370,2880.17
-105.53552085,40.29826368,2880.00
-105.53554344,40.29826357,2871.71
-105.53554497,40.29826357,2871.70
-105.53554685,40.29826356,2871.68
-105.53554791,40.29826355,2871.65
-105.53554873,40.29826355,2871.67
-105.53555038,40.29826354,2871.66
-105.53555508,40.29826352,2871.52
-105.53556556,40.29826347,2874.53
-105.53556838,40.29826346,2874.75
-105.53556920,40.29826345,2871.29
-105.53557026,40.29826345,2873.18
-105.53557344,40.29826344,2873.11
-105.53558979,40.29826336,2880.02
-105.53559179,40.29826335,2879.21
-105.53560274,40.29826330,2873.67
-105.53581652,40.29826231,2866.42
-105.53582147,40.29826229,2866.29
-105.53583158,40.29826224,2866.04
-105.53583606,40.29826222,2866.05
-105.53584088,40.29826220,2865.96
-105.53585006,40.29826215,2865.68
-105.53585500,40.29826213,2865.50
-105.53585971,40.29826211,2865.48
-105.53586465,40.29826209,2865.39
-105.53586959,40.29826206,2865.06
-105.53587430,40.29826204,2864.96
-105.53587912,40.29826202,2864.88
-105.53591336,40.29826186,2863.97
-105.53591806,40.29826184,2863.88
-105.53592265,40.29826182,2863.76
-105.53592771,40.29826179,2863.71
-105.53593230,40.29826177,2863.60
-105.53593736,40.29826175,2863.50
-105.53594183,40.29826173,2863.38
-105.53594654,40.29826171,2863.34
-105.53594736,40.29826170,2869.89
-105.53595172,40.29826168,2863.18
-105.53595677,40.29826166,2863.11
-105.53600043,40.29826146,2861.94
-105.53600513,40.29826144,2861.88
-105.53601007,40.29826141,2861.71
-105.53601490,40.29826139,2861.56
-105.53601949,40.29826137,2861.40
-105.53602466,40.29826135,2861.29
-105.53602949,40.29826132,2861.20
-105.53603431,40.29826130,2861.13
-105.53606361,40.29826116,2860.44
-105.53606843,40.29826114,2860.17
-105.53607361,40.29826112,2859.99
-105.53607808,40.29826110,2859.99
-105.53609244,40.29826103,2867.47
-105.53609444,40.29826102,2866.51
-105.53609985,40.29826100,2862.88
-105.53611267,40.29826094,2859.01
-105.53611785,40.29826091,2858.88
-105.53612291,40.29826089,2858.75
-105.53612773,40.29826087,2858.66
-105.53613232,40.29826085,2858.57
-105.53613715,40.29826082,2858.45
-105.53614174,40.29826080,2858.23
-105.53614691,40.29826078,2858.17
-105.53615162,40.29826076,2858.08
-105.53615668,40.29826073,2857.95
-105.53616150,40.29826071,2857.87
-105.53616609,40.29826069,2857.74
-105.53617139,40.29826067,2857.61
-105.53617656,40.29826064,2857.39
-105.53618127,40.29826062,2857.22
-105.53618621,40.29826060,2857.10
-105.53619151,40.29826057,2856.96
-105.53619657,40.29826055,2856.82
-105.53620139,40.29826053,2856.71
-105.53620610,40.29826050,2856.61
-105.53621080,40.29826048,2856.50
-105.53621563,40.29826046,2856.40
-105.53621786,40.29826045,2865.55
-105.53622069,40.29826044,2856.29
-105.53622751,40.29826041,2860.03
-105.53630540,40.29826004,2855.49
-105.53630728,40.29826004,2854.18
-105.53632658,40.29825995,2853.87
-105.53635305,40.29825982,2852.91
-105.53661990,40.29825859,2847.18
-105.53664391,40.29825847,2854.55
-105.53666038,40.29825840,2854.93
-105.53666556,40.29825837,2850.05
-105.53668944,40.29825826,2845.65
-105.53669521,40.29825824,2845.51
-105.53673062,40.29825807,2844.68
-105.53674474,40.29825801,2849.95
-105.53675886,40.29825794,2848.49
-105.53694935,40.29825706,2839.70
-105.53704548,40.29825661,2837.28
-105.53712466,40.29825624,2835.41
-105.53721656,40.29825582,2841.52
-105.53723868,40.29825571,2833.33
-105.53729468,40.29825545,2839.96
-105.53751965,40.29825441,2827.02
-105.53754989,40.29825427,2836.04
-105.53766437,40.29825374,2825.63
-105.53790510,40.29825262,2826.81
-105.53790792,40.29825261,2820.67
-105.53796652,40.29825233,2819.93
-105.53803029,40.29825204,2819.19
-105.53808500,40.29825178,2826.71
-105.53809818,40.29825172,2818.18
-105.53810818,40.29825167,2828.15
-105.53825361,40.29825100,2824.59
-105.53868777,40.29824898,2809.14
-105.53897992,40.29824762,2803.87
-105.53908629,40.29824712,2816.17
-105.53909076,40.29824710,2816.34
-105.53910476,40.29824703,2808.49
-105.53925395,40.29824634,2806.23
-105.53925536,40.29824633,2804.89
-105.53926101,40.29824631,2799.40
-105.53928795,40.29824618,2803.86
-105.53931807,40.29824604,2806.92
-105.53932149,40.29824602,2806.29
-105.53936714,40.29824581,2807.04
-105.53937479,40.29824578,2805.86
-105.53949068,40.29824524,2796.85
-105.53954280,40.29824499,2804.68
-105.53956657,40.29824488,2805.63
-105.53957822,40.29824483,2805.50
-105.53964435,40.29824452,2802.86
-105.53972282,40.29824415,2801.45
-105.53972777,40.29824413,2801.54
-105.53978354,40.29824387,2793.97
-105.53985849,40.29824352,2804.13
-105.54027441,40.29824158,2788.30
-105.54061221,40.29824000,2786.40
-105.54073105,40.29823944,2793.90
-105.54086930,40.29823880,2784.65
-105.54114721,40.29823750,2790.35
-105.54123275,40.29823665,2790.19
-105.54125592,40.29823618,2785.58
-105.54125642,40.29822483,2786.36
-105.54125602,40.29816005,2786.34
-105.54125550,40.29808041,2792.23
-105.54125494,40.29801041,2795.05
-105.54125484,40.29799726,2788.86
-105.54125460,40.29796672,2796.38
-105.54125422,40.29791987,2799.18
-105.54125386,40.29787519,2789.37
-105.54125265,40.29772330,2790.37
-105.54125223,40.29767023,2802.72
-105.54125200,40.29764132,2791.36
-105.54125194,40.29763357,2791.40
-105.54125184,40.29762168,2791.55
-105.54125025,40.29742258,2792.78
-105.54124966,40.29734862,2793.15
-105.54124941,40.29731717,2793.13
-105.54124878,40.29723790,2793.11
-105.54124623,40.29691889,2792.01
-105.54124542,40.29681727,2791.37
-105.54124425,40.29667024,2790.22
-105.54124324,40.29654376,2789.67
-105.54124179,40.29636160,2789.46
-105.54124138,40.29631088,2789.45
-105.54124067,40.29622133,2788.36
-105.54123996,40.29613295,2788.05
-105.54123856,40.29595754,2787.90
-105.54123836,40.29593169,2787.87
-105.54123784,40.29586656,2787.86
-105.54123771,40.29585097,2787.85
-105.54123762,40.29583872,2787.82
-105.54123542,40.29556377,2787.63
-105.54123532,40.29555052,2787.64
-105.54123489,40.29549710,2787.48
-105.54123479,40.29548512,2787.43
-105.54123434,40.29542854,2787.35
-105.54123434,40.29542845,2787.33
-105.54123404,40.29539052,2787.30
-105.54123373,40.29535205,2787.32
-105.54123335,40.29530440,2787.38
-105.54123258,40.29520755,2795.07
-105.54123252,40.29520016,2793.80
-105.54123250,40.29519809,2797.50
-105.54123124,40.29503944,2787.82
-105.54123054,40.29495179,2797.91
-105.54123033,40.29492611,2790.05
-105.54122964,40.29483900,2797.15
-105.54122851,40.29469701,2787.76
-105.54122847,40.29469251,2795.81
-105.54122810,40.29464611,2787.95
-105.54122806,40.29464161,2787.95
-105.54122799,40.29463260,2787.96
-105.54122727,40.29454152,2787.93
-105.54122700,40.29450774,2787.87
-105.54122679,40.29448143,2787.82
-105.54122678,40.29448089,2794.65
-105.54122571,40.29434702,2787.71
-105.54122460,40.29420774,2787.80
-105.54122438,40.29417999,2789.04
-105.54122434,40.29417441,2788.34
-105.54122378,40.29410504,2788.27
-105.54122317,40.29402819,2787.14
-105.54122307,40.29401558,2787.13
-105.54122159,40.29382999,2786.27
-105.54122059,40.29370450,2785.68
-105.54121952,40.29357072,2785.27
-105.54121948,40.29356576,2785.26
-105.54121923,40.29353387,2785.11
-105.54121809,40.29339144,2784.10
-105.54121791,40.29336919,2783.93
-105.54121789,40.29336657,2783.91
-105.54121751,40.29331901,2783.44
-105.54121659,40.29320378,2782.35
-105.54121655,40.29319892,2782.27
-105.54121625,40.29316072,2780.88
-105.54121549,40.29306559,2781.88
-105.54121539,40.29305333,2781.90
-105.54121341,40.29280424,2782.76
-105.54121313,40.29277009,2783.16
-105.54121211,40.29264226,2784.06
-105.54121192,40.29261865,2784.43
-105.54121190,40.29261550,2784.44
-105.54121183,40.29260685,2784.55
-105.54121170,40.29259108,2797.36
-105.54121137,40.29254928,2790.89
-105.54121095,40.29249676,2785.67
-105.54121093,40.29249370,2785.68
-105.54121086,40.29248577,2795.64
-105.54121083,40.29248136,2793.75
-105.54121063,40.29245577,2786.03
-105.54121051,40.29244100,2786.08
-105.54121034,40.29242064,2786.18
-105.54120977,40.29234865,2785.87
-105.54120904,40.29225676,2791.37
-105.54120872,40.29221667,2786.10
-105.54120837,40.29217325,2794.75
-105.54120766,40.29208433,2791.49
-105.54120765,40.29208343,2786.10
-105.54120747,40.29206046,2791.38
-105.54120628,40.29191118,2785.89
-105.54120542,40.29180388,2785.80
-105.54120504,40.29175532,2793.41
-105.54120478,40.29172334,2791.29
-105.54120463,40.29170487,2785.52
-105.54120457,40.29169614,2785.57
-105.54120424,40.29165506,2785.38
-105.54120388,40.29160983,2785.94
-105.54120196,40.29136965,2799.08
-105.54120179,40.29134830,2798.48
-105.54120179,40.29134803,2785.78
-105.54120151,40.29131253,2794.13
-105.54120147,40.29130794,2786.24
-105.54120146,40.29130722,2786.24
-105.54120121,40.29127506,2800.67
-105.54120119,40.29127245,2799.78
-105.54120118,40.29127227,2799.21
-105.54120118,40.29127136,2785.92
-105.54120116,40.29126938,2799.62
-105.54120072,40.29121425,2796.40
-105.54120046,40.29118109,2799.11
-105.54120041,40.29117488,2797.42
-105.54120017,40.29114551,2798.54
-105.54119991,40.29111218,2796.35
-105.54119983,40.29110290,2797.87
-105.54119928,40.29103344,2785.90
-105.54119906,40.29100605,2785.88
-105.54119803,40.29087695,2785.57
-105.54119755,40.29081686,2784.89
-105.54119696,40.29074254,2800.03
-105.54119685,40.29072948,2799.83
-105.54119680,40.29072209,2785.45
-105.54119669,40.29070876,2797.60
-105.54119657,40.29069434,2787.85
-105.54119617,40.29064398,2796.38
-105.54119583,40.29060128,2795.03
-105.54119554,40.29056461,2796.64
-105.54119514,40.29051425,2799.43
-105.54119379,40.29034524,2797.53
-105.54119333,40.29028705,2784.90
-105.54119323,40.29027461,2785.30
-105.54119295,40.29024038,2784.76
-105.54119249,40.29018200,2784.59
-105.54119241,40.29017263,2789.17
-105.54119182,40.29009840,2784.50
-105.54118962,40.28982282,2783.69
-105.54118905,40.28975137,2787.41
-105.54118889,40.28973137,2783.99
-105.54118869,40.28970651,2784.12
-105.54118772,40.28958426,2783.52
-105.54118744,40.28954867,2788.39
-105.54118732,40.28953453,2789.81
-105.54118728,40.28952912,2782.91
-105.54118713,40.28951084,2782.69
-105.54118662,40.28944615,2782.37
-105.54118658,40.28944111,2793.85
-105.54118657,40.28944030,2782.36
-105.54118637,40.28941507,2789.83
-105.54118618,40.28939165,2797.05
-105.54118595,40.28936264,2785.93
-105.54118535,40.28928732,2794.47
-105.54118534,40.28928633,2792.78
-105.54118506,40.28925111,2795.08
-105.54118493,40.28923462,2781.53
-105.54118421,40.28923264,2794.41
-105.54118160,40.28922968,2794.76
-105.54118100,40.28922905,2781.57
-105.54117947,40.28922852,2792.82
-105.54116147,40.28922824,2792.54
-105.54112900,40.28922840,2794.27
-105.54112029,40.28922844,2795.65
-105.54104229,40.28922880,2782.82
-105.54100524,40.28922898,2794.11
-105.54096841,40.28922915,2783.92
-105.54094112,40.28922927,2783.99
-105.54090183,40.28922946,2784.47
-105.54090112,40.28922946,2798.06
-105.54089724,40.28922948,2798.81
-105.54088395,40.28922954,2797.08
-105.54080301,40.28922992,2797.55
-105.54079548,40.28922996,2798.68
-105.54078360,40.28923001,2796.61
-105.54073054,40.28923026,2785.84
-105.54064230,40.28923067,2795.62
-105.54061007,40.28923082,2786.83
-105.54055642,40.28923107,2801.23
-105.54047619,40.28923145,2787.96
-105.54043584,40.28923164,2788.24
-105.54035431,40.28923202,2795.84
-105.54022432,40.28923262,2804.54
-105.54007350,40.28923333,2801.45
-105.54004761,40.28923345,2808.35
-105.54004726,40.28923345,2808.12
-105.53994997,40.28923390,2792.00
-105.53993832,40.28923396,2794.83
-105.53993044,40.28923400,2791.97
-105.53990044,40.28923414,2792.18
-105.53969374,40.28923510,2794.85
-105.53964457,40.28923533,2795.33
-105.53953516,40.28923584,2796.57
-105.53946422,40.28923617,2813.41
-105.53945622,40.28923621,2805.07
-105.53944704,40.28923625,2808.51
-105.53928375,40.28923701,2797.80
-105.53919281,40.28923744,2798.21
-105.53905952,40.28923806,2801.39
-105.53890070,40.28923880,2804.16
-105.53884988,40.28923903,2814.69
-105.53859201,40.28924023,2811.44
-105.53858742,40.28924026,2811.29
-105.53858683,40.28924026,2812.84
-105.53852083,40.28924057,2823.02
-105.53832578,40.28924147,2815.13
-105.53831437,40.28924153,2815.34
-105.53830895,40.28924155,2815.54
-105.53830307,40.28924158,2815.65
-105.53830237,40.28924158,2815.66
-105.53829754,40.28924160,2815.72
-105.53829731,40.28924161,2815.75
-105.53829695,40.28924161,2827.70
-105.53829225,40.28924163,2815.81
-105.53828719,40.28924165,2815.84
-105.53821531,40.28924199,2827.27
-105.53814684,40.28924231,2831.68
-105.53813861,40.28924234,2819.56
-105.53807967,40.28924262,2821.04
-105.53804790,40.28924277,2827.91
-105.53803037,40.28924285,2822.47
-105.53799943,40.28924299,2829.24
-105.53790673,40.28924342,2831.03
-105.53782344,40.28924381,2834.54
-105.53776309,40.28924409,2838.67
-105.53769673,40.28924440,2831.55
-105.53765003,40.28924461,2837.74
-105.53764038,40.28924466,2832.49
-105.53757980,40.28924494,2833.66
-105.53754062,40.28924512,2834.19
-105.53741251,40.28924572,2835.89
-105.53740615,40.28924575,2841.37
-105.53713581,40.28924700,2838.80
-105.53684135,40.28924837,2851.60
-105.53675629,40.28924876,2843.47
-105.53649524,40.28924998,2850.85
-105.53644030,40.28925023,2858.13
-105.53621042,40.28925130,2857.22
-105.53620277,40.28925133,2858.18
-105.53607172,40.28925194,2851.94
-105.53603631,40.28925210,2863.32
-105.53603278,40.28925212,2863.82
-105.53602384,40.28925216,2852.41
-105.53597631,40.28925238,2853.13
-105.53578855,40.28925325,2859.41
-105.53577443,40.28925332,2867.12
-105.53555691,40.28925432,2872.76
-105.53554655,40.28925437,2867.18
-105.53542821,40.28925492,2869.40
-105.53540079,40.28925505,2861.63
-105.53533162,40.28925537,2875.75
-105.53533150,40.28925537,2876.63
-105.53516680,40.28925613,2885.80
-105.53515903,40.28925616,2878.57
-105.53496563,40.28925706,2869.25
-105.53489069,40.28925740,2870.48
-105.53480987,40.28925778,2872.51
-105.53478093,40.28925791,2876.60
-105.53457587,40.28925886,2890.25
-105.53410894,40.28926102,2886.82
-105.53396365,40.28926169,2899.27
-105.53388860,40.28926203,2904.92
-105.53382025,40.28926235,2903.86
-105.53381142,40.28926239,2893.26
-105.53359237,40.28926340,2906.57
-105.53335790,40.28926448,2914.93
-105.53329143,40.28926479,2915.52
-105.53325685,40.28926495,2915.90
-105.53323885,40.28926503,2916.21
-105.53321708,40.28926513,2916.69
-105.53317356,40.28926533,2917.44
-105.53304121,40.28926594,2918.91
-105.53302121,40.28926603,2919.69
-105.53300203,40.28926612,2919.65
-105.53298885,40.28926618,2919.73
-105.53288086,40.28926668,2915.13
-105.53287474,40.28926671,2921.58
-105.53287050,40.28926673,2921.57
-105.53274851,40.28926729,2922.53
-105.53273380,40.28926736,2923.30
-105.53253969,40.28926825,2925.87
-105.53248687,40.28926849,2931.98
-105.53241605,40.28926882,2927.64
-105.53239499,40.28926892,2928.14
-105.53239052,40.28926894,2928.21
-105.53229475,40.28926938,2930.97
-105.53199147,40.28927077,2941.92
-105.53194664,40.28927098,2949.42
-105.53194335,40.28927099,2947.01
-105.53193512,40.28927103,2942.06
-105.53190006,40.28927119,2946.96
-105.53188406,40.28927127,2951.03
-105.53187194,40.28927132,2951.22
-105.53186194,40.28927137,2952.74
-105.53181806,40.28927157,2949.44
-105.53170089,40.28927211,2948.12
-105.53159854,40.28927258,2959.29
-105.53153607,40.28927286,2959.38
-105.53148630,40.28927309,2959.62
-105.53137842,40.28927359,2962.24
-105.53133631,40.28927378,2971.71
-105.53133148,40.28927380,2969.19
-105.53127466,40.28927406,2969.48
-105.53091973,40.28927569,2970.55
-105.53091526,40.28927571,2970.67
-105.53086126,40.28927596,2980.71
-105.53085255,40.28927600,2980.51
-105.53074503,40.28927650,2975.46
-105.53055174,40.28927738,2981.56
-105.53037692,40.28927818,2991.52
-105.53034786,40.28927832,2995.89
-105.53034598,40.28927833,2996.10
-105.52996058,40.28928009,3000.80
-105.52991011,40.28928032,3002.25
-105.52985928,40.28928056,3010.36
-105.52985446,40.28928058,3011.00
-105.52980893,40.28928079,3011.27
-105.52978799,40.28928088,3017.10
-105.52966035,40.28928147,3018.18
-105.52956906,40.28928188,3014.82
-105.52949529,40.28928222,3017.04
-105.52945882,40.28928239,3025.44
-105.52943953,40.28928248,3024.43
-105.52942953,40.28928261,3019.10
-105.52942155,40.28928508,3019.42
-105.52942077,40.28929094,3019.59
-105.52942076,40.28930428,3031.05
-105.52942095,40.28932878,3020.57
-105.52942169,40.28942409,3031.75
-105.52942185,40.28944355,3029.67
-105.52942196,40.28945887,3023.78
-105.52942231,40.28950265,3029.11
-105.52942310,40.28960400,3030.61
-105.52942312,40.28960689,3033.27
-105.52942323,40.28962058,3031.16
-105.52942351,40.28965707,3033.42
-105.52942405,40.28972571,3026.76
-105.52942444,40.28977562,3027.14
-105.52942475,40.28981598,3027.95
-105.52942528,40.28988427,3033.80
-105.52942547,40.28990770,3042.12
-105.52942591,40.28996454,3039.81
-105.52942651,40.29004139,3040.24
-105.52942746,40.29016373,3031.33
-105.52942766,40.29018841,3031.43
-105.52943098,40.29061391,3054.50
-105.52943108,40.29062670,3050.86
-105.52943210,40.29075733,3053.42
-105.52943284,40.29085265,3058.31
-105.52943333,40.29091553,3048.84
-105.52943336,40.29091985,3051.60
-105.52943339,40.29092355,3052.72
-105.52943348,40.29093436,3055.86
-105.52943369,40.29096192,3058.90
-105.52943377,40.29097238,3059.04
-105.52943453,40.29106949,3056.53
-105.52943471,40.29109174,3055.74
-105.52943517,40.29115129,3049.58
-105.52943542,40.29118391,3057.54
-105.52943544,40.29118544,3050.09
-105.52943545,40.29118742,3057.73
-105.52943570,40.29121967,3056.52
-105.52943583,40.29123517,3056.01
-105.52943596,40.29125291,3050.64
-105.52943669,40.29134589,3060.44
-105.52943690,40.29137264,3061.67
-105.52943691,40.29137426,3057.39
-105.52943706,40.29139399,3059.99
-105.52943711,40.29140030,3061.48
-105.52943757,40.29145886,3055.25
-105.52943758,40.29146021,3054.43
-105.52943793,40.29150444,3061.82
-105.52943794,40.29150580,3057.62
-105.52943833,40.29155589,3062.88
-105.52943840,40.29156543,3065.05
-105.52943866,40.29159832,3064.20
-105.52943866,40.29159886,3061.37
-105.52943871,40.29160444,3064.80
-105.52943928,40.29167787,3057.51
-105.52943936,40.29168760,3066.43
-105.52943956,40.29171345,3063.92
-105.52943966,40.29172688,3066.13
-105.52944042,40.29182381,3056.82
-105.52944108,40.29190805,3064.87
-105.52944110,40.29191138,3064.87
-105.52944174,40.29199291,3065.73
-105.52944174,40.29199327,3064.62
-105.52944177,40.29199660,3055.64
-105.52944259,40.29210192,3054.04
-105.52944267,40.29211201,3055.50
-105.52944279,40.29212705,3059.04
-105.52944303,40.29215831,3053.60
-105.52944330,40.29219309,3052.30
-105.52944403,40.29228678,3059.43
-105.52944409,40.29229363,3063.95
-105.52944412,40.29229750,3060.83
-105.52944415,40.29230183,3056.42
-105.52944416,40.29230255,3053.76
-105.52944416,40.29230318,3050.98
-105.52944435,40.29232741,3049.17
-105.52944447,40.29234300,3053.29
-105.52944465,40.29236543,3051.00
-105.52944489,40.29239723,3052.42
-105.52944494,40.29240327,3050.69
-105.52944498,40.29240804,3049.22
-105.52944507,40.29241994,3057.74
-105.52944521,40.29243795,3057.55
-105.52944543,40.29246642,3053.91
-105.52944577,40.29250993,3048.64
-105.52944587,40.29252273,3055.34
-105.52944667,40.29262534,3048.38
-105.52944690,40.29265390,3055.01
-105.52944708,40.29267705,3045.87
-105.52944713,40.29268327,3045.86
-105.52944718,40.29268975,3045.84
-105.52944723,40.29269660,3045.98
-105.52944728,40.29270354,3054.64
-105.52944745,40.29272444,3050.21
-105.52944756,40.29273858,3055.43
-105.52944760,40.29274363,3057.12
-105.52944767,40.29275327,3048.10
-105.52944780,40.29277011,3047.26
-105.52944797,40.29279155,3045.10
-105.52944806,40.29280309,3045.26
-105.52944827,40.29282957,3050.26
-105.52944830,40.29283327,3049.79
-105.52944871,40.29288606,3045.35
-105.52944883,40.29290173,3045.13
-105.52944902,40.29292651,3054.45
-105.52944921,40.29295002,3045.52
-105.52944957,40.29299696,3058.24
-105.52944962,40.29300263,3046.28
-105.52944980,40.29302615,3056.04
-105.52945001,40.29305335,3046.78
-105.52945073,40.29314471,3046.93
-105.52945073,40.29314552,3046.96
-105.52945292,40.29342534,3061.70
-105.52945295,40.29342939,3062.77
-105.52945305,40.29344254,3055.68
-105.52945357,40.29350894,3070.12
-105.52945359,40.29351173,3071.67
-105.52945364,40.29351831,3071.53
-105.52945370,40.29352497,3066.92
-105.52945372,40.29352759,3066.62
-105.52945386,40.29354633,3055.87
-105.52945407,40.29357344,3066.04
-105.52945407,40.29357362,3061.86
-105.52945416,40.29358434,3063.46
-105.52945425,40.29359587,3068.44
-105.52945468,40.29365137,3054.12
-105.52945509,40.29370407,3065.38
-105.52945511,40.29370650,3059.70
-105.52945532,40.29373353,3068.81
-105.52945546,40.29375164,3069.00
-105.52945610,40.29383272,3062.57
-105.52945626,40.29385335,3064.00
-105.52945636,40.29386650,3062.38
-105.52945699,40.29394704,3058.87
-105.52945752,40.29401452,3063.20
-105.52945752,40.29401524,3069.17
-105.52945767,40.29403452,3058.01
-105.52945778,40.29404830,3058.07
-105.52945858,40.29415092,3058.03
-105.52945922,40.29423308,3058.86
-105.52945928,40.29423993,3062.58
-105.52945929,40.29424155,3065.95
-105.52945932,40.29424614,3067.69
-105.52946030,40.29437155,3060.35
-105.52946034,40.29437695,3064.84
-105.52946050,40.29439632,3060.79
-105.52946104,40.29446668,3070.49
-105.52946115,40.29448055,3066.39
-105.52946157,40.29453344,3064.10
-105.52946230,40.29462686,3077.72
-105.52946238,40.29463758,3066.62
-105.52946254,40.29465812,3075.13
-105.52946258,40.29466389,3067.53
-105.52946268,40.29467605,3075.52
-105.52946294,40.29470956,3074.97
-105.52946299,40.29471596,3080.24
-105.52946305,40.29472353,3075.11
-105.52946460,40.29492199,3077.32
-105.52946471,40.29493587,3080.29
-105.52946544,40.29502983,3091.09
-105.52946562,40.29505235,3085.87
-105.52946579,40.29507451,3084.44
-105.52946615,40.29512073,3089.87
-105.52946616,40.29512253,3088.39
-105.52946652,40.29516758,3086.65
-105.52946658,40.29517596,3093.49
-105.52946696,40.29522523,3093.57
-105.52946706,40.29523731,3091.11
-105.52946790,40.29534523,3098.41
-105.52946805,40.29536469,3102.11
-105.52946872,40.29545019,3111.00
-105.52946890,40.29547298,3118.01
-105.52946940,40.29553721,3118.16
-105.52947025,40.29564604,3122.33
-105.52947156,40.29581442,3128.48
-105.52947246,40.29592901,3138.18
-105.52947274,40.29596550,3137.49
-105.52947408,40.29613613,3151.70
-105.52947482,40.29623090,3164.53
-105.52947482,40.29623208,3163.35
-105.52947516,40.29627514,3156.66
-105.52947575,40.29635054,3160.22
-105.52947600,40.29638298,3165.81
-105.52947606,40.29639081,3161.00
-105.52947623,40.29641189,3167.10
-105.52947623,40.29641243,3166.17
-105.52947644,40.29643955,3167.46
-105.52947654,40.29645153,3164.52
-105.52947659,40.29645793,3162.67
-105.52947659,40.29645883,3162.72
-105.52947668,40.29647000,3163.11
-105.52947670,40.29647180,3163.07
-105.52947687,40.29649415,3163.53
-105.52947709,40.29652225,3166.61
-105.52947717,40.29653297,3163.74
-105.52947718,40.29653397,3163.77
-105.52947721,40.29653820,3163.75
-105.52947724,40.29654117,3163.75
-105.52947743,40.29656649,3163.02
-105.52947744,40.29656721,3166.29
-105.52947747,40.29657153,3163.02
-105.52947749,40.29657415,3165.60
-105.52947754,40.29658063,3165.28
-105.52947755,40.29658171,3162.71
-105.52947756,40.29658261,3166.17
-105.52947768,40.29659784,3166.23
-105.52947770,40.29660018,3162.30
-105.52947771,40.29660126,3165.64
-105.52947778,40.29661081,3168.17
-105.52947786,40.29662072,3166.84
-105.52947829,40.29667667,3160.39
-105.52947832,40.29668045,3159.81
-105.52947846,40.29669811,3163.06
-105.52947879,40.29674027,3157.86
-105.52947920,40.29679243,3156.53
-105.52947923,40.29679685,3157.39
-105.52948162,40.29710252,3154.36
-105.52948169,40.29711189,3154.70
-105.52948198,40.29714820,3155.47
-105.52948229,40.29718820,3156.63
-105.52948240,40.29720279,3157.20
-105.52948262,40.29723072,3156.20
-105.52948294,40.29727117,3151.83
-105.52948300,40.29727973,3150.73
-105.52948337,40.29732747,3140.12
-105.52948389,40.29739414,3136.33
-105.52948393,40.29739819,3136.20
-105.52948469,40.29749567,3131.46
-105.52948471,40.29749873,3132.99
-105.52948504,40.29754135,3130.93
-105.52948509,40.29754738,3131.47
-105.52948667,40.29774963,3119.48
-105.52948706,40.29779999,3119.17
-105.52948950,40.29811278,3108.88
-105.52949108,40.29828449,3094.82
-105.52949395,40.29829034,3094.59
-105.52986070,40.29828974,3079.38
-105.52986188,40.29828973,3078.55
-105.52986223,40.29828973,3081.03
-105.52986459,40.29828972,3082.14
-105.52986482,40.29828972,3079.16
-105.53038817,40.29828732,3071.06
-105.53038959,40.29828732,3072.39
-105.53038994,40.29828731,3074.15
-105.53039159,40.29828731,3073.30
-105.53039347,40.29828730,3072.34
-105.53090646,40.29828495,3031.21
-105.53091070,40.29828493,3031.13
-105.53144805,40.29828246,3014.39
-105.53145029,40.29828245,3013.63
-105.53145205,40.29828244,3007.37
-105.53145358,40.29828243,3008.24
-105.53145394,40.29828243,3009.51
-105.53145629,40.29828242,3007.31
-105.53200400,40.29827990,2993.93
-105.53202988,40.29827978,2994.86
-105.53203000,40.29827978,2993.60
-105.53203553,40.29827976,2993.28
-105.53203588,40.29827976,2994.36
-105.53203706,40.29827975,2987.78
-105.53204153,40.29827973,2986.54
-105.53214836,40.29827924,2989.90
-105.53226897,40.29827868,2981.19
-105.53238039,40.29827817,2982.09
-105.53252076,40.29827753,2967.64
-105.53256453,40.29827732,2970.26
-105.53264701,40.29827695,2967.37
-105.53276208,40.29827642,2956.88
-105.53283867,40.29827606,2949.99
-105.53284232,40.29827605,2949.71
-105.53284656,40.29827603,2949.48
-105.53285456,40.29827599,2949.01
-105.53289350,40.29827581,2948.14
-105.53289774,40.29827579,2947.89
-105.53290162,40.29827577,2947.72
-105.53290598,40.29827575,2947.70
-105.53291068,40.29827573,2947.61
-105.53291468,40.29827571,2947.33
-105.53292327,40.29827567,2947.07
-105.53293786,40.29827561,2955.48
-105.53294351,40.29827558,2946.24
-105.53294410,40.29827558,2946.29
-105.53294739,40.29827556,2945.83
-105.53295186,40.29827554,2945.81
-105.53295633,40.29827552,2945.85
-105.53296045,40.29827550,2945.66
-105.53296492,40.29827548,2945.48
-105.53300646,40.29827529,2943.77
-105.53300952,40.29827528,2945.06
-105.53301069,40.29827527,2943.64
-105.53301422,40.29827525,2945.06
-105.53301975,40.29827523,2943.56
-105.53302328,40.29827521,2943.20
-105.53302787,40.29827519,2943.13
-105.53302999,40.29827518,2944.00
-105.53303234,40.29827517,2942.99
-105.53303446,40.29827516,2944.03
-105.53303623,40.29827515,2942.78
-105.53304070,40.29827513,2942.66
-105.53304576,40.29827511,2942.78
-105.53304987,40.29827509,2942.47
-105.53305023,40.29827509,2942.47
-105.53305399,40.29827507,2942.38
-105.53305434,40.29827507,2942.37
-105.53305835,40.29827505,2942.19
-105.53306270,40.29827503,2944.26
-105.53306293,40.29827503,2942.10
-105.53306635,40.29827501,2943.97
-105.53307152,40.29827499,2941.79
-105.53307541,40.29827497,2943.92
-105.53307564,40.29827497,2942.01
-105.53307646,40.29827497,2942.01
-105.53313694,40.29827469,2940.66
-105.53313953,40.29827468,2939.26
-105.53314271,40.29827466,2939.35
-105.53314435,40.29827465,2939.32
-105.53314918,40.29827463,2939.39
-105.53315353,40.29827461,2939.32
-105.53315706,40.29827460,2938.73
-105.53319083,40.29827444,2940.17
-105.53319389,40.29827443,2941.34
-105.53321366,40.29827433,2938.11
-105.53322154,40.29827430,2939.79
-105.53322836,40.29827427,2943.69
-105.53324472,40.29827419,2940.69
-105.53324589,40.29827419,2935.37
-105.53324719,40.29827418,2940.52
-105.53325119,40.29827416,2935.80
-105.53327743,40.29827404,2933.70
-105.53328166,40.29827402,2933.56
-105.53328402,40.29827401,2933.52
-105.53328625,40.29827400,2933.43
-105.53330049,40.29827393,2940.40
-105.53331296,40.29827388,2938.93
-105.53331425,40.29827387,2940.17
-105.53331555,40.29827387,2935.81
-105.53331684,40.29827386,2936.97
-105.53332390,40.29827383,2931.76
-105.53332861,40.29827380,2931.65
-105.53333261,40.29827379,2931.45
-105.53333708,40.29827377,2931.35
-105.53334108,40.29827375,2931.13
-105.53334532,40.29827373,2931.06
-105.53335026,40.29827371,2931.14
-105.53335438,40.29827369,2930.76
-105.53335838,40.29827367,2930.61
-105.53336285,40.29827365,2930.44
-105.53336426,40.29827364,2930.35
-105.53336744,40.29827363,2930.29
-105.53336873,40.29827362,2930.25
-105.53337273,40.29827360,2930.04
-105.53337956,40.29827357,2938.07
-105.53338497,40.29827354,2939.19
-105.53338579,40.29827354,2939.24
-105.53338897,40.29827353,2938.64
-105.53339285,40.29827351,2937.91
-105.53339709,40.29827349,2937.87
-105.53340062,40.29827347,2935.68
-105.53340156,40.29827347,2935.56
-105.53343803,40.29827330,2928.78
-105.53345756,40.29827321,2934.40
-105.53345886,40.29827320,2937.65
-105.53346086,40.29827320,2937.77
-105.53346168,40.29827319,2935.79
-105.53346321,40.29827318,2937.62
-105.53346604,40.29827317,2935.77
-105.53346804,40.29827316,2937.56
-105.53347310,40.29827314,2937.92
-105.53347392,40.29827314,2937.87
-105.53347415,40.29827313,2937.70
-105.53347510,40.29827313,2938.47
-105.53347921,40.29827311,2938.39
-105.53348110,40.29827310,2938.70
-105.53348333,40.29827309,2938.24
-105.53348427,40.29827309,2938.14
-105.53348439,40.29827309,2938.27
-105.53348816,40.29827307,2938.23
-105.53348839,40.29827307,2934.01
-105.53348921,40.29827306,2935.96
-105.53349016,40.29827306,2937.31
-105.53349039,40.29827306,2931.45
-105.53349133,40.29827306,2931.42
-105.53349263,40.29827305,2938.16
-105.53349474,40.29827304,2937.25
-105.53352792,40.29827289,2933.17
-105.53353475,40.29827285,2936.09
-105.53353993,40.29827283,2936.49
-105.53354287,40.29827282,2938.10
-105.53354687,40.29827280,2937.89
-105.53354852,40.29827279,2932.66
-105.53354957,40.29827279,2932.63
-105.53355122,40.29827278,2932.28
-105.53355228,40.29827277,2932.10
-105.53355369,40.29827277,2932.24
-105.53355405,40.29827277,2927.36
-105.53355758,40.29827275,2932.56
-105.53355863,40.29827274,2927.26
-105.53355887,40.29827274,2932.55
-105.53357311,40.29827268,2925.01
-105.53358170,40.29827264,2924.82
-105.53359170,40.29827259,2932.14
-105.53359393,40.29827258,2932.90
-105.53359534,40.29827258,2933.68
-105.53360946,40.29827251,2933.85
-105.53361052,40.29827250,2923.78
-105.53361393,40.29827249,2933.73
-105.53362829,40.29827242,2933.90
-105.53363252,40.29827240,2933.92
-105.53363511,40.29827239,2933.41
-105.53363911,40.29827237,2933.19
-105.53366900,40.29827224,2930.46
-105.53367323,40.29827222,2930.17
-105.53369065,40.29827214,2921.77
-105.53369500,40.29827212,2929.60
-105.53370689,40.29827206,2923.65
-105.53371300,40.29827203,2929.27
-105.53371594,40.29827202,2923.63
-105.53371724,40.29827201,2929.07
-105.53372089,40.29827200,2923.82
-105.53372148,40.29827199,2929.15
-105.53372559,40.29827197,2923.44
-105.53372924,40.29827196,2923.25
-105.53373006,40.29827195,2923.25
-105.53373077,40.29827195,2929.16
-105.53373465,40.29827193,2920.63
-105.53373512,40.29827193,2929.09
-105.53375677,40.29827183,2928.31
-105.53376101,40.29827181,2928.37
-105.53376348,40.29827180,2924.81
-105.53376407,40.29827180,2924.78
-105.53376842,40.29827178,2924.90
-105.53376866,40.29827178,2924.81
-105.53378901,40.29827168,2926.13
-105.53379254,40.29827167,2918.69
-105.53379348,40.29827166,2926.27
-105.53379395,40.29827166,2926.27
-105.53379501,40.29827165,2926.96
-105.53379972,40.29827163,2926.92
-105.53380301,40.29827162,2926.51
-105.53380313,40.29827162,2926.54
-105.53380690,40.29827160,2925.91
-105.53381290,40.29827157,2926.90
-105.53381784,40.29827155,2927.22
-105.53381831,40.29827155,2927.33
-105.53381866,40.29827154,2927.29
-105.53382219,40.29827153,2927.27
-105.53382243,40.29827153,2927.28
-105.53382302,40.29827152,2920.75
-105.53382325,40.29827152,2927.22
-105.53384149,40.29827144,2927.03
-105.53385396,40.29827138,2926.46
-105.53385443,40.29827138,2927.72
-105.53385878,40.29827136,2926.78
-105.53386890,40.29827131,2923.71
-105.53387890,40.29827127,2924.60
-105.53388314,40.29827125,2924.50
-105.53389079,40.29827121,2921.43
-105.53389844,40.29827118,2925.39
-105.53390267,40.29827116,2925.40
-105.53390291,40.29827116,2925.38
-105.53394750,40.29827095,2913.89
-105.53397939,40.29827080,2917.12
-105.53398409,40.29827078,2916.98
-105.53403433,40.29827055,2920.67
-105.53403645,40.29827054,2911.28
-105.53404010,40.29827052,2921.60
-105.53404092,40.29827052,2911.15
-105.53404445,40.29827050,2921.35
-105.53409187,40.29827028,2915.69
-105.53409799,40.29827026,2916.67
-105.53410281,40.29827023,2916.80
-105.53410728,40.29827021,2916.75
-105.53417011,40.29826992,2907.06
-105.53418917,40.29826983,2906.50
-105.53419376,40.29826981,2906.39
-105.53423177,40.29826964,2913.00
-105.53427377,40.29826944,2907.61
-105.53431554,40.29826925,2902.56
-105.53433225,40.29826917,2905.48
-105.53435284,40.29826908,2907.80
-105.53435343,40.29826908,2908.43
-105.53436143,40.29826904,2906.08
-105.53437225,40.29826899,2907.23
-105.53437531,40.29826897,2900.46
-105.53437755,40.29826896,2908.19
-105.53437955,40.29826896,2902.40
-105.53438284,40.29826894,2909.12
-105.53438825,40.29826892,2910.18
-105.53439378,40.29826889,2911.33
-105.53440284,40.29826885,2905.33
-105.53440343,40.29826885,2905.96
-105.53442073,40.29826877,2909.60
-105.53442508,40.29826874,2909.56
-105.53443720,40.29826869,2905.15
-105.53447238,40.29826853,2898.15
-105.53450203,40.29826839,2905.17
-105.53450827,40.29826836,2907.43
-105.53451250,40.29826834,2907.25
-105.53451850,40.29826831,2909.03
-105.53459098,40.29826798,2895.43
-105.53460475,40.29826792,2895.01
-105.53460639,40.29826791,2894.95
-105.53460910,40.29826790,2894.87
-105.53461828,40.29826785,2894.58
-105.53463675,40.29826777,2894.03
-105.53463969,40.29826775,2893.99
-105.53464157,40.29826774,2893.91
-105.53466405,40.29826764,2893.41
-105.53466852,40.29826762,2902.70
-105.53466922,40.29826762,2903.82
-105.53467322,40.29826760,2893.16
-105.53468676,40.29826754,2892.77
-105.53469146,40.29826751,2892.62
-105.53469370,40.29826750,2896.37
-105.53469582,40.29826749,2892.53
-105.53469676,40.29826749,2892.51
-105.53470064,40.29826747,2892.42
-105.53470464,40.29826745,2892.26
-105.53470546,40.29826745,2892.27
-105.53470935,40.29826743,2892.17
-105.53471029,40.29826743,2892.18
-105.53471464,40.29826741,2892.11
-105.53473253,40.29826732,2891.50
-105.53473370,40.29826732,2902.06
-105.53473464,40.29826732,2903.50
-105.53473711,40.29826730,2891.45
-105.53473982,40.29826729,2900.51
-105.53474182,40.29826728,2891.34
-105.53475900,40.29826720,2901.55
-105.53478771,40.29826707,2899.86
-105.53480830,40.29826697,2893.98
-105.53484701,40.29826680,2888.74
     </coordinates>
    </LineString>
   </MultiGeometry>
  </Placemark>
 </Document>
</kml>
