<kml>
 <Document>
  <Style id="yellow">
   <LineStyle>
   <color>ff00ffff</color>
   <width>1</width>
   </LineStyle>
  </Style>
  <Style id="red">
   <LineStyle>
   <color>ffff0000</color>
   <width>2</width>
   </LineStyle>
  </Style>
  <Style id="green">
   <LineStyle>
   <color>ff00ff00</color>
   <width>1</width>
   </LineStyle>
  </Style>
  <Placemark>
  <styleUrl>#yellow</styleUrl>
   <MultiGeometry>
    <LineString>
     <coordinates>
-105.51161574,40.29837186,3052.68
-105.51162939,40.29837180,3056.68
-105.51163492,40.29837177,3058.02
-105.51182176,40.29837095,3052.12
-105.51182588,40.29837093,3052.52
-105.51183024,40.29837091,3052.53
-105.51191531,40.29837053,3056.54
-105.51191566,40.29837053,3058.82
-105.51202273,40.29837006,3058.77
-105.51203097,40.29837002,3051.49
-105.51208697,40.29836977,3055.27
-105.51208991,40.29836976,3057.89
-105.51229958,40.29836883,3053.48
-105.51230405,40.29836881,3053.51
-105.51235371,40.29836859,3056.40
-105.51235877,40.29836857,3056.20
-105.51236300,40.29836855,3056.42
-105.51249490,40.29836797,3065.32
-105.51251549,40.29836788,3054.37
-105.51267786,40.29836716,3069.79
-105.51282047,40.29836652,3057.66
-105.51282458,40.29836651,3057.83
-105.51282882,40.29836649,3057.99
-105.51283270,40.29836647,3058.20
-105.51283694,40.29836645,3058.36
-105.51284729,40.29836641,3067.46
-105.51285176,40.29836639,3067.25
-105.51295695,40.29836592,3061.46
-105.51297519,40.29836584,3068.13
-105.51301425,40.29836567,3066.58
-105.51301825,40.29836565,3066.78
-105.51302214,40.29836563,3067.01
-105.51302649,40.29836561,3067.10
-105.51303837,40.29836556,3073.52
-105.51304355,40.29836554,3073.19
-105.51306343,40.29836545,3069.13
-105.51306908,40.29836542,3069.00
-105.51307297,40.29836541,3072.65
-105.51311097,40.29836524,3076.72
-105.51312544,40.29836517,3077.28
-105.51316486,40.29836500,3073.48
-105.51318039,40.29836493,3074.56
-105.51318533,40.29836491,3074.50
-105.51323039,40.29836471,3076.84
-105.51328146,40.29836448,3074.43
-105.51334441,40.29836420,3079.19
-105.51338829,40.29836401,3076.79
-105.51345171,40.29836373,3073.39
-105.51365538,40.29836282,3086.61
-105.51365997,40.29836280,3086.37
-105.51366209,40.29836279,3078.67
-105.51376375,40.29836234,3080.89
-105.51376681,40.29836233,3087.64
-105.51378846,40.29836223,3081.64
-105.51391506,40.29836167,3084.12
-105.51396083,40.29836146,3089.22
-105.51403978,40.29836111,3086.65
-105.51420568,40.29836038,3092.50
-105.51423157,40.29836026,3095.43
-105.51425298,40.29836017,3100.57
-105.51426804,40.29836010,3099.73
-105.51431357,40.29835990,3097.26
-105.51433393,40.29835981,3096.18
-105.51437676,40.29835962,3101.14
-105.51442312,40.29835941,3098.63
-105.51468491,40.29835825,3108.57
-105.51469068,40.29835822,3109.25
-105.51475739,40.29835792,3105.28
-105.51476645,40.29835788,3114.59
-105.51481869,40.29835765,3111.80
-105.51482363,40.29835763,3111.53
-105.51483952,40.29835756,3110.71
-105.51484705,40.29835752,3114.38
-105.51489188,40.29835733,3114.66
-105.51489764,40.29835730,3107.58
-105.51492859,40.29835716,3112.75
-105.51511461,40.29835633,3111.57
-105.51517379,40.29835607,3113.11
-105.51517861,40.29835605,3112.90
-105.51520626,40.29835593,3116.22
-105.51522968,40.29835582,3123.65
-105.51524556,40.29835575,3122.87
-105.51525180,40.29835572,3119.14
-105.51534463,40.29835531,3117.37
-105.51536428,40.29835522,3121.47
-105.51544017,40.29835488,3126.22
-105.51550018,40.29835462,3120.28
-105.51566808,40.29835387,3126.38
-105.51568538,40.29835379,3123.09
-105.51583092,40.29835314,3130.99
-105.51588257,40.29835291,3129.05
-105.51598141,40.29835247,3132.56
-105.51598412,40.29835246,3133.79
-105.51603400,40.29835224,3129.86
-105.51606883,40.29835208,3128.04
-105.51621838,40.29835141,3129.52
-105.51625391,40.29835126,3136.06
-105.51625744,40.29835124,3137.01
-105.51633204,40.29835091,3131.96
-105.51641710,40.29835053,3140.85
-105.51645028,40.29835038,3142.37
-105.51654006,40.29834998,3133.06
-105.51661301,40.29834965,3136.87
-105.51662607,40.29834959,3133.77
-105.51678232,40.29834890,3136.17
-105.51681868,40.29834873,3141.71
-105.51685668,40.29834856,3138.27
-105.51689328,40.29834840,3146.97
-105.51695658,40.29834812,3143.71
-105.51696011,40.29834810,3140.89
-105.51721202,40.29834698,3152.13
-105.51749417,40.29834571,3152.63
-105.51762489,40.29834513,3158.50
-105.51766030,40.29834497,3150.41
-105.51771678,40.29834472,3152.79
-105.51772336,40.29834334,3151.78
-105.51772474,40.29833964,3148.90
-105.51772466,40.29832928,3149.09
-105.51772464,40.29832639,3149.02
-105.51772457,40.29831748,3148.96
-105.51772165,40.29793441,3160.30
-105.51772162,40.29793045,3154.27
-105.51772135,40.29789514,3162.87
-105.51772046,40.29777811,3152.35
-105.51771945,40.29764622,3153.93
-105.51771829,40.29749415,3155.71
-105.51771828,40.29749270,3155.85
-105.51771823,40.29748631,3155.72
-105.51771721,40.29735271,3156.94
-105.51771706,40.29733325,3157.08
-105.51771702,40.29732829,3157.08
-105.51771700,40.29732541,3157.21
-105.51771687,40.29730874,3168.07
-105.51771668,40.29728307,3157.99
-105.51771650,40.29726027,3161.60
-105.51771648,40.29725721,3162.48
-105.51771617,40.29721721,3159.16
-105.51771550,40.29712847,3160.47
-105.51771469,40.29702253,3162.43
-105.51771440,40.29698424,3162.97
-105.51771380,40.29690631,3173.34
-105.51771358,40.29687676,3167.37
-105.51771335,40.29684712,3164.70
-105.51771315,40.29682064,3165.03
-105.51771213,40.29668748,3168.05
-105.51771185,40.29665001,3175.55
-105.51771171,40.29663280,3168.78
-105.51771139,40.29659001,3170.90
-105.51771018,40.29643163,3173.30
-105.51770965,40.29636235,3176.02
-105.51770882,40.29625307,3183.42
-105.51770801,40.29614694,3180.59
-105.51770785,40.29612622,3184.76
-105.51770774,40.29611190,3183.79
-105.51770733,40.29605884,3182.73
-105.51770707,40.29602478,3187.77
-105.51770659,40.29596082,3187.33
-105.51770534,40.29579740,3198.94
-105.51770529,40.29579145,3189.97
-105.51770475,40.29572046,3200.83
-105.51770436,40.29566956,3193.00
-105.51770414,40.29564064,3196.34
-105.51770375,40.29558947,3195.47
-105.51770356,40.29556469,3202.90
-105.51770294,40.29548289,3207.04
-105.51770262,40.29544136,3205.39
-105.51770228,40.29539695,3207.82
-105.51770228,40.29539614,3199.96
-105.51770203,40.29536424,3209.64
-105.51770179,40.29533271,3204.29
-105.51770178,40.29533181,3201.14
-105.51770162,40.29531055,3205.20
-105.51770160,40.29530758,3205.15
-105.51770060,40.29517605,3208.63
-105.51770044,40.29515569,3205.67
-105.51770001,40.29509956,3209.13
-105.51769994,40.29509028,3208.55
-105.51769932,40.29500920,3210.33
-105.51769913,40.29498389,3213.02
-105.51769901,40.29496830,3216.29
-105.51769895,40.29496001,3216.41
-105.51769872,40.29492965,3213.94
-105.51769835,40.29488172,3214.57
-105.51769822,40.29486506,3211.65
-105.51769800,40.29483551,3215.48
-105.51769799,40.29483470,3216.96
-105.51769789,40.29482172,3220.74
-105.51769782,40.29481281,3213.85
-105.51769756,40.29477884,3213.33
-105.51769561,40.29452263,3220.41
-105.51769547,40.29450425,3230.08
-105.51769543,40.29449866,3225.44
-105.51769514,40.29446173,3228.73
-105.51769509,40.29445515,3227.56
-105.51769462,40.29439236,3224.72
-105.51769457,40.29438695,3224.76
-105.51769401,40.29431245,3227.30
-105.51769368,40.29426947,3234.37
-105.51769246,40.29410974,3233.30
-105.51769226,40.29408362,3237.04
-105.51769191,40.29403830,3235.59
-105.51769178,40.29402047,3233.68
-105.51769151,40.29398524,3236.64
-105.51769130,40.29395812,3240.71
-105.51769102,40.29392110,3235.89
-105.51769074,40.29388506,3237.02
-105.51769030,40.29382704,3238.78
-105.51768954,40.29372686,3244.42
-105.51768935,40.29370290,3248.59
-105.51768933,40.29369993,3243.33
-105.51768909,40.29366785,3244.55
-105.51768869,40.29361596,3246.50
-105.51768842,40.29358119,3259.78
-105.51768716,40.29341560,3254.02
-105.51768710,40.29340822,3262.34
-105.51768670,40.29335470,3261.09
-105.51768576,40.29323146,3263.57
-105.51768521,40.29315948,3266.60
-105.51768502,40.29313506,3268.74
-105.51768481,40.29310777,3269.85
-105.51768262,40.29282065,3277.86
-105.51768219,40.29276434,3279.88
-105.51768155,40.29268083,3286.57
-105.51767965,40.29243137,3293.95
-105.51767766,40.29217074,3304.53
-105.51767741,40.29213804,3306.47
-105.51767569,40.29191219,3319.29
-105.51767490,40.29180858,3324.96
-105.51767381,40.29166561,3332.15
-105.51767359,40.29163714,3333.98
-105.51767288,40.29154453,3341.10
-105.51767252,40.29149642,3346.93
-105.51767178,40.29139966,3347.44
-105.51767172,40.29139246,3352.39
-105.51767165,40.29138291,3348.63
-105.51767123,40.29132831,3347.40
-105.51767009,40.29117849,3355.07
-105.51766953,40.29110435,3359.32
-105.51766947,40.29109696,3359.70
-105.51766925,40.29106831,3361.52
-105.51766923,40.29106507,3361.82
-105.51766906,40.29104282,3362.95
-105.51766901,40.29103723,3363.29
-105.51766838,40.29095480,3367.89
-105.51766751,40.29084012,3374.13
-105.51766680,40.29074714,3378.61
-105.51766646,40.29070246,3380.45
-105.51766630,40.29068129,3381.54
-105.51766614,40.29066066,3382.76
-105.51766546,40.29057165,3387.70
-105.51766512,40.29052732,3390.20
-105.51766466,40.29046733,3393.45
-105.51766440,40.29043273,3395.37
-105.51766392,40.29036985,3398.66
-105.51766364,40.29033300,3400.62
-105.51766320,40.29027579,3403.08
-105.51766136,40.29003471,3415.23
-105.51766017,40.28987787,3423.89
-105.51765810,40.28960742,3436.44
-105.51765784,40.28957318,3438.17
-105.51765759,40.28953958,3439.45
-105.51765740,40.28951580,3441.28
-105.51765723,40.28949327,3442.03
-105.51765611,40.28934670,3448.62
-105.51765416,40.28933779,3448.77
-105.51763744,40.28933606,3448.89
-105.51759109,40.28933618,3448.98
-105.51750956,40.28933645,3448.55
-105.51746804,40.28933664,3448.08
-105.51739721,40.28933695,3448.51
-105.51731451,40.28933732,3448.16
-105.51731133,40.28933734,3448.41
-105.51714992,40.28933806,3447.43
-105.51714840,40.28933807,3448.38
-105.51708581,40.28933835,3446.76
-105.51708346,40.28933836,3447.29
-105.51678487,40.28933969,3442.39
-105.51675958,40.28933980,3442.40
-105.51663170,40.28934038,3440.94
-105.51652558,40.28934085,3438.74
-105.51642853,40.28934128,3436.81
-105.51642265,40.28934131,3436.68
-105.51621736,40.28934222,3435.44
-105.51593183,40.28934350,3429.94
-105.51581972,40.28934400,3423.29
-105.51572395,40.28934443,3417.82
-105.51561160,40.28934493,3411.96
-105.51529079,40.28934636,3400.64
-105.51526326,40.28934648,3397.93
-105.51513761,40.28934704,3393.45
-105.51513056,40.28934707,3393.23
-105.51506362,40.28934737,3398.59
-105.51505962,40.28934738,3398.74
-105.51500773,40.28934762,3389.52
-105.51500479,40.28934763,3390.39
-105.51500138,40.28934764,3391.00
-105.51496832,40.28934779,3388.18
-105.51486668,40.28934824,3390.50
-105.51486350,40.28934826,3390.99
-105.51480150,40.28934853,3382.26
-105.51463409,40.28934928,3376.04
-105.51463045,40.28934929,3376.03
-105.51461362,40.28934937,3377.34
-105.51445045,40.28935009,3371.66
-105.51444657,40.28935011,3371.88
-105.51441010,40.28935027,3368.74
-105.51438951,40.28935037,3373.52
-105.51438375,40.28935039,3374.75
-105.51438034,40.28935041,3375.19
-105.51431775,40.28935068,3365.61
-105.51417269,40.28935133,3364.24
-105.51416458,40.28935137,3366.40
-105.51415246,40.28935142,3368.57
-105.51412740,40.28935153,3358.44
-105.51407081,40.28935178,3355.62
-105.51396234,40.28935226,3351.71
-105.51395011,40.28935232,3352.67
-105.51385199,40.28935275,3345.18
-105.51376200,40.28935315,3345.67
-105.51363753,40.28935371,3336.10
-105.51349447,40.28935434,3333.11
-105.51348530,40.28935438,3334.63
-105.51348047,40.28935440,3336.07
-105.51339588,40.28935478,3335.21
-105.51331636,40.28935513,3320.64
-105.51319318,40.28935568,3313.27
-105.51315013,40.28935587,3310.98
-105.51307907,40.28935618,3307.45
-105.51306542,40.28935624,3310.31
-105.51300848,40.28935650,3303.70
-105.51293060,40.28935684,3309.83
-105.51274966,40.28935764,3291.79
-105.51260778,40.28935827,3289.41
-105.51256755,40.28935845,3292.75
-105.51255790,40.28935849,3284.25
-105.51254096,40.28935857,3287.45
-105.51253802,40.28935858,3287.97
-105.51246002,40.28935893,3278.96
-105.51239814,40.28935920,3283.87
-105.51233155,40.28935950,3274.88
-105.51232802,40.28935951,3275.23
-105.51232238,40.28935954,3276.31
-105.51231967,40.28935955,3272.57
-105.51229097,40.28935968,3271.25
-105.51224379,40.28935989,3275.00
-105.51218297,40.28936015,3267.04
-105.51211262,40.28936047,3265.07
-105.51210838,40.28936048,3264.09
-105.51207932,40.28936061,3266.46
-105.51207544,40.28936063,3262.92
-105.51195603,40.28936116,3267.40
-105.51192509,40.28936130,3256.42
-105.51186050,40.28936158,3261.40
-105.51172204,40.28936219,3248.80
-105.51170121,40.28936229,3255.98
-105.51148098,40.28936326,3240.27
-105.51140004,40.28936362,3237.58
-105.51139698,40.28936363,3237.31
-105.51133981,40.28936388,3240.04
-105.51131934,40.28936397,3237.94
-105.51130604,40.28936403,3239.23
-105.51113334,40.28936480,3234.53
-105.51112134,40.28936485,3233.20
-105.51111911,40.28936486,3231.69
-105.51110570,40.28936492,3232.87
-105.51101758,40.28936531,3219.18
-105.51098205,40.28936546,3221.80
-105.51073523,40.28936655,3205.80
-105.51069735,40.28936672,3209.65
-105.51068076,40.28936679,3217.18
-105.51061312,40.28936709,3205.82
-105.51049806,40.28936760,3196.44
-105.51049441,40.28936762,3196.06
-105.51045371,40.28936780,3207.81
-105.51031924,40.28936839,3192.58
-105.51027512,40.28936858,3187.38
-105.51016807,40.28936906,3184.11
-105.51015289,40.28936912,3191.08
-105.51008795,40.28936941,3181.02
-105.51006148,40.28936953,3182.77
-105.50978996,40.28937072,3184.48
-105.50976525,40.28937083,3171.71
-105.50962890,40.28937143,3166.04
-105.50962514,40.28937145,3165.54
-105.50959443,40.28937158,3173.80
-105.50952926,40.28937187,3162.34
-105.50947608,40.28937211,3161.02
-105.50942455,40.28937233,3158.87
-105.50935702,40.28937263,3170.45
-105.50935032,40.28937266,3171.16
-105.50929350,40.28937291,3154.55
-105.50926714,40.28937303,3158.78
-105.50926185,40.28937305,3153.46
-105.50924891,40.28937311,3157.78
-105.50923185,40.28937318,3159.32
-105.50920609,40.28937329,3151.66
-105.50916609,40.28937347,3165.12
-105.50912362,40.28937366,3149.24
-105.50907338,40.28937388,3147.69
-105.50906174,40.28937393,3147.49
-105.50904056,40.28937402,3151.44
-105.50899927,40.28937420,3145.78
-105.50899903,40.28937421,3145.84
-105.50898962,40.28937425,3147.54
-105.50889797,40.28937465,3151.25
-105.50888950,40.28937469,3152.69
-105.50888539,40.28937471,3149.73
-105.50887292,40.28937476,3142.47
-105.50885068,40.28937486,3145.57
-105.50881221,40.28937503,3141.14
-105.50881151,40.28937503,3141.13
-105.50877445,40.28937519,3148.34
-105.50861186,40.28937591,3135.26
-105.50853504,40.28937625,3133.11
-105.50844657,40.28937663,3134.06
-105.50844504,40.28937664,3135.49
-105.50839316,40.28937687,3129.36
-105.50837551,40.28937695,3128.90
-105.50831422,40.28937722,3127.35
-105.50825963,40.28937746,3130.99
-105.50823952,40.28937754,3134.88
-105.50819187,40.28937775,3132.03
-105.50811140,40.28937811,3132.01
-105.50804599,40.28937839,3129.13
-105.50804011,40.28937842,3130.28
-105.50801376,40.28937854,3128.61
-105.50797976,40.28937868,3116.50
-105.50796176,40.28937876,3129.07
-105.50784929,40.28937926,3119.47
-105.50780164,40.28937947,3113.98
-105.50775400,40.28937968,3113.17
-105.50771470,40.28937985,3121.95
-105.50769929,40.28937992,3107.73
-105.50762788,40.28938023,3105.71
-105.50758024,40.28938044,3115.55
-105.50756506,40.28938050,3104.19
-105.50746035,40.28938096,3100.44
-105.50745412,40.28938099,3109.14
-105.50734306,40.28938148,3096.04
-105.50714777,40.28938233,3088.94
-105.50711613,40.28938247,3088.16
-105.50710919,40.28938250,3095.05
-105.50699519,40.28938300,3091.80
-105.50652378,40.28938507,3073.69
-105.50642049,40.28938552,3069.44
-105.50630520,40.28938602,3057.63
-105.50630120,40.28938604,3057.53
-105.50627050,40.28938618,3065.02
-105.50617297,40.28938660,3053.16
-105.50615497,40.28938668,3057.21
-105.50610167,40.28938692,3050.94
-105.50608368,40.28938699,3055.22
-105.50606944,40.28938706,3059.51
-105.50606662,40.28938707,3059.14
-105.50601332,40.28938730,3056.04
-105.50599379,40.28938739,3060.73
-105.50598968,40.28938740,3061.48
-105.50598791,40.28938741,3061.37
-105.50593297,40.28938765,3049.73
-105.50591097,40.28938775,3045.02
-105.50589310,40.28938864,3050.14
-105.50589251,40.28938882,3044.48
-105.50589202,40.28940153,3054.11
-105.50589192,40.28940423,3053.30
-105.50589183,40.28940792,3052.58
-105.50589249,40.28949702,3044.68
-105.50589265,40.28951855,3044.83
-105.50589282,40.28954153,3044.68
-105.50589301,40.28956675,3044.59
-105.50589320,40.28959252,3051.05
-105.50589397,40.28969576,3041.86
-105.50589399,40.28969801,3049.74
-105.50589419,40.28972414,3053.85
-105.50589422,40.28972882,3041.10
-105.50589423,40.28972963,3045.89
-105.50589436,40.28974792,3040.47
-105.50589455,40.28977324,3044.34
-105.50589463,40.28978333,3050.70
-105.50589463,40.28978342,3052.16
-105.50589477,40.28980279,3045.03
-105.50589484,40.28981243,3038.97
-105.50589487,40.28981603,3045.95
-105.50589489,40.28981819,3042.03
-105.50589506,40.28984090,3038.23
-105.50589518,40.28985711,3047.71
-105.50589524,40.28986576,3050.08
-105.50589525,40.28986612,3050.91
-105.50589530,40.28987288,3049.44
-105.50589534,40.28987945,3050.35
-105.50589561,40.28991495,3043.52
-105.50589567,40.28992351,3049.40
-105.50589594,40.28995936,3035.80
-105.50589639,40.29001909,3043.53
-105.50589657,40.29004396,3035.30
-105.50589675,40.29006846,3042.32
-105.50589715,40.29012144,3032.69
-105.50589723,40.29013261,3032.57
-105.50589728,40.29013846,3032.45
-105.50589753,40.29017270,3038.68
-105.50589768,40.29019261,3034.67
-105.50589771,40.29019729,3032.22
-105.50589778,40.29020549,3039.93
-105.50589788,40.29021891,3031.79
-105.50589831,40.29027693,3046.85
-105.50589864,40.29032099,3046.94
-105.50589917,40.29039315,3045.88
-105.50589947,40.29043306,3048.58
-105.50589958,40.29044693,3044.32
-105.50589963,40.29045360,3031.66
-105.50589968,40.29046062,3031.59
-105.50589991,40.29049153,3031.59
-105.50590050,40.29057099,3032.30
-105.50590069,40.29059567,3047.83
-105.50590071,40.29059882,3032.83
-105.50590119,40.29066396,3045.09
-105.50590122,40.29066765,3048.63
-105.50590128,40.29067513,3036.59
-105.50590164,40.29072342,3046.75
-105.50590171,40.29073342,3047.25
-105.50590173,40.29073576,3047.31
-105.50590182,40.29074837,3033.90
-105.50590227,40.29080774,3034.61
-105.50590285,40.29088549,3043.94
-105.50590288,40.29089053,3043.91
-105.50590348,40.29097044,3045.01
-105.50590481,40.29114900,3044.91
-105.50590486,40.29115540,3049.39
-105.50590501,40.29117621,3041.56
-105.50590517,40.29119684,3052.39
-105.50590534,40.29122044,3055.44
-105.50590539,40.29122738,3043.31
-105.50590542,40.29123134,3052.28
-105.50590582,40.29128486,3044.84
-105.50590606,40.29131657,3045.72
-105.50590615,40.29132909,3054.80
-105.50590642,40.29136450,3046.60
-105.50590706,40.29145044,3048.31
-105.50590707,40.29145143,3053.55
-105.50590831,40.29161873,3051.58
-105.50590856,40.29165170,3061.85
-105.50590870,40.29166999,3052.80
-105.50590903,40.29171513,3053.93
-105.50590910,40.29172387,3070.03
-105.50590911,40.29172549,3059.26
-105.50590920,40.29173756,3054.59
-105.50590924,40.29174351,3054.76
-105.50590927,40.29174693,3061.65
-105.50590954,40.29178261,3066.16
-105.50590959,40.29179044,3064.19
-105.50590979,40.29181639,3056.92
-105.50590989,40.29182981,3057.15
-105.50591003,40.29184882,3057.47
-105.50591055,40.29191855,3059.58
-105.50591058,40.29192233,3059.67
-105.50591117,40.29200125,3060.50
-105.50591119,40.29200405,3060.58
-105.50591135,40.29202648,3065.79
-105.50591180,40.29208621,3061.81
-105.50591232,40.29215639,3062.69
-105.50591268,40.29220441,3076.46
-105.50591283,40.29222459,3063.27
-105.50591296,40.29224242,3080.03
-105.50591306,40.29225540,3078.50
-105.50591307,40.29225648,3063.74
-105.50591328,40.29228540,3072.90
-105.50591330,40.29228783,3076.50
-105.50591341,40.29230152,3070.44
-105.50591349,40.29231242,3064.83
-105.50591359,40.29232657,3064.88
-105.50591366,40.29233585,3077.60
-105.50591368,40.29233801,3065.17
-105.50591377,40.29235062,3076.94
-105.50591386,40.29236251,3065.42
-105.50591391,40.29236918,3065.64
-105.50591444,40.29244080,3077.07
-105.50591448,40.29244513,3074.39
-105.50591473,40.29247963,3065.73
-105.50591487,40.29249819,3073.88
-105.50591508,40.29252594,3066.45
-105.50591515,40.29253585,3072.21
-105.50591518,40.29253990,3066.64
-105.50591526,40.29255008,3080.96
-105.50591539,40.29256810,3079.30
-105.50591541,40.29257098,3080.39
-105.50591557,40.29259125,3078.92
-105.50591563,40.29259945,3081.34
-105.50591574,40.29261477,3079.76
-105.50591578,40.29262008,3067.83
-105.50591665,40.29273639,3082.74
-105.50591673,40.29274702,3084.11
-105.50591674,40.29274927,3083.96
-105.50591679,40.29275522,3076.94
-105.50591813,40.29293495,3080.74
-105.50591815,40.29293828,3075.20
-105.50591820,40.29294486,3083.51
-105.50591821,40.29294585,3073.52
-105.50591874,40.29301720,3068.40
-105.50591994,40.29317720,3069.18
-105.50592000,40.29318549,3072.82
-105.50592047,40.29324855,3069.16
-105.50592078,40.29329035,3075.99
-105.50592080,40.29329359,3074.93
-105.50592091,40.29330846,3069.88
-105.50592093,40.29331053,3069.90
-105.50592093,40.29331080,3071.06
-105.50592109,40.29333179,3070.43
-105.50592154,40.29339305,3071.06
-105.50592225,40.29348819,3071.87
-105.50592238,40.29350467,3071.90
-105.50592249,40.29351990,3071.71
-105.50592271,40.29354873,3071.78
-105.50592282,40.29356395,3071.87
-105.50592318,40.29361251,3072.10
-105.50592341,40.29364332,3072.16
-105.50592387,40.29370530,3080.66
-105.50592388,40.29370548,3075.75
-105.50592403,40.29372666,3072.43
-105.50592409,40.29373494,3080.02
-105.50592415,40.29374197,3083.18
-105.50592418,40.29374657,3085.52
-105.50592498,40.29385350,3072.42
-105.50592563,40.29394116,3077.86
-105.50592570,40.29395035,3076.73
-105.50592603,40.29399440,3071.74
-105.50592646,40.29405197,3076.29
-105.50592657,40.29406684,3082.41
-105.50592658,40.29406846,3076.81
-105.50592660,40.29407071,3085.68
-105.50592662,40.29407386,3084.29
-105.50592676,40.29409197,3070.89
-105.50592696,40.29411918,3070.82
-105.50592706,40.29413242,3079.78
-105.50592708,40.29413584,3074.43
-105.50592712,40.29414035,3081.44
-105.50592714,40.29414350,3080.22
-105.50592720,40.29415170,3077.89
-105.50592733,40.29416828,3070.46
-105.50592740,40.29417846,3070.79
-105.50592802,40.29426071,3079.30
-105.50592807,40.29426765,3069.42
-105.50592825,40.29429206,3070.34
-105.50592825,40.29429233,3069.16
-105.50592848,40.29432269,3075.14
-105.50592852,40.29432801,3076.84
-105.50592854,40.29433143,3074.37
-105.50592857,40.29433467,3071.59
-105.50592857,40.29433548,3073.88
-105.50592903,40.29439702,3069.55
-105.50592903,40.29439738,3070.62
-105.50592904,40.29439864,3074.19
-105.50592907,40.29440206,3069.54
-105.50592918,40.29441674,3067.92
-105.50592920,40.29441954,3067.80
-105.50592925,40.29442674,3076.25
-105.50592931,40.29443431,3075.92
-105.50592971,40.29448828,3074.43
-105.50593001,40.29452837,3067.67
-105.50593017,40.29454918,3066.58
-105.50593028,40.29456422,3066.37
-105.50593048,40.29459053,3066.68
-105.50593112,40.29467755,3074.02
-105.50593119,40.29468584,3065.30
-105.50593122,40.29468972,3070.84
-105.50593184,40.29477368,3078.81
-105.50593190,40.29478125,3068.29
-105.50593255,40.29486810,3063.29
-105.50593260,40.29487566,3073.30
-105.50593276,40.29489737,3072.95
-105.50593303,40.29493296,3072.49
-105.50593332,40.29497242,3068.39
-105.50593367,40.29501873,3064.16
-105.50593394,40.29505467,3060.34
-105.50593432,40.29510584,3060.91
-105.50593433,40.29510710,3060.64
-105.50593450,40.29512954,3061.08
-105.50593485,40.29517719,3062.11
-105.50593489,40.29518242,3065.18
-105.50593529,40.29523620,3057.11
-105.50593614,40.29535008,3059.65
-105.50593618,40.29535530,3069.30
-105.50593637,40.29538089,3061.50
-105.50593644,40.29539053,3062.68
-105.50593655,40.29540566,3060.32
-105.50593667,40.29542152,3065.20
-105.50593705,40.29547251,3054.17
-105.50593753,40.29553656,3052.91
-105.50593763,40.29554935,3063.19
-105.50593764,40.29555098,3052.37
-105.50593834,40.29564566,3057.08
-105.50593835,40.29564674,3057.13
-105.50593842,40.29565611,3052.85
-105.50593875,40.29570062,3058.32
-105.50593934,40.29577917,3046.23
-105.50593962,40.29581728,3053.53
-105.50593975,40.29583377,3053.41
-105.50593977,40.29583629,3055.75
-105.50593980,40.29584035,3054.85
-105.50593980,40.29584053,3055.94
-105.50594017,40.29589053,3048.14
-105.50594046,40.29592953,3046.37
-105.50594053,40.29593818,3043.53
-105.50594135,40.29604818,3040.94
-105.50594148,40.29606602,3044.45
-105.50594170,40.29609593,3046.38
-105.50594201,40.29613710,3048.80
-105.50594238,40.29618656,3045.59
-105.50594246,40.29619719,3040.22
-105.50594250,40.29620260,3044.76
-105.50594257,40.29621152,3047.27
-105.50594260,40.29621638,3046.95
-105.50594261,40.29621737,3050.42
-105.50594273,40.29623341,3036.09
-105.50594287,40.29625260,3051.13
-105.50594289,40.29625548,3035.26
-105.50594319,40.29629557,3034.33
-105.50594332,40.29631233,3039.06
-105.50594348,40.29633386,3042.32
-105.50594351,40.29633827,3044.51
-105.50594370,40.29636368,3031.92
-105.50594450,40.29647025,3028.68
-105.50594464,40.29648899,3037.23
-105.50594475,40.29650458,3039.83
-105.50594475,40.29650503,3039.96
-105.50594508,40.29654836,3026.37
-105.50594515,40.29655791,3036.25
-105.50594532,40.29658034,3031.40
-105.50594542,40.29659449,3025.17
-105.50594544,40.29659638,3025.15
-105.50594556,40.29661251,3033.40
-105.50594557,40.29661485,3032.06
-105.50594574,40.29663674,3034.46
-105.50594603,40.29667602,3032.08
-105.50594632,40.29671494,3025.14
-105.50594635,40.29671854,3021.80
-105.50594644,40.29673106,3025.73
-105.50594668,40.29676332,3020.75
-105.50594669,40.29676431,3023.93
-105.50594675,40.29677251,3020.17
-105.50594686,40.29678701,3023.32
-105.50594699,40.29680485,3019.18
-105.50594702,40.29680908,3024.54
-105.50594709,40.29681800,3018.83
-105.50594712,40.29682242,3024.00
-105.50594732,40.29684908,3020.84
-105.50594748,40.29687025,3018.52
-105.50594776,40.29690827,3017.17
-105.50594784,40.29691800,3021.58
-105.50594787,40.29692314,3022.13
-105.50594789,40.29692494,3022.08
-105.50594794,40.29693196,3017.41
-105.50594795,40.29693287,3020.96
-105.50594800,40.29694016,3019.26
-105.50594801,40.29694142,3016.59
-105.50594805,40.29694620,3021.56
-105.50594808,40.29695115,3020.48
-105.50594817,40.29696305,3022.37
-105.50594817,40.29696323,3021.67
-105.50594821,40.29696881,3021.54
-105.50594847,40.29700323,3020.47
-105.50594849,40.29700602,3020.15
-105.50594850,40.29700710,3015.33
-105.50594851,40.29700890,3019.09
-105.50594852,40.29700962,3020.44
-105.50594862,40.29702368,3021.02
-105.50594870,40.29703422,3017.63
-105.50594875,40.29704106,3014.40
-105.50594876,40.29704205,3018.40
-105.50594909,40.29708683,3017.97
-105.50594939,40.29712602,3013.37
-105.50594940,40.29712791,3013.33
-105.50594957,40.29715097,3013.46
-105.50594957,40.29715106,3015.32
-105.50594972,40.29717115,3012.78
-105.50594979,40.29718043,3014.71
-105.50594982,40.29718413,3013.23
-105.50594991,40.29719629,3013.37
-105.50595008,40.29721881,3011.89
-105.50595052,40.29727737,3010.72
-105.50595058,40.29728557,3016.68
-105.50595060,40.29728827,3013.46
-105.50595061,40.29728998,3013.14
-105.50595081,40.29731701,3009.97
-105.50595086,40.29732395,3015.63
-105.50595103,40.29734593,3012.45
-105.50595104,40.29734719,3013.81
-105.50595140,40.29739593,3011.03
-105.50595142,40.29739845,3016.19
-105.50595144,40.29740151,3014.39
-105.50595186,40.29745791,3016.82
-105.50595197,40.29747214,3011.33
-105.50595211,40.29749178,3009.28
-105.50595218,40.29750043,3014.75
-105.50595312,40.29762602,3016.15
-105.50595337,40.29766034,3022.81
-105.50595339,40.29766331,3022.67
-105.50595383,40.29772106,3017.80
-105.50595466,40.29783322,3007.93
-105.50595546,40.29794052,3008.69
-105.50595550,40.29794629,3010.40
-105.50595593,40.29800349,3009.01
-105.50595639,40.29806430,3010.50
-105.50595672,40.29810926,3011.24
-105.50595676,40.29811421,3021.68
-105.50595781,40.29825566,3017.31
-105.50595784,40.29825872,3025.05
-105.50595789,40.29826575,3016.30
-105.50595798,40.29827863,3025.31
-105.50595808,40.29829214,3017.38
-105.50595823,40.29831196,3023.28
-105.50595898,40.29839664,3028.17
-105.50607241,40.29839624,3016.28
-105.50607876,40.29839621,3016.64
-105.50608511,40.29839618,3016.94
-105.50609041,40.29839616,3017.10
-105.50609582,40.29839614,3017.31
-105.50610159,40.29839611,3017.50
-105.50610712,40.29839609,3017.78
-105.50611288,40.29839606,3017.88
-105.50611900,40.29839603,3018.32
-105.50612512,40.29839601,3018.55
-105.50614853,40.29839591,3022.11
-105.50623819,40.29839551,3024.23
-105.50625113,40.29839546,3025.17
-105.50628573,40.29839531,3026.80
-105.50629196,40.29839528,3027.14
-105.50660859,40.29839389,3027.16
-105.50662977,40.29839380,3027.86
-105.50663624,40.29839377,3028.48
-105.50664130,40.29839375,3028.49
-105.50672072,40.29839340,3032.69
-105.50676025,40.29839323,3034.62
-105.50676543,40.29839321,3034.81
-105.50694592,40.29839241,3025.49
-105.50697851,40.29839227,3027.10
-105.50700546,40.29839215,3028.31
-105.50701699,40.29839210,3029.08
-105.50702758,40.29839206,3029.30
-105.50703334,40.29839203,3029.64
-105.50703911,40.29839201,3030.06
-105.50707593,40.29839184,3031.66
-105.50742703,40.29839031,3027.45
-105.50743186,40.29839028,3027.45
-105.50754257,40.29838980,3033.13
-105.50754775,40.29838978,3033.50
-105.50756893,40.29838968,3034.63
-105.50757375,40.29838966,3034.62
-105.50767753,40.29838921,3039.75
-105.50777378,40.29838878,3044.32
-105.50792650,40.29838811,3030.52
-105.50793097,40.29838809,3030.52
-105.50800192,40.29838778,3033.92
-105.50813229,40.29838721,3040.50
-105.50813747,40.29838719,3040.78
-105.50814229,40.29838717,3040.77
-105.50844326,40.29838584,3041.23
-105.50853751,40.29838543,3035.56
-105.50879813,40.29838428,3044.58
-105.50881931,40.29838419,3037.80
-105.50882366,40.29838417,3037.68
-105.50883825,40.29838411,3038.51
-105.50887614,40.29838394,3040.03
-105.50889955,40.29838384,3041.65
-105.50894662,40.29838363,3043.59
-105.50895144,40.29838361,3043.96
-105.50895544,40.29838359,3047.28
-105.50895603,40.29838359,3044.16
-105.50895674,40.29838359,3052.08
-105.50899886,40.29838340,3046.41
-105.50900721,40.29838336,3038.15
-105.50901298,40.29838334,3048.83
-105.50902627,40.29838328,3047.77
-105.50903121,40.29838326,3048.04
-105.50903545,40.29838324,3048.03
-105.50913487,40.29838280,3041.81
-105.50922971,40.29838239,3046.62
-105.50926959,40.29838221,3044.39
-105.50929489,40.29838210,3042.57
-105.50930419,40.29838206,3043.17
-105.50932160,40.29838198,3047.70
-105.50934360,40.29838188,3046.48
-105.50935631,40.29838183,3039.38
-105.50936361,40.29838180,3051.23
-105.50937314,40.29838175,3046.33
-105.50939184,40.29838167,3047.42
-105.50939631,40.29838165,3047.40
-105.50944161,40.29838145,3049.85
-105.50945585,40.29838139,3050.18
-105.50946456,40.29838135,3051.00
-105.50946609,40.29838134,3051.04
-105.50951998,40.29838111,3042.16
-105.50954457,40.29838100,3046.57
-105.50963222,40.29838061,3041.70
-105.50976130,40.29838004,3054.12
-105.50979330,40.29837990,3046.74
-105.50982083,40.29837978,3043.02
-105.50986943,40.29837957,3050.56
-105.50988272,40.29837951,3051.21
-105.50992308,40.29837933,3053.12
-105.50992979,40.29837930,3049.31
-105.50994861,40.29837922,3043.51
-105.51010204,40.29837854,3044.26
-105.51010651,40.29837852,3044.27
-105.51011098,40.29837850,3044.26
-105.51015522,40.29837831,3046.80
-105.51023100,40.29837797,3050.11
-105.51023923,40.29837794,3050.78
-105.51024359,40.29837792,3050.87
-105.51024794,40.29837790,3050.80
-105.51025253,40.29837788,3051.14
-105.51029242,40.29837770,3052.94
-105.51029689,40.29837768,3053.35
-105.51033324,40.29837752,3048.34
-105.51036607,40.29837738,3053.73
-105.51045408,40.29837699,3048.92
-105.51052244,40.29837669,3052.89
-105.51058398,40.29837642,3049.46
-105.51058657,40.29837641,3046.98
-105.51059104,40.29837639,3047.01
-105.51062339,40.29837624,3047.20
-105.51073823,40.29837574,3047.73
-105.51078200,40.29837554,3056.04
-105.51078600,40.29837552,3056.44
-105.51079941,40.29837547,3052.08
-105.51087907,40.29837511,3047.68
-105.51088001,40.29837511,3052.96
-105.51097367,40.29837470,3056.32
-105.51097414,40.29837469,3047.46
-105.51097896,40.29837467,3047.55
-105.51109827,40.29837415,3049.30
-105.51112933,40.29837401,3047.62
-105.51116757,40.29837384,3056.60
-105.51124946,40.29837348,3057.00
-105.51134395,40.29837306,3051.80
-105.51139348,40.29837284,3048.99
-105.51141525,40.29837274,3054.21
-105.51142937,40.29837268,3048.74
-105.51143431,40.29837266,3048.77
-105.51143878,40.29837264,3048.83
-105.51152314,40.29837227,3055.75
-105.51153267,40.29837223,3053.45
-105.51157527,40.29837204,3055.25
-105.51161574,40.29837186,3052.68
     </coordinates>
    </LineString>
   </MultiGeometry>
  </Placemark>
 </Document>
</kml>
