<kml>
 <Document>
  <Style id="yellow">
   <LineStyle>
   <color>ff00ffff</color>
   <width>1</width>
   </LineStyle>
  </Style>
  <Style id="red">
   <LineStyle>
   <color>ffff0000</color>
   <width>2</width>
   </LineStyle>
  </Style>
  <Style id="green">
   <LineStyle>
   <color>ff00ff00</color>
   <width>1</width>
   </LineStyle>
  </Style>
  <Placemark>
  <styleUrl>#yellow</styleUrl>
   <MultiGeometry>
    <LineString>
     <coordinates>
-105.47626941,40.26248551,2582.45
-105.47628976,40.26248543,2576.17
-105.47636702,40.26248511,2584.64
-105.47664185,40.26248398,2590.72
-105.47680108,40.26248332,2607.45
-105.47680296,40.26248331,2603.72
-105.47700758,40.26248247,2608.65
-105.47703028,40.26248238,2607.57
-105.47706050,40.26248225,2611.75
-105.47711189,40.26248204,2611.15
-105.47725066,40.26248147,2620.10
-105.47725889,40.26248143,2617.99
-105.47732686,40.26248115,2619.90
-105.47737449,40.26248096,2627.46
-105.47737566,40.26248095,2626.59
-105.47777080,40.26247932,2632.10
-105.47813570,40.26247781,2639.42
-105.47814794,40.26247776,2639.66
-105.47834809,40.26247694,2641.68
-105.47845969,40.26247647,2642.90
-105.47846569,40.26247645,2641.55
-105.47856071,40.26247606,2644.35
-105.47857329,40.26247600,2641.58
-105.47873087,40.26247535,2641.63
-105.47879120,40.26247510,2646.57
-105.47887164,40.26247477,2640.89
-105.47896654,40.26247438,2644.72
-105.47900617,40.26247421,2642.00
-105.47912189,40.26247373,2650.73
-105.47919127,40.26247345,2645.95
-105.47963615,40.26247160,2643.99
-105.47979961,40.26247093,2647.64
-105.47980525,40.26247090,2644.23
-105.47988734,40.26247056,2652.14
-105.47990404,40.26247049,2649.28
-105.48012148,40.26246959,2649.29
-105.48028611,40.26246891,2655.75
-105.48032410,40.26246875,2650.82
-105.48033621,40.26246870,2651.78
-105.48033986,40.26246869,2649.83
-105.48035420,40.26246863,2648.21
-105.48036937,40.26246856,2650.59
-105.48037373,40.26246855,2646.51
-105.48045416,40.26246821,2647.76
-105.48045898,40.26246819,2655.99
-105.48047286,40.26246813,2653.33
-105.48052625,40.26246791,2650.93
-105.48057729,40.26246770,2655.97
-105.48058987,40.26246765,2653.81
-105.48062762,40.26246749,2658.72
-105.48071394,40.26246713,2651.09
-105.48073393,40.26246705,2661.18
-105.48101981,40.26246586,2659.17
-105.48112048,40.26246544,2664.45
-105.48115905,40.26246528,2658.75
-105.48118857,40.26246516,2659.35
-105.48125842,40.26246487,2659.93
-105.48127865,40.26246478,2662.05
-105.48138696,40.26246433,2662.75
-105.48140060,40.26246428,2661.14
-105.48145857,40.26246404,2662.17
-105.48163368,40.26246331,2664.51
-105.48174081,40.26246286,2665.93
-105.48181596,40.26246255,2673.20
-105.48187511,40.26246230,2668.34
-105.48187758,40.26246229,2668.36
-105.48189404,40.26246222,2668.50
-105.48190274,40.26246219,2671.06
-105.48190674,40.26246217,2668.71
-105.48190792,40.26246217,2675.50
-105.48190933,40.26246216,2674.72
-105.48195613,40.26246197,2669.37
-105.48205268,40.26246156,2671.10
-105.48211066,40.26246132,2672.36
-105.48212465,40.26246126,2675.66
-105.48214053,40.26246120,2672.98
-105.48215240,40.26246106,2673.23
-105.48216311,40.26246092,2673.54
-105.48216768,40.26245991,2673.61
-105.48216862,40.26245937,2673.60
-105.48217012,40.26245477,2673.63
-105.48217018,40.26241359,2676.66
-105.48216963,40.26233648,2672.46
-105.48216914,40.26226693,2682.28
-105.48216747,40.26203287,2670.64
-105.48216492,40.26167233,2659.05
-105.48216462,40.26163125,2659.40
-105.48216429,40.26158431,2656.05
-105.48216360,40.26148710,2657.69
-105.48216355,40.26148007,2659.00
-105.48216326,40.26143854,2653.43
-105.48216304,40.26140791,2655.68
-105.48216294,40.26139368,2653.16
-105.48216282,40.26137737,2653.04
-105.48216261,40.26134773,2652.71
-105.48216230,40.26130413,2652.63
-105.48216225,40.26129647,2655.86
-105.48216205,40.26126845,2654.90
-105.48216193,40.26125232,2652.33
-105.48216181,40.26123530,2653.39
-105.48216152,40.26119431,2652.38
-105.48216130,40.26116259,2652.35
-105.48216125,40.26115548,2660.70
-105.48216118,40.26114611,2660.15
-105.48216117,40.26114530,2660.92
-105.48216099,40.26111962,2654.29
-105.48216048,40.26104809,2660.12
-105.48215988,40.26096250,2658.22
-105.48215985,40.26095935,2656.83
-105.48215980,40.26095115,2657.20
-105.48215964,40.26092971,2661.16
-105.48215964,40.26092953,2655.03
-105.48215947,40.26090593,2654.80
-105.48215857,40.26077854,2656.49
-105.48215855,40.26077592,2657.88
-105.48215850,40.26076872,2654.93
-105.48215812,40.26071457,2655.29
-105.48215803,40.26070241,2659.94
-105.48215626,40.26045277,2658.73
-105.48215609,40.26042871,2665.41
-105.48215525,40.26031151,2657.32
-105.48215513,40.26029358,2657.25
-105.48215435,40.26018430,2656.35
-105.48215425,40.26017042,2656.49
-105.48215380,40.26010610,2656.44
-105.48215354,40.26007042,2653.50
-105.48215345,40.26005736,2652.95
-105.48215342,40.26005295,2657.27
-105.48215336,40.26004430,2652.65
-105.48215302,40.25999646,2651.68
-105.48215283,40.25996952,2651.14
-105.48215249,40.25992186,2653.05
-105.48215219,40.25988006,2650.46
-105.48215205,40.25985979,2648.93
-105.48215204,40.25985835,2651.53
-105.48215201,40.25985484,2651.53
-105.48215192,40.25984168,2648.19
-105.48215137,40.25976366,2646.69
-105.48215066,40.25966493,2644.61
-105.48215000,40.25957060,2643.90
-105.48214976,40.25953799,2642.53
-105.48214941,40.25948790,2644.65
-105.48214934,40.25947763,2641.48
-105.48214925,40.25946591,2641.24
-105.48214902,40.25943267,2640.82
-105.48214896,40.25942537,2648.24
-105.48214865,40.25938150,2643.82
-105.48214857,40.25936997,2640.33
-105.48214822,40.25931988,2640.45
-105.48214794,40.25928042,2640.25
-105.48214762,40.25923582,2640.70
-105.48214758,40.25922988,2640.66
-105.48214727,40.25918627,2641.12
-105.48214718,40.25917384,2647.37
-105.48214715,40.25916979,2647.53
-105.48214695,40.25914168,2644.33
-105.48214684,40.25912600,2646.12
-105.48214662,40.25909483,2645.01
-105.48214651,40.25907997,2642.51
-105.48214647,40.25907438,2642.58
-105.48214626,40.25904483,2642.98
-105.48214611,40.25902285,2643.30
-105.48214524,40.25890077,2645.21
-105.48214485,40.25884636,2646.65
-105.48214482,40.25884113,2646.81
-105.48214449,40.25879474,2649.66
-105.48214366,40.25867870,2649.36
-105.48214279,40.25855528,2649.65
-105.48214175,40.25840915,2650.39
-105.48214140,40.25835924,2654.73
-105.48213953,40.25809644,2648.67
-105.48213942,40.25808104,2648.59
-105.48213838,40.25793491,2647.75
-105.48213834,40.25792906,2647.73
-105.48213830,40.25792347,2647.74
-105.48213794,40.25787167,2647.59
-105.48213790,40.25786644,2647.58
-105.48213767,40.25783455,2647.58
-105.48213758,40.25782122,2652.76
-105.48213725,40.25777473,2648.89
-105.48213697,40.25773626,2650.05
-105.48213687,40.25772149,2646.85
-105.48213641,40.25765662,2651.74
-105.48213635,40.25764815,2647.82
-105.48213616,40.25762104,2646.41
-105.48213611,40.25761464,2648.49
-105.48213579,40.25756914,2653.53
-105.48213547,40.25752446,2654.83
-105.48213523,40.25749049,2655.01
-105.48213517,40.25748221,2653.70
-105.48213488,40.25744148,2648.52
-105.48213462,40.25740446,2648.47
-105.48213456,40.25739545,2651.89
-105.48213404,40.25732329,2652.11
-105.48213331,40.25722058,2652.68
-105.48213331,40.25721932,2652.70
-105.48213321,40.25720554,2653.16
-105.48213298,40.25717355,2654.17
-105.48213263,40.25712373,2658.39
-105.48213232,40.25708058,2655.67
-105.48213200,40.25703544,2657.40
-105.48213131,40.25693851,2658.26
-105.48213109,40.25690788,2658.65
-105.48213053,40.25682860,2659.12
-105.48213053,40.25682815,2662.02
-105.48212989,40.25673778,2665.53
-105.48212972,40.25671418,2661.74
-105.48212968,40.25670914,2668.82
-105.48212966,40.25670625,2660.65
-105.48212951,40.25668463,2667.41
-105.48212942,40.25667130,2664.71
-105.48212884,40.25659058,2667.06
-105.48212876,40.25657950,2663.53
-105.48212764,40.25642157,2657.55
-105.48212638,40.25624427,2655.43
-105.48212497,40.25604427,2654.91
-105.48212485,40.25602742,2652.69
-105.48212469,40.25600562,2652.52
-105.48212447,40.25597445,2652.15
-105.48212413,40.25592634,2652.87
-105.48212388,40.25589111,2655.68
-105.48212384,40.25588607,2658.86
-105.48212383,40.25588381,2658.99
-105.48212379,40.25587877,2659.53
-105.48212371,40.25586769,2658.87
-105.48212368,40.25586291,2657.18
-105.48212365,40.25585958,2655.56
-105.48212358,40.25584913,2653.20
-105.48212355,40.25584516,2651.16
-105.48212354,40.25584345,2651.11
-105.48212353,40.25584183,2653.36
-105.48212348,40.25583480,2650.85
-105.48212347,40.25583354,2650.81
-105.48212318,40.25579336,2650.33
-105.48212316,40.25579039,2650.27
-105.48212313,40.25578525,2650.20
-105.48212311,40.25578336,2650.12
-105.48212306,40.25577525,2650.05
-105.48212302,40.25577003,2657.34
-105.48212299,40.25576625,2656.73
-105.48212294,40.25575922,2655.77
-105.48212292,40.25575607,2649.85
-105.48212288,40.25575102,2657.00
-105.48212274,40.25573048,2653.87
-105.48212247,40.25569246,2649.81
-105.48212246,40.25569147,2652.22
-105.48212225,40.25566237,2651.44
-105.48212215,40.25564769,2657.29
-105.48212201,40.25562742,2650.10
-105.48212199,40.25562534,2655.20
-105.48212188,40.25560922,2648.03
-105.48212181,40.25560021,2647.93
-105.48212105,40.25549255,2647.10
-105.48212053,40.25541877,2648.58
-105.48212035,40.25539354,2647.06
-105.48211978,40.25531435,2646.05
-105.48211956,40.25528255,2648.35
-105.48211941,40.25526210,2645.48
-105.48211834,40.25511047,2646.71
-105.48211816,40.25508480,2644.74
-105.48211804,40.25506894,2648.31
-105.48211762,40.25500957,2642.32
-105.48211663,40.25486957,2639.52
-105.48211648,40.25484912,2640.27
-105.48211622,40.25481209,2642.24
-105.48211592,40.25476993,2637.82
-105.48211561,40.25472678,2637.17
-105.48211522,40.25467119,2636.17
-105.48211472,40.25460065,2635.85
-105.48211462,40.25458606,2637.54
-105.48211458,40.25458110,2634.71
-105.48211448,40.25456633,2634.73
-105.48211445,40.25456218,2635.69
-105.48211437,40.25455101,2634.21
-105.48211424,40.25453344,2634.07
-105.48211405,40.25450641,2635.87
-105.48211377,40.25446723,2633.59
-105.48211377,40.25446696,2638.77
-105.48211351,40.25443029,2637.05
-105.48211350,40.25442948,2635.00
-105.48211349,40.25442786,2639.59
-105.48211347,40.25442488,2636.78
-105.48211315,40.25437975,2634.77
-105.48211312,40.25437488,2632.89
-105.48211311,40.25437326,2634.87
-105.48211254,40.25429308,2635.60
-105.48211254,40.25429290,2643.48
-105.48211212,40.25423371,2642.01
-105.48211201,40.25421939,2631.86
-105.48211199,40.25421533,2637.06
-105.48211136,40.25412749,2639.61
-105.48211094,40.25406875,2641.39
-105.48211092,40.25406578,2631.59
-105.48211081,40.25404992,2631.62
-105.48211072,40.25403758,2639.82
-105.48211067,40.25403028,2636.14
-105.48211002,40.25393884,2641.09
-105.48210988,40.25391866,2640.89
-105.48210953,40.25386920,2630.73
-105.48210881,40.25376848,2629.96
-105.48210877,40.25376226,2630.09
-105.48210852,40.25372749,2640.75
-105.48210852,40.25372686,2629.70
-105.48210851,40.25372506,2636.47
-105.48210758,40.25359470,2639.35
-105.48210750,40.25358397,2638.53
-105.48210747,40.25357839,2635.09
-105.48210730,40.25355470,2634.39
-105.48210723,40.25354533,2634.77
-105.48210673,40.25347514,2630.18
-105.48210653,40.25346370,2630.10
-105.48210627,40.25345947,2630.18
-105.48210495,40.25345587,2630.17
-105.48210306,40.25345507,2630.15
-105.48209234,40.25345232,2630.28
-105.48200662,40.25345250,2638.68
-105.48199475,40.25345255,2639.83
-105.48198487,40.25345259,2630.87
-105.48189527,40.25345296,2636.74
-105.48185753,40.25345312,2633.73
-105.48184706,40.25345316,2637.96
-105.48169291,40.25345380,2632.39
-105.48167739,40.25345387,2632.37
-105.48157968,40.25345428,2634.88
-105.48152206,40.25345452,2631.92
-105.48148479,40.25345467,2631.72
-105.48147233,40.25345472,2642.13
-105.48129736,40.25345545,2631.34
-105.48124845,40.25345565,2638.21
-105.48120671,40.25345583,2631.35
-105.48118096,40.25345593,2631.27
-105.48114168,40.25345610,2630.91
-105.48109112,40.25345631,2630.84
-105.48102422,40.25345659,2630.79
-105.48099658,40.25345670,2630.83
-105.48092251,40.25345701,2630.77
-105.48092204,40.25345701,2630.79
-105.48087289,40.25345721,2635.84
-105.48086513,40.25345725,2636.64
-105.48084690,40.25345732,2637.92
-105.48081433,40.25345746,2630.77
-105.48071168,40.25345788,2630.82
-105.48064007,40.25345818,2631.03
-105.48057916,40.25345843,2633.16
-105.48055424,40.25345854,2631.07
-105.48050144,40.25345876,2635.84
-105.48039997,40.25345918,2630.96
-105.48039221,40.25345921,2630.87
-105.48038997,40.25345922,2630.87
-105.48024535,40.25345982,2635.67
-105.48019279,40.25346004,2630.48
-105.48007650,40.25346052,2630.37
-105.47999243,40.25346087,2630.29
-105.47992340,40.25346116,2634.32
-105.47987449,40.25346136,2629.74
-105.47977619,40.25346177,2628.75
-105.47969118,40.25346212,2627.77
-105.47968330,40.25346215,2627.65
-105.47959605,40.25346251,2626.84
-105.47958077,40.25346258,2626.76
-105.47949834,40.25346292,2625.94
-105.47947365,40.25346302,2625.75
-105.47942027,40.25346324,2630.73
-105.47937264,40.25346344,2633.44
-105.47933808,40.25346358,2619.77
-105.47923296,40.25346402,2630.33
-105.47921332,40.25346410,2624.43
-105.47918851,40.25346420,2628.79
-105.47917734,40.25346425,2630.01
-105.47883117,40.25346568,2626.96
-105.47882600,40.25346570,2630.03
-105.47875145,40.25346601,2628.44
-105.47872206,40.25346613,2628.50
-105.47862282,40.25346654,2633.05
-105.47860824,40.25346660,2640.71
-105.47860718,40.25346661,2631.68
-105.47858425,40.25346670,2633.77
-105.47846608,40.25346719,2636.99
-105.47834168,40.25346770,2636.06
-105.47826313,40.25346803,2635.49
-105.47802432,40.25346902,2637.47
-105.47796329,40.25346927,2634.23
-105.47795871,40.25346929,2634.26
-105.47795012,40.25346932,2635.70
-105.47793237,40.25346940,2637.72
-105.47781373,40.25346989,2631.93
-105.47774518,40.25347017,2630.92
-105.47767416,40.25347046,2629.59
-105.47766957,40.25347048,2629.53
-105.47760196,40.25347076,2628.40
-105.47754305,40.25347100,2635.03
-105.47750684,40.25347115,2629.90
-105.47746956,40.25347131,2634.70
-105.47743876,40.25347143,2634.42
-105.47735468,40.25347178,2624.35
-105.47734833,40.25347181,2623.51
-105.47734340,40.25347183,2620.92
-105.47732940,40.25347188,2627.01
-105.47732270,40.25347191,2623.26
-105.47726015,40.25347217,2624.00
-105.47722828,40.25347230,2619.68
-105.47714492,40.25347265,2615.28
-105.47703192,40.25347311,2619.32
-105.47702768,40.25347313,2619.73
-105.47680581,40.25347404,2601.38
-105.47668775,40.25347453,2606.58
-105.47650362,40.25347529,2592.30
-105.47645729,40.25347548,2598.63
-105.47635382,40.25347590,2584.24
-105.47621083,40.25347649,2587.54
-105.47619226,40.25347657,2578.05
-105.47612077,40.25347686,2575.90
-105.47605704,40.25347713,2574.31
-105.47600271,40.25347735,2573.10
-105.47595803,40.25347753,2576.42
-105.47592852,40.25347765,2572.64
-105.47585644,40.25347795,2570.25
-105.47583163,40.25347805,2573.22
-105.47579388,40.25347821,2568.34
-105.47566454,40.25347874,2570.28
-105.47559846,40.25347901,2566.50
-105.47559540,40.25347902,2571.13
-105.47558000,40.25347909,2564.30
-105.47557659,40.25347910,2564.75
-105.47548264,40.25347949,2566.92
-105.47539539,40.25347985,2560.18
-105.47534589,40.25348005,2569.80
-105.47533049,40.25348011,2568.39
-105.47521102,40.25348060,2557.19
-105.47516964,40.25348077,2554.60
-105.47510896,40.25348102,2553.81
-105.47505946,40.25348122,2561.14
-105.47493459,40.25348174,2550.85
-105.47484722,40.25348210,2549.53
-105.47467014,40.25348282,2548.42
-105.47462852,40.25348299,2548.46
-105.47458678,40.25348316,2553.74
-105.47458348,40.25348318,2550.29
-105.47455867,40.25348328,2547.28
-105.47454292,40.25348334,2546.84
-105.47453363,40.25348338,2553.62
-105.47449424,40.25348354,2550.14
-105.47437242,40.25348404,2542.14
-105.47431974,40.25348426,2540.16
-105.47431810,40.25348427,2552.15
-105.47431093,40.25348430,2551.25
-105.47422062,40.25348467,2538.69
-105.47416018,40.25348491,2547.46
-105.47405295,40.25348535,2534.62
-105.47392772,40.25348587,2531.59
-105.47392196,40.25348589,2531.73
-105.47390903,40.25348594,2534.44
-105.47390174,40.25348597,2534.39
-105.47385799,40.25348615,2534.24
-105.47385459,40.25348616,2534.64
-105.47383601,40.25348624,2537.70
-105.47374312,40.25348662,2540.39
-105.47370373,40.25348678,2537.01
-105.47370255,40.25348679,2538.51
-105.47369891,40.25348680,2538.95
-105.47364258,40.25348703,2532.08
-105.47351336,40.25348756,2537.52
-105.47350960,40.25348758,2536.95
-105.47346891,40.25348774,2531.46
-105.47331464,40.25348837,2532.50
-105.47327948,40.25348852,2538.18
-105.47324444,40.25348866,2544.55
-105.47320941,40.25348880,2544.19
-105.47316755,40.25348898,2544.69
-105.47310793,40.25348922,2534.73
-105.47307407,40.25348936,2538.98
-105.47304796,40.25348946,2535.14
-105.47296272,40.25348981,2534.98
-105.47282444,40.25349038,2542.19
-105.47280257,40.25349047,2541.45
-105.47262913,40.25349118,2526.02
-105.47260115,40.25349129,2529.39
-105.47258057,40.25349137,2535.74
-105.47251813,40.25349163,2526.31
-105.47243183,40.25349198,2524.97
-105.47230625,40.25349249,2530.28
-105.47227791,40.25349261,2515.56
-105.47222030,40.25349284,2522.62
-105.47220372,40.25349291,2520.08
-105.47219701,40.25349294,2513.50
-105.47219290,40.25349296,2512.86
-105.47215457,40.25349311,2515.55
-105.47215045,40.25349313,2511.82
-105.47214198,40.25349316,2514.11
-105.47193915,40.25349399,2511.07
-105.47193339,40.25349402,2511.94
-105.47189094,40.25349419,2505.05
-105.47181875,40.25349448,2509.27
-105.47181428,40.25349450,2508.47
-105.47178394,40.25349462,2510.70
-105.47177865,40.25349465,2511.45
-105.47177442,40.25349466,2516.59
-105.47172774,40.25349485,2500.81
-105.47166013,40.25349513,2514.07
-105.47164719,40.25349518,2511.96
-105.47162532,40.25349527,2503.74
-105.47158546,40.25349543,2500.02
-105.47151350,40.25349573,2495.70
-105.47148164,40.25349586,2498.41
-105.47143143,40.25349606,2494.30
-105.47135159,40.25349639,2494.97
-105.47131561,40.25349653,2495.13
-105.47130467,40.25349658,2504.86
-105.47130338,40.25349658,2507.23
-105.47129727,40.25349661,2506.07
-105.47129527,40.25349662,2499.54
-105.47129374,40.25349662,2496.63
-105.47127528,40.25349670,2498.05
-105.47125494,40.25349678,2495.05
-105.47124083,40.25349684,2502.58
-105.47123765,40.25349685,2504.44
-105.47118697,40.25349706,2496.70
-105.47116463,40.25349715,2495.10
-105.47107421,40.25349752,2507.26
-105.47104670,40.25349763,2504.02
-105.47104576,40.25349763,2493.26
-105.47097403,40.25349792,2500.28
-105.47096721,40.25349795,2501.36
-105.47096345,40.25349797,2497.39
-105.47096333,40.25349797,2493.47
-105.47096215,40.25349797,2493.44
-105.47094217,40.25349805,2496.55
-105.47093723,40.25349807,2496.39
-105.47092594,40.25349812,2493.32
-105.47085833,40.25349839,2496.16
-105.47084504,40.25349845,2493.88
-105.47084387,40.25349845,2493.03
-105.47084140,40.25349846,2493.07
-105.47081494,40.25349857,2497.60
-105.47079048,40.25349867,2492.66
-105.47076320,40.25349878,2501.68
-105.47075897,40.25349880,2492.19
-105.47075768,40.25349880,2496.15
-105.47074886,40.25349884,2492.19
-105.47074086,40.25349887,2495.73
-105.47073381,40.25349890,2496.04
-105.47073016,40.25349892,2491.91
-105.47071735,40.25349897,2491.57
-105.47071346,40.25349898,2491.54
-105.47070277,40.25349903,2491.38
-105.47069677,40.25349905,2492.43
-105.47069606,40.25349905,2491.32
-105.47065938,40.25349920,2490.87
-105.47065714,40.25349921,2493.46
-105.47064539,40.25349926,2491.92
-105.47063610,40.25349930,2490.67
-105.47063175,40.25349932,2490.29
-105.47061258,40.25349939,2495.11
-105.47060576,40.25349942,2492.21
-105.47056966,40.25349957,2496.84
-105.47055085,40.25349965,2495.97
-105.47052545,40.25349975,2500.00
-105.47046160,40.25350001,2488.94
-105.47044690,40.25350007,2490.91
-105.47043009,40.25350014,2486.38
-105.47041927,40.25350018,2486.18
-105.47041092,40.25350021,2494.03
-105.47039481,40.25350028,2493.68
-105.47038576,40.25350032,2493.39
-105.47037400,40.25350036,2497.93
-105.47035178,40.25350054,2485.19
-105.47035108,40.25350181,2485.17
-105.47034911,40.25350542,2485.02
-105.47034862,40.25351948,2484.47
-105.47034896,40.25358542,2488.87
-105.47034900,40.25359137,2490.29
-105.47034904,40.25359732,2481.23
-105.47034906,40.25359984,2490.56
-105.47034907,40.25360209,2493.52
-105.47034911,40.25360732,2492.02
-105.47034969,40.25369137,2485.27
-105.47034999,40.25373516,2477.08
-105.47035014,40.25375606,2476.54
-105.47035028,40.25377579,2479.44
-105.47035044,40.25379993,2481.48
-105.47035053,40.25381236,2481.53
-105.47035079,40.25385074,2484.54
-105.47035082,40.25385489,2480.31
-105.47035087,40.25386200,2480.29
-105.47035093,40.25387083,2472.37
-105.47035103,40.25388417,2471.48
-105.47035123,40.25391354,2470.66
-105.47035133,40.25392840,2470.06
-105.47035140,40.25393849,2469.56
-105.47035283,40.25414408,2466.37
-105.47035304,40.25417552,2466.84
-105.47035315,40.25419039,2462.05
-105.47035336,40.25422183,2471.93
-105.47035469,40.25441381,2457.44
-105.47035508,40.25446904,2455.98
-105.47035516,40.25448174,2459.91
-105.47035560,40.25454489,2456.33
-105.47035585,40.25458147,2459.03
-105.47035635,40.25465390,2457.90
-105.47035689,40.25473111,2447.97
-105.47035695,40.25474021,2447.75
-105.47035707,40.25475751,2455.62
-105.47035722,40.25477814,2452.93
-105.47035738,40.25480210,2446.09
-105.47035745,40.25481165,2444.86
-105.47035745,40.25481273,2446.78
-105.47035748,40.25481571,2449.54
-105.47035778,40.25486021,2443.02
-105.47035782,40.25486607,2451.54
-105.47035796,40.25488625,2447.75
-105.47035804,40.25489661,2448.94
-105.47035811,40.25490778,2452.03
-105.47035817,40.25491607,2452.95
-105.47035916,40.25505841,2439.08
-105.47035918,40.25506256,2445.01
-105.47035955,40.25511562,2455.34
-105.47035960,40.25512301,2456.72
-105.47036003,40.25518499,2448.38
-105.47036010,40.25519427,2449.41
-105.47036026,40.25521778,2451.90
-105.47036037,40.25523382,2446.52
-105.47036054,40.25525805,2438.05
-105.47036058,40.25526454,2437.20
-105.47036062,40.25527040,2436.68
-105.47036063,40.25527157,2441.98
-105.47036063,40.25527175,2442.02
-105.47036076,40.25528950,2413.78
-105.47036085,40.25530310,2443.95
-105.47036094,40.25531607,2439.90
-105.47036120,40.25535418,2457.80
-105.47036129,40.25536643,2453.17
-105.47036133,40.25537292,2455.46
-105.47036134,40.25537427,2453.98
-105.47036143,40.25538742,2442.40
-105.47036150,40.25539670,2458.29
-105.47036156,40.25540634,2459.72
-105.47036159,40.25541031,2455.24
-105.47036173,40.25543058,2450.90
-105.47036177,40.25543625,2451.70
-105.47036223,40.25550265,2449.03
-105.47036238,40.25552463,2446.71
-105.47036242,40.25552923,2450.27
-105.47036265,40.25556373,2442.00
-105.47036301,40.25561454,2451.77
-105.47036305,40.25562040,2453.18
-105.47036313,40.25563265,2456.23
-105.47036323,40.25564707,2457.43
-105.47036330,40.25565635,2458.67
-105.47036330,40.25565671,2454.06
-105.47036342,40.25567490,2455.22
-105.47036354,40.25569193,2447.75
-105.47036389,40.25574166,2444.57
-105.47036395,40.25575067,2444.76
-105.47036409,40.25577139,2444.95
-105.47036443,40.25582076,2445.72
-105.47036531,40.25594734,2447.69
-105.47036613,40.25606617,2461.15
-105.47036633,40.25609410,2450.24
-105.47036634,40.25609599,2454.43
-105.47036677,40.25615815,2452.73
-105.47036686,40.25617068,2452.40
-105.47036694,40.25618221,2453.87
-105.47036710,40.25620563,2452.06
-105.47036725,40.25622680,2452.42
-105.47036760,40.25627797,2455.04
-105.47036780,40.25630689,2453.47
-105.47036783,40.25631059,2460.12
-105.47036787,40.25631662,2460.74
-105.47036793,40.25632500,2465.80
-105.47036879,40.25644933,2456.01
-105.47036898,40.25647699,2462.63
-105.47036899,40.25647807,2460.61
-105.47036902,40.25648239,2460.84
-105.47036903,40.25648428,2465.00
-105.47036904,40.25648545,2463.96
-105.47036906,40.25648825,2464.94
-105.47036910,40.25649392,2461.27
-105.47036924,40.25651419,2461.04
-105.47036926,40.25651708,2458.85
-105.47037055,40.25670347,2465.83
-105.47037060,40.25671077,2464.09
-105.47037063,40.25671483,2463.30
-105.47037078,40.25673690,2463.36
-105.47037126,40.25680708,2464.95
-105.47037127,40.25680744,2468.92
-105.47037149,40.25683906,2469.54
-105.47037149,40.25683960,2470.05
-105.47037154,40.25684681,2468.58
-105.47037158,40.25685320,2462.14
-105.47037167,40.25686528,2462.09
-105.47037173,40.25687492,2462.21
-105.47037205,40.25692122,2462.67
-105.47037238,40.25696780,2473.90
-105.47037268,40.25701167,2466.64
-105.47037274,40.25702041,2467.67
-105.47037316,40.25708068,2475.64
-105.47037340,40.25711483,2463.31
-105.47037364,40.25715033,2463.51
-105.47037371,40.25716042,2462.51
-105.47037400,40.25720141,2462.04
-105.47037406,40.25721015,2464.17
-105.47037454,40.25727961,2461.22
-105.47037506,40.25735564,2460.07
-105.47037519,40.25737438,2465.99
-105.47037548,40.25741636,2467.90
-105.47037548,40.25741645,2468.04
-105.47037576,40.25745573,2458.19
-105.47037587,40.25747177,2458.08
-105.47037641,40.25754988,2464.59
-105.47037642,40.25755105,2469.38
-105.47037642,40.25755204,2456.54
-105.47037663,40.25758186,2464.99
-105.47037674,40.25759808,2463.63
-105.47037701,40.25763664,2466.03
-105.47037734,40.25768438,2455.93
-105.47037774,40.25774195,2452.59
-105.47037802,40.25778222,2462.60
-105.47037812,40.25779646,2451.50
-105.47037821,40.25781087,2468.67
-105.47037822,40.25781132,2451.07
-105.47037855,40.25785988,2450.23
-105.47037874,40.25788673,2450.23
-105.47037883,40.25789943,2452.08
-105.47037915,40.25794520,2448.95
-105.47037969,40.25802439,2449.63
-105.47037993,40.25805862,2465.01
-105.47038027,40.25810727,2461.65
-105.47038066,40.25816439,2456.12
-105.47038072,40.25817214,2455.69
-105.47038073,40.25817358,2451.30
-105.47038073,40.25817367,2445.80
-105.47038112,40.25823006,2448.61
-105.47038117,40.25823817,2449.00
-105.47038140,40.25827070,2444.93
-105.47038162,40.25830295,2458.44
-105.47038168,40.25831187,2455.97
-105.47038221,40.25838817,2445.38
-105.47038272,40.25846106,2446.34
-105.47038327,40.25854142,2446.73
-105.47038333,40.25855007,2454.04
-105.47038354,40.25858043,2451.34
-105.47038357,40.25858385,2450.28
-105.47038358,40.25858511,2448.36
-105.47038407,40.25865683,2449.95
-105.47038419,40.25867430,2450.57
-105.47038472,40.25875052,2453.26
-105.47038478,40.25875818,2453.61
-105.47038522,40.25882277,2455.52
-105.47038554,40.25886872,2456.86
-105.47038594,40.25892611,2461.52
-105.47038625,40.25897142,2462.55
-105.47038626,40.25897296,2464.38
-105.47038731,40.25912413,2463.26
-105.47038842,40.25928422,2467.47
-105.47038842,40.25928494,2467.49
-105.47038847,40.25929197,2469.91
-105.47038948,40.25943746,2474.06
-105.47038996,40.25950647,2472.94
-105.47038999,40.25951170,2473.01
-105.47039077,40.25962413,2475.13
-105.47039092,40.25964593,2477.36
-105.47039191,40.25978810,2476.79
-105.47039241,40.25986080,2477.53
-105.47039280,40.25991657,2478.14
-105.47039373,40.26005044,2479.98
-105.47039386,40.26007071,2480.01
-105.47039408,40.26010125,2479.99
-105.47039432,40.26013666,2480.22
-105.47039456,40.26017071,2480.41
-105.47039539,40.26029108,2481.85
-105.47039547,40.26030189,2481.99
-105.47039579,40.26034864,2482.68
-105.47039588,40.26036225,2482.80
-105.47039666,40.26047369,2484.85
-105.47039704,40.26052847,2485.63
-105.47039818,40.26069342,2489.68
-105.47039849,40.26073919,2489.38
-105.47039900,40.26081171,2490.46
-105.47039908,40.26082369,2490.69
-105.47039924,40.26084730,2492.27
-105.47039990,40.26094207,2493.01
-105.47040112,40.26111883,2495.69
-105.47040139,40.26115757,2496.43
-105.47040178,40.26121370,2497.73
-105.47040239,40.26130235,2499.64
-105.47040254,40.26132361,2499.97
-105.47040286,40.26136982,2503.42
-105.47040286,40.26137009,2503.42
-105.47040296,40.26138388,2506.22
-105.47040314,40.26140946,2501.36
-105.47040320,40.26141883,2501.53
-105.47040386,40.26151451,2502.11
-105.47040397,40.26152893,2505.93
-105.47040427,40.26157280,2502.28
-105.47040449,40.26160514,2503.35
-105.47040628,40.26186307,2509.20
-105.47040644,40.26188613,2506.12
-105.47040665,40.26191641,2505.53
-105.47040695,40.26196028,2505.51
-105.47040703,40.26197190,2510.21
-105.47040724,40.26200118,2508.50
-105.47040729,40.26200839,2509.79
-105.47040732,40.26201352,2505.80
-105.47040733,40.26201515,2505.79
-105.47040734,40.26201587,2505.85
-105.47040735,40.26201713,2505.69
-105.47040781,40.26208470,2506.94
-105.47040860,40.26219767,2509.81
-105.47040931,40.26230037,2506.33
-105.47040935,40.26230605,2506.58
-105.47040942,40.26231686,2514.71
-105.47041030,40.26244398,2506.00
-105.47041037,40.26245326,2505.92
-105.47041049,40.26247092,2506.00
-105.47041082,40.26250191,2507.36
-105.47041096,40.26250524,2507.18
-105.47041652,40.26250936,2509.66
-105.47043686,40.26250937,2511.69
-105.47049378,40.26250914,2512.22
-105.47054306,40.26250894,2516.33
-105.47054317,40.26250894,2516.37
-105.47057892,40.26250879,2513.57
-105.47063349,40.26250857,2520.60
-105.47083987,40.26250773,2524.44
-105.47088080,40.26250756,2521.86
-105.47101674,40.26250701,2524.10
-105.47112917,40.26250655,2528.46
-105.47116398,40.26250641,2523.05
-105.47122854,40.26250615,2528.95
-105.47125935,40.26250602,2522.96
-105.47134931,40.26250565,2522.41
-105.47146821,40.26250517,2535.96
-105.47187216,40.26250352,2527.81
-105.47192084,40.26250333,2529.01
-105.47192320,40.26250332,2534.85
-105.47208983,40.26250264,2522.78
-105.47209948,40.26250260,2522.94
-105.47225729,40.26250195,2524.42
-105.47242675,40.26250126,2528.38
-105.47244804,40.26250117,2530.53
-105.47248520,40.26250102,2530.15
-105.47276955,40.26249977,2528.88
-105.47313152,40.26249838,2526.91
-105.47317798,40.26249819,2530.96
-105.47341270,40.26249723,2512.03
-105.47343669,40.26249713,2512.88
-105.47348832,40.26249692,2514.22
-105.47354488,40.26249669,2526.10
-105.47355100,40.26249667,2526.08
-105.47359063,40.26249650,2521.01
-105.47361227,40.26249641,2511.97
-105.47367001,40.26249618,2521.72
-105.47367342,40.26249617,2512.14
-105.47369353,40.26249608,2529.04
-105.47372399,40.26249596,2513.79
-105.47373151,40.26249593,2517.72
-105.47387981,40.26249532,2518.67
-105.47395566,40.26249501,2522.22
-105.47412959,40.26249430,2528.82
-105.47444534,40.26249300,2544.30
-105.47445181,40.26249298,2541.40
-105.47456341,40.26249252,2551.47
-105.47465572,40.26249214,2552.76
-105.47466407,40.26249211,2553.47
-105.47469888,40.26249196,2554.45
-105.47472593,40.26249185,2542.96
-105.47489903,40.26249114,2542.31
-105.47492455,40.26249104,2542.73
-105.47496948,40.26249085,2541.75
-105.47497406,40.26249083,2539.78
-105.47503098,40.26249060,2538.33
-105.47507402,40.26249042,2537.82
-105.47508061,40.26249040,2537.64
-105.47510613,40.26249029,2545.04
-105.47510707,40.26249029,2545.08
-105.47527394,40.26248960,2546.17
-105.47530616,40.26248947,2541.90
-105.47534379,40.26248932,2530.05
-105.47538977,40.26248913,2538.22
-105.47542717,40.26248897,2536.69
-105.47544740,40.26248889,2535.29
-105.47547444,40.26248878,2546.57
-105.47560980,40.26248822,2545.20
-105.47598823,40.26248667,2558.41
-105.47604586,40.26248643,2561.47
-105.47620497,40.26248577,2569.99
-105.47621567,40.26248573,2570.44
-105.47626941,40.26248551,2582.45
     </coordinates>
    </LineString>
   </MultiGeometry>
  </Placemark>
 </Document>
</kml>
