<kml>
 <Document>
  <Style id="yellow">
   <LineStyle>
   <color>ff00ffff</color>
   <width>1</width>
   </LineStyle>
  </Style>
  <Style id="red">
   <LineStyle>
   <color>ffff0000</color>
   <width>2</width>
   </LineStyle>
  </Style>
  <Style id="green">
   <LineStyle>
   <color>ff00ff00</color>
   <width>1</width>
   </LineStyle>
  </Style>
  <Placemark>
  <styleUrl>#yellow</styleUrl>
   <MultiGeometry>
    <LineString>
     <coordinates>
-105.50996789,40.28036055,3236.62
-105.51003223,40.28036027,3238.40
-105.51009375,40.28035999,3240.98
-105.51021480,40.28035946,3245.08
-105.51044982,40.28035842,3260.24
-105.51056909,40.28035790,3272.36
-105.51065285,40.28035753,3270.28
-105.51068167,40.28035740,3267.31
-105.51068402,40.28035739,3266.01
-105.51068531,40.28035739,3265.29
-105.51080882,40.28035684,3265.39
-105.51083047,40.28035674,3277.86
-105.51093139,40.28035630,3270.94
-105.51093457,40.28035628,3269.48
-105.51100115,40.28035599,3272.03
-105.51105196,40.28035577,3274.18
-105.51105773,40.28035574,3274.42
-105.51111736,40.28035548,3276.68
-105.51115771,40.28035530,3278.67
-105.51118794,40.28035517,3278.98
-105.51120935,40.28035507,3289.03
-105.51121241,40.28035506,3288.46
-105.51121488,40.28035505,3287.56
-105.51124170,40.28035493,3280.54
-105.51127369,40.28035479,3281.68
-105.51131110,40.28035462,3284.10
-105.51137050,40.28035436,3290.14
-105.51137427,40.28035434,3288.80
-105.51137709,40.28035433,3286.50
-105.51143379,40.28035408,3288.41
-105.51157294,40.28035346,3307.73
-105.51158329,40.28035342,3304.71
-105.51159553,40.28035336,3301.77
-105.51160929,40.28035330,3297.96
-105.51162082,40.28035325,3294.95
-105.51162905,40.28035322,3292.72
-105.51166987,40.28035304,3303.84
-105.51167575,40.28035301,3302.26
-105.51171033,40.28035286,3300.30
-105.51171739,40.28035283,3297.21
-105.51174597,40.28035270,3300.38
-105.51175774,40.28035265,3297.26
-105.51180749,40.28035243,3303.99
-105.51181949,40.28035237,3301.04
-105.51188078,40.28035210,3305.33
-105.51193383,40.28035187,3307.71
-105.51194665,40.28035181,3308.04
-105.51200523,40.28035155,3310.40
-105.51202558,40.28035146,3314.56
-105.51231706,40.28035017,3328.16
-105.51233330,40.28035010,3323.92
-105.51244622,40.28034960,3334.31
-105.51258079,40.28034900,3337.10
-105.51263301,40.28034877,3346.47
-105.51269595,40.28034849,3344.76
-105.51276017,40.28034821,3346.16
-105.51278758,40.28034809,3354.47
-105.51281710,40.28034796,3348.81
-105.51285075,40.28034781,3359.08
-105.51293509,40.28034743,3356.38
-105.51297614,40.28034725,3360.71
-105.51316376,40.28034642,3367.73
-105.51320363,40.28034624,3374.63
-105.51328221,40.28034590,3371.45
-105.51332938,40.28034569,3372.89
-105.51351523,40.28034486,3378.72
-105.51354511,40.28034473,3387.90
-105.51366733,40.28034419,3386.55
-105.51384118,40.28034341,3390.56
-105.51384895,40.28034338,3390.63
-105.51389117,40.28034319,3394.12
-105.51389694,40.28034317,3392.60
-105.51406962,40.28034240,3398.15
-105.51412055,40.28034217,3399.68
-105.51421748,40.28034174,3406.99
-105.51431640,40.28034130,3401.19
-105.51436275,40.28034110,3401.48
-105.51436957,40.28034107,3405.11
-105.51453719,40.28034032,3407.65
-105.51453966,40.28034031,3409.11
-105.51454096,40.28034030,3409.87
-105.51465376,40.28033980,3400.05
-105.51473175,40.28033945,3398.23
-105.51487291,40.28033883,3396.23
-105.51502677,40.28033814,3393.59
-105.51538989,40.28033653,3386.42
-105.51539071,40.28033652,3387.82
-105.51554904,40.28033582,3382.27
-105.51593839,40.28033408,3382.01
-105.51594545,40.28033405,3385.35
-105.51604437,40.28033361,3382.07
-105.51608672,40.28033342,3380.93
-105.51626234,40.28033264,3369.16
-105.51631645,40.28033239,3365.66
-105.51649783,40.28033159,3359.96
-105.51669616,40.28033070,3365.71
-105.51671921,40.28033060,3367.09
-105.51675956,40.28033042,3348.86
-105.51707821,40.28032899,3331.72
-105.51714373,40.28032870,3325.88
-105.51723595,40.28032829,3316.09
-105.51726866,40.28032814,3312.62
-105.51751991,40.28032702,3292.39
-105.51754402,40.28032664,3291.38
-105.51754826,40.28032653,3291.15
-105.51757178,40.28032570,3289.65
-105.51757954,40.28032540,3289.09
-105.51758365,40.28032520,3288.81
-105.51758537,40.28031880,3288.84
-105.51758650,40.28031240,3289.01
-105.51758683,40.28029483,3289.55
-105.51758663,40.28025284,3290.24
-105.51758584,40.28013401,3296.94
-105.51758500,40.28002374,3302.03
-105.51758462,40.27997383,3304.44
-105.51758347,40.27982239,3316.32
-105.51758345,40.27982014,3315.75
-105.51758308,40.27977194,3319.55
-105.51758297,40.27975699,3321.94
-105.51758222,40.27965897,3329.56
-105.51758141,40.27955257,3323.59
-105.51757887,40.27921996,3326.99
-105.51757757,40.27904960,3314.09
-105.51757736,40.27902185,3307.42
-105.51757731,40.27901546,3309.29
-105.51757684,40.27895321,3298.91
-105.51757648,40.27890672,3295.80
-105.51757627,40.27887852,3296.22
-105.51757623,40.27887357,3299.42
-105.51757586,40.27882465,3308.76
-105.51757584,40.27882239,3310.31
-105.51757572,40.27880690,3301.07
-105.51757559,40.27878960,3292.70
-105.51757518,40.27873555,3290.49
-105.51757335,40.27849591,3286.73
-105.51757331,40.27849041,3286.90
-105.51757325,40.27848321,3286.52
-105.51757309,40.27846149,3286.64
-105.51757279,40.27842222,3285.80
-105.51757263,40.27840185,3285.48
-105.51757243,40.27837483,3285.41
-105.51757182,40.27829501,3284.90
-105.51757089,40.27817375,3288.35
-105.51757075,40.27815501,3287.55
-105.51757050,40.27812185,3281.52
-105.51757029,40.27809429,3285.75
-105.51757028,40.27809330,3281.21
-105.51757018,40.27808059,3284.69
-105.51757014,40.27807447,3286.30
-105.51756991,40.27804483,3281.06
-105.51756931,40.27796636,3279.92
-105.51756808,40.27780474,3275.66
-105.51756756,40.27773699,3273.25
-105.51756738,40.27771249,3278.27
-105.51756679,40.27763591,3270.21
-105.51756662,40.27761339,3269.44
-105.51756653,40.27760068,3276.31
-105.51756625,40.27756519,3267.77
-105.51756625,40.27756429,3267.62
-105.51756620,40.27755744,3273.30
-105.51756572,40.27749537,3265.05
-105.51756564,40.27748438,3264.60
-105.51756549,40.27746492,3263.96
-105.51756548,40.27746303,3264.08
-105.51756469,40.27736023,3264.75
-105.51756458,40.27734582,3258.44
-105.51756455,40.27734186,3258.30
-105.51756450,40.27733474,3257.40
-105.51756439,40.27732005,3259.03
-105.51756435,40.27731528,3256.51
-105.51756427,40.27730528,3255.73
-105.51756411,40.27728429,3255.17
-105.51756403,40.27727303,3257.61
-105.51756399,40.27726807,3256.54
-105.51756398,40.27726699,3252.30
-105.51756393,40.27726023,3258.60
-105.51756393,40.27725996,3251.92
-105.51756376,40.27723807,3250.61
-105.51756360,40.27721690,3248.54
-105.51756358,40.27721429,3248.42
-105.51756337,40.27718717,3246.79
-105.51756333,40.27718159,3249.36
-105.51756316,40.27715969,3245.37
-105.51756167,40.27696348,3235.87
-105.51756135,40.27692240,3232.10
-105.51756103,40.27687996,3229.56
-105.51756012,40.27676014,3223.37
-105.51755979,40.27671681,3225.43
-105.51755963,40.27669600,3223.23
-105.51755915,40.27663339,3217.70
-105.51755914,40.27663231,3216.27
-105.51755911,40.27662807,3217.71
-105.51755910,40.27662699,3217.76
-105.51755905,40.27661987,3220.87
-105.51755898,40.27661150,3216.43
-105.51755696,40.27634609,3203.54
-105.51755563,40.27617204,3188.78
-105.51755553,40.27615924,3184.93
-105.51755529,40.27612726,3185.84
-105.51755469,40.27604843,3187.78
-105.51755435,40.27600366,3182.65
-105.51755426,40.27599222,3183.06
-105.51755423,40.27598807,3181.31
-105.51755399,40.27595708,3171.49
-105.51755310,40.27583951,3164.86
-105.51755245,40.27575447,3159.77
-105.51755160,40.27564375,3157.70
-105.51755128,40.27560132,3151.04
-105.51755024,40.27546537,3144.44
-105.51755008,40.27544348,3144.86
-105.51754873,40.27526735,3134.83
-105.51754862,40.27525213,3133.12
-105.51754786,40.27515276,3124.96
-105.51754756,40.27511312,3120.59
-105.51754713,40.27505726,3117.19
-105.51754696,40.27503510,3121.74
-105.51754659,40.27498654,3112.64
-105.51754604,40.27491447,3114.02
-105.51754560,40.27485645,3113.23
-105.51754511,40.27479186,3103.18
-105.51754363,40.27459798,3094.94
-105.51754332,40.27455771,3084.92
-105.51754332,40.27455654,3084.91
-105.51754315,40.27453510,3083.87
-105.51754277,40.27448483,3079.58
-105.51754266,40.27447069,3078.64
-105.51754142,40.27430744,3064.90
-105.51753862,40.27394123,3034.12
-105.51753789,40.27384447,3030.14
-105.51753715,40.27374789,3040.29
-105.51753670,40.27368834,3024.49
-105.51753641,40.27365024,3019.42
-105.51753623,40.27362717,3020.38
-105.51753599,40.27359600,3020.32
-105.51753561,40.27354627,3009.53
-105.51753556,40.27353888,3008.17
-105.51753487,40.27344825,3023.38
-105.51753426,40.27336879,3014.10
-105.51753180,40.27304546,3018.93
-105.51753142,40.27299672,3018.26
-105.51753036,40.27285654,3006.30
-105.51753033,40.27285312,3011.00
-105.51752899,40.27267744,3009.86
-105.51752794,40.27253933,3005.44
-105.51752786,40.27252915,3006.10
-105.51752707,40.27242537,3004.56
-105.51752410,40.27203654,3010.00
-105.51752406,40.27203051,3008.17
-105.51752388,40.27200663,3007.47
-105.51752388,40.27200645,3008.33
-105.51752387,40.27200528,3003.85
-105.51752311,40.27190564,3006.09
-105.51752296,40.27188672,3011.65
-105.51752272,40.27185492,3009.77
-105.51752231,40.27180141,3007.64
-105.51752139,40.27167979,3015.98
-105.51751918,40.27139033,3009.03
-105.51751901,40.27138411,3009.22
-105.51751772,40.27133808,3009.48
-105.51751623,40.27132808,3009.64
-105.51751302,40.27132341,3009.82
-105.51750522,40.27131822,3010.48
-105.51732668,40.27131866,3019.71
-105.51680659,40.27132099,3046.67
-105.51677849,40.27132111,3047.61
-105.51672168,40.27132136,3050.54
-105.51661559,40.27132184,3055.86
-105.51653503,40.27132220,3067.40
-105.51646857,40.27132249,3061.63
-105.51641741,40.27132272,3063.72
-105.51637672,40.27132290,3072.63
-105.51637566,40.27132291,3067.78
-105.51631450,40.27132318,3078.87
-105.51630250,40.27132324,3075.18
-105.51615878,40.27132388,3079.83
-105.51615055,40.27132391,3077.45
-105.51605187,40.27132435,3083.72
-105.51590709,40.27132500,3094.25
-105.51582405,40.27132537,3094.02
-105.51566304,40.27132609,3097.84
-105.51565657,40.27132612,3101.86
-105.51558447,40.27132644,3101.54
-105.51557377,40.27132648,3108.76
-105.51551226,40.27132676,3111.55
-105.51550485,40.27132679,3107.31
-105.51544769,40.27132705,3110.63
-105.51540241,40.27132725,3109.70
-105.51529879,40.27132771,3116.80
-105.51514436,40.27132840,3120.58
-105.51512025,40.27132850,3127.75
-105.51504051,40.27132886,3123.56
-105.51500582,40.27132901,3128.11
-105.51499500,40.27132906,3125.34
-105.51498312,40.27132912,3126.59
-105.51491749,40.27132941,3131.74
-105.51490596,40.27132946,3133.22
-105.51481775,40.27132985,3137.22
-105.51480199,40.27132992,3133.58
-105.51479635,40.27132995,3136.23
-105.51461769,40.27133074,3143.21
-105.51461240,40.27133076,3145.95
-105.51444151,40.27133152,3146.94
-105.51415947,40.27133278,3164.34
-105.51415335,40.27133280,3163.00
-105.51400940,40.27133344,3168.97
-105.51400128,40.27133348,3167.31
-105.51394483,40.27133373,3168.50
-105.51391448,40.27133387,3173.41
-105.51376205,40.27133454,3179.08
-105.51371383,40.27133476,3183.62
-105.51369454,40.27133484,3177.74
-105.51364844,40.27133505,3178.60
-105.51346320,40.27133587,3193.87
-105.51343238,40.27133601,3190.03
-105.51339792,40.27133616,3193.25
-105.51336582,40.27133630,3186.93
-105.51335641,40.27133634,3192.23
-105.51305473,40.27133768,3215.11
-105.51301333,40.27133786,3220.00
-105.51300027,40.27133792,3222.27
-105.51291183,40.27133831,3226.05
-105.51271071,40.27133921,3215.01
-105.51270718,40.27133922,3214.80
-105.51270600,40.27133923,3214.11
-105.51270412,40.27133924,3213.58
-105.51270048,40.27133925,3212.41
-105.51269706,40.27133927,3212.19
-105.51265355,40.27133946,3215.53
-105.51263144,40.27133956,3211.39
-105.51259721,40.27133971,3218.32
-105.51256287,40.27133986,3211.90
-105.51255193,40.27133991,3208.88
-105.51247913,40.27134023,3207.95
-105.51239080,40.27134062,3209.65
-105.51232799,40.27134090,3203.05
-105.51232117,40.27134093,3201.49
-105.51231706,40.27134095,3201.42
-105.51225060,40.27134124,3199.81
-105.51223061,40.27134133,3201.93
-105.51212535,40.27134180,3196.12
-105.51201502,40.27134229,3194.12
-105.51194810,40.27134258,3194.95
-105.51194457,40.27134260,3194.76
-105.51192834,40.27134267,3193.26
-105.51153104,40.27134443,3172.04
-105.51152728,40.27134444,3171.93
-105.51146859,40.27134470,3172.05
-105.51146624,40.27134471,3173.79
-105.51140520,40.27134498,3168.17
-105.51117468,40.27134600,3163.63
-105.51113116,40.27134619,3161.83
-105.51112834,40.27134621,3161.30
-105.51111799,40.27134625,3158.15
-105.51111422,40.27134627,3158.02
-105.51093780,40.27134705,3154.40
-105.51093439,40.27134706,3157.53
-105.51085147,40.27134743,3159.45
-105.51080372,40.27134764,3148.96
-105.51080161,40.27134765,3150.39
-105.51077620,40.27134776,3148.28
-105.51048311,40.27134905,3141.99
-105.51039854,40.27134943,3144.14
-105.51038537,40.27134949,3141.31
-105.51038220,40.27134950,3140.42
-105.51015156,40.27135052,3138.58
-105.51015003,40.27135052,3139.77
-105.51014909,40.27135053,3141.24
-105.51014638,40.27135054,3143.89
-105.51007981,40.27135083,3136.07
-105.51006264,40.27135091,3135.78
-105.51000078,40.27135118,3134.97
-105.50975908,40.27135225,3135.98
-105.50975896,40.27135225,3136.54
-105.50975543,40.27135226,3134.98
-105.50975508,40.27135226,3135.79
-105.50975167,40.27135228,3134.28
-105.50975155,40.27135228,3134.88
-105.50967346,40.27135262,3132.01
-105.50966769,40.27135265,3139.64
-105.50944164,40.27135364,3128.82
-105.50937895,40.27135392,3128.00
-105.50937507,40.27135394,3127.99
-105.50926993,40.27135440,3127.18
-105.50918195,40.27135479,3126.38
-105.50912326,40.27135505,3129.21
-105.50911962,40.27135506,3132.33
-105.50906481,40.27135530,3125.44
-105.50887145,40.27135615,3128.07
-105.50884840,40.27135626,3126.23
-105.50884558,40.27135627,3128.14
-105.50879336,40.27135650,3123.59
-105.50864116,40.27135717,3122.69
-105.50863034,40.27135721,3131.25
-105.50843863,40.27135806,3123.49
-105.50843475,40.27135807,3123.56
-105.50843287,40.27135808,3123.52
-105.50833419,40.27135852,3127.17
-105.50828820,40.27135872,3128.12
-105.50828538,40.27135873,3130.58
-105.50824504,40.27135891,3124.00
-105.50819306,40.27135914,3127.35
-105.50814389,40.27135935,3128.00
-105.50813554,40.27135939,3125.41
-105.50812884,40.27135942,3123.82
-105.50812484,40.27135943,3123.78
-105.50806309,40.27135971,3129.57
-105.50802346,40.27135988,3123.57
-105.50794171,40.27136024,3125.22
-105.50793972,40.27136025,3126.17
-105.50786797,40.27136056,3125.48
-105.50786585,40.27136057,3126.53
-105.50783598,40.27136070,3127.71
-105.50783433,40.27136071,3126.83
-105.50778458,40.27136093,3125.17
-105.50778294,40.27136094,3126.03
-105.50773977,40.27136112,3128.82
-105.50766074,40.27136147,3128.49
-105.50758064,40.27136182,3133.64
-105.50754218,40.27136199,3137.27
-105.50745291,40.27136238,3130.91
-105.50735365,40.27136282,3128.20
-105.50729237,40.27136309,3129.99
-105.50727144,40.27136318,3131.18
-105.50726450,40.27136321,3130.06
-105.50725073,40.27136327,3126.38
-105.50723427,40.27136334,3126.09
-105.50699916,40.27136437,3126.67
-105.50698563,40.27136443,3121.46
-105.50692059,40.27136472,3124.97
-105.50691401,40.27136475,3124.91
-105.50689884,40.27136481,3120.47
-105.50688202,40.27136489,3123.16
-105.50685073,40.27136502,3125.64
-105.50665937,40.27136586,3115.38
-105.50664949,40.27136590,3120.52
-105.50657893,40.27136621,3119.00
-105.50657069,40.27136625,3117.74
-105.50656775,40.27136626,3121.73
-105.50654858,40.27136635,3112.80
-105.50651212,40.27136651,3111.80
-105.50650330,40.27136654,3116.51
-105.50647402,40.27136667,3114.55
-105.50644332,40.27136681,3116.18
-105.50640298,40.27136698,3115.14
-105.50625772,40.27136762,3105.35
-105.50624702,40.27136767,3110.48
-105.50624526,40.27136767,3109.15
-105.50623973,40.27136770,3107.59
-105.50619292,40.27136790,3102.70
-105.50614917,40.27136809,3101.28
-105.50613399,40.27136816,3104.44
-105.50612059,40.27136822,3103.91
-105.50608954,40.27136835,3099.17
-105.50603943,40.27136857,3097.95
-105.50602967,40.27136862,3097.51
-105.50594099,40.27136900,3103.35
-105.50588548,40.27136925,3095.59
-105.50586090,40.27136935,3095.12
-105.50584408,40.27136943,3101.22
-105.50577833,40.27136981,3092.93
-105.50576011,40.27137079,3092.60
-105.50575811,40.27137124,3095.69
-105.50575790,40.27137431,3096.88
-105.50575773,40.27138341,3092.48
-105.50575792,40.27144026,3094.96
-105.50575798,40.27144891,3094.44
-105.50575811,40.27146602,3093.09
-105.50575830,40.27149170,3099.25
-105.50575867,40.27154071,3090.29
-105.50575873,40.27154936,3098.57
-105.50575914,40.27160368,3100.66
-105.50575919,40.27161062,3092.71
-105.50575923,40.27161593,3090.61
-105.50575958,40.27166314,3088.09
-105.50575963,40.27167026,3092.94
-105.50575974,40.27168476,3096.59
-105.50575989,40.27170512,3093.59
-105.50576023,40.27175080,3091.10
-105.50576096,40.27184891,3085.00
-105.50576102,40.27185620,3084.98
-105.50576112,40.27186999,3097.49
-105.50576126,40.27188855,3088.74
-105.50576163,40.27193846,3089.83
-105.50576205,40.27199413,3083.96
-105.50576264,40.27207404,3090.46
-105.50576278,40.27209323,3093.77
-105.50576284,40.27210062,3086.31
-105.50576346,40.27218404,3081.42
-105.50576347,40.27218548,3080.33
-105.50576356,40.27219665,3079.13
-105.50576393,40.27224684,3080.84
-105.50576417,40.27227873,3089.53
-105.50576441,40.27231197,3078.89
-105.50576441,40.27231206,3079.25
-105.50576444,40.27231557,3079.05
-105.50576452,40.27232602,3078.21
-105.50576460,40.27233657,3078.20
-105.50576513,40.27240828,3081.55
-105.50576515,40.27241062,3077.90
-105.50576535,40.27243720,3077.66
-105.50576544,40.27244945,3085.26
-105.50576545,40.27245089,3081.09
-105.50576607,40.27253395,3076.98
-105.50576648,40.27258972,3076.50
-105.50576651,40.27259332,3078.98
-105.50576652,40.27259521,3076.62
-105.50576653,40.27259557,3076.56
-105.50576654,40.27259729,3078.71
-105.50576655,40.27259810,3076.44
-105.50576655,40.27259837,3082.66
-105.50576657,40.27260125,3081.52
-105.50576681,40.27263377,3076.72
-105.50576698,40.27265575,3077.59
-105.50576707,40.27266900,3079.82
-105.50576709,40.27267152,3078.19
-105.50576713,40.27267657,3075.80
-105.50576731,40.27270134,3075.30
-105.50576746,40.27272125,3075.37
-105.50576786,40.27277449,3074.99
-105.50576787,40.27277539,3075.01
-105.50576800,40.27279368,3075.06
-105.50576806,40.27280152,3074.93
-105.50576807,40.27280233,3074.92
-105.50576903,40.27293161,3083.19
-105.50576906,40.27293576,3074.47
-105.50576939,40.27298026,3073.79
-105.50577006,40.27307017,3081.42
-105.50577007,40.27307170,3077.51
-105.50577022,40.27309107,3081.83
-105.50577042,40.27311864,3082.55
-105.50577161,40.27327846,3071.12
-105.50577166,40.27328431,3078.75
-105.50577191,40.27331801,3069.85
-105.50577194,40.27332224,3069.73
-105.50577198,40.27332783,3073.71
-105.50577198,40.27332792,3077.18
-105.50577200,40.27332972,3079.13
-105.50577213,40.27334828,3069.77
-105.50577215,40.27335017,3078.77
-105.50577218,40.27335404,3081.04
-105.50577218,40.27335422,3077.26
-105.50577220,40.27335720,3075.52
-105.50577226,40.27336567,3077.23
-105.50577227,40.27336702,3071.19
-105.50577252,40.27339972,3069.72
-105.50577253,40.27340170,3069.75
-105.50577277,40.27343341,3069.75
-105.50577292,40.27345368,3069.70
-105.50577344,40.27352422,3070.41
-105.50577353,40.27353513,3077.04
-105.50577355,40.27353855,3076.65
-105.50577364,40.27355071,3068.74
-105.50577371,40.27356035,3068.53
-105.50577373,40.27356287,3076.25
-105.50577385,40.27357891,3082.75
-105.50577392,40.27358738,3080.70
-105.50577406,40.27360684,3067.91
-105.50577479,40.27370495,3067.31
-105.50577492,40.27372269,3067.39
-105.50577548,40.27379693,3067.02
-105.50577556,40.27380801,3071.40
-105.50577572,40.27382963,3066.93
-105.50577637,40.27391729,3066.74
-105.50577657,40.27394378,3066.71
-105.50577692,40.27399080,3068.62
-105.50577708,40.27401260,3081.82
-105.50577709,40.27401378,3076.49
-105.50577754,40.27407432,3070.58
-105.50577755,40.27407549,3072.76
-105.50577819,40.27416062,3077.92
-105.50577823,40.27416711,3082.96
-105.50577830,40.27417621,3081.21
-105.50577848,40.27420017,3068.40
-105.50577873,40.27423296,3073.90
-105.50577975,40.27437035,3075.45
-105.50577978,40.27437405,3073.13
-105.50578023,40.27443441,3072.97
-105.50578040,40.27445837,3081.76
-105.50578041,40.27445891,3079.22
-105.50578042,40.27446071,3076.76
-105.50578044,40.27446287,3070.63
-105.50578046,40.27446540,3076.20
-105.50578052,40.27447396,3070.85
-105.50578096,40.27453224,3076.94
-105.50578108,40.27454936,3074.99
-105.50578310,40.27481972,3084.97
-105.50578319,40.27483216,3084.66
-105.50578322,40.27483558,3073.38
-105.50578323,40.27483792,3080.74
-105.50578324,40.27483882,3086.75
-105.50578372,40.27490324,3074.84
-105.50578376,40.27490810,3082.70
-105.50578390,40.27492774,3080.53
-105.50578397,40.27493648,3081.68
-105.50578442,40.27499756,3074.47
-105.50578489,40.27506035,3076.62
-105.50578489,40.27506044,3077.63
-105.50578620,40.27523684,3079.38
-105.50578623,40.27524035,3078.71
-105.50578626,40.27524405,3085.29
-105.50578674,40.27530828,3081.18
-105.50578737,40.27539369,3081.21
-105.50578796,40.27547234,3082.32
-105.50578809,40.27549035,3086.94
-105.50578846,40.27554008,3083.16
-105.50578850,40.27554522,3083.24
-105.50578919,40.27563711,3091.26
-105.50578927,40.27564792,3084.36
-105.50578976,40.27571324,3099.99
-105.50578982,40.27572261,3101.03
-105.50579009,40.27575819,3093.08
-105.50579079,40.27585189,3095.15
-105.50579091,40.27586801,3093.15
-105.50579092,40.27586918,3094.25
-105.50579092,40.27586945,3092.90
-105.50579092,40.27586990,3087.15
-105.50579098,40.27587720,3087.02
-105.50579107,40.27589026,3099.80
-105.50579140,40.27593414,3087.73
-105.50579166,40.27596837,3088.25
-105.50579211,40.27602900,3098.52
-105.50579230,40.27605495,3089.42
-105.50579246,40.27607666,3090.00
-105.50579248,40.27607954,3089.51
-105.50579268,40.27610576,3090.00
-105.50579365,40.27623657,3092.69
-105.50579369,40.27624207,3092.58
-105.50579374,40.27624873,3099.46
-105.50579408,40.27629351,3091.33
-105.50579418,40.27630738,3100.11
-105.50579442,40.27633891,3091.26
-105.50579451,40.27635153,3091.21
-105.50579462,40.27636585,3092.07
-105.50579502,40.27642054,3094.27
-105.50579528,40.27645468,3090.96
-105.50579592,40.27654054,3096.57
-105.50579601,40.27655207,3091.54
-105.50579631,40.27659234,3089.95
-105.50579640,40.27660576,3096.01
-105.50579672,40.27664801,3089.39
-105.50579776,40.27678774,3090.05
-105.50579778,40.27679081,3097.04
-105.50579792,40.27680855,3094.66
-105.50579805,40.27682693,3094.14
-105.50579825,40.27685342,3088.72
-105.50579879,40.27692558,3084.26
-105.50579888,40.27693837,3091.32
-105.50579893,40.27694504,3091.60
-105.50579900,40.27695432,3087.21
-105.50579903,40.27695846,3083.63
-105.50579964,40.27704036,3087.43
-105.50579967,40.27704351,3087.43
-105.50579984,40.27706729,3087.91
-105.50579999,40.27708666,3087.53
-105.50580037,40.27713819,3080.99
-105.50580050,40.27715549,3077.17
-105.50580077,40.27719135,3082.25
-105.50580151,40.27729135,3078.59
-105.50580152,40.27729252,3080.31
-105.50580153,40.27729414,3078.77
-105.50580163,40.27730729,3068.67
-105.50580222,40.27738657,3077.13
-105.50580258,40.27743396,3067.18
-105.50580287,40.27747333,3061.76
-105.50580318,40.27751549,3060.91
-105.50580354,40.27756360,3073.78
-105.50580380,40.27759792,3056.31
-105.50580390,40.27761198,3070.57
-105.50580456,40.27770054,3054.83
-105.50580466,40.27771315,3050.14
-105.50580476,40.27772684,3049.50
-105.50580480,40.27773216,3051.59
-105.50580560,40.27783982,3066.09
-105.50580565,40.27784585,3048.51
-105.50580573,40.27785684,3045.31
-105.50580593,40.27788342,3056.58
-105.50580595,40.27788603,3050.52
-105.50580601,40.27789477,3048.98
-105.50580608,40.27790351,3045.50
-105.50580613,40.27791036,3054.65
-105.50580690,40.27801441,3050.70
-105.50580708,40.27803864,3050.55
-105.50580708,40.27803874,3049.33
-105.50580761,40.27810910,3051.40
-105.50580764,40.27811333,3048.21
-105.50580804,40.27816711,3038.57
-105.50580827,40.27819865,3037.83
-105.50580953,40.27836765,3051.26
-105.50580957,40.27837270,3041.97
-105.50580974,40.27839585,3036.43
-105.50580992,40.27841919,3036.08
-105.50581019,40.27845504,3049.77
-105.50581040,40.27848414,3035.74
-105.50581079,40.27853657,3040.80
-105.50581083,40.27854207,3036.35
-105.50581091,40.27855288,3051.04
-105.50581114,40.27858387,3038.14
-105.50581124,40.27859603,3047.24
-105.50581129,40.27860270,3037.91
-105.50581132,40.27860774,3039.14
-105.50581150,40.27863189,3048.21
-105.50581173,40.27866288,3039.59
-105.50581208,40.27870982,3033.10
-105.50581224,40.27873090,3046.64
-105.50581229,40.27873720,3047.37
-105.50581289,40.27881820,3031.08
-105.50581292,40.27882162,3042.51
-105.50581294,40.27882450,3039.34
-105.50581298,40.27883009,3041.39
-105.50581305,40.27884018,3043.71
-105.50581308,40.27884378,3042.05
-105.50581314,40.27885099,3037.03
-105.50581318,40.27885756,3030.50
-105.50581341,40.27888756,3035.69
-105.50581355,40.27890702,3035.06
-105.50581415,40.27898756,3035.80
-105.50581418,40.27899045,3037.25
-105.50581425,40.27900108,3042.01
-105.50581431,40.27900820,3044.03
-105.50581435,40.27901333,3042.59
-105.50581469,40.27905937,3038.47
-105.50581480,40.27907405,3029.90
-105.50581481,40.27907504,3034.79
-105.50581518,40.27912567,3028.94
-105.50581571,40.27919594,3037.94
-105.50581594,40.27922729,3043.26
-105.50581606,40.27924324,3028.50
-105.50581651,40.27930324,3035.69
-105.50581652,40.27930450,3035.63
-105.50581659,40.27931387,3034.37
-105.50581659,40.27931504,3034.35
-105.50581669,40.27932748,3033.23
-105.50581671,40.27933045,3033.60
-105.50581679,40.27934081,3033.17
-105.50581693,40.27935982,3033.79
-105.50581698,40.27936684,3034.13
-105.50581791,40.27949162,3045.70
-105.50581804,40.27950928,3048.03
-105.50581811,40.27951811,3048.45
-105.50581833,40.27954793,3055.25
-105.50581878,40.27960874,3065.63
-105.50581892,40.27962757,3070.34
-105.50581908,40.27964811,3071.84
-105.50581931,40.27967901,3078.15
-105.50582013,40.27979000,3088.29
-105.50582052,40.27984207,3088.89
-105.50582057,40.27984847,3087.05
-105.50582085,40.27988639,3092.69
-105.50582151,40.27997477,3080.59
-105.50582156,40.27998153,3083.89
-105.50582181,40.28001549,3091.22
-105.50582197,40.28003667,3073.16
-105.50582201,40.28004171,3086.12
-105.50582204,40.28004630,3087.05
-105.50582205,40.28004711,3087.09
-105.50582208,40.28005063,3087.06
-105.50582228,40.28007838,3068.04
-105.50582230,40.28008063,3081.89
-105.50582255,40.28011378,3073.49
-105.50582257,40.28011648,3070.78
-105.50582257,40.28011657,3073.74
-105.50582263,40.28012441,3083.68
-105.50582264,40.28012612,3083.93
-105.50582327,40.28021054,3085.69
-105.50582405,40.28031612,3084.58
-105.50582425,40.28034216,3085.79
-105.50582438,40.28035964,3084.89
-105.50582464,40.28037856,3085.13
-105.50584228,40.28037857,3084.35
-105.50592545,40.28037830,3086.97
-105.50593297,40.28037826,3104.23
-105.50593627,40.28037825,3087.74
-105.50594191,40.28037822,3090.24
-105.50594603,40.28037821,3092.12
-105.50594768,40.28037820,3093.67
-105.50597156,40.28037809,3096.20
-105.50599273,40.28037800,3102.78
-105.50599673,40.28037798,3106.27
-105.50600638,40.28037794,3104.57
-105.50603920,40.28037780,3097.76
-105.50604872,40.28037776,3091.19
-105.50630327,40.28037664,3115.53
-105.50630751,40.28037662,3114.59
-105.50647113,40.28037591,3119.65
-105.50654500,40.28037558,3121.75
-105.50655629,40.28037554,3119.26
-105.50664263,40.28037516,3133.11
-105.50664628,40.28037514,3132.33
-105.50675532,40.28037466,3130.52
-105.50683519,40.28037431,3136.04
-105.50683907,40.28037430,3135.22
-105.50685142,40.28037424,3132.04
-105.50685566,40.28037422,3131.09
-105.50685978,40.28037421,3130.04
-105.50699552,40.28037361,3122.95
-105.50705116,40.28037337,3132.26
-105.50705528,40.28037335,3131.65
-105.50708645,40.28037321,3124.67
-105.50709480,40.28037318,3130.62
-105.50709492,40.28037318,3129.12
-105.50709656,40.28037317,3124.80
-105.50716244,40.28037288,3127.09
-105.50732782,40.28037216,3131.29
-105.50734335,40.28037209,3149.72
-105.50734888,40.28037206,3148.06
-105.50736829,40.28037198,3143.80
-105.50740122,40.28037183,3133.69
-105.50740934,40.28037180,3134.00
-105.50764801,40.28037075,3151.11
-105.50772517,40.28037041,3158.35
-105.50773788,40.28037036,3155.26
-105.50774411,40.28037033,3153.82
-105.50775058,40.28037030,3152.35
-105.50803089,40.28036907,3153.92
-105.50821675,40.28036825,3158.95
-105.50830673,40.28036786,3177.80
-105.50830744,40.28036786,3178.38
-105.50836167,40.28036762,3175.40
-105.50845789,40.28036720,3177.27
-105.50846589,40.28036716,3175.71
-105.50849223,40.28036704,3169.24
-105.50852541,40.28036690,3185.07
-105.50852835,40.28036689,3184.12
-105.50857199,40.28036669,3173.45
-105.50862068,40.28036648,3184.71
-105.50862704,40.28036645,3182.77
-105.50865315,40.28036634,3175.90
-105.50871408,40.28036607,3184.20
-105.50873267,40.28036599,3179.78
-105.50875749,40.28036588,3185.43
-105.50880466,40.28036567,3192.66
-105.50883712,40.28036553,3184.53
-105.50888100,40.28036533,3200.61
-105.50888159,40.28036533,3205.76
-105.50888417,40.28036532,3204.08
-105.50888900,40.28036530,3199.58
-105.50889170,40.28036529,3198.05
-105.50902639,40.28036470,3192.94
-105.50903203,40.28036467,3205.62
-105.50945209,40.28036282,3216.43
-105.50957866,40.28036226,3228.22
-105.50968993,40.28036177,3229.03
-105.50990425,40.28036083,3237.60
-105.50991390,40.28036079,3235.06
-105.50995460,40.28036061,3244.33
-105.50996142,40.28036058,3240.24
-105.50996789,40.28036055,3236.62
     </coordinates>
    </LineString>
   </MultiGeometry>
  </Placemark>
 </Document>
</kml>
