<kml>
 <Document>
  <Style id="yellow">
   <LineStyle>
   <color>ff00ffff</color>
   <width>1</width>
   </LineStyle>
  </Style>
  <Style id="red">
   <LineStyle>
   <color>ffff0000</color>
   <width>2</width>
   </LineStyle>
  </Style>
  <Style id="green">
   <LineStyle>
   <color>ff00ff00</color>
   <width>1</width>
   </LineStyle>
  </Style>
  <Placemark>
  <styleUrl>#yellow</styleUrl>
   <MultiGeometry>
    <LineString>
     <coordinates>
-105.53252828,40.28926821,2926.68
-105.53275639,40.28926716,2923.43
-105.53288897,40.28926655,2922.88
-105.53301615,40.28926596,2919.93
-105.53302003,40.28926595,2919.73
-105.53302462,40.28926593,2919.64
-105.53306462,40.28926574,2919.21
-105.53306862,40.28926572,2918.96
-105.53309050,40.28926562,2915.37
-105.53309226,40.28926561,2917.10
-105.53310356,40.28926556,2918.56
-105.53321402,40.28926496,2917.39
-105.53373825,40.28926264,2894.73
-105.53381860,40.28926227,2902.71
-105.53388695,40.28926195,2903.62
-105.53396459,40.28926159,2900.90
-105.53403930,40.28926125,2901.23
-105.53411588,40.28926089,2897.06
-105.53411800,40.28926088,2899.91
-105.53449093,40.28925907,2889.06
-105.53472834,40.28925806,2882.30
-105.53479999,40.28925773,2878.89
-105.53480093,40.28925773,2881.52
-105.53503504,40.28925665,2878.16
-105.53505915,40.28925653,2878.07
-105.53508704,40.28925641,2867.03
-105.53518150,40.28925597,2875.33
-105.53518798,40.28925594,2874.41
-105.53519080,40.28925593,2873.93
-105.53524703,40.28925567,2874.63
-105.53525150,40.28925565,2864.13
-105.53526280,40.28925559,2863.95
-105.53528068,40.28925551,2877.39
-105.53533762,40.28925525,2875.71
-105.53537832,40.28925506,2876.05
-105.53546114,40.28925468,2872.02
-105.53547750,40.28925460,2866.43
-105.53554126,40.28925430,2873.01
-105.53565596,40.28925377,2857.41
-105.53569879,40.28925358,2864.59
-105.53570549,40.28925354,2863.74
-105.53578890,40.28925316,2871.74
-105.53586690,40.28925280,2854.47
-105.53595584,40.28925239,2867.35
-105.53603972,40.28925200,2856.15
-105.53625654,40.28925099,2857.90
-105.53637994,40.28925042,2859.74
-105.53664853,40.28924917,2844.78
-105.53693393,40.28924785,2846.16
-105.53693546,40.28924784,2853.25
-105.53701663,40.28924747,2849.08
-105.53702028,40.28924745,2848.65
-105.53730557,40.28924612,2837.01
-105.53739086,40.28924573,2836.22
-105.53739427,40.28924571,2843.59
-105.53740262,40.28924567,2841.81
-105.53742298,40.28924558,2841.77
-105.53751027,40.28924517,2840.52
-105.53753686,40.28924505,2842.89
-105.53780438,40.28924381,2829.31
-105.53784485,40.28924362,2832.27
-105.53790826,40.28924332,2831.00
-105.53793002,40.28924322,2835.64
-105.53795508,40.28924311,2830.76
-105.53798214,40.28924298,2833.81
-105.53804837,40.28924267,2825.00
-105.53807814,40.28924253,2821.09
-105.53821590,40.28924189,2817.20
-105.53821613,40.28924189,2817.21
-105.53822154,40.28924187,2817.11
-105.53822731,40.28924184,2816.96
-105.53823296,40.28924181,2816.76
-105.53823813,40.28924179,2816.78
-105.53824354,40.28924177,2816.77
-105.53824954,40.28924174,2816.58
-105.53826107,40.28924168,2816.39
-105.53827048,40.28924164,2816.19
-105.53827613,40.28924161,2816.10
-105.53828143,40.28924159,2816.02
-105.53829295,40.28924154,2823.90
-105.53837848,40.28924114,2825.20
-105.53839213,40.28924107,2826.04
-105.53844260,40.28924084,2823.44
-105.53852601,40.28924045,2822.24
-105.53853330,40.28924042,2814.34
-105.53854954,40.28924034,2810.62
-105.53859989,40.28924011,2809.65
-105.53882129,40.28923908,2813.10
-105.53882918,40.28923904,2808.47
-105.53884518,40.28923896,2815.18
-105.53889047,40.28923875,2820.03
-105.53890964,40.28923866,2813.94
-105.53895705,40.28923844,2803.19
-105.53898647,40.28923831,2806.11
-105.53907340,40.28923790,2801.19
-105.53911905,40.28923769,2799.85
-105.53926646,40.28923700,2797.71
-105.53932975,40.28923671,2797.87
-105.53938104,40.28923647,2797.60
-105.53945975,40.28923610,2810.18
-105.53955763,40.28923564,2796.24
-105.53957833,40.28923555,2796.10
-105.53989103,40.28923409,2792.34
-105.54026278,40.28923235,2794.29
-105.54033996,40.28923199,2797.91
-105.54038643,40.28923178,2788.68
-105.54050772,40.28923121,2787.79
-105.54052690,40.28923112,2796.70
-105.54056819,40.28923093,2795.15
-105.54057666,40.28923089,2795.36
-105.54060772,40.28923074,2796.69
-105.54072818,40.28923018,2785.92
-105.54075595,40.28923005,2785.53
-105.54077901,40.28922994,2796.69
-105.54078854,40.28922990,2785.34
-105.54084595,40.28922963,2784.91
-105.54096171,40.28922909,2783.97
-105.54109041,40.28922849,2796.29
-105.54111782,40.28922836,2791.82
-105.54116617,40.28922804,2795.10
-105.54117452,40.28922791,2795.80
-105.54118064,40.28922716,2794.76
-105.54118271,40.28922220,2781.46
-105.54118464,40.28921237,2781.50
-105.54118470,40.28920525,2781.49
-105.54118421,40.28914390,2793.36
-105.54118374,40.28908480,2793.69
-105.54118360,40.28906841,2793.54
-105.54118323,40.28902201,2782.15
-105.54118269,40.28895336,2781.94
-105.54118262,40.28894498,2781.95
-105.54118159,40.28881616,2786.72
-105.54118102,40.28874381,2779.39
-105.54118101,40.28874354,2792.51
-105.54118098,40.28873940,2789.25
-105.54118096,40.28873679,2792.57
-105.54117921,40.28851769,2781.31
-105.54117857,40.28843697,2783.46
-105.54117809,40.28837733,2783.35
-105.54117802,40.28836832,2781.31
-105.54117795,40.28835940,2774.49
-105.54117791,40.28835481,2785.98
-105.54117791,40.28835400,2780.48
-105.54117790,40.28835265,2774.48
-105.54117789,40.28835156,2785.04
-105.54117780,40.28834039,2774.34
-105.54117776,40.28833580,2787.43
-105.54117768,40.28832607,2783.81
-105.54117728,40.28827571,2773.55
-105.54117713,40.28825607,2776.18
-105.54117676,40.28821075,2790.78
-105.54117675,40.28820913,2788.15
-105.54117672,40.28820580,2790.47
-105.54117600,40.28811463,2770.81
-105.54117579,40.28808850,2770.16
-105.54117485,40.28797058,2779.22
-105.54117481,40.28796580,2772.26
-105.54117479,40.28796364,2783.52
-105.54117446,40.28792130,2775.11
-105.54117444,40.28791940,2767.88
-105.54117362,40.28781652,2778.98
-105.54117355,40.28780823,2770.11
-105.54117323,40.28776769,2778.26
-105.54117299,40.28773796,2772.31
-105.54117279,40.28771310,2773.01
-105.54117221,40.28764031,2774.52
-105.54117214,40.28763112,2774.72
-105.54117209,40.28762454,2782.59
-105.54117195,40.28760761,2783.75
-105.54117172,40.28757815,2775.48
-105.54117162,40.28756625,2775.66
-105.54117147,40.28754706,2775.93
-105.54117130,40.28752598,2776.34
-105.54117127,40.28752130,2783.33
-105.54117126,40.28752013,2776.37
-105.54117124,40.28751851,2779.47
-105.54117124,40.28751761,2777.79
-105.54117101,40.28748941,2776.40
-105.54117081,40.28746364,2776.61
-105.54117075,40.28745652,2776.70
-105.54117023,40.28739202,2777.20
-105.54117000,40.28736310,2787.16
-105.54116986,40.28734562,2785.56
-105.54116961,40.28731391,2777.03
-105.54116943,40.28729166,2779.97
-105.54116933,40.28727842,2777.15
-105.54116924,40.28726779,2781.33
-105.54116901,40.28723806,2777.11
-105.54116873,40.28720310,2782.75
-105.54116865,40.28719382,2781.37
-105.54116860,40.28718743,2781.03
-105.54116859,40.28718527,2790.16
-105.54116762,40.28706473,2787.32
-105.54116762,40.28706428,2783.50
-105.54116762,40.28706409,2785.86
-105.54116740,40.28703689,2776.00
-105.54116725,40.28701779,2776.52
-105.54116705,40.28699238,2776.06
-105.54116654,40.28692914,2793.29
-105.54116645,40.28691788,2774.91
-105.54116559,40.28681013,2774.25
-105.54116528,40.28677058,2781.95
-105.54116490,40.28672284,2774.17
-105.54116480,40.28671076,2774.13
-105.54116415,40.28662914,2782.41
-105.54116371,40.28657392,2777.93
-105.54116181,40.28633617,2773.14
-105.54116160,40.28630978,2772.87
-105.54116051,40.28617275,2779.27
-105.54116048,40.28616888,2777.67
-105.54116042,40.28616113,2770.57
-105.54116012,40.28612347,2768.79
-105.54115982,40.28608671,2771.50
-105.54115940,40.28603347,2766.19
-105.54115905,40.28598960,2765.78
-105.54115887,40.28596671,2769.58
-105.54115866,40.28594086,2772.55
-105.54115817,40.28587969,2772.41
-105.54115811,40.28587221,2770.11
-105.54115788,40.28584338,2768.69
-105.54115699,40.28573095,2762.99
-105.54115683,40.28571122,2762.92
-105.54115677,40.28570419,2762.95
-105.54115668,40.28569275,2771.22
-105.54115651,40.28567086,2771.79
-105.54115603,40.28561041,2761.65
-105.54115563,40.28556140,2769.32
-105.54115474,40.28544897,2766.54
-105.54115353,40.28529771,2758.51
-105.54115258,40.28517852,2766.11
-105.54115221,40.28513230,2756.12
-105.54115192,40.28509609,2755.84
-105.54115184,40.28508600,2755.69
-105.54115166,40.28506339,2755.46
-105.54115139,40.28502960,2761.40
-105.54115119,40.28500447,2766.90
-105.54115107,40.28498870,2765.19
-105.54115107,40.28498861,2766.16
-105.54115059,40.28492906,2764.72
-105.54115047,40.28491411,2758.76
-105.54114888,40.28471402,2755.91
-105.54114796,40.28459961,2751.69
-105.54114793,40.28459555,2751.57
-105.54114791,40.28459276,2751.70
-105.54114789,40.28458979,2751.48
-105.54114788,40.28458906,2751.45
-105.54114787,40.28458807,2751.42
-105.54114777,40.28457528,2751.28
-105.54114622,40.28438114,2750.10
-105.54114606,40.28436087,2749.83
-105.54114597,40.28434997,2749.75
-105.54114539,40.28427636,2762.51
-105.54114533,40.28426943,2759.91
-105.54114531,40.28426627,2749.00
-105.54114522,40.28425600,2748.88
-105.54114459,40.28417700,2761.59
-105.54114451,40.28416618,2761.73
-105.54114442,40.28415537,2762.71
-105.54114411,40.28411582,2762.08
-105.54114309,40.28398862,2744.78
-105.54114308,40.28398664,2748.26
-105.54114256,40.28392195,2743.74
-105.54114209,40.28386321,2742.98
-105.54113956,40.28354619,2749.49
-105.54113936,40.28352015,2739.23
-105.54113931,40.28351466,2754.84
-105.54113873,40.28344195,2738.49
-105.54113822,40.28337736,2742.91
-105.54113819,40.28337331,2751.84
-105.54113818,40.28337241,2741.36
-105.54113814,40.28336754,2752.44
-105.54113805,40.28335610,2752.31
-105.54113802,40.28335205,2747.29
-105.54113798,40.28334754,2750.31
-105.54113793,40.28334087,2745.56
-105.54113773,40.28331601,2749.99
-105.54113742,40.28327772,2737.39
-105.54113640,40.28314934,2743.96
-105.54113610,40.28311169,2745.03
-105.54113571,40.28306313,2735.78
-105.54113561,40.28305043,2749.44
-105.54113553,40.28303961,2741.36
-105.54113546,40.28303133,2735.65
-105.54113300,40.28272331,2732.82
-105.54113295,40.28271700,2732.73
-105.54113263,40.28267592,2732.38
-105.54113188,40.28258187,2747.35
-105.54113174,40.28256439,2742.97
-105.54113079,40.28244565,2736.13
-105.54113069,40.28243358,2729.97
-105.54113020,40.28237133,2729.57
-105.54112964,40.28230205,2728.62
-105.54112884,40.28220088,2727.93
-105.54112766,40.28205295,2726.06
-105.54112678,40.28194259,2725.27
-105.54112625,40.28187602,2724.81
-105.54112609,40.28185638,2724.73
-105.54112429,40.28163070,2723.36
-105.54112424,40.28162368,2723.30
-105.54112415,40.28161305,2723.28
-105.54112339,40.28151737,2722.41
-105.54112098,40.28121548,2718.89
-105.54111793,40.28083314,2718.82
-105.54111717,40.28073737,2718.99
-105.54111661,40.28066774,2718.71
-105.54111583,40.28056936,2719.42
-105.54111565,40.28054665,2719.82
-105.54111511,40.28047864,2721.04
-105.54111502,40.28046774,2721.17
-105.54111493,40.28045602,2721.28
-105.54111454,40.28040783,2721.63
-105.54111411,40.28035386,2721.72
-105.54111401,40.28034179,2721.70
-105.54111387,40.28032332,2721.67
-105.54111327,40.28024891,2721.62
-105.54111270,40.28022134,2721.65
-105.54111128,40.28021946,2721.64
-105.54101599,40.28021972,2720.62
-105.54091507,40.28022010,2720.02
-105.54083120,40.28022050,2719.03
-105.54053642,40.28022187,2716.90
-105.54051831,40.28022196,2717.04
-105.54047537,40.28022216,2717.16
-105.54041291,40.28022245,2716.95
-105.54034328,40.28022278,2716.88
-105.54023635,40.28022328,2716.88
-105.54021295,40.28022338,2716.67
-105.54019412,40.28022347,2716.64
-105.54017178,40.28022358,2716.80
-105.54011614,40.28022384,2716.81
-105.54006967,40.28022405,2716.93
-105.54003556,40.28022421,2717.18
-105.54003121,40.28022423,2716.82
-105.54002639,40.28022426,2716.93
-105.53985783,40.28022504,2720.46
-105.53974867,40.28022555,2724.48
-105.53974714,40.28022556,2724.43
-105.53972255,40.28022567,2723.35
-105.53964962,40.28022601,2736.74
-105.53963810,40.28022607,2723.25
-105.53963045,40.28022610,2736.67
-105.53960316,40.28022623,2735.00
-105.53959998,40.28022625,2736.20
-105.53959822,40.28022625,2734.16
-105.53957787,40.28022635,2737.66
-105.53950412,40.28022669,2723.67
-105.53949565,40.28022673,2723.67
-105.53939461,40.28022720,2724.11
-105.53936931,40.28022732,2723.96
-105.53930309,40.28022763,2724.46
-105.53926698,40.28022780,2724.62
-105.53917687,40.28022822,2725.10
-105.53902760,40.28022891,2725.95
-105.53902666,40.28022892,2729.20
-105.53894232,40.28022931,2730.34
-105.53892844,40.28022937,2729.59
-105.53889163,40.28022955,2738.78
-105.53884163,40.28022978,2741.01
-105.53884034,40.28022979,2740.41
-105.53878235,40.28023006,2728.03
-105.53875800,40.28023017,2739.41
-105.53858073,40.28023099,2736.11
-105.53852463,40.28023126,2741.24
-105.53851710,40.28023129,2740.15
-105.53850910,40.28023133,2737.10
-105.53844499,40.28023163,2730.20
-105.53820021,40.28023276,2747.03
-105.53803694,40.28023352,2732.89
-105.53798789,40.28023375,2732.54
-105.53775628,40.28023483,2744.99
-105.53775416,40.28023484,2732.82
-105.53773334,40.28023494,2739.58
-105.53772769,40.28023496,2730.38
-105.53729600,40.28023697,2727.63
-105.53718766,40.28023747,2741.49
-105.53714085,40.28023769,2733.46
-105.53695193,40.28023856,2733.60
-105.53688677,40.28023887,2738.01
-105.53688277,40.28023888,2740.27
-105.53677220,40.28023940,2753.21
-105.53666986,40.28023987,2742.24
-105.53664492,40.28023999,2751.37
-105.53660987,40.28024015,2753.02
-105.53650600,40.28024063,2754.85
-105.53641720,40.28024104,2758.09
-105.53640920,40.28024108,2755.81
-105.53640108,40.28024112,2753.42
-105.53639555,40.28024114,2751.88
-105.53638497,40.28024119,2752.30
-105.53630016,40.28024159,2761.33
-105.53605231,40.28024274,2770.52
-105.53604749,40.28024276,2770.21
-105.53604572,40.28024277,2769.06
-105.53600267,40.28024297,2764.59
-105.53600091,40.28024297,2774.85
-105.53594703,40.28024322,2780.89
-105.53594174,40.28024325,2782.24
-105.53592504,40.28024332,2780.79
-105.53591857,40.28024335,2779.47
-105.53590234,40.28024343,2777.06
-105.53580576,40.28024388,2785.10
-105.53579729,40.28024392,2785.36
-105.53578471,40.28024397,2780.94
-105.53576306,40.28024407,2787.02
-105.53573025,40.28024423,2783.16
-105.53572977,40.28024423,2783.80
-105.53572460,40.28024425,2783.75
-105.53568849,40.28024442,2778.40
-105.53562567,40.28024471,2785.86
-105.53562379,40.28024472,2784.76
-105.53562238,40.28024473,2784.62
-105.53562156,40.28024473,2785.93
-105.53561920,40.28024474,2784.57
-105.53559909,40.28024483,2775.63
-105.53550746,40.28024526,2786.56
-105.53547876,40.28024539,2793.93
-105.53546358,40.28024546,2788.72
-105.53546193,40.28024547,2787.50
-105.53545052,40.28024552,2795.01
-105.53545017,40.28024552,2795.91
-105.53544747,40.28024554,2783.51
-105.53544441,40.28024555,2780.88
-105.53538936,40.28024580,2797.87
-105.53527067,40.28024635,2791.64
-105.53525761,40.28024641,2788.99
-105.53518257,40.28024676,2789.38
-105.53516292,40.28024685,2789.91
-105.53515539,40.28024689,2790.23
-105.53514975,40.28024691,2790.43
-105.53506353,40.28024731,2805.06
-105.53504976,40.28024738,2794.24
-105.53499671,40.28024762,2808.57
-105.53498977,40.28024765,2796.68
-105.53496754,40.28024776,2799.34
-105.53494825,40.28024784,2798.04
-105.53488038,40.28024816,2806.88
-105.53482321,40.28024842,2808.81
-105.53482180,40.28024843,2804.21
-105.53482051,40.28024844,2802.80
-105.53480627,40.28024850,2803.29
-105.53480463,40.28024851,2808.65
-105.53470852,40.28024895,2815.56
-105.53470217,40.28024898,2814.38
-105.53470182,40.28024898,2814.36
-105.53466241,40.28024917,2822.54
-105.53464406,40.28024925,2810.07
-105.53462583,40.28024934,2822.13
-105.53457960,40.28024955,2811.03
-105.53451420,40.28024985,2815.48
-105.53447056,40.28025005,2820.38
-105.53445456,40.28025013,2827.02
-105.53445080,40.28025014,2828.35
-105.53442974,40.28025024,2827.59
-105.53440351,40.28025036,2824.46
-105.53439104,40.28025042,2830.69
-105.53437669,40.28025049,2823.53
-105.53437175,40.28025051,2821.39
-105.53436740,40.28025053,2818.77
-105.53432235,40.28025074,2819.95
-105.53424989,40.28025107,2829.35
-105.53420896,40.28025126,2823.99
-105.53413709,40.28025159,2831.96
-105.53412215,40.28025166,2837.62
-105.53403134,40.28025208,2837.25
-105.53400781,40.28025219,2831.18
-105.53390195,40.28025268,2834.45
-105.53366034,40.28025379,2849.62
-105.53357388,40.28025419,2851.13
-105.53354847,40.28025431,2857.48
-105.53354541,40.28025432,2858.72
-105.53341614,40.28025492,2856.57
-105.53339214,40.28025503,2856.20
-105.53321688,40.28025584,2857.27
-105.53307243,40.28025650,2872.63
-105.53306431,40.28025654,2875.73
-105.53304843,40.28025661,2875.98
-105.53302808,40.28025671,2864.67
-105.53287528,40.28025741,2870.60
-105.53278506,40.28025783,2880.00
-105.53265650,40.28025842,2884.02
-105.53264673,40.28025846,2887.91
-105.53261732,40.28025860,2887.10
-105.53261333,40.28025862,2888.13
-105.53256486,40.28025884,2891.61
-105.53254439,40.28025893,2895.65
-105.53241536,40.28025953,2890.47
-105.53239077,40.28025964,2900.02
-105.53239030,40.28025964,2901.00
-105.53238713,40.28025966,2897.94
-105.53238666,40.28025966,2898.89
-105.53238313,40.28025968,2896.42
-105.53219786,40.28026053,2904.44
-105.53219763,40.28026053,2905.43
-105.53219398,40.28026055,2901.62
-105.53218998,40.28026056,2900.47
-105.53205659,40.28026118,2914.24
-105.53204036,40.28026125,2909.27
-105.53203459,40.28026128,2909.67
-105.53202883,40.28026131,2912.51
-105.53202871,40.28026131,2913.42
-105.53202859,40.28026131,2914.19
-105.53202448,40.28026133,2910.04
-105.53198401,40.28026151,2916.14
-105.53197707,40.28026154,2916.73
-105.53191802,40.28026181,2918.19
-105.53185744,40.28026209,2924.61
-105.53165077,40.28026304,2930.51
-105.53165042,40.28026304,2929.41
-105.53164583,40.28026307,2929.76
-105.53164548,40.28026307,2927.19
-105.53150691,40.28026370,2934.62
-105.53139258,40.28026423,2934.34
-105.53137846,40.28026429,2936.22
-105.53131518,40.28026458,2938.38
-105.53118237,40.28026519,2942.46
-105.53117932,40.28026521,2938.28
-105.53103569,40.28026587,2936.93
-105.53100146,40.28026602,2936.64
-105.53071398,40.28026734,2933.17
-105.53064211,40.28026767,2942.46
-105.53058564,40.28026793,2930.25
-105.53044190,40.28026859,2927.51
-105.53009772,40.28027017,2918.63
-105.53009360,40.28027019,2924.84
-105.53008666,40.28027022,2918.38
-105.53003914,40.28027044,2926.14
-105.53002797,40.28027049,2927.57
-105.53002350,40.28027051,2927.94
-105.53001797,40.28027053,2928.91
-105.53001220,40.28027056,2929.79
-105.52988222,40.28027116,2914.75
-105.52984623,40.28027132,2915.01
-105.52984129,40.28027134,2915.33
-105.52983870,40.28027136,2914.19
-105.52983517,40.28027137,2915.09
-105.52975178,40.28027175,2927.60
-105.52974778,40.28027177,2925.80
-105.52974672,40.28027178,2923.04
-105.52973425,40.28027183,2913.05
-105.52956286,40.28027262,2911.40
-105.52951828,40.28027282,2911.39
-105.52945488,40.28027311,2919.45
-105.52938277,40.28027344,2910.92
-105.52935537,40.28027366,2910.80
-105.52935033,40.28027656,2910.76
-105.52935065,40.28031791,2915.40
-105.52935096,40.28035665,2912.31
-105.52935099,40.28036107,2923.39
-105.52935133,40.28040395,2920.69
-105.52935159,40.28043800,2924.06
-105.52935160,40.28043863,2924.42
-105.52935167,40.28044746,2921.64
-105.52935186,40.28047278,2925.89
-105.52935198,40.28048818,2922.42
-105.52935224,40.28052089,2927.48
-105.52935226,40.28052377,2928.22
-105.52935230,40.28052900,2915.44
-105.52935235,40.28053566,2933.58
-105.52935238,40.28053890,2938.87
-105.52935238,40.28053899,2936.66
-105.52935243,40.28054611,2921.61
-105.52935259,40.28056665,2935.73
-105.52935260,40.28056692,2928.56
-105.52935263,40.28057170,2933.79
-105.52935267,40.28057692,2923.76
-105.52935301,40.28061936,2923.41
-105.52935335,40.28066404,2925.59
-105.52935359,40.28069404,2941.94
-105.52935369,40.28070755,2935.67
-105.52935370,40.28070818,2927.88
-105.52935383,40.28072566,2919.49
-105.52935406,40.28075422,2920.19
-105.52935427,40.28078125,2920.93
-105.52935450,40.28081053,2923.51
-105.52935527,40.28090998,2927.95
-105.52935531,40.28091539,2932.93
-105.52935576,40.28097269,2925.93
-105.52935593,40.28099386,2937.72
-105.52935597,40.28100007,2938.82
-105.52935602,40.28100647,2926.45
-105.52935603,40.28100692,2938.77
-105.52935603,40.28100728,2934.26
-105.52935604,40.28100782,2926.49
-105.52935606,40.28101161,2939.08
-105.52935608,40.28101332,2937.51
-105.52935608,40.28101350,2937.57
-105.52935608,40.28101395,2938.62
-105.52935610,40.28101620,2926.57
-105.52935610,40.28101665,2931.73
-105.52935611,40.28101692,2936.60
-105.52935611,40.28101791,2938.19
-105.52935612,40.28101863,2926.63
-105.52935613,40.28102043,2928.55
-105.52935614,40.28102071,2935.21
-105.52935617,40.28102467,2931.28
-105.52935699,40.28113025,2928.61
-105.52935801,40.28126124,2939.59
-105.52935816,40.28128016,2931.51
-105.52935838,40.28130818,2931.74
-105.52935873,40.28135341,2935.66
-105.52935927,40.28142242,2944.69
-105.52935938,40.28143710,2942.93
-105.52935943,40.28144332,2935.24
-105.52935997,40.28151278,2934.74
-105.52936029,40.28155278,2935.43
-105.52936179,40.28174566,2938.95
-105.52936184,40.28175160,2938.04
-105.52936204,40.28177728,2939.32
-105.52936263,40.28185340,2939.38
-105.52936283,40.28187926,2942.91
-105.52936296,40.28189566,2943.73
-105.52936301,40.28190205,2939.93
-105.52936304,40.28190575,2952.16
-105.52936317,40.28192313,2946.13
-105.52936361,40.28197872,2949.85
-105.52936377,40.28200007,2940.65
-105.52936417,40.28205043,2948.69
-105.52936424,40.28205980,2951.81
-105.52936446,40.28208737,2941.08
-105.52936460,40.28210530,2941.36
-105.52936467,40.28211512,2956.37
-105.52936478,40.28212944,2951.86
-105.52936519,40.28218115,2941.96
-105.52936556,40.28222827,2945.23
-105.52936584,40.28226503,2954.22
-105.52936591,40.28227421,2946.74
-105.52936623,40.28231448,2954.81
-105.52936645,40.28234322,2950.94
-105.52936688,40.28239791,2951.49
-105.52936693,40.28240475,2951.32
-105.52936695,40.28240710,2951.54
-105.52936754,40.28248313,2958.83
-105.52936758,40.28248773,2961.80
-105.52936758,40.28248836,2960.58
-105.52936783,40.28251962,2957.87
-105.52936797,40.28253746,2958.24
-105.52936871,40.28263277,2944.19
-105.52936915,40.28268854,2954.88
-105.52936915,40.28268881,2957.07
-105.52936933,40.28271286,2957.87
-105.52936938,40.28271917,2956.83
-105.52936993,40.28278899,2945.75
-105.52937038,40.28284719,2946.60
-105.52937059,40.28287439,2947.03
-105.52937064,40.28288061,2953.63
-105.52937076,40.28289574,2947.32
-105.52937079,40.28289890,2953.30
-105.52937079,40.28289899,2952.45
-105.52937079,40.28289917,2952.39
-105.52937085,40.28290718,2952.49
-105.52937098,40.28292394,2947.68
-105.52937168,40.28301322,2949.91
-105.52937197,40.28305124,2950.78
-105.52937199,40.28305295,2950.88
-105.52937200,40.28305493,2950.92
-105.52937215,40.28307322,2951.39
-105.52937216,40.28307565,2951.48
-105.52937460,40.28338745,2961.43
-105.52937486,40.28342169,2961.16
-105.52937551,40.28350421,2968.66
-105.52937554,40.28350898,2963.86
-105.52937582,40.28354376,2964.97
-105.52937623,40.28359736,2973.74
-105.52937648,40.28362844,2980.42
-105.52937650,40.28363160,2979.63
-105.52937690,40.28368223,2974.74
-105.52937708,40.28370520,2976.90
-105.52937718,40.28371880,2973.29
-105.52937801,40.28382538,2974.60
-105.52937853,40.28389142,2977.04
-105.52937861,40.28390178,2976.84
-105.52937909,40.28396385,2978.93
-105.52937918,40.28397502,2983.53
-105.52937956,40.28402430,2980.93
-105.52937976,40.28404934,2981.88
-105.52938027,40.28411412,2983.71
-105.52938054,40.28414961,2984.92
-105.52938081,40.28418439,2987.74
-105.52938085,40.28418961,2987.73
-105.52938090,40.28419502,2989.31
-105.52938100,40.28420853,2991.97
-105.52938215,40.28435619,2997.16
-105.52938237,40.28438421,2998.66
-105.52938323,40.28449358,3002.50
-105.52938342,40.28451808,2998.23
-105.52938400,40.28459258,3005.58
-105.52938427,40.28462745,3006.66
-105.52938450,40.28465646,3003.68
-105.52938532,40.28476168,3007.69
-105.52938598,40.28484709,3013.62
-105.52938610,40.28486213,3011.43
-105.52938627,40.28488420,3009.79
-105.52938663,40.28492970,3013.66
-105.52938742,40.28503141,3015.35
-105.52938759,40.28505303,3013.83
-105.52938800,40.28510574,3015.37
-105.52938831,40.28514583,3017.11
-105.52938840,40.28515718,3018.37
-105.52938841,40.28515754,3017.45
-105.52938867,40.28519186,3020.65
-105.52938892,40.28522375,3018.58
-105.52938905,40.28524042,3023.16
-105.52938906,40.28524186,3018.77
-105.52938930,40.28527204,3023.81
-105.52938938,40.28528267,3025.19
-105.52939049,40.28542447,3019.47
-105.52939146,40.28554871,3019.29
-105.52939147,40.28554979,3016.57
-105.52939188,40.28560303,3015.52
-105.52939286,40.28572871,3018.23
-105.52939294,40.28573916,3012.95
-105.52939298,40.28574447,3015.29
-105.52939426,40.28590870,3020.92
-105.52939436,40.28592123,3012.11
-105.52939501,40.28600384,3008.22
-105.52939717,40.28628132,3012.15
-105.52939725,40.28629132,3014.83
-105.52939788,40.28637240,3007.31
-105.52939801,40.28638888,3007.33
-105.52939803,40.28639113,3011.60
-105.52939814,40.28640492,3012.20
-105.52939818,40.28641032,3012.00
-105.52939819,40.28641168,3012.09
-105.52939825,40.28641987,3007.85
-105.52939841,40.28643960,3014.72
-105.52939845,40.28644510,3016.00
-105.52939846,40.28644591,3015.99
-105.52939847,40.28644708,3016.17
-105.52939848,40.28644906,3013.49
-105.52939851,40.28645231,3013.78
-105.52939855,40.28645735,3012.02
-105.52939857,40.28646005,3006.12
-105.52939867,40.28647294,3010.63
-105.52939869,40.28647591,3005.60
-105.52939870,40.28647744,3010.47
-105.52939874,40.28648186,3005.52
-105.52939935,40.28656077,3010.05
-105.52939952,40.28658276,3003.76
-105.52939987,40.28662681,3006.40
-105.52940015,40.28666267,3008.12
-105.52940088,40.28675708,3007.40
-105.52940100,40.28677258,3009.23
-105.52940116,40.28679203,3003.23
-105.52940188,40.28688420,3007.78
-105.52940267,40.28698654,3000.52
-105.52940280,40.28700275,3005.88
-105.52940294,40.28702113,3000.38
-105.52940362,40.28710816,3000.54
-105.52940395,40.28714951,3007.91
-105.52940426,40.28719023,3011.28
-105.52940438,40.28720483,3000.97
-105.52940449,40.28721960,3001.11
-105.52940464,40.28723825,3007.93
-105.52940472,40.28724897,3010.62
-105.52940510,40.28729690,3001.23
-105.52940518,40.28730735,3001.26
-105.52940519,40.28730924,3008.97
-105.52940560,40.28736212,3001.28
-105.52940583,40.28739095,3001.05
-105.52940639,40.28746257,3005.83
-105.52940650,40.28747744,3007.30
-105.52940680,40.28751491,3001.29
-105.52940685,40.28752194,3004.70
-105.52940702,40.28754365,3012.24
-105.52940720,40.28756699,3011.74
-105.52940739,40.28759104,3002.82
-105.52940755,40.28761194,3001.60
-105.52940779,40.28764176,3009.64
-105.52940807,40.28767843,3007.74
-105.52940852,40.28773635,3011.09
-105.52940891,40.28778635,3007.23
-105.52941013,40.28794167,3007.55
-105.52941047,40.28798536,3008.25
-105.52941083,40.28803239,3010.45
-105.52941132,40.28809518,3012.63
-105.52941173,40.28814662,3011.96
-105.52941218,40.28820545,3010.77
-105.52941230,40.28821996,3012.43
-105.52941231,40.28822212,3013.38
-105.52941248,40.28824329,3012.67
-105.52941260,40.28825933,3011.76
-105.52941304,40.28831563,3013.42
-105.52941368,40.28839653,3014.59
-105.52941371,40.28840149,3013.54
-105.52941377,40.28840806,3011.21
-105.52941388,40.28842248,3013.69
-105.52941401,40.28843896,3007.06
-105.52941409,40.28844959,3012.31
-105.52941430,40.28847671,3011.85
-105.52941466,40.28852230,3017.38
-105.52941488,40.28855122,3014.14
-105.52941612,40.28870977,3010.71
-105.52941677,40.28879320,3012.80
-105.52941696,40.28881806,3015.75
-105.52941702,40.28882563,3014.53
-105.52941708,40.28883247,3016.59
-105.52941785,40.28893202,3012.56
-105.52941918,40.28910166,3015.90
-105.52941922,40.28910671,3017.34
-105.52941936,40.28912473,3025.45
-105.52942025,40.28923968,3025.46
-105.52942037,40.28925455,3028.25
-105.52942045,40.28926473,3028.11
-105.52942152,40.28928193,3021.56
-105.52942353,40.28928219,3019.25
-105.52945670,40.28928231,3024.64
-105.52958635,40.28928172,3023.53
-105.52962635,40.28928153,3012.92
-105.52965470,40.28928140,3015.83
-105.52970846,40.28928116,3009.87
-105.52978164,40.28928082,3014.19
-105.52978434,40.28928081,3015.47
-105.52979846,40.28928074,3006.49
-105.52982634,40.28928062,3005.41
-105.52985811,40.28928047,3011.21
-105.52986340,40.28928045,3010.36
-105.52988128,40.28928036,3013.95
-105.52991411,40.28928021,3002.12
-105.53006269,40.28927953,2998.12
-105.53032986,40.28927831,2988.28
-105.53034633,40.28927823,2996.66
-105.53034774,40.28927823,2997.29
-105.53035198,40.28927821,2995.92
-105.53039668,40.28927800,2998.15
-105.53042633,40.28927787,2991.51
-105.53056397,40.28927724,2988.10
-105.53066021,40.28927679,2985.71
-105.53068997,40.28927666,2976.82
-105.53070867,40.28927657,2986.72
-105.53084514,40.28927595,2981.90
-105.53084985,40.28927592,2981.63
-105.53086232,40.28927587,2981.82
-105.53087832,40.28927579,2976.91
-105.53106443,40.28927494,2974.33
-105.53109878,40.28927478,2965.57
-105.53132831,40.28927373,2970.28
-105.53137395,40.28927352,2963.75
-105.53138207,40.28927348,2962.59
-105.53186700,40.28927125,2952.65
-105.53187735,40.28927121,2950.98
-105.53189476,40.28927113,2948.48
-105.53194064,40.28927091,2941.83
-105.53224464,40.28926952,2942.98
-105.53229746,40.28926927,2933.62
-105.53235581,40.28926901,2929.35
-105.53237781,40.28926890,2928.71
-105.53252828,40.28926821,2926.68
     </coordinates>
    </LineString>
   </MultiGeometry>
  </Placemark>
 </Document>
</kml>
