<kml>
 <Document>
  <Style id="yellow">
   <LineStyle>
   <color>ff00ffff</color>
   <width>1</width>
   </LineStyle>
  </Style>
  <Style id="red">
   <LineStyle>
   <color>ffff0000</color>
   <width>2</width>
   </LineStyle>
  </Style>
  <Style id="green">
   <LineStyle>
   <color>ff00ff00</color>
   <width>1</width>
   </LineStyle>
  </Style>
  <Placemark>
  <styleUrl>#yellow</styleUrl>
   <MultiGeometry>
    <LineString>
     <coordinates>
-105.49997006,40.29842277,2844.13
-105.50001054,40.29842260,2844.80
-105.50006866,40.29842234,2855.92
-105.50017208,40.29842190,2849.38
-105.50021656,40.29842170,2850.17
-105.50030386,40.29842133,2856.18
-105.50034457,40.29842115,2849.17
-105.50039223,40.29842095,2849.84
-105.50045870,40.29842066,2850.41
-105.50048082,40.29842056,2859.25
-105.50048118,40.29842056,2854.97
-105.50048400,40.29842055,2850.83
-105.50049518,40.29842050,2858.71
-105.50049683,40.29842049,2859.60
-105.50050671,40.29842045,2851.24
-105.50054730,40.29842027,2852.06
-105.50056331,40.29842021,2855.70
-105.50059072,40.29842009,2861.78
-105.50061802,40.29841997,2863.49
-105.50061908,40.29841996,2860.56
-105.50063861,40.29841988,2863.02
-105.50063967,40.29841987,2857.88
-105.50067355,40.29841973,2858.37
-105.50069991,40.29841961,2854.71
-105.50075592,40.29841937,2859.61
-105.50081169,40.29841913,2856.65
-105.50083287,40.29841904,2861.43
-105.50084663,40.29841898,2857.32
-105.50092570,40.29841864,2864.01
-105.50093864,40.29841858,2866.17
-105.50094700,40.29841854,2870.26
-105.50102348,40.29841821,2867.78
-105.50104112,40.29841814,2861.45
-105.50107478,40.29841799,2868.50
-105.50107536,40.29841799,2866.97
-105.50108078,40.29841797,2867.48
-105.50109748,40.29841789,2869.04
-105.50110443,40.29841786,2868.84
-105.50113608,40.29841773,2863.21
-105.50115184,40.29841766,2865.09
-105.50118432,40.29841752,2864.08
-105.50118773,40.29841750,2867.26
-105.50120397,40.29841743,2864.35
-105.50121868,40.29841737,2867.40
-105.50124350,40.29841726,2865.10
-105.50125327,40.29841722,2865.21
-105.50129268,40.29841705,2874.32
-105.50131586,40.29841695,2866.30
-105.50131669,40.29841694,2866.20
-105.50134869,40.29841681,2866.65
-105.50135387,40.29841678,2869.73
-105.50135940,40.29841676,2870.25
-105.50138975,40.29841663,2867.44
-105.50142658,40.29841647,2875.18
-105.50144458,40.29841639,2868.96
-105.50147165,40.29841627,2875.83
-105.50147835,40.29841624,2874.22
-105.50149235,40.29841618,2870.29
-105.50149518,40.29841617,2877.39
-105.50154989,40.29841593,2871.89
-105.50155577,40.29841591,2876.45
-105.50157636,40.29841582,2877.93
-105.50158672,40.29841577,2880.17
-105.50159684,40.29841573,2877.98
-105.50161496,40.29841565,2878.27
-105.50164343,40.29841553,2873.86
-105.50164567,40.29841552,2880.23
-105.50165496,40.29841548,2876.79
-105.50166496,40.29841543,2877.81
-105.50166708,40.29841542,2874.14
-105.50168190,40.29841536,2874.41
-105.50168438,40.29841535,2877.95
-105.50169214,40.29841532,2879.77
-105.50169944,40.29841528,2874.62
-105.50170014,40.29841528,2874.69
-105.50176768,40.29841499,2882.81
-105.50185345,40.29841462,2880.25
-105.50188910,40.29841446,2879.21
-105.50191275,40.29841436,2885.93
-105.50206536,40.29841370,2886.92
-105.50219773,40.29841312,2887.25
-105.50226174,40.29841284,2891.85
-105.50226680,40.29841282,2891.71
-105.50228397,40.29841275,2890.35
-105.50230962,40.29841264,2891.42
-105.50231574,40.29841261,2892.77
-105.50240116,40.29841224,2888.13
-105.50241105,40.29841220,2890.74
-105.50243540,40.29841209,2895.21
-105.50247435,40.29841192,2892.43
-105.50250306,40.29841180,2890.66
-105.50254600,40.29841161,2895.97
-105.50255459,40.29841157,2896.82
-105.50257012,40.29841151,2895.04
-105.50258201,40.29841145,2892.18
-105.50266543,40.29841109,2894.29
-105.50278803,40.29841056,2899.48
-105.50292558,40.29840996,2907.46
-105.50292840,40.29840995,2904.38
-105.50294840,40.29840986,2901.60
-105.50296452,40.29840979,2900.37
-105.50307418,40.29840931,2905.23
-105.50307665,40.29840930,2907.95
-105.50321985,40.29840868,2907.70
-105.50322608,40.29840865,2908.04
-105.50323961,40.29840860,2911.82
-105.50330762,40.29840830,2910.23
-105.50330903,40.29840829,2913.33
-105.50332150,40.29840824,2914.41
-105.50333409,40.29840818,2915.60
-105.50341199,40.29840785,2913.03
-105.50379721,40.29840617,2937.01
-105.50392393,40.29840562,2930.94
-105.50397076,40.29840541,2932.67
-105.50405488,40.29840505,2931.42
-105.50411254,40.29840479,2932.76
-105.50411630,40.29840478,2933.08
-105.50416890,40.29840455,2934.88
-105.50426185,40.29840414,2942.47
-105.50444163,40.29840336,2952.72
-105.50450105,40.29840310,2949.31
-105.50453506,40.29840295,2960.34
-105.50474178,40.29840205,2964.55
-105.50474649,40.29840203,2969.12
-105.50475767,40.29840198,2974.51
-105.50483380,40.29840165,2976.12
-105.50483450,40.29840165,2984.75
-105.50489427,40.29840139,2963.75
-105.50490004,40.29840136,2969.30
-105.50496934,40.29840106,2966.07
-105.50509041,40.29840053,2970.98
-105.50513324,40.29840034,2987.79
-105.50527290,40.29839973,2980.04
-105.50528479,40.29839968,2994.50
-105.50535385,40.29839938,2991.63
-105.50544598,40.29839898,2988.83
-105.50548046,40.29839883,2996.17
-105.50551046,40.29839870,3003.82
-105.50554682,40.29839854,3001.26
-105.50588062,40.29839708,3012.07
-105.50588745,40.29839705,3012.58
-105.50593663,40.29839674,3022.14
-105.50595474,40.29839612,3023.03
-105.50595862,40.29839557,3027.14
-105.50595837,40.29834565,3010.71
-105.50595799,40.29829475,3015.57
-105.50595791,40.29828412,3021.54
-105.50595772,40.29825854,3016.97
-105.50595752,40.29823214,3026.21
-105.50595750,40.29822935,3026.11
-105.50595746,40.29822457,3010.27
-105.50595722,40.29819151,3010.38
-105.50595709,40.29817521,3013.72
-105.50595652,40.29809782,3011.03
-105.50595644,40.29808782,3011.10
-105.50595601,40.29802980,3010.41
-105.50595580,40.29800097,3011.86
-105.50595574,40.29799313,3008.89
-105.50595506,40.29790295,3007.84
-105.50595464,40.29784593,3008.06
-105.50595426,40.29779539,3007.44
-105.50595342,40.29768241,3021.73
-105.50595334,40.29767223,3021.11
-105.50595299,40.29762485,3014.95
-105.50595278,40.29759611,3008.95
-105.50595271,40.29758719,3009.10
-105.50595183,40.29746917,3012.08
-105.50595174,40.29745773,3015.36
-105.50595150,40.29742458,3015.92
-105.50595121,40.29738575,3013.43
-105.50595095,40.29735142,3012.61
-105.50595090,40.29734467,3011.18
-105.50595066,40.29731305,3012.64
-105.50595026,40.29725926,3010.92
-105.50594980,40.29719764,3012.23
-105.50594980,40.29719683,3016.65
-105.50594964,40.29717548,3016.06
-105.50594942,40.29714611,3014.55
-105.50594933,40.29713431,3013.29
-105.50594922,40.29711971,3014.19
-105.50594911,40.29710467,3013.44
-105.50594911,40.29710449,3016.60
-105.50594900,40.29709061,3019.24
-105.50594885,40.29706926,3017.89
-105.50594877,40.29705971,3014.00
-105.50594874,40.29705476,3016.62
-105.50594873,40.29705395,3020.08
-105.50594867,40.29704530,3017.50
-105.50594856,40.29703133,3018.66
-105.50594855,40.29702998,3019.69
-105.50594848,40.29701962,3020.53
-105.50594840,40.29701007,3020.17
-105.50594817,40.29697899,3015.84
-105.50594813,40.29697359,3020.53
-105.50594808,40.29696674,3016.25
-105.50594806,40.29696413,3017.08
-105.50594803,40.29695962,3022.13
-105.50594755,40.29689584,3020.07
-105.50594745,40.29688196,3019.74
-105.50594743,40.29687980,3017.27
-105.50594729,40.29686079,3017.78
-105.50594709,40.29683332,3022.20
-105.50594705,40.29682890,3021.22
-105.50594689,40.29680701,3024.23
-105.50594679,40.29679314,3023.27
-105.50594677,40.29679070,3019.50
-105.50594653,40.29675872,3020.75
-105.50594651,40.29675584,3023.66
-105.50594645,40.29674773,3025.72
-105.50594628,40.29672557,3027.08
-105.50594622,40.29671773,3026.32
-105.50594581,40.29666197,3030.41
-105.50594579,40.29665899,3030.70
-105.50594574,40.29665278,3032.29
-105.50594555,40.29662782,3026.63
-105.50594546,40.29661539,3027.58
-105.50594544,40.29661206,3033.28
-105.50594505,40.29656016,3026.01
-105.50594481,40.29652863,3032.04
-105.50594478,40.29652449,3034.02
-105.50594455,40.29649323,3027.90
-105.50594449,40.29648593,3041.60
-105.50594394,40.29641161,3030.35
-105.50594327,40.29632206,3044.84
-105.50594304,40.29629098,3039.96
-105.50594242,40.29620719,3050.64
-105.50594225,40.29618458,3037.49
-105.50594213,40.29616917,3044.91
-105.50594190,40.29613854,3048.79
-105.50594167,40.29610791,3039.55
-105.50594160,40.29609854,3039.86
-105.50594158,40.29609566,3045.24
-105.50594088,40.29600179,3044.65
-105.50594046,40.29594566,3051.34
-105.50594045,40.29594341,3043.21
-105.50594041,40.29593800,3051.44
-105.50594033,40.29592719,3051.08
-105.50593998,40.29588017,3054.25
-105.50593993,40.29587395,3047.78
-105.50593979,40.29585512,3053.43
-105.50593974,40.29584908,3046.57
-105.50593964,40.29583566,3053.40
-105.50593956,40.29582458,3045.38
-105.50593923,40.29577963,3056.47
-105.50593914,40.29576809,3046.52
-105.50593902,40.29575206,3059.01
-105.50593895,40.29574287,3057.44
-105.50593890,40.29573584,3055.96
-105.50593856,40.29569062,3058.52
-105.50593817,40.29563782,3054.91
-105.50593802,40.29561836,3054.31
-105.50593754,40.29555305,3060.59
-105.50593693,40.29547134,3062.40
-105.50593678,40.29545161,3054.36
-105.50593652,40.29541728,3055.08
-105.50593650,40.29541404,3057.30
-105.50593645,40.29540692,3063.65
-105.50593636,40.29539593,3063.61
-105.50593624,40.29537963,3062.80
-105.50593615,40.29536728,3055.80
-105.50593610,40.29535981,3068.50
-105.50593597,40.29534251,3065.01
-105.50593578,40.29531791,3059.63
-105.50593563,40.29529710,3062.53
-105.50593420,40.29510629,3068.50
-105.50593406,40.29508656,3071.18
-105.50593405,40.29508512,3068.83
-105.50593376,40.29504701,3066.66
-105.50593315,40.29496485,3061.64
-105.50593312,40.29496152,3066.76
-105.50593300,40.29494539,3061.86
-105.50593260,40.29489071,3073.33
-105.50593201,40.29481152,3063.85
-105.50593181,40.29478530,3070.38
-105.50593176,40.29477918,3074.75
-105.50593176,40.29477900,3064.33
-105.50593172,40.29477368,3071.03
-105.50593172,40.29477269,3077.54
-105.50593107,40.29468548,3070.78
-105.50593102,40.29467882,3073.26
-105.50593062,40.29462593,3065.67
-105.50593015,40.29456323,3066.35
-105.50592987,40.29452476,3067.32
-105.50592904,40.29441449,3067.82
-105.50592889,40.29439314,3069.77
-105.50592827,40.29430999,3079.86
-105.50592819,40.29430026,3072.28
-105.50592816,40.29429521,3074.61
-105.50592707,40.29414999,3073.48
-105.50592691,40.29412783,3082.06
-105.50592689,40.29412503,3081.89
-105.50592646,40.29406756,3084.97
-105.50592618,40.29402981,3071.74
-105.50592549,40.29393720,3078.06
-105.50592520,40.29389945,3072.21
-105.50592483,40.29384918,3072.54
-105.50592435,40.29378521,3073.00
-105.50592428,40.29377540,3072.85
-105.50592424,40.29376999,3077.05
-105.50592421,40.29376576,3072.83
-105.50592417,40.29376080,3076.31
-105.50592411,40.29375287,3080.61
-105.50592398,40.29373558,3072.51
-105.50592379,40.29370927,3083.94
-105.50592344,40.29366278,3072.20
-105.50592298,40.29360161,3077.92
-105.50592292,40.29359287,3076.97
-105.50592243,40.29352801,3071.72
-105.50592203,40.29347440,3071.44
-105.50592189,40.29345531,3071.64
-105.50592148,40.29340071,3071.15
-105.50592135,40.29338251,3071.31
-105.50592101,40.29333747,3070.51
-105.50592089,40.29332107,3070.11
-105.50592002,40.29320477,3076.64
-105.50592001,40.29320269,3076.47
-105.50591990,40.29318810,3069.07
-105.50591973,40.29316495,3080.06
-105.50591951,40.29313612,3068.94
-105.50591923,40.29309891,3068.71
-105.50591919,40.29309350,3073.76
-105.50591849,40.29299891,3071.38
-105.50591828,40.29297170,3068.27
-105.50591825,40.29296684,3068.36
-105.50591824,40.29296612,3082.56
-105.50591816,40.29295459,3082.16
-105.50591785,40.29291378,3078.12
-105.50591737,40.29284918,3077.82
-105.50591716,40.29282035,3071.69
-105.50591670,40.29275927,3077.12
-105.50591663,40.29275026,3072.10
-105.50591663,40.29274972,3082.88
-105.50591636,40.29271396,3077.37
-105.50591596,40.29265981,3079.57
-105.50591589,40.29265053,3079.84
-105.50591564,40.29261720,3080.96
-105.50591564,40.29261657,3078.67
-105.50591561,40.29261278,3071.83
-105.50591557,40.29260783,3082.40
-105.50591553,40.29260179,3076.85
-105.50591547,40.29259432,3071.65
-105.50591529,40.29257017,3067.13
-105.50591505,40.29253729,3075.43
-105.50591490,40.29251828,3072.72
-105.50591475,40.29249828,3074.05
-105.50591444,40.29245648,3077.63
-105.50591441,40.29245161,3074.85
-105.50591437,40.29244630,3078.03
-105.50591433,40.29244080,3077.89
-105.50591428,40.29243504,3073.65
-105.50591420,40.29242369,3065.68
-105.50591397,40.29239342,3079.24
-105.50591366,40.29235134,3076.86
-105.50591346,40.29232459,3064.87
-105.50591330,40.29230260,3070.27
-105.50591316,40.29228513,3074.22
-105.50591316,40.29228387,3064.30
-105.50591279,40.29223450,3076.74
-105.50591268,40.29222071,3069.85
-105.50591259,40.29220864,3072.66
-105.50591258,40.29220666,3076.73
-105.50591246,40.29219035,3062.80
-105.50591241,40.29218324,3077.23
-105.50591233,40.29217342,3062.77
-105.50591203,40.29213324,3062.97
-105.50591156,40.29206963,3061.51
-105.50591120,40.29202098,3069.62
-105.50591119,40.29202008,3069.57
-105.50591090,40.29198161,3062.82
-105.50591089,40.29197954,3069.15
-105.50591046,40.29192252,3059.67
-105.50590952,40.29179684,3056.11
-105.50590925,40.29175972,3062.84
-105.50590922,40.29175558,3066.11
-105.50590913,40.29174459,3068.34
-105.50590911,40.29174188,3066.08
-105.50590907,40.29173621,3068.60
-105.50590907,40.29173594,3070.33
-105.50590904,40.29173261,3068.33
-105.50590898,40.29172360,3070.42
-105.50590884,40.29170495,3059.03
-105.50590883,40.29170405,3058.83
-105.50590883,40.29170396,3060.19
-105.50590839,40.29164522,3061.73
-105.50590807,40.29160152,3057.07
-105.50590774,40.29155756,3050.35
-105.50590725,40.29149225,3053.57
-105.50590708,40.29146864,3048.53
-105.50590698,40.29145567,3053.47
-105.50590697,40.29145441,3048.60
-105.50590683,40.29143513,3047.95
-105.50590671,40.29141891,3047.70
-105.50590647,40.29138675,3054.20
-105.50590622,40.29135423,3046.30
-105.50590601,40.29132585,3052.78
-105.50590595,40.29131810,3054.90
-105.50590588,40.29130756,3058.60
-105.50590584,40.29130288,3045.24
-105.50590536,40.29123783,3055.11
-105.50590531,40.29123198,3054.04
-105.50590498,40.29118774,3051.85
-105.50590496,40.29118468,3041.94
-105.50590476,40.29115810,3049.14
-105.50590439,40.29110900,3051.91
-105.50590417,40.29107909,3052.03
-105.50590368,40.29101288,3037.51
-105.50590362,40.29100576,3042.95
-105.50590305,40.29092873,3048.79
-105.50590299,40.29092026,3036.01
-105.50590295,40.29091513,3045.25
-105.50590281,40.29089585,3035.65
-105.50590276,40.29089017,3044.90
-105.50590275,40.29088891,3035.54
-105.50590258,40.29086504,3046.10
-105.50590253,40.29085828,3048.86
-105.50590251,40.29085576,3048.01
-105.50590222,40.29081765,3043.35
-105.50590143,40.29071117,3037.64
-105.50590127,40.29069008,3033.00
-105.50590122,40.29068297,3033.08
-105.50590108,40.29066450,3047.77
-105.50590108,40.29066423,3046.38
-105.50590105,40.29066072,3043.37
-105.50590092,40.29064315,3039.78
-105.50590091,40.29064135,3049.47
-105.50590077,40.29062279,3048.35
-105.50590047,40.29058261,3047.93
-105.50589998,40.29051738,3043.72
-105.50589987,40.29050207,3043.59
-105.50589953,40.29045657,3037.30
-105.50589944,40.29044513,3038.87
-105.50589877,40.29035423,3032.27
-105.50589871,40.29034657,3048.71
-105.50589859,40.29033054,3041.05
-105.50589855,40.29032522,3048.35
-105.50589849,40.29031702,3031.73
-105.50589785,40.29023153,3033.82
-105.50589707,40.29012675,3032.61
-105.50589686,40.29009891,3046.16
-105.50589680,40.29009018,3033.10
-105.50589677,40.29008648,3044.50
-105.50589617,40.29000567,3039.70
-105.50589616,40.29000441,3034.41
-105.50589599,40.28998126,3047.21
-105.50589573,40.28994711,3049.62
-105.50589561,40.28993153,3047.22
-105.50589545,40.28990991,3043.58
-105.50589510,40.28986243,3050.29
-105.50589452,40.28978495,3043.45
-105.50589445,40.28977576,3044.04
-105.50589330,40.28962063,3045.62
-105.50589312,40.28959630,3051.44
-105.50589306,40.28958909,3053.14
-105.50589189,40.28943135,3044.86
-105.50589167,40.28940297,3049.03
-105.50589136,40.28939279,3051.88
-105.50589087,40.28938964,3047.50
-105.50589016,40.28938910,3050.64
-105.50588780,40.28938893,3049.98
-105.50587156,40.28938837,3046.76
-105.50586145,40.28938815,3043.47
-105.50585133,40.28938801,3051.71
-105.50578945,40.28938828,3042.31
-105.50578168,40.28938831,3044.70
-105.50571274,40.28938862,3045.85
-105.50570627,40.28938864,3045.22
-105.50569804,40.28938868,3042.59
-105.50564909,40.28938889,3046.02
-105.50556498,40.28938926,3033.14
-105.50554286,40.28938936,3038.43
-105.50552416,40.28938944,3033.88
-105.50552392,40.28938944,3042.81
-105.50551780,40.28938947,3044.27
-105.50551604,40.28938948,3041.79
-105.50533663,40.28939026,3024.15
-105.50526146,40.28939059,3024.82
-105.50522204,40.28939076,3020.15
-105.50519852,40.28939086,3026.12
-105.50515216,40.28939106,3017.94
-105.50510228,40.28939128,3018.48
-105.50508440,40.28939136,3022.91
-105.50502852,40.28939160,3011.93
-105.50499358,40.28939176,3014.47
-105.50490264,40.28939215,3020.67
-105.50489899,40.28939217,3006.66
-105.50477664,40.28939270,3001.65
-105.50465241,40.28939325,2996.49
-105.50465029,40.28939325,2998.58
-105.50462194,40.28939338,2994.61
-105.50457935,40.28939356,2993.75
-105.50453488,40.28939376,2990.34
-105.50453017,40.28939378,2992.39
-105.50452700,40.28939379,2992.38
-105.50452453,40.28939380,2990.99
-105.50448041,40.28939400,2988.04
-105.50446676,40.28939405,2991.47
-105.50438806,40.28939440,2983.90
-105.50427512,40.28939489,2976.42
-105.50425689,40.28939497,2976.53
-105.50423830,40.28939505,2981.17
-105.50414983,40.28939544,2972.32
-105.50398971,40.28939613,2960.32
-105.50385725,40.28939671,2951.53
-105.50385548,40.28939672,2957.38
-105.50379831,40.28939697,2955.90
-105.50378784,40.28939701,2956.27
-105.50353090,40.28939813,2940.19
-105.50351737,40.28939819,2941.67
-105.50339737,40.28939871,2937.29
-105.50327267,40.28939926,2929.13
-105.50301220,40.28940039,2918.69
-105.50294667,40.28940067,2916.39
-105.50285350,40.28940108,2913.75
-105.50284009,40.28940114,2920.94
-105.50283762,40.28940115,2921.57
-105.50283515,40.28940116,2922.30
-105.50283068,40.28940118,2923.59
-105.50282868,40.28940119,2917.07
-105.50282738,40.28940119,2922.86
-105.50279726,40.28940132,2923.78
-105.50278362,40.28940138,2920.46
-105.50269421,40.28940177,2919.06
-105.50269385,40.28940177,2920.53
-105.50268338,40.28940182,2918.42
-105.50267868,40.28940184,2920.72
-105.50267597,40.28940185,2920.25
-105.50267397,40.28940186,2920.93
-105.50265974,40.28940192,2915.92
-105.50265527,40.28940194,2914.83
-105.50261680,40.28940211,2906.00
-105.50260915,40.28940214,2917.57
-105.50257409,40.28940229,2905.15
-105.50251009,40.28940257,2904.20
-105.50249080,40.28940265,2903.85
-105.50230833,40.28940345,2904.77
-105.50217869,40.28940401,2891.12
-105.50212257,40.28940425,2884.16
-105.50202234,40.28940469,2871.10
-105.50197399,40.28940490,2858.81
-105.50194575,40.28940502,2858.20
-105.50194269,40.28940503,2856.80
-105.50193940,40.28940505,2856.73
-105.50184763,40.28940544,2857.74
-105.50181046,40.28940561,2849.20
-105.50143623,40.28940723,2833.03
-105.50129847,40.28940783,2825.04
-105.50108918,40.28940873,2817.18
-105.50085036,40.28940977,2805.42
-105.50081224,40.28940993,2801.35
-105.50072424,40.28941031,2811.61
-105.50059860,40.28941086,2793.60
-105.50046142,40.28941145,2789.25
-105.50044684,40.28941151,2798.60
-105.50041343,40.28941166,2800.60
-105.50034943,40.28941193,2786.12
-105.50032449,40.28941204,2785.59
-105.50021143,40.28941253,2785.52
-105.50012896,40.28941289,2781.80
-105.50007684,40.28941311,2793.23
-105.50006061,40.28941318,2801.74
-105.49999390,40.28941347,2781.63
-105.49995108,40.28941366,2779.33
-105.49990802,40.28941384,2795.05
-105.49988814,40.28941393,2793.19
-105.49986355,40.28941403,2792.02
-105.49984755,40.28941410,2791.23
-105.49980544,40.28941428,2793.16
-105.49975332,40.28941451,2777.96
-105.49971026,40.28941470,2794.65
-105.49970991,40.28941470,2796.12
-105.49964885,40.28941496,2777.17
-105.49960944,40.28941513,2793.98
-105.49960662,40.28941514,2777.31
-105.49956697,40.28941531,2776.92
-105.49954662,40.28941540,2787.86
-105.49932980,40.28941634,2775.61
-105.49926133,40.28941663,2775.93
-105.49923509,40.28941675,2775.51
-105.49917086,40.28941702,2772.24
-105.49914509,40.28941714,2771.74
-105.49909298,40.28941736,2770.51
-105.49907168,40.28941745,2769.96
-105.49899180,40.28941780,2768.00
-105.49892180,40.28941810,2766.04
-105.49882722,40.28941851,2763.56
-105.49866628,40.28941920,2767.54
-105.49863322,40.28941934,2757.75
-105.49859628,40.28941950,2756.64
-105.49853758,40.28941975,2755.15
-105.49846005,40.28942009,2752.98
-105.49843687,40.28942019,2754.80
-105.49841475,40.28942028,2751.92
-105.49835087,40.28942056,2750.93
-105.49832252,40.28942068,2755.29
-105.49820546,40.28942119,2748.03
-105.49810664,40.28942161,2750.77
-105.49808829,40.28942169,2746.83
-105.49790606,40.28942247,2742.38
-105.49790500,40.28942248,2743.14
-105.49790064,40.28942250,2742.25
-105.49789900,40.28942250,2743.37
-105.49788876,40.28942255,2742.32
-105.49788770,40.28942255,2742.29
-105.49788700,40.28942256,2751.23
-105.49788653,40.28942256,2742.30
-105.49788041,40.28942258,2746.52
-105.49786923,40.28942263,2741.35
-105.49784841,40.28942272,2740.71
-105.49784817,40.28942272,2740.74
-105.49783935,40.28942276,2750.05
-105.49782723,40.28942281,2752.58
-105.49782665,40.28942282,2740.21
-105.49782370,40.28942283,2752.38
-105.49781582,40.28942286,2751.52
-105.49777688,40.28942303,2738.91
-105.49770959,40.28942332,2738.21
-105.49770535,40.28942334,2738.13
-105.49769277,40.28942339,2737.69
-105.49768924,40.28942341,2737.50
-105.49768724,40.28942342,2737.41
-105.49766030,40.28942353,2736.55
-105.49765300,40.28942356,2736.49
-105.49763865,40.28942362,2735.99
-105.49763018,40.28942366,2735.66
-105.49762418,40.28942369,2735.47
-105.49760865,40.28942375,2735.08
-105.49758983,40.28942383,2734.58
-105.49758159,40.28942387,2734.49
-105.49757053,40.28942392,2734.19
-105.49755653,40.28942398,2733.95
-105.49742559,40.28942454,2730.95
-105.49737054,40.28942478,2730.12
-105.49734418,40.28942489,2729.58
-105.49729465,40.28942510,2728.86
-105.49722983,40.28942538,2727.36
-105.49716830,40.28942565,2725.94
-105.49714030,40.28942577,2725.61
-105.49704984,40.28942616,2723.94
-105.49695937,40.28942654,2722.54
-105.49692972,40.28942667,2722.12
-105.49690149,40.28942679,2722.05
-105.49686407,40.28942695,2721.28
-105.49681396,40.28942717,2720.84
-105.49676572,40.28942738,2719.96
-105.49672561,40.28942755,2719.08
-105.49670196,40.28942765,2718.91
-105.49649655,40.28942853,2716.49
-105.49645443,40.28942871,2716.08
-105.49622444,40.28942970,2713.56
-105.49609750,40.28943024,2712.57
-105.49607773,40.28943033,2712.27
-105.49597479,40.28943077,2710.62
-105.49587150,40.28943121,2709.22
-105.49578421,40.28943159,2708.24
-105.49558068,40.28943246,2706.58
-105.49557092,40.28943250,2706.56
-105.49552363,40.28943270,2706.33
-105.49550821,40.28943277,2705.85
-105.49545351,40.28943300,2705.11
-105.49525939,40.28943383,2702.98
-105.49520928,40.28943405,2702.03
-105.49519128,40.28943412,2701.73
-105.49507434,40.28943463,2700.25
-105.49502869,40.28943482,2699.98
-105.49492740,40.28943525,2698.73
-105.49482540,40.28943569,2697.41
-105.49479987,40.28943580,2697.14
-105.49476623,40.28943594,2696.42
-105.49476352,40.28943595,2696.44
-105.49474752,40.28943602,2696.16
-105.49474352,40.28943604,2696.10
-105.49471599,40.28943616,2695.94
-105.49462235,40.28943656,2694.45
-105.49429670,40.28943804,2689.28
-105.49417400,40.28943865,2687.34
-105.49413165,40.28943893,2686.61
-105.49412884,40.28944101,2686.51
-105.49412721,40.28944264,2686.53
-105.49412757,40.28949183,2689.07
-105.49412800,40.28955219,2687.36
-105.49412828,40.28959057,2694.75
-105.49413029,40.28986660,2700.73
-105.49413035,40.28987426,2685.96
-105.49413045,40.28988777,2696.59
-105.49413081,40.28993705,2697.66
-105.49413082,40.28993922,2697.62
-105.49413092,40.28995183,2697.29
-105.49413094,40.28995462,2697.60
-105.49413094,40.28995471,2695.13
-105.49413094,40.28995552,2685.63
-105.49413105,40.28997030,2694.99
-105.49413131,40.29000588,2685.50
-105.49413145,40.29002507,2695.77
-105.49413160,40.29004615,2696.75
-105.49413176,40.29006822,2685.82
-105.49413184,40.29007822,2686.04
-105.49413215,40.29012192,2684.77
-105.49413271,40.29019840,2694.79
-105.49413276,40.29020489,2695.40
-105.49413347,40.29030246,2682.57
-105.49413375,40.29034165,2682.07
-105.49413412,40.29039192,2692.88
-105.49413464,40.29046300,2680.49
-105.49413471,40.29047345,2695.34
-105.49413567,40.29060480,2678.71
-105.49413617,40.29067282,2699.59
-105.49413626,40.29068633,2692.91
-105.49413653,40.29072345,2679.70
-105.49413655,40.29072561,2678.59
-105.49413752,40.29085858,2678.72
-105.49413836,40.29097354,2687.81
-105.49413956,40.29113886,2690.22
-105.49413986,40.29117985,2696.42
-105.49414034,40.29124552,2680.71
-105.49414069,40.29129381,2692.92
-105.49414080,40.29130967,2696.98
-105.49414088,40.29131985,2691.14
-105.49414197,40.29147012,2691.84
-105.49414199,40.29147201,2690.12
-105.49414210,40.29148768,2682.29
-105.49414218,40.29149868,2689.64
-105.49414219,40.29150003,2682.42
-105.49414220,40.29150066,2682.42
-105.49414220,40.29150093,2693.05
-105.49414224,40.29150615,2682.46
-105.49414224,40.29150741,2695.46
-105.49414227,40.29151021,2697.63
-105.49414263,40.29156003,2682.89
-105.49414267,40.29156615,2691.92
-105.49414317,40.29163381,2694.02
-105.49414321,40.29164003,2683.47
-105.49414456,40.29182570,2683.84
-105.49414488,40.29186985,2695.14
-105.49414490,40.29187138,2684.02
-105.49414500,40.29188624,2697.13
-105.49414513,40.29190363,2693.08
-105.49414516,40.29190777,2697.20
-105.49414682,40.29213498,2697.87
-105.49414779,40.29226822,2697.71
-105.49414795,40.29229066,2691.43
-105.49414825,40.29233156,2697.57
-105.49414835,40.29234507,2695.46
-105.49414841,40.29235345,2697.93
-105.49414930,40.29247534,2689.00
-105.49414996,40.29256642,2696.56
-105.49414997,40.29256832,2696.52
-105.49414999,40.29257084,2691.38
-105.49415009,40.29258408,2696.12
-105.49415039,40.29262642,2689.25
-105.49415042,40.29262958,2690.12
-105.49415067,40.29266372,2694.71
-105.49415101,40.29271048,2688.61
-105.49415290,40.29297093,2692.56
-105.49415331,40.29302624,2704.94
-105.49415361,40.29306832,2694.01
-105.49415372,40.29308246,2702.52
-105.49415375,40.29308714,2694.22
-105.49415407,40.29313156,2695.70
-105.49415409,40.29313372,2696.56
-105.49415494,40.29325003,2708.15
-105.49415506,40.29326723,2714.61
-105.49415624,40.29342877,2710.19
-105.49415746,40.29359579,2719.25
-105.49415752,40.29360462,2707.07
-105.49415790,40.29365669,2717.87
-105.49415797,40.29366633,2714.29
-105.49415816,40.29369291,2708.27
-105.49415831,40.29371264,2710.07
-105.49415835,40.29371822,2717.37
-105.49415956,40.29388462,2711.28
-105.49416002,40.29394823,2711.95
-105.49416028,40.29398390,2712.63
-105.49416061,40.29402895,2713.87
-105.49416081,40.29405579,2714.36
-105.49416235,40.29426714,2719.61
-105.49416247,40.29428417,2723.28
-105.49416292,40.29434588,2725.50
-105.49416296,40.29435093,2725.86
-105.49416315,40.29437696,2723.82
-105.49416408,40.29450570,2737.03
-105.49416416,40.29451615,2738.37
-105.49416442,40.29455219,2726.09
-105.49416516,40.29465291,2728.45
-105.49416525,40.29466606,2730.53
-105.49416556,40.29470886,2729.88
-105.49416602,40.29477111,2736.51
-105.49416615,40.29478904,2731.91
-105.49416621,40.29479687,2732.03
-105.49416629,40.29480795,2738.64
-105.49416669,40.29486318,2739.96
-105.49416717,40.29492958,2734.17
-105.49416737,40.29495615,2738.28
-105.49416835,40.29509093,2742.41
-105.49416857,40.29512165,2739.01
-105.49416860,40.29512606,2739.05
-105.49416884,40.29515877,2741.19
-105.49416918,40.29520534,2743.48
-105.49416939,40.29523345,2748.66
-105.49416963,40.29526696,2742.47
-105.49417142,40.29551273,2749.69
-105.49417143,40.29551372,2749.63
-105.49417252,40.29566345,2751.51
-105.49417384,40.29584552,2761.35
-105.49417399,40.29586507,2763.14
-105.49417573,40.29610363,2767.92
-105.49417671,40.29623877,2775.63
-105.49417732,40.29632282,2767.32
-105.49417802,40.29641876,2770.01
-105.49417880,40.29652552,2774.92
-105.49417959,40.29663462,2776.59
-105.49417964,40.29664147,2776.68
-105.49418001,40.29669120,2782.49
-105.49418068,40.29678309,2780.95
-105.49418138,40.29688003,2786.21
-105.49418223,40.29699723,2787.20
-105.49418227,40.29700138,2794.67
-105.49418242,40.29702273,2787.85
-105.49418267,40.29705678,2791.69
-105.49418271,40.29706237,2793.31
-105.49418318,40.29712660,2791.07
-105.49418380,40.29721183,2793.57
-105.49418405,40.29724669,2794.58
-105.49418411,40.29725498,2794.87
-105.49418422,40.29726940,2795.19
-105.49418509,40.29738849,2798.91
-105.49418585,40.29749309,2802.06
-105.49418639,40.29756705,2807.32
-105.49418706,40.29766021,2807.09
-105.49418742,40.29770949,2809.50
-105.49418749,40.29771822,2808.84
-105.49418750,40.29772012,2812.60
-105.49418752,40.29772336,2810.52
-105.49418769,40.29774543,2813.28
-105.49418804,40.29779390,2815.34
-105.49418807,40.29779768,2813.09
-105.49418908,40.29793714,2814.36
-105.49418916,40.29794714,2817.58
-105.49418947,40.29799057,2815.44
-105.49418982,40.29803813,2819.31
-105.49418988,40.29804696,2819.81
-105.49419011,40.29807858,2817.04
-105.49419037,40.29811417,2817.54
-105.49419046,40.29812615,2820.95
-105.49419053,40.29813516,2821.65
-105.49419060,40.29814597,2818.15
-105.49419082,40.29817624,2818.55
-105.49419087,40.29818255,2818.71
-105.49419097,40.29819570,2821.66
-105.49419105,40.29820750,2821.19
-105.49419142,40.29825813,2823.03
-105.49419176,40.29830444,2824.46
-105.49419178,40.29830741,2822.49
-105.49419266,40.29842867,2822.98
-105.49419466,40.29844479,2822.22
-105.49421339,40.29844696,2826.27
-105.49421645,40.29844731,2826.94
-105.49422951,40.29844744,2822.63
-105.49427187,40.29844725,2823.19
-105.49434470,40.29844694,2828.66
-105.49434576,40.29844694,2827.77
-105.49434976,40.29844692,2824.46
-105.49443354,40.29844656,2827.62
-105.49443565,40.29844655,2826.07
-105.49447507,40.29844639,2831.10
-105.49453896,40.29844611,2831.63
-105.49454061,40.29844611,2830.49
-105.49454343,40.29844609,2828.52
-105.49460814,40.29844582,2830.04
-105.49463768,40.29844569,2833.91
-105.49467403,40.29844554,2835.96
-105.49477687,40.29844510,2836.77
-105.49481076,40.29844495,2834.68
-105.49487523,40.29844467,2840.31
-105.49487853,40.29844466,2836.40
-105.49493489,40.29844442,2841.77
-105.49496019,40.29844431,2841.10
-105.49496207,40.29844430,2838.31
-105.49497725,40.29844424,2840.36
-105.49499807,40.29844415,2841.50
-105.49501431,40.29844408,2841.14
-105.49506102,40.29844388,2843.26
-105.49508114,40.29844379,2844.38
-105.49515268,40.29844349,2845.33
-105.49516962,40.29844342,2844.57
-105.49521563,40.29844322,2843.02
-105.49522963,40.29844316,2845.23
-105.49523045,40.29844315,2843.19
-105.49524904,40.29844308,2843.53
-105.49529446,40.29844288,2844.17
-105.49538894,40.29844248,2846.91
-105.49543636,40.29844227,2849.47
-105.49543706,40.29844227,2850.59
-105.49551943,40.29844192,2850.17
-105.49555449,40.29844177,2853.62
-105.49555461,40.29844177,2852.21
-105.49556932,40.29844170,2850.36
-105.49564685,40.29844137,2848.65
-105.49566886,40.29844128,2849.12
-105.49573757,40.29844098,2850.42
-105.49578769,40.29844077,2855.17
-105.49579475,40.29844074,2856.64
-105.49580087,40.29844071,2855.87
-105.49584829,40.29844051,2852.45
-105.49589959,40.29844029,2853.18
-105.49593136,40.29844015,2858.98
-105.49596748,40.29844000,2854.36
-105.49598666,40.29843992,2861.61
-105.49600019,40.29843986,2858.65
-105.49612114,40.29843934,2862.51
-105.49615585,40.29843919,2858.36
-105.49616715,40.29843914,2861.71
-105.49625434,40.29843877,2861.69
-105.49631917,40.29843849,2861.63
-105.49639871,40.29843815,2859.76
-105.49644718,40.29843794,2855.86
-105.49645165,40.29843792,2856.10
-105.49645577,40.29843790,2856.30
-105.49665038,40.29843707,2849.38
-105.49681111,40.29843638,2844.92
-105.49681299,40.29843637,2847.50
-105.49697454,40.29843568,2840.41
-105.49721880,40.29843463,2835.76
-105.49731834,40.29843420,2834.04
-105.49732670,40.29843416,2834.37
-105.49738553,40.29843391,2835.69
-105.49751001,40.29843338,2828.94
-105.49756425,40.29843314,2827.80
-105.49759849,40.29843300,2833.01
-105.49780428,40.29843211,2828.09
-105.49793936,40.29843153,2829.45
-105.49803584,40.29843111,2825.94
-105.49803701,40.29843111,2826.71
-105.49856484,40.29842883,2826.33
-105.49875039,40.29842803,2828.57
-105.49880887,40.29842778,2832.84
-105.49880993,40.29842778,2834.27
-105.49899642,40.29842697,2830.77
-105.49902607,40.29842685,2833.53
-105.49911773,40.29842645,2837.54
-105.49914032,40.29842635,2838.82
-105.49917962,40.29842618,2838.87
-105.49938893,40.29842528,2839.58
-105.49939293,40.29842526,2835.78
-105.49940341,40.29842522,2841.00
-105.49942882,40.29842511,2839.10
-105.49949742,40.29842481,2837.51
-105.49958802,40.29842442,2843.53
-105.49959213,40.29842440,2843.73
-105.49960378,40.29842435,2844.40
-105.49962331,40.29842427,2845.39
-105.49970803,40.29842390,2846.24
-105.49996594,40.29842279,2844.00
-105.49997006,40.29842277,2844.13
     </coordinates>
    </LineString>
   </MultiGeometry>
  </Placemark>
 </Document>
</kml>
