<kml>
 <Document>
  <Style id="yellow">
   <LineStyle>
   <color>ff00ffff</color>
   <width>1</width>
   </LineStyle>
  </Style>
  <Style id="red">
   <LineStyle>
   <color>ffff0000</color>
   <width>2</width>
   </LineStyle>
  </Style>
  <Style id="green">
   <LineStyle>
   <color>ff00ff00</color>
   <width>1</width>
   </LineStyle>
  </Style>
  <Placemark>
  <styleUrl>#yellow</styleUrl>
   <MultiGeometry>
    <LineString>
     <coordinates>
-105.48700427,40.28045948,2673.02
-105.48700898,40.28045946,2671.85
-105.48704721,40.28045930,2681.41
-105.48713884,40.28045891,2671.93
-105.48721860,40.28045858,2677.38
-105.48722377,40.28045856,2675.78
-105.48723953,40.28045849,2670.79
-105.48727612,40.28045834,2666.33
-105.48732282,40.28045814,2663.56
-105.48735846,40.28045799,2671.69
-105.48746879,40.28045752,2660.07
-105.48747115,40.28045751,2669.15
-105.48747456,40.28045750,2669.66
-105.48748726,40.28045745,2663.86
-105.48749455,40.28045742,2661.67
-105.48763618,40.28045682,2660.60
-105.48764877,40.28045677,2661.56
-105.48765124,40.28045676,2660.76
-105.48773758,40.28045639,2654.40
-105.48777687,40.28045623,2661.12
-105.48780145,40.28045612,2660.93
-105.48780745,40.28045610,2658.50
-105.48780851,40.28045609,2658.62
-105.48782839,40.28045601,2652.05
-105.48792226,40.28045561,2650.04
-105.48797966,40.28045537,2648.33
-105.48803118,40.28045515,2647.33
-105.48809400,40.28045489,2646.10
-105.48812246,40.28045477,2646.41
-105.48814658,40.28045467,2644.73
-105.48815587,40.28045463,2644.56
-105.48816504,40.28045459,2647.30
-105.48818116,40.28045452,2651.52
-105.48819139,40.28045448,2653.02
-105.48821880,40.28045436,2648.12
-105.48823974,40.28045427,2643.92
-105.48824539,40.28045425,2643.07
-105.48825362,40.28045422,2644.04
-105.48827326,40.28045413,2642.84
-105.48828750,40.28045407,2644.91
-105.48830538,40.28045400,2642.51
-105.48832161,40.28045393,2643.56
-105.48839313,40.28045363,2650.68
-105.48842030,40.28045351,2646.48
-105.48842136,40.28045351,2648.59
-105.48843889,40.28045343,2649.87
-105.48844077,40.28045343,2648.97
-105.48844112,40.28045342,2645.85
-105.48850852,40.28045314,2652.08
-105.48851088,40.28045313,2654.49
-105.48851276,40.28045312,2650.06
-105.48851829,40.28045310,2657.17
-105.48852534,40.28045307,2650.28
-105.48860827,40.28045272,2659.22
-105.48866485,40.28045248,2652.94
-105.48867215,40.28045245,2653.22
-105.48879119,40.28045195,2658.02
-105.48883836,40.28045175,2662.56
-105.48884283,40.28045173,2667.06
-105.48884906,40.28045170,2662.85
-105.48897881,40.28045115,2665.01
-105.48898692,40.28045112,2669.84
-105.48899575,40.28045108,2673.58
-105.48903833,40.28045090,2666.71
-105.48910832,40.28045061,2672.75
-105.48916584,40.28045036,2670.74
-105.48918466,40.28045028,2674.58
-105.48918995,40.28045026,2671.36
-105.48923665,40.28045006,2680.64
-105.48942486,40.28044927,2669.32
-105.48942827,40.28044925,2668.35
-105.48972199,40.28044801,2656.04
-105.48983127,40.28044755,2648.89
-105.48983150,40.28044755,2658.36
-105.48999842,40.28044684,2647.91
-105.49005724,40.28044659,2660.58
-105.49005782,40.28044659,2660.51
-105.49005935,40.28044658,2658.44
-105.49010664,40.28044638,2654.41
-105.49012099,40.28044632,2653.37
-105.49015099,40.28044619,2643.58
-105.49028697,40.28044562,2643.34
-105.49042330,40.28044504,2643.16
-105.49049917,40.28044472,2653.63
-105.49050423,40.28044470,2652.19
-105.49052646,40.28044460,2649.04
-105.49061315,40.28044423,2651.43
-105.49063927,40.28044412,2643.57
-105.49066844,40.28044400,2651.31
-105.49066985,40.28044399,2650.03
-105.49067126,40.28044399,2648.70
-105.49067585,40.28044397,2643.46
-105.49073302,40.28044373,2654.49
-105.49074043,40.28044370,2657.04
-105.49085076,40.28044323,2654.85
-105.49085629,40.28044320,2653.14
-105.49085688,40.28044320,2652.53
-105.49086770,40.28044315,2649.79
-105.49087958,40.28044310,2646.02
-105.49098804,40.28044264,2652.56
-105.49104897,40.28044239,2662.38
-105.49105426,40.28044236,2661.25
-105.49106662,40.28044231,2657.32
-105.49112155,40.28044208,2660.22
-105.49113566,40.28044202,2649.85
-105.49118495,40.28044181,2656.53
-105.49120542,40.28044172,2663.02
-105.49131058,40.28044128,2651.04
-105.49140692,40.28044087,2652.17
-105.49144668,40.28044070,2659.75
-105.49146738,40.28044061,2665.01
-105.49151937,40.28044039,2664.66
-105.49161136,40.28044000,2654.43
-105.49177851,40.28043929,2665.04
-105.49198413,40.28043841,2659.28
-105.49207035,40.28043805,2660.67
-105.49212716,40.28043781,2671.44
-105.49221703,40.28043742,2672.71
-105.49222033,40.28043741,2671.34
-105.49222903,40.28043737,2676.78
-105.49223421,40.28043735,2673.96
-105.49223727,40.28043734,2672.54
-105.49225409,40.28043727,2664.06
-105.49231855,40.28043699,2672.76
-105.49232619,40.28043696,2665.91
-105.49239983,40.28043665,2673.81
-105.49241783,40.28043657,2668.53
-105.49247876,40.28043631,2679.46
-105.49248288,40.28043629,2677.93
-105.49260745,40.28043576,2686.08
-105.49261427,40.28043573,2683.10
-105.49261674,40.28043572,2685.40
-105.49279083,40.28043498,2684.33
-105.49279295,40.28043497,2683.62
-105.49280012,40.28043494,2681.29
-105.49293563,40.28043436,2694.10
-105.49297986,40.28043418,2692.86
-105.49299656,40.28043410,2693.59
-105.49309643,40.28043368,2702.59
-105.49309749,40.28043367,2702.66
-105.49310420,40.28043365,2700.19
-105.49311878,40.28043358,2693.69
-105.49312302,40.28043357,2696.66
-105.49317924,40.28043333,2705.17
-105.49318054,40.28043332,2701.83
-105.49319089,40.28043328,2698.94
-105.49322735,40.28043312,2695.13
-105.49325358,40.28043301,2698.12
-105.49325805,40.28043299,2696.31
-105.49331746,40.28043274,2703.57
-105.49332240,40.28043272,2698.92
-105.49335722,40.28043257,2708.29
-105.49335839,40.28043256,2707.40
-105.49337121,40.28043251,2703.35
-105.49337733,40.28043248,2705.48
-105.49343438,40.28043224,2702.88
-105.49345908,40.28043213,2703.58
-105.49353707,40.28043180,2710.73
-105.49357812,40.28043163,2714.28
-105.49358001,40.28043162,2716.79
-105.49369375,40.28043113,2716.98
-105.49370140,40.28043110,2716.21
-105.49387867,40.28043034,2721.37
-105.49388361,40.28043032,2719.84
-105.49396830,40.28042996,2726.32
-105.49397230,40.28042994,2725.97
-105.49405982,40.28042948,2729.75
-105.49406083,40.28042389,2729.58
-105.49406105,40.28042173,2724.20
-105.49406097,40.28039425,2723.80
-105.49406087,40.28036371,2725.57
-105.49406069,40.28032344,2727.02
-105.49406011,40.28024398,2725.07
-105.49406011,40.28024317,2730.49
-105.49406003,40.28023235,2729.70
-105.49405999,40.28022659,2729.66
-105.49405938,40.28014280,2728.96
-105.49405927,40.28012848,2726.69
-105.49405903,40.28009551,2723.51
-105.49405865,40.28004280,2724.62
-105.49405851,40.28002398,2722.91
-105.49405803,40.27995740,2728.61
-105.49405795,40.27994722,2726.85
-105.49405793,40.27994443,2722.17
-105.49405786,40.27993380,2727.73
-105.49405777,40.27992262,2721.96
-105.49405768,40.27990938,2721.97
-105.49405744,40.27987623,2731.66
-105.49405710,40.27983055,2722.02
-105.49405705,40.27982253,2729.90
-105.49405659,40.27976001,2730.95
-105.49405529,40.27958073,2723.23
-105.49405482,40.27951722,2724.20
-105.49405466,40.27949542,2727.47
-105.49405453,40.27947749,2733.75
-105.49405439,40.27945731,2728.06
-105.49405339,40.27932073,2734.89
-105.49405249,40.27919677,2737.64
-105.49405234,40.27917668,2736.57
-105.49405229,40.27916920,2734.44
-105.49405227,40.27916587,2732.10
-105.49405218,40.27915451,2731.09
-105.49405193,40.27912001,2734.56
-105.49405174,40.27909343,2743.85
-105.49405170,40.27908830,2750.76
-105.49405163,40.27907848,2738.48
-105.49405162,40.27907767,2738.34
-105.49405156,40.27906911,2735.94
-105.49405134,40.27903875,2737.53
-105.49405120,40.27901884,2736.92
-105.49405118,40.27901623,2732.61
-105.49405096,40.27898596,2741.14
-105.49405086,40.27897289,2742.65
-105.49405064,40.27894190,2731.98
-105.49404979,40.27882514,2734.50
-105.49404878,40.27868668,2734.33
-105.49404820,40.27860667,2730.89
-105.49404736,40.27849154,2740.43
-105.49404647,40.27836974,2750.86
-105.49404633,40.27835019,2752.16
-105.49404595,40.27829830,2743.81
-105.49404547,40.27823271,2744.28
-105.49404462,40.27811568,2754.68
-105.49404379,40.27800154,2751.74
-105.49404364,40.27798064,2751.39
-105.49404352,40.27796451,2751.88
-105.49404315,40.27791289,2752.95
-105.49404299,40.27789181,2757.06
-105.49404287,40.27787460,2759.47
-105.49404274,40.27785766,2757.61
-105.49404270,40.27785118,2758.35
-105.49404266,40.27784622,2754.87
-105.49404262,40.27784055,2755.16
-105.49404173,40.27771847,2768.39
-105.49403970,40.27745613,2768.90
-105.49403741,40.27712478,2783.51
-105.49403721,40.27709784,2779.54
-105.49403692,40.27705685,2788.63
-105.49403690,40.27705505,2788.71
-105.49403682,40.27704433,2785.30
-105.49403531,40.27683568,2794.41
-105.49403524,40.27682658,2790.62
-105.49403399,40.27665487,2782.41
-105.49403396,40.27665126,2783.43
-105.49403365,40.27660856,2780.84
-105.49403323,40.27655036,2777.40
-105.49403322,40.27654892,2780.63
-105.49403320,40.27654676,2780.81
-105.49403316,40.27654027,2776.98
-105.49403313,40.27653703,2783.47
-105.49403309,40.27653171,2783.32
-105.49403308,40.27652937,2782.27
-105.49403306,40.27652766,2785.53
-105.49403301,40.27651964,2784.55
-105.49403291,40.27650721,2776.24
-105.49403273,40.27648207,2780.14
-105.49403272,40.27648027,2774.13
-105.49403257,40.27645946,2773.05
-105.49403243,40.27644027,2775.51
-105.49403209,40.27639415,2769.50
-105.49403163,40.27633072,2768.06
-105.49403158,40.27632334,2769.35
-105.49403156,40.27632063,2771.99
-105.49403155,40.27631955,2767.88
-105.49403124,40.27627703,2782.89
-105.49403101,40.27624496,2771.10
-105.49403047,40.27617072,2763.93
-105.49403010,40.27612063,2762.46
-105.49402969,40.27606378,2761.24
-105.49402966,40.27605964,2760.19
-105.49402944,40.27602991,2763.84
-105.49402922,40.27599910,2762.75
-105.49402889,40.27595460,2756.39
-105.49402882,40.27594523,2756.36
-105.49402860,40.27591432,2755.73
-105.49402775,40.27579757,2753.04
-105.49402752,40.27576604,2752.41
-105.49402703,40.27569901,2752.55
-105.49402589,40.27554153,2749.00
-105.49402548,40.27548604,2747.22
-105.49402507,40.27542865,2747.55
-105.49402466,40.27537234,2758.85
-105.49402450,40.27535036,2753.82
-105.49402442,40.27534063,2755.95
-105.49402382,40.27525712,2755.67
-105.49402312,40.27516180,2754.26
-105.49402180,40.27497955,2751.97
-105.49402154,40.27494369,2751.92
-105.49402053,40.27480531,2751.05
-105.49402047,40.27479774,2761.07
-105.49402044,40.27479369,2759.58
-105.49402038,40.27478504,2764.72
-105.49402008,40.27474360,2753.94
-105.49401985,40.27471144,2758.46
-105.49401968,40.27468901,2759.75
-105.49401965,40.27468459,2759.92
-105.49401957,40.27467306,2760.14
-105.49401942,40.27465297,2757.89
-105.49401905,40.27460216,2765.77
-105.49401700,40.27431991,2781.72
-105.49401652,40.27425378,2777.76
-105.49401650,40.27425144,2792.40
-105.49401587,40.27416540,2785.01
-105.49401583,40.27415990,2783.89
-105.49401578,40.27415342,2783.77
-105.49401522,40.27407603,2787.78
-105.49401504,40.27405171,2795.48
-105.49401493,40.27403648,2790.49
-105.49401413,40.27392603,2801.43
-105.49401371,40.27386837,2802.70
-105.49401349,40.27383756,2802.43
-105.49401338,40.27382324,2800.66
-105.49401325,40.27380450,2805.10
-105.49401318,40.27379612,2800.78
-105.49401317,40.27379441,2800.69
-105.49401309,40.27378252,2805.01
-105.49401303,40.27377432,2807.37
-105.49401293,40.27376116,2805.20
-105.49401282,40.27374585,2806.21
-105.49401278,40.27374107,2804.75
-105.49401111,40.27351107,2806.40
-105.49401080,40.27346801,2802.57
-105.49400906,40.27322927,2801.45
-105.49400884,40.27319846,2801.46
-105.49400879,40.27319161,2806.28
-105.49400858,40.27316359,2801.31
-105.49400792,40.27307296,2801.05
-105.49400780,40.27305621,2800.89
-105.49400749,40.27301287,2800.76
-105.49400740,40.27300062,2800.67
-105.49400734,40.27299341,2800.66
-105.49400634,40.27285522,2801.44
-105.49400601,40.27281035,2801.83
-105.49400512,40.27268783,2809.24
-105.49400465,40.27262260,2803.74
-105.49400452,40.27260467,2816.57
-105.49400442,40.27259134,2804.66
-105.49400413,40.27255197,2804.06
-105.49400352,40.27246738,2813.85
-105.49400318,40.27242179,2814.17
-105.49400292,40.27238566,2805.79
-105.49400267,40.27235107,2806.19
-105.49400265,40.27234828,2806.33
-105.49400215,40.27227945,2806.79
-105.49400156,40.27219828,2807.33
-105.49400134,40.27216900,2807.78
-105.49400131,40.27216440,2807.88
-105.49400124,40.27215413,2808.01
-105.49400121,40.27214981,2824.56
-105.49400119,40.27214828,2823.52
-105.49400115,40.27214242,2808.57
-105.49400114,40.27214017,2811.66
-105.49400112,40.27213792,2822.20
-105.49400111,40.27213728,2816.40
-105.49400101,40.27212278,2808.36
-105.49400094,40.27211395,2808.47
-105.49400068,40.27207737,2821.05
-105.49400016,40.27200575,2815.48
-105.49400009,40.27199620,2810.14
-105.49399951,40.27191629,2811.83
-105.49399946,40.27191044,2821.95
-105.49399680,40.27154404,2817.72
-105.49399591,40.27142224,2824.80
-105.49399461,40.27142134,2820.11
-105.49397979,40.27142086,2823.81
-105.49395426,40.27142079,2819.25
-105.49387099,40.27142115,2818.18
-105.49384735,40.27142125,2817.85
-105.49377773,40.27142155,2822.72
-105.49376232,40.27142161,2826.17
-105.49374021,40.27142171,2815.66
-105.49367987,40.27142196,2829.07
-105.49367764,40.27142197,2820.47
-105.49364318,40.27142212,2813.08
-105.49356284,40.27142246,2815.70
-105.49351098,40.27142268,2819.79
-105.49350780,40.27142270,2817.54
-105.49332209,40.27142349,2804.06
-105.49320894,40.27142397,2814.64
-105.49319812,40.27142402,2800.44
-105.49313250,40.27142430,2803.80
-105.49312767,40.27142432,2798.25
-105.49309839,40.27142444,2805.50
-105.49300171,40.27142486,2801.58
-105.49299253,40.27142489,2802.25
-105.49299183,40.27142490,2802.11
-105.49297525,40.27142497,2793.90
-105.49277318,40.27142583,2796.15
-105.49274425,40.27142595,2786.96
-105.49263146,40.27142643,2794.91
-105.49258359,40.27142664,2783.79
-105.49250291,40.27142698,2785.93
-105.49248162,40.27142707,2784.02
-105.49244692,40.27142722,2787.40
-105.49242528,40.27142731,2786.93
-105.49238976,40.27142746,2781.27
-105.49236553,40.27142756,2789.90
-105.49236083,40.27142758,2790.12
-105.49222028,40.27142818,2779.25
-105.49219723,40.27142828,2778.99
-105.49212643,40.27142858,2787.89
-105.49212313,40.27142860,2787.98
-105.49208667,40.27142875,2778.11
-105.49208408,40.27142876,2781.72
-105.49163245,40.27143068,2766.76
-105.49144826,40.27143146,2770.00
-105.49142309,40.27143157,2777.16
-105.49131924,40.27143201,2773.55
-105.49129842,40.27143210,2774.57
-105.49124056,40.27143235,2777.47
-105.49118422,40.27143258,2772.47
-105.49109813,40.27143295,2776.80
-105.49090006,40.27143379,2786.39
-105.49082703,40.27143410,2781.73
-105.49079504,40.27143424,2783.28
-105.49056075,40.27143523,2794.87
-105.49053723,40.27143533,2788.56
-105.49051500,40.27143542,2797.12
-105.49050700,40.27143546,2797.51
-105.49045407,40.27143568,2799.98
-105.49045007,40.27143570,2800.06
-105.49042032,40.27143582,2801.57
-105.49026048,40.27143650,2792.48
-105.49023731,40.27143660,2802.98
-105.49019650,40.27143677,2805.10
-105.49019262,40.27143679,2805.21
-105.49018897,40.27143681,2805.42
-105.49015239,40.27143696,2807.15
-105.49004231,40.27143743,2812.45
-105.49003607,40.27143745,2796.24
-105.48981860,40.27143837,2798.41
-105.48980743,40.27143842,2799.01
-105.48980378,40.27143844,2799.18
-105.48977591,40.27143855,2799.28
-105.48971781,40.27143880,2808.29
-105.48960560,40.27143927,2806.11
-105.48958879,40.27143935,2801.98
-105.48956126,40.27143946,2806.24
-105.48948811,40.27143977,2811.07
-105.48948176,40.27143980,2807.16
-105.48947364,40.27143983,2808.46
-105.48934650,40.27144037,2815.72
-105.48934180,40.27144039,2802.61
-105.48928381,40.27144064,2811.85
-105.48923053,40.27144086,2803.33
-105.48921771,40.27144092,2811.03
-105.48905305,40.27144161,2818.69
-105.48904741,40.27144164,2811.67
-105.48898037,40.27144192,2815.05
-105.48886040,40.27144243,2816.53
-105.48875690,40.27144286,2808.05
-105.48870739,40.27144307,2808.42
-105.48867598,40.27144320,2808.54
-105.48854590,40.27144375,2818.09
-105.48854226,40.27144377,2818.25
-105.48853896,40.27144378,2809.87
-105.48847075,40.27144407,2821.66
-105.48842335,40.27144427,2810.76
-105.48835819,40.27144455,2810.69
-105.48829785,40.27144480,2820.64
-105.48828727,40.27144485,2821.03
-105.48827374,40.27144490,2821.69
-105.48826680,40.27144493,2810.83
-105.48817095,40.27144534,2820.51
-105.48815589,40.27144540,2811.54
-105.48815507,40.27144540,2811.43
-105.48813837,40.27144547,2821.02
-105.48811708,40.27144556,2811.60
-105.48807098,40.27144576,2819.58
-105.48801323,40.27144600,2823.54
-105.48799782,40.27144607,2820.87
-105.48797147,40.27144618,2813.13
-105.48791232,40.27144643,2813.85
-105.48790879,40.27144644,2813.91
-105.48787491,40.27144658,2833.34
-105.48785986,40.27144665,2814.43
-105.48782199,40.27144681,2815.06
-105.48778623,40.27144696,2816.07
-105.48765745,40.27144750,2826.58
-105.48765309,40.27144752,2825.91
-105.48764792,40.27144754,2817.17
-105.48751784,40.27144809,2823.13
-105.48750596,40.27144814,2825.82
-105.48739470,40.27144861,2819.76
-105.48733436,40.27144886,2820.08
-105.48710078,40.27144985,2825.92
-105.48709772,40.27144986,2820.48
-105.48709701,40.27144986,2826.55
-105.48706361,40.27145000,2820.53
-105.48684791,40.27145091,2821.30
-105.48669360,40.27145156,2824.56
-105.48657492,40.27145206,2831.93
-105.48654258,40.27145219,2823.57
-105.48639592,40.27145281,2831.24
-105.48633405,40.27145307,2835.80
-105.48629924,40.27145322,2825.82
-105.48605977,40.27145422,2833.52
-105.48605072,40.27145426,2828.39
-105.48587912,40.27145498,2831.98
-105.48584560,40.27145512,2828.58
-105.48572834,40.27145562,2826.08
-105.48569658,40.27145575,2826.06
-105.48559355,40.27145618,2840.59
-105.48556144,40.27145632,2828.66
-105.48538620,40.27145705,2825.77
-105.48532257,40.27145732,2830.33
-105.48528258,40.27145749,2825.26
-105.48520013,40.27145783,2824.62
-105.48517179,40.27145795,2829.64
-105.48514215,40.27145807,2837.06
-105.48504312,40.27145849,2829.15
-105.48503630,40.27145852,2822.32
-105.48499207,40.27145870,2821.58
-105.48498819,40.27145872,2828.90
-105.48494174,40.27145891,2827.97
-105.48493774,40.27145893,2823.04
-105.48492092,40.27145900,2820.34
-105.48490751,40.27145906,2829.60
-105.48487681,40.27145919,2819.46
-105.48487505,40.27145919,2828.82
-105.48471768,40.27145985,2825.39
-105.48469910,40.27145993,2820.43
-105.48468263,40.27146000,2821.94
-105.48443082,40.27146105,2811.25
-105.48428756,40.27146165,2806.99
-105.48428592,40.27146166,2816.23
-105.48428168,40.27146168,2817.21
-105.48426381,40.27146175,2815.54
-105.48422394,40.27146192,2816.43
-105.48412067,40.27146235,2807.29
-105.48406139,40.27146260,2808.59
-105.48391955,40.27146319,2798.60
-105.48386486,40.27146342,2807.34
-105.48374854,40.27146391,2803.42
-105.48367197,40.27146423,2795.17
-105.48362669,40.27146442,2800.05
-105.48351437,40.27146489,2792.39
-105.48346909,40.27146508,2795.11
-105.48331360,40.27146573,2797.50
-105.48324339,40.27146602,2788.85
-105.48320446,40.27146618,2788.34
-105.48320269,40.27146619,2788.28
-105.48306779,40.27146675,2793.80
-105.48305673,40.27146680,2795.81
-105.48305144,40.27146682,2793.87
-105.48300898,40.27146700,2793.83
-105.48297040,40.27146716,2792.41
-105.48287855,40.27146754,2790.23
-105.48274200,40.27146811,2786.51
-105.48267543,40.27146839,2785.25
-105.48259839,40.27146871,2783.52
-105.48256381,40.27146886,2778.14
-105.48252594,40.27146901,2781.83
-105.48251312,40.27146907,2786.02
-105.48247913,40.27146921,2783.24
-105.48245220,40.27146932,2782.85
-105.48241291,40.27146948,2773.16
-105.48238680,40.27146959,2781.41
-105.48236210,40.27146970,2776.17
-105.48230271,40.27146994,2769.68
-105.48226037,40.27147021,2768.48
-105.48223839,40.27147237,2774.48
-105.48223487,40.27147401,2767.71
-105.48223480,40.27148041,2770.60
-105.48223515,40.27154699,2767.17
-105.48223526,40.27156149,2769.81
-105.48223526,40.27156230,2771.69
-105.48223552,40.27159834,2775.64
-105.48223554,40.27160059,2769.10
-105.48223563,40.27161374,2774.87
-105.48223588,40.27164879,2765.96
-105.48223599,40.27166491,2771.24
-105.48223654,40.27174167,2767.81
-105.48223656,40.27174527,2764.75
-105.48223665,40.27175807,2774.05
-105.48223690,40.27179320,2770.76
-105.48223722,40.27183744,2768.16
-105.48223786,40.27192780,2762.37
-105.48223807,40.27195798,2761.93
-105.48223828,40.27198753,2766.42
-105.48223877,40.27205663,2759.44
-105.48223929,40.27212861,2766.18
-105.48223958,40.27217023,2761.96
-105.48223977,40.27219717,2755.97
-105.48224018,40.27225420,2760.10
-105.48224029,40.27226978,2754.63
-105.48224064,40.27231924,2759.03
-105.48224099,40.27236924,2759.13
-105.48224105,40.27237654,2756.09
-105.48224126,40.27240609,2753.75
-105.48224187,40.27249249,2752.84
-105.48224211,40.27252618,2750.31
-105.48224259,40.27259348,2751.74
-105.48224289,40.27263537,2749.77
-105.48224310,40.27266537,2754.42
-105.48224310,40.27266600,2747.18
-105.48224375,40.27275735,2744.88
-105.48224405,40.27279979,2748.77
-105.48224423,40.27282510,2746.57
-105.48224534,40.27298042,2742.34
-105.48224551,40.27300483,2739.14
-105.48224582,40.27304862,2738.03
-105.48224689,40.27319961,2734.12
-105.48224709,40.27322708,2733.09
-105.48224729,40.27325510,2739.97
-105.48224733,40.27326051,2737.07
-105.48224738,40.27326835,2736.71
-105.48224749,40.27328393,2731.40
-105.48224792,40.27334393,2729.93
-105.48224808,40.27336663,2729.18
-105.48224826,40.27339141,2732.74
-105.48224826,40.27339267,2728.56
-105.48224879,40.27346618,2726.58
-105.48224880,40.27346772,2726.55
-105.48224914,40.27351546,2725.40
-105.48224998,40.27363474,2726.30
-105.48225047,40.27370357,2731.14
-105.48225059,40.27371943,2732.22
-105.48225067,40.27373096,2725.91
-105.48225069,40.27373384,2729.48
-105.48225118,40.27380303,2721.50
-105.48225152,40.27385141,2726.49
-105.48225157,40.27385808,2729.14
-105.48225159,40.27386141,2720.82
-105.48225176,40.27388457,2732.30
-105.48225199,40.27391655,2732.37
-105.48225293,40.27404907,2725.03
-105.48225293,40.27404997,2718.50
-105.48225295,40.27405258,2718.51
-105.48225303,40.27406340,2718.40
-105.48225316,40.27408240,2718.19
-105.48225322,40.27409060,2722.93
-105.48225327,40.27409673,2721.33
-105.48225337,40.27411186,2724.32
-105.48225344,40.27412132,2724.24
-105.48225350,40.27412979,2725.51
-105.48225353,40.27413322,2724.02
-105.48225354,40.27413484,2717.92
-105.48225360,40.27414421,2717.85
-105.48225361,40.27414502,2725.42
-105.48225373,40.27416159,2725.38
-105.48225386,40.27417988,2725.46
-105.48225400,40.27420006,2725.07
-105.48225405,40.27420691,2727.87
-105.48225409,40.27421204,2722.94
-105.48225444,40.27426223,2722.51
-105.48225461,40.27428619,2716.35
-105.48225463,40.27428880,2725.44
-105.48225476,40.27430700,2727.01
-105.48225482,40.27431592,2716.16
-105.48225545,40.27440367,2715.29
-105.48225622,40.27451268,2720.61
-105.48225628,40.27452169,2714.09
-105.48225664,40.27457196,2722.53
-105.48225680,40.27459475,2713.47
-105.48225695,40.27461511,2722.26
-105.48225709,40.27463547,2713.13
-105.48225737,40.27467439,2712.64
-105.48225741,40.27467988,2712.47
-105.48225763,40.27471088,2723.88
-105.48225774,40.27472700,2712.05
-105.48225816,40.27478493,2721.99
-105.48225818,40.27478799,2720.25
-105.48225821,40.27479322,2721.37
-105.48225860,40.27484763,2710.50
-105.48225861,40.27484917,2711.26
-105.48225869,40.27486088,2719.62
-105.48225902,40.27490691,2709.67
-105.48225903,40.27490790,2709.69
-105.48225911,40.27491899,2715.53
-105.48225945,40.27496700,2717.90
-105.48225969,40.27500160,2717.08
-105.48226037,40.27509727,2716.56
-105.48226041,40.27510232,2716.90
-105.48226049,40.27511421,2708.28
-105.48226066,40.27513809,2716.47
-105.48226095,40.27517890,2712.59
-105.48226099,40.27518457,2708.50
-105.48226113,40.27520358,2708.53
-105.48226113,40.27520403,2708.56
-105.48226117,40.27520926,2708.55
-105.48226119,40.27521196,2708.58
-105.48226119,40.27521241,2708.60
-105.48226126,40.27522232,2709.26
-105.48226135,40.27523403,2712.18
-105.48226156,40.27526376,2715.33
-105.48226158,40.27526682,2713.44
-105.48226173,40.27528845,2719.77
-105.48226173,40.27528854,2708.44
-105.48226179,40.27529700,2719.18
-105.48226184,40.27530376,2713.35
-105.48226224,40.27535953,2712.03
-105.48226237,40.27537845,2706.69
-105.48226247,40.27539178,2706.54
-105.48226272,40.27542719,2709.66
-105.48226304,40.27547304,2708.79
-105.48226317,40.27549151,2709.33
-105.48226320,40.27549466,2709.51
-105.48226320,40.27549502,2708.29
-105.48226332,40.27551187,2704.10
-105.48226346,40.27553115,2702.52
-105.48226356,40.27554574,2704.41
-105.48226359,40.27555034,2707.89
-105.48226368,40.27556295,2703.47
-105.48226403,40.27561169,2703.87
-105.48226415,40.27562836,2703.15
-105.48226449,40.27567593,2698.53
-105.48226489,40.27573241,2701.54
-105.48226500,40.27574782,2700.69
-105.48226537,40.27580088,2693.46
-105.48226645,40.27595223,2690.20
-105.48226650,40.27595953,2693.83
-105.48226674,40.27599295,2688.04
-105.48226699,40.27602908,2684.34
-105.48226745,40.27609332,2685.89
-105.48226748,40.27609737,2688.58
-105.48226819,40.27619674,2677.80
-105.48226899,40.27631034,2678.96
-105.48226909,40.27632449,2679.78
-105.48226922,40.27634287,2679.81
-105.48227020,40.27648034,2678.11
-105.48227146,40.27665800,2674.46
-105.48227290,40.27686062,2655.14
-105.48227316,40.27689674,2652.51
-105.48227333,40.27692125,2651.60
-105.48227394,40.27700656,2645.98
-105.48227440,40.27707152,2643.11
-105.48227448,40.27708260,2646.38
-105.48227450,40.27708548,2644.64
-105.48227451,40.27708638,2656.52
-105.48227451,40.27708746,2647.95
-105.48227452,40.27708855,2651.77
-105.48227452,40.27708873,2651.17
-105.48227454,40.27709170,2651.39
-105.48227518,40.27718089,2641.95
-105.48227530,40.27719746,2643.87
-105.48227543,40.27721674,2638.56
-105.48227560,40.27724098,2640.03
-105.48227582,40.27727143,2638.79
-105.48227586,40.27727692,2640.42
-105.48227588,40.27728008,2646.06
-105.48227599,40.27729485,2644.57
-105.48227601,40.27729801,2642.41
-105.48227637,40.27734810,2639.94
-105.48227638,40.27735008,2642.70
-105.48227646,40.27736170,2642.23
-105.48227671,40.27739720,2641.05
-105.48227697,40.27743287,2647.08
-105.48227741,40.27749458,2650.81
-105.48227781,40.27755188,2655.34
-105.48228090,40.27798603,2666.32
-105.48228199,40.27813972,2673.52
-105.48228213,40.27815954,2680.74
-105.48228305,40.27828963,2684.16
-105.48228323,40.27831477,2686.20
-105.48228335,40.27833170,2685.09
-105.48228363,40.27837062,2680.95
-105.48228475,40.27852873,2679.83
-105.48228495,40.27855594,2686.50
-105.48228531,40.27860738,2680.96
-105.48228598,40.27870171,2684.57
-105.48228672,40.27880513,2679.60
-105.48228674,40.27880828,2679.55
-105.48228766,40.27893720,2676.99
-105.48228884,40.27910324,2675.67
-105.48228902,40.27912964,2675.89
-105.48228982,40.27924126,2681.77
-105.48229066,40.27936036,2674.67
-105.48229090,40.27939315,2674.53
-105.48229216,40.27957063,2672.97
-105.48229232,40.27959324,2681.06
-105.48229240,40.27960414,2676.62
-105.48229247,40.27961414,2678.14
-105.48229248,40.27961549,2672.23
-105.48229261,40.27963450,2675.58
-105.48229278,40.27965784,2672.00
-105.48229314,40.27970901,2672.12
-105.48229325,40.27972396,2672.40
-105.48229331,40.27973270,2672.55
-105.48229413,40.27984793,2671.36
-105.48229581,40.28008477,2668.71
-105.48229643,40.28017126,2663.63
-105.48229652,40.28018486,2661.77
-105.48229665,40.28020261,2656.45
-105.48229673,40.28021387,2657.17
-105.48229678,40.28022081,2657.02
-105.48229694,40.28024315,2654.47
-105.48229697,40.28024856,2654.28
-105.48229742,40.28031108,2655.47
-105.48229743,40.28031306,2660.61
-105.48229751,40.28032324,2651.24
-105.48229786,40.28037370,2649.08
-105.48229789,40.28037730,2648.99
-105.48229794,40.28038423,2657.43
-105.48229796,40.28038730,2648.64
-105.48229803,40.28039766,2648.21
-105.48229806,40.28040117,2648.00
-105.48229808,40.28040433,2647.87
-105.48229840,40.28044964,2653.95
-105.48229842,40.28045126,2654.37
-105.48229859,40.28047595,2653.54
-105.48230083,40.28047729,2653.73
-105.48230637,40.28047862,2654.89
-105.48231120,40.28047896,2654.65
-105.48231861,40.28047911,2648.01
-105.48236907,40.28047890,2645.24
-105.48241024,40.28047872,2655.31
-105.48249164,40.28047839,2646.40
-105.48253011,40.28047822,2653.76
-105.48255822,40.28047811,2659.17
-105.48271914,40.28047744,2648.64
-105.48272820,40.28047740,2652.41
-105.48281477,40.28047704,2650.82
-105.48293664,40.28047653,2662.42
-105.48304768,40.28047607,2656.81
-105.48304886,40.28047606,2664.82
-105.48314625,40.28047565,2669.88
-105.48316519,40.28047558,2658.96
-105.48321389,40.28047537,2662.68
-105.48323683,40.28047528,2663.34
-105.48324542,40.28047524,2666.89
-105.48324836,40.28047523,2661.21
-105.48325706,40.28047519,2664.69
-105.48338834,40.28047464,2662.75
-105.48339669,40.28047461,2664.00
-105.48343104,40.28047446,2666.23
-105.48343362,40.28047445,2666.69
-105.48344068,40.28047442,2665.55
-105.48344562,40.28047440,2665.27
-105.48345538,40.28047436,2664.38
-105.48349444,40.28047420,2672.28
-105.48350126,40.28047417,2672.28
-105.48351161,40.28047413,2666.01
-105.48351655,40.28047411,2664.86
-105.48351796,40.28047410,2667.72
-105.48351996,40.28047409,2667.70
-105.48352055,40.28047409,2667.73
-105.48352373,40.28047408,2670.45
-105.48352632,40.28047407,2670.56
-105.48352714,40.28047406,2665.12
-105.48353137,40.28047405,2665.23
-105.48353161,40.28047404,2669.33
-105.48353373,40.28047404,2669.45
-105.48353384,40.28047403,2666.42
-105.48353431,40.28047403,2665.25
-105.48353467,40.28047403,2665.28
-105.48353678,40.28047402,2665.31
-105.48353702,40.28047402,2665.91
-105.48355631,40.28047394,2666.11
-105.48357054,40.28047388,2666.11
-105.48357207,40.28047388,2666.76
-105.48358395,40.28047383,2666.08
-105.48359854,40.28047376,2666.48
-105.48360030,40.28047376,2666.64
-105.48360819,40.28047372,2666.46
-105.48361289,40.28047371,2666.55
-105.48363289,40.28047362,2666.55
-105.48363312,40.28047362,2667.58
-105.48363524,40.28047361,2666.73
-105.48364947,40.28047355,2667.54
-105.48365547,40.28047353,2676.97
-105.48365630,40.28047352,2678.34
-105.48366030,40.28047351,2678.95
-105.48366265,40.28047350,2667.63
-105.48367947,40.28047343,2677.05
-105.48368241,40.28047341,2677.03
-105.48368394,40.28047341,2675.67
-105.48369464,40.28047336,2667.34
-105.48370935,40.28047330,2676.84
-105.48370958,40.28047330,2677.00
-105.48371017,40.28047330,2675.94
-105.48371123,40.28047329,2667.40
-105.48371193,40.28047329,2678.78
-105.48371617,40.28047327,2675.82
-105.48373640,40.28047319,2673.75
-105.48375146,40.28047313,2676.63
-105.48376075,40.28047309,2671.76
-105.48377734,40.28047302,2668.43
-105.48378639,40.28047298,2668.75
-105.48379875,40.28047293,2669.77
-105.48379886,40.28047293,2670.64
-105.48381592,40.28047286,2670.95
-105.48382580,40.28047281,2669.23
-105.48384074,40.28047275,2673.69
-105.48384098,40.28047275,2673.65
-105.48386721,40.28047264,2670.68
-105.48390014,40.28047250,2670.45
-105.48390532,40.28047248,2670.61
-105.48392485,40.28047240,2676.47
-105.48392743,40.28047239,2679.10
-105.48393026,40.28047238,2673.37
-105.48393390,40.28047236,2679.21
-105.48394037,40.28047234,2671.17
-105.48395813,40.28047226,2683.21
-105.48396319,40.28047224,2679.48
-105.48396849,40.28047222,2679.50
-105.48398437,40.28047215,2679.22
-105.48399484,40.28047211,2672.70
-105.48405541,40.28047185,2692.82
-105.48405812,40.28047184,2692.31
-105.48407765,40.28047176,2688.07
-105.48408106,40.28047175,2686.25
-105.48408459,40.28047173,2681.16
-105.48410000,40.28047167,2679.53
-105.48410176,40.28047166,2675.54
-105.48410388,40.28047165,2674.64
-105.48411694,40.28047160,2674.99
-105.48412129,40.28047158,2676.20
-105.48413858,40.28047151,2676.04
-105.48414117,40.28047150,2676.04
-105.48414328,40.28047149,2675.65
-105.48415775,40.28047143,2675.84
-105.48417046,40.28047137,2682.24
-105.48417387,40.28047136,2680.01
-105.48420363,40.28047123,2679.80
-105.48420492,40.28047123,2677.73
-105.48421916,40.28047117,2688.70
-105.48424821,40.28047105,2689.16
-105.48426927,40.28047096,2682.63
-105.48428244,40.28047090,2680.94
-105.48428597,40.28047089,2685.34
-105.48428950,40.28047087,2681.75
-105.48429020,40.28047087,2683.52
-105.48429126,40.28047087,2683.59
-105.48429361,40.28047086,2682.81
-105.48430208,40.28047082,2680.74
-105.48430773,40.28047080,2679.23
-105.48430926,40.28047079,2682.73
-105.48431855,40.28047075,2686.40
-105.48431973,40.28047075,2685.02
-105.48435631,40.28047060,2688.76
-105.48436066,40.28047058,2680.39
-105.48436102,40.28047057,2687.15
-105.48437819,40.28047050,2683.86
-105.48438066,40.28047049,2683.07
-105.48438395,40.28047048,2682.26
-105.48438595,40.28047047,2682.51
-105.48439572,40.28047043,2681.53
-105.48439678,40.28047043,2683.16
-105.48441865,40.28047033,2686.13
-105.48442195,40.28047032,2685.86
-105.48443207,40.28047028,2690.23
-105.48443418,40.28047027,2690.11
-105.48443783,40.28047025,2689.07
-105.48445300,40.28047019,2682.44
-105.48445477,40.28047018,2688.06
-105.48446359,40.28047015,2682.89
-105.48447018,40.28047012,2687.46
-105.48447171,40.28047011,2685.13
-105.48447618,40.28047009,2687.64
-105.48448194,40.28047007,2682.91
-105.48448418,40.28047006,2686.40
-105.48450041,40.28046999,2683.46
-105.48450135,40.28046999,2683.47
-105.48450805,40.28046996,2683.62
-105.48450911,40.28046996,2683.65
-105.48452582,40.28046989,2685.06
-105.48453087,40.28046986,2684.25
-105.48454746,40.28046979,2687.49
-105.48462510,40.28046947,2686.42
-105.48464039,40.28046941,2686.64
-105.48479131,40.28046877,2698.66
-105.48479531,40.28046876,2699.30
-105.48480260,40.28046873,2701.40
-105.48501480,40.28046784,2702.85
-105.48511396,40.28046742,2696.61
-105.48521183,40.28046701,2704.30
-105.48521536,40.28046700,2705.25
-105.48524618,40.28046687,2697.71
-105.48528241,40.28046671,2701.36
-105.48565777,40.28046514,2702.34
-105.48566059,40.28046513,2703.31
-105.48572752,40.28046485,2698.34
-105.48580316,40.28046453,2703.70
-105.48581174,40.28046449,2700.28
-105.48582033,40.28046446,2697.04
-105.48582151,40.28046445,2696.99
-105.48593196,40.28046399,2695.23
-105.48596560,40.28046385,2702.04
-105.48602465,40.28046360,2696.06
-105.48605277,40.28046348,2695.60
-105.48605924,40.28046345,2696.91
-105.48616699,40.28046300,2696.83
-105.48628567,40.28046250,2691.14
-105.48648529,40.28046166,2683.81
-105.48664315,40.28046100,2691.97
-105.48682901,40.28046022,2676.89
-105.48700427,40.28045948,2673.02
     </coordinates>
    </LineString>
   </MultiGeometry>
  </Placemark>
 </Document>
</kml>
