<kml>
 <Document>
  <Style id="yellow">
   <LineStyle>
   <color>ff00ffff</color>
   <width>1</width>
   </LineStyle>
  </Style>
  <Style id="red">
   <LineStyle>
   <color>ffff0000</color>
   <width>2</width>
   </LineStyle>
  </Style>
  <Style id="green">
   <LineStyle>
   <color>ff00ff00</color>
   <width>1</width>
   </LineStyle>
  </Style>
  <Placemark>
  <styleUrl>#yellow</styleUrl>
   <MultiGeometry>
    <LineString>
     <coordinates>
-105.54391009,40.29822454,2761.59
-105.54394445,40.29822438,2758.84
-105.54401763,40.29822404,2748.42
-105.54403152,40.29822397,2762.18
-105.54405093,40.29822388,2748.03
-105.54406505,40.29822381,2758.54
-105.54435084,40.29822247,2762.29
-105.54440591,40.29822221,2756.95
-105.54448415,40.29822184,2760.33
-105.54454004,40.29822158,2744.81
-105.54478136,40.29822044,2762.43
-105.54501491,40.29821934,2753.20
-105.54502327,40.29821930,2765.13
-105.54506468,40.29821911,2767.29
-105.54510916,40.29821890,2756.19
-105.54513787,40.29821876,2772.04
-105.54516446,40.29821864,2768.86
-105.54527600,40.29821811,2766.49
-105.54537060,40.29821767,2775.16
-105.54537201,40.29821766,2773.45
-105.54543955,40.29821734,2776.27
-105.54547226,40.29821719,2775.99
-105.54558356,40.29821666,2771.81
-105.54559768,40.29821660,2771.76
-105.54577123,40.29821578,2776.41
-105.54582053,40.29821555,2782.48
-105.54591383,40.29821511,2793.54
-105.54591548,40.29821510,2791.71
-105.54593254,40.29821502,2780.56
-105.54612397,40.29821411,2785.32
-105.54617692,40.29821386,2792.78
-105.54662638,40.29821174,2800.91
-105.54666509,40.29821156,2802.66
-105.54672733,40.29821126,2805.60
-105.54672956,40.29821125,2806.18
-105.54681628,40.29821084,2808.86
-105.54685828,40.29821065,2817.80
-105.54688958,40.29821050,2810.18
-105.54695006,40.29821021,2822.90
-105.54698053,40.29821007,2828.47
-105.54707407,40.29820963,2830.80
-105.54717267,40.29820916,2828.73
-105.54731786,40.29820847,2824.15
-105.54740658,40.29820805,2827.82
-105.54758542,40.29820721,2838.72
-105.54759824,40.29820715,2834.03
-105.54765025,40.29820690,2836.82
-105.54770837,40.29820662,2850.87
-105.54774555,40.29820645,2839.45
-105.54775908,40.29820638,2843.61
-105.54776167,40.29820637,2843.54
-105.54781215,40.29820613,2842.44
-105.54787886,40.29820582,2846.04
-105.54798358,40.29820532,2859.22
-105.54801040,40.29820519,2859.52
-105.54808406,40.29820484,2859.67
-105.54809630,40.29820479,2855.93
-105.54821337,40.29820423,2868.77
-105.54821901,40.29820421,2870.27
-105.54831467,40.29820375,2879.42
-105.54832279,40.29820371,2872.58
-105.54833656,40.29820365,2875.34
-105.54838256,40.29820343,2877.66
-105.54843280,40.29820319,2875.04
-105.54844892,40.29820312,2877.47
-105.54846704,40.29820303,2880.97
-105.54853740,40.29820270,2882.44
-105.54875048,40.29820169,2884.77
-105.54875260,40.29820168,2892.53
-105.54876731,40.29820161,2889.75
-105.54881355,40.29820139,2886.94
-105.54882508,40.29820133,2894.24
-105.54883755,40.29820127,2893.02
-105.54895003,40.29820074,2891.71
-105.54900486,40.29820048,2903.34
-105.54916982,40.29819970,2902.11
-105.54918300,40.29819963,2901.38
-105.54928195,40.29819916,2898.90
-105.54932007,40.29819898,2906.63
-105.54956833,40.29819780,2898.83
-105.54964034,40.29819746,2898.51
-105.54966611,40.29819734,2898.25
-105.54967611,40.29819729,2901.43
-105.54968223,40.29819726,2901.49
-105.54975894,40.29819690,2904.06
-105.54988495,40.29819630,2901.93
-105.54996743,40.29819591,2897.31
-105.54997896,40.29819585,2900.80
-105.55000661,40.29819572,2897.35
-105.55004203,40.29819555,2904.14
-105.55008438,40.29819535,2904.12
-105.55008791,40.29819533,2899.68
-105.55017581,40.29819492,2898.09
-105.55019263,40.29819484,2901.86
-105.55019287,40.29819484,2898.24
-105.55029276,40.29819436,2899.41
-105.55035006,40.29819409,2909.91
-105.55044972,40.29819361,2903.44
-105.55046101,40.29819356,2899.94
-105.55053478,40.29819321,2904.89
-105.55061585,40.29819282,2900.93
-105.55071245,40.29819236,2909.73
-105.55072327,40.29819231,2905.74
-105.55074692,40.29819220,2910.96
-105.55083282,40.29819179,2911.54
-105.55089165,40.29819151,2910.28
-105.55089800,40.29819148,2911.43
-105.55098942,40.29819104,2917.33
-105.55113496,40.29819035,2907.22
-105.55115379,40.29819026,2911.17
-105.55116720,40.29819020,2907.45
-105.55121791,40.29818996,2907.93
-105.55122909,40.29818990,2908.02
-105.55123721,40.29818986,2913.53
-105.55124651,40.29818982,2918.65
-105.55125921,40.29818976,2916.59
-105.55129380,40.29818959,2913.10
-105.55132722,40.29818944,2909.15
-105.55137640,40.29818920,2916.53
-105.55139217,40.29818913,2917.12
-105.55139570,40.29818911,2917.19
-105.55143382,40.29818893,2915.66
-105.55147394,40.29818874,2910.53
-105.55152112,40.29818851,2921.46
-105.55159807,40.29818814,2910.89
-105.55160619,40.29818811,2918.50
-105.55163396,40.29818797,2917.15
-105.55172291,40.29818755,2914.28
-105.55174397,40.29818745,2916.68
-105.55178350,40.29818726,2917.90
-105.55181445,40.29818711,2919.40
-105.55185586,40.29818692,2910.83
-105.55190104,40.29818670,2923.00
-105.55190622,40.29818667,2922.42
-105.55195858,40.29818643,2917.29
-105.55201482,40.29818616,2913.65
-105.55203435,40.29818606,2919.96
-105.55208271,40.29818583,2912.41
-105.55208283,40.29818583,2910.48
-105.55210389,40.29818573,2910.85
-105.55211189,40.29818569,2919.24
-105.55212836,40.29818561,2919.67
-105.55213271,40.29818559,2918.74
-105.55217401,40.29818540,2918.06
-105.55228991,40.29818484,2911.76
-105.55230214,40.29818479,2916.99
-105.55234038,40.29818460,2919.57
-105.55236450,40.29818449,2914.86
-105.55237274,40.29818445,2911.07
-105.55239145,40.29818436,2916.02
-105.55240215,40.29818431,2917.18
-105.55241686,40.29818424,2916.44
-105.55244910,40.29818408,2915.97
-105.55254276,40.29818364,2909.06
-105.55257594,40.29818348,2908.97
-105.55259876,40.29818337,2914.03
-105.55278678,40.29818247,2910.13
-105.55279490,40.29818243,2917.33
-105.55290068,40.29818175,2909.84
-105.55295962,40.29818129,2909.83
-105.55299044,40.29818060,2909.86
-105.55299561,40.29817976,2909.83
-105.55300701,40.29817790,2909.88
-105.55301794,40.29817605,2909.91
-105.55302052,40.29817469,2909.92
-105.55302244,40.29816495,2910.57
-105.55302197,40.29809288,2919.36
-105.55302069,40.29793612,2920.55
-105.55302054,40.29791810,2929.54
-105.55302018,40.29787324,2923.39
-105.55302012,40.29786621,2925.99
-105.55301975,40.29782054,2928.96
-105.55301971,40.29781621,2929.46
-105.55301907,40.29773801,2936.37
-105.55301845,40.29766117,2936.95
-105.55301807,40.29761522,2935.47
-105.55301763,40.29756027,2944.14
-105.55301731,40.29752162,2940.57
-105.55301713,40.29749946,2941.79
-105.55301584,40.29734180,2953.27
-105.55301519,40.29726207,2948.95
-105.55301491,40.29722694,2951.38
-105.55301303,40.29699721,2950.13
-105.55301303,40.29699667,2950.16
-105.55301273,40.29695955,2950.39
-105.55301117,40.29676866,2956.03
-105.55301055,40.29669271,2955.79
-105.55301030,40.29666163,2957.14
-105.55300969,40.29658704,2956.90
-105.55300900,40.29650244,2949.84
-105.55300871,40.29646731,2950.15
-105.55300791,40.29636893,2952.12
-105.55300784,40.29636055,2951.15
-105.55300739,40.29630497,2950.89
-105.55300725,40.29628731,2958.18
-105.55300711,40.29627001,2960.22
-105.55300705,40.29626262,2951.18
-105.55300699,40.29625614,2957.21
-105.55300682,40.29623479,2951.81
-105.55300629,40.29616929,2951.29
-105.55300440,40.29593839,2961.48
-105.55300407,40.29589722,2949.83
-105.55300401,40.29589011,2953.52
-105.55300393,40.29588011,2951.85
-105.55300384,40.29586957,2954.55
-105.55300378,40.29586227,2952.90
-105.55300295,40.29576074,2952.79
-105.55300273,40.29573380,2955.82
-105.55300215,40.29566191,2950.57
-105.55300132,40.29556029,2948.44
-105.55300047,40.29545633,2950.30
-105.55299985,40.29537948,2949.18
-105.55299835,40.29519570,2955.25
-105.55299769,40.29511480,2946.05
-105.55299692,40.29502101,2946.36
-105.55299686,40.29501327,2949.49
-105.55299674,40.29499894,2948.47
-105.55299592,40.29489741,2942.61
-105.55299533,40.29482561,2935.65
-105.55299526,40.29481714,2934.96
-105.55299482,40.29476318,2931.36
-105.55299468,40.29474615,2935.29
-105.55299441,40.29471318,2930.81
-105.55299360,40.29461264,2935.64
-105.55299273,40.29450624,2921.83
-105.55299267,40.29449868,2926.29
-105.55299138,40.29434147,2924.09
-105.55299075,40.29426408,2916.82
-105.55299068,40.29425445,2916.96
-105.55299049,40.29423219,2927.27
-105.55299019,40.29419535,2919.07
-105.55298969,40.29413346,2917.92
-105.55298951,40.29411147,2917.58
-105.55298926,40.29408084,2917.54
-105.55298921,40.29407436,2917.60
-105.55298828,40.29396066,2916.99
-105.55298794,40.29391949,2919.06
-105.55298779,40.29390103,2919.34
-105.55298722,40.29383058,2921.95
-105.55298515,40.29357634,2915.96
-105.55298455,40.29350283,2920.01
-105.55298452,40.29349887,2921.19
-105.55298393,40.29342653,2921.89
-105.55298357,40.29338283,2915.02
-105.55298344,40.29336662,2915.75
-105.55298263,40.29326725,2914.28
-105.55298234,40.29323148,2919.69
-105.55298216,40.29320959,2915.37
-105.55298210,40.29320193,2918.61
-105.55298163,40.29314518,2914.33
-105.55298105,40.29307329,2916.52
-105.55298101,40.29306887,2916.72
-105.55298096,40.29306265,2916.83
-105.55297959,40.29289464,2921.66
-105.55297748,40.29263572,2923.50
-105.55297669,40.29253906,2924.15
-105.55297626,40.29248626,2923.31
-105.55297552,40.29239572,2925.69
-105.55297509,40.29234194,2925.43
-105.55297495,40.29232581,2920.87
-105.55297455,40.29227663,2924.61
-105.55297405,40.29221428,2917.33
-105.55297358,40.29215663,2923.78
-105.55297305,40.29209212,2918.52
-105.55297238,40.29200987,2922.52
-105.55297234,40.29200555,2921.54
-105.55297176,40.29193366,2918.90
-105.55296964,40.29167357,2906.75
-105.55296960,40.29166951,2904.32
-105.55296894,40.29158762,2910.03
-105.55296779,40.29144681,2897.78
-105.55296735,40.29139294,2895.92
-105.55296674,40.29131781,2890.47
-105.55296672,40.29131609,2890.36
-105.55296626,40.29125952,2887.70
-105.55296614,40.29124492,2892.54
-105.55296600,40.29122754,2892.94
-105.55296515,40.29112240,2880.34
-105.55296248,40.29079493,2858.38
-105.55296149,40.29067448,2848.09
-105.55296120,40.29063862,2841.78
-105.55295920,40.29039349,2833.69
-105.55295841,40.29029637,2830.70
-105.55295761,40.29019809,2827.99
-105.55295557,40.28994746,2823.01
-105.55295487,40.28986106,2821.71
-105.55295415,40.28977332,2829.90
-105.55295414,40.28977205,2831.48
-105.55295325,40.28966314,2817.98
-105.55295279,40.28960683,2817.80
-105.55295153,40.28945125,2817.92
-105.55295122,40.28941332,2817.84
-105.55295094,40.28937899,2817.89
-105.55295068,40.28934800,2827.08
-105.55295008,40.28927386,2820.87
-105.55294993,40.28925584,2822.35
-105.55294990,40.28925197,2822.47
-105.55294933,40.28918197,2825.75
-105.55294492,40.28917433,2826.16
-105.55294126,40.28917318,2826.25
-105.55293784,40.28917274,2830.41
-105.55293302,40.28917259,2831.46
-105.55287243,40.28917288,2826.27
-105.55284090,40.28917303,2834.89
-105.55267609,40.28917381,2834.47
-105.55264479,40.28917396,2825.70
-105.55263562,40.28917401,2826.01
-105.55261362,40.28917411,2832.18
-105.55255680,40.28917438,2825.22
-105.55251621,40.28917458,2831.09
-105.55236480,40.28917530,2829.54
-105.55231751,40.28917553,2837.03
-105.55231680,40.28917553,2834.59
-105.55230280,40.28917560,2820.92
-105.55214504,40.28917635,2822.49
-105.55213304,40.28917641,2824.83
-105.55211151,40.28917651,2822.64
-105.55203657,40.28917687,2831.51
-105.55193905,40.28917733,2828.13
-105.55184717,40.28917777,2826.31
-105.55175682,40.28917820,2836.43
-105.55173200,40.28917832,2827.17
-105.55167329,40.28917860,2826.60
-105.55150553,40.28917940,2822.37
-105.55145906,40.28917962,2826.14
-105.55135648,40.28918011,2819.56
-105.55134142,40.28918018,2818.58
-105.55125695,40.28918059,2828.00
-105.55117072,40.28918100,2814.03
-105.55093108,40.28918214,2816.49
-105.55091943,40.28918219,2816.23
-105.55071544,40.28918316,2817.58
-105.55071050,40.28918319,2800.99
-105.55065320,40.28918346,2801.23
-105.55058473,40.28918379,2805.31
-105.55029698,40.28918515,2809.32
-105.55019404,40.28918564,2797.43
-105.55018322,40.28918570,2805.34
-105.55006840,40.28918624,2795.43
-105.55004075,40.28918637,2794.94
-105.55003028,40.28918642,2794.67
-105.54984146,40.28918732,2790.80
-105.54981099,40.28918747,2790.33
-105.54963711,40.28918829,2790.43
-105.54929489,40.28918992,2794.00
-105.54928324,40.28918997,2791.35
-105.54902843,40.28919118,2785.16
-105.54889937,40.28919179,2786.57
-105.54884255,40.28919206,2779.96
-105.54874691,40.28919252,2790.63
-105.54868538,40.28919281,2784.08
-105.54868514,40.28919281,2779.75
-105.54859738,40.28919323,2783.18
-105.54846515,40.28919385,2785.82
-105.54834609,40.28919442,2789.50
-105.54823845,40.28919493,2782.51
-105.54819398,40.28919514,2787.38
-105.54802151,40.28919596,2788.46
-105.54790799,40.28919649,2789.39
-105.54790340,40.28919651,2785.54
-105.54788752,40.28919659,2788.46
-105.54765176,40.28919771,2792.87
-105.54752929,40.28919829,2789.47
-105.54743306,40.28919874,2786.69
-105.54738212,40.28919898,2785.45
-105.54730177,40.28919936,2782.72
-105.54729236,40.28919941,2784.29
-105.54723130,40.28919970,2780.52
-105.54708225,40.28920040,2772.37
-105.54694002,40.28920107,2773.01
-105.54690249,40.28920125,2777.92
-105.54668861,40.28920226,2771.66
-105.54648438,40.28920323,2766.31
-105.54630321,40.28920408,2761.51
-105.54619886,40.28920457,2759.74
-105.54613168,40.28920489,2758.54
-105.54609451,40.28920507,2757.90
-105.54576664,40.28920661,2755.00
-105.54554805,40.28920764,2752.80
-105.54553205,40.28920772,2752.58
-105.54552135,40.28920777,2755.59
-105.54551935,40.28920778,2756.17
-105.54537500,40.28920846,2750.98
-105.54532888,40.28920868,2750.72
-105.54525747,40.28920901,2750.35
-105.54488407,40.28921077,2749.75
-105.54458667,40.28921217,2748.98
-105.54450102,40.28921258,2747.96
-105.54447079,40.28921272,2748.65
-105.54433009,40.28921338,2748.30
-105.54428891,40.28921357,2750.27
-105.54419103,40.28921403,2750.21
-105.54413456,40.28921430,2750.43
-105.54409892,40.28921447,2750.63
-105.54403939,40.28921475,2751.75
-105.54371034,40.28921629,2757.06
-105.54354258,40.28921708,2759.56
-105.54315330,40.28921900,2761.59
-105.54281331,40.28922051,2763.26
-105.54240414,40.28922243,2775.39
-105.54240108,40.28922244,2781.00
-105.54233814,40.28922273,2779.18
-105.54231708,40.28922283,2772.84
-105.54230802,40.28922288,2770.86
-105.54229544,40.28922294,2779.08
-105.54225344,40.28922313,2780.80
-105.54216168,40.28922356,2780.48
-105.54214250,40.28922365,2772.97
-105.54213862,40.28922367,2786.24
-105.54203780,40.28922414,2789.27
-105.54203168,40.28922417,2786.87
-105.54186827,40.28922494,2789.94
-105.54182133,40.28922516,2776.30
-105.54179992,40.28922526,2776.41
-105.54175051,40.28922549,2776.96
-105.54168475,40.28922580,2777.49
-105.54164969,40.28922596,2790.26
-105.54164828,40.28922597,2777.85
-105.54161851,40.28922611,2778.19
-105.54159616,40.28922621,2789.99
-105.54158981,40.28922624,2793.83
-105.54158616,40.28922626,2792.79
-105.54158087,40.28922628,2794.19
-105.54157651,40.28922630,2791.89
-105.54151369,40.28922660,2790.83
-105.54144652,40.28922691,2779.46
-105.54140440,40.28922711,2779.62
-105.54120100,40.28922806,2795.66
-105.54118806,40.28922839,2781.04
-105.54118583,40.28922939,2781.52
-105.54118513,40.28922994,2781.38
-105.54118533,40.28927030,2794.57
-105.54118552,40.28929336,2795.37
-105.54118562,40.28930588,2781.62
-105.54118617,40.28937480,2795.92
-105.54118642,40.28940615,2798.04
-105.54118667,40.28943822,2782.30
-105.54118733,40.28952056,2796.59
-105.54118747,40.28953804,2792.56
-105.54118756,40.28954921,2788.64
-105.54118762,40.28955741,2787.84
-105.54118764,40.28956002,2789.59
-105.54118868,40.28969029,2786.90
-105.54118892,40.28971984,2784.09
-105.54118927,40.28976426,2783.72
-105.54118963,40.28980912,2783.51
-105.54119303,40.29023506,2796.14
-105.54119352,40.29029660,2796.96
-105.54119363,40.29031038,2797.97
-105.54119384,40.29033723,2798.13
-105.54119396,40.29035218,2797.07
-105.54119469,40.29044299,2785.09
-105.54119517,40.29050344,2785.20
-105.54119654,40.29067524,2787.43
-105.54119655,40.29067704,2792.89
-105.54119693,40.29072434,2799.78
-105.54119703,40.29073632,2799.08
-105.54119704,40.29073821,2785.40
-105.54119795,40.29085155,2785.52
-105.54119980,40.29108353,2785.88
-105.54119988,40.29109389,2785.85
-105.54120000,40.29110866,2786.13
-105.54120032,40.29114965,2799.58
-105.54120041,40.29116055,2799.70
-105.54120045,40.29116497,2799.37
-105.54120047,40.29116749,2789.18
-105.54120060,40.29118479,2799.44
-105.54120078,40.29120722,2793.53
-105.54120080,40.29120983,2797.19
-105.54120118,40.29125650,2785.87
-105.54120137,40.29128046,2800.21
-105.54120148,40.29129452,2799.99
-105.54120150,40.29129767,2792.04
-105.54120186,40.29134190,2794.42
-105.54120202,40.29136271,2800.27
-105.54120229,40.29139578,2785.98
-105.54120246,40.29141713,2786.00
-105.54120329,40.29152100,2785.75
-105.54120337,40.29153100,2784.67
-105.54120355,40.29155424,2785.80
-105.54120364,40.29156515,2785.67
-105.54120392,40.29160055,2785.87
-105.54120441,40.29166145,2785.34
-105.54120485,40.29171767,2789.61
-105.54120517,40.29175722,2793.01
-105.54120524,40.29176541,2789.87
-105.54120547,40.29179523,2785.77
-105.54120561,40.29181280,2790.21
-105.54120752,40.29205217,2789.67
-105.54120757,40.29205866,2788.78
-105.54120783,40.29209001,2785.97
-105.54120951,40.29230100,2785.79
-105.54121028,40.29239730,2786.30
-105.54121054,40.29242973,2786.18
-105.54121090,40.29247604,2785.91
-105.54121106,40.29249604,2785.67
-105.54121153,40.29255397,2790.67
-105.54121171,40.29257640,2795.23
-105.54121256,40.29268316,2784.07
-105.54121360,40.29281433,2782.87
-105.54121439,40.29291279,2782.74
-105.54121482,40.29296676,2782.86
-105.54121706,40.29324802,2782.91
-105.54121780,40.29334045,2783.60
-105.54121806,40.29337270,2783.96
-105.54121856,40.29343513,2784.03
-105.54121870,40.29345360,2784.22
-105.54121898,40.29348801,2784.63
-105.54121910,40.29350342,2784.81
-105.54121965,40.29357243,2785.29
-105.54122017,40.29363702,2785.38
-105.54122194,40.29385882,2786.43
-105.54122207,40.29387621,2786.59
-105.54122274,40.29395900,2786.96
-105.54122289,40.29397873,2787.02
-105.54122503,40.29424666,2787.82
-105.54122590,40.29435566,2787.69
-105.54122765,40.29457503,2787.95
-105.54122825,40.29465053,2787.96
-105.54122830,40.29465692,2787.94
-105.54122895,40.29473818,2787.90
-105.54122906,40.29475134,2787.98
-105.54122969,40.29483017,2787.93
-105.54122983,40.29484836,2799.05
-105.54122984,40.29484945,2787.89
-105.54123019,40.29489377,2787.79
-105.54123175,40.29508926,2787.72
-105.54123225,40.29515170,2796.92
-105.54123254,40.29518800,2787.72
-105.54123258,40.29519287,2797.72
-105.54123264,40.29520079,2796.21
-105.54123351,40.29530926,2787.38
-105.54123486,40.29547890,2787.43
-105.54123526,40.29552863,2787.56
-105.54123588,40.29560692,2787.63
-105.54123613,40.29563764,2787.60
-105.54123630,40.29565908,2787.59
-105.54123670,40.29570908,2787.62
-105.54123681,40.29572367,2787.69
-105.54123704,40.29575169,2787.74
-105.54123715,40.29576629,2787.77
-105.54123742,40.29579899,2787.82
-105.54123747,40.29580583,2787.80
-105.54123749,40.29580827,2787.79
-105.54123767,40.29583088,2787.81
-105.54123785,40.29585394,2787.83
-105.54123827,40.29590646,2787.86
-105.54123833,40.29591313,2787.87
-105.54123861,40.29594818,2787.91
-105.54123919,40.29602115,2787.98
-105.54123936,40.29604250,2788.05
-105.54123942,40.29604971,2788.03
-105.54123977,40.29609412,2788.09
-105.54123992,40.29611232,2788.05
-105.54124000,40.29612340,2787.98
-105.54124012,40.29613727,2788.02
-105.54124052,40.29618745,2787.93
-105.54124087,40.29623250,2789.04
-105.54124118,40.29627115,2789.37
-105.54124381,40.29660087,2790.05
-105.54124442,40.29667700,2790.22
-105.54124446,40.29668213,2790.25
-105.54124523,40.29677889,2791.05
-105.54124561,40.29682637,2791.32
-105.54124576,40.29684529,2791.35
-105.54124679,40.29697366,2792.32
-105.54124688,40.29698510,2792.46
-105.54124708,40.29701051,2804.86
-105.54124777,40.29709663,2793.11
-105.54124817,40.29714663,2793.13
-105.54124822,40.29715240,2793.07
-105.54124825,40.29715636,2793.12
-105.54124877,40.29722258,2793.16
-105.54124890,40.29723862,2793.15
-105.54124896,40.29724627,2793.11
-105.54124959,40.29732519,2793.17
-105.54125007,40.29738501,2792.93
-105.54125047,40.29743555,2793.57
-105.54125073,40.29746735,2793.45
-105.54125237,40.29767339,2800.46
-105.54125250,40.29768942,2803.40
-105.54125254,40.29769393,2802.92
-105.54125274,40.29771915,2790.42
-105.54125415,40.29789600,2795.13
-105.54125417,40.29789906,2793.43
-105.54125437,40.29792339,2796.42
-105.54125477,40.29797374,2796.04
-105.54125542,40.29805474,2795.53
-105.54125637,40.29815987,2786.58
-105.54125726,40.29822752,2781.73
-105.54125754,40.29823230,2789.79
-105.54126098,40.29823643,2785.14
-105.54129534,40.29823663,2787.12
-105.54137818,40.29823633,2789.90
-105.54149089,40.29823589,2779.29
-105.54153902,40.29823567,2778.82
-105.54157090,40.29823552,2778.21
-105.54159385,40.29823541,2784.61
-105.54165091,40.29823514,2782.16
-105.54177963,40.29823454,2782.47
-105.54185882,40.29823417,2776.95
-105.54188694,40.29823404,2779.33
-105.54191906,40.29823389,2781.40
-105.54198918,40.29823356,2776.79
-105.54199883,40.29823351,2780.14
-105.54214508,40.29823283,2773.51
-105.54231957,40.29823201,2773.30
-105.54259772,40.29823070,2769.49
-105.54259960,40.29823070,2777.79
-105.54263702,40.29823052,2778.50
-105.54264349,40.29823049,2777.29
-105.54266161,40.29823041,2773.90
-105.54278891,40.29822981,2773.93
-105.54305612,40.29822855,2763.78
-105.54316507,40.29822804,2767.40
-105.54319178,40.29822792,2769.76
-105.54319496,40.29822790,2762.64
-105.54324002,40.29822769,2762.38
-105.54327273,40.29822754,2770.60
-105.54327602,40.29822752,2761.82
-105.54330356,40.29822739,2769.84
-105.54331085,40.29822736,2760.94
-105.54332991,40.29822727,2767.92
-105.54333215,40.29822726,2768.20
-105.54334709,40.29822719,2759.99
-105.54342310,40.29822683,2765.69
-105.54347805,40.29822657,2763.86
-105.54363489,40.29822584,2756.98
-105.54373584,40.29822536,2762.94
-105.54383902,40.29822488,2749.74
-105.54384138,40.29822487,2761.01
-105.54391009,40.29822454,2761.59
     </coordinates>
    </LineString>
   </MultiGeometry>
  </Placemark>
 </Document>
</kml>
