<kml>
 <Document>
  <Style id="yellow">
   <LineStyle>
   <color>ff00ffff</color>
   <width>1</width>
   </LineStyle>
  </Style>
  <Style id="red">
   <LineStyle>
   <color>ffff0000</color>
   <width>2</width>
   </LineStyle>
  </Style>
  <Style id="green">
   <LineStyle>
   <color>ff00ff00</color>
   <width>1</width>
   </LineStyle>
  </Style>
  <Placemark>
  <styleUrl>#yellow</styleUrl>
   <MultiGeometry>
    <LineString>
     <coordinates>
-80.49505881,37.36965264,777.40
-80.49512742,37.36965293,764.35
-80.49558013,37.36965486,793.97
-80.49583775,37.36965596,799.34
-80.49594260,37.36965641,795.26
-80.49599919,37.36965665,802.45
-80.49613458,37.36965722,796.18
-80.49668705,37.36965957,805.96
-80.49714102,37.36966151,813.15
-80.49761874,37.36966353,830.03
-80.49783088,37.36966443,833.23
-80.49804561,37.36966534,836.74
-80.49848338,37.36966721,849.19
-80.49866975,37.36966800,828.71
-80.49909725,37.36966981,867.08
-80.49961191,37.36967197,861.29
-80.49989127,37.36967316,888.69
-80.50005547,37.36967387,889.95
-80.50022555,37.36967459,894.68
-80.50066771,37.36967645,906.00
-80.50103411,37.36967796,927.98
-80.50146404,37.36967980,928.91
-80.50198687,37.36968202,932.02
-80.50229753,37.36968328,957.40
-80.50269785,37.36968499,966.95
-80.50292617,37.36968597,969.95
-80.50304439,37.36968645,968.84
-80.50304903,37.36968600,968.83
-80.50305362,37.36968549,969.22
-80.50305812,37.36968489,970.32
-80.50306723,37.36968344,974.07
-80.50307045,37.36968240,973.14
-80.50307054,37.36967542,974.35
-80.50307089,37.36962809,973.71
-80.50307096,37.36961746,979.70
-80.50307096,37.36961713,979.82
-80.50307189,37.36947517,980.62
-80.50307203,37.36945412,980.73
-80.50307290,37.36932207,981.07
-80.50307443,37.36909126,995.44
-80.50307600,37.36885234,996.87
-80.50307895,37.36840563,1006.74
-80.50308063,37.36814891,997.55
-80.50308291,37.36780112,985.76
-80.50308490,37.36750324,982.22
-80.50308775,37.36707088,961.45
-80.50308978,37.36676331,955.35
-80.50309028,37.36668693,944.32
-80.50309162,37.36648356,938.58
-80.50309286,37.36629596,948.86
-80.50309366,37.36617439,953.70
-80.50309383,37.36614903,948.29
-80.50309442,37.36605973,940.29
-80.50309465,37.36602403,950.43
-80.50309509,37.36595771,950.02
-80.50309530,37.36592670,962.35
-80.50309596,37.36582631,945.07
-80.50309647,37.36574819,959.65
-80.50309659,37.36573056,959.36
-80.50309794,37.36552535,962.93
-80.50310076,37.36509838,943.07
-80.50310101,37.36506081,937.80
-80.50310378,37.36464072,928.07
-80.50310578,37.36433319,906.00
-80.50310699,37.36415311,904.88
-80.50310789,37.36401259,898.82
-80.50311008,37.36368360,902.38
-80.50311243,37.36332844,907.87
-80.50311448,37.36301229,905.95
-80.50311525,37.36289025,901.88
-80.50311754,37.36255392,887.93
-80.50311762,37.36254149,895.36
-80.50311931,37.36228317,890.41
-80.50312187,37.36189385,881.02
-80.50312418,37.36154080,869.86
-80.50312574,37.36130969,879.39
-80.50312841,37.36090505,877.47
-80.50312969,37.36070730,864.35
-80.50312961,37.36069368,862.75
-80.50312937,37.36067652,868.31
-80.50311661,37.36067308,874.24
-80.50309709,37.36067296,867.08
-80.50308209,37.36067288,877.96
-80.50307131,37.36067283,877.02
-80.50293762,37.36067227,861.00
-80.50247940,37.36067032,856.37
-80.50230717,37.36066960,855.85
-80.50183211,37.36066759,854.79
-80.50147901,37.36066610,856.18
-80.50132554,37.36066547,843.66
-80.50090286,37.36066367,834.98
-80.50059364,37.36066237,831.83
-80.50033320,37.36066128,835.79
-80.50002621,37.36065997,821.76
-80.49995692,37.36065968,828.12
-80.49975409,37.36065883,815.53
-80.49932217,37.36065700,810.69
-80.49912984,37.36065618,817.25
-80.49876360,37.36065464,814.06
-80.49827038,37.36065256,781.60
-80.49791176,37.36065102,801.49
-80.49783586,37.36065070,806.82
-80.49782506,37.36065066,808.17
-80.49760389,37.36064972,792.49
-80.49742773,37.36064897,806.29
-80.49692938,37.36064684,801.78
-80.49652587,37.36064512,796.51
-80.49645828,37.36064484,802.60
-80.49634370,37.36064435,802.85
-80.49598651,37.36064286,806.39
-80.49552010,37.36064084,814.10
-80.49497197,37.36063850,814.49
-80.49476964,37.36063764,822.65
-80.49430833,37.36063566,829.98
-80.49405489,37.36063458,822.59
-80.49358435,37.36063259,824.61
-80.49331345,37.36063142,841.79
-80.49305768,37.36063031,848.91
-80.49281510,37.36062927,839.97
-80.49269712,37.36062877,849.15
-80.49260934,37.36062839,844.87
-80.49213781,37.36062637,862.17
-80.49198616,37.36062572,872.80
-80.49191254,37.36062548,872.40
-80.49183848,37.36062551,874.14
-80.49183786,37.36064019,876.63
-80.49183774,37.36064647,874.74
-80.49183744,37.36068960,870.66
-80.49183457,37.36111187,863.30
-80.49183411,37.36117960,862.02
-80.49183397,37.36120012,859.86
-80.49183267,37.36139559,854.93
-80.49183093,37.36165173,847.41
-80.49182810,37.36207150,832.14
-80.49182611,37.36237460,804.18
-80.49182462,37.36258732,805.32
-80.49182335,37.36277595,817.33
-80.49182267,37.36287583,824.50
-80.49182201,37.36297470,800.39
-80.49182102,37.36312102,801.30
-80.49181891,37.36343389,803.44
-80.49181880,37.36344936,809.79
-80.49181715,37.36369518,800.14
-80.49181697,37.36372069,797.22
-80.49181525,37.36397630,793.78
-80.49181466,37.36406614,775.26
-80.49181221,37.36442872,784.53
-80.49181001,37.36475825,783.64
-80.49180881,37.36493100,775.36
-80.49180631,37.36530531,774.31
-80.49180469,37.36554348,770.75
-80.49180208,37.36592986,768.16
-80.49180193,37.36595163,767.34
-80.49180097,37.36609389,760.67
-80.49180069,37.36613528,761.08
-80.49180037,37.36618226,753.47
-80.49180020,37.36620828,749.46
-80.49179982,37.36626408,741.78
-80.49179836,37.36648093,759.21
-80.49179637,37.36677981,742.61
-80.49179471,37.36702358,742.83
-80.49179392,37.36713842,723.89
-80.49179382,37.36715451,737.39
-80.49179250,37.36734914,748.25
-80.49178969,37.36776633,747.35
-80.49178920,37.36783839,741.90
-80.49178623,37.36827948,747.23
-80.49178504,37.36845745,751.28
-80.49178219,37.36887953,746.25
-80.49178086,37.36907521,753.47
-80.49178053,37.36912373,753.70
-80.49178011,37.36918594,741.81
-80.49177738,37.36959153,757.56
-80.49177737,37.36959872,758.40
-80.49177740,37.36962553,750.05
-80.49177766,37.36962811,752.25
-80.49177886,37.36963662,759.64
-80.49177940,37.36963675,759.71
-80.49179281,37.36963812,731.60
-80.49180088,37.36963829,758.58
-80.49181266,37.36963847,731.84
-80.49187363,37.36963893,732.32
-80.49191467,37.36963917,756.31
-80.49202475,37.36963965,745.20
-80.49204066,37.36963972,760.44
-80.49250339,37.36964170,763.79
-80.49294277,37.36964356,740.49
-80.49337754,37.36964545,772.49
-80.49345529,37.36964579,753.98
-80.49398241,37.36964804,770.89
-80.49399516,37.36964810,750.97
-80.49435744,37.36964964,771.54
-80.49463664,37.36965084,773.39
-80.49505881,37.36965264,777.40
     </coordinates>
    </LineString>
   </MultiGeometry>
  </Placemark>
 </Document>
</kml>
