<kml>
 <Document>
  <Style id="yellow">
   <LineStyle>
   <color>ff00ffff</color>
   <width>1</width>
   </LineStyle>
  </Style>
  <Style id="red">
   <LineStyle>
   <color>ffff0000</color>
   <width>2</width>
   </LineStyle>
  </Style>
  <Style id="green">
   <LineStyle>
   <color>ff00ff00</color>
   <width>1</width>
   </LineStyle>
  </Style>
  <Placemark>
  <styleUrl>#yellow</styleUrl>
   <MultiGeometry>
    <LineString>
     <coordinates>
-80.50703985,37.42378560,1007.80
-80.50747000,37.42378740,1001.48
-80.50762628,37.42378804,1027.24
-80.50815253,37.42379024,1023.25
-80.50833679,37.42379099,1025.16
-80.50875416,37.42379273,997.00
-80.50896338,37.42379361,1014.10
-80.50913950,37.42379434,1020.18
-80.50940777,37.42379545,1004.36
-80.50974273,37.42379683,1009.76
-80.51011704,37.42379839,1015.28
-80.51067815,37.42380072,984.25
-80.51101226,37.42380210,991.99
-80.51103058,37.42380218,992.33
-80.51108881,37.42380242,1019.20
-80.51127500,37.42380319,1014.80
-80.51174758,37.42380511,990.30
-80.51197664,37.42380607,989.37
-80.51199465,37.42380614,989.28
-80.51204753,37.42380636,1001.79
-80.51219184,37.42380694,1014.93
-80.51257099,37.42380850,985.80
-80.51276375,37.42380932,995.46
-80.51285947,37.42380973,985.64
-80.51289954,37.42380989,984.24
-80.51332082,37.42381161,986.60
-80.51355605,37.42381259,985.73
-80.51377080,37.42381348,1003.35
-80.51393535,37.42381414,1002.55
-80.51400297,37.42381439,977.30
-80.51401265,37.42381302,1000.29
-80.51401372,37.42380580,1003.26
-80.51401498,37.42379679,1004.12
-80.51401586,37.42366656,988.74
-80.51401760,37.42339560,988.81
-80.51401912,37.42316042,1011.60
-80.51402151,37.42279276,1000.19
-80.51402322,37.42252801,1007.28
-80.51402391,37.42242161,1032.85
-80.51402585,37.42212112,1020.41
-80.51402650,37.42201871,1045.74
-80.51402788,37.42180104,1034.64
-80.51402958,37.42154145,1045.91
-80.51403200,37.42116680,1054.36
-80.51403490,37.42072085,1064.53
-80.51403622,37.42051694,1086.11
-80.51403634,37.42049694,1083.52
-80.51403706,37.42038610,1074.97
-80.51403797,37.42024594,1103.63
-80.51403974,37.41997137,1106.28
-80.51404251,37.41954338,1127.18
-80.51404254,37.41953771,1136.45
-80.51404480,37.41918181,1136.32
-80.51404725,37.41880756,1160.82
-80.51405010,37.41836719,1160.95
-80.51405073,37.41827134,1175.66
-80.51405214,37.41805307,1173.21
-80.51405432,37.41771005,1203.01
-80.51405539,37.41754639,1204.15
-80.51405615,37.41742938,1198.03
-80.51405695,37.41730859,1223.22
-80.51405709,37.41728649,1204.52
-80.51405776,37.41718202,1206.02
-80.51405842,37.41707842,1208.99
-80.51406099,37.41668206,1232.49
-80.51406101,37.41668006,1225.39
-80.51406203,37.41651979,1233.21
-80.51406390,37.41622369,1258.66
-80.51406511,37.41604528,1264.94
-80.51406537,37.41600471,1261.30
-80.51406643,37.41584087,1262.98
-80.51406682,37.41578010,1266.89
-80.51406873,37.41548420,1268.21
-80.51406959,37.41535167,1270.50
-80.51407083,37.41515741,1259.83
-80.51407300,37.41482011,1261.15
-80.51407301,37.41480161,1261.19
-80.51407248,37.41480121,1249.43
-80.51405017,37.41480095,1259.46
-80.51399118,37.41480070,1261.29
-80.51381010,37.41479995,1251.68
-80.51364246,37.41479926,1258.86
-80.51356722,37.41479895,1256.07
-80.51329110,37.41479781,1255.66
-80.51277493,37.41479568,1250.20
-80.51240473,37.41479418,1255.96
-80.51218166,37.41479326,1242.77
-80.51198725,37.41479244,1251.47
-80.51143809,37.41479018,1236.70
-80.51103713,37.41478851,1243.55
-80.51052200,37.41478638,1241.82
-80.51038338,37.41478580,1244.45
-80.51004215,37.41478439,1235.05
-80.50995104,37.41478401,1222.07
-80.50980419,37.41478341,1239.06
-80.50935708,37.41478155,1235.02
-80.50899675,37.41478006,1230.00
-80.50864532,37.41477860,1245.54
-80.50846635,37.41477786,1242.22
-80.50842291,37.41477768,1233.33
-80.50805180,37.41477613,1247.92
-80.50785096,37.41477530,1243.30
-80.50744990,37.41477363,1250.32
-80.50714857,37.41477237,1246.53
-80.50677746,37.41477083,1247.81
-80.50629473,37.41476880,1246.64
-80.50593923,37.41476731,1245.77
-80.50565729,37.41476614,1237.68
-80.50555944,37.41476573,1238.62
-80.50527503,37.41476455,1237.17
-80.50489748,37.41476296,1229.59
-80.50478120,37.41476247,1213.46
-80.50468208,37.41476205,1207.65
-80.50412359,37.41475972,1201.02
-80.50363582,37.41475768,1200.96
-80.50314534,37.41475561,1224.38
-80.50286042,37.41475443,1205.06
-80.50280537,37.41475420,1224.79
-80.50278275,37.41475431,1205.64
-80.50277556,37.41475468,1205.84
-80.50277305,37.41475711,1222.79
-80.50277262,37.41479901,1222.94
-80.50277006,37.41518656,1213.90
-80.50276758,37.41556207,1235.73
-80.50276717,37.41562377,1225.05
-80.50276435,37.41605048,1244.82
-80.50276384,37.41612807,1241.62
-80.50276151,37.41648387,1235.62
-80.50276072,37.41660166,1237.02
-80.50276057,37.41662381,1246.32
-80.50275893,37.41687157,1251.59
-80.50275835,37.41696003,1252.37
-80.50275688,37.41718689,1258.30
-80.50275442,37.41755181,1247.22
-80.50275418,37.41758901,1242.60
-80.50275222,37.41788464,1240.46
-80.50275143,37.41800969,1238.80
-80.50275076,37.41811475,1232.57
-80.50274811,37.41850822,1234.51
-80.50274673,37.41872218,1226.09
-80.50274407,37.41911994,1189.21
-80.50274315,37.41925700,1195.37
-80.50274308,37.41926682,1199.31
-80.50274149,37.41950784,1186.88
-80.50274125,37.41954424,1181.66
-80.50274034,37.41968554,1163.96
-80.50273791,37.42005123,1160.60
-80.50273753,37.42010883,1135.88
-80.50273656,37.42025523,1155.04
-80.50273538,37.42043379,1148.40
-80.50273335,37.42073877,1132.98
-80.50273141,37.42103630,1099.94
-80.50272940,37.42133924,1113.37
-80.50272755,37.42161945,1096.31
-80.50272577,37.42188830,1074.90
-80.50272342,37.42224244,1078.84
-80.50272057,37.42267283,1059.33
-80.50271818,37.42303515,1053.62
-80.50271722,37.42318033,1051.40
-80.50271560,37.42342445,1039.63
-80.50271399,37.42366741,1012.11
-80.50271395,37.42373610,1026.93
-80.50271421,37.42376494,1030.02
-80.50272002,37.42376701,1030.76
-80.50275087,37.42376750,1031.92
-80.50278174,37.42376770,1031.03
-80.50317108,37.42376937,1015.21
-80.50340975,37.42377040,1021.60
-80.50393125,37.42377259,1033.01
-80.50433499,37.42377429,1022.70
-80.50458074,37.42377532,998.76
-80.50470970,37.42377586,998.84
-80.50500745,37.42377710,997.82
-80.50543027,37.42377888,1021.25
-80.50558962,37.42377955,1020.95
-80.50574911,37.42378021,993.77
-80.50608878,37.42378161,1029.15
-80.50631683,37.42378259,1005.21
-80.50643961,37.42378310,1026.49
-80.50650390,37.42378337,1023.41
-80.50678876,37.42378456,1028.46
-80.50703886,37.42378560,1007.85
-80.50703985,37.42378560,1007.80
     </coordinates>
    </LineString>
   </MultiGeometry>
  </Placemark>
 </Document>
</kml>
