<kml>
 <Document>
  <Style id="yellow">
   <LineStyle>
   <color>ff00ffff</color>
   <width>1</width>
   </LineStyle>
  </Style>
  <Style id="red">
   <LineStyle>
   <color>ffff0000</color>
   <width>2</width>
   </LineStyle>
  </Style>
  <Style id="green">
   <LineStyle>
   <color>ff00ff00</color>
   <width>1</width>
   </LineStyle>
  </Style>
  <Placemark>
  <styleUrl>#yellow</styleUrl>
   <MultiGeometry>
    <LineString>
     <coordinates>
-80.50740010,37.36970469,1097.25
-80.50742629,37.36970480,1100.27
-80.50755802,37.36970534,1094.07
-80.50799515,37.36970715,1096.51
-80.50838573,37.36970878,1107.65
-80.50873630,37.36971023,1119.91
-80.50897697,37.36971124,1119.67
-80.50918629,37.36971211,1135.41
-80.50927832,37.36971249,1122.34
-80.50961964,37.36971391,1136.83
-80.50990687,37.36971509,1149.06
-80.51020106,37.36971632,1137.48
-80.51046244,37.36971740,1142.93
-80.51063016,37.36971805,1153.67
-80.51082500,37.36971882,1165.38
-80.51130038,37.36972084,1157.76
-80.51143553,37.36972142,1159.44
-80.51165417,37.36972233,1164.25
-80.51194414,37.36972352,1175.65
-80.51194662,37.36972353,1165.98
-80.51212223,37.36972426,1182.47
-80.51212337,37.36972426,1178.24
-80.51248951,37.36972576,1184.23
-80.51272178,37.36972673,1185.86
-80.51303640,37.36972803,1176.03
-80.51327466,37.36972901,1188.49
-80.51341296,37.36972958,1192.10
-80.51389833,37.36973157,1179.74
-80.51421342,37.36973285,1180.34
-80.51435458,37.36973336,1193.74
-80.51435675,37.36973309,1193.82
-80.51436082,37.36973255,1194.03
-80.51436267,37.36973228,1194.19
-80.51436336,37.36973100,1196.09
-80.51436413,37.36970554,1190.15
-80.51436515,37.36955168,1192.52
-80.51436693,37.36927535,1191.38
-80.51436713,37.36924450,1194.01
-80.51436713,37.36924392,1197.20
-80.51436942,37.36888648,1199.08
-80.51437019,37.36876807,1197.05
-80.51437102,37.36863961,1183.91
-80.51437107,37.36863080,1195.24
-80.51437227,37.36844258,1197.56
-80.51437445,37.36810786,1189.50
-80.51437477,37.36805905,1198.48
-80.51437598,37.36786991,1191.15
-80.51437696,37.36771571,1193.26
-80.51437926,37.36736290,1207.47
-80.51438042,37.36718250,1198.41
-80.51438080,37.36712282,1195.49
-80.51438112,37.36707357,1213.57
-80.51438363,37.36668508,1217.78
-80.51438559,37.36637959,1219.36
-80.51438787,37.36601907,1230.49
-80.51438897,37.36585539,1224.66
-80.51438918,37.36582375,1233.60
-80.51438931,37.36580377,1234.30
-80.51439145,37.36546404,1241.13
-80.51439229,37.36533885,1239.01
-80.51439482,37.36494865,1242.27
-80.51439747,37.36453434,1241.36
-80.51439851,37.36437588,1238.56
-80.51439991,37.36415872,1229.30
-80.51440279,37.36370943,1230.41
-80.51440342,37.36361322,1228.93
-80.51440481,37.36339828,1239.70
-80.51440677,37.36309409,1205.56
-80.51440773,37.36294487,1208.24
-80.51440794,37.36291141,1199.42
-80.51440904,37.36274112,1210.02
-80.51441116,37.36241253,1196.07
-80.51441310,37.36210876,1189.73
-80.51441554,37.36173330,1176.42
-80.51441574,37.36170223,1177.62
-80.51441737,37.36144902,1161.09
-80.51441778,37.36138490,1147.35
-80.51441866,37.36124882,1148.86
-80.51442140,37.36082187,1153.69
-80.51442169,37.36077123,1137.14
-80.51442191,37.36072116,1152.46
-80.51442045,37.36072045,1145.07
-80.51441852,37.36072004,1139.07
-80.51441040,37.36071994,1151.08
-80.51437325,37.36071975,1138.91
-80.51423355,37.36071917,1132.61
-80.51423056,37.36071916,1133.63
-80.51422184,37.36071912,1136.63
-80.51419215,37.36071900,1126.88
-80.51412553,37.36071873,1132.31
-80.51378471,37.36071733,1125.48
-80.51326340,37.36071518,1103.39
-80.51323637,37.36071507,1078.39
-80.51284530,37.36071346,1061.48
-80.51269803,37.36071286,1071.42
-80.51228016,37.36071114,1036.37
-80.51209165,37.36071039,1062.52
-80.51170582,37.36070879,1050.17
-80.51158419,37.36070828,1052.25
-80.51148096,37.36070784,1059.90
-80.51134752,37.36070728,1055.95
-80.51134443,37.36070727,1057.73
-80.51102215,37.36070594,1045.81
-80.51069489,37.36070459,1060.54
-80.51021443,37.36070260,1064.60
-80.50967143,37.36070035,1059.68
-80.50950563,37.36069966,1063.23
-80.50910289,37.36069801,1049.58
-80.50892217,37.36069725,1051.99
-80.50867969,37.36069624,1030.99
-80.50829894,37.36069465,1015.50
-80.50795385,37.36069322,1009.86
-80.50744458,37.36069111,1004.64
-80.50688663,37.36068877,973.33
-80.50668649,37.36068794,966.20
-80.50632592,37.36068644,948.70
-80.50591619,37.36068472,943.98
-80.50552550,37.36068309,912.89
-80.50509981,37.36068132,899.05
-80.50489268,37.36068044,883.77
-80.50477923,37.36067997,882.72
-80.50469778,37.36067963,902.81
-80.50467551,37.36067953,899.17
-80.50445053,37.36067861,889.53
-80.50396067,37.36067655,874.95
-80.50360179,37.36067503,883.80
-80.50333173,37.36067390,873.73
-80.50332425,37.36067387,877.30
-80.50316949,37.36067322,869.59
-80.50315573,37.36067317,876.92
-80.50315437,37.36067319,877.14
-80.50313454,37.36067592,869.05
-80.50313093,37.36067664,868.82
-80.50313005,37.36067710,868.80
-80.50312933,37.36076727,858.51
-80.50312925,37.36077920,875.32
-80.50312697,37.36112455,871.36
-80.50312572,37.36131426,878.35
-80.50312512,37.36140485,861.76
-80.50312353,37.36164644,869.86
-80.50312091,37.36204688,899.77
-80.50312000,37.36218378,886.33
-80.50311705,37.36262967,881.19
-80.50311653,37.36270815,900.57
-80.50311411,37.36307574,886.28
-80.50311339,37.36318457,898.96
-80.50311298,37.36324723,901.60
-80.50311235,37.36334261,904.73
-80.50311154,37.36346462,892.77
-80.50310885,37.36387499,893.60
-80.50310634,37.36425824,916.01
-80.50310462,37.36451847,917.76
-80.50310208,37.36490348,930.44
-80.50310129,37.36502006,946.36
-80.50310047,37.36514603,943.16
-80.50309835,37.36547437,956.43
-80.50309736,37.36561802,935.03
-80.50309486,37.36599403,935.06
-80.50309430,37.36608023,953.27
-80.50309383,37.36615120,948.24
-80.50309227,37.36638686,948.09
-80.50309093,37.36659291,958.00
-80.50308824,37.36699866,952.67
-80.50308778,37.36706828,968.48
-80.50308733,37.36713589,968.85
-80.50308698,37.36718955,975.20
-80.50308449,37.36756875,977.72
-80.50308307,37.36778242,989.93
-80.50308110,37.36808380,979.61
-80.50307958,37.36831285,994.26
-80.50307661,37.36876178,1004.47
-80.50307625,37.36881719,996.60
-80.50307562,37.36891180,1003.58
-80.50307282,37.36933696,981.59
-80.50307121,37.36958423,976.63
-80.50307065,37.36967161,974.21
-80.50307063,37.36968620,976.47
-80.50311035,37.36968672,973.02
-80.50323695,37.36968727,955.07
-80.50327871,37.36968745,975.42
-80.50345267,37.36968818,982.61
-80.50365637,37.36968903,983.56
-80.50396012,37.36969031,985.62
-80.50414541,37.36969108,977.57
-80.50463732,37.36969315,993.61
-80.50502345,37.36969476,1013.13
-80.50528924,37.36969587,1029.71
-80.50566377,37.36969740,1026.68
-80.50592799,37.36969855,1044.81
-80.50601148,37.36969889,1036.23
-80.50605955,37.36969910,1050.87
-80.50629076,37.36970006,1065.89
-80.50629577,37.36970008,1061.15
-80.50667893,37.36970167,1061.29
-80.50713417,37.36970358,1091.85
-80.50740010,37.36970469,1097.25
     </coordinates>
    </LineString>
   </MultiGeometry>
  </Placemark>
 </Document>
</kml>
