<kml>
 <Document>
  <Style id="yellow">
   <LineStyle>
   <color>ff00ffff</color>
   <width>1</width>
   </LineStyle>
  </Style>
  <Style id="red">
   <LineStyle>
   <color>ffff0000</color>
   <width>2</width>
   </LineStyle>
  </Style>
  <Style id="green">
   <LineStyle>
   <color>ff00ff00</color>
   <width>1</width>
   </LineStyle>
  </Style>
  <Placemark>
  <styleUrl>#yellow</styleUrl>
   <MultiGeometry>
    <LineString>
     <coordinates>
-80.52982360,37.37880973,1182.12
-80.52989140,37.37881000,1189.18
-80.52991861,37.37881011,1188.02
-80.53021454,37.37881128,1180.80
-80.53048524,37.37881236,1182.85
-80.53102177,37.37881449,1191.81
-80.53142128,37.37881607,1192.39
-80.53188141,37.37881788,1167.92
-80.53211763,37.37881883,1167.06
-80.53221840,37.37881923,1185.57
-80.53273049,37.37882125,1189.62
-80.53314897,37.37882290,1177.36
-80.53319453,37.37882308,1164.40
-80.53326940,37.37882338,1181.35
-80.53355150,37.37882449,1184.32
-80.53367365,37.37882495,1170.01
-80.53393160,37.37882593,1161.34
-80.53433939,37.37882758,1170.43
-80.53452585,37.37882833,1178.46
-80.53508802,37.37883052,1173.67
-80.53539526,37.37883173,1169.06
-80.53569223,37.37883292,1177.31
-80.53595392,37.37883394,1177.58
-80.53599746,37.37883412,1172.34
-80.53619597,37.37883489,1166.49
-80.53637675,37.37883560,1175.70
-80.53670571,37.37883689,1174.89
-80.53682680,37.37883737,1173.63
-80.53689090,37.37883761,1171.86
-80.53689134,37.37883759,1171.88
-80.53689170,37.37883758,1171.91
-80.53689486,37.37883741,1171.89
-80.53689495,37.37883740,1171.94
-80.53689523,37.37883730,1171.91
-80.53689536,37.37883560,1156.65
-80.53689564,37.37882513,1166.67
-80.53689568,37.37882262,1172.62
-80.53689660,37.37867453,1172.98
-80.53689660,37.37867366,1172.89
-80.53689692,37.37862172,1175.23
-80.53689836,37.37838793,1176.15
-80.53689871,37.37833111,1177.03
-80.53689913,37.37826270,1155.11
-80.53689934,37.37822842,1159.75
-80.53689948,37.37820636,1160.52
-80.53690071,37.37800644,1163.89
-80.53690136,37.37790002,1151.66
-80.53690168,37.37784745,1171.82
-80.53690247,37.37771967,1167.70
-80.53690397,37.37747105,1147.00
-80.53690563,37.37720416,1161.19
-80.53690829,37.37677202,1146.78
-80.53690924,37.37661948,1160.86
-80.53691074,37.37636842,1161.91
-80.53691228,37.37612418,1162.17
-80.53691349,37.37592695,1164.03
-80.53691509,37.37566676,1159.70
-80.53691527,37.37563727,1158.72
-80.53691585,37.37554379,1156.06
-80.53691622,37.37548278,1160.95
-80.53691865,37.37508599,1142.91
-80.53692123,37.37466779,1147.72
-80.53692279,37.37441411,1145.74
-80.53692356,37.37428931,1149.72
-80.53692356,37.37428920,1149.67
-80.53692479,37.37408882,1155.41
-80.53692483,37.37408234,1151.92
-80.53692610,37.37386574,1160.57
-80.53692775,37.37360538,1168.87
-80.53692976,37.37327118,1168.12
-80.53693239,37.37285313,1178.59
-80.53693282,37.37278289,1177.26
-80.53693557,37.37233628,1183.44
-80.53693806,37.37192644,1181.40
-80.53693923,37.37173901,1181.55
-80.53694072,37.37149850,1158.46
-80.53694269,37.37117715,1177.20
-80.53694530,37.37075143,1162.93
-80.53694652,37.37055356,1171.03
-80.53694660,37.37054181,1162.57
-80.53694870,37.37019530,1154.09
-80.53695010,37.36996932,1140.25
-80.53695080,37.36983539,1162.98
-80.53695069,37.36982856,1158.24
-80.53695001,37.36982423,1141.07
-80.53689455,37.36982389,1160.64
-80.53678620,37.36982344,1166.73
-80.53664284,37.36982288,1156.02
-80.53653709,37.36982247,1157.79
-80.53605709,37.36982058,1154.65
-80.53568082,37.36981913,1182.08
-80.53522615,37.36981732,1191.36
-80.53497223,37.36981632,1191.26
-80.53455411,37.36981467,1190.33
-80.53448004,37.36981438,1197.01
-80.53399310,37.36981246,1187.99
-80.53353851,37.36981068,1187.33
-80.53314706,37.36980918,1171.38
-80.53294170,37.36980834,1198.83
-80.53269328,37.36980733,1200.23
-80.53259978,37.36980697,1200.14
-80.53207889,37.36980491,1185.34
-80.53175869,37.36980365,1206.74
-80.53134038,37.36980198,1207.07
-80.53123377,37.36980156,1211.60
-80.53120215,37.36980143,1202.28
-80.53093318,37.36980037,1216.60
-80.53083739,37.36979999,1200.58
-80.53081582,37.36979990,1199.70
-80.53057477,37.36979895,1214.03
-80.53029612,37.36979789,1212.04
-80.52985032,37.36979607,1192.49
-80.52974139,37.36979563,1211.71
-80.52921775,37.36979357,1212.00
-80.52889969,37.36979229,1205.81
-80.52887521,37.36979219,1210.36
-80.52863399,37.36979123,1218.96
-80.52855604,37.36979092,1216.33
-80.52841590,37.36979036,1217.52
-80.52809474,37.36978908,1213.54
-80.52756060,37.36978694,1214.81
-80.52733034,37.36978604,1199.42
-80.52686619,37.36978418,1222.96
-80.52653933,37.36978286,1201.30
-80.52623491,37.36978164,1211.50
-80.52622257,37.36978159,1212.09
-80.52613871,37.36978126,1202.43
-80.52582902,37.36978001,1214.13
-80.52572053,37.36977959,1217.55
-80.52565844,37.36977935,1225.08
-80.52565766,37.36978687,1224.19
-80.52565735,37.36980542,1216.28
-80.52565729,37.36981242,1219.04
-80.52565699,37.36985950,1207.23
-80.52565496,37.37018158,1218.16
-80.52565485,37.37019948,1218.78
-80.52565447,37.37025919,1201.68
-80.52565205,37.37064519,1208.60
-80.52565110,37.37079422,1199.98
-80.52564911,37.37111043,1202.37
-80.52564693,37.37145910,1202.24
-80.52564575,37.37164586,1195.30
-80.52564386,37.37194381,1197.33
-80.52564274,37.37212564,1182.94
-80.52564087,37.37242028,1173.15
-80.52563973,37.37260080,1180.91
-80.52563793,37.37288570,1163.27
-80.52563555,37.37326536,1181.25
-80.52563347,37.37359836,1182.34
-80.52563201,37.37382582,1186.67
-80.52563000,37.37414581,1173.84
-80.52562999,37.37414668,1169.86
-80.52562795,37.37447076,1168.90
-80.52562653,37.37470832,1164.65
-80.52562474,37.37499305,1177.08
-80.52562360,37.37516142,1177.20
-80.52562277,37.37529285,1183.46
-80.52562182,37.37544614,1183.96
-80.52562055,37.37565079,1167.48
-80.52561813,37.37603594,1181.24
-80.52561693,37.37623741,1168.51
-80.52561521,37.37649432,1186.48
-80.52561239,37.37694390,1173.57
-80.52560991,37.37733448,1169.83
-80.52560743,37.37773087,1188.96
-80.52560662,37.37785859,1170.57
-80.52560447,37.37820296,1174.39
-80.52560333,37.37838102,1176.70
-80.52560270,37.37848223,1170.69
-80.52560094,37.37876313,1188.10
-80.52560119,37.37878838,1184.91
-80.52560177,37.37879047,1169.85
-80.52560431,37.37879170,1185.80
-80.52565469,37.37879288,1188.22
-80.52565759,37.37879293,1187.54
-80.52572096,37.37879334,1169.86
-80.52581369,37.37879372,1178.82
-80.52608555,37.37879480,1180.45
-80.52648672,37.37879641,1170.56
-80.52675347,37.37879748,1184.52
-80.52712991,37.37879897,1186.88
-80.52756474,37.37880073,1188.96
-80.52788073,37.37880199,1192.32
-80.52788504,37.37880201,1191.13
-80.52818671,37.37880321,1183.86
-80.52845229,37.37880427,1183.78
-80.52852142,37.37880455,1185.47
-80.52904758,37.37880662,1187.98
-80.52931970,37.37880773,1193.56
-80.52982360,37.37880973,1182.12
     </coordinates>
    </LineString>
   </MultiGeometry>
  </Placemark>
 </Document>
</kml>
