<kml>
 <Document>
  <Style id="yellow">
   <LineStyle>
   <color>ff00ffff</color>
   <width>1</width>
   </LineStyle>
  </Style>
  <Style id="red">
   <LineStyle>
   <color>ffff0000</color>
   <width>2</width>
   </LineStyle>
  </Style>
  <Style id="green">
   <LineStyle>
   <color>ff00ff00</color>
   <width>1</width>
   </LineStyle>
  </Style>
  <Placemark>
  <styleUrl>#yellow</styleUrl>
   <MultiGeometry>
    <LineString>
     <coordinates>
-80.51906985,37.39679400,1067.22
-80.51960282,37.39679616,1098.46
-80.51976009,37.39679680,1094.11
-80.51976045,37.39679680,1096.53
-80.52015982,37.39679843,1081.51
-80.52037423,37.39679929,1100.23
-80.52076148,37.39680086,1105.86
-80.52116086,37.39680248,1101.03
-80.52124775,37.39680284,1106.51
-80.52176596,37.39680493,1083.88
-80.52217005,37.39680657,1107.91
-80.52229745,37.39680708,1084.93
-80.52283994,37.39680926,1097.19
-80.52317787,37.39681062,1105.39
-80.52338219,37.39681145,1101.16
-80.52388562,37.39681349,1101.28
-80.52402021,37.39681403,1094.85
-80.52425499,37.39681497,1093.89
-80.52458670,37.39681630,1095.51
-80.52475171,37.39681695,1084.54
-80.52528514,37.39681910,1081.17
-80.52546262,37.39681983,1084.86
-80.52548469,37.39681980,1064.67
-80.52548635,37.39681924,1084.47
-80.52548707,37.39681774,1075.28
-80.52548806,37.39666643,1066.96
-80.52548926,37.39648037,1085.05
-80.52549120,37.39617137,1087.64
-80.52549173,37.39608774,1089.39
-80.52549370,37.39577384,1066.72
-80.52549482,37.39559787,1069.30
-80.52549709,37.39523811,1083.56
-80.52549733,37.39519968,1090.80
-80.52549791,37.39510776,1087.21
-80.52549992,37.39478866,1092.19
-80.52550085,37.39464162,1087.13
-80.52550120,37.39458628,1083.08
-80.52550312,37.39427596,1086.61
-80.52550429,37.39409589,1081.74
-80.52550675,37.39370570,1065.54
-80.52550766,37.39356174,1083.61
-80.52551032,37.39313829,1086.44
-80.52551245,37.39280069,1084.85
-80.52551332,37.39266100,1060.38
-80.52551547,37.39232273,1082.55
-80.52551551,37.39231618,1082.47
-80.52551712,37.39206088,1060.48
-80.52551963,37.39166263,1053.07
-80.52551995,37.39161179,1064.07
-80.52552038,37.39154224,1063.85
-80.52552237,37.39122536,1060.79
-80.52552348,37.39105156,1037.99
-80.52552470,37.39085680,1038.47
-80.52552596,37.39065475,1007.55
-80.52552870,37.39021994,1006.23
-80.52552919,37.39014118,1012.02
-80.52553092,37.38986725,1013.58
-80.52553162,37.38975642,1004.43
-80.52553274,37.38957715,1021.59
-80.52553362,37.38943292,1020.27
-80.52553577,37.38909863,1033.25
-80.52553579,37.38909666,1033.13
-80.52553688,37.38892350,1037.49
-80.52553842,37.38867902,1029.49
-80.52554023,37.38839167,1035.54
-80.52554149,37.38819377,1045.31
-80.52554322,37.38791885,1045.84
-80.52554385,37.38780877,1051.15
-80.52554377,37.38780764,1053.19
-80.52553286,37.38780666,1052.33
-80.52552813,37.38780637,1052.36
-80.52533895,37.38780560,1033.95
-80.52490482,37.38780384,1059.61
-80.52485087,37.38780363,1063.98
-80.52482663,37.38780353,1062.94
-80.52462558,37.38780272,1064.22
-80.52451471,37.38780228,1051.23
-80.52430546,37.38780144,1068.29
-80.52414916,37.38780081,1078.16
-80.52387861,37.38779972,1079.96
-80.52354324,37.38779838,1083.34
-80.52324962,37.38779718,1090.54
-80.52280087,37.38779538,1090.94
-80.52251457,37.38779422,1091.30
-80.52202138,37.38779223,1109.07
-80.52168524,37.38779087,1117.68
-80.52150894,37.38779015,1120.60
-80.52099681,37.38778808,1130.70
-80.52073755,37.38778703,1128.27
-80.52058387,37.38778641,1131.86
-80.52025089,37.38778506,1136.49
-80.51994277,37.38778381,1141.46
-80.51957036,37.38778229,1141.10
-80.51920522,37.38778082,1142.19
-80.51876718,37.38777903,1127.62
-80.51876406,37.38777901,1127.62
-80.51851267,37.38777799,1149.15
-80.51818393,37.38777665,1146.91
-80.51817595,37.38777662,1149.99
-80.51780236,37.38777510,1135.99
-80.51763406,37.38777441,1154.91
-80.51734103,37.38777323,1149.87
-80.51691283,37.38777147,1158.97
-80.51672327,37.38777070,1140.10
-80.51629750,37.38776895,1152.83
-80.51605441,37.38776800,1160.00
-80.51569429,37.38776651,1161.98
-80.51522444,37.38776457,1154.66
-80.51496739,37.38776352,1151.87
-80.51460076,37.38776201,1156.81
-80.51455208,37.38776181,1142.71
-80.51426678,37.38776065,1143.54
-80.51424918,37.38776073,1143.66
-80.51424862,37.38776134,1162.98
-80.51424836,37.38776317,1158.63
-80.51424806,37.38777289,1163.94
-80.51424765,37.38779620,1143.57
-80.51424642,37.38796666,1152.87
-80.51424517,37.38815744,1160.28
-80.51424379,37.38837114,1154.31
-80.51424232,37.38860000,1159.22
-80.51423968,37.38900940,1148.83
-80.51423816,37.38924500,1148.31
-80.51423711,37.38940632,1143.00
-80.51423632,37.38953471,1140.50
-80.51423394,37.38989890,1135.72
-80.51423393,37.38990020,1117.95
-80.51423332,37.38999393,1134.92
-80.51423116,37.39032880,1130.47
-80.51422923,37.39063067,1106.53
-80.51422816,37.39079478,1118.46
-80.51422743,37.39090790,1112.02
-80.51422714,37.39095289,1114.33
-80.51422537,37.39122594,1100.26
-80.51422326,37.39155413,1094.23
-80.51422190,37.39176483,1105.40
-80.51422182,37.39177613,1105.30
-80.51421974,37.39209842,1093.15
-80.51421880,37.39224479,1108.00
-80.51421810,37.39235287,1101.03
-80.51421562,37.39273948,1095.11
-80.51421364,37.39304466,1121.32
-80.51421316,37.39311846,1122.04
-80.51421099,37.39345966,1116.93
-80.51420839,37.39386315,1090.00
-80.51420746,37.39400605,1103.72
-80.51420573,37.39426979,1092.17
-80.51420420,37.39450989,1091.83
-80.51420151,37.39492430,1069.80
-80.51419923,37.39528262,1064.90
-80.51419825,37.39543231,1081.02
-80.51419719,37.39559327,1062.19
-80.51419692,37.39563461,1061.62
-80.51419581,37.39580684,1076.71
-80.51419398,37.39609100,1072.29
-80.51419276,37.39627958,1072.52
-80.51419028,37.39666954,1053.91
-80.51419020,37.39668303,1066.34
-80.51418981,37.39676785,1068.15
-80.51419184,37.39677161,1065.39
-80.51419586,37.39677286,1052.22
-80.51420025,37.39677366,1066.40
-80.51421195,37.39677391,1066.15
-80.51422311,37.39677415,1066.13
-80.51426965,37.39677435,1065.36
-80.51465395,37.39677594,1054.27
-80.51501981,37.39677745,1065.62
-80.51529839,37.39677860,1038.91
-80.51531370,37.39677866,1059.16
-80.51566794,37.39678011,1048.55
-80.51568351,37.39678018,1033.07
-80.51574989,37.39678045,1051.09
-80.51605522,37.39678169,1046.21
-80.51639878,37.39678310,1037.23
-80.51665505,37.39678414,1040.68
-80.51692696,37.39678524,1037.64
-80.51725594,37.39678661,1031.59
-80.51739301,37.39678716,1034.36
-80.51782642,37.39678891,1053.13
-80.51829896,37.39679086,1050.75
-80.51833050,37.39679099,1052.45
-80.51864950,37.39679229,1067.86
-80.51906985,37.39679400,1067.22
     </coordinates>
    </LineString>
   </MultiGeometry>
  </Placemark>
 </Document>
</kml>
