<kml>
 <Document>
  <Style id="yellow">
   <LineStyle>
   <color>ff00ffff</color>
   <width>1</width>
   </LineStyle>
  </Style>
  <Style id="red">
   <LineStyle>
   <color>ffff0000</color>
   <width>2</width>
   </LineStyle>
  </Style>
  <Style id="green">
   <LineStyle>
   <color>ff00ff00</color>
   <width>1</width>
   </LineStyle>
  </Style>
  <Placemark>
  <styleUrl>#yellow</styleUrl>
   <MultiGeometry>
    <LineString>
     <coordinates>
-80.53082866,37.40585498,1138.40
-80.53097368,37.40585555,1132.65
-80.53114043,37.40585621,1133.40
-80.53144044,37.40585740,1137.38
-80.53167380,37.40585833,1132.85
-80.53188925,37.40585918,1139.16
-80.53189859,37.40585922,1139.84
-80.53226673,37.40586067,1146.39
-80.53238945,37.40586116,1143.47
-80.53244617,37.40586138,1143.12
-80.53260212,37.40586200,1149.01
-80.53310087,37.40586396,1151.34
-80.53359354,37.40586589,1139.93
-80.53377607,37.40586662,1152.46
-80.53399371,37.40586748,1149.46
-80.53412175,37.40586798,1143.15
-80.53454894,37.40586966,1154.01
-80.53509893,37.40587184,1147.85
-80.53555438,37.40587363,1156.60
-80.53560886,37.40587385,1170.47
-80.53585973,37.40587483,1164.70
-80.53607976,37.40587569,1164.27
-80.53647233,37.40587724,1183.49
-80.53668687,37.40587807,1184.51
-80.53672412,37.40587819,1184.30
-80.53672881,37.40587805,1183.08
-80.53672904,37.40587507,1185.51
-80.53672925,37.40585988,1191.60
-80.53673067,37.40564062,1183.55
-80.53673080,37.40561816,1180.53
-80.53673282,37.40529127,1166.29
-80.53673470,37.40498757,1166.80
-80.53673584,37.40480147,1152.51
-80.53673703,37.40460955,1159.88
-80.53673751,37.40453122,1162.01
-80.53673980,37.40415902,1137.57
-80.53674036,37.40406845,1147.08
-80.53674043,37.40405644,1148.90
-80.53674089,37.40398220,1134.93
-80.53674144,37.40389235,1152.71
-80.53674332,37.40358272,1128.52
-80.53674448,37.40339715,1141.44
-80.53674555,37.40322471,1122.58
-80.53674787,37.40284827,1128.55
-80.53674838,37.40276514,1123.96
-80.53674905,37.40265677,1110.75
-80.53675106,37.40232559,1102.19
-80.53675193,37.40218868,1105.09
-80.53675340,37.40194950,1123.28
-80.53675444,37.40178125,1113.07
-80.53675512,37.40166897,1102.89
-80.53675748,37.40128727,1122.36
-80.53675856,37.40111238,1097.54
-80.53675995,37.40088499,1099.65
-80.53676246,37.40047752,1085.68
-80.53676303,37.40038483,1078.85
-80.53676447,37.40014838,1065.10
-80.53676616,37.39987660,1056.70
-80.53676688,37.39975932,1043.62
-80.53676854,37.39948984,1041.92
-80.53677066,37.39914608,1032.26
-80.53677229,37.39888079,1023.11
-80.53677431,37.39854888,1029.56
-80.53677527,37.39839559,1025.59
-80.53677566,37.39833088,1019.46
-80.53677611,37.39825931,998.45
-80.53677764,37.39801029,995.21
-80.53677831,37.39790174,1014.45
-80.53678065,37.39752355,1011.12
-80.53678205,37.39728985,1011.20
-80.53678358,37.39704655,1004.41
-80.53678416,37.39695093,1005.13
-80.53678453,37.39686529,1014.23
-80.53678030,37.39686516,1013.61
-80.53677232,37.39686501,1011.77
-80.53670617,37.39686448,992.03
-80.53667776,37.39686431,1009.29
-80.53660354,37.39686402,993.22
-80.53653515,37.39686375,995.57
-80.53629999,37.39686283,1017.01
-80.53621893,37.39686251,1017.73
-80.53616777,37.39686231,1019.10
-80.53594978,37.39686147,1018.78
-80.53555282,37.39685990,1025.99
-80.53510478,37.39685814,1020.20
-80.53466842,37.39685644,1023.55
-80.53441506,37.39685542,1023.12
-80.53405774,37.39685402,1034.87
-80.53379133,37.39685297,1030.90
-80.53364137,37.39685237,1041.85
-80.53357608,37.39685212,1041.01
-80.53354989,37.39685201,1036.22
-80.53335256,37.39685123,1014.07
-80.53316287,37.39685049,1038.67
-80.53291444,37.39684951,1036.30
-80.53277648,37.39684896,1041.19
-80.53227074,37.39684697,1024.22
-80.53208566,37.39684624,1043.66
-80.53207403,37.39684619,1032.93
-80.53198075,37.39684582,1037.19
-80.53187795,37.39684542,1048.41
-80.53136616,37.39684338,1051.70
-80.53118494,37.39684266,1054.04
-80.53115962,37.39684256,1032.65
-80.53087386,37.39684144,1037.39
-80.53043103,37.39683967,1061.82
-80.53015048,37.39683856,1047.69
-80.52974249,37.39683693,1058.40
-80.52957601,37.39683627,1063.36
-80.52921041,37.39683483,1063.14
-80.52897505,37.39683389,1060.86
-80.52869066,37.39683274,1071.50
-80.52834860,37.39683138,1069.67
-80.52810200,37.39683042,1068.18
-80.52762579,37.39682850,1068.17
-80.52723771,37.39682694,1078.93
-80.52681181,37.39682524,1078.62
-80.52636508,37.39682345,1079.28
-80.52608168,37.39682232,1083.22
-80.52594146,37.39682175,1082.82
-80.52549092,37.39681997,1086.84
-80.52548714,37.39682027,1083.60
-80.52548577,37.39703586,1079.51
-80.52548386,37.39733851,1087.36
-80.52548309,37.39746271,1087.83
-80.52548126,37.39775581,1075.11
-80.52547943,37.39804134,1082.37
-80.52547708,37.39841639,1091.41
-80.52547531,37.39869613,1092.74
-80.52547301,37.39905832,1084.47
-80.52547296,37.39906648,1095.16
-80.52547289,37.39907859,1087.53
-80.52547278,37.39909474,1094.21
-80.52547034,37.39948305,1099.64
-80.52546848,37.39977711,1096.01
-80.52546770,37.39990180,1107.06
-80.52546671,37.40005752,1097.88
-80.52546665,37.40006770,1098.03
-80.52546621,37.40013687,1098.81
-80.52546557,37.40024075,1106.90
-80.52546322,37.40061418,1112.44
-80.52546267,37.40069896,1111.63
-80.52546234,37.40075095,1109.00
-80.52546170,37.40085268,1128.88
-80.52546164,37.40086283,1130.01
-80.52546004,37.40112004,1129.66
-80.52545879,37.40131391,1107.28
-80.52545703,37.40159811,1118.71
-80.52545490,37.40193048,1098.13
-80.52545457,37.40198513,1122.55
-80.52545350,37.40215790,1100.34
-80.52545170,37.40244192,1123.86
-80.52544933,37.40281474,1129.04
-80.52544664,37.40324233,1147.14
-80.52544500,37.40350519,1155.55
-80.52544291,37.40383178,1166.73
-80.52544286,37.40383961,1166.76
-80.52544214,37.40395764,1169.87
-80.52543980,37.40432544,1176.82
-80.52543951,37.40437161,1183.92
-80.52543773,37.40465433,1179.49
-80.52543497,37.40509067,1180.27
-80.52543331,37.40535583,1183.17
-80.52543128,37.40567632,1189.22
-80.52543128,37.40567649,1191.17
-80.52543081,37.40575994,1204.03
-80.52543069,37.40579961,1200.48
-80.52543075,37.40582495,1194.23
-80.52543077,37.40583282,1196.34
-80.52543286,37.40583306,1197.32
-80.52543689,37.40583338,1197.30
-80.52543884,37.40583346,1196.32
-80.52549919,37.40583371,1186.72
-80.52575144,37.40583472,1190.09
-80.52586717,37.40583518,1185.33
-80.52604406,37.40583589,1190.90
-80.52614406,37.40583629,1193.17
-80.52661306,37.40583816,1195.39
-80.52680472,37.40583894,1192.95
-80.52715479,37.40584033,1187.44
-80.52756405,37.40584197,1179.50
-80.52762714,37.40584222,1179.71
-80.52771117,37.40584255,1161.15
-80.52777268,37.40584280,1173.62
-80.52792067,37.40584339,1172.37
-80.52819774,37.40584450,1167.33
-80.52852444,37.40584581,1158.92
-80.52871899,37.40584659,1166.32
-80.52891356,37.40584736,1154.90
-80.52932246,37.40584899,1154.47
-80.52952987,37.40584982,1133.91
-80.52993115,37.40585141,1125.32
-80.53040539,37.40585329,1148.34
-80.53082866,37.40585498,1138.40
     </coordinates>
    </LineString>
   </MultiGeometry>
  </Placemark>
 </Document>
</kml>
