<kml>
 <Document>
  <Style id="yellow">
   <LineStyle>
   <color>ff00ffff</color>
   <width>1</width>
   </LineStyle>
  </Style>
  <Style id="red">
   <LineStyle>
   <color>ffff0000</color>
   <width>2</width>
   </LineStyle>
  </Style>
  <Style id="green">
   <LineStyle>
   <color>ff00ff00</color>
   <width>1</width>
   </LineStyle>
  </Style>
  <Placemark>
  <styleUrl>#yellow</styleUrl>
   <MultiGeometry>
    <LineString>
     <coordinates>
-80.49593857,37.41472509,1188.64
-80.49595043,37.41472514,1199.02
-80.49635733,37.41472687,1184.80
-80.49675320,37.41472855,1199.67
-80.49708331,37.41472996,1201.22
-80.49746037,37.41473157,1204.37
-80.49754908,37.41473195,1203.91
-80.49807046,37.41473414,1198.57
-80.49854940,37.41473617,1198.29
-80.49872437,37.41473693,1212.46
-80.49924398,37.41473913,1219.40
-80.49950265,37.41474022,1206.92
-80.49992394,37.41474202,1216.85
-80.49992617,37.41474202,1224.57
-80.49993184,37.41474205,1223.75
-80.49995316,37.41474214,1212.90
-80.50002883,37.41474246,1206.60
-80.50020448,37.41474319,1206.77
-80.50073631,37.41474545,1207.27
-80.50077655,37.41474562,1221.53
-80.50092526,37.41474625,1223.79
-80.50103012,37.41474668,1206.80
-80.50157330,37.41474897,1206.84
-80.50177105,37.41474981,1206.99
-80.50193800,37.41475050,1208.79
-80.50233930,37.41475214,1207.88
-80.50251743,37.41475293,1225.72
-80.50267334,37.41475361,1223.08
-80.50275576,37.41475363,1222.37
-80.50276671,37.41475256,1223.21
-80.50277250,37.41475014,1206.34
-80.50277316,37.41469921,1223.28
-80.50277464,37.41449169,1201.26
-80.50277577,37.41432164,1212.83
-80.50277718,37.41410490,1200.84
-80.50277946,37.41375744,1198.08
-80.50278105,37.41351927,1197.28
-80.50278367,37.41312534,1182.97
-80.50278616,37.41274824,1181.05
-80.50278681,37.41265023,1183.83
-80.50278884,37.41234395,1187.29
-80.50279000,37.41216773,1186.23
-80.50279052,37.41209025,1188.67
-80.50279122,37.41198359,1178.78
-80.50279393,37.41157059,1186.99
-80.50279487,37.41143118,1190.12
-80.50279648,37.41118722,1200.28
-80.50279832,37.41090933,1185.78
-80.50280074,37.41054139,1186.34
-80.50280263,37.41025052,1196.62
-80.50280359,37.41010350,1194.76
-80.50280640,37.40968770,1194.31
-80.50280869,37.40934110,1203.16
-80.50281156,37.40890404,1189.96
-80.50281309,37.40867512,1176.62
-80.50281395,37.40854480,1188.94
-80.50281660,37.40814256,1178.24
-80.50281869,37.40782716,1179.25
-80.50282069,37.40751264,1166.55
-80.50282222,37.40728947,1170.40
-80.50282439,37.40696281,1174.95
-80.50282657,37.40663370,1166.39
-80.50282905,37.40625908,1167.33
-80.50282915,37.40624505,1167.78
-80.50283060,37.40602492,1161.79
-80.50283134,37.40591026,1168.73
-80.50283233,37.40574215,1168.83
-80.50281669,37.40574092,1160.46
-80.50279893,37.40574047,1168.69
-80.50264401,37.40573978,1168.68
-80.50255383,37.40573940,1161.26
-80.50219435,37.40573791,1178.61
-80.50197758,37.40573699,1171.15
-80.50155208,37.40573519,1185.95
-80.50146554,37.40573482,1183.65
-80.50124109,37.40573387,1175.52
-80.50115712,37.40573352,1177.51
-80.50059997,37.40573117,1189.12
-80.50009587,37.40572906,1199.47
-80.49993398,37.40572835,1203.32
-80.49989771,37.40572820,1204.08
-80.49983178,37.40572792,1204.74
-80.49968481,37.40572730,1202.81
-80.49966102,37.40572720,1207.77
-80.49949191,37.40572648,1206.76
-80.49923299,37.40572539,1209.61
-80.49873838,37.40572330,1195.92
-80.49830270,37.40572144,1197.68
-80.49824733,37.40572121,1197.73
-80.49794520,37.40571992,1207.77
-80.49789904,37.40571973,1213.15
-80.49737786,37.40571751,1202.09
-80.49725334,37.40571698,1203.31
-80.49718056,37.40571668,1200.94
-80.49667900,37.40571455,1216.53
-80.49659652,37.40571419,1200.84
-80.49605898,37.40571190,1210.07
-80.49576123,37.40571063,1199.02
-80.49565123,37.40571016,1199.36
-80.49559037,37.40570990,1209.47
-80.49558080,37.40570986,1212.79
-80.49519777,37.40570825,1210.62
-80.49486008,37.40570679,1208.54
-80.49443241,37.40570496,1205.74
-80.49439249,37.40570479,1198.86
-80.49391723,37.40570276,1182.31
-80.49378098,37.40570217,1194.90
-80.49322619,37.40569979,1187.82
-80.49296834,37.40569869,1174.32
-80.49294825,37.40569860,1186.26
-80.49264370,37.40569730,1169.01
-80.49217111,37.40569527,1161.37
-80.49203416,37.40569469,1177.27
-80.49202909,37.40569466,1179.10
-80.49185459,37.40569391,1170.95
-80.49185341,37.40569391,1170.87
-80.49160870,37.40569287,1158.88
-80.49153583,37.40569257,1162.74
-80.49153367,37.40569904,1156.07
-80.49153239,37.40587600,1174.49
-80.49153016,37.40620670,1179.54
-80.49152739,37.40661613,1170.75
-80.49152540,37.40691062,1188.96
-80.49152312,37.40724769,1192.89
-80.49152271,37.40730872,1196.47
-80.49152129,37.40751875,1192.06
-80.49151851,37.40793106,1207.84
-80.49151781,37.40803295,1204.10
-80.49151771,37.40804895,1204.45
-80.49151695,37.40816084,1213.55
-80.49151671,37.40819564,1205.58
-80.49151533,37.40840251,1215.48
-80.49151353,37.40866745,1226.02
-80.49151275,37.40878199,1216.85
-80.49151053,37.40910990,1222.74
-80.49150841,37.40942592,1224.62
-80.49150550,37.40985685,1229.86
-80.49150372,37.41012021,1233.85
-80.49150218,37.41034745,1228.48
-80.49150113,37.41050273,1227.81
-80.49149903,37.41081234,1228.70
-80.49149794,37.41097718,1218.64
-80.49149545,37.41134556,1220.91
-80.49149506,37.41140204,1222.52
-80.49149369,37.41160519,1211.31
-80.49149140,37.41194071,1206.99
-80.49149102,37.41199687,1200.15
-80.49148946,37.41223631,1198.22
-80.49148764,37.41250081,1205.78
-80.49148671,37.41263601,1196.77
-80.49148544,37.41282234,1195.77
-80.49148308,37.41317378,1195.46
-80.49148093,37.41349250,1201.41
-80.49147915,37.41375725,1203.97
-80.49147720,37.41404150,1210.90
-80.49147713,37.41405178,1209.59
-80.49147500,37.41436661,1207.65
-80.49147294,37.41467138,1212.71
-80.49147295,37.41469028,1213.46
-80.49147399,37.41469843,1213.79
-80.49147731,37.41470406,1204.83
-80.49148188,37.41470532,1207.25
-80.49148449,37.41470586,1208.08
-80.49149449,37.41470598,1213.70
-80.49153463,37.41470622,1200.81
-80.49174032,37.41470712,1207.74
-80.49214684,37.41470886,1199.16
-80.49233570,37.41470967,1213.21
-80.49283010,37.41471179,1200.48
-80.49303786,37.41471269,1194.47
-80.49353328,37.41471481,1192.12
-80.49354497,37.41471486,1198.60
-80.49374079,37.41471570,1190.27
-80.49407779,37.41471714,1195.66
-80.49437467,37.41471841,1200.38
-80.49444112,37.41471870,1193.61
-80.49480709,37.41472026,1185.62
-80.49520647,37.41472197,1197.40
-80.49541018,37.41472284,1201.76
-80.49577646,37.41472440,1188.67
-80.49586305,37.41472477,1190.99
-80.49593857,37.41472509,1188.64
     </coordinates>
    </LineString>
   </MultiGeometry>
  </Placemark>
 </Document>
</kml>
