<kml>
 <Document>
  <Style id="yellow">
   <LineStyle>
   <color>ff00ffff</color>
   <width>1</width>
   </LineStyle>
  </Style>
  <Style id="red">
   <LineStyle>
   <color>ffff0000</color>
   <width>2</width>
   </LineStyle>
  </Style>
  <Style id="green">
   <LineStyle>
   <color>ff00ff00</color>
   <width>1</width>
   </LineStyle>
  </Style>
  <Placemark>
  <styleUrl>#yellow</styleUrl>
   <MultiGeometry>
    <LineString>
     <coordinates>
-80.50679462,37.37871592,1156.21
-80.50707884,37.37871712,1145.32
-80.50759220,37.37871921,1144.06
-80.50769773,37.37871969,1155.52
-80.50818251,37.37872169,1157.43
-80.50849050,37.37872298,1143.40
-80.50887149,37.37872458,1158.49
-80.50901632,37.37872518,1157.39
-80.50928475,37.37872629,1151.36
-80.50962669,37.37872768,1151.37
-80.50987570,37.37872874,1153.46
-80.51024718,37.37873027,1154.77
-80.51044104,37.37873108,1156.14
-80.51080240,37.37873255,1149.33
-80.51119426,37.37873420,1138.74
-80.51169185,37.37873626,1150.98
-80.51177646,37.37873660,1150.88
-80.51178018,37.37873662,1148.44
-80.51218754,37.37873828,1144.36
-80.51236754,37.37873903,1138.55
-80.51262946,37.37874012,1152.95
-80.51266602,37.37874027,1142.70
-80.51289539,37.37874122,1150.13
-80.51320188,37.37874246,1150.07
-80.51355670,37.37874393,1151.95
-80.51373246,37.37874465,1147.03
-80.51405398,37.37874597,1151.47
-80.51427653,37.37874673,1149.37
-80.51430223,37.37874676,1145.16
-80.51430409,37.37874579,1145.57
-80.51430567,37.37874470,1147.81
-80.51430580,37.37874414,1136.79
-80.51430592,37.37872759,1144.40
-80.51430643,37.37865314,1149.67
-80.51430673,37.37860826,1147.85
-80.51430832,37.37836540,1142.81
-80.51430985,37.37812920,1135.71
-80.51431119,37.37792073,1135.59
-80.51431307,37.37762892,1136.86
-80.51431421,37.37745293,1158.30
-80.51431509,37.37731627,1157.96
-80.51431611,37.37715673,1153.74
-80.51431837,37.37680567,1144.15
-80.51432017,37.37652904,1162.69
-80.51432145,37.37632945,1168.51
-80.51432184,37.37627007,1149.58
-80.51432444,37.37586621,1167.68
-80.51432655,37.37553828,1177.35
-80.51432833,37.37525510,1161.90
-80.51432970,37.37504657,1176.47
-80.51433198,37.37469706,1181.74
-80.51433225,37.37465543,1170.44
-80.51433497,37.37423058,1189.66
-80.51433561,37.37413187,1187.94
-80.51433593,37.37408281,1167.38
-80.51433829,37.37371696,1167.66
-80.51434034,37.37339978,1190.65
-80.51434229,37.37309692,1190.70
-80.51434258,37.37305268,1178.92
-80.51434390,37.37284773,1176.67
-80.51434592,37.37253386,1194.34
-80.51434765,37.37226622,1195.57
-80.51434990,37.37191671,1205.37
-80.51435042,37.37183658,1184.28
-80.51435186,37.37161326,1204.25
-80.51435211,37.37157385,1199.90
-80.51435434,37.37122776,1184.55
-80.51435522,37.37109157,1195.83
-80.51435579,37.37100385,1199.23
-80.51435832,37.37060933,1185.58
-80.51435988,37.37036876,1192.19
-80.51436053,37.37026746,1187.27
-80.51436286,37.36990651,1191.66
-80.51436366,37.36978299,1193.34
-80.51436381,37.36975982,1197.15
-80.51436380,37.36973758,1180.46
-80.51436221,37.36973487,1196.29
-80.51436092,37.36973431,1195.14
-80.51435959,37.36973374,1193.94
-80.51434103,37.36973347,1197.04
-80.51432910,37.36973340,1180.36
-80.51427978,37.36973317,1196.14
-80.51411783,37.36973248,1180.05
-80.51365077,37.36973056,1180.89
-80.51351554,37.36973001,1180.75
-80.51320037,37.36972872,1188.99
-80.51277359,37.36972696,1188.90
-80.51224690,37.36972478,1172.70
-80.51188799,37.36972330,1181.18
-80.51141367,37.36972136,1173.87
-80.51127076,37.36972075,1157.34
-80.51119370,37.36972043,1176.71
-80.51074943,37.36971863,1158.85
-80.51060596,37.36971801,1159.88
-80.51051784,37.36971764,1155.73
-80.51030083,37.36971674,1156.61
-80.50974069,37.36971444,1139.35
-80.50955518,37.36971365,1142.52
-80.50921376,37.36971223,1134.20
-80.50902495,37.36971145,1127.23
-80.50893500,37.36971108,1121.85
-80.50845738,37.36970912,1119.34
-80.50804798,37.36970740,1108.90
-80.50750267,37.36970512,1081.78
-80.50748848,37.36970506,1099.80
-80.50743104,37.36970482,1100.66
-80.50733935,37.36970444,1081.26
-80.50720464,37.36970388,1086.33
-80.50669235,37.36970175,1072.71
-80.50630304,37.36970012,1056.18
-80.50594204,37.36969862,1044.68
-80.50550697,37.36969680,1038.46
-80.50506131,37.36969496,1024.53
-80.50488597,37.36969420,1022.11
-80.50478157,37.36969376,1013.26
-80.50422392,37.36969143,984.19
-80.50381111,37.36968969,990.12
-80.50354307,37.36968857,982.03
-80.50320572,37.36968715,976.67
-80.50307076,37.36968659,973.75
-80.50307067,37.36969301,976.12
-80.50307053,37.36970395,971.52
-80.50307015,37.36974706,972.01
-80.50306828,37.37002497,951.27
-80.50306820,37.37003628,949.44
-80.50306560,37.37043430,975.76
-80.50306325,37.37078921,983.83
-80.50306217,37.37095151,987.75
-80.50306116,37.37110551,986.86
-80.50305918,37.37141975,997.49
-80.50305766,37.37163970,979.92
-80.50305714,37.37171321,998.45
-80.50305662,37.37179212,996.53
-80.50305649,37.37181222,995.07
-80.50305372,37.37223232,1004.00
-80.50305186,37.37251655,1035.07
-80.50305010,37.37278414,1044.76
-80.50304716,37.37322591,1058.03
-80.50304578,37.37343603,1056.24
-80.50304561,37.37346082,1060.79
-80.50304454,37.37362293,1061.21
-80.50304282,37.37388469,1070.01
-80.50304067,37.37423276,1093.59
-80.50303890,37.37448765,1092.16
-80.50303818,37.37458879,1099.27
-80.50303689,37.37478366,1102.57
-80.50303464,37.37512358,1110.68
-80.50303355,37.37529098,1122.57
-80.50303109,37.37566601,1106.93
-80.50302992,37.37584182,1131.43
-80.50302786,37.37615371,1138.07
-80.50302626,37.37639460,1143.64
-80.50302346,37.37681805,1143.55
-80.50302064,37.37724666,1136.15
-80.50301974,37.37738728,1126.51
-80.50301762,37.37770698,1137.68
-80.50301660,37.37785820,1134.09
-80.50301384,37.37827839,1143.82
-80.50301351,37.37832859,1129.20
-80.50301252,37.37847819,1136.86
-80.50301141,37.37865133,1143.07
-80.50301221,37.37869127,1127.65
-80.50301287,37.37869908,1127.81
-80.50304782,37.37870016,1128.43
-80.50317517,37.37870077,1135.06
-80.50354942,37.37870235,1144.10
-80.50356302,37.37870241,1138.41
-80.50394288,37.37870400,1137.43
-80.50431774,37.37870558,1144.21
-80.50457647,37.37870666,1150.65
-80.50467307,37.37870707,1144.10
-80.50495121,37.37870823,1150.88
-80.50530444,37.37870970,1152.15
-80.50559643,37.37871092,1150.16
-80.50595076,37.37871241,1156.23
-80.50595480,37.37871243,1147.17
-80.50633534,37.37871402,1155.50
-80.50679462,37.37871592,1156.21
     </coordinates>
    </LineString>
   </MultiGeometry>
  </Placemark>
 </Document>
</kml>
