<kml>
 <Document>
  <Style id="yellow">
   <LineStyle>
   <color>ff00ffff</color>
   <width>1</width>
   </LineStyle>
  </Style>
  <Style id="red">
   <LineStyle>
   <color>ffff0000</color>
   <width>2</width>
   </LineStyle>
  </Style>
  <Style id="green">
   <LineStyle>
   <color>ff00ff00</color>
   <width>1</width>
   </LineStyle>
  </Style>
  <Placemark>
  <styleUrl>#yellow</styleUrl>
   <MultiGeometry>
    <LineString>
     <coordinates>
-80.51761190,37.42382922,968.40
-80.51803153,37.42383093,987.06
-80.51803969,37.42383096,980.45
-80.51847820,37.42383274,982.59
-80.51868940,37.42383361,978.71
-80.51908907,37.42383524,975.97
-80.51929380,37.42383606,972.54
-80.51946985,37.42383677,948.94
-80.51999518,37.42383892,957.79
-80.52029614,37.42384014,966.19
-80.52040330,37.42384057,967.43
-80.52043128,37.42384069,959.46
-80.52051784,37.42384104,957.21
-80.52103176,37.42384309,962.52
-80.52154284,37.42384518,960.05
-80.52160261,37.42384542,957.12
-80.52207293,37.42384733,954.61
-80.52240553,37.42384867,955.62
-80.52281804,37.42385029,955.55
-80.52311893,37.42385153,951.82
-80.52317361,37.42385176,955.89
-80.52341458,37.42385275,952.14
-80.52388277,37.42385464,948.28
-80.52402097,37.42385520,948.30
-80.52456844,37.42385739,941.90
-80.52488248,37.42385865,939.86
-80.52522560,37.42386004,933.29
-80.52529373,37.42386030,951.21
-80.52530501,37.42385949,941.79
-80.52531261,37.42385720,954.05
-80.52531538,37.42385364,953.81
-80.52531648,37.42384519,949.49
-80.52531663,37.42382791,945.33
-80.52531714,37.42376216,951.42
-80.52531856,37.42353357,943.83
-80.52532100,37.42315060,930.97
-80.52532167,37.42304537,949.46
-80.52532374,37.42271038,960.28
-80.52532519,37.42248217,969.52
-80.52532586,37.42237774,963.99
-80.52532828,37.42199596,944.78
-80.52532850,37.42196169,966.67
-80.52533086,37.42158818,979.97
-80.52533298,37.42125381,982.06
-80.52533493,37.42094538,979.50
-80.52533692,37.42062552,966.76
-80.52533841,37.42039283,998.27
-80.52534109,37.41996811,998.04
-80.52534302,37.41966228,994.93
-80.52534482,37.41936517,1005.41
-80.52534746,37.41896004,1008.54
-80.52534933,37.41865609,1026.31
-80.52535038,37.41849261,1005.07
-80.52535143,37.41833116,1031.02
-80.52535144,37.41832919,1028.96
-80.52535400,37.41792398,1036.77
-80.52535415,37.41789930,1016.59
-80.52535643,37.41753850,1042.07
-80.52535900,37.41713023,1058.12
-80.52536011,37.41695498,1054.64
-80.52536185,37.41667496,1044.13
-80.52536310,37.41647808,1058.68
-80.52536534,37.41612461,1082.44
-80.52536703,37.41585887,1085.39
-80.52536864,37.41559967,1074.95
-80.52537025,37.41534389,1077.89
-80.52537229,37.41502376,1104.81
-80.52537330,37.41485623,1105.30
-80.52537320,37.41484868,1110.65
-80.52537289,37.41484757,1105.18
-80.52536810,37.41484716,1083.06
-80.52533205,37.41484678,1109.92
-80.52512924,37.41484596,1114.67
-80.52489716,37.41484505,1085.25
-80.52456361,37.41484370,1123.62
-80.52445673,37.41484326,1118.09
-80.52437550,37.41484293,1124.65
-80.52408538,37.41484176,1124.28
-80.52365316,37.41484002,1128.36
-80.52351842,37.41483947,1130.61
-80.52351838,37.41483947,1130.61
-80.52314181,37.41483795,1150.73
-80.52288674,37.41483692,1148.55
-80.52281038,37.41483662,1155.65
-80.52234237,37.41483474,1156.68
-80.52222756,37.41483427,1161.66
-80.52174945,37.41483233,1168.88
-80.52149845,37.41483131,1171.54
-80.52127418,37.41483041,1185.12
-80.52095215,37.41482910,1192.04
-80.52081698,37.41482856,1209.16
-80.52061005,37.41482773,1213.60
-80.52022879,37.41482617,1221.28
-80.52015050,37.41482585,1230.42
-80.52006607,37.41482551,1232.48
-80.51987325,37.41482472,1224.06
-80.51948891,37.41482316,1242.13
-80.51926125,37.41482224,1228.43
-80.51905359,37.41482141,1230.50
-80.51868398,37.41481990,1246.37
-80.51838259,37.41481866,1243.47
-80.51829540,37.41481831,1246.48
-80.51819961,37.41481792,1250.84
-80.51795647,37.41481692,1237.25
-80.51751128,37.41481512,1252.76
-80.51716534,37.41481370,1241.20
-80.51674704,37.41481199,1253.75
-80.51655109,37.41481119,1256.69
-80.51630756,37.41481019,1249.09
-80.51617312,37.41480965,1256.01
-80.51589664,37.41480854,1264.96
-80.51541211,37.41480656,1267.14
-80.51515862,37.41480548,1265.73
-80.51464477,37.41480338,1264.05
-80.51426270,37.41480181,1262.69
-80.51416514,37.41480141,1250.07
-80.51408709,37.41480108,1261.86
-80.51407601,37.41480120,1258.89
-80.51407407,37.41480138,1258.76
-80.51407321,37.41480238,1261.18
-80.51407299,37.41482771,1262.42
-80.51407202,37.41497662,1263.07
-80.51406994,37.41529928,1262.05
-80.51406945,37.41537580,1265.93
-80.51406854,37.41551830,1256.78
-80.51406718,37.41573049,1254.28
-80.51406532,37.41601408,1262.61
-80.51406437,37.41616175,1247.19
-80.51406254,37.41644685,1242.66
-80.51406171,37.41657808,1239.32
-80.51405958,37.41690284,1225.94
-80.51405868,37.41704233,1229.41
-80.51405832,37.41709731,1226.16
-80.51405560,37.41751802,1211.46
-80.51405550,37.41753396,1203.62
-80.51405368,37.41781613,1200.66
-80.51405156,37.41814349,1187.66
-80.51405145,37.41816063,1187.35
-80.51404964,37.41844396,1173.50
-80.51404803,37.41869165,1168.82
-80.51404598,37.41900768,1150.12
-80.51404588,37.41902312,1152.46
-80.51404535,37.41910517,1150.45
-80.51404260,37.41953269,1128.37
-80.51404221,37.41959213,1127.97
-80.51404158,37.41969030,1128.97
-80.51403934,37.42003664,1097.67
-80.51403809,37.42022919,1099.95
-80.51403716,37.42037281,1099.39
-80.51403646,37.42048049,1081.26
-80.51403615,37.42052928,1084.48
-80.51403561,37.42061212,1069.20
-80.51403523,37.42067155,1059.33
-80.51403313,37.42099680,1056.17
-80.51403250,37.42109425,1056.15
-80.51403110,37.42131136,1049.89
-80.51402886,37.42166209,1040.03
-80.51402754,37.42186395,1032.54
-80.51402640,37.42203858,1029.31
-80.51402406,37.42240157,1010.38
-80.51402162,37.42277867,1000.54
-80.51402051,37.42295196,1014.37
-80.51401902,37.42318429,1015.12
-80.51401742,37.42343035,987.68
-80.51401604,37.42364090,981.17
-80.51401513,37.42380338,1003.30
-80.51401625,37.42381067,978.60
-80.51401696,37.42381267,1000.55
-80.51402405,37.42381418,1000.68
-80.51403741,37.42381450,1001.75
-80.51406728,37.42381467,977.73
-80.51424381,37.42381542,1000.88
-80.51453957,37.42381664,976.29
-80.51466706,37.42381716,972.04
-80.51468832,37.42381725,997.90
-80.51483339,37.42381785,995.29
-80.51519311,37.42381932,998.26
-80.51542542,37.42382027,995.44
-80.51569536,37.42382138,990.26
-80.51575331,37.42382162,982.31
-80.51580385,37.42382182,990.86
-80.51590989,37.42382226,994.48
-80.51612569,37.42382314,981.33
-80.51612575,37.42382314,981.37
-80.51636543,37.42382412,986.26
-80.51681457,37.42382594,974.63
-80.51712436,37.42382722,976.36
-80.51756123,37.42382901,989.29
-80.51761190,37.42382922,968.40
     </coordinates>
    </LineString>
   </MultiGeometry>
  </Placemark>
 </Document>
</kml>
