<kml>
 <Document>
  <Style id="yellow">
   <LineStyle>
   <color>ff00ffff</color>
   <width>1</width>
   </LineStyle>
  </Style>
  <Style id="red">
   <LineStyle>
   <color>ffff0000</color>
   <width>2</width>
   </LineStyle>
  </Style>
  <Style id="green">
   <LineStyle>
   <color>ff00ff00</color>
   <width>1</width>
   </LineStyle>
  </Style>
  <Placemark>
  <styleUrl>#yellow</styleUrl>
   <MultiGeometry>
    <LineString>
     <coordinates>
-121.97335186,45.87795478,387.17
-121.97376100,45.87795847,345.58
-121.97391664,45.87795987,350.95
-121.97404661,45.87796103,380.45
-121.97439530,45.87796416,349.39
-121.97496706,45.87796929,378.68
-121.97547115,45.87797379,350.29
-121.97566153,45.87797552,343.52
-121.97587556,45.87797744,348.16
-121.97602147,45.87797875,376.69
-121.97655121,45.87798349,370.93
-121.97712143,45.87798858,374.91
-121.97771102,45.87799388,351.10
-121.97817010,45.87799797,383.17
-121.97875834,45.87800322,386.53
-121.97934261,45.87800844,377.41
-121.97952041,45.87801002,361.39
-121.97981124,45.87801254,342.26
-121.98022569,45.87801634,338.47
-121.98034758,45.87801743,340.49
-121.98062530,45.87801986,338.78
-121.98119472,45.87802497,369.50
-121.98143229,45.87802708,355.24
-121.98198237,45.87803199,374.35
-121.98198698,45.87803179,357.60
-121.98198737,45.87801192,362.41
-121.98199152,45.87777990,347.92
-121.98199709,45.87747635,380.94
-121.98200062,45.87728793,352.32
-121.98200428,45.87708757,350.73
-121.98200834,45.87686290,373.69
-121.98201249,45.87663653,384.30
-121.98201734,45.87637165,388.07
-121.98201839,45.87631434,376.61
-121.98202488,45.87595759,343.34
-121.98202973,45.87569096,380.30
-121.98203491,45.87541007,383.85
-121.98203503,45.87540387,362.59
-121.98204182,45.87503104,352.15
-121.98204761,45.87471175,377.13
-121.98205071,45.87454413,385.16
-121.98205469,45.87432704,372.80
-121.98206185,45.87393490,373.07
-121.98206436,45.87379764,372.90
-121.98206943,45.87351905,371.79
-121.98207305,45.87331997,387.34
-121.98208112,45.87287955,383.03
-121.98208543,45.87264286,381.16
-121.98209270,45.87224466,380.39
-121.98209564,45.87207996,386.69
-121.98210116,45.87178182,348.53
-121.98210215,45.87172790,371.72
-121.98210216,45.87172717,385.50
-121.98210290,45.87168672,387.87
-121.98210760,45.87142746,376.54
-121.98211410,45.87107216,378.17
-121.98212208,45.87063580,382.04
-121.98212618,45.87040924,374.45
-121.98213096,45.87014739,380.46
-121.98213267,45.87005307,378.63
-121.98214037,45.86963385,380.21
-121.98214284,45.86949870,378.99
-121.98214747,45.86924512,387.45
-121.98214999,45.86910589,382.66
-121.98215088,45.86905317,373.90
-121.98215097,45.86903576,389.75
-121.98214765,45.86903410,391.86
-121.98214182,45.86903313,393.07
-121.98212857,45.86903282,393.32
-121.98199990,45.86903163,366.84
-121.98171425,45.86902906,387.25
-121.98131307,45.86902548,385.56
-121.98094649,45.86902220,361.79
-121.98046550,45.86901791,380.07
-121.97996971,45.86901350,377.73
-121.97970722,45.86901117,369.24
-121.97931239,45.86900763,358.81
-121.97902169,45.86900515,357.94
-121.97860855,45.86900133,352.60
-121.97797103,45.86899564,332.86
-121.97775595,45.86899373,359.87
-121.97719766,45.86898871,337.05
-121.97678284,45.86898501,332.73
-121.97642750,45.86898181,366.01
-121.97606609,45.86897858,349.21
-121.97546651,45.86897322,365.32
-121.97521130,45.86897093,333.05
-121.97486605,45.86896784,333.79
-121.97451083,45.86896467,332.17
-121.97416521,45.86896153,332.56
-121.97370816,45.86895745,332.61
-121.97313612,45.86895229,332.65
-121.97258071,45.86894728,376.83
-121.97220514,45.86894394,372.78
-121.97186975,45.86894090,387.01
-121.97132270,45.86893596,412.20
-121.97119852,45.86893486,394.28
-121.97060375,45.86892949,396.89
-121.97028348,45.86892660,420.12
-121.97005925,45.86892460,428.31
-121.96946100,45.86891920,460.41
-121.96934152,45.86891859,451.14
-121.96928916,45.86891998,458.16
-121.96926945,45.86892333,451.67
-121.96926900,45.86893888,437.57
-121.96926835,45.86896931,432.87
-121.96926436,45.86918963,441.34
-121.96925907,45.86947017,474.06
-121.96925310,45.86979455,457.79
-121.96925005,45.86995927,494.50
-121.96924802,45.87006900,506.15
-121.96924173,45.87041114,509.21
-121.96923713,45.87065797,492.01
-121.96923539,45.87075209,500.58
-121.96922806,45.87114753,444.47
-121.96922435,45.87134835,473.85
-121.96922403,45.87136563,477.48
-121.96922265,45.87144060,469.17
-121.96921687,45.87175381,460.34
-121.96920951,45.87215090,436.60
-121.96920379,45.87246181,418.52
-121.96919988,45.87267267,420.41
-121.96919771,45.87278958,398.41
-121.96919681,45.87283781,402.35
-121.96919341,45.87302219,380.08
-121.96919142,45.87312951,431.18
-121.96918880,45.87327116,425.50
-121.96918511,45.87347207,395.65
-121.96918229,45.87362523,441.66
-121.96917573,45.87397807,442.84
-121.96917415,45.87406356,436.11
-121.96916871,45.87436123,429.32
-121.96916488,45.87456485,455.36
-121.96915797,45.87493948,471.09
-121.96915399,45.87515411,448.55
-121.96914568,45.87560388,439.28
-121.96914114,45.87584893,463.65
-121.96913969,45.87592696,451.76
-121.96913768,45.87603581,440.25
-121.96913180,45.87635442,459.75
-121.96912596,45.87666976,443.40
-121.96912130,45.87692423,412.92
-121.96911734,45.87713735,417.99
-121.96911142,45.87745710,430.24
-121.96910466,45.87782232,406.98
-121.96910344,45.87789423,415.34
-121.96910401,45.87791041,410.14
-121.96910447,45.87791473,382.82
-121.96911103,45.87791583,387.88
-121.96915506,45.87791695,406.70
-121.96917034,45.87791712,407.15
-121.96950126,45.87792013,399.67
-121.97001129,45.87792473,390.33
-121.97021328,45.87792653,377.05
-121.97071754,45.87793109,390.73
-121.97106031,45.87793417,371.97
-121.97136091,45.87793686,348.91
-121.97173695,45.87794026,350.78
-121.97192724,45.87794198,380.19
-121.97235628,45.87794584,357.56
-121.97284950,45.87795028,371.39
-121.97335186,45.87795478,387.17
     </coordinates>
    </LineString>
   </MultiGeometry>
  </Placemark>
 </Document>
</kml>
