<kml>
 <Document>
  <Style id="yellow">
   <LineStyle>
   <color>ff00ffff</color>
   <width>1</width>
   </LineStyle>
  </Style>
  <Style id="red">
   <LineStyle>
   <color>ffff0000</color>
   <width>2</width>
   </LineStyle>
  </Style>
  <Style id="green">
   <LineStyle>
   <color>ff00ff00</color>
   <width>1</width>
   </LineStyle>
  </Style>
  <Placemark>
  <styleUrl>#yellow</styleUrl>
   <MultiGeometry>
    <LineString>
     <coordinates>
-121.93339904,45.85058701,368.86
-121.93390059,45.85059169,406.68
-121.93441578,45.85059645,407.80
-121.93464448,45.85059861,406.92
-121.93507526,45.85060263,464.47
-121.93562564,45.85060774,468.23
-121.93594401,45.85061073,460.22
-121.93594768,45.85061076,466.95
-121.93627679,45.85061382,460.92
-121.93673013,45.85061803,452.52
-121.93726621,45.85062304,451.99
-121.93728366,45.85062321,418.40
-121.93750425,45.85062525,448.39
-121.93811147,45.85063087,459.33
-121.93843745,45.85063387,431.03
-121.93885766,45.85063784,437.05
-121.93942870,45.85064312,480.86
-121.93956285,45.85064437,470.10
-121.93994649,45.85064793,463.46
-121.94025801,45.85065082,476.50
-121.94059319,45.85065393,471.82
-121.94068640,45.85065480,458.96
-121.94096796,45.85065739,483.69
-121.94138316,45.85066126,486.49
-121.94192640,45.85066628,521.57
-121.94230246,45.85066978,527.96
-121.94290492,45.85067533,544.44
-121.94315415,45.85067766,529.88
-121.94370591,45.85068276,516.48
-121.94378515,45.85068349,478.47
-121.94383545,45.85068376,520.52
-121.94384339,45.85068360,518.56
-121.94384601,45.85067764,519.46
-121.94384629,45.85067060,518.46
-121.94384784,45.85059423,519.61
-121.94385350,45.85030044,468.87
-121.94385456,45.85024445,512.38
-121.94386249,45.84982544,500.80
-121.94386682,45.84959696,486.91
-121.94387111,45.84936825,459.68
-121.94387665,45.84907684,457.31
-121.94388365,45.84870692,433.20
-121.94388649,45.84855767,434.41
-121.94389315,45.84819974,424.14
-121.94389508,45.84809911,420.56
-121.94389622,45.84803947,414.42
-121.94390209,45.84773051,394.36
-121.94390633,45.84750911,421.90
-121.94391281,45.84716679,401.20
-121.94391566,45.84701615,408.28
-121.94392073,45.84674750,402.95
-121.94392635,45.84645056,371.46
-121.94392823,45.84635140,364.51
-121.94393504,45.84599146,359.85
-121.94394029,45.84571230,375.33
-121.94394606,45.84541014,353.53
-121.94395417,45.84497922,349.62
-121.94395457,45.84495831,345.29
-121.94396019,45.84466170,332.88
-121.94396750,45.84427578,329.84
-121.94397206,45.84403575,324.97
-121.94397692,45.84377922,306.10
-121.94398448,45.84337870,329.57
-121.94398666,45.84326457,335.99
-121.94399360,45.84289788,336.54
-121.94400080,45.84251496,301.06
-121.94400493,45.84229552,302.75
-121.94400970,45.84204609,345.52
-121.94401354,45.84184323,301.69
-121.94401544,45.84174062,323.75
-121.94401608,45.84170527,329.85
-121.94401302,45.84168861,325.69
-121.94401138,45.84168566,323.22
-121.94400017,45.84168509,324.33
-121.94392209,45.84168424,303.81
-121.94386668,45.84168367,320.38
-121.94386346,45.84168364,320.26
-121.94358024,45.84168103,299.82
-121.94333783,45.84167901,298.92
-121.94270401,45.84167295,306.51
-121.94250596,45.84167108,306.73
-121.94242630,45.84167033,300.88
-121.94209917,45.84166727,320.39
-121.94203224,45.84166665,329.35
-121.94148289,45.84166157,343.14
-121.94094938,45.84165663,317.36
-121.94046682,45.84165220,313.38
-121.94003718,45.84164816,338.33
-121.93957284,45.84164387,314.12
-121.93915252,45.84163997,318.16
-121.93908662,45.84163937,319.00
-121.93866865,45.84163554,314.52
-121.93821063,45.84163124,314.66
-121.93773834,45.84162684,315.45
-121.93751519,45.84162474,316.65
-121.93708270,45.84162071,316.25
-121.93686597,45.84161872,316.09
-121.93648148,45.84161516,315.35
-121.93612690,45.84161183,315.21
-121.93586019,45.84160940,315.03
-121.93531034,45.84160422,314.50
-121.93504533,45.84160175,317.77
-121.93444350,45.84159619,314.61
-121.93393641,45.84159142,313.93
-121.93374028,45.84158958,314.43
-121.93336234,45.84158604,316.17
-121.93285159,45.84158127,326.35
-121.93241062,45.84157720,330.72
-121.93207852,45.84157408,326.92
-121.93197716,45.84157312,328.76
-121.93178112,45.84157130,335.59
-121.93115080,45.84156538,316.73
-121.93114139,45.84156906,331.52
-121.93113908,45.84166417,331.43
-121.93113394,45.84193263,330.04
-121.93113194,45.84203675,357.59
-121.93112754,45.84226896,322.11
-121.93112019,45.84264999,357.41
-121.93111925,45.84269948,318.63
-121.93111618,45.84286581,319.02
-121.93111059,45.84315202,352.88
-121.93110690,45.84335228,358.54
-121.93109973,45.84371830,364.73
-121.93109737,45.84384132,327.81
-121.93109522,45.84395559,331.47
-121.93108794,45.84433362,335.19
-121.93108410,45.84453416,340.00
-121.93107576,45.84497160,389.91
-121.93107186,45.84517370,399.32
-121.93106940,45.84530135,399.39
-121.93106707,45.84542345,411.47
-121.93106474,45.84554580,404.79
-121.93105732,45.84593243,408.13
-121.93105615,45.84599397,376.56
-121.93104837,45.84640098,410.17
-121.93104612,45.84651693,382.74
-121.93103988,45.84684407,409.26
-121.93103478,45.84711012,386.62
-121.93102726,45.84750232,426.61
-121.93102155,45.84780140,424.14
-121.93101837,45.84796548,439.51
-121.93101335,45.84822731,410.66
-121.93100676,45.84857239,431.47
-121.93100096,45.84887444,450.68
-121.93100057,45.84889461,449.70
-121.93099253,45.84931481,435.51
-121.93098826,45.84953867,473.62
-121.93098373,45.84977415,483.22
-121.93098102,45.84991578,485.21
-121.93097605,45.85017596,478.16
-121.93097048,45.85046602,476.55
-121.93096975,45.85050550,492.25
-121.93096881,45.85055974,488.49
-121.93097366,45.85056044,454.12
-121.93101872,45.85056456,490.16
-121.93103190,45.85056481,485.73
-121.93121376,45.85056658,475.93
-121.93136620,45.85056800,479.88
-121.93194334,45.85057341,448.57
-121.93242160,45.85057788,436.96
-121.93261381,45.85057965,385.22
-121.93309366,45.85058410,408.03
-121.93339904,45.85058701,368.86
     </coordinates>
    </LineString>
   </MultiGeometry>
  </Placemark>
 </Document>
</kml>
