<kml>
 <Document>
  <Style id="yellow">
   <LineStyle>
   <color>ff00ffff</color>
   <width>1</width>
   </LineStyle>
  </Style>
  <Style id="red">
   <LineStyle>
   <color>ffff0000</color>
   <width>2</width>
   </LineStyle>
  </Style>
  <Style id="green">
   <LineStyle>
   <color>ff00ff00</color>
   <width>1</width>
   </LineStyle>
  </Style>
  <Placemark>
  <styleUrl>#yellow</styleUrl>
   <MultiGeometry>
    <LineString>
     <coordinates>
-121.97439104,45.82396037,489.29
-121.97493829,45.82396531,518.28
-121.97496085,45.82396551,501.33
-121.97519381,45.82396758,508.67
-121.97563428,45.82397154,508.50
-121.97618769,45.82397649,492.69
-121.97667842,45.82398090,494.11
-121.97684619,45.82398239,489.87
-121.97733976,45.82398683,507.85
-121.97766871,45.82398977,531.40
-121.97790844,45.82399191,543.25
-121.97824357,45.82399490,504.20
-121.97855215,45.82399768,508.09
-121.97865564,45.82399860,509.69
-121.97875960,45.82399953,519.25
-121.97879956,45.82399989,540.55
-121.97901875,45.82400185,514.27
-121.97932645,45.82400460,513.20
-121.97988062,45.82400954,538.49
-121.98044946,45.82401461,540.98
-121.98108088,45.82402026,510.08
-121.98122144,45.82402151,526.18
-121.98126579,45.82402191,532.41
-121.98165753,45.82402540,524.86
-121.98216777,45.82402993,531.90
-121.98260118,45.82403378,534.78
-121.98283142,45.82403578,519.10
-121.98297023,45.82403650,531.29
-121.98297139,45.82403480,529.46
-121.98297262,45.82398871,535.35
-121.98297589,45.82380881,530.68
-121.98297702,45.82374692,526.21
-121.98297964,45.82360304,531.67
-121.98298127,45.82351366,542.14
-121.98298595,45.82325666,530.90
-121.98298783,45.82315314,526.01
-121.98298870,45.82310560,541.16
-121.98299267,45.82288727,516.43
-121.98299441,45.82279196,527.29
-121.98299843,45.82257027,550.26
-121.98300305,45.82231768,516.33
-121.98300866,45.82200921,509.34
-121.98300980,45.82194694,517.91
-121.98301055,45.82190573,517.07
-121.98301705,45.82154837,501.26
-121.98301713,45.82154416,507.47
-121.98302006,45.82138266,508.35
-121.98302746,45.82097320,493.54
-121.98302909,45.82088603,490.96
-121.98303400,45.82061425,497.70
-121.98304157,45.82019911,515.81
-121.98304537,45.81999294,533.58
-121.98305143,45.81965939,515.94
-121.98305226,45.81961334,534.06
-121.98305705,45.81934768,517.34
-121.98306152,45.81910347,530.01
-121.98306563,45.81887993,527.50
-121.98306626,45.81884496,523.00
-121.98306845,45.81872483,508.82
-121.98307339,45.81845188,535.42
-121.98307733,45.81823633,534.79
-121.98308258,45.81794928,536.37
-121.98308384,45.81787995,523.80
-121.98308946,45.81757141,538.82
-121.98309761,45.81712301,542.74
-121.98309810,45.81709654,533.03
-121.98310198,45.81688378,512.73
-121.98310741,45.81658481,510.77
-121.98311040,45.81642128,529.19
-121.98311580,45.81612399,512.11
-121.98312383,45.81568039,506.84
-121.98313138,45.81526803,509.20
-121.98313478,45.81508115,523.22
-121.98313528,45.81504392,529.19
-121.98313517,45.81503922,529.07
-121.98313208,45.81503899,527.69
-121.98309801,45.81503771,525.58
-121.98298237,45.81503657,514.48
-121.98257308,45.81503289,519.40
-121.98217015,45.81502931,502.73
-121.98198770,45.81502768,532.94
-121.98153100,45.81502361,515.86
-121.98107766,45.81501957,533.25
-121.98067540,45.81501598,503.51
-121.98029983,45.81501263,498.97
-121.98022149,45.81501193,487.26
-121.97995848,45.81500959,523.05
-121.97949253,45.81500542,500.53
-121.97917006,45.81500254,518.76
-121.97903879,45.81500137,496.23
-121.97872244,45.81499854,512.17
-121.97836366,45.81499536,495.33
-121.97800909,45.81499218,517.44
-121.97781368,45.81499041,508.55
-121.97752079,45.81498783,496.36
-121.97723339,45.81498533,505.09
-121.97676319,45.81498104,487.29
-121.97662759,45.81497981,481.16
-121.97629380,45.81497684,502.54
-121.97603903,45.81497462,510.12
-121.97561996,45.81497079,507.81
-121.97514764,45.81496653,509.93
-121.97508126,45.81496593,514.00
-121.97483036,45.81496369,514.48
-121.97423332,45.81495833,527.93
-121.97371559,45.81495373,522.23
-121.97352637,45.81495201,528.22
-121.97322624,45.81494929,512.00
-121.97307434,45.81494791,509.30
-121.97288495,45.81494623,524.26
-121.97260919,45.81494379,521.28
-121.97215670,45.81493967,524.08
-121.97211333,45.81493928,508.25
-121.97186688,45.81493707,508.98
-121.97138250,45.81493269,504.45
-121.97127777,45.81493175,483.70
-121.97097710,45.81492907,496.90
-121.97043709,45.81492419,516.86
-121.97036218,45.81492356,503.49
-121.97027990,45.81492290,494.77
-121.97027141,45.81492333,487.52
-121.97026662,45.81492562,493.08
-121.97026589,45.81493785,490.22
-121.97026544,45.81495184,481.84
-121.97026355,45.81505435,484.27
-121.97026063,45.81521252,481.27
-121.97025514,45.81551048,482.26
-121.97025314,45.81561893,475.89
-121.97024854,45.81586877,448.80
-121.97024465,45.81608047,483.03
-121.97024057,45.81630261,446.97
-121.97023236,45.81674720,437.56
-121.97022989,45.81688037,449.08
-121.97022797,45.81698429,470.02
-121.97022098,45.81736673,441.79
-121.97021742,45.81755974,440.83
-121.97021242,45.81783017,454.63
-121.97020728,45.81810698,469.19
-121.97020430,45.81826942,432.64
-121.97019841,45.81858854,461.77
-121.97019212,45.81892905,451.74
-121.97019190,45.81894087,462.48
-121.97019187,45.81894282,462.32
-121.97019090,45.81899553,449.78
-121.97018835,45.81913355,440.24
-121.97018308,45.81942034,439.71
-121.97017525,45.81984419,472.89
-121.97017156,45.82004477,454.93
-121.97016589,45.82035174,465.41
-121.97016577,45.82035847,460.06
-121.97016012,45.82066453,454.83
-121.97015349,45.82102406,471.26
-121.97015105,45.82115889,461.85
-121.97014978,45.82122841,437.46
-121.97014759,45.82134789,446.50
-121.97014117,45.82169237,451.57
-121.97013295,45.82213827,457.23
-121.97012597,45.82251704,443.86
-121.97012317,45.82266878,471.33
-121.97011707,45.82299965,444.71
-121.97011661,45.82302421,446.52
-121.97010864,45.82345674,480.80
-121.97010662,45.82356694,454.10
-121.97010016,45.82392069,446.87
-121.97011114,45.82392138,446.53
-121.97011724,45.82392162,446.54
-121.97019523,45.82392260,441.81
-121.97065582,45.82392681,451.36
-121.97082556,45.82392834,473.31
-121.97144247,45.82393389,485.48
-121.97195911,45.82393854,491.59
-121.97259007,45.82394420,467.33
-121.97322587,45.82394993,483.83
-121.97374782,45.82395462,518.95
-121.97408314,45.82395762,473.60
-121.97439104,45.82396037,489.29
     </coordinates>
    </LineString>
   </MultiGeometry>
  </Placemark>
 </Document>
</kml>
