<kml>
 <Document>
  <Style id="yellow">
   <LineStyle>
   <color>ff00ffff</color>
   <width>1</width>
   </LineStyle>
  </Style>
  <Style id="red">
   <LineStyle>
   <color>ffff0000</color>
   <width>2</width>
   </LineStyle>
  </Style>
  <Style id="green">
   <LineStyle>
   <color>ff00ff00</color>
   <width>1</width>
   </LineStyle>
  </Style>
  <Placemark>
  <styleUrl>#yellow</styleUrl>
   <MultiGeometry>
    <LineString>
     <coordinates>
-121.97213037,45.85094198,488.72
-121.97276946,45.85094776,461.36
-121.97319552,45.85095158,489.12
-121.97374545,45.85095651,506.46
-121.97434195,45.85096185,514.65
-121.97470899,45.85096518,497.00
-121.97515054,45.85096913,532.81
-121.97555107,45.85097269,531.37
-121.97611240,45.85097774,505.09
-121.97625991,45.85097908,505.32
-121.97676582,45.85098362,533.36
-121.97679659,45.85098389,546.61
-121.97702975,45.85098598,546.05
-121.97707072,45.85098635,543.60
-121.97711001,45.85098670,541.26
-121.97729151,45.85098832,547.72
-121.97734269,45.85098878,544.14
-121.97740981,45.85098938,548.13
-121.97756981,45.85099081,527.83
-121.97761749,45.85099124,549.67
-121.97788067,45.85099360,548.15
-121.97847115,45.85099886,525.61
-121.97886416,45.85100239,554.54
-121.97915711,45.85100498,553.82
-121.97961627,45.85100911,565.85
-121.98021079,45.85101440,538.40
-121.98069645,45.85101873,569.04
-121.98093821,45.85102086,565.64
-121.98144556,45.85102543,552.82
-121.98163338,45.85102709,549.73
-121.98226175,45.85103269,560.22
-121.98241255,45.85103400,566.89
-121.98246575,45.85103418,561.48
-121.98247914,45.85102893,560.85
-121.98247993,45.85101602,559.99
-121.98248115,45.85095434,569.38
-121.98248350,45.85082745,561.06
-121.98248429,45.85078502,562.43
-121.98248901,45.85052608,566.33
-121.98249548,45.85017127,573.07
-121.98250277,45.84977145,574.02
-121.98250592,45.84959868,589.67
-121.98251084,45.84932899,599.47
-121.98251622,45.84903328,584.53
-121.98252317,45.84865210,607.68
-121.98252847,45.84836206,601.53
-121.98252924,45.84831973,600.39
-121.98253695,45.84789557,612.00
-121.98254389,45.84751548,598.86
-121.98255096,45.84712872,618.68
-121.98255548,45.84688058,630.44
-121.98256117,45.84656781,642.69
-121.98256388,45.84642007,638.02
-121.98257097,45.84603101,632.91
-121.98257256,45.84594328,628.90
-121.98257724,45.84568516,665.11
-121.98258523,45.84524679,652.44
-121.98258676,45.84516366,639.30
-121.98259405,45.84476378,644.75
-121.98259810,45.84454304,640.53
-121.98260362,45.84423865,655.06
-121.98260725,45.84404094,648.16
-121.98260763,45.84402043,654.87
-121.98260766,45.84401850,657.76
-121.98260952,45.84391642,657.60
-121.98261392,45.84367518,661.28
-121.98261567,45.84357921,644.53
-121.98261593,45.84356490,665.02
-121.98262053,45.84331148,665.25
-121.98262752,45.84292846,653.64
-121.98262952,45.84281944,652.08
-121.98263135,45.84271902,669.66
-121.98263574,45.84247685,676.47
-121.98263955,45.84226762,670.49
-121.98264331,45.84206212,678.74
-121.98264333,45.84205194,674.70
-121.98264205,45.84203798,658.82
-121.98263809,45.84203560,658.83
-121.98257921,45.84203495,681.06
-121.98233406,45.84203274,670.31
-121.98194448,45.84202926,675.18
-121.98143043,45.84202468,664.21
-121.98135120,45.84202398,662.53
-121.98104592,45.84202128,653.27
-121.98066977,45.84201790,645.69
-121.98053436,45.84201669,640.69
-121.98031506,45.84201473,641.36
-121.98014455,45.84201322,669.09
-121.97957840,45.84200818,638.86
-121.97916723,45.84200450,628.38
-121.97878013,45.84200103,621.25
-121.97837689,45.84199741,635.32
-121.97804379,45.84199444,613.55
-121.97796102,45.84199370,617.97
-121.97784887,45.84199269,615.66
-121.97728263,45.84198763,604.13
-121.97710919,45.84198608,604.31
-121.97670151,45.84198245,636.16
-121.97644491,45.84198013,603.83
-121.97613741,45.84197744,592.87
-121.97575397,45.84197397,591.76
-121.97545346,45.84197124,595.20
-121.97509413,45.84196804,586.41
-121.97463521,45.84196393,605.40
-121.97415558,45.84195959,590.84
-121.97368257,45.84195536,577.80
-121.97338314,45.84195265,563.19
-121.97302598,45.84194945,580.01
-121.97270875,45.84194662,578.64
-121.97218953,45.84194193,568.43
-121.97199715,45.84194020,569.10
-121.97149555,45.84193569,541.25
-121.97114435,45.84193252,537.47
-121.97065584,45.84192812,520.79
-121.97024992,45.84192446,536.36
-121.96977582,45.84192018,521.64
-121.96976819,45.84192335,532.90
-121.96976749,45.84194780,531.56
-121.96976364,45.84215638,530.22
-121.96975602,45.84256859,502.73
-121.96975427,45.84266321,521.28
-121.96975037,45.84288086,516.63
-121.96974566,45.84313209,520.37
-121.96974370,45.84323660,489.20
-121.96973957,45.84346511,504.29
-121.96973292,45.84382521,507.02
-121.96972823,45.84407488,502.82
-121.96972460,45.84427313,484.90
-121.96971687,45.84469093,502.14
-121.96971210,45.84494919,472.31
-121.96970796,45.84517199,494.49
-121.96970617,45.84526904,494.71
-121.96969834,45.84569304,498.85
-121.96969718,45.84575591,500.22
-121.96968964,45.84616467,499.17
-121.96968361,45.84649138,498.07
-121.96968030,45.84667022,488.41
-121.96967802,45.84679372,501.98
-121.96967013,45.84722135,475.36
-121.96966569,45.84746203,498.94
-121.96965794,45.84788101,495.57
-121.96965005,45.84830810,497.29
-121.96964959,45.84833339,491.34
-121.96964184,45.84875380,494.34
-121.96963818,45.84895328,493.05
-121.96963248,45.84925998,486.09
-121.96962439,45.84969984,476.00
-121.96962300,45.84977446,470.66
-121.96962123,45.84986987,442.30
-121.96961831,45.85002711,448.08
-121.96961110,45.85041897,465.92
-121.96960408,45.85080055,457.28
-121.96960345,45.85083548,465.72
-121.96960204,45.85091563,437.94
-121.96960366,45.85091780,454.88
-121.96961438,45.85091874,459.99
-121.96962078,45.85091921,458.89
-121.96967890,45.85091987,456.24
-121.96980623,45.85092108,438.07
-121.97018461,45.85092448,475.54
-121.97060066,45.85092822,460.97
-121.97084071,45.85093040,448.32
-121.97103838,45.85093218,477.99
-121.97110068,45.85093274,474.07
-121.97110414,45.85093277,474.14
-121.97156658,45.85093692,486.67
-121.97213037,45.85094198,488.72
     </coordinates>
    </LineString>
   </MultiGeometry>
  </Placemark>
 </Document>
</kml>
