<kml>
 <Document>
  <Style id="yellow">
   <LineStyle>
   <color>ff00ffff</color>
   <width>1</width>
   </LineStyle>
  </Style>
  <Style id="red">
   <LineStyle>
   <color>ffff0000</color>
   <width>2</width>
   </LineStyle>
  </Style>
  <Style id="green">
   <LineStyle>
   <color>ff00ff00</color>
   <width>1</width>
   </LineStyle>
  </Style>
  <Placemark>
  <styleUrl>#yellow</styleUrl>
   <MultiGeometry>
    <LineString>
     <coordinates>
-121.93630506,45.87761589,1003.47
-121.93677660,45.87762030,1014.90
-121.93689791,45.87762143,1022.15
-121.93706352,45.87762297,1007.46
-121.93765812,45.87762848,1010.07
-121.93816186,45.87763317,1017.46
-121.93855387,45.87763682,1004.60
-121.93893098,45.87764033,1009.23
-121.93938033,45.87764450,1017.24
-121.93988768,45.87764919,1015.86
-121.94036808,45.87765364,1009.22
-121.94064372,45.87765622,1007.16
-121.94127480,45.87766207,1024.89
-121.94166369,45.87766567,996.17
-121.94208994,45.87766962,1034.25
-121.94252615,45.87767366,985.93
-121.94313854,45.87767932,1005.09
-121.94325912,45.87768040,1011.85
-121.94328254,45.87768060,974.78
-121.94330296,45.87768076,1009.45
-121.94332235,45.87768074,1007.50
-121.94332972,45.87768065,974.06
-121.94333466,45.87768011,990.15
-121.94333624,45.87760376,1012.28
-121.94333810,45.87750681,1012.90
-121.94334364,45.87721699,1002.52
-121.94334376,45.87721022,1006.74
-121.94335135,45.87681005,1001.58
-121.94335840,45.87643795,998.33
-121.94336252,45.87622034,992.37
-121.94336918,45.87586670,952.23
-121.94337344,45.87564458,981.70
-121.94338095,45.87524722,956.64
-121.94338366,45.87510482,952.24
-121.94338605,45.87497865,947.03
-121.94339090,45.87472219,940.05
-121.94339819,45.87433898,912.72
-121.94340161,45.87415751,880.57
-121.94340727,45.87385995,869.58
-121.94341214,45.87360200,871.53
-121.94341957,45.87320942,860.49
-121.94342645,45.87284509,864.41
-121.94342834,45.87274779,892.50
-121.94342974,45.87267428,848.87
-121.94343109,45.87260276,859.72
-121.94343307,45.87249685,862.63
-121.94344066,45.87209449,864.44
-121.94344694,45.87176653,831.35
-121.94345032,45.87158615,842.19
-121.94345696,45.87123585,834.49
-121.94346086,45.87103051,835.40
-121.94346849,45.87062866,814.31
-121.94347237,45.87042429,861.45
-121.94348025,45.87000868,814.33
-121.94348146,45.86994470,817.56
-121.94348179,45.86992762,815.67
-121.94348861,45.86956749,812.48
-121.94349456,45.86925351,804.04
-121.94349958,45.86898854,822.54
-121.94350529,45.86868507,829.73
-121.94350493,45.86868300,826.27
-121.94348675,45.86868232,826.16
-121.94347272,45.86868187,826.70
-121.94320227,45.86867934,821.08
-121.94294832,45.86867699,818.87
-121.94240361,45.86867201,825.27
-121.94178352,45.86866620,810.27
-121.94132048,45.86866193,838.48
-121.94083587,45.86865742,843.20
-121.94081506,45.86865723,845.62
-121.94038651,45.86865325,840.00
-121.93994922,45.86864920,861.65
-121.93958719,45.86864584,871.88
-121.93913506,45.86864164,887.73
-121.93863369,45.86863699,861.43
-121.93861504,45.86863681,867.42
-121.93861118,45.86863678,868.52
-121.93814780,45.86863247,905.16
-121.93752447,45.86862668,880.19
-121.93689834,45.86862086,851.69
-121.93645413,45.86861672,844.57
-121.93601127,45.86861260,824.91
-121.93555319,45.86860833,821.79
-121.93541216,45.86860701,818.77
-121.93534249,45.86860637,815.65
-121.93501687,45.86860333,794.34
-121.93498467,45.86860303,802.95
-121.93495519,45.86860276,801.48
-121.93470441,45.86860042,807.73
-121.93459627,45.86859941,809.57
-121.93439991,45.86859758,820.51
-121.93409575,45.86859474,764.77
-121.93391889,45.86859309,757.29
-121.93334077,45.86858770,803.85
-121.93315219,45.86858596,752.70
-121.93263253,45.86858109,744.75
-121.93254887,45.86858030,764.51
-121.93243060,45.86857920,772.74
-121.93230222,45.86857800,770.69
-121.93205269,45.86857566,723.09
-121.93193883,45.86857460,745.90
-121.93169232,45.86857229,730.93
-121.93121617,45.86856785,743.88
-121.93078807,45.86856385,745.90
-121.93066535,45.86856272,762.43
-121.93066331,45.86856297,762.26
-121.93063651,45.86856699,733.57
-121.93062762,45.86856947,733.72
-121.93062313,45.86858605,732.01
-121.93062076,45.86870975,782.13
-121.93062029,45.86873395,776.49
-121.93061210,45.86916183,791.89
-121.93060501,45.86953223,813.44
-121.93060197,45.86968920,776.08
-121.93059449,45.87007888,823.78
-121.93059031,45.87029677,796.83
-121.93058445,45.87060558,800.21
-121.93057844,45.87091612,841.68
-121.93057230,45.87123533,807.67
-121.93056878,45.87142109,832.96
-121.93056166,45.87179037,838.44
-121.93055976,45.87188998,847.36
-121.93055240,45.87227322,846.72
-121.93055114,45.87233864,843.35
-121.93054634,45.87258876,825.52
-121.93054037,45.87290097,849.22
-121.93053635,45.87311196,815.35
-121.93052943,45.87347041,847.69
-121.93052300,45.87380875,856.22
-121.93051885,45.87402183,877.45
-121.93051281,45.87433804,848.62
-121.93050858,45.87455932,853.46
-121.93050150,45.87492623,887.51
-121.93049485,45.87527285,884.63
-121.93048725,45.87566963,896.39
-121.93048135,45.87597652,898.71
-121.93047288,45.87641813,891.38
-121.93046526,45.87681598,897.09
-121.93045738,45.87722642,905.35
-121.93045471,45.87736641,890.96
-121.93045420,45.87739397,901.39
-121.93045248,45.87748596,898.40
-121.93045151,45.87753875,897.17
-121.93045193,45.87755259,897.88
-121.93045216,45.87755721,898.19
-121.93045302,45.87755847,901.05
-121.93046070,45.87755974,903.03
-121.93048253,45.87756149,904.22
-121.93048629,45.87756156,903.88
-121.93049826,45.87756169,903.06
-121.93052460,45.87756194,899.63
-121.93085665,45.87756505,899.77
-121.93103374,45.87756669,895.53
-121.93158647,45.87757189,896.33
-121.93166827,45.87757265,905.48
-121.93203114,45.87757603,887.94
-121.93243696,45.87757984,890.31
-121.93244940,45.87757995,888.35
-121.93270783,45.87758237,926.38
-121.93325663,45.87758749,938.12
-121.93375237,45.87759211,949.55
-121.93417235,45.87759602,962.62
-121.93445063,45.87759862,961.43
-121.93460945,45.87760011,945.31
-121.93513452,45.87760501,946.29
-121.93513850,45.87760505,945.91
-121.93517647,45.87760539,962.95
-121.93544638,45.87760786,979.94
-121.93589980,45.87761214,983.24
-121.93612246,45.87761421,993.66
-121.93630506,45.87761589,1003.47
     </coordinates>
    </LineString>
   </MultiGeometry>
  </Placemark>
 </Document>
</kml>
