<kml>
 <Document>
  <Style id="yellow">
   <LineStyle>
   <color>ff00ffff</color>
   <width>1</width>
   </LineStyle>
  </Style>
  <Style id="red">
   <LineStyle>
   <color>ffff0000</color>
   <width>2</width>
   </LineStyle>
  </Style>
  <Style id="green">
   <LineStyle>
   <color>ff00ff00</color>
   <width>1</width>
   </LineStyle>
  </Style>
  <Placemark>
  <styleUrl>#yellow</styleUrl>
   <MultiGeometry>
    <LineString>
     <coordinates>
-122.01374985,45.82430692,585.89
-122.01409501,45.82430991,593.58
-122.01437034,45.82431228,582.01
-122.01472134,45.82431531,577.63
-122.01534817,45.82432071,590.25
-122.01560188,45.82432289,570.53
-122.01595497,45.82432590,588.45
-122.01644796,45.82433015,581.21
-122.01683610,45.82433353,580.74
-122.01715797,45.82433617,577.48
-122.01754677,45.82433957,589.32
-122.01773678,45.82434126,568.42
-122.01831132,45.82434621,594.44
-122.01857952,45.82434852,567.02
-122.01905416,45.82435258,585.43
-122.01936075,45.82435523,559.27
-122.01938121,45.82435540,557.63
-122.01969269,45.82435806,557.25
-122.02004613,45.82436104,566.07
-122.02041092,45.82436416,569.27
-122.02071014,45.82436677,572.83
-122.02105728,45.82436976,558.98
-122.02157623,45.82437422,573.43
-122.02158584,45.82437232,583.69
-122.02158737,45.82436640,581.91
-122.02158915,45.82426556,572.15
-122.02159374,45.82400300,572.95
-122.02159715,45.82380950,569.07
-122.02159947,45.82367504,578.73
-122.02160585,45.82330998,560.42
-122.02161038,45.82305344,558.86
-122.02161530,45.82277347,589.02
-122.02162179,45.82240261,560.47
-122.02162782,45.82205698,573.50
-122.02163039,45.82190495,565.72
-122.02163680,45.82154463,595.70
-122.02164238,45.82122792,587.09
-122.02164740,45.82093972,581.92
-122.02165051,45.82075973,605.93
-122.02165605,45.82044571,586.10
-122.02165687,45.82039840,597.13
-122.02166453,45.81996221,615.05
-122.02166656,45.81984515,569.76
-122.02166775,45.81977646,569.75
-122.02167465,45.81938378,603.25
-122.02167862,45.81915887,585.70
-122.02168007,45.81907595,577.28
-122.02168025,45.81906571,579.90
-122.02168679,45.81869061,590.89
-122.02168957,45.81853255,595.32
-122.02169125,45.81843686,577.37
-122.02169820,45.81804088,602.48
-122.02170294,45.81776990,606.10
-122.02170961,45.81738758,590.53
-122.02171425,45.81712449,613.99
-122.02171606,45.81702115,617.51
-122.02172131,45.81672058,624.50
-122.02172734,45.81637533,636.47
-122.02173422,45.81598408,653.69
-122.02173603,45.81588052,661.51
-122.02174073,45.81561197,644.98
-122.02174196,45.81553962,635.91
-122.02174454,45.81537851,658.43
-122.02174377,45.81537826,631.87
-122.02172284,45.81537514,630.35
-122.02170165,45.81537467,629.62
-122.02161934,45.81537394,654.22
-122.02125186,45.81537082,648.59
-122.02097444,45.81536843,648.15
-122.02079191,45.81536684,620.64
-122.02030073,45.81536264,643.28
-122.02013351,45.81536122,619.88
-122.01988299,45.81535908,631.95
-122.01944977,45.81535533,626.65
-122.01934578,45.81535444,643.18
-122.01874158,45.81534925,656.05
-122.01860273,45.81534806,653.28
-122.01826702,45.81534519,640.46
-122.01789979,45.81534202,660.53
-122.01784087,45.81534151,666.27
-122.01771084,45.81534040,658.00
-122.01765288,45.81533990,664.13
-122.01764470,45.81533983,664.85
-122.01763691,45.81533976,665.15
-122.01707804,45.81533495,701.42
-122.01690861,45.81533350,706.54
-122.01672935,45.81533195,706.61
-122.01637843,45.81532893,696.78
-122.01636771,45.81532884,697.50
-122.01605429,45.81532614,715.42
-122.01584038,45.81532430,709.60
-122.01569060,45.81532301,721.16
-122.01540785,45.81532058,719.83
-122.01498552,45.81531695,725.55
-122.01461737,45.81531379,706.02
-122.01414322,45.81530969,698.60
-122.01393745,45.81530789,712.16
-122.01360333,45.81530503,715.35
-122.01309038,45.81530059,698.24
-122.01291632,45.81529907,702.79
-122.01245236,45.81529507,688.09
-122.01206291,45.81529171,643.60
-122.01147357,45.81528661,636.02
-122.01083122,45.81528104,610.94
-122.01046966,45.81527791,602.95
-122.00996805,45.81527356,624.10
-122.00932864,45.81526805,598.40
-122.00897692,45.81526497,611.12
-122.00890407,45.81526441,611.10
-122.00888621,45.81526476,605.97
-122.00888015,45.81526499,611.18
-122.00887613,45.81526658,583.35
-122.00887494,45.81527548,611.69
-122.00887389,45.81533259,609.89
-122.00887292,45.81538635,602.97
-122.00886666,45.81573686,604.70
-122.00886013,45.81610654,591.84
-122.00885233,45.81654641,590.80
-122.00884525,45.81694440,556.02
-122.00883759,45.81737539,577.59
-122.00883122,45.81773620,569.21
-122.00882935,45.81783992,570.29
-122.00882809,45.81791086,571.59
-122.00882211,45.81824864,551.20
-122.00881707,45.81853276,577.62
-122.00881580,45.81860442,585.62
-122.00881442,45.81868212,550.08
-122.00881211,45.81881233,594.42
-122.00880592,45.81916046,589.52
-122.00880292,45.81932916,550.35
-122.00879893,45.81955405,589.47
-122.00879712,45.81965635,558.45
-122.00879662,45.81968436,550.74
-122.00878903,45.82011279,578.28
-122.00878359,45.82041889,562.54
-122.00878062,45.82058626,583.81
-122.00877796,45.82073607,578.09
-122.00877544,45.82087798,584.83
-122.00877091,45.82113293,589.73
-122.00876973,45.82120129,596.74
-122.00876284,45.82158979,600.89
-122.00876092,45.82169703,566.39
-122.00876011,45.82174149,603.65
-122.00875775,45.82187609,613.57
-122.00875133,45.82223853,602.99
-122.00874959,45.82233506,572.43
-122.00874566,45.82255597,574.11
-122.00874296,45.82270792,587.30
-122.00873603,45.82309826,617.15
-122.00873016,45.82342911,576.82
-122.00872249,45.82386188,613.45
-122.00872219,45.82387914,600.33
-122.00871986,45.82401114,580.53
-122.00871814,45.82411187,581.17
-122.00871595,45.82424484,597.35
-122.00871657,45.82426275,598.92
-122.00876139,45.82426365,620.85
-122.00878489,45.82426394,608.57
-122.00882841,45.82426434,613.85
-122.00931308,45.82426852,592.21
-122.00953290,45.82427044,599.48
-122.00993324,45.82427390,593.72
-122.01004045,45.82427482,597.67
-122.01015471,45.82427579,576.41
-122.01037287,45.82427766,600.51
-122.01088451,45.82428207,588.52
-122.01111632,45.82428415,585.04
-122.01169029,45.82428911,580.20
-122.01192326,45.82429113,590.19
-122.01235587,45.82429484,588.62
-122.01280878,45.82429880,580.49
-122.01330494,45.82430308,569.84
-122.01374985,45.82430692,585.89
     </coordinates>
    </LineString>
   </MultiGeometry>
  </Placemark>
 </Document>
</kml>
