<kml>
 <Document>
  <Style id="yellow">
   <LineStyle>
   <color>ff00ffff</color>
   <width>1</width>
   </LineStyle>
  </Style>
  <Style id="red">
   <LineStyle>
   <color>ffff0000</color>
   <width>2</width>
   </LineStyle>
  </Style>
  <Style id="green">
   <LineStyle>
   <color>ff00ff00</color>
   <width>1</width>
   </LineStyle>
  </Style>
  <Placemark>
  <styleUrl>#yellow</styleUrl>
   <MultiGeometry>
    <LineString>
     <coordinates>
-121.95678731,45.84741646,326.80
-121.95678093,45.84775771,311.22
-121.95678040,45.84778606,310.37
-121.95677790,45.84791985,312.41
-121.95677420,45.84811901,310.83
-121.95676714,45.84849511,314.58
-121.95676516,45.84860142,310.03
-121.95676425,45.84865001,309.97
-121.95676346,45.84869236,341.31
-121.95676310,45.84871135,336.20
-121.95676002,45.84887596,338.72
-121.95675271,45.84926732,331.99
-121.95674850,45.84949224,324.27
-121.95674502,45.84967935,323.54
-121.95674010,45.84994293,312.55
-121.95673644,45.85013873,312.40
-121.95673441,45.85024724,322.46
-121.95672973,45.85049805,323.08
-121.95672565,45.85071694,344.33
-121.95672450,45.85077912,337.01
-121.95672438,45.85079862,333.34
-121.95672627,45.85080054,329.32
-121.95673260,45.85080227,332.85
-121.95677039,45.85080271,314.70
-121.95711889,45.85080598,338.94
-121.95745522,45.85080905,323.12
-121.95771666,45.85081141,311.77
-121.95832299,45.85081695,320.30
-121.95879101,45.85082122,330.98
-121.95899648,45.85082310,339.72
-121.95922698,45.85082519,322.69
-121.95931093,45.85082595,363.01
-121.95989179,45.85083124,342.09
-121.96007436,45.85083290,335.13
-121.96068873,45.85083851,387.30
-121.96078969,45.85083941,346.60
-121.96115273,45.85084268,382.66
-121.96145807,45.85084546,394.79
-121.96181040,45.85084870,360.20
-121.96199189,45.85085033,391.89
-121.96252507,45.85085519,365.87
-121.96262477,45.85085610,399.82
-121.96325714,45.85086180,405.69
-121.96339886,45.85086311,410.46
-121.96360637,45.85086500,415.87
-121.96376536,45.85086643,384.93
-121.96391299,45.85086775,410.18
-121.96445078,45.85087266,416.75
-121.96497870,45.85087745,397.71
-121.96546876,45.85088188,402.89
-121.96569026,45.85088389,397.92
-121.96570685,45.85088404,398.10
-121.96592599,45.85088603,429.71
-121.96634173,45.85088977,401.76
-121.96642483,45.85089050,434.90
-121.96706387,45.85089632,419.27
-121.96757745,45.85090094,436.73
-121.96805795,45.85090529,416.26
-121.96822262,45.85090679,421.06
-121.96859745,45.85091017,423.09
-121.96862884,45.85091046,425.99
-121.96915097,45.85091516,449.04
-121.96943781,45.85091775,455.78
-121.96958095,45.85091897,459.19
-121.96960151,45.85091900,457.97
-121.96960216,45.85089452,463.28
-121.96960500,45.85074699,466.74
-121.96960793,45.85058873,472.12
-121.96961413,45.85025054,438.94
-121.96961836,45.85002351,471.35
-121.96962286,45.84978003,469.97
-121.96963084,45.84934819,473.67
-121.96963799,45.84896085,495.23
-121.96964207,45.84873722,494.43
-121.96965007,45.84830445,493.97
-121.96965253,45.84817283,479.02
-121.96965756,45.84790035,486.64
-121.96966410,45.84754583,493.80
-121.96966553,45.84746776,499.88
-121.96966936,45.84725985,504.19
-121.96967395,45.84701264,504.05
-121.96968166,45.84659544,476.14
-121.96968604,45.84635695,465.79
-121.96969228,45.84602064,473.19
-121.96969555,45.84584356,492.31
-121.96970303,45.84543754,470.60
-121.96970698,45.84522450,493.22
-121.96970731,45.84520643,472.18
-121.96971151,45.84497875,494.70
-121.96971483,45.84479746,496.07
-121.96972099,45.84446342,478.64
-121.96972808,45.84408156,507.71
-121.96973559,45.84367316,514.37
-121.96973799,45.84354445,485.21
-121.96974166,45.84334409,512.16
-121.96974746,45.84303085,510.79
-121.96975545,45.84259889,506.42
-121.96975584,45.84257766,503.15
-121.96976408,45.84212964,529.24
-121.96976644,45.84200348,529.87
-121.96976734,45.84195117,509.94
-121.96976764,45.84192289,532.85
-121.96975269,45.84192028,532.31
-121.96973214,45.84191981,526.23
-121.96972608,45.84191974,527.57
-121.96938568,45.84191666,522.20
-121.96910474,45.84191416,527.32
-121.96873208,45.84191078,515.92
-121.96829827,45.84190687,507.88
-121.96796950,45.84190389,481.85
-121.96779562,45.84190232,487.49
-121.96726781,45.84189754,466.35
-121.96725494,45.84189743,489.07
-121.96691943,45.84189439,488.12
-121.96627565,45.84188857,454.89
-121.96586764,45.84188490,432.87
-121.96552148,45.84188175,436.88
-121.96536869,45.84188036,457.87
-121.96486967,45.84187584,420.49
-121.96470912,45.84187440,416.38
-121.96419637,45.84186975,447.35
-121.96386036,45.84186669,448.79
-121.96347982,45.84186324,447.69
-121.96333241,45.84186192,399.46
-121.96310408,45.84185988,395.56
-121.96267630,45.84185595,394.46
-121.96259833,45.84185524,415.39
-121.96258552,45.84185512,418.84
-121.96194482,45.84184931,427.48
-121.96133046,45.84184372,408.46
-121.96091301,45.84183992,373.74
-121.96039510,45.84183521,364.93
-121.96022643,45.84183368,371.53
-121.95993616,45.84183104,358.14
-121.95970192,45.84182890,359.32
-121.95907590,45.84182320,379.04
-121.95863983,45.84181923,372.34
-121.95821462,45.84181536,361.32
-121.95766418,45.84181035,322.49
-121.95712571,45.84180543,353.41
-121.95692610,45.84180366,344.89
-121.95691368,45.84180357,354.04
-121.95690550,45.84180356,354.83
-121.95689594,45.84180423,316.23
-121.95689499,45.84180484,313.16
-121.95689272,45.84180821,316.18
-121.95689222,45.84181551,349.77
-121.95689061,45.84189142,342.66
-121.95688926,45.84196316,313.99
-121.95688254,45.84232340,316.15
-121.95687541,45.84270391,326.72
-121.95687051,45.84296578,316.87
-121.95686859,45.84306818,324.39
-121.95686587,45.84321400,337.23
-121.95686124,45.84346146,316.54
-121.95685973,45.84354240,315.53
-121.95685919,45.84357102,319.99
-121.95685369,45.84386602,318.76
-121.95684532,45.84431325,323.78
-121.95684169,45.84451301,319.92
-121.95683663,45.84477818,315.49
-121.95683192,45.84503168,312.15
-121.95682747,45.84526979,312.11
-121.95682542,45.84537991,313.02
-121.95682244,45.84554086,312.74
-121.95681434,45.84597172,332.06
-121.95681341,45.84602080,313.32
-121.95680656,45.84639065,311.23
-121.95680379,45.84653556,311.27
-121.95679882,45.84680057,328.54
-121.95679341,45.84709099,335.08
-121.95679003,45.84727073,358.67
-121.95678731,45.84741646,326.80
     </coordinates>
    </LineString>
   </MultiGeometry>
  </Placemark>
 </Document>
</kml>
