<kml>
 <Document>
  <Style id="yellow">
   <LineStyle>
   <color>ff00ffff</color>
   <width>1</width>
   </LineStyle>
  </Style>
  <Style id="red">
   <LineStyle>
   <color>ffff0000</color>
   <width>2</width>
   </LineStyle>
  </Style>
  <Style id="green">
   <LineStyle>
   <color>ff00ff00</color>
   <width>1</width>
   </LineStyle>
  </Style>
  <Placemark>
  <styleUrl>#yellow</styleUrl>
   <MultiGeometry>
    <LineString>
     <coordinates>
-122.00065643,45.86019568,743.70
-122.00110973,45.86019965,734.85
-122.00170078,45.86020481,753.88
-122.00190034,45.86020655,763.26
-122.00208311,45.86020813,727.53
-122.00244977,45.86021129,743.96
-122.00274555,45.86021392,741.74
-122.00307161,45.86021676,747.80
-122.00351136,45.86022062,742.45
-122.00362471,45.86022161,748.19
-122.00395528,45.86022449,735.08
-122.00404733,45.86022529,720.69
-122.00435433,45.86022797,693.94
-122.00490331,45.86023273,698.20
-122.00529856,45.86023619,699.99
-122.00531612,45.86023634,681.40
-122.00547569,45.86023773,698.92
-122.00547717,45.86023775,698.82
-122.00571567,45.86023981,694.25
-122.00612734,45.86024336,713.19
-122.00649414,45.86024658,717.87
-122.00707873,45.86025163,705.86
-122.00768298,45.86025692,696.13
-122.00784506,45.86025833,688.69
-122.00799848,45.86025965,683.73
-122.00805459,45.86025996,655.60
-122.00807523,45.86025229,655.56
-122.00807595,45.86023497,658.56
-122.00807671,45.86019887,655.41
-122.00807761,45.86015504,655.60
-122.00807893,45.86008223,687.33
-122.00808019,45.86001171,685.90
-122.00808217,45.85990142,684.55
-122.00808700,45.85962663,681.43
-122.00809081,45.85941483,664.72
-122.00809549,45.85915233,652.62
-122.00809708,45.85906309,657.47
-122.00809997,45.85889992,667.50
-122.00810536,45.85859715,658.96
-122.00810965,45.85835452,664.82
-122.00811701,45.85794230,625.40
-122.00812125,45.85770315,646.49
-122.00812506,45.85748895,651.06
-122.00812964,45.85723184,615.63
-122.00813564,45.85689313,612.13
-122.00813980,45.85666027,610.67
-122.00814075,45.85660700,638.22
-122.00814710,45.85624968,638.45
-122.00815056,45.85605503,636.92
-122.00815172,45.85599012,643.24
-122.00815730,45.85567631,640.72
-122.00816356,45.85532423,626.39
-122.00816773,45.85508794,639.95
-122.00817414,45.85472412,611.88
-122.00817839,45.85448400,625.66
-122.00818260,45.85425285,622.22
-122.00818760,45.85397065,614.34
-122.00819051,45.85380556,596.51
-122.00819620,45.85348787,603.42
-122.00820312,45.85309589,595.15
-122.00820489,45.85299934,602.56
-122.00821266,45.85256169,597.98
-122.00821659,45.85233306,605.38
-122.00821756,45.85227543,592.45
-122.00822521,45.85185307,603.71
-122.00822682,45.85176287,606.01
-122.00822757,45.85172052,603.70
-122.00822939,45.85161836,608.13
-122.00823411,45.85134383,602.31
-122.00823483,45.85129985,598.32
-122.00823491,45.85127703,596.94
-122.00823471,45.85126367,594.69
-122.00822721,45.85126259,595.66
-122.00821099,45.85126138,589.58
-122.00820398,45.85126098,589.53
-122.00819830,45.85126091,597.83
-122.00809773,45.85125994,606.51
-122.00759791,45.85125560,616.79
-122.00736364,45.85125355,603.05
-122.00689462,45.85124947,600.50
-122.00643470,45.85124551,596.47
-122.00623724,45.85124378,606.32
-122.00597998,45.85124153,590.40
-122.00536005,45.85123612,611.09
-122.00524564,45.85123513,590.37
-122.00485641,45.85123174,592.04
-122.00474118,45.85123074,604.99
-122.00411708,45.85122532,591.84
-122.00347440,45.85121969,607.32
-122.00324161,45.85121766,602.08
-122.00276082,45.85121347,618.91
-122.00236024,45.85120998,597.38
-122.00178633,45.85120496,611.64
-122.00136322,45.85120129,594.61
-122.00097954,45.85119794,595.75
-122.00071404,45.85119560,595.86
-122.00057654,45.85119439,602.37
-122.00038506,45.85119272,598.22
-121.99991945,45.85118866,597.22
-121.99974076,45.85118709,600.53
-121.99938899,45.85118400,610.83
-121.99923102,45.85118261,598.87
-121.99896387,45.85118029,605.68
-121.99845942,45.85117585,613.30
-121.99802752,45.85117206,622.72
-121.99751848,45.85116760,601.28
-121.99697625,45.85116284,618.63
-121.99649064,45.85115857,615.98
-121.99634449,45.85115729,624.54
-121.99632979,45.85115716,621.66
-121.99584004,45.85115289,625.39
-121.99548721,45.85114979,610.42
-121.99541921,45.85114961,612.95
-121.99535789,45.85115020,628.23
-121.99535744,45.85117270,620.33
-121.99535608,45.85124201,618.96
-121.99535530,45.85128458,602.10
-121.99535083,45.85153364,621.39
-121.99534620,45.85179112,612.35
-121.99533928,45.85217473,616.64
-121.99533477,45.85242385,617.75
-121.99532771,45.85281666,592.07
-121.99532139,45.85316720,622.36
-121.99531502,45.85352488,615.90
-121.99531272,45.85365000,595.79
-121.99530791,45.85391695,635.68
-121.99530066,45.85431952,635.82
-121.99529853,45.85443629,631.56
-121.99529172,45.85481529,602.83
-121.99528929,45.85494923,603.23
-121.99528565,45.85515362,631.80
-121.99528120,45.85540234,631.29
-121.99527704,45.85562946,641.42
-121.99527281,45.85586541,646.62
-121.99526601,45.85624255,640.17
-121.99526395,45.85635655,655.99
-121.99526148,45.85649359,659.06
-121.99526114,45.85651262,658.25
-121.99525441,45.85688830,653.92
-121.99524946,45.85716077,662.30
-121.99524159,45.85759784,674.78
-121.99523954,45.85771292,645.72
-121.99523653,45.85788349,674.80
-121.99523127,45.85817274,696.53
-121.99522950,45.85827019,701.94
-121.99522387,45.85858167,720.91
-121.99521983,45.85880583,733.69
-121.99521433,45.85911282,711.69
-121.99520900,45.85940729,748.27
-121.99520489,45.85963662,745.86
-121.99519897,45.85997000,757.32
-121.99519637,45.86011235,762.63
-121.99519696,45.86014167,763.67
-121.99519886,45.86014732,765.77
-121.99521704,45.86014794,762.38
-121.99556261,45.86015102,762.99
-121.99579774,45.86015309,760.90
-121.99618160,45.86015645,774.80
-121.99638195,45.86015820,759.58
-121.99660044,45.86016011,742.96
-121.99705384,45.86016412,777.32
-121.99706993,45.86016426,746.05
-121.99748134,45.86016778,745.48
-121.99788788,45.86017143,745.44
-121.99802659,45.86017265,761.03
-121.99838553,45.86017578,767.41
-121.99868118,45.86017837,748.14
-121.99894040,45.86018065,762.65
-121.99928610,45.86018369,761.49
-121.99940471,45.86018473,755.45
-121.99988159,45.86018889,750.16
-122.00012271,45.86019101,754.83
-122.00065643,45.86019568,743.70
     </coordinates>
    </LineString>
   </MultiGeometry>
  </Placemark>
 </Document>
</kml>
