<kml>
 <Document>
  <Style id="yellow">
   <LineStyle>
   <color>ff00ffff</color>
   <width>1</width>
   </LineStyle>
  </Style>
  <Style id="red">
   <LineStyle>
   <color>ffff0000</color>
   <width>2</width>
   </LineStyle>
  </Style>
  <Style id="green">
   <LineStyle>
   <color>ff00ff00</color>
   <width>1</width>
   </LineStyle>
  </Style>
  <Placemark>
  <styleUrl>#yellow</styleUrl>
   <MultiGeometry>
    <LineString>
     <coordinates>
-122.01262785,45.86930036,927.19
-122.01302534,45.86930380,928.53
-122.01344406,45.86930739,927.62
-122.01377846,45.86931030,926.68
-122.01385815,45.86931099,922.83
-122.01449095,45.86931644,922.65
-122.01492471,45.86932019,904.73
-122.01510312,45.86932169,921.38
-122.01561702,45.86932609,924.93
-122.01606470,45.86933000,907.63
-122.01656392,45.86933429,899.23
-122.01673582,45.86933578,897.90
-122.01729714,45.86934061,893.30
-122.01766756,45.86934380,901.84
-122.01777326,45.86934471,910.82
-122.01777365,45.86934471,907.61
-122.01807869,45.86934732,897.72
-122.01843139,45.86935036,895.26
-122.01884131,45.86935388,899.16
-122.01919562,45.86935693,891.45
-122.01965886,45.86936090,878.62
-122.01977973,45.86936194,909.65
-122.02030961,45.86936642,881.85
-122.02068924,45.86936967,863.17
-122.02076997,45.86937035,880.69
-122.02079650,45.86937035,883.98
-122.02079722,45.86936029,884.50
-122.02079854,45.86932885,883.74
-122.02079896,45.86931111,881.38
-122.02079936,45.86929188,885.54
-122.02079948,45.86928590,872.38
-122.02080127,45.86918374,852.97
-122.02080864,45.86875755,854.48
-122.02080979,45.86869262,855.28
-122.02081417,45.86845025,886.47
-122.02081644,45.86832057,884.09
-122.02081853,45.86820195,876.19
-122.02082118,45.86805064,883.61
-122.02082538,45.86781074,835.89
-122.02083039,45.86752664,841.36
-122.02083039,45.86752659,841.92
-122.02083186,45.86744240,857.31
-122.02083506,45.86726044,840.37
-122.02084016,45.86696922,838.79
-122.02084498,45.86669477,855.94
-122.02085141,45.86632776,851.51
-122.02085437,45.86615936,853.33
-122.02086024,45.86582650,854.18
-122.02086407,45.86560816,846.37
-122.02087013,45.86526232,811.86
-122.02087389,45.86504799,805.26
-122.02087756,45.86483899,799.91
-122.02087815,45.86480579,793.14
-122.02088391,45.86447677,759.40
-122.02089068,45.86409243,768.44
-122.02089840,45.86365239,746.56
-122.02090225,45.86343200,714.02
-122.02090683,45.86317213,704.71
-122.02091145,45.86290878,734.86
-122.02091568,45.86266877,719.58
-122.02092327,45.86223620,686.55
-122.02092822,45.86195325,703.49
-122.02093242,45.86171483,698.03
-122.02093532,45.86154913,694.25
-122.02094103,45.86122352,663.12
-122.02094581,45.86095229,682.72
-122.02095214,45.86058704,691.46
-122.02095525,45.86041011,689.42
-122.02095544,45.86037790,678.20
-122.02095478,45.86037220,677.99
-122.02094812,45.86037199,678.33
-122.02092005,45.86037153,679.18
-122.02089110,45.86037111,673.91
-122.02084843,45.86037053,675.06
-122.02022572,45.86036520,666.42
-122.01999632,45.86036321,667.26
-122.01988406,45.86036225,667.77
-122.01937676,45.86035793,663.06
-122.01912322,45.86035572,658.67
-122.01906590,45.86035523,665.74
-122.01889219,45.86035373,660.36
-122.01873702,45.86035241,664.61
-122.01815375,45.86034742,648.73
-122.01784881,45.86034480,669.09
-122.01732966,45.86034032,676.31
-122.01713594,45.86033866,685.04
-122.01667692,45.86033472,674.93
-122.01644411,45.86033271,665.91
-122.01583298,45.86032744,663.24
-122.01521273,45.86032211,667.71
-122.01506761,45.86032086,677.48
-122.01491803,45.86031957,694.31
-122.01444776,45.86031557,701.70
-122.01413348,45.86031284,697.30
-122.01359468,45.86030812,724.31
-122.01320160,45.86030473,723.04
-122.01265878,45.86030008,725.81
-122.01239254,45.86029774,722.81
-122.01210358,45.86029524,719.41
-122.01195180,45.86029393,726.95
-122.01142038,45.86028933,723.61
-122.01133549,45.86028860,713.75
-122.01099830,45.86028568,728.97
-122.01059018,45.86028217,715.91
-122.01006555,45.86027761,697.60
-122.00970030,45.86027452,694.57
-122.00908092,45.86026908,693.13
-122.00857990,45.86026473,688.77
-122.00827776,45.86026210,691.11
-122.00818583,45.86026130,691.53
-122.00813918,45.86026090,693.80
-122.00807592,45.86026152,655.63
-122.00807470,45.86032581,682.23
-122.00806873,45.86065803,695.76
-122.00806820,45.86068751,696.50
-122.00806627,45.86079622,694.87
-122.00806285,45.86098842,685.54
-122.00805983,45.86116121,697.94
-122.00805397,45.86148756,701.01
-122.00804940,45.86174449,697.58
-122.00804298,45.86210564,706.53
-122.00804141,45.86219384,771.17
-122.00803743,45.86241838,717.97
-122.00803268,45.86268643,751.85
-122.00802552,45.86308709,783.29
-122.00802031,45.86338115,775.24
-122.00801650,45.86359469,782.51
-122.00801415,45.86372635,779.64
-122.00801413,45.86372762,777.96
-122.00801374,45.86374979,807.20
-122.00800947,45.86399048,794.12
-122.00800530,45.86422419,766.88
-122.00800184,45.86441844,772.66
-122.00799962,45.86454333,816.00
-122.00799505,45.86480010,808.35
-122.00798937,45.86512050,826.32
-122.00798353,45.86544797,850.21
-122.00798017,45.86563688,834.04
-122.00797480,45.86594074,865.30
-122.00797212,45.86609012,858.39
-122.00796938,45.86624353,851.35
-122.00796910,45.86625898,830.27
-122.00796188,45.86666513,877.36
-122.00795805,45.86688003,887.45
-122.00795748,45.86691210,871.41
-122.00795427,45.86709440,868.73
-122.00794928,45.86737516,870.72
-122.00794706,45.86750035,876.31
-122.00793925,45.86793715,886.41
-122.00793328,45.86827327,872.11
-122.00792826,45.86855526,887.09
-122.00792193,45.86891059,901.02
-122.00791653,45.86921395,895.36
-122.00791649,45.86923341,897.93
-122.00791663,45.86925694,899.91
-122.00792544,45.86925774,897.54
-122.00793367,45.86925848,895.32
-122.00794446,45.86925904,893.97
-122.00798890,45.86926015,892.87
-122.00833126,45.86926314,882.32
-122.00874657,45.86926675,886.71
-122.00891994,45.86926825,884.36
-122.00939198,45.86927234,911.02
-122.00997195,45.86927738,905.42
-122.01051203,45.86928205,907.79
-122.01112812,45.86928738,911.03
-122.01128947,45.86928879,917.71
-122.01153222,45.86929088,921.61
-122.01162391,45.86929166,917.31
-122.01222380,45.86929686,922.77
-122.01262785,45.86930036,927.19
     </coordinates>
    </LineString>
   </MultiGeometry>
  </Placemark>
 </Document>
</kml>
