<kml>
 <Document>
  <Style id="yellow">
   <LineStyle>
   <color>ff00ffff</color>
   <width>1</width>
   </LineStyle>
  </Style>
  <Style id="red">
   <LineStyle>
   <color>ffff0000</color>
   <width>2</width>
   </LineStyle>
  </Style>
  <Style id="green">
   <LineStyle>
   <color>ff00ff00</color>
   <width>1</width>
   </LineStyle>
  </Style>
  <Placemark>
  <styleUrl>#yellow</styleUrl>
   <MultiGeometry>
    <LineString>
     <coordinates>
-121.94741481,45.85071699,431.89
-121.94774679,45.85072005,402.83
-121.94809271,45.85072322,415.93
-121.94845188,45.85072654,399.02
-121.94894734,45.85073109,387.16
-121.94930079,45.85073435,367.10
-121.94991506,45.85074000,319.87
-121.94995618,45.85074037,377.03
-121.95038338,45.85074429,360.27
-121.95094045,45.85074939,318.87
-121.95144150,45.85075401,312.98
-121.95192536,45.85075844,315.81
-121.95233791,45.85076223,313.21
-121.95270404,45.85076558,312.10
-121.95299120,45.85076818,312.67
-121.95348294,45.85077270,326.77
-121.95387188,45.85077628,316.31
-121.95414324,45.85077876,317.16
-121.95430794,45.85078027,328.48
-121.95485381,45.85078528,323.85
-121.95516709,45.85078815,325.70
-121.95578445,45.85079378,352.89
-121.95585589,45.85079444,328.81
-121.95624011,45.85079795,354.32
-121.95642189,45.85079959,336.50
-121.95661268,45.85080131,345.11
-121.95668772,45.85080182,337.78
-121.95671381,45.85080184,337.04
-121.95671517,45.85080152,322.45
-121.95671829,45.85079993,329.72
-121.95672215,45.85079757,315.14
-121.95672379,45.85079635,329.62
-121.95672442,45.85077716,315.11
-121.95672617,45.85068507,323.55
-121.95672923,45.85052134,341.72
-121.95673720,45.85009593,313.59
-121.95674312,45.84977863,312.70
-121.95674775,45.84953161,324.97
-121.95675024,45.84939850,330.54
-121.95675024,45.84939831,330.55
-121.95675432,45.84918011,324.26
-121.95675986,45.84888389,338.40
-121.95676708,45.84849792,315.63
-121.95677268,45.84819642,309.54
-121.95678017,45.84779577,309.83
-121.95678595,45.84748865,327.12
-121.95678671,45.84744801,332.04
-121.95679154,45.84718937,336.68
-121.95679964,45.84675641,315.13
-121.95680088,45.84668962,327.97
-121.95680828,45.84629424,312.74
-121.95681431,45.84596994,334.17
-121.95682099,45.84561293,312.57
-121.95682437,45.84543356,312.51
-121.95682494,45.84540302,312.75
-121.95682766,45.84525657,312.19
-121.95683073,45.84509035,312.13
-121.95683648,45.84478527,315.76
-121.95683785,45.84471138,315.08
-121.95684279,45.84444609,322.32
-121.95684707,45.84421845,324.50
-121.95685414,45.84384056,318.45
-121.95686203,45.84341786,315.54
-121.95686686,45.84316030,324.61
-121.95687389,45.84278395,313.81
-121.95687922,45.84249792,315.27
-121.95688739,45.84206146,316.02
-121.95688812,45.84202245,314.67
-121.95689172,45.84182992,313.39
-121.95689164,45.84182215,352.18
-121.95689016,45.84180766,313.13
-121.95688798,45.84180430,351.84
-121.95687857,45.84180348,347.93
-121.95684168,45.84180288,348.96
-121.95683060,45.84180273,345.24
-121.95667408,45.84180130,362.96
-121.95622634,45.84179722,339.32
-121.95594130,45.84179463,311.15
-121.95543903,45.84179003,330.91
-121.95516395,45.84178750,323.31
-121.95503503,45.84178633,318.57
-121.95477916,45.84178401,318.31
-121.95437324,45.84178027,332.13
-121.95387697,45.84177575,328.27
-121.95336274,45.84177103,312.24
-121.95323226,45.84176982,319.22
-121.95268020,45.84176475,307.91
-121.95254840,45.84176355,338.02
-121.95208768,45.84175937,319.67
-121.95154086,45.84175434,307.23
-121.95112056,45.84175046,305.66
-121.95089517,45.84174838,305.43
-121.95035976,45.84174348,310.81
-121.95003192,45.84174045,318.90
-121.94949561,45.84173553,305.91
-121.94926542,45.84173340,306.14
-121.94872059,45.84172840,302.47
-121.94817860,45.84172344,304.79
-121.94801830,45.84172193,304.68
-121.94751134,45.84171727,347.56
-121.94693608,45.84171196,331.10
-121.94677375,45.84171049,302.44
-121.94627556,45.84170588,331.49
-121.94614029,45.84170462,321.11
-121.94612181,45.84170445,302.72
-121.94588589,45.84170227,327.98
-121.94563881,45.84170001,329.06
-121.94504384,45.84169451,316.34
-121.94451003,45.84168957,315.21
-121.94405816,45.84168549,305.66
-121.94401850,45.84168632,323.86
-121.94401605,45.84172682,327.70
-121.94401546,45.84174368,320.04
-121.94401457,45.84178980,301.97
-121.94401044,45.84201036,349.28
-121.94400504,45.84229391,302.58
-121.94399881,45.84262477,315.48
-121.94399558,45.84279379,300.26
-121.94399116,45.84302743,301.20
-121.94398291,45.84346417,307.44
-121.94397539,45.84386043,309.79
-121.94397215,45.84403473,326.16
-121.94396677,45.84431600,338.10
-121.94396240,45.84454832,347.85
-121.94395857,45.84475359,346.60
-121.94395327,45.84503046,338.14
-121.94394952,45.84522768,356.22
-121.94394454,45.84549355,363.64
-121.94393734,45.84587268,386.35
-121.94393150,45.84618196,386.03
-121.94392670,45.84643491,369.15
-121.94392369,45.84659332,406.02
-121.94392352,45.84660258,409.00
-121.94392102,45.84673536,401.46
-121.94391264,45.84717790,406.78
-121.94391072,45.84727863,427.93
-121.94390554,45.84755189,422.40
-121.94390419,45.84762295,405.84
-121.94389601,45.84805631,417.84
-121.94389461,45.84812984,409.84
-121.94389147,45.84829513,433.91
-121.94388727,45.84851686,455.49
-121.94388055,45.84887276,425.43
-121.94387545,45.84914169,424.80
-121.94387149,45.84935068,466.50
-121.94386651,45.84961467,489.27
-121.94386016,45.84995130,507.29
-121.94385263,45.85034697,511.60
-121.94384664,45.85066476,518.09
-121.94384643,45.85068158,516.70
-121.94384706,45.85068300,518.31
-121.94385087,45.85068369,519.43
-121.94385795,45.85068402,519.64
-121.94386504,45.85068413,520.90
-121.94391378,45.85068466,476.31
-121.94398901,45.85068538,520.18
-121.94455041,45.85069056,502.79
-121.94485725,45.85069340,472.26
-121.94524145,45.85069694,457.05
-121.94552903,45.85069960,460.59
-121.94560608,45.85070031,453.70
-121.94574963,45.85070164,448.65
-121.94611945,45.85070505,441.31
-121.94627356,45.85070647,432.72
-121.94657352,45.85070924,437.65
-121.94701216,45.85071328,431.54
-121.94722337,45.85071523,447.40
-121.94724020,45.85071538,448.12
-121.94735029,45.85071640,415.09
-121.94741481,45.85071699,431.89
     </coordinates>
    </LineString>
   </MultiGeometry>
  </Placemark>
 </Document>
</kml>
