<kml>
 <Document>
  <Style id="yellow">
   <LineStyle>
   <color>ff00ffff</color>
   <width>1</width>
   </LineStyle>
  </Style>
  <Style id="red">
   <LineStyle>
   <color>ffff0000</color>
   <width>2</width>
   </LineStyle>
  </Style>
  <Style id="green">
   <LineStyle>
   <color>ff00ff00</color>
   <width>1</width>
   </LineStyle>
  </Style>
  <Placemark>
  <styleUrl>#yellow</styleUrl>
   <MultiGeometry>
    <LineString>
     <coordinates>
-121.98808321,45.83308314,656.59
-121.98864489,45.83308812,647.86
-121.98879671,45.83308946,646.72
-121.98901417,45.83309132,660.44
-121.98947780,45.83309549,661.75
-121.98991931,45.83309937,678.18
-121.99021995,45.83310202,675.25
-121.99075544,45.83310678,651.67
-121.99083778,45.83310751,653.09
-121.99146601,45.83311304,693.59
-121.99199406,45.83311771,692.39
-121.99225572,45.83312001,674.95
-121.99287793,45.83312549,685.54
-121.99338480,45.83312997,727.99
-121.99353697,45.83313131,699.41
-121.99400443,45.83313543,706.54
-121.99446848,45.83313944,714.09
-121.99471845,45.83314168,719.12
-121.99503059,45.83314446,725.35
-121.99559573,45.83314943,737.20
-121.99564522,45.83314970,741.81
-121.99567095,45.83314949,735.88
-121.99567762,45.83314942,736.04
-121.99568058,45.83314610,735.14
-121.99568160,45.83313279,737.28
-121.99568243,45.83310372,730.86
-121.99568339,45.83305344,732.10
-121.99568700,45.83284868,724.19
-121.99569147,45.83260080,700.84
-121.99569920,45.83217440,716.63
-121.99569929,45.83216950,707.94
-121.99570114,45.83206698,711.44
-121.99570595,45.83179853,704.26
-121.99571298,45.83140868,703.22
-121.99571642,45.83121746,685.40
-121.99571732,45.83116747,693.99
-121.99572479,45.83075073,687.20
-121.99572715,45.83061723,670.50
-121.99573091,45.83040722,669.26
-121.99573550,45.83015623,667.89
-121.99573919,45.82994962,645.39
-121.99574460,45.82964596,658.46
-121.99574980,45.82935994,653.87
-121.99575254,45.82920818,654.35
-121.99575654,45.82898310,651.18
-121.99576174,45.82869418,639.82
-121.99576489,45.82852260,629.77
-121.99576704,45.82840267,621.71
-121.99577349,45.82804340,655.31
-121.99578027,45.82766413,613.40
-121.99578239,45.82754719,600.99
-121.99578774,45.82725188,597.55
-121.99578871,45.82719775,632.07
-121.99579416,45.82689338,632.41
-121.99579943,45.82660096,643.61
-121.99580275,45.82641726,604.81
-121.99580746,45.82615456,609.99
-121.99581134,45.82593920,591.89
-121.99581542,45.82571209,620.79
-121.99581924,45.82549800,616.32
-121.99582352,45.82526087,611.84
-121.99582849,45.82498502,588.28
-121.99583297,45.82473486,591.42
-121.99584059,45.82431141,601.88
-121.99584123,45.82427552,607.73
-121.99584284,45.82418604,612.32
-121.99584270,45.82415729,617.87
-121.99584261,45.82415184,618.88
-121.99578711,45.82415083,599.38
-121.99574702,45.82415023,591.73
-121.99564655,45.82414926,611.23
-121.99553119,45.82414825,571.25
-121.99497763,45.82414335,568.70
-121.99494480,45.82414306,571.63
-121.99483924,45.82414214,580.74
-121.99426548,45.82413709,572.64
-121.99390795,45.82413394,594.69
-121.99352549,45.82413059,571.74
-121.99294595,45.82412546,582.17
-121.99283432,45.82412448,591.86
-121.99246674,45.82412125,568.34
-121.99210832,45.82411808,571.38
-121.99178975,45.82411527,571.92
-121.99163253,45.82411388,566.03
-121.99117852,45.82410987,549.17
-121.99065365,45.82410525,563.65
-121.99044529,45.82410339,557.57
-121.98981410,45.82409783,553.34
-121.98937550,45.82409394,559.99
-121.98933746,45.82409360,555.38
-121.98877501,45.82408865,557.45
-121.98841391,45.82408545,547.84
-121.98790295,45.82408090,546.70
-121.98763858,45.82407857,535.09
-121.98702490,45.82407314,529.24
-121.98653083,45.82406876,528.04
-121.98621736,45.82406596,539.35
-121.98579864,45.82406224,537.45
-121.98518541,45.82405680,543.40
-121.98456694,45.82405132,530.19
-121.98398847,45.82404616,536.92
-121.98376207,45.82404415,534.73
-121.98366045,45.82404326,534.27
-121.98306921,45.82403799,519.49
-121.98305105,45.82403786,532.15
-121.98304209,45.82403792,529.92
-121.98297462,45.82404210,519.41
-121.98297194,45.82404431,519.52
-121.98297058,45.82410178,539.33
-121.98296798,45.82424463,545.16
-121.98296775,45.82425735,546.49
-121.98296717,45.82428946,521.62
-121.98296658,45.82432150,536.47
-121.98296408,45.82445912,523.96
-121.98296084,45.82463691,547.58
-121.98295396,45.82501406,549.24
-121.98294958,45.82525434,558.52
-121.98294297,45.82561843,542.94
-121.98293868,45.82585306,550.04
-121.98293810,45.82588461,544.50
-121.98293560,45.82602169,553.65
-121.98292797,45.82644063,554.55
-121.98292748,45.82646776,564.43
-121.98292359,45.82668158,559.83
-121.98291749,45.82701701,567.29
-121.98291420,45.82719819,572.12
-121.98290918,45.82747315,569.06
-121.98290467,45.82772030,575.19
-121.98290062,45.82794261,588.12
-121.98290039,45.82795485,584.17
-121.98290011,45.82797034,589.48
-121.98289443,45.82828392,584.47
-121.98288904,45.82857807,571.44
-121.98288745,45.82866528,569.91
-121.98288089,45.82902649,600.86
-121.98287688,45.82924868,597.06
-121.98287131,45.82955177,608.84
-121.98286986,45.82963103,587.87
-121.98286315,45.83000254,601.27
-121.98286085,45.83012592,587.09
-121.98285930,45.83021083,607.20
-121.98285716,45.83032918,582.78
-121.98285461,45.83047197,581.13
-121.98284818,45.83082281,584.79
-121.98284520,45.83098498,581.18
-121.98283958,45.83129386,592.26
-121.98283482,45.83155439,586.42
-121.98282846,45.83190368,611.85
-121.98282374,45.83216269,601.79
-121.98282138,45.83229210,600.28
-121.98281597,45.83259141,604.00
-121.98281183,45.83281652,607.28
-121.98280942,45.83295647,610.93
-121.98280906,45.83297746,612.52
-121.98280854,45.83301450,610.35
-121.98280946,45.83303562,610.55
-121.98280949,45.83303624,610.57
-121.98289564,45.83303705,614.09
-121.98302411,45.83303821,611.67
-121.98353580,45.83304278,621.03
-121.98409699,45.83304777,621.94
-121.98440442,45.83305047,637.64
-121.98491345,45.83305503,636.05
-121.98539988,45.83305935,618.68
-121.98592771,45.83306403,625.24
-121.98638082,45.83306801,631.72
-121.98662772,45.83307022,646.46
-121.98681856,45.83307194,647.08
-121.98744945,45.83307752,624.93
-121.98808321,45.83308314,656.59
     </coordinates>
    </LineString>
   </MultiGeometry>
  </Placemark>
 </Document>
</kml>
