<kml>
 <Document>
  <Style id="yellow">
   <LineStyle>
   <color>ff00ffff</color>
   <width>1</width>
   </LineStyle>
  </Style>
  <Style id="red">
   <LineStyle>
   <color>ffff0000</color>
   <width>2</width>
   </LineStyle>
  </Style>
  <Style id="green">
   <LineStyle>
   <color>ff00ff00</color>
   <width>1</width>
   </LineStyle>
  </Style>
  <Placemark>
  <styleUrl>#yellow</styleUrl>
   <MultiGeometry>
    <LineString>
     <coordinates>
-122.00007034,45.86919115,800.68
-122.00037635,45.86919383,794.00
-122.00070119,45.86919663,785.24
-122.00107101,45.86919990,813.09
-122.00122380,45.86920122,842.11
-122.00144447,45.86920310,843.20
-122.00175087,45.86920574,849.92
-122.00217077,45.86920952,894.46
-122.00245833,45.86921202,891.87
-122.00292753,45.86921612,905.77
-122.00324397,45.86921888,933.31
-122.00342726,45.86922047,911.68
-122.00402993,45.86922570,938.05
-122.00457741,45.86923048,976.29
-122.00495233,45.86923375,968.25
-122.00547880,45.86923836,958.37
-122.00591332,45.86924213,920.64
-122.00626313,45.86924517,926.68
-122.00682399,45.86925006,918.66
-122.00710481,45.86925249,914.29
-122.00748677,45.86925582,907.69
-122.00789164,45.86925934,890.97
-122.00790350,45.86925938,896.91
-122.00790936,45.86925877,892.49
-122.00791214,45.86925819,894.87
-122.00791324,45.86925705,899.27
-122.00791451,45.86924654,897.53
-122.00791611,45.86922675,897.74
-122.00791778,45.86914258,905.94
-122.00792297,45.86885160,896.96
-122.00792577,45.86869403,886.25
-122.00792963,45.86847686,871.62
-122.00793008,45.86845189,890.91
-122.00793211,45.86833758,887.09
-122.00793418,45.86822134,885.50
-122.00793869,45.86796761,883.55
-122.00794430,45.86764805,883.05
-122.00794722,45.86748686,871.21
-122.00795177,45.86723244,876.81
-122.00795281,45.86717437,879.48
-122.00795459,45.86707333,873.24
-122.00796165,45.86667654,891.03
-122.00796928,45.86624753,851.36
-122.00797305,45.86603537,867.55
-122.00798067,45.86560819,840.75
-122.00798849,45.86516770,851.18
-122.00799103,45.86502581,828.99
-122.00799212,45.86496447,796.73
-122.00799402,45.86485730,817.03
-122.00799933,45.86455785,804.76
-122.00800253,45.86437778,783.01
-122.00801012,45.86395016,783.78
-122.00801388,45.86373802,796.95
-122.00801849,45.86347960,753.51
-122.00802576,45.86307245,793.17
-122.00803250,45.86269404,738.31
-122.00804039,45.86225057,754.80
-122.00804581,45.86194597,718.70
-122.00804793,45.86182502,714.84
-122.00805428,45.86146939,696.82
-122.00805482,45.86143921,706.66
-122.00805632,45.86135490,714.61
-122.00805959,45.86117113,706.75
-122.00806168,45.86105354,706.76
-122.00806782,45.86070832,668.92
-122.00807213,45.86046532,660.25
-122.00807451,45.86032675,683.01
-122.00807539,45.86026981,662.12
-122.00807302,45.86026453,655.74
-122.00807211,45.86026339,655.72
-122.00806880,45.86026102,655.71
-122.00806155,45.86026055,655.95
-122.00800093,45.86025970,683.71
-122.00765759,45.86025671,698.33
-122.00735383,45.86025408,687.91
-122.00723864,45.86025309,706.99
-122.00701018,45.86025118,710.21
-122.00652093,45.86024691,717.33
-122.00648271,45.86024658,718.22
-122.00585406,45.86024105,694.82
-122.00528330,45.86023607,712.39
-122.00484799,45.86023228,704.88
-122.00445316,45.86022884,695.36
-122.00405559,45.86022538,716.64
-122.00343456,45.86021996,749.51
-122.00321786,45.86021808,751.70
-122.00269756,45.86021354,745.11
-122.00241634,45.86021107,745.20
-122.00208619,45.86020819,752.06
-122.00170049,45.86020482,753.84
-122.00119336,45.86020039,738.32
-122.00111631,45.86019971,734.75
-122.00052933,45.86019458,726.50
-121.99994973,45.86018953,754.66
-121.99973364,45.86018764,757.65
-121.99923392,45.86018329,739.35
-121.99900731,45.86018128,757.14
-121.99856907,45.86017744,758.69
-121.99816823,45.86017396,760.17
-121.99772893,45.86017007,758.43
-121.99729944,45.86016629,768.74
-121.99703226,45.86016396,747.89
-121.99663659,45.86016048,739.80
-121.99637596,45.86015819,759.74
-121.99574549,45.86015264,727.12
-121.99540026,45.86014962,755.90
-121.99522536,45.86014813,770.19
-121.99521952,45.86014812,770.42
-121.99520130,45.86014860,767.69
-121.99519747,45.86014891,765.82
-121.99519545,45.86016949,773.89
-121.99519516,45.86018086,766.80
-121.99519282,45.86030655,769.33
-121.99518749,45.86060123,785.93
-121.99518660,45.86065070,792.01
-121.99518002,45.86101568,794.62
-121.99517739,45.86116172,789.79
-121.99517167,45.86148138,812.17
-121.99516530,45.86183268,815.66
-121.99516270,45.86197715,821.36
-121.99515708,45.86229211,818.67
-121.99515233,45.86255461,800.85
-121.99514749,45.86282146,791.07
-121.99514082,45.86319205,717.80
-121.99513317,45.86361943,710.49
-121.99513164,45.86370476,707.25
-121.99513157,45.86370857,678.94
-121.99512352,45.86415363,677.31
-121.99511867,45.86442147,676.49
-121.99511371,45.86469632,678.74
-121.99510756,45.86503855,682.13
-121.99510282,45.86530605,675.83
-121.99509815,45.86556287,689.15
-121.99509149,45.86593213,680.45
-121.99508871,45.86608502,687.89
-121.99508325,45.86639023,683.08
-121.99507690,45.86673979,637.52
-121.99507078,45.86707828,679.06
-121.99506537,45.86737922,644.06
-121.99506021,45.86766557,686.71
-121.99505414,45.86800249,674.94
-121.99504877,45.86830047,736.48
-121.99504443,45.86854120,692.95
-121.99503733,45.86893439,730.21
-121.99503392,45.86912496,730.52
-121.99503399,45.86914630,746.69
-121.99504099,45.86914669,742.62
-121.99506089,45.86914718,747.40
-121.99507189,45.86914730,741.99
-121.99516961,45.86914812,744.48
-121.99577017,45.86915343,747.87
-121.99621478,45.86915734,779.23
-121.99656712,45.86916044,770.87
-121.99675973,45.86916211,757.12
-121.99726651,45.86916658,804.08
-121.99778449,45.86917113,773.27
-121.99786619,45.86917184,802.18
-121.99798976,45.86917293,788.03
-121.99839323,45.86917647,795.44
-121.99870067,45.86917915,803.73
-121.99925700,45.86918402,783.12
-121.99959685,45.86918701,788.04
-121.99962051,45.86918722,806.88
-122.00007034,45.86919115,800.68
     </coordinates>
    </LineString>
   </MultiGeometry>
  </Placemark>
 </Document>
</kml>
