<kml>
 <Document>
  <Style id="yellow">
   <LineStyle>
   <color>ff00ffff</color>
   <width>1</width>
   </LineStyle>
  </Style>
  <Style id="red">
   <LineStyle>
   <color>ffff0000</color>
   <width>2</width>
   </LineStyle>
  </Style>
  <Style id="green">
   <LineStyle>
   <color>ff00ff00</color>
   <width>1</width>
   </LineStyle>
  </Style>
  <Placemark>
  <styleUrl>#yellow</styleUrl>
   <MultiGeometry>
    <LineString>
     <coordinates>
-121.97545484,45.84197121,594.10
-121.97571256,45.84197355,587.03
-121.97633735,45.84197914,596.03
-121.97687327,45.84198394,601.57
-121.97705640,45.84198558,602.90
-121.97758243,45.84199030,630.36
-121.97801194,45.84199414,635.36
-121.97810007,45.84199493,631.24
-121.97813508,45.84199524,634.16
-121.97866969,45.84200001,619.72
-121.97896456,45.84200264,630.93
-121.97930801,45.84200566,637.99
-121.97963387,45.84200861,645.74
-121.97975026,45.84200968,640.28
-121.97995485,45.84201150,633.92
-121.98052815,45.84201662,640.88
-121.98094430,45.84202033,657.55
-121.98100258,45.84202085,644.58
-121.98122355,45.84202281,649.50
-121.98184916,45.84202838,671.36
-121.98226276,45.84203209,674.54
-121.98232388,45.84203263,671.24
-121.98234165,45.84203279,656.65
-121.98249757,45.84203418,676.55
-121.98256631,45.84203476,681.53
-121.98258165,45.84203484,658.32
-121.98259244,45.84203487,673.93
-121.98264342,45.84203378,676.21
-121.98264484,45.84197743,679.58
-121.98264871,45.84176632,679.85
-121.98265301,45.84153083,679.71
-121.98265561,45.84138811,684.38
-121.98265696,45.84131356,683.09
-121.98265811,45.84124963,667.30
-121.98266566,45.84083383,686.77
-121.98267255,45.84045839,678.01
-121.98267594,45.84027117,692.55
-121.98267783,45.84016656,694.51
-121.98268586,45.83972643,687.98
-121.98268752,45.83963630,690.79
-121.98269154,45.83941686,689.69
-121.98269693,45.83912049,691.67
-121.98270127,45.83888318,676.04
-121.98270853,45.83848343,677.69
-121.98271175,45.83830800,684.58
-121.98271952,45.83788102,669.87
-121.98272702,45.83747011,674.11
-121.98272823,45.83740314,674.82
-121.98273605,45.83697461,666.71
-121.98274369,45.83655541,668.82
-121.98274699,45.83637423,644.20
-121.98274816,45.83631026,649.91
-121.98275500,45.83593464,659.05
-121.98275541,45.83591215,663.90
-121.98275571,45.83589592,661.77
-121.98275838,45.83574863,664.89
-121.98276637,45.83531025,643.44
-121.98277429,45.83487611,644.17
-121.98277861,45.83463917,653.43
-121.98277883,45.83462713,649.07
-121.98277886,45.83462541,632.23
-121.98278516,45.83427905,627.49
-121.98278922,45.83405326,626.18
-121.98279584,45.83369181,642.95
-121.98279800,45.83357414,633.24
-121.98279890,45.83352464,620.11
-121.98280583,45.83314282,615.72
-121.98280730,45.83306166,610.95
-121.98280706,45.83303641,614.79
-121.98280032,45.83303633,614.82
-121.98248686,45.83303346,616.83
-121.98245068,45.83303313,607.86
-121.98188880,45.83302814,618.98
-121.98174683,45.83302687,617.18
-121.98133202,45.83302317,602.55
-121.98070394,45.83301756,601.08
-121.98026468,45.83301365,594.12
-121.97981351,45.83300962,618.87
-121.97958141,45.83300754,634.14
-121.97946516,45.83300650,632.43
-121.97923004,45.83300440,597.16
-121.97908167,45.83300307,593.37
-121.97875176,45.83300012,621.12
-121.97861756,45.83299893,607.57
-121.97812244,45.83299451,596.69
-121.97784619,45.83299203,579.58
-121.97771910,45.83299089,613.15
-121.97749569,45.83298889,591.36
-121.97719859,45.83298625,615.39
-121.97674923,45.83298221,605.47
-121.97618961,45.83297719,557.18
-121.97600388,45.83297554,562.51
-121.97555842,45.83297156,567.02
-121.97535973,45.83296975,586.51
-121.97498313,45.83296638,562.92
-121.97453031,45.83296232,585.00
-121.97432071,45.83296043,555.31
-121.97430638,45.83296030,555.99
-121.97396956,45.83295729,556.70
-121.97365365,45.83295444,548.34
-121.97312383,45.83294968,551.18
-121.97251995,45.83294427,537.51
-121.97196103,45.83293923,580.33
-121.97171984,45.83293706,525.17
-121.97123676,45.83293271,524.43
-121.97070336,45.83292791,556.60
-121.97018957,45.83292327,551.08
-121.96998162,45.83292153,553.96
-121.96996141,45.83292170,552.62
-121.96994684,45.83292217,550.43
-121.96993684,45.83292345,545.47
-121.96993422,45.83292432,544.26
-121.96993402,45.83292548,542.14
-121.96993193,45.83303732,521.33
-121.96992466,45.83343082,552.16
-121.96992315,45.83351249,544.47
-121.96991625,45.83388728,554.20
-121.96990961,45.83424618,518.86
-121.96990206,45.83465568,506.37
-121.96990042,45.83474501,521.03
-121.96989533,45.83502358,520.31
-121.96989080,45.83526665,504.75
-121.96988516,45.83557157,536.52
-121.96988134,45.83578054,503.41
-121.96987577,45.83608170,505.11
-121.96987253,45.83625589,504.36
-121.96987039,45.83637405,527.18
-121.96986378,45.83673094,506.27
-121.96986021,45.83692499,528.59
-121.96985360,45.83728241,548.91
-121.96984738,45.83761921,517.69
-121.96984076,45.83797889,511.04
-121.96983341,45.83837627,517.46
-121.96983133,45.83848822,523.30
-121.96982562,45.83880066,530.50
-121.96982118,45.83904034,515.84
-121.96981684,45.83927359,507.87
-121.96981252,45.83950737,518.22
-121.96981113,45.83958259,545.77
-121.96980665,45.83982614,524.32
-121.96979981,45.84019623,507.17
-121.96979716,45.84034020,509.36
-121.96979126,45.84065986,540.98
-121.96978428,45.84103840,519.77
-121.96977724,45.84142112,534.45
-121.96977496,45.84154395,522.28
-121.96977054,45.84178413,544.60
-121.96976891,45.84187307,536.78
-121.96976881,45.84190716,535.01
-121.96976902,45.84191383,539.54
-121.96977265,45.84191958,534.72
-121.96982502,45.84192051,532.40
-121.96984130,45.84192074,536.60
-121.96990813,45.84192135,538.21
-121.97020185,45.84192402,557.36
-121.97049711,45.84192668,530.85
-121.97104591,45.84193161,562.20
-121.97138484,45.84193467,550.93
-121.97179814,45.84193838,535.45
-121.97219195,45.84194193,565.86
-121.97256479,45.84194529,576.19
-121.97290926,45.84194839,550.47
-121.97318282,45.84195084,585.39
-121.97367815,45.84195527,558.68
-121.97426729,45.84196058,589.26
-121.97455864,45.84196320,607.17
-121.97485920,45.84196589,610.22
-121.97545484,45.84197121,594.10
     </coordinates>
    </LineString>
   </MultiGeometry>
  </Placemark>
 </Document>
</kml>
