<kml>
 <Document>
  <Style id="yellow">
   <LineStyle>
   <color>ff00ffff</color>
   <width>1</width>
   </LineStyle>
  </Style>
  <Style id="red">
   <LineStyle>
   <color>ffff0000</color>
   <width>2</width>
   </LineStyle>
  </Style>
  <Style id="green">
   <LineStyle>
   <color>ff00ff00</color>
   <width>1</width>
   </LineStyle>
  </Style>
  <Placemark>
  <styleUrl>#yellow</styleUrl>
   <MultiGeometry>
    <LineString>
     <coordinates>
-80.48355110,37.42368532,1051.48
-80.48400957,37.42368732,1073.79
-80.48423869,37.42368832,1072.12
-80.48426098,37.42368842,1070.45
-80.48455821,37.42368971,1070.27
-80.48511144,37.42369213,1064.82
-80.48517831,37.42369242,1040.75
-80.48545295,37.42369361,1069.42
-80.48567994,37.42369460,1062.30
-80.48599109,37.42369595,1065.65
-80.48613849,37.42369659,1060.20
-80.48632641,37.42369741,1060.47
-80.48682597,37.42369958,1059.25
-80.48698930,37.42370028,1037.68
-80.48743995,37.42370224,1051.85
-80.48763800,37.42370310,1065.68
-80.48764610,37.42370314,1064.98
-80.48782431,37.42370391,1064.02
-80.48823006,37.42370566,1058.69
-80.48856585,37.42370711,1033.37
-80.48908733,37.42370937,1051.93
-80.48962932,37.42371172,1039.99
-80.48977379,37.42371234,1046.73
-80.49028129,37.42371450,1041.33
-80.49076823,37.42371663,1050.43
-80.49081047,37.42371681,1025.86
-80.49097285,37.42371751,1052.01
-80.49127786,37.42371882,1052.78
-80.49138240,37.42371925,1059.06
-80.49138966,37.42371924,1055.47
-80.49140323,37.42371919,1048.82
-80.49140764,37.42371916,1056.95
-80.49141011,37.42371784,1054.46
-80.49141169,37.42371620,1056.55
-80.49141175,37.42371436,1054.71
-80.49141358,37.42344782,1064.99
-80.49141529,37.42319374,1044.71
-80.49141808,37.42278138,1085.69
-80.49141980,37.42252083,1083.91
-80.49142126,37.42231181,1088.09
-80.49142195,37.42221086,1098.44
-80.49142352,37.42197855,1101.89
-80.49142406,37.42189878,1092.01
-80.49142480,37.42178939,1110.58
-80.49142499,37.42176112,1107.59
-80.49142565,37.42166323,1114.22
-80.49142702,37.42145987,1119.15
-80.49142962,37.42107591,1114.55
-80.49143102,37.42086955,1133.92
-80.49143155,37.42079099,1152.74
-80.49143155,37.42079072,1152.74
-80.49143230,37.42068009,1134.40
-80.49143358,37.42049026,1160.98
-80.49143533,37.42022677,1157.88
-80.49143708,37.41997328,1182.25
-80.49143715,37.41996271,1172.93
-80.49143765,37.41988683,1195.52
-80.49144022,37.41950340,1207.89
-80.49144185,37.41926833,1210.43
-80.49144323,37.41906428,1220.96
-80.49144608,37.41863896,1218.25
-80.49144874,37.41824735,1231.02
-80.49145102,37.41790859,1232.53
-80.49145255,37.41768574,1229.62
-80.49145275,37.41765556,1232.02
-80.49145310,37.41760447,1230.64
-80.49145454,37.41739159,1224.59
-80.49145625,37.41713050,1216.02
-80.49145772,37.41692076,1219.73
-80.49145999,37.41658404,1214.83
-80.49146171,37.41632755,1222.15
-80.49146413,37.41597050,1208.15
-80.49146572,37.41573459,1212.56
-80.49146806,37.41538950,1213.79
-80.49146898,37.41525383,1209.60
-80.49146974,37.41514186,1209.43
-80.49147168,37.41485223,1201.19
-80.49147230,37.41475409,1214.86
-80.49147235,37.41473017,1214.37
-80.49147219,37.41471021,1200.74
-80.49146755,37.41470614,1214.67
-80.49142336,37.41470580,1211.65
-80.49099207,37.41470392,1204.16
-80.49065548,37.41470246,1213.67
-80.49042186,37.41470145,1202.65
-80.49005015,37.41469985,1198.18
-80.48998000,37.41469954,1197.86
-80.48955042,37.41469769,1208.47
-80.48952473,37.41469758,1207.43
-80.48911162,37.41469579,1195.20
-80.48901443,37.41469537,1197.44
-80.48890965,37.41469492,1203.59
-80.48884106,37.41469462,1200.63
-80.48857412,37.41469347,1201.52
-80.48819415,37.41469183,1197.89
-80.48805083,37.41469121,1190.68
-80.48767585,37.41468958,1181.94
-80.48724438,37.41468772,1179.71
-80.48679222,37.41468579,1186.01
-80.48655525,37.41468475,1177.36
-80.48633045,37.41468376,1181.56
-80.48604015,37.41468248,1174.54
-80.48566967,37.41468089,1177.38
-80.48543345,37.41467985,1173.85
-80.48522661,37.41467894,1159.27
-80.48513022,37.41467852,1168.13
-80.48502965,37.41467808,1167.79
-80.48487757,37.41467742,1154.18
-80.48447991,37.41467569,1155.01
-80.48447945,37.41467569,1157.81
-80.48428279,37.41467483,1143.00
-80.48425043,37.41467469,1144.13
-80.48421045,37.41467451,1133.66
-80.48415022,37.41467425,1131.26
-80.48411394,37.41467409,1139.79
-80.48389798,37.41467316,1131.22
-80.48351942,37.41467150,1119.61
-80.48335179,37.41467076,1128.55
-80.48296964,37.41466910,1120.09
-80.48269419,37.41466789,1105.50
-80.48262363,37.41466758,1111.87
-80.48245979,37.41466686,1108.71
-80.48241071,37.41466665,1101.90
-80.48206877,37.41466515,1090.95
-80.48154324,37.41466285,1084.53
-80.48112298,37.41466101,1072.98
-80.48074613,37.41465935,1076.36
-80.48034271,37.41465757,1057.75
-80.48026419,37.41465724,1061.99
-80.48019891,37.41465701,1054.82
-80.48017922,37.41465705,1050.40
-80.48017558,37.41465706,1050.20
-80.48017363,37.41465804,1046.86
-80.48017276,37.41466780,1059.68
-80.48017229,37.41469147,1059.75
-80.48017180,37.41476046,1056.91
-80.48017153,37.41480070,1052.35
-80.48017146,37.41480968,1047.52
-80.48017121,37.41484584,1065.28
-80.48017028,37.41498153,1057.34
-80.48017004,37.41501622,1049.26
-80.48016898,37.41517034,1069.07
-80.48016619,37.41557429,1077.19
-80.48016526,37.41570773,1066.99
-80.48016470,37.41579008,1061.93
-80.48016201,37.41617921,1092.12
-80.48016118,37.41629688,1094.16
-80.48015830,37.41671451,1085.82
-80.48015665,37.41695283,1082.02
-80.48015612,37.41702948,1099.12
-80.48015508,37.41717951,1102.30
-80.48015425,37.41730026,1104.62
-80.48015350,37.41741265,1100.59
-80.48015066,37.41781924,1091.05
-80.48014964,37.41796766,1116.92
-80.48014959,37.41797498,1104.98
-80.48014749,37.41827839,1097.45
-80.48014519,37.41861130,1113.81
-80.48014293,37.41893808,1112.78
-80.48014001,37.41936081,1135.84
-80.48013995,37.41936828,1133.05
-80.48013824,37.41961662,1135.83
-80.48013813,37.41963195,1147.97
-80.48013720,37.41976654,1148.13
-80.48013701,37.41979404,1159.80
-80.48013673,37.41983491,1161.38
-80.48013560,37.41999880,1150.55
-80.48013544,37.42002102,1149.56
-80.48013284,37.42039692,1173.82
-80.48013259,37.42043359,1174.39
-80.48013236,37.42046629,1171.97
-80.48013064,37.42071509,1162.79
-80.48013034,37.42075934,1180.14
-80.48012845,37.42103294,1166.75
-80.48012714,37.42122143,1173.18
-80.48012673,37.42128155,1170.45
-80.48012502,37.42152868,1168.60
-80.48012488,37.42154845,1167.64
-80.48012480,37.42156013,1154.75
-80.48012449,37.42160588,1161.72
-80.48012382,37.42170167,1163.42
-80.48012379,37.42170710,1145.40
-80.48012236,37.42191342,1139.27
-80.48012215,37.42194420,1157.15
-80.48012189,37.42198113,1138.82
-80.48012167,37.42201252,1157.20
-80.48012159,37.42202523,1135.73
-80.48012156,37.42202966,1135.63
-80.48012131,37.42206473,1142.23
-80.48011923,37.42236660,1148.09
-80.48011726,37.42265269,1139.11
-80.48011505,37.42297095,1129.95
-80.48011324,37.42323287,1111.93
-80.48011131,37.42351184,1116.72
-80.48011035,37.42365017,1122.56
-80.48011031,37.42365758,1119.67
-80.48011101,37.42366662,1124.40
-80.48011136,37.42366959,1120.07
-80.48011178,37.42366971,1106.97
-80.48011561,37.42366998,1106.93
-80.48011930,37.42367019,1106.96
-80.48030702,37.42367110,1123.16
-80.48079354,37.42367324,1117.87
-80.48097993,37.42367406,1094.44
-80.48136309,37.42367574,1108.40
-80.48145478,37.42367614,1104.50
-80.48169994,37.42367722,1101.70
-80.48215235,37.42367920,1073.81
-80.48232390,37.42367995,1090.93
-80.48244506,37.42368048,1090.81
-80.48263533,37.42368131,1064.60
-80.48263977,37.42368133,1064.53
-80.48271483,37.42368166,1087.89
-80.48277826,37.42368194,1085.25
-80.48288992,37.42368243,1088.29
-80.48289840,37.42368247,1088.20
-80.48310054,37.42368334,1081.98
-80.48355110,37.42368532,1051.48
     </coordinates>
    </LineString>
   </MultiGeometry>
  </Placemark>
 </Document>
</kml>
