<kml>
 <Document>
  <Style id="yellow">
   <LineStyle>
   <color>ff00ffff</color>
   <width>1</width>
   </LineStyle>
  </Style>
  <Style id="red">
   <LineStyle>
   <color>ffff0000</color>
   <width>2</width>
   </LineStyle>
  </Style>
  <Style id="green">
   <LineStyle>
   <color>ff00ff00</color>
   <width>1</width>
   </LineStyle>
  </Style>
  <Placemark>
  <styleUrl>#yellow</styleUrl>
   <MultiGeometry>
    <LineString>
     <coordinates>
-80.54113045,37.38786791,1014.53
-80.54130606,37.38786859,1013.92
-80.54150519,37.38786936,1005.88
-80.54194526,37.38787104,1009.65
-80.54224064,37.38787220,990.73
-80.54273602,37.38787412,997.83
-80.54317749,37.38787583,990.48
-80.54345252,37.38787690,1004.04
-80.54374891,37.38787804,1008.26
-80.54388629,37.38787857,992.84
-80.54419262,37.38787975,999.74
-80.54427494,37.38788007,992.34
-80.54439257,37.38788052,999.32
-80.54454735,37.38788112,994.91
-80.54501695,37.38788292,991.62
-80.54538818,37.38788436,994.93
-80.54577577,37.38788585,976.88
-80.54621865,37.38788755,974.48
-80.54648245,37.38788856,998.35
-80.54685388,37.38788996,995.37
-80.54732304,37.38789176,979.65
-80.54746404,37.38789231,1001.52
-80.54763151,37.38789296,1001.36
-80.54780485,37.38789362,998.67
-80.54781860,37.38789367,997.37
-80.54797252,37.38789426,1000.80
-80.54803893,37.38789447,1002.66
-80.54809839,37.38789462,1000.68
-80.54811363,37.38789388,996.59
-80.54812354,37.38789323,995.82
-80.54813222,37.38789210,1000.99
-80.54813385,37.38788961,981.30
-80.54813458,37.38788770,1000.81
-80.54813635,37.38788099,980.72
-80.54813740,37.38772789,979.40
-80.54813964,37.38735568,976.88
-80.54813981,37.38732702,978.71
-80.54814206,37.38695341,978.55
-80.54814341,37.38672368,994.40
-80.54814544,37.38639163,1009.84
-80.54814796,37.38597034,985.97
-80.54814926,37.38575416,1002.32
-80.54815125,37.38542391,1005.44
-80.54815165,37.38535580,1008.10
-80.54815430,37.38491502,988.43
-80.54815554,37.38470860,988.60
-80.54815562,37.38469451,988.83
-80.54815679,37.38449944,1001.10
-80.54815694,37.38447505,998.40
-80.54815807,37.38428689,1011.76
-80.54815885,37.38415698,1008.00
-80.54815966,37.38401770,1004.37
-80.54816013,37.38393503,1001.31
-80.54816144,37.38370866,1016.21
-80.54816365,37.38334513,1005.31
-80.54816638,37.38289982,1019.98
-80.54816696,37.38280483,1019.72
-80.54816899,37.38246510,1019.84
-80.54817151,37.38204678,1024.19
-80.54817386,37.38165526,1013.88
-80.54817540,37.38139608,1006.47
-80.54817749,37.38105056,1027.80
-80.54817925,37.38075591,1019.45
-80.54818034,37.38057559,1036.41
-80.54818061,37.38053056,1026.19
-80.54818063,37.38052664,1027.73
-80.54818082,37.38049524,1010.80
-80.54818305,37.38011837,1033.85
-80.54818372,37.38001176,1019.38
-80.54818467,37.37985405,1042.06
-80.54818499,37.37980075,1040.51
-80.54818569,37.37968391,1042.58
-80.54818755,37.37937265,1050.08
-80.54818965,37.37902092,1060.76
-80.54819026,37.37891245,1050.20
-80.54819024,37.37888724,1062.37
-80.54818857,37.37888358,1061.53
-80.54815611,37.37888146,1063.26
-80.54811904,37.37888106,1058.49
-80.54773144,37.37887958,1051.16
-80.54762208,37.37887916,1047.90
-80.54712416,37.37887727,1038.96
-80.54681443,37.37887608,1050.28
-80.54655445,37.37887507,1045.97
-80.54654112,37.37887502,1042.66
-80.54647486,37.37887477,1050.15
-80.54601744,37.37887301,1072.86
-80.54560895,37.37887144,1073.45
-80.54511218,37.37886954,1096.92
-80.54460870,37.37886760,1107.50
-80.54414004,37.37886581,1117.11
-80.54387109,37.37886478,1114.49
-80.54343625,37.37886308,1108.65
-80.54336256,37.37886279,1130.32
-80.54314042,37.37886193,1132.59
-80.54272445,37.37886033,1133.99
-80.54261488,37.37885990,1125.67
-80.54239268,37.37885904,1139.68
-80.54229877,37.37885868,1122.18
-80.54208419,37.37885786,1123.59
-80.54181581,37.37885684,1132.80
-80.54144479,37.37885537,1143.52
-80.54095647,37.37885348,1146.46
-80.54094529,37.37885343,1129.68
-80.54048828,37.37885166,1147.59
-80.54044829,37.37885150,1134.69
-80.53991986,37.37884946,1157.59
-80.53949027,37.37884778,1143.97
-80.53911908,37.37884634,1164.46
-80.53892264,37.37884557,1165.67
-80.53877972,37.37884502,1167.00
-80.53828471,37.37884308,1150.49
-80.53822736,37.37884285,1151.96
-80.53798398,37.37884192,1170.29
-80.53791766,37.37884167,1153.77
-80.53740409,37.37883964,1171.74
-80.53724891,37.37883904,1172.64
-80.53689606,37.37883770,1156.69
-80.53689572,37.37884108,1156.69
-80.53689543,37.37886707,1171.39
-80.53689509,37.37892192,1172.29
-80.53689502,37.37893349,1155.55
-80.53689489,37.37895504,1155.43
-80.53689476,37.37897547,1166.45
-80.53689437,37.37903898,1162.40
-80.53689261,37.37932437,1149.58
-80.53689242,37.37935591,1162.92
-80.53689045,37.37967935,1152.83
-80.53688855,37.37998769,1137.27
-80.53688630,37.38035121,1125.43
-80.53688499,37.38056381,1144.83
-80.53688435,37.38066914,1117.50
-80.53688430,37.38067705,1133.57
-80.53688264,37.38094650,1129.51
-80.53687992,37.38139081,1099.70
-80.53687763,37.38176326,1101.52
-80.53687694,37.38187295,1087.34
-80.53687607,37.38202044,1101.87
-80.53687371,37.38240207,1100.21
-80.53687140,37.38277553,1088.04
-80.53687095,37.38284973,1089.05
-80.53686833,37.38327513,1064.16
-80.53686613,37.38363105,1040.24
-80.53686455,37.38388727,1053.17
-80.53686298,37.38414371,1052.30
-80.53686131,37.38441455,1039.65
-80.53686127,37.38442183,1039.19
-80.53686109,37.38445005,1053.93
-80.53686093,37.38447623,1049.62
-80.53685979,37.38466194,1038.83
-80.53685872,37.38483525,1053.54
-80.53685839,37.38488896,1052.38
-80.53685775,37.38499370,1045.73
-80.53685613,37.38525882,1041.63
-80.53685445,37.38553022,1044.37
-80.53685309,37.38575622,1042.64
-80.53685144,37.38601897,1022.80
-80.53685075,37.38613157,1028.77
-80.53684981,37.38628552,1017.39
-80.53684790,37.38659825,1014.92
-80.53684719,37.38671350,1032.28
-80.53684464,37.38712653,1023.36
-80.53684393,37.38723981,1018.94
-80.53684201,37.38755157,1034.06
-80.53684163,37.38761778,1028.32
-80.53684051,37.38781312,1028.10
-80.53684094,37.38784260,1016.34
-80.53684143,37.38785066,1016.10
-80.53684286,37.38785093,1029.43
-80.53685116,37.38785122,1015.72
-80.53736108,37.38785322,1038.91
-80.53758606,37.38785410,1030.62
-80.53764213,37.38785432,1010.93
-80.53776958,37.38785482,1029.28
-80.53781097,37.38785498,1032.14
-80.53826917,37.38785675,1011.76
-80.53847474,37.38785756,1018.14
-80.53862623,37.38785816,1015.70
-80.53903023,37.38785974,1009.87
-80.53906491,37.38785988,1011.87
-80.53920088,37.38786041,1005.54
-80.53974097,37.38786251,1013.13
-80.53975044,37.38786255,994.60
-80.53989243,37.38786310,1011.09
-80.53989287,37.38786310,1017.19
-80.54005298,37.38786372,1002.72
-80.54027310,37.38786456,1012.18
-80.54079892,37.38786662,994.71
-80.54113045,37.38786791,1014.53
     </coordinates>
    </LineString>
   </MultiGeometry>
  </Placemark>
 </Document>
</kml>
