<kml>
 <Document>
  <Style id="yellow">
   <LineStyle>
   <color>ff00ffff</color>
   <width>1</width>
   </LineStyle>
  </Style>
  <Style id="red">
   <LineStyle>
   <color>ffff0000</color>
   <width>2</width>
   </LineStyle>
  </Style>
  <Style id="green">
   <LineStyle>
   <color>ff00ff00</color>
   <width>1</width>
   </LineStyle>
  </Style>
  <Placemark>
  <styleUrl>#yellow</styleUrl>
   <MultiGeometry>
    <LineString>
     <coordinates>
-80.54794542,37.41969972,868.78
-80.54794427,37.41988767,867.93
-80.54794233,37.42021438,846.46
-80.54794092,37.42044710,861.75
-80.54793897,37.42076789,851.35
-80.54793679,37.42113172,850.31
-80.54793528,37.42138313,848.41
-80.54793465,37.42148674,846.01
-80.54793229,37.42188052,824.10
-80.54793038,37.42220029,827.98
-80.54792819,37.42256105,833.30
-80.54792658,37.42282946,867.55
-80.54792566,37.42298619,843.25
-80.54792430,37.42321705,871.50
-80.54792263,37.42348632,878.36
-80.54792000,37.42392644,878.20
-80.54792023,37.42394195,855.42
-80.54792567,37.42394888,854.84
-80.54802762,37.42394936,874.37
-80.54825769,37.42395029,848.08
-80.54851806,37.42395128,865.62
-80.54904711,37.42395329,827.96
-80.54921817,37.42395395,838.30
-80.54945637,37.42395487,824.16
-80.54962919,37.42395553,836.86
-80.54975217,37.42395598,825.39
-80.55028481,37.42395800,827.99
-80.55035128,37.42395825,801.32
-80.55047426,37.42395872,818.31
-80.55090825,37.42396038,820.80
-80.55104320,37.42396091,815.01
-80.55140716,37.42396227,817.23
-80.55177968,37.42396365,813.31
-80.55205787,37.42396473,787.74
-80.55261256,37.42396684,808.66
-80.55279383,37.42396751,798.42
-80.55319950,37.42396906,808.80
-80.55349996,37.42397021,798.24
-80.55394895,37.42397190,790.65
-80.55427992,37.42397316,811.32
-80.55471765,37.42397480,793.84
-80.55518880,37.42397656,786.93
-80.55530583,37.42397701,795.86
-80.55556892,37.42397801,802.56
-80.55603205,37.42397974,822.92
-80.55619976,37.42398036,824.54
-80.55663856,37.42398203,824.64
-80.55687858,37.42398293,846.93
-80.55711112,37.42398380,837.78
-80.55718865,37.42398409,841.51
-80.55747933,37.42398518,846.47
-80.55774005,37.42398615,848.91
-80.55785503,37.42398658,847.57
-80.55822745,37.42398798,839.80
-80.55869554,37.42398971,829.55
-80.55888556,37.42399042,834.37
-80.55898585,37.42399080,834.65
-80.55912523,37.42399128,828.59
-80.55916932,37.42399138,832.99
-80.55921968,37.42399140,833.52
-80.55922054,37.42399138,837.04
-80.55922132,37.42399110,837.08
-80.55922154,37.42398421,827.19
-80.55922178,37.42394124,833.96
-80.55922432,37.42351613,819.49
-80.55922482,37.42342994,822.59
-80.55922740,37.42298464,858.73
-80.55922821,37.42285332,834.09
-80.55922937,37.42265427,860.02
-80.55922942,37.42264639,861.50
-80.55923194,37.42221250,855.45
-80.55923278,37.42206934,850.68
-80.55923325,37.42198907,844.08
-80.55923582,37.42155439,819.69
-80.55923669,37.42140547,836.21
-80.55923688,37.42137399,837.58
-80.55923848,37.42110146,833.85
-80.55923898,37.42101563,834.24
-80.55924102,37.42066688,828.89
-80.55924147,37.42059066,830.23
-80.55924257,37.42040273,823.88
-80.55924357,37.42023294,822.19
-80.55924453,37.42006903,814.97
-80.55924529,37.41993810,808.38
-80.55924590,37.41983525,804.67
-80.55924677,37.41968481,779.07
-80.55924886,37.41932917,788.68
-80.55925040,37.41906634,784.28
-80.55925173,37.41884015,788.29
-80.55925244,37.41871882,790.35
-80.55925498,37.41828263,797.42
-80.55925572,37.41815853,769.49
-80.55925630,37.41806083,795.03
-80.55925806,37.41775868,776.73
-80.55926009,37.41741297,804.71
-80.55926188,37.41710574,809.37
-80.55926392,37.41676018,811.39
-80.55926568,37.41645307,808.42
-80.55926767,37.41611541,816.86
-80.55926902,37.41589030,823.68
-80.55927146,37.41546744,797.36
-80.55927229,37.41533012,799.84
-80.55927369,37.41509327,819.55
-80.55927406,37.41502849,821.67
-80.55927418,37.41500852,816.57
-80.55927415,37.41499270,807.57
-80.55927405,37.41498324,806.39
-80.55927025,37.41497820,822.09
-80.55918057,37.41497783,829.16
-80.55885222,37.41497661,827.86
-80.55847484,37.41497519,830.85
-80.55820287,37.41497419,835.46
-80.55778479,37.41497265,836.17
-80.55749774,37.41497154,836.06
-80.55703668,37.41496981,840.02
-80.55671767,37.41496861,846.26
-80.55620167,37.41496668,850.54
-80.55569820,37.41496479,855.75
-80.55534530,37.41496346,865.87
-80.55532574,37.41496339,867.77
-80.55512288,37.41496262,869.61
-80.55485565,37.41496162,857.02
-80.55474967,37.41496122,856.33
-80.55474837,37.41496121,856.25
-80.55421514,37.41495921,867.79
-80.55398978,37.41495836,876.69
-80.55378243,37.41495757,874.69
-80.55337438,37.41495603,882.95
-80.55324674,37.41495555,891.00
-80.55282972,37.41495397,894.90
-80.55257278,37.41495300,890.35
-80.55235840,37.41495219,878.65
-80.55180465,37.41495009,911.89
-80.55160655,37.41494934,911.66
-80.55141707,37.41494862,918.54
-80.55104595,37.41494721,926.73
-80.55074705,37.41494608,914.91
-80.55039317,37.41494474,911.66
-80.55001677,37.41494330,936.52
-80.54987246,37.41494278,932.66
-80.54933832,37.41494074,955.19
-80.54923366,37.41494033,930.86
-80.54896324,37.41493930,959.04
-80.54878263,37.41493861,944.14
-80.54825040,37.41493656,981.05
-80.54807703,37.41493590,973.25
-80.54807629,37.41493590,982.83
-80.54800892,37.41493567,979.24
-80.54797521,37.41493754,986.92
-80.54797412,37.41494092,981.78
-80.54797408,37.41494122,984.62
-80.54797391,37.41496528,986.99
-80.54797335,37.41505290,986.69
-80.54797174,37.41531608,962.12
-80.54797170,37.41532268,974.64
-80.54797165,37.41533119,971.04
-80.54797161,37.41533909,974.09
-80.54797160,37.41534075,977.08
-80.54797072,37.41548692,972.45
-80.54797061,37.41550462,971.30
-80.54796917,37.41574506,969.05
-80.54796778,37.41597620,935.77
-80.54796752,37.41601881,958.21
-80.54796682,37.41613584,945.37
-80.54796598,37.41627552,949.34
-80.54796542,37.41636816,946.82
-80.54796486,37.41646144,936.23
-80.54796435,37.41654618,939.77
-80.54796317,37.41674240,906.12
-80.54796197,37.41694427,922.17
-80.54795966,37.41732705,920.24
-80.54795958,37.41733965,922.14
-80.54795939,37.41737144,913.52
-80.54795925,37.41739429,893.28
-80.54795822,37.41756877,910.90
-80.54795607,37.41792341,884.43
-80.54795485,37.41812808,891.85
-80.54795299,37.41843591,879.76
-80.54795055,37.41884275,861.61
-80.54794909,37.41908491,869.47
-80.54794696,37.41944574,863.12
-80.54794542,37.41969972,868.78
     </coordinates>
    </LineString>
   </MultiGeometry>
  </Placemark>
 </Document>
</kml>
