<kml>
 <Document>
  <Style id="yellow">
   <LineStyle>
   <color>ff00ffff</color>
   <width>1</width>
   </LineStyle>
  </Style>
  <Style id="red">
   <LineStyle>
   <color>ffff0000</color>
   <width>2</width>
   </LineStyle>
  </Style>
  <Style id="green">
   <LineStyle>
   <color>ff00ff00</color>
   <width>1</width>
   </LineStyle>
  </Style>
  <Placemark>
  <styleUrl>#yellow</styleUrl>
   <MultiGeometry>
    <LineString>
     <coordinates>
-80.49620621,37.40571252,1212.73
-80.49640116,37.40571335,1213.87
-80.49664447,37.40571439,1203.51
-80.49720350,37.40571676,1200.86
-80.49744277,37.40571776,1200.43
-80.49784863,37.40571951,1199.26
-80.49830978,37.40572146,1197.68
-80.49840567,37.40572187,1197.32
-80.49887637,37.40572387,1196.99
-80.49932214,37.40572575,1207.94
-80.49971410,37.40572741,1191.57
-80.50001676,37.40572869,1204.91
-80.50036607,37.40573017,1198.33
-80.50088412,37.40573234,1189.49
-80.50144684,37.40573473,1189.04
-80.50166422,37.40573565,1175.43
-80.50166642,37.40573566,1175.72
-80.50182191,37.40573631,1169.04
-80.50227033,37.40573819,1163.95
-80.50268799,37.40573996,1168.87
-80.50280975,37.40574035,1165.07
-80.50282057,37.40573993,1162.43
-80.50283221,37.40573798,1152.89
-80.50283253,37.40572891,1165.44
-80.50283412,37.40549106,1163.40
-80.50283574,37.40524695,1157.93
-80.50283708,37.40504450,1146.32
-80.50283953,37.40467226,1147.94
-80.50284206,37.40429090,1147.51
-80.50284397,37.40399750,1144.25
-80.50284649,37.40362058,1148.52
-80.50284679,37.40357506,1136.15
-80.50284905,37.40323286,1128.34
-80.50284952,37.40316213,1126.88
-80.50284965,37.40314247,1127.41
-80.50285067,37.40298644,1124.35
-80.50285279,37.40266524,1120.60
-80.50285303,37.40262863,1120.37
-80.50285547,37.40225891,1122.60
-80.50285762,37.40193348,1121.34
-80.50285956,37.40164158,1111.94
-80.50286176,37.40130562,1120.70
-80.50286436,37.40091483,1129.68
-80.50286630,37.40062082,1137.67
-80.50286780,37.40039501,1140.77
-80.50286848,37.40029191,1142.31
-80.50286928,37.40016982,1143.82
-80.50287030,37.40001576,1137.69
-80.50287184,37.39978226,1146.28
-80.50287367,37.39950527,1143.20
-80.50287540,37.39924389,1144.83
-80.50287772,37.39888896,1145.91
-80.50287847,37.39877756,1143.43
-80.50287963,37.39860295,1150.37
-80.50288211,37.39822734,1145.31
-80.50288377,37.39797374,1138.76
-80.50288662,37.39753892,1149.01
-80.50288741,37.39742549,1141.13
-80.50288989,37.39704673,1159.30
-80.50289130,37.39683737,1152.61
-80.50289150,37.39679388,1141.77
-80.50289126,37.39674180,1149.46
-80.50288888,37.39672791,1155.15
-80.50287164,37.39672704,1152.63
-80.50269078,37.39672625,1150.43
-80.50258595,37.39672581,1161.11
-80.50241362,37.39672509,1144.22
-80.50228580,37.39672455,1154.34
-80.50199358,37.39672332,1146.53
-80.50145162,37.39672103,1164.51
-80.50136969,37.39672069,1151.05
-80.50101013,37.39671917,1164.40
-80.50095396,37.39671894,1163.83
-80.50081562,37.39671835,1164.48
-80.50052005,37.39671711,1160.26
-80.50018357,37.39671568,1169.05
-80.50009274,37.39671530,1158.35
-80.49968336,37.39671358,1159.35
-80.49932064,37.39671203,1175.46
-80.49917809,37.39671143,1160.52
-80.49916845,37.39671139,1165.85
-80.49883411,37.39670997,1176.77
-80.49841077,37.39670817,1167.77
-80.49810779,37.39670689,1165.70
-80.49801901,37.39670652,1176.69
-80.49753628,37.39670447,1159.51
-80.49710015,37.39670261,1158.07
-80.49709939,37.39670260,1159.43
-80.49697422,37.39670207,1165.74
-80.49696179,37.39670202,1169.67
-80.49667969,37.39670082,1156.64
-80.49614461,37.39669854,1153.82
-80.49612766,37.39669847,1163.34
-80.49575241,37.39669688,1152.34
-80.49550871,37.39669583,1149.73
-80.49548426,37.39669572,1153.00
-80.49535130,37.39669516,1158.73
-80.49482484,37.39669293,1163.03
-80.49440896,37.39669115,1146.09
-80.49419535,37.39669022,1139.62
-80.49401309,37.39668944,1156.68
-80.49391725,37.39668903,1144.73
-80.49359724,37.39668767,1135.62
-80.49326292,37.39668625,1138.33
-80.49294763,37.39668488,1133.94
-80.49277751,37.39668414,1127.57
-80.49224956,37.39668188,1125.28
-80.49224490,37.39668186,1116.36
-80.49176639,37.39667980,1117.32
-80.49175390,37.39667975,1118.64
-80.49167210,37.39667940,1113.81
-80.49161393,37.39667923,1113.75
-80.49159456,37.39667980,1102.89
-80.49159322,37.39687448,1094.42
-80.49159209,37.39703941,1105.79
-80.49159123,37.39716810,1108.68
-80.49159080,37.39723089,1099.73
-80.49159068,37.39724819,1107.27
-80.49159042,37.39728662,1112.72
-80.49158973,37.39738976,1100.01
-80.49158915,37.39747466,1117.43
-80.49158894,37.39750665,1116.51
-80.49158830,37.39760155,1118.07
-80.49158731,37.39774770,1125.80
-80.49158727,37.39775432,1123.83
-80.49158718,37.39776707,1124.45
-80.49158661,37.39785158,1126.59
-80.49158654,37.39786119,1126.75
-80.49158431,37.39819236,1127.43
-80.49158249,37.39847263,1118.24
-80.49158119,37.39866162,1119.15
-80.49157974,37.39887113,1123.21
-80.49157915,37.39895618,1133.64
-80.49157702,37.39927092,1117.25
-80.49157562,37.39947779,1125.90
-80.49157549,37.39949777,1127.83
-80.49157433,37.39966975,1142.40
-80.49157372,37.39975878,1136.82
-80.49157368,37.39976588,1139.17
-80.49157065,37.40021400,1140.00
-80.49156899,37.40046000,1143.27
-80.49156818,37.40057979,1143.49
-80.49156804,37.40060019,1123.32
-80.49156783,37.40063087,1140.92
-80.49156696,37.40076016,1135.09
-80.49156398,37.40120339,1125.13
-80.49156246,37.40142745,1114.02
-80.49156087,37.40166092,1111.36
-80.49155845,37.40202071,1121.40
-80.49155573,37.40242266,1118.80
-80.49155417,37.40265273,1117.82
-80.49155181,37.40300243,1121.66
-80.49155082,37.40314820,1111.98
-80.49154983,37.40329455,1112.72
-80.49154836,37.40351258,1117.65
-80.49154704,37.40370833,1128.34
-80.49154689,37.40372988,1128.92
-80.49154630,37.40381829,1115.87
-80.49154621,37.40383156,1116.00
-80.49154485,37.40403191,1135.88
-80.49154356,37.40423045,1123.11
-80.49154098,37.40460967,1128.63
-80.49153853,37.40496858,1152.39
-80.49153674,37.40523211,1157.65
-80.49153584,37.40536534,1163.34
-80.49153558,37.40540376,1159.19
-80.49153381,37.40566839,1153.80
-80.49153413,37.40568424,1156.90
-80.49153425,37.40568893,1154.24
-80.49153452,37.40569093,1154.30
-80.49153542,37.40569224,1172.00
-80.49154128,37.40569253,1169.98
-80.49169274,37.40569319,1160.59
-80.49188141,37.40569401,1160.21
-80.49189234,37.40569406,1157.98
-80.49213915,37.40569511,1177.14
-80.49269112,37.40569749,1182.69
-80.49291799,37.40569846,1170.25
-80.49297201,37.40569869,1184.61
-80.49307843,37.40569915,1187.74
-80.49307878,37.40569915,1188.09
-80.49355453,37.40570119,1184.04
-80.49366886,37.40570168,1177.90
-80.49411671,37.40570360,1192.17
-80.49455641,37.40570545,1196.68
-80.49477340,37.40570639,1203.86
-80.49504023,37.40570754,1197.01
-80.49505572,37.40570761,1207.73
-80.49534173,37.40570883,1209.93
-80.49536348,37.40570892,1196.51
-80.49584401,37.40571097,1204.80
-80.49617236,37.40571237,1203.03
-80.49620621,37.40571252,1212.73
     </coordinates>
    </LineString>
   </MultiGeometry>
  </Placemark>
 </Document>
</kml>
