<kml>
 <Document>
  <Style id="yellow">
   <LineStyle>
   <color>ff00ffff</color>
   <width>1</width>
   </LineStyle>
  </Style>
  <Style id="red">
   <LineStyle>
   <color>ffff0000</color>
   <width>2</width>
   </LineStyle>
  </Style>
  <Style id="green">
   <LineStyle>
   <color>ff00ff00</color>
   <width>1</width>
   </LineStyle>
  </Style>
  <Placemark>
  <styleUrl>#yellow</styleUrl>
   <MultiGeometry>
    <LineString>
     <coordinates>
-80.50732096,37.40575936,1180.59
-80.50735004,37.40575948,1184.46
-80.50746981,37.40575998,1181.78
-80.50783632,37.40576150,1170.92
-80.50784437,37.40576154,1177.33
-80.50789891,37.40576176,1179.92
-80.50807108,37.40576248,1165.61
-80.50829659,37.40576342,1155.71
-80.50839345,37.40576382,1154.35
-80.50868698,37.40576503,1147.35
-80.50901918,37.40576642,1156.98
-80.50921501,37.40576723,1150.42
-80.50956682,37.40576869,1133.12
-80.50982453,37.40576976,1132.56
-80.50991287,37.40577013,1143.13
-80.51018776,37.40577127,1154.37
-80.51041394,37.40577217,1149.25
-80.51065268,37.40577314,1169.07
-80.51105764,37.40577487,1161.17
-80.51148821,37.40577665,1175.89
-80.51149559,37.40577668,1166.02
-80.51179805,37.40577792,1156.83
-80.51212259,37.40577927,1169.66
-80.51221432,37.40577965,1174.92
-80.51264182,37.40578141,1167.24
-80.51264811,37.40578143,1170.17
-80.51267442,37.40578154,1180.36
-80.51281504,37.40578212,1163.56
-80.51290009,37.40578247,1164.58
-80.51305434,37.40578311,1177.21
-80.51333440,37.40578426,1183.75
-80.51358275,37.40578528,1181.54
-80.51377472,37.40578607,1173.37
-80.51403648,37.40578715,1188.50
-80.51406675,37.40578722,1188.22
-80.51413060,37.40578727,1186.26
-80.51413135,37.40575813,1186.42
-80.51413185,37.40570389,1180.08
-80.51413211,37.40566879,1186.06
-80.51413249,37.40561332,1177.38
-80.51413277,37.40556971,1172.59
-80.51413289,37.40555181,1173.30
-80.51413368,37.40542858,1178.87
-80.51413391,37.40539305,1175.50
-80.51413455,37.40529403,1163.56
-80.51413555,37.40513872,1159.09
-80.51413658,37.40497829,1156.16
-80.51413903,37.40459843,1148.79
-80.51414037,37.40439100,1144.62
-80.51414220,37.40410553,1149.27
-80.51414343,37.40391721,1136.03
-80.51414453,37.40374867,1133.38
-80.51414718,37.40333640,1121.31
-80.51414817,37.40318266,1112.85
-80.51415045,37.40282641,1103.25
-80.51415230,37.40254542,1123.00
-80.51415276,37.40247458,1121.00
-80.51415474,37.40216710,1105.36
-80.51415492,37.40213979,1105.69
-80.51415746,37.40174608,1120.61
-80.51415781,37.40169203,1108.99
-80.51415794,37.40167173,1107.30
-80.51415849,37.40158733,1105.53
-80.51415935,37.40145404,1109.61
-80.51416178,37.40107669,1115.67
-80.51416401,37.40072644,1108.91
-80.51416508,37.40056557,1095.82
-80.51416643,37.40035660,1089.03
-80.51416731,37.40022114,1096.45
-80.51416805,37.40010507,1096.00
-80.51416829,37.40006784,1087.07
-80.51416918,37.39993135,1092.72
-80.51416996,37.39980990,1100.43
-80.51417115,37.39962616,1093.53
-80.51417400,37.39918470,1089.15
-80.51417446,37.39911229,1086.81
-80.51417452,37.39910288,1067.98
-80.51417672,37.39876289,1070.66
-80.51417894,37.39841960,1055.63
-80.51418181,37.39797260,1053.62
-80.51418387,37.39765468,1052.81
-80.51418422,37.39760033,1055.72
-80.51418579,37.39735047,1056.71
-80.51418737,37.39711097,1051.41
-80.51418800,37.39701528,1059.46
-80.51418860,37.39692212,1067.58
-80.51418909,37.39684430,1050.32
-80.51418927,37.39678854,1063.68
-80.51418917,37.39678515,1066.90
-80.51418863,37.39677599,1064.31
-80.51418689,37.39677518,1064.48
-80.51416574,37.39677407,1062.60
-80.51412178,37.39677378,1059.66
-80.51381501,37.39677252,1066.04
-80.51355313,37.39677144,1051.31
-80.51353840,37.39677138,1067.88
-80.51324274,37.39677016,1063.34
-80.51287642,37.39676866,1065.26
-80.51263900,37.39676767,1069.88
-80.51212362,37.39676556,1075.39
-80.51194724,37.39676482,1077.74
-80.51162786,37.39676350,1076.51
-80.51151169,37.39676303,1083.96
-80.51104661,37.39676110,1089.65
-80.51059115,37.39675922,1081.81
-80.51042314,37.39675852,1097.58
-80.51015871,37.39675743,1091.03
-80.50995177,37.39675657,1083.46
-80.50967405,37.39675542,1105.36
-80.50914807,37.39675323,1088.98
-80.50892289,37.39675230,1109.01
-80.50872228,37.39675147,1090.69
-80.50858775,37.39675091,1113.46
-80.50839717,37.39675012,1112.53
-80.50797300,37.39674835,1099.88
-80.50786885,37.39674792,1106.51
-80.50784084,37.39674780,1106.64
-80.50763205,37.39674694,1112.28
-80.50719428,37.39674511,1128.77
-80.50702129,37.39674439,1127.07
-80.50669880,37.39674304,1134.16
-80.50667606,37.39674295,1116.99
-80.50647076,37.39674209,1118.85
-80.50596751,37.39673999,1142.56
-80.50546226,37.39673788,1133.94
-80.50493048,37.39673565,1148.55
-80.50479667,37.39673509,1143.14
-80.50449789,37.39673385,1145.27
-80.50412898,37.39673230,1137.80
-80.50383184,37.39673105,1137.69
-80.50368305,37.39673042,1151.92
-80.50327198,37.39672870,1154.01
-80.50289652,37.39672713,1155.17
-80.50289277,37.39672747,1155.29
-80.50289229,37.39673202,1154.71
-80.50289179,37.39677002,1143.68
-80.50289165,37.39678908,1146.04
-80.50289128,37.39684100,1155.12
-80.50288992,37.39704667,1147.38
-80.50288960,37.39709567,1144.21
-80.50288841,37.39727564,1157.42
-80.50288680,37.39752447,1144.06
-80.50288534,37.39774570,1142.58
-80.50288367,37.39799560,1142.97
-80.50288338,37.39803937,1152.50
-80.50288201,37.39824826,1151.17
-80.50287937,37.39865553,1150.48
-80.50287782,37.39888048,1142.33
-80.50287677,37.39903883,1143.33
-80.50287518,37.39928351,1144.98
-80.50287304,37.39960299,1143.79
-80.50287260,37.39966925,1138.46
-80.50287119,37.39988461,1147.35
-80.50286893,37.40022616,1145.51
-80.50286680,37.40054798,1137.76
-80.50286626,37.40062948,1137.82
-80.50286546,37.40075618,1123.13
-80.50286308,37.40111236,1126.79
-80.50286209,37.40126565,1127.80
-80.50285926,37.40169288,1121.31
-80.50285760,37.40194178,1122.31
-80.50285570,37.40222839,1124.84
-80.50285516,37.40230873,1123.07
-80.50285473,37.40237519,1124.01
-80.50285303,37.40263205,1123.34
-80.50285011,37.40307715,1136.08
-80.50284932,37.40319531,1140.41
-80.50284647,37.40362498,1148.52
-80.50284474,37.40388638,1135.69
-80.50284428,37.40395690,1136.85
-80.50284182,37.40433235,1150.98
-80.50283902,37.40475473,1161.71
-80.50283837,37.40485239,1145.44
-80.50283551,37.40528391,1159.37
-80.50283310,37.40564800,1167.21
-80.50283291,37.40567762,1153.02
-80.50283271,37.40572808,1168.29
-80.50283310,37.40573365,1167.62
-80.50283562,37.40573744,1165.47
-80.50283608,37.40573769,1152.45
-80.50284246,37.40574052,1152.19
-80.50288772,37.40574078,1164.68
-80.50322149,37.40574220,1154.09
-80.50344208,37.40574313,1158.07
-80.50353351,37.40574351,1151.54
-80.50368127,37.40574413,1153.84
-80.50387247,37.40574494,1158.98
-80.50389183,37.40574502,1159.02
-80.50435108,37.40574694,1151.53
-80.50451799,37.40574764,1157.89
-80.50493206,37.40574938,1182.52
-80.50508425,37.40575001,1179.02
-80.50549958,37.40575175,1172.23
-80.50555129,37.40575197,1189.30
-80.50560304,37.40575219,1170.65
-80.50599248,37.40575380,1192.66
-80.50622184,37.40575477,1192.80
-80.50657924,37.40575625,1188.51
-80.50687770,37.40575751,1192.39
-80.50705742,37.40575826,1166.71
-80.50732096,37.40575936,1180.59
     </coordinates>
    </LineString>
   </MultiGeometry>
  </Placemark>
 </Document>
</kml>
