<kml>
 <Document>
  <Style id="yellow">
   <LineStyle>
   <color>ff00ffff</color>
   <width>1</width>
   </LineStyle>
  </Style>
  <Style id="red">
   <LineStyle>
   <color>ffff0000</color>
   <width>2</width>
   </LineStyle>
  </Style>
  <Style id="green">
   <LineStyle>
   <color>ff00ff00</color>
   <width>1</width>
   </LineStyle>
  </Style>
  <Placemark>
  <styleUrl>#yellow</styleUrl>
   <MultiGeometry>
    <LineString>
     <coordinates>
-80.49638294,37.42374068,1025.38
-80.49645153,37.42374097,1045.91
-80.49658685,37.42374153,1048.33
-80.49702017,37.42374339,1041.43
-80.49733017,37.42374469,1035.82
-80.49782760,37.42374683,1034.66
-80.49819614,37.42374839,1032.64
-80.49859473,37.42375008,1043.03
-80.49881428,37.42375101,1044.13
-80.49897171,37.42375168,1035.97
-80.49907606,37.42375212,1040.38
-80.49920428,37.42375267,1025.45
-80.49929090,37.42375304,1040.25
-80.49930709,37.42375310,1040.63
-80.49959140,37.42375431,1038.31
-80.49962276,37.42375444,1019.14
-80.50010146,37.42375647,1029.92
-80.50035864,37.42375755,1038.93
-80.50040705,37.42375776,1030.44
-80.50053763,37.42375829,1042.97
-80.50105636,37.42376050,1041.45
-80.50114909,37.42376089,1040.61
-80.50156447,37.42376263,1037.78
-80.50184753,37.42376384,1024.05
-80.50208709,37.42376484,1030.86
-80.50254184,37.42376676,1029.93
-80.50268318,37.42376735,1009.14
-80.50270015,37.42376698,1025.85
-80.50270926,37.42376581,1027.55
-80.50270979,37.42376546,1029.50
-80.50271076,37.42376151,1029.67
-80.50271169,37.42375626,1012.18
-80.50271255,37.42374522,1027.92
-80.50271347,37.42371229,1031.30
-80.50271410,37.42364242,1032.87
-80.50271497,37.42351692,1036.10
-80.50271729,37.42316557,1027.89
-80.50271981,37.42278531,1065.96
-80.50272154,37.42252084,1067.20
-80.50272363,37.42220748,1080.20
-80.50272368,37.42219953,1082.56
-80.50272387,37.42217068,1085.08
-80.50272434,37.42209941,1077.51
-80.50272590,37.42186195,1078.19
-80.50272777,37.42157759,1103.76
-80.50272986,37.42126334,1092.06
-80.50273080,37.42112037,1114.04
-80.50273272,37.42082951,1119.76
-80.50273463,37.42053603,1144.54
-80.50273578,37.42036747,1140.97
-80.50273819,37.42000526,1160.87
-80.50273886,37.41990437,1157.46
-80.50273933,37.41983245,1168.86
-80.50274056,37.41964676,1172.68
-80.50274125,37.41954247,1175.44
-80.50274241,37.41936765,1191.24
-80.50274307,37.41926642,1199.31
-80.50274378,37.41915818,1204.26
-80.50274582,37.41884630,1219.90
-80.50274808,37.41850534,1230.95
-80.50275038,37.41815510,1231.31
-80.50275165,37.41796568,1243.78
-80.50275248,37.41784371,1239.81
-80.50275502,37.41746039,1253.96
-80.50275545,37.41739060,1254.91
-80.50275631,37.41725326,1246.27
-80.50275765,37.41704357,1257.43
-80.50275952,37.41677776,1250.37
-80.50276131,37.41650293,1236.23
-80.50276368,37.41614763,1248.59
-80.50276406,37.41609078,1230.63
-80.50276475,37.41598708,1238.32
-80.50276759,37.41555334,1227.41
-80.50276784,37.41551564,1219.49
-80.50276789,37.41550838,1238.20
-80.50277085,37.41506249,1225.76
-80.50277225,37.41484680,1206.65
-80.50277233,37.41483268,1228.16
-80.50277261,37.41476936,1206.02
-80.50277236,37.41475447,1206.77
-80.50266996,37.41475367,1223.43
-80.50262351,37.41475342,1209.25
-80.50238304,37.41475240,1223.85
-80.50222541,37.41475174,1225.21
-80.50217349,37.41475152,1209.98
-80.50198736,37.41475073,1214.98
-80.50168705,37.41474947,1206.81
-80.50140679,37.41474829,1225.10
-80.50110739,37.41474704,1227.51
-80.50078448,37.41474566,1221.47
-80.50061000,37.41474492,1224.07
-80.50029921,37.41474362,1222.90
-80.50002722,37.41474247,1206.80
-80.50000986,37.41474240,1221.20
-80.49986920,37.41474180,1206.60
-80.49986616,37.41474179,1222.69
-80.49933293,37.41473954,1206.85
-80.49907684,37.41473846,1205.46
-80.49859142,37.41473641,1213.64
-80.49813709,37.41473446,1193.42
-80.49791150,37.41473350,1203.12
-80.49770882,37.41473264,1203.26
-80.49718637,37.41473041,1204.96
-80.49689465,37.41472917,1193.67
-80.49688978,37.41472915,1197.66
-80.49678307,37.41472870,1197.76
-80.49648553,37.41472743,1192.77
-80.49641285,37.41472712,1184.94
-80.49636966,37.41472694,1201.25
-80.49625629,37.41472645,1185.06
-80.49594230,37.41472511,1183.56
-80.49549237,37.41472320,1184.29
-80.49504460,37.41472128,1200.38
-80.49479046,37.41472021,1198.72
-80.49427339,37.41471801,1201.72
-80.49419288,37.41471766,1187.66
-80.49403457,37.41471698,1194.41
-80.49356875,37.41471497,1191.25
-80.49356846,37.41471497,1192.00
-80.49356111,37.41471494,1194.28
-80.49326330,37.41471366,1196.31
-80.49282722,37.41471179,1202.55
-80.49262382,37.41471093,1211.69
-80.49233986,37.41470972,1201.17
-80.49205117,37.41470846,1206.28
-80.49155803,37.41470636,1209.61
-80.49148841,37.41470612,1207.59
-80.49147657,37.41470644,1212.56
-80.49147399,37.41470784,1200.78
-80.49147353,37.41471438,1213.41
-80.49147301,37.41473144,1200.84
-80.49147266,37.41474287,1211.60
-80.49147221,37.41479194,1209.54
-80.49147205,37.41481330,1201.38
-80.49147131,37.41491524,1213.83
-80.49146915,37.41523593,1204.28
-80.49146758,37.41546465,1204.25
-80.49146503,37.41584091,1218.37
-80.49146325,37.41610795,1206.58
-80.49146047,37.41651548,1223.15
-80.49145745,37.41696361,1213.90
-80.49145451,37.41739642,1219.80
-80.49145332,37.41757703,1227.53
-80.49145071,37.41795964,1232.49
-80.49144797,37.41836581,1230.56
-80.49144595,37.41866276,1219.08
-80.49144533,37.41875428,1217.81
-80.49144391,37.41896822,1225.46
-80.49144111,37.41937980,1213.66
-80.49143917,37.41966540,1192.35
-80.49143797,37.41984514,1195.18
-80.49143639,37.42008414,1186.08
-80.49143450,37.42035592,1170.34
-80.49143294,37.42058719,1153.48
-80.49143219,37.42069849,1159.25
-80.49143197,37.42072985,1148.68
-80.49143129,37.42083138,1131.68
-80.49142967,37.42107031,1123.59
-80.49142962,37.42107755,1131.08
-80.49142862,37.42122591,1128.33
-80.49142846,37.42124938,1129.37
-80.49142743,37.42140097,1121.98
-80.49142544,37.42169610,1088.56
-80.49142441,37.42184796,1111.18
-80.49142304,37.42205040,1097.48
-80.49142240,37.42214637,1072.05
-80.49142154,37.42227828,1068.33
-80.49141893,37.42266493,1083.66
-80.49141761,37.42285893,1083.40
-80.49141540,37.42317963,1076.14
-80.49141303,37.42353236,1050.76
-80.49141191,37.42369981,1054.47
-80.49141216,37.42371059,1046.43
-80.49141248,37.42371738,1056.35
-80.49141763,37.42371894,1053.89
-80.49142735,37.42371923,1042.02
-80.49144953,37.42371953,1027.60
-80.49161015,37.42372025,1052.51
-80.49199129,37.42372189,1059.36
-80.49246341,37.42372392,1052.34
-80.49251514,37.42372414,1046.23
-80.49262361,37.42372461,1028.38
-80.49269321,37.42372491,1052.38
-80.49310418,37.42372666,1055.76
-80.49365368,37.42372902,1044.59
-80.49380643,37.42372968,1054.69
-80.49411927,37.42373102,1051.01
-80.49452676,37.42373276,1043.53
-80.49464359,37.42373326,1020.59
-80.49474863,37.42373371,1040.85
-80.49521087,37.42373568,1049.27
-80.49572276,37.42373787,1045.22
-80.49607079,37.42373935,1041.75
-80.49638294,37.42374068,1025.38
     </coordinates>
    </LineString>
   </MultiGeometry>
  </Placemark>
 </Document>
</kml>
