<kml>
 <Document>
  <Style id="yellow">
   <LineStyle>
   <color>ff00ffff</color>
   <width>1</width>
   </LineStyle>
  </Style>
  <Style id="red">
   <LineStyle>
   <color>ffff0000</color>
   <width>2</width>
   </LineStyle>
  </Style>
  <Style id="green">
   <LineStyle>
   <color>ff00ff00</color>
   <width>1</width>
   </LineStyle>
  </Style>
  <Placemark>
  <styleUrl>#yellow</styleUrl>
   <MultiGeometry>
    <LineString>
     <coordinates>
-80.50834678,37.38773615,1152.39
-80.50835336,37.38773618,1140.28
-80.50842964,37.38773650,1151.63
-80.50897532,37.38773876,1149.22
-80.50908289,37.38773920,1146.16
-80.50942936,37.38774064,1131.36
-80.50997453,37.38774290,1137.69
-80.51038179,37.38774460,1150.73
-80.51059533,37.38774548,1137.04
-80.51069869,37.38774591,1140.98
-80.51096559,37.38774699,1148.22
-80.51106292,37.38774738,1141.00
-80.51153452,37.38774936,1136.89
-80.51176734,37.38775032,1137.36
-80.51184307,37.38775064,1141.93
-80.51200425,37.38775130,1150.10
-80.51235236,37.38775274,1160.19
-80.51269077,37.38775412,1150.76
-80.51295109,37.38775520,1142.23
-80.51313137,37.38775595,1147.83
-80.51320723,37.38775626,1143.27
-80.51325681,37.38775647,1148.71
-80.51370434,37.38775831,1156.23
-80.51421521,37.38776041,1161.10
-80.51423754,37.38776050,1164.12
-80.51424469,37.38775964,1158.59
-80.51424712,37.38775889,1163.12
-80.51424770,37.38775528,1162.82
-80.51424783,37.38773801,1156.88
-80.51424851,37.38763433,1146.76
-80.51425005,37.38739849,1159.17
-80.51425168,37.38714695,1158.64
-80.51425175,37.38713698,1158.26
-80.51425307,37.38693133,1159.36
-80.51425321,37.38691050,1146.20
-80.51425554,37.38654596,1147.12
-80.51425621,37.38644341,1167.16
-80.51425835,37.38611089,1160.77
-80.51425909,37.38599324,1162.72
-80.51426201,37.38554551,1168.13
-80.51426365,37.38529128,1167.75
-80.51426625,37.38488657,1178.29
-80.51426847,37.38454224,1183.38
-80.51426942,37.38439718,1175.49
-80.51427174,37.38403699,1171.51
-80.51427252,37.38391661,1170.53
-80.51427471,37.38357674,1182.25
-80.51427491,37.38354613,1177.35
-80.51427502,37.38352977,1176.12
-80.51427786,37.38308937,1188.14
-80.51427879,37.38294526,1165.06
-80.51427959,37.38282013,1166.70
-80.51428033,37.38270559,1180.72
-80.51428083,37.38262658,1181.27
-80.51428199,37.38244318,1157.76
-80.51428458,37.38204751,1170.11
-80.51428639,37.38176649,1154.51
-80.51428806,37.38150679,1167.71
-80.51428865,37.38141604,1167.91
-80.51428960,37.38126897,1162.24
-80.51429204,37.38088809,1149.88
-80.51429337,37.38068281,1143.63
-80.51429533,37.38037859,1160.44
-80.51429731,37.38007324,1152.06
-80.51429841,37.37990300,1150.94
-80.51430000,37.37965683,1151.22
-80.51430028,37.37961201,1150.09
-80.51430098,37.37950421,1147.89
-80.51430125,37.37946259,1138.17
-80.51430378,37.37907036,1152.22
-80.51430482,37.37890882,1152.72
-80.51430560,37.37878209,1147.96
-80.51430549,37.37875230,1136.84
-80.51430456,37.37874809,1138.62
-80.51430275,37.37874726,1136.83
-80.51429599,37.37874714,1138.49
-80.51426729,37.37874691,1147.95
-80.51418207,37.37874654,1150.15
-80.51413321,37.37874633,1149.81
-80.51385381,37.37874517,1152.73
-80.51352861,37.37874383,1153.36
-80.51339092,37.37874327,1140.62
-80.51288768,37.37874120,1150.01
-80.51277287,37.37874072,1134.94
-80.51276882,37.37874071,1148.32
-80.51270882,37.37874046,1135.36
-80.51229614,37.37873876,1136.79
-80.51199739,37.37873753,1154.25
-80.51169819,37.37873629,1149.24
-80.51161745,37.37873596,1149.37
-80.51158517,37.37873582,1137.66
-80.51142222,37.37873516,1155.45
-80.51091194,37.37873307,1155.10
-80.51072692,37.37873228,1140.54
-80.51036090,37.37873076,1154.54
-80.51021096,37.37873014,1139.72
-80.51003352,37.37872941,1143.81
-80.50968739,37.37872797,1153.37
-80.50924806,37.37872615,1143.97
-80.50888452,37.37872465,1145.21
-80.50861177,37.37872351,1157.90
-80.50831456,37.37872228,1146.13
-80.50794346,37.37872073,1158.03
-80.50787690,37.37872045,1149.21
-80.50783517,37.37872028,1156.06
-80.50731755,37.37871814,1154.24
-80.50714520,37.37871742,1157.33
-80.50689731,37.37871639,1145.50
-80.50637391,37.37871419,1147.82
-80.50615490,37.37871327,1154.33
-80.50608402,37.37871298,1147.86
-80.50603698,37.37871278,1151.42
-80.50567487,37.37871130,1154.33
-80.50545788,37.37871038,1141.89
-80.50516496,37.37870914,1146.13
-80.50484305,37.37870779,1152.40
-80.50450328,37.37870636,1146.41
-80.50421399,37.37870515,1140.73
-80.50375266,37.37870322,1134.91
-80.50325751,37.37870114,1144.17
-80.50318274,37.37870083,1132.09
-80.50303991,37.37870031,1129.71
-80.50301675,37.37870151,1131.46
-80.50301279,37.37870189,1131.27
-80.50301128,37.37870973,1130.93
-80.50301115,37.37871088,1127.73
-80.50301039,37.37880411,1136.74
-80.50300957,37.37892397,1127.67
-80.50300663,37.37937138,1122.53
-80.50300541,37.37955640,1128.37
-80.50300354,37.37984099,1130.97
-80.50300191,37.38008653,1128.37
-80.50299897,37.38052995,1107.22
-80.50299820,37.38064650,1108.71
-80.50299814,37.38065496,1105.30
-80.50299536,37.38107907,1102.42
-80.50299503,37.38112663,1108.03
-80.50299222,37.38155443,1106.54
-80.50299047,37.38181896,1100.91
-80.50299025,37.38185361,1100.21
-80.50298983,37.38191688,1095.03
-80.50298900,37.38204416,1080.59
-80.50298626,37.38245634,1067.93
-80.50298482,37.38267532,1079.41
-80.50298260,37.38301193,1091.34
-80.50298023,37.38337299,1100.65
-80.50297960,37.38346784,1085.58
-80.50297724,37.38382728,1106.98
-80.50297495,37.38417228,1120.97
-80.50297244,37.38454947,1120.92
-80.50297024,37.38489004,1119.23
-80.50296813,37.38520218,1134.11
-80.50296670,37.38541874,1121.74
-80.50296473,37.38571772,1138.44
-80.50296210,37.38611984,1149.39
-80.50296003,37.38643462,1158.04
-80.50295892,37.38659889,1169.75
-80.50295804,37.38673158,1154.81
-80.50295803,37.38673301,1162.46
-80.50295621,37.38700972,1169.84
-80.50295437,37.38728999,1170.86
-80.50295218,37.38761815,1152.26
-80.50295159,37.38771122,1163.03
-80.50295204,37.38771350,1167.89
-80.50298674,37.38771373,1168.15
-80.50303342,37.38771393,1165.49
-80.50315427,37.38771443,1150.55
-80.50331926,37.38771513,1167.65
-80.50382557,37.38771727,1168.34
-80.50405615,37.38771824,1161.17
-80.50416899,37.38771870,1147.88
-80.50462510,37.38772062,1149.46
-80.50462905,37.38772064,1166.61
-80.50507779,37.38772252,1162.53
-80.50514589,37.38772280,1161.55
-80.50565102,37.38772491,1164.28
-80.50576930,37.38772541,1148.73
-80.50584301,37.38772572,1149.97
-80.50614430,37.38772698,1156.01
-80.50624926,37.38772741,1154.52
-80.50638570,37.38772798,1158.94
-80.50657837,37.38772879,1163.15
-80.50665950,37.38772913,1161.94
-80.50703271,37.38773067,1157.86
-80.50741839,37.38773227,1159.91
-80.50779439,37.38773384,1142.05
-80.50834678,37.38773615,1152.39
     </coordinates>
    </LineString>
   </MultiGeometry>
  </Placemark>
 </Document>
</kml>
