<kml>
 <Document>
  <Style id="yellow">
   <LineStyle>
   <color>ff00ffff</color>
   <width>1</width>
   </LineStyle>
  </Style>
  <Style id="red">
   <LineStyle>
   <color>ffff0000</color>
   <width>2</width>
   </LineStyle>
  </Style>
  <Style id="green">
   <LineStyle>
   <color>ff00ff00</color>
   <width>1</width>
   </LineStyle>
  </Style>
  <Placemark>
  <styleUrl>#yellow</styleUrl>
   <MultiGeometry>
    <LineString>
     <coordinates>
-80.54100234,37.40589491,1201.68
-80.54125060,37.40589587,1208.00
-80.54126139,37.40589592,1199.62
-80.54158626,37.40589718,1206.92
-80.54166989,37.40589750,1207.43
-80.54178194,37.40589792,1193.97
-80.54202644,37.40589884,1202.02
-80.54235030,37.40590010,1192.68
-80.54257979,37.40590101,1195.02
-80.54279240,37.40590184,1189.29
-80.54307532,37.40590293,1195.99
-80.54353035,37.40590470,1177.75
-80.54406580,37.40590676,1185.63
-80.54418177,37.40590721,1179.97
-80.54428650,37.40590761,1182.41
-80.54445150,37.40590825,1179.39
-80.54472483,37.40590930,1175.06
-80.54476247,37.40590945,1182.98
-80.54514811,37.40591093,1159.60
-80.54528318,37.40591145,1165.51
-80.54559037,37.40591262,1170.72
-80.54597168,37.40591410,1148.54
-80.54614466,37.40591476,1159.60
-80.54619396,37.40591495,1160.88
-80.54661908,37.40591657,1155.55
-80.54714448,37.40591858,1148.55
-80.54742430,37.40591966,1143.50
-80.54781622,37.40592117,1135.57
-80.54794777,37.40592162,1123.35
-80.54800807,37.40592162,1123.64
-80.54802706,37.40592150,1136.06
-80.54802790,37.40592134,1134.61
-80.54802804,37.40591593,1126.36
-80.54802810,37.40591358,1134.25
-80.54802825,37.40590761,1137.44
-80.54802912,37.40576557,1139.26
-80.54803012,37.40559822,1127.47
-80.54803066,37.40550908,1144.80
-80.54803288,37.40513682,1145.83
-80.54803512,37.40476617,1142.49
-80.54803656,37.40452473,1163.78
-80.54803784,37.40431370,1153.09
-80.54804034,37.40389717,1166.94
-80.54804197,37.40362487,1166.31
-80.54804392,37.40330080,1151.95
-80.54804541,37.40305305,1146.58
-80.54804761,37.40268677,1118.03
-80.54804823,37.40258390,1115.06
-80.54804911,37.40243559,1134.75
-80.54805164,37.40201538,1100.43
-80.54805182,37.40198640,1099.63
-80.54805275,37.40182533,1103.75
-80.54805473,37.40150176,1111.88
-80.54805741,37.40105432,1084.84
-80.54805921,37.40075465,1069.19
-80.54805949,37.40070800,1080.32
-80.54806189,37.40030580,1062.80
-80.54806448,37.39987772,1067.65
-80.54806587,37.39964637,1065.16
-80.54806704,37.39945156,1058.30
-80.54806801,37.39928951,1055.44
-80.54806932,37.39907162,1047.17
-80.54807066,37.39884790,1051.59
-80.54807188,37.39864514,1039.95
-80.54807360,37.39835674,1013.44
-80.54807521,37.39809009,1018.75
-80.54807618,37.39792887,1020.83
-80.54807621,37.39792425,998.98
-80.54807806,37.39761573,1023.54
-80.54807980,37.39732309,1010.07
-80.54808112,37.39710577,986.61
-80.54808177,37.39699874,1009.76
-80.54808211,37.39692668,1012.97
-80.54808211,37.39691207,1013.77
-80.54808061,37.39691058,1009.60
-80.54808033,37.39691035,1008.39
-80.54807393,37.39690952,1006.40
-80.54806664,37.39690873,1001.28
-80.54804275,37.39690840,1018.59
-80.54794215,37.39690791,1009.39
-80.54748388,37.39690616,1009.21
-80.54746106,37.39690607,1006.89
-80.54722668,37.39690517,985.60
-80.54696483,37.39690420,1010.70
-80.54646134,37.39690224,1003.98
-80.54627431,37.39690152,996.13
-80.54595332,37.39690029,1002.76
-80.54595061,37.39690028,999.56
-80.54594160,37.39690025,998.67
-80.54558451,37.39689889,1000.86
-80.54506511,37.39689688,1002.31
-80.54456343,37.39689496,974.76
-80.54446359,37.39689456,993.21
-80.54430387,37.39689395,990.17
-80.54415082,37.39689336,993.69
-80.54377603,37.39689192,994.98
-80.54345470,37.39689068,971.42
-80.54344921,37.39689066,969.52
-80.54337049,37.39689036,993.79
-80.54281500,37.39688820,995.96
-80.54249795,37.39688698,996.40
-80.54193538,37.39688480,997.75
-80.54154082,37.39688328,1004.57
-80.54121818,37.39688201,997.72
-80.54115890,37.39688178,999.61
-80.54104204,37.39688133,998.99
-80.54101976,37.39688124,999.95
-80.54058658,37.39687957,1006.73
-80.54038852,37.39687880,1009.94
-80.54009679,37.39687767,1007.82
-80.53966688,37.39687599,983.12
-80.53960368,37.39687574,992.30
-80.53938316,37.39687489,1004.89
-80.53889446,37.39687298,1003.41
-80.53853871,37.39687159,1002.94
-80.53801335,37.39686954,998.88
-80.53781218,37.39686875,983.97
-80.53762836,37.39686805,985.36
-80.53722707,37.39686647,1013.32
-80.53713935,37.39686612,984.51
-80.53699085,37.39686556,987.69
-80.53688145,37.39686530,990.13
-80.53678881,37.39686545,1014.75
-80.53678493,37.39686802,1014.23
-80.53678471,37.39686995,1013.93
-80.53678408,37.39696724,1004.84
-80.53678242,37.39723777,1008.36
-80.53677989,37.39764824,1014.82
-80.53677935,37.39773600,1018.30
-80.53677884,37.39781864,1013.68
-80.53677779,37.39798883,1007.20
-80.53677630,37.39823122,1011.87
-80.53677406,37.39859685,1025.51
-80.53677190,37.39894630,1031.25
-80.53677042,37.39918646,1013.62
-80.53676974,37.39929672,1017.69
-80.53676788,37.39959899,1050.06
-80.53676575,37.39994719,1046.74
-80.53676371,37.40027674,1071.71
-80.53676258,37.40046199,1085.64
-80.53676089,37.40073530,1088.31
-80.53676061,37.40078086,1100.05
-80.53675796,37.40121411,1117.26
-80.53675525,37.40165072,1124.98
-80.53675253,37.40209504,1124.51
-80.53675041,37.40243802,1125.29
-80.53674989,37.40252113,1129.08
-80.53674886,37.40268863,1130.95
-80.53674843,37.40275893,1129.54
-80.53674711,37.40297403,1134.24
-80.53674513,37.40329522,1129.13
-80.53674491,37.40333008,1132.50
-80.53674430,37.40342943,1135.61
-80.53674283,37.40366868,1148.66
-80.53674096,37.40397180,1135.73
-80.53674050,37.40404673,1135.20
-80.53673927,37.40424689,1155.10
-80.53673752,37.40453106,1163.60
-80.53673647,37.40470115,1142.70
-80.53673503,37.40493475,1164.43
-80.53673258,37.40533311,1157.76
-80.53673215,37.40540270,1158.71
-80.53673206,37.40541814,1160.59
-80.53673105,37.40558116,1181.78
-80.53672988,37.40577810,1180.44
-80.53672978,37.40579991,1172.23
-80.53672963,37.40584172,1188.88
-80.53672962,37.40586543,1179.16
-80.53672965,37.40586856,1191.20
-80.53673016,37.40587643,1180.23
-80.53673227,37.40587816,1181.41
-80.53682098,37.40587860,1174.80
-80.53692224,37.40587900,1193.11
-80.53728557,37.40588042,1179.58
-80.53763947,37.40588181,1200.78
-80.53808656,37.40588355,1204.51
-80.53812590,37.40588371,1203.35
-80.53826007,37.40588423,1196.14
-80.53839805,37.40588476,1206.42
-80.53879060,37.40588627,1207.23
-80.53921444,37.40588796,1206.12
-80.53936643,37.40588855,1206.00
-80.53962853,37.40588954,1192.53
-80.53995547,37.40589080,1206.73
-80.54043047,37.40589269,1209.75
-80.54058079,37.40589327,1197.43
-80.54089070,37.40589448,1193.38
-80.54100234,37.40589491,1201.68
     </coordinates>
    </LineString>
   </MultiGeometry>
  </Placemark>
 </Document>
</kml>
