<kml>
 <Document>
  <Style id="yellow">
   <LineStyle>
   <color>ff00ffff</color>
   <width>1</width>
   </LineStyle>
  </Style>
  <Style id="red">
   <LineStyle>
   <color>ffff0000</color>
   <width>2</width>
   </LineStyle>
  </Style>
  <Style id="green">
   <LineStyle>
   <color>ff00ff00</color>
   <width>1</width>
   </LineStyle>
  </Style>
  <Placemark>
  <styleUrl>#yellow</styleUrl>
   <MultiGeometry>
    <LineString>
     <coordinates>
-80.55320264,37.38791411,999.66
-80.55351435,37.38791532,974.24
-80.55398079,37.38791706,984.61
-80.55423511,37.38791801,983.84
-80.55467286,37.38791969,981.42
-80.55480311,37.38792018,974.80
-80.55517950,37.38792158,961.10
-80.55573077,37.38792366,950.80
-80.55583933,37.38792407,950.57
-80.55600155,37.38792468,978.81
-80.55601833,37.38792474,975.70
-80.55609783,37.38792504,974.66
-80.55612464,37.38792514,977.15
-80.55635979,37.38792602,978.77
-80.55688699,37.38792800,992.21
-80.55698969,37.38792839,978.02
-80.55736602,37.38792980,989.27
-80.55760402,37.38793069,992.39
-80.55811055,37.38793257,985.69
-80.55834688,37.38793345,982.09
-80.55867990,37.38793470,976.44
-80.55876217,37.38793501,975.04
-80.55884376,37.38793531,974.27
-80.55927610,37.38793692,972.18
-80.55937692,37.38793720,965.97
-80.55942043,37.38793732,966.11
-80.55943193,37.38793486,965.36
-80.55943265,37.38792155,963.41
-80.55943323,37.38784566,970.07
-80.55943461,37.38760700,956.80
-80.55943649,37.38727850,986.97
-80.55943741,37.38712383,980.05
-80.55943881,37.38689066,987.42
-80.55944121,37.38648234,984.88
-80.55944229,37.38629790,974.56
-80.55944265,37.38623577,975.04
-80.55944502,37.38583212,959.55
-80.55944513,37.38581256,960.48
-80.55944632,37.38560900,962.97
-80.55944669,37.38554626,954.10
-80.55944711,37.38547422,963.48
-80.55944800,37.38532212,953.91
-80.55945012,37.38495926,973.91
-80.55945044,37.38490507,956.57
-80.55945103,37.38480475,972.46
-80.55945176,37.38467873,977.02
-80.55945362,37.38435898,974.16
-80.55945596,37.38396206,970.39
-80.55945639,37.38388864,980.71
-80.55945811,37.38359339,973.62
-80.55945973,37.38331727,970.13
-80.55946176,37.38296779,992.45
-80.55946367,37.38264439,999.36
-80.55946502,37.38241336,997.21
-80.55946693,37.38208000,998.29
-80.55946874,37.38177453,987.91
-80.55947040,37.38149299,1016.27
-80.55947215,37.38119213,1020.11
-80.55947401,37.38087572,1013.04
-80.55947451,37.38079094,1010.08
-80.55947465,37.38076659,1002.13
-80.55947561,37.38060131,1008.32
-80.55947760,37.38026164,1001.22
-80.55947778,37.38023144,997.59
-80.55947963,37.37991626,1003.17
-80.55947999,37.37985337,1005.50
-80.55948086,37.37970439,998.18
-80.55948186,37.37953275,1006.47
-80.55948349,37.37925121,1001.64
-80.55948515,37.37897226,1007.58
-80.55948533,37.37893371,986.35
-80.55948520,37.37893204,996.60
-80.55948486,37.37892795,986.53
-80.55948421,37.37892434,1010.78
-80.55947395,37.37892406,1004.18
-80.55943988,37.37892380,1010.60
-80.55922602,37.37892298,1004.82
-80.55880307,37.37892142,1000.56
-80.55857963,37.37892057,987.62
-80.55843083,37.37892001,1003.86
-80.55797640,37.37891831,996.82
-80.55754944,37.37891673,1003.55
-80.55728167,37.37891573,1009.45
-80.55701726,37.37891474,1024.48
-80.55690932,37.37891434,1017.47
-80.55655125,37.37891302,1024.73
-80.55619821,37.37891166,1031.73
-80.55590024,37.37891055,1036.36
-80.55544087,37.37890881,1061.11
-80.55523530,37.37890805,1051.97
-80.55498735,37.37890712,1064.83
-80.55455123,37.37890546,1063.25
-80.55432578,37.37890462,1067.56
-80.55396136,37.37890327,1078.60
-80.55368036,37.37890218,1081.24
-80.55349966,37.37890150,1084.41
-80.55315690,37.37890020,1085.78
-80.55272402,37.37889858,1088.38
-80.55249724,37.37889771,1091.63
-80.55217364,37.37889649,1102.12
-80.55173563,37.37889483,1086.04
-80.55150762,37.37889398,1075.49
-80.55106008,37.37889227,1075.38
-80.55073795,37.37889104,1067.90
-80.55023532,37.37888915,1065.67
-80.54997422,37.37888814,1074.92
-80.54985109,37.37888767,1073.63
-80.54937254,37.37888584,1059.34
-80.54919346,37.37888516,1080.66
-80.54906293,37.37888466,1079.69
-80.54875918,37.37888351,1071.90
-80.54844720,37.37888231,1063.39
-80.54842176,37.37888222,1058.68
-80.54835812,37.37888197,1062.89
-80.54820957,37.37888143,1050.23
-80.54820020,37.37888187,1050.53
-80.54819567,37.37888223,1049.97
-80.54819136,37.37888275,1048.58
-80.54819102,37.37888729,1062.38
-80.54819031,37.37891661,1046.35
-80.54818876,37.37917301,1046.27
-80.54818658,37.37953935,1039.00
-80.54818526,37.37975638,1041.39
-80.54818463,37.37986168,1042.91
-80.54818250,37.38021832,1031.16
-80.54818146,37.38038953,1029.16
-80.54817943,37.38072856,1026.56
-80.54817829,37.38091936,1028.37
-80.54817797,37.38097164,1008.32
-80.54817628,37.38125351,1036.49
-80.54817587,37.38132263,1022.92
-80.54817351,37.38171454,1014.31
-80.54817327,37.38175456,1025.57
-80.54817208,37.38195996,1015.74
-80.54816994,37.38231619,1008.68
-80.54816884,37.38249348,1026.25
-80.54816732,37.38274839,998.38
-80.54816475,37.38317929,996.33
-80.54816330,37.38341837,1002.02
-80.54816243,37.38356445,1015.41
-80.54816078,37.38384338,1013.24
-80.54815946,37.38406106,1011.60
-80.54815892,37.38414836,1008.34
-80.54815744,37.38439271,991.73
-80.54815680,37.38449938,999.98
-80.54815658,37.38453620,989.17
-80.54815456,37.38487313,988.29
-80.54815373,37.38501189,988.04
-80.54815148,37.38538941,994.78
-80.54814938,37.38573786,984.61
-80.54814785,37.38599089,1005.95
-80.54814677,37.38617539,1006.21
-80.54814433,37.38657883,980.84
-80.54814208,37.38695341,978.53
-80.54813985,37.38732710,978.72
-80.54813839,37.38757238,980.55
-80.54813671,37.38784767,995.96
-80.54813705,37.38788350,1000.66
-80.54813715,37.38789175,1000.91
-80.54814272,37.38789387,974.37
-80.54814496,37.38789468,1002.84
-80.54819059,37.38789506,1003.51
-80.54826941,37.38789537,979.07
-80.54867302,37.38789690,995.73
-80.54889244,37.38789777,997.28
-80.54932767,37.38789944,1000.09
-80.54939061,37.38789967,982.34
-80.54939341,37.38789969,980.17
-80.54980363,37.38790123,1002.61
-80.55003916,37.38790214,988.14
-80.55048245,37.38790383,988.97
-80.55087290,37.38790531,996.84
-80.55113580,37.38790629,998.88
-80.55146300,37.38790755,985.04
-80.55172724,37.38790854,988.24
-80.55212381,37.38791004,976.95
-80.55221140,37.38791037,997.44
-80.55229931,37.38791070,985.66
-80.55285176,37.38791281,998.98
-80.55320264,37.38791411,999.66
     </coordinates>
    </LineString>
   </MultiGeometry>
  </Placemark>
 </Document>
</kml>
