<kml>
 <Document>
  <Style id="yellow">
   <LineStyle>
   <color>ff00ffff</color>
   <width>1</width>
   </LineStyle>
  </Style>
  <Style id="red">
   <LineStyle>
   <color>ffff0000</color>
   <width>2</width>
   </LineStyle>
  </Style>
  <Style id="green">
   <LineStyle>
   <color>ff00ff00</color>
   <width>1</width>
   </LineStyle>
  </Style>
  <Placemark>
  <styleUrl>#yellow</styleUrl>
   <MultiGeometry>
    <LineString>
     <coordinates>
-80.55272688,37.36988477,1162.45
-80.55325280,37.36988677,1141.41
-80.55327975,37.36988687,1141.62
-80.55352658,37.36988780,1161.70
-80.55353460,37.36988784,1160.85
-80.55379005,37.36988880,1163.42
-80.55414676,37.36989014,1141.53
-80.55463096,37.36989197,1154.88
-80.55466667,37.36989210,1138.25
-80.55504459,37.36989353,1149.62
-80.55505865,37.36989358,1156.09
-80.55506167,37.36989359,1134.65
-80.55558009,37.36989553,1151.55
-80.55573109,37.36989610,1131.25
-80.55616793,37.36989775,1141.20
-80.55645223,37.36989881,1140.60
-80.55653986,37.36989914,1146.14
-80.55658706,37.36989932,1143.50
-80.55659383,37.36989934,1140.24
-80.55685698,37.36990033,1124.63
-80.55706825,37.36990112,1138.60
-80.55709903,37.36990124,1137.93
-80.55760142,37.36990312,1126.01
-80.55781529,37.36990392,1116.68
-80.55803059,37.36990472,1132.46
-80.55821911,37.36990542,1123.51
-80.55867368,37.36990709,1120.20
-80.55886716,37.36990784,1121.49
-80.55913889,37.36990884,1103.21
-80.55949633,37.36991019,1116.73
-80.55949694,37.36991019,1116.73
-80.55952127,37.36991027,1097.06
-80.55953640,37.36990897,1110.83
-80.55953797,37.36990769,1118.99
-80.55953819,37.36989237,1111.70
-80.55953844,37.36985696,1116.94
-80.55953927,37.36971724,1120.27
-80.55954078,37.36945866,1124.68
-80.55954259,37.36914964,1117.68
-80.55954310,37.36906123,1122.84
-80.55954347,37.36899875,1111.57
-80.55954402,37.36890454,1112.94
-80.55954519,37.36869616,1132.82
-80.55954729,37.36834562,1114.21
-80.55954755,37.36830011,1134.27
-80.55954854,37.36813088,1132.24
-80.55955022,37.36784402,1122.94
-80.55955166,37.36759428,1128.26
-80.55955419,37.36716443,1126.73
-80.55955506,37.36701299,1135.61
-80.55955714,37.36665976,1122.28
-80.55955755,37.36658765,1140.16
-80.55955999,37.36616956,1126.08
-80.55956113,37.36597698,1131.26
-80.55956255,37.36573262,1134.28
-80.55956403,37.36548155,1161.16
-80.55956414,37.36546181,1162.54
-80.55956484,37.36534173,1158.93
-80.55956548,37.36523269,1164.34
-80.55956730,37.36491988,1171.83
-80.55956910,37.36461054,1169.28
-80.55957049,37.36437454,1172.68
-80.55957120,37.36425294,1172.14
-80.55957330,37.36389501,1186.15
-80.55957358,37.36384764,1189.71
-80.55957358,37.36384658,1195.35
-80.55957365,37.36383501,1184.30
-80.55957375,37.36381843,1195.61
-80.55957540,37.36353521,1195.79
-80.55957614,37.36340998,1192.18
-80.55957622,37.36339613,1201.80
-80.55957656,37.36333718,1183.49
-80.55957760,37.36315894,1205.65
-80.55957774,37.36313556,1209.45
-80.55957844,37.36301623,1201.10
-80.55957845,37.36301399,1213.83
-80.55957926,37.36287419,1196.04
-80.55958119,37.36254536,1221.32
-80.55958249,37.36232041,1229.24
-80.55958443,37.36198947,1228.86
-80.55958597,37.36172715,1237.94
-80.55958617,37.36169333,1230.86
-80.55958732,37.36149506,1239.67
-80.55958919,37.36117393,1245.48
-80.55959027,37.36099201,1239.83
-80.55959051,37.36094001,1243.28
-80.55959056,37.36089911,1243.16
-80.55958457,37.36089853,1244.91
-80.55956734,37.36089699,1244.61
-80.55956339,37.36089667,1243.77
-80.55938998,37.36089601,1227.73
-80.55920510,37.36089532,1244.89
-80.55876253,37.36089366,1248.39
-80.55838478,37.36089227,1250.99
-80.55802077,37.36089089,1248.55
-80.55777771,37.36089000,1235.40
-80.55742204,37.36088866,1235.41
-80.55710751,37.36088748,1235.90
-80.55679542,37.36088632,1235.24
-80.55664860,37.36088578,1247.50
-80.55636428,37.36088475,1236.21
-80.55601216,37.36088341,1237.54
-80.55554502,37.36088162,1257.78
-80.55512285,37.36088003,1254.87
-80.55496158,37.36087942,1241.20
-80.55459375,37.36087804,1262.08
-80.55428612,37.36087688,1259.79
-80.55421286,37.36087660,1257.14
-80.55412769,37.36087628,1243.21
-80.55372965,37.36087478,1242.67
-80.55348205,37.36087385,1242.93
-80.55329711,37.36087315,1254.83
-80.55291079,37.36087171,1252.19
-80.55267691,37.36087080,1256.34
-80.55256479,37.36087038,1253.26
-80.55230930,37.36086942,1247.45
-80.55178045,37.36086743,1254.62
-80.55131566,37.36086566,1239.87
-80.55117391,37.36086511,1250.33
-80.55117313,37.36086511,1252.76
-80.55109037,37.36086479,1248.38
-80.55088370,37.36086401,1249.84
-80.55056490,37.36086280,1262.10
-80.55049306,37.36086252,1253.62
-80.55000908,37.36086068,1264.31
-80.54979906,37.36085989,1261.61
-80.54972588,37.36085961,1255.01
-80.54945899,37.36085859,1273.34
-80.54904263,37.36085700,1273.98
-80.54891489,37.36085652,1262.71
-80.54890220,37.36085647,1272.86
-80.54889514,37.36085644,1272.48
-80.54854316,37.36085510,1267.52
-80.54839402,37.36085454,1279.46
-80.54830862,37.36085433,1276.19
-80.54830553,37.36085441,1275.33
-80.54830171,37.36085482,1275.70
-80.54829885,37.36085728,1269.88
-80.54829848,37.36088542,1275.21
-80.54829776,37.36100018,1277.78
-80.54829718,37.36109574,1283.96
-80.54829478,37.36149262,1270.54
-80.54829450,37.36153985,1280.79
-80.54829299,37.36179204,1273.31
-80.54829060,37.36219019,1266.53
-80.54828815,37.36260237,1277.37
-80.54828707,37.36278039,1272.48
-80.54828602,37.36295497,1268.00
-80.54828564,37.36301727,1273.80
-80.54828552,37.36303800,1258.78
-80.54828380,37.36332452,1256.30
-80.54828379,37.36332661,1262.53
-80.54828341,37.36338882,1267.95
-80.54828307,37.36344580,1254.22
-80.54828260,37.36352477,1259.90
-80.54828168,37.36367835,1261.91
-80.54828112,37.36377204,1260.61
-80.54827910,37.36410898,1258.24
-80.54827874,37.36416804,1254.06
-80.54827641,37.36455976,1252.24
-80.54827602,37.36462253,1238.17
-80.54827554,37.36470175,1254.97
-80.54827318,37.36509886,1241.17
-80.54827092,37.36547451,1234.12
-80.54826972,37.36567362,1234.63
-80.54826929,37.36574457,1218.68
-80.54826699,37.36612937,1230.05
-80.54826639,37.36622866,1221.86
-80.54826533,37.36640632,1211.89
-80.54826478,37.36649760,1207.87
-80.54826462,37.36652491,1222.02
-80.54826332,37.36674275,1204.41
-80.54826186,37.36698417,1216.85
-80.54826176,37.36700114,1217.81
-80.54826140,37.36706063,1211.15
-80.54825984,37.36732645,1216.42
-80.54825810,37.36761412,1214.43
-80.54825682,37.36782773,1203.38
-80.54825519,37.36809727,1198.20
-80.54825505,37.36811966,1210.10
-80.54825505,37.36811974,1210.11
-80.54825500,37.36812770,1211.63
-80.54825499,37.36812967,1203.28
-80.54825491,37.36814408,1215.03
-80.54825385,37.36832004,1213.28
-80.54825225,37.36858877,1210.70
-80.54825015,37.36894504,1187.98
-80.54824846,37.36921920,1204.93
-80.54824841,37.36922700,1198.89
-80.54824727,37.36941733,1187.52
-80.54824642,37.36955969,1199.65
-80.54824613,37.36960747,1189.78
-80.54824523,37.36975817,1193.65
-80.54824486,37.36983181,1177.06
-80.54824491,37.36986352,1193.63
-80.54824824,37.36986584,1192.98
-80.54825117,37.36986773,1176.08
-80.54845748,37.36986855,1188.91
-80.54870012,37.36986949,1183.06
-80.54870406,37.36986950,1173.90
-80.54908537,37.36987096,1175.33
-80.54920952,37.36987143,1184.68
-80.54935255,37.36987197,1183.68
-80.54937516,37.36987206,1171.75
-80.54986423,37.36987391,1175.32
-80.55012500,37.36987491,1171.90
-80.55053709,37.36987647,1163.53
-80.55087919,37.36987778,1159.13
-80.55130758,37.36987941,1159.14
-80.55168600,37.36988084,1167.80
-80.55168690,37.36988085,1159.72
-80.55169390,37.36988087,1148.52
-80.55169756,37.36988089,1149.72
-80.55177975,37.36988120,1163.56
-80.55178006,37.36988120,1162.56
-80.55221847,37.36988286,1161.06
-80.55272688,37.36988477,1162.45
     </coordinates>
    </LineString>
   </MultiGeometry>
  </Placemark>
 </Document>
</kml>
