<kml>
 <Document>
  <Style id="yellow">
   <LineStyle>
   <color>ff00ffff</color>
   <width>1</width>
   </LineStyle>
  </Style>
  <Style id="red">
   <LineStyle>
   <color>ffff0000</color>
   <width>2</width>
   </LineStyle>
  </Style>
  <Style id="green">
   <LineStyle>
   <color>ff00ff00</color>
   <width>1</width>
   </LineStyle>
  </Style>
  <Placemark>
  <styleUrl>#yellow</styleUrl>
   <MultiGeometry>
    <LineString>
     <coordinates>
-80.53028380,37.41486654,1064.90
-80.53079381,37.41486856,1039.41
-80.53119162,37.41487014,1057.38
-80.53168413,37.41487209,1050.55
-80.53192325,37.41487303,1028.52
-80.53201380,37.41487338,1027.77
-80.53233910,37.41487466,1046.73
-80.53261136,37.41487576,1046.20
-80.53300051,37.41487729,1041.13
-80.53345812,37.41487909,1049.61
-80.53376257,37.41488030,1050.74
-80.53403123,37.41488135,1048.30
-80.53434789,37.41488260,1047.90
-80.53464564,37.41488379,1021.67
-80.53509246,37.41488554,1018.47
-80.53514859,37.41488576,1018.13
-80.53539519,37.41488673,1037.06
-80.53547050,37.41488703,1038.88
-80.53553843,37.41488730,1014.59
-80.53601521,37.41488917,1031.13
-80.53651955,37.41489115,1018.88
-80.53652827,37.41489118,995.18
-80.53656184,37.41489130,1014.67
-80.53660785,37.41489147,1016.49
-80.53665346,37.41489141,1014.04
-80.53666033,37.41489133,1014.35
-80.53666724,37.41489011,992.43
-80.53667140,37.41488900,1018.31
-80.53667225,37.41488771,1005.61
-80.53667365,37.41488270,992.33
-80.53667379,37.41487096,1018.61
-80.53667612,37.41450018,1012.64
-80.53667709,37.41434273,1019.28
-80.53667907,37.41401493,1028.38
-80.53668024,37.41382704,1029.20
-80.53668150,37.41362570,1027.45
-80.53668181,37.41357574,1021.20
-80.53668256,37.41345299,1037.09
-80.53668294,37.41338799,1032.56
-80.53668532,37.41300111,1053.27
-80.53668755,37.41264238,1071.43
-80.53668842,37.41250144,1055.64
-80.53669053,37.41216060,1085.66
-80.53669145,37.41200925,1076.17
-80.53669398,37.41159820,1119.87
-80.53669467,37.41148749,1122.66
-80.53669740,37.41104449,1127.76
-80.53669964,37.41068098,1147.78
-80.53670198,37.41030036,1158.01
-80.53670283,37.41016219,1172.41
-80.53670449,37.40988868,1176.99
-80.53670616,37.40962231,1172.78
-80.53670874,37.40920346,1176.13
-80.53670947,37.40908446,1187.97
-80.53670983,37.40902667,1184.73
-80.53671018,37.40897000,1177.85
-80.53671025,37.40895885,1185.25
-80.53671025,37.40895884,1185.24
-80.53671215,37.40864846,1180.70
-80.53671428,37.40830385,1181.00
-80.53671487,37.40820543,1190.49
-80.53671599,37.40802230,1176.60
-80.53671841,37.40763304,1194.97
-80.53671850,37.40761911,1189.95
-80.53672042,37.40730648,1195.42
-80.53672107,37.40720034,1197.90
-80.53672345,37.40681229,1193.97
-80.53672530,37.40651365,1180.52
-80.53672802,37.40607269,1175.87
-80.53672907,37.40590220,1176.03
-80.53672908,37.40588031,1173.75
-80.53672904,37.40587840,1181.75
-80.53672467,37.40587832,1179.38
-80.53671663,37.40587826,1178.66
-80.53670318,37.40587815,1184.10
-80.53623191,37.40587630,1173.09
-80.53621494,37.40587624,1169.17
-80.53602350,37.40587548,1177.85
-80.53580435,37.40587462,1169.51
-80.53577266,37.40587450,1157.00
-80.53575350,37.40587442,1170.22
-80.53566823,37.40587409,1172.07
-80.53530934,37.40587268,1160.17
-80.53507993,37.40587178,1157.53
-80.53465229,37.40587010,1158.79
-80.53415398,37.40586815,1138.95
-80.53375069,37.40586654,1150.06
-80.53353455,37.40586569,1139.88
-80.53314677,37.40586418,1150.27
-80.53266686,37.40586226,1146.55
-80.53229276,37.40586079,1129.44
-80.53189723,37.40585922,1140.03
-80.53188387,37.40585917,1141.77
-80.53176558,37.40585870,1141.74
-80.53158125,37.40585797,1123.58
-80.53128840,37.40585681,1139.80
-80.53083135,37.40585500,1136.56
-80.53075612,37.40585470,1138.23
-80.53064824,37.40585427,1118.16
-80.53058604,37.40585402,1119.28
-80.53019469,37.40585249,1148.24
-80.53001242,37.40585175,1147.05
-80.52989604,37.40585129,1149.99
-80.52960775,37.40585016,1151.60
-80.52927248,37.40584883,1159.80
-80.52904021,37.40584787,1160.16
-80.52891551,37.40584738,1153.48
-80.52839660,37.40584532,1163.38
-80.52792273,37.40584342,1175.11
-80.52791758,37.40584340,1170.51
-80.52776348,37.40584278,1169.00
-80.52759584,37.40584211,1162.85
-80.52758030,37.40584205,1163.84
-80.52730402,37.40584095,1171.55
-80.52686509,37.40583920,1177.19
-80.52657902,37.40583805,1190.70
-80.52624675,37.40583675,1189.83
-80.52599629,37.40583572,1191.58
-80.52594924,37.40583552,1184.54
-80.52565392,37.40583434,1186.68
-80.52544051,37.40583349,1195.23
-80.52543084,37.40583351,1197.67
-80.52543043,37.40584167,1189.66
-80.52543021,37.40586389,1187.35
-80.52542997,37.40589419,1190.65
-80.52542817,37.40617579,1188.63
-80.52542707,37.40634497,1204.75
-80.52542604,37.40650707,1196.67
-80.52542599,37.40651429,1197.98
-80.52542589,37.40653045,1198.08
-80.52542542,37.40660569,1184.36
-80.52542490,37.40668947,1197.29
-80.52542250,37.40707397,1186.47
-80.52542176,37.40718578,1187.22
-80.52542020,37.40743488,1196.94
-80.52541833,37.40772891,1202.21
-80.52541756,37.40785128,1189.94
-80.52541728,37.40789494,1191.25
-80.52541445,37.40834501,1215.00
-80.52541400,37.40841539,1202.38
-80.52541322,37.40853930,1219.01
-80.52541258,37.40864114,1214.51
-80.52541154,37.40880534,1222.55
-80.52541027,37.40900723,1212.02
-80.52540775,37.40940899,1230.11
-80.52540660,37.40959079,1218.31
-80.52540396,37.41000723,1229.88
-80.52540366,37.41005516,1218.24
-80.52540222,37.41028323,1217.70
-80.52540169,37.41036912,1233.84
-80.52539991,37.41065319,1220.22
-80.52539847,37.41087664,1233.53
-80.52539743,37.41104303,1232.59
-80.52539695,37.41111884,1226.61
-80.52539580,37.41130310,1221.95
-80.52539399,37.41158877,1229.26
-80.52539291,37.41175813,1209.38
-80.52539248,37.41182733,1222.14
-80.52539124,37.41202364,1211.41
-80.52538918,37.41235244,1194.13
-80.52538679,37.41273408,1192.01
-80.52538617,37.41283100,1177.17
-80.52538362,37.41323140,1170.37
-80.52538198,37.41349113,1153.30
-80.52537978,37.41383940,1137.00
-80.52537815,37.41409766,1129.50
-80.52537779,37.41415564,1132.09
-80.52537625,37.41439936,1126.56
-80.52537551,37.41451624,1112.31
-80.52537353,37.41483151,1107.21
-80.52537352,37.41483550,1105.21
-80.52537354,37.41483643,1110.34
-80.52537396,37.41484382,1111.61
-80.52537419,37.41484455,1083.03
-80.52537511,37.41484616,1113.38
-80.52537647,37.41484658,1111.73
-80.52537901,37.41484695,1110.73
-80.52552376,37.41484753,1107.96
-80.52587003,37.41484890,1084.59
-80.52624399,37.41485042,1107.71
-80.52668427,37.41485218,1106.85
-80.52686221,37.41485289,1104.87
-80.52719225,37.41485420,1075.01
-80.52752563,37.41485555,1085.91
-80.52773860,37.41485640,1084.60
-80.52781477,37.41485670,1091.08
-80.52783202,37.41485677,1091.80
-80.52817778,37.41485814,1090.43
-80.52863347,37.41485997,1082.96
-80.52867742,37.41486014,1058.38
-80.52884374,37.41486081,1076.87
-80.52897016,37.41486131,1076.88
-80.52930807,37.41486266,1072.76
-80.52974327,37.41486439,1069.43
-80.52984229,37.41486478,1058.52
-80.53028380,37.41486654,1064.90
     </coordinates>
    </LineString>
   </MultiGeometry>
  </Placemark>
 </Document>
</kml>
