<kml>
 <Document>
  <Style id="yellow">
   <LineStyle>
   <color>ff00ffff</color>
   <width>1</width>
   </LineStyle>
  </Style>
  <Style id="red">
   <LineStyle>
   <color>ffff0000</color>
   <width>2</width>
   </LineStyle>
  </Style>
  <Style id="green">
   <LineStyle>
   <color>ff00ff00</color>
   <width>1</width>
   </LineStyle>
  </Style>
  <Placemark>
  <styleUrl>#yellow</styleUrl>
   <MultiGeometry>
    <LineString>
     <coordinates>
-104.73262575,40.82171100,1657.05
-104.73274350,40.82171128,1657.11
-104.73278583,40.82171138,1657.13
-104.73283457,40.82171149,1657.19
-104.73287442,40.82171158,1657.21
-104.73289303,40.82171162,1657.22
-104.73290039,40.82171164,1657.22
-104.73292090,40.82171169,1657.23
-104.73294331,40.82171174,1657.29
-104.73294545,40.82171175,1657.29
-104.73294604,40.82171175,1657.29
-104.73295209,40.82171176,1657.31
-104.73295576,40.82171177,1657.31
-104.73296490,40.82171179,1657.33
-104.73297758,40.82171182,1657.38
-104.73299134,40.82171185,1657.40
-104.73304707,40.82171198,1657.54
-104.73306178,40.82171201,1657.55
-104.73307079,40.82171204,1657.58
-104.73310862,40.82171212,1657.66
-104.73314953,40.82171222,1657.73
-104.73326195,40.82171248,1657.90
-104.73330535,40.82171258,1657.93
-104.73341172,40.82171282,1658.10
-104.73350587,40.82171304,1658.15
-104.73360181,40.82171326,1658.15
-104.73377126,40.82171365,1658.10
-104.73407840,40.82171436,1658.20
-104.73411148,40.82171444,1658.22
-104.73451810,40.82171537,1657.90
-104.73461641,40.82171560,1657.83
-104.73469017,40.82171577,1657.71
-104.73478314,40.82171598,1657.71
-104.73508505,40.82171668,1657.35
-104.73532293,40.82171722,1657.11
-104.73546262,40.82171754,1656.93
-104.73562176,40.82171791,1656.67
-104.73580580,40.82171833,1656.31
-104.73621373,40.82171926,1655.51
-104.73635342,40.82171958,1655.30
-104.73644722,40.82171980,1655.18
-104.73651067,40.82171994,1655.10
-104.73656510,40.82172007,1654.98
-104.73667455,40.82172032,1654.91
-104.73682752,40.82172067,1654.84
-104.73682883,40.82172067,1654.84
-104.73687163,40.82172077,1654.79
-104.73687922,40.82172078,1654.81
-104.73706315,40.82172120,1654.82
-104.73721576,40.82172155,1654.82
-104.73756843,40.82172226,1654.97
-104.73782623,40.82172294,1655.00
-104.73829511,40.82172400,1654.17
-104.73865051,40.82172481,1652.93
-104.73890202,40.82172538,1651.82
-104.73897460,40.82172554,1651.45
-104.73903401,40.82172568,1651.14
-104.73903709,40.82172569,1651.13
-104.73908844,40.82172562,1650.88
-104.73910931,40.82172558,1650.80
-104.73911278,40.82171775,1650.70
-104.73911291,40.82171469,1650.69
-104.73911352,40.82162073,1650.22
-104.73911394,40.82154217,1649.83
-104.73911404,40.82151794,1649.70
-104.73911415,40.82148948,1649.59
-104.73911475,40.82133642,1648.93
-104.73911477,40.82133147,1648.92
-104.73911479,40.82132678,1648.90
-104.73911481,40.82132183,1648.89
-104.73911487,40.82130426,1648.86
-104.73911509,40.82124940,1648.62
-104.73911524,40.82121157,1648.43
-104.73911553,40.82113635,1648.09
-104.73911623,40.82095942,1647.29
-104.73911693,40.82077997,1646.61
-104.73911746,40.82064421,1646.21
-104.73911752,40.82062962,1646.23
-104.73911847,40.82038738,1646.13
-104.73911848,40.82038387,1646.13
-104.73911853,40.82037216,1646.11
-104.73911878,40.82030712,1646.15
-104.73911895,40.82026334,1646.17
-104.73911896,40.82026145,1646.17
-104.73911908,40.82023172,1646.19
-104.73911909,40.82022884,1646.18
-104.73911942,40.82014380,1646.22
-104.73912051,40.81986535,1646.42
-104.73912053,40.81985994,1646.43
-104.73912069,40.81981922,1646.48
-104.73912118,40.81969563,1646.55
-104.73912158,40.81959365,1646.77
-104.73912173,40.81955429,1646.85
-104.73912188,40.81951654,1646.94
-104.73912244,40.81937412,1647.25
-104.73912258,40.81933817,1647.35
-104.73912273,40.81929809,1647.38
-104.73912303,40.81922359,1647.54
-104.73912317,40.81918800,1647.61
-104.73912351,40.81909972,1647.84
-104.73912360,40.81907621,1647.93
-104.73912365,40.81906378,1647.96
-104.73912371,40.81905026,1647.99
-104.73912377,40.81903288,1648.06
-104.73912500,40.81872065,1648.89
-104.73912526,40.81865380,1649.04
-104.73912538,40.81862390,1649.12
-104.73912548,40.81859615,1649.17
-104.73912575,40.81852768,1649.41
-104.73912578,40.81852003,1649.46
-104.73912622,40.81840787,1650.06
-104.73912632,40.81838337,1650.21
-104.73912659,40.81831265,1650.60
-104.73912675,40.81827203,1650.86
-104.73912682,40.81825428,1650.93
-104.73912751,40.81807897,1651.84
-104.73912828,40.81788304,1652.51
-104.73912896,40.81770774,1653.13
-104.73912906,40.81768323,1653.19
-104.73912913,40.81766504,1653.20
-104.73912947,40.81757937,1653.23
-104.73912990,40.81746982,1653.17
-104.73912992,40.81746406,1653.21
-104.73913043,40.81733416,1652.87
-104.73913057,40.81729803,1652.75
-104.73913061,40.81728659,1652.73
-104.73913115,40.81715093,1651.97
-104.73913150,40.81706012,1651.32
-104.73913199,40.81693599,1650.59
-104.73913201,40.81693103,1650.59
-104.73913310,40.81665087,1650.23
-104.73913358,40.81652898,1650.18
-104.73913382,40.81646926,1650.00
-104.73913390,40.81644764,1650.14
-104.73913515,40.81612892,1650.13
-104.73913541,40.81606127,1650.15
-104.73913552,40.81603307,1650.13
-104.73913609,40.81588812,1650.16
-104.73913663,40.81575048,1650.17
-104.73913671,40.81573066,1650.17
-104.73913702,40.81565210,1650.18
-104.73913748,40.81553463,1650.30
-104.73913779,40.81545374,1650.47
-104.73913785,40.81544004,1650.49
-104.73913800,40.81540131,1650.54
-104.73913825,40.81533654,1650.71
-104.73913846,40.81528312,1650.82
-104.73913958,40.81499845,1652.20
-104.73913958,40.81499665,1652.20
-104.73913964,40.81498179,1652.18
-104.73914005,40.81487684,1652.18
-104.73914018,40.81484351,1652.17
-104.73914109,40.81461271,1652.16
-104.73914150,40.81450767,1652.28
-104.73914226,40.81431309,1652.91
-104.73914266,40.81421084,1653.35
-104.73914275,40.81418814,1653.41
-104.73914285,40.81416229,1653.52
-104.73914367,40.81395455,1653.89
-104.73914390,40.81389402,1653.92
-104.73914405,40.81385681,1653.95
-104.73914480,40.81366610,1653.60
-104.73914574,40.81342621,1652.73
-104.73914692,40.81312389,1651.77
-104.73914695,40.81311533,1651.75
-104.73914741,40.81299786,1651.47
-104.73914746,40.81298471,1651.44
-104.73914753,40.81296741,1651.42
-104.73914833,40.81276256,1651.07
-104.73914800,40.81272598,1651.26
-104.73914708,40.81271850,1651.29
-104.73913725,40.81271749,1651.30
-104.73905081,40.81271729,1651.33
-104.73903919,40.81271727,1651.34
-104.73890912,40.81271697,1651.34
-104.73876850,40.81271666,1651.39
-104.73868906,40.81271648,1651.48
-104.73861650,40.81271631,1651.58
-104.73860642,40.81271629,1651.61
-104.73838837,40.81271579,1652.10
-104.73804358,40.81271501,1652.42
-104.73787604,40.81271463,1652.59
-104.73765148,40.81271412,1652.82
-104.73730633,40.81271334,1653.09
-104.73724230,40.81271319,1653.14
-104.73718503,40.81271306,1653.18
-104.73718337,40.81271306,1653.18
-104.73694991,40.81271252,1653.34
-104.73664033,40.81271182,1653.76
-104.73645560,40.81271140,1654.08
-104.73638600,40.81271124,1654.20
-104.73633016,40.81271111,1654.28
-104.73619831,40.81271081,1654.48
-104.73610251,40.81271059,1654.60
-104.73600682,40.81271037,1654.70
-104.73588826,40.81271010,1654.81
-104.73581913,40.81270994,1654.84
-104.73567495,40.81270961,1654.89
-104.73554370,40.81270931,1655.00
-104.73552188,40.81270926,1655.02
-104.73540414,40.81270899,1655.11
-104.73519309,40.81270850,1655.15
-104.73508389,40.81270825,1655.20
-104.73502022,40.81270811,1655.17
-104.73491659,40.81270787,1655.32
-104.73446011,40.81270682,1655.80
-104.73427965,40.81270640,1656.07
-104.73417294,40.81270616,1656.13
-104.73400303,40.81270577,1656.10
-104.73399331,40.81270574,1656.15
-104.73395691,40.81270566,1656.37
-104.73338529,40.81270434,1656.60
-104.73315586,40.81270381,1656.72
-104.73289514,40.81270321,1656.99
-104.73273270,40.81270283,1657.35
-104.73218373,40.81270156,1658.59
-104.73169286,40.81270042,1659.17
-104.73159077,40.81270018,1659.23
-104.73154263,40.81270007,1659.30
-104.73128285,40.81269946,1659.68
-104.73117994,40.81269922,1659.80
-104.73092110,40.81269862,1659.95
-104.73086443,40.81269849,1659.88
-104.73085933,40.81269848,1659.88
-104.73062777,40.81269794,1659.16
-104.73038103,40.81269736,1657.95
-104.73034961,40.81269729,1657.75
-104.73034463,40.81269728,1657.70
-104.73001394,40.81269650,1655.83
-104.72980764,40.81269602,1654.49
-104.72945762,40.81269520,1652.29
-104.72918077,40.81269455,1650.72
-104.72917128,40.81269462,1650.69
-104.72913773,40.81269499,1650.52
-104.72857323,40.81269312,1647.24
-104.72856813,40.81269311,1647.22
-104.72843723,40.81269280,1646.84
-104.72830965,40.81269250,1646.52
-104.72806706,40.81269193,1646.21
-104.72802699,40.81269184,1646.14
-104.72797446,40.81269171,1646.05
-104.72786218,40.81269145,1645.91
-104.72752592,40.81269065,1645.51
-104.72740973,40.81269038,1645.24
-104.72734712,40.81269068,1645.11
-104.72729398,40.81269695,1644.98
-104.72729312,40.81270407,1644.99
-104.72729233,40.81272271,1645.07
-104.72729169,40.81276190,1645.20
-104.72729142,40.81279991,1645.30
-104.72729099,40.81290369,1645.62
-104.72729083,40.81294351,1645.68
-104.72729074,40.81296522,1645.76
-104.72729054,40.81301530,1645.87
-104.72729052,40.81301936,1645.89
-104.72729026,40.81308251,1646.06
-104.72728958,40.81325006,1646.31
-104.72728921,40.81333916,1646.41
-104.72728782,40.81368004,1646.17
-104.72728641,40.81402389,1645.44
-104.72728623,40.81406614,1645.32
-104.72728558,40.81422712,1644.81
-104.72728509,40.81434486,1644.43
-104.72728498,40.81437224,1644.37
-104.72728423,40.81455638,1643.66
-104.72728415,40.81457620,1643.58
-104.72728366,40.81469493,1643.07
-104.72728337,40.81476501,1642.73
-104.72728329,40.81478645,1642.66
-104.72728285,40.81489248,1642.19
-104.72728260,40.81495347,1641.87
-104.72728244,40.81499311,1641.67
-104.72728231,40.81502400,1641.54
-104.72728224,40.81504202,1641.48
-104.72728221,40.81504869,1641.41
-104.72728205,40.81508805,1641.21
-104.72728077,40.81540119,1639.86
-104.72728065,40.81542947,1639.73
-104.72728019,40.81554127,1639.36
-104.72728011,40.81556235,1639.20
-104.72728001,40.81558604,1639.10
-104.72727971,40.81565973,1638.83
-104.72727938,40.81573909,1638.62
-104.72727894,40.81584827,1638.48
-104.72727892,40.81585224,1638.51
-104.72727861,40.81592827,1638.53
-104.72727800,40.81607691,1638.67
-104.72727800,40.81607781,1638.69
-104.72727725,40.81626086,1639.09
-104.72727707,40.81630464,1639.28
-104.72727649,40.81644526,1639.87
-104.72727622,40.81651175,1640.33
-104.72727595,40.81657733,1640.81
-104.72727582,40.81661003,1640.96
-104.72727565,40.81665174,1641.18
-104.72727548,40.81669336,1641.35
-104.72727525,40.81674885,1641.74
-104.72727515,40.81677398,1641.91
-104.72727481,40.81685542,1642.38
-104.72727476,40.81686848,1642.48
-104.72727420,40.81700559,1643.32
-104.72727410,40.81702865,1643.52
-104.72727407,40.81703595,1643.56
-104.72727389,40.81708054,1643.87
-104.72727385,40.81708955,1643.91
-104.72727215,40.81750592,1646.46
-104.72727191,40.81756492,1646.70
-104.72727085,40.81782283,1647.58
-104.72727060,40.81788382,1647.72
-104.72727044,40.81792255,1647.78
-104.72726981,40.81807732,1647.75
-104.72726954,40.81814389,1647.75
-104.72726924,40.81821623,1647.69
-104.72726786,40.81855251,1647.90
-104.72726754,40.81863170,1647.99
-104.72726710,40.81873980,1648.20
-104.72726670,40.81883601,1648.32
-104.72726666,40.81884565,1648.33
-104.72726530,40.81917743,1648.09
-104.72726437,40.81940552,1647.51
-104.72726341,40.81963983,1646.29
-104.72726288,40.81976766,1645.69
-104.72726233,40.81990441,1645.11
-104.72726174,40.82004728,1644.51
-104.72726165,40.82006863,1644.39
-104.72726137,40.82013863,1644.09
-104.72726093,40.82024538,1643.68
-104.72726069,40.82030348,1643.54
-104.72725935,40.82063067,1642.56
-104.72725915,40.82068039,1642.35
-104.72725901,40.82071255,1642.26
-104.72725897,40.82072417,1642.23
-104.72725832,40.82088155,1641.99
-104.72725787,40.82099163,1641.67
-104.72725742,40.82110307,1641.12
-104.72725663,40.82129585,1640.55
-104.72725539,40.82159781,1640.16
-104.72725525,40.82165952,1639.99
-104.72725579,40.82167321,1639.99
-104.72725669,40.82168628,1639.99
-104.72725714,40.82169060,1639.98
-104.72725996,40.82169700,1640.00
-104.72726482,40.82169765,1640.04
-104.72726992,40.82169829,1640.03
-104.72745609,40.82169882,1640.78
-104.72770915,40.82169951,1641.84
-104.72782086,40.82169977,1642.30
-104.72801711,40.82170023,1643.17
-104.72804510,40.82170030,1643.35
-104.72821953,40.82170071,1644.10
-104.72844579,40.82170124,1645.27
-104.72849915,40.82170137,1645.46
-104.72851931,40.82170142,1645.53
-104.72900717,40.82170256,1647.19
-104.72928418,40.82170321,1647.84
-104.72938865,40.82170346,1648.10
-104.72944628,40.82170359,1648.23
-104.72979219,40.82170440,1649.37
-104.72991089,40.82170468,1649.74
-104.73020830,40.82170538,1650.81
-104.73032024,40.82170564,1651.27
-104.73061314,40.82170632,1652.23
-104.73071441,40.82170656,1652.59
-104.73076232,40.82170667,1652.77
-104.73099925,40.82170722,1653.57
-104.73107645,40.82170740,1653.79
-104.73123915,40.82170778,1654.30
-104.73126951,40.82170785,1654.40
-104.73145639,40.82170829,1654.91
-104.73154782,40.82170850,1655.16
-104.73173340,40.82170893,1655.74
-104.73186681,40.82170924,1656.10
-104.73186812,40.82170925,1656.09
-104.73189420,40.82170931,1656.19
-104.73203259,40.82170963,1656.45
-104.73222541,40.82171008,1656.77
-104.73239759,40.82171048,1656.96
-104.73253610,40.82171080,1657.01
-104.73261341,40.82171098,1657.05
-104.73262575,40.82171100,1657.05
     </coordinates>
    </LineString>
   </MultiGeometry>
  </Placemark>
 </Document>
</kml>
