<kml>
 <Document>
  <Style id="yellow">
   <LineStyle>
   <color>ff00ffff</color>
   <width>1</width>
   </LineStyle>
  </Style>
  <Style id="red">
   <LineStyle>
   <color>ffff0000</color>
   <width>2</width>
   </LineStyle>
  </Style>
  <Style id="green">
   <LineStyle>
   <color>ff00ff00</color>
   <width>1</width>
   </LineStyle>
  </Style>
  <Placemark>
  <styleUrl>#yellow</styleUrl>
   <MultiGeometry>
    <LineString>
     <coordinates>
-104.72114330,40.82168382,1628.22
-104.72116832,40.82168388,1628.18
-104.72121813,40.82168400,1628.27
-104.72126082,40.82168411,1628.27
-104.72132936,40.82168427,1628.41
-104.72134560,40.82168431,1628.41
-104.72136885,40.82168437,1628.48
-104.72139873,40.82168444,1628.68
-104.72152905,40.82168476,1628.85
-104.72156973,40.82168485,1628.91
-104.72176136,40.82168532,1629.57
-104.72195560,40.82168578,1630.36
-104.72195655,40.82168579,1630.32
-104.72217948,40.82168632,1631.16
-104.72229901,40.82168661,1631.60
-104.72240135,40.82168686,1631.98
-104.72249907,40.82168709,1632.40
-104.72258480,40.82168730,1632.59
-104.72277679,40.82168776,1633.06
-104.72282375,40.82168787,1633.16
-104.72293711,40.82168815,1633.58
-104.72297043,40.82168822,1633.66
-104.72299783,40.82168829,1633.80
-104.72303601,40.82168838,1633.91
-104.72311843,40.82168858,1634.22
-104.72314760,40.82168865,1634.34
-104.72336449,40.82168917,1635.03
-104.72345461,40.82168939,1635.20
-104.72387985,40.82169041,1635.79
-104.72403057,40.82169077,1635.79
-104.72421793,40.82169121,1635.67
-104.72437850,40.82169160,1635.66
-104.72441194,40.82169168,1635.69
-104.72460487,40.82169214,1635.74
-104.72472749,40.82169243,1635.81
-104.72484085,40.82169270,1635.91
-104.72506782,40.82169324,1636.05
-104.72533309,40.82169387,1636.22
-104.72547539,40.82169421,1636.31
-104.72549437,40.82169426,1636.36
-104.72554097,40.82169437,1636.44
-104.72583956,40.82169508,1636.92
-104.72606345,40.82169561,1637.15
-104.72617397,40.82169587,1637.27
-104.72668862,40.82169709,1638.04
-104.72683104,40.82169743,1638.46
-104.72686543,40.82169751,1638.59
-104.72698378,40.82169779,1638.97
-104.72715714,40.82169820,1639.58
-104.72723529,40.82169830,1639.87
-104.72725487,40.82169636,1639.96
-104.72725528,40.82159574,1640.17
-104.72725594,40.82143521,1640.47
-104.72725597,40.82142755,1640.48
-104.72725605,40.82140845,1640.50
-104.72725681,40.82122117,1640.71
-104.72725777,40.82098722,1641.71
-104.72725781,40.82097794,1641.72
-104.72725784,40.82096974,1641.73
-104.72725810,40.82090768,1641.98
-104.72725811,40.82090506,1641.97
-104.72725922,40.82063229,1642.56
-104.72726020,40.82039356,1643.39
-104.72726111,40.82017142,1643.96
-104.72726280,40.81975847,1645.74
-104.72726321,40.81966010,1646.23
-104.72726381,40.81951281,1646.85
-104.72726394,40.81948128,1647.03
-104.72726431,40.81939111,1647.56
-104.72726462,40.81931508,1647.78
-104.72726487,40.81925499,1647.97
-104.72726489,40.81924949,1647.99
-104.72726543,40.81911833,1648.25
-104.72726546,40.81911076,1648.24
-104.72726560,40.81907536,1648.34
-104.72726597,40.81898528,1648.33
-104.72726604,40.81896879,1648.34
-104.72726619,40.81893132,1648.35
-104.72726695,40.81874610,1648.20
-104.72726714,40.81869926,1648.12
-104.72726882,40.81828893,1647.71
-104.72726911,40.81821848,1647.67
-104.72726914,40.81821037,1647.66
-104.72726923,40.81818974,1647.68
-104.72726991,40.81802390,1647.80
-104.72727128,40.81768933,1647.17
-104.72727218,40.81743961,1646.12
-104.72727356,40.81713179,1644.19
-104.72727415,40.81698874,1643.21
-104.72727421,40.81697433,1643.09
-104.72727459,40.81688154,1642.55
-104.72727499,40.81678272,1641.95
-104.72727511,40.81675389,1641.78
-104.72727530,40.81670840,1641.47
-104.72727605,40.81652400,1640.42
-104.72727671,40.81636257,1639.60
-104.72727719,40.81624708,1639.08
-104.72727723,40.81623546,1639.00
-104.72727743,40.81618690,1638.81
-104.72727764,40.81613501,1638.72
-104.72727858,40.81590548,1638.53
-104.72727860,40.81590278,1638.54
-104.72727866,40.81588674,1638.52
-104.72727879,40.81585593,1638.52
-104.72727896,40.81581458,1638.53
-104.72727998,40.81556424,1639.18
-104.72728002,40.81555433,1639.26
-104.72728007,40.81554307,1639.35
-104.72728040,40.81546280,1639.66
-104.72728067,40.81539650,1639.88
-104.72728135,40.81522976,1640.65
-104.72728161,40.81516571,1640.89
-104.72728176,40.81513048,1641.01
-104.72728196,40.81508031,1641.27
-104.72728262,40.81491978,1642.04
-104.72728279,40.81487753,1642.25
-104.72728301,40.81482393,1642.53
-104.72728317,40.81478492,1642.66
-104.72728364,40.81467123,1643.16
-104.72728404,40.81457394,1643.57
-104.72728415,40.81454575,1643.66
-104.72728434,40.81449971,1643.87
-104.72728458,40.81444008,1644.12
-104.72728524,40.81428108,1644.64
-104.72728551,40.81421478,1644.86
-104.72728564,40.81418118,1644.97
-104.72728569,40.81417046,1644.96
-104.72728582,40.81413730,1645.07
-104.72728587,40.81412721,1645.14
-104.72728591,40.81411686,1645.18
-104.72728620,40.81404596,1645.38
-104.72728622,40.81404028,1645.40
-104.72728775,40.81366778,1646.18
-104.72728806,40.81359130,1646.27
-104.72728845,40.81349581,1646.38
-104.72728865,40.81344780,1646.36
-104.72728897,40.81336898,1646.37
-104.72728948,40.81324466,1646.28
-104.72728993,40.81313349,1646.18
-104.72728999,40.81312115,1646.14
-104.72729002,40.81311196,1646.15
-104.72729067,40.81295306,1645.70
-104.72729093,40.81289081,1645.59
-104.72729131,40.81279775,1645.30
-104.72729142,40.81271406,1645.04
-104.72728911,40.81269757,1644.98
-104.72728784,40.81269009,1644.93
-104.72722274,40.81268994,1644.77
-104.72710643,40.81268966,1644.42
-104.72703873,40.81268950,1644.14
-104.72671290,40.81268873,1642.88
-104.72659410,40.81268845,1642.30
-104.72631108,40.81268778,1640.83
-104.72609125,40.81268726,1639.69
-104.72593309,40.81268688,1638.80
-104.72588234,40.81268676,1638.49
-104.72559955,40.81268609,1637.09
-104.72517176,40.81268507,1635.27
-104.72488590,40.81268439,1634.21
-104.72438175,40.81268319,1632.41
-104.72433515,40.81268307,1632.30
-104.72402284,40.81268233,1631.57
-104.72387463,40.81268197,1631.33
-104.72386064,40.81268194,1631.28
-104.72380065,40.81268180,1631.16
-104.72328666,40.81268056,1630.49
-104.72319382,40.81268034,1630.40
-104.72308664,40.81268008,1630.23
-104.72303684,40.81267996,1630.13
-104.72283326,40.81267948,1629.83
-104.72277563,40.81267934,1629.66
-104.72261758,40.81267896,1629.38
-104.72221208,40.81267798,1628.83
-104.72205237,40.81267760,1628.62
-104.72193345,40.81267731,1628.51
-104.72160348,40.81267652,1628.00
-104.72112992,40.81267537,1627.41
-104.72102581,40.81267512,1627.31
-104.72085188,40.81267470,1627.22
-104.72080990,40.81267460,1627.23
-104.72050910,40.81267387,1627.15
-104.72009091,40.81267286,1626.57
-104.71970806,40.81267193,1626.40
-104.71954206,40.81267152,1626.34
-104.71930481,40.81267095,1625.90
-104.71919822,40.81267069,1625.78
-104.71903507,40.81267029,1625.91
-104.71898195,40.81267016,1625.94
-104.71871956,40.81266952,1626.10
-104.71833694,40.81266859,1626.34
-104.71830244,40.81266850,1626.36
-104.71813799,40.81266810,1626.34
-104.71809815,40.81266800,1626.36
-104.71805333,40.81266789,1626.47
-104.71804633,40.81266788,1626.48
-104.71796417,40.81266768,1626.45
-104.71791864,40.81266757,1626.43
-104.71789812,40.81266752,1626.45
-104.71780232,40.81266728,1626.38
-104.71776296,40.81266718,1626.37
-104.71765648,40.81266692,1626.36
-104.71759198,40.81266677,1626.37
-104.71738117,40.81266625,1626.16
-104.71733054,40.81266613,1626.10
-104.71727897,40.81266600,1626.03
-104.71720071,40.81266581,1626.02
-104.71713170,40.81266564,1625.99
-104.71709329,40.81266554,1625.97
-104.71698658,40.81266528,1625.98
-104.71694164,40.81266517,1625.95
-104.71687323,40.81266500,1625.99
-104.71679652,40.81266482,1625.97
-104.71652737,40.81266416,1625.90
-104.71643062,40.81266392,1625.84
-104.71620641,40.81266337,1625.60
-104.71597283,40.81266279,1625.25
-104.71595338,40.81266274,1625.22
-104.71580873,40.81266239,1625.05
-104.71559448,40.81266186,1624.47
-104.71556519,40.81266179,1624.38
-104.71548812,40.81266169,1624.13
-104.71543999,40.81266175,1624.01
-104.71543510,40.81266804,1623.97
-104.71543480,40.81273786,1623.59
-104.71543352,40.81303676,1623.13
-104.71543335,40.81307603,1623.14
-104.71543318,40.81311756,1623.18
-104.71543184,40.81342998,1623.32
-104.71543068,40.81370113,1623.78
-104.71543007,40.81384517,1624.17
-104.71542976,40.81391679,1624.29
-104.71542843,40.81422812,1624.82
-104.71542747,40.81445360,1625.17
-104.71542633,40.81471998,1625.79
-104.71542599,40.81479907,1625.86
-104.71542526,40.81496933,1626.05
-104.71542382,40.81530634,1626.04
-104.71542356,40.81536868,1626.00
-104.71542352,40.81537760,1625.99
-104.71542340,40.81540597,1625.94
-104.71542322,40.81544840,1625.82
-104.71542303,40.81549191,1625.73
-104.71542158,40.81583090,1625.02
-104.71542130,40.81589738,1624.83
-104.71542103,40.81595990,1624.61
-104.71542006,40.81618745,1624.07
-104.71541908,40.81641672,1623.54
-104.71541837,40.81658220,1623.39
-104.71541825,40.81661085,1623.18
-104.71541704,40.81689362,1623.16
-104.71541564,40.81722063,1623.08
-104.71541512,40.81734350,1623.24
-104.71541445,40.81749908,1623.30
-104.71541412,40.81757682,1623.45
-104.71541408,40.81758628,1623.42
-104.71541300,40.81783996,1623.66
-104.71541262,40.81792716,1623.79
-104.71541183,40.81811318,1623.80
-104.71541105,40.81829632,1624.09
-104.71541039,40.81845073,1624.23
-104.71541031,40.81846892,1624.28
-104.71540882,40.81884421,1624.50
-104.71540685,40.81927743,1624.88
-104.71540626,40.81941670,1624.78
-104.71540546,40.81960254,1625.06
-104.71540486,40.81982667,1625.63
-104.71540345,40.82007260,1625.57
-104.71540272,40.82024556,1625.34
-104.71540202,40.82040762,1625.19
-104.71540036,40.82079760,1624.67
-104.71540029,40.82081399,1624.60
-104.71539976,40.82093795,1624.16
-104.71539909,40.82109370,1624.17
-104.71539861,40.82120631,1623.59
-104.71539844,40.82124550,1623.30
-104.71539721,40.82153322,1622.90
-104.71539672,40.82164790,1624.50
-104.71539737,40.82166241,1624.57
-104.71539807,40.82166628,1624.60
-104.71541880,40.82166958,1624.59
-104.71552873,40.82167012,1623.99
-104.71556846,40.82167021,1623.62
-104.71587547,40.82167097,1622.79
-104.71626739,40.82167194,1623.55
-104.71655471,40.82167264,1623.52
-104.71663286,40.82167283,1623.38
-104.71668350,40.82167296,1623.06
-104.71672239,40.82167305,1622.87
-104.71680350,40.82167325,1622.81
-104.71702585,40.82167380,1623.73
-104.71711241,40.82167401,1624.63
-104.71730784,40.82167449,1624.81
-104.71733060,40.82167455,1624.85
-104.71744101,40.82167482,1624.81
-104.71748441,40.82167492,1624.86
-104.71790360,40.82167595,1625.18
-104.71806025,40.82167633,1625.28
-104.71849462,40.82167739,1625.19
-104.71874803,40.82167801,1625.11
-104.71901508,40.82167866,1624.63
-104.71920268,40.82167912,1624.52
-104.71932423,40.82167941,1624.25
-104.71940546,40.82167961,1623.93
-104.71945040,40.82167972,1624.09
-104.71946843,40.82167976,1624.23
-104.71958227,40.82168004,1625.38
-104.71959673,40.82168008,1625.33
-104.71979797,40.82168056,1625.93
-104.71980070,40.82168057,1625.96
-104.71995664,40.82168095,1626.42
-104.72025013,40.82168166,1628.00
-104.72035057,40.82168190,1628.17
-104.72037547,40.82168197,1628.20
-104.72051884,40.82168231,1628.17
-104.72058833,40.82168248,1628.18
-104.72113263,40.82168380,1628.28
-104.72114330,40.82168382,1628.22
     </coordinates>
    </LineString>
   </MultiGeometry>
  </Placemark>
 </Document>
</kml>
