<kml>
 <Document>
  <Style id="yellow">
   <LineStyle>
   <color>ff00ffff</color>
   <width>1</width>
   </LineStyle>
  </Style>
  <Style id="red">
   <LineStyle>
   <color>ffff0000</color>
   <width>2</width>
   </LineStyle>
  </Style>
  <Style id="green">
   <LineStyle>
   <color>ff00ff00</color>
   <width>1</width>
   </LineStyle>
  </Style>
  <Placemark>
  <styleUrl>#yellow</styleUrl>
   <MultiGeometry>
    <LineString>
     <coordinates>
-104.76564312,40.83079130,1652.70
-104.76599002,40.83079200,1653.45
-104.76610957,40.83079224,1653.22
-104.76639943,40.83079283,1653.47
-104.76645126,40.83079294,1653.47
-104.76649941,40.83079303,1653.48
-104.76657460,40.83079318,1653.48
-104.76674361,40.83079353,1653.59
-104.76684572,40.83079373,1653.59
-104.76687110,40.83079378,1653.60
-104.76698804,40.83079402,1653.60
-104.76701603,40.83079408,1653.63
-104.76711317,40.83079427,1653.50
-104.76719382,40.83079444,1653.14
-104.76723378,40.83079452,1652.90
-104.76747561,40.83079500,1653.79
-104.76765161,40.83079536,1654.18
-104.76794337,40.83079595,1654.97
-104.76838053,40.83079682,1656.86
-104.76881413,40.83079769,1658.38
-104.76906201,40.83079819,1659.75
-104.76920338,40.83079847,1660.24
-104.76967517,40.83079942,1663.29
-104.76974147,40.83079955,1663.72
-104.76985947,40.83079978,1664.39
-104.76990952,40.83079988,1664.71
-104.76994676,40.83079996,1664.92
-104.77000333,40.83080007,1665.25
-104.77003251,40.83080013,1665.46
-104.77014601,40.83080036,1666.19
-104.77028086,40.83080062,1667.07
-104.77056099,40.83080118,1668.35
-104.77064354,40.83080135,1668.67
-104.77085334,40.83080176,1669.68
-104.77093150,40.83080192,1670.17
-104.77108473,40.83080222,1671.10
-104.77114284,40.83080234,1671.41
-104.77144670,40.83080294,1672.66
-104.77187793,40.83080379,1671.94
-104.77210090,40.83080423,1670.95
-104.77216625,40.83080436,1670.54
-104.77228200,40.83080459,1669.87
-104.77234450,40.83080471,1669.46
-104.77282543,40.83080566,1666.61
-104.77295280,40.83080591,1665.76
-104.77300439,40.83080601,1665.46
-104.77319878,40.83080640,1664.36
-104.77344262,40.83080688,1663.42
-104.77362942,40.83080724,1663.03
-104.77401285,40.83080799,1662.90
-104.77452971,40.83080883,1663.06
-104.77459210,40.83080877,1663.09
-104.77465413,40.83080772,1663.14
-104.77465771,40.83080133,1663.14
-104.77465805,40.83076899,1663.14
-104.77465884,40.83053549,1662.66
-104.77465892,40.83047693,1662.48
-104.77465898,40.83039009,1662.27
-104.77466030,40.82999958,1661.52
-104.77466132,40.82980392,1661.40
-104.77466212,40.82956771,1661.26
-104.77466224,40.82953231,1661.24
-104.77466228,40.82952096,1661.23
-104.77466240,40.82948619,1661.20
-104.77466251,40.82945151,1661.18
-104.77466257,40.82943430,1661.16
-104.77466316,40.82926008,1661.15
-104.77466371,40.82909801,1661.31
-104.77466478,40.82878353,1661.57
-104.77466503,40.82870786,1661.57
-104.77466526,40.82857012,1661.88
-104.77466669,40.82821663,1662.94
-104.77466691,40.82815276,1662.94
-104.77466799,40.82783530,1662.61
-104.77466801,40.82782945,1662.61
-104.77466923,40.82746731,1661.25
-104.77466955,40.82737209,1660.97
-104.77467072,40.82702787,1660.65
-104.77467074,40.82702175,1660.63
-104.77467166,40.82675014,1660.58
-104.77467247,40.82650917,1660.70
-104.77467378,40.82612244,1660.01
-104.77467405,40.82604334,1659.95
-104.77467427,40.82597758,1659.91
-104.77467475,40.82576660,1659.70
-104.77467641,40.82534771,1659.69
-104.77467672,40.82525366,1659.52
-104.77467695,40.82518556,1659.52
-104.77467727,40.82509223,1659.50
-104.77467797,40.82488675,1659.62
-104.77467846,40.82474162,1659.62
-104.77467886,40.82462235,1659.29
-104.77467946,40.82444615,1658.75
-104.77467950,40.82443371,1658.71
-104.77468045,40.82415319,1656.91
-104.77468121,40.82392690,1654.25
-104.77468152,40.82383717,1653.36
-104.77468253,40.82353827,1651.10
-104.77468300,40.82339783,1650.04
-104.77468384,40.82315136,1649.48
-104.77468504,40.82279634,1649.70
-104.77468514,40.82276760,1649.74
-104.77468518,40.82275643,1649.73
-104.77468581,40.82257005,1649.92
-104.77468612,40.82247753,1650.10
-104.77468638,40.82240033,1650.23
-104.77468644,40.82238168,1650.25
-104.77468645,40.82237925,1650.25
-104.77468653,40.82235610,1650.26
-104.77468658,40.82234015,1650.29
-104.77468680,40.82227655,1650.39
-104.77468722,40.82215169,1650.59
-104.77468735,40.82211503,1650.62
-104.77468766,40.82191801,1651.54
-104.77468757,40.82190738,1651.56
-104.77468659,40.82181243,1651.84
-104.77468436,40.82180612,1651.86
-104.77467440,40.82180520,1651.86
-104.77463457,40.82180161,1651.75
-104.77462520,40.82180078,1651.71
-104.77436384,40.82180027,1651.08
-104.77423091,40.82180001,1650.79
-104.77397169,40.82179950,1650.02
-104.77391014,40.82179938,1649.83
-104.77370369,40.82179898,1649.38
-104.77364724,40.82179887,1649.20
-104.77350755,40.82179859,1648.92
-104.77316662,40.82179792,1647.52
-104.77289980,40.82179740,1646.80
-104.77277351,40.82179715,1647.69
-104.77249662,40.82179660,1649.50
-104.77232277,40.82179626,1649.61
-104.77230107,40.82179622,1649.60
-104.77215676,40.82179593,1649.60
-104.77190061,40.82179543,1649.89
-104.77184618,40.82179532,1650.08
-104.77177788,40.82179518,1650.31
-104.77154830,40.82179473,1650.52
-104.77151035,40.82179465,1650.42
-104.77132750,40.82179429,1650.14
-104.77126014,40.82179416,1650.05
-104.77113029,40.82179390,1649.97
-104.77111084,40.82179386,1649.95
-104.77105902,40.82179376,1649.92
-104.77081604,40.82179328,1649.38
-104.77073766,40.82179312,1649.15
-104.77069343,40.82179303,1648.92
-104.77063698,40.82179292,1648.72
-104.77059583,40.82179284,1648.55
-104.77054342,40.82179274,1648.38
-104.77044345,40.82179254,1648.20
-104.77040218,40.82179245,1648.17
-104.77008889,40.82179183,1648.29
-104.77002058,40.82179169,1648.62
-104.76998038,40.82179161,1648.79
-104.76953522,40.82179073,1650.19
-104.76951221,40.82179068,1650.22
-104.76937845,40.82179041,1650.41
-104.76931240,40.82179028,1650.52
-104.76929805,40.82179025,1650.50
-104.76926864,40.82179019,1650.53
-104.76923603,40.82179013,1650.55
-104.76914626,40.82178995,1650.67
-104.76900467,40.82178967,1650.82
-104.76897728,40.82178961,1650.81
-104.76889795,40.82178945,1650.91
-104.76885193,40.82178936,1650.91
-104.76864062,40.82178894,1651.06
-104.76861488,40.82178888,1651.04
-104.76852049,40.82178870,1650.92
-104.76845563,40.82178856,1650.85
-104.76827905,40.82178821,1650.84
-104.76795923,40.82178766,1650.86
-104.76765613,40.82178696,1651.46
-104.76758427,40.82178681,1651.60
-104.76751407,40.82178667,1651.74
-104.76746747,40.82178658,1651.83
-104.76718464,40.82178601,1652.58
-104.76698186,40.82178560,1653.23
-104.76695637,40.82178555,1653.29
-104.76691546,40.82178546,1653.45
-104.76671291,40.82178505,1653.96
-104.76642001,40.82178446,1654.97
-104.76637104,40.82178436,1655.18
-104.76616245,40.82178394,1656.10
-104.76611193,40.82178384,1656.39
-104.76609995,40.82178381,1656.43
-104.76603758,40.82178369,1656.70
-104.76595208,40.82178351,1657.16
-104.76590097,40.82178341,1657.49
-104.76572546,40.82178305,1658.56
-104.76565550,40.82178291,1658.95
-104.76563392,40.82178287,1659.13
-104.76552280,40.82178264,1659.71
-104.76550703,40.82178261,1659.82
-104.76544407,40.82178248,1660.27
-104.76539960,40.82178239,1660.58
-104.76494613,40.82178147,1665.12
-104.76485067,40.82178127,1666.66
-104.76481592,40.82178120,1667.13
-104.76477857,40.82178113,1667.78
-104.76474489,40.82178106,1668.39
-104.76473054,40.82178103,1668.63
-104.76472817,40.82178102,1668.64
-104.76457639,40.82178071,1669.47
-104.76454994,40.82178066,1669.35
-104.76447998,40.82178052,1669.25
-104.76442495,40.82178041,1669.46
-104.76428645,40.82178012,1671.14
-104.76419312,40.82177993,1670.11
-104.76416051,40.82177987,1669.36
-104.76409897,40.82177974,1667.60
-104.76386785,40.82177936,1662.25
-104.76336742,40.82177824,1656.25
-104.76318124,40.82177786,1654.62
-104.76314377,40.82177778,1654.32
-104.76309326,40.82177768,1653.90
-104.76300194,40.82177749,1653.17
-104.76283960,40.82177716,1651.92
-104.76283118,40.82177741,1651.80
-104.76283070,40.82178083,1651.82
-104.76283031,40.82178885,1651.81
-104.76282989,40.82184083,1651.75
-104.76282924,40.82205622,1651.31
-104.76282828,40.82229233,1651.02
-104.76282822,40.82230846,1651.02
-104.76282790,40.82239917,1650.91
-104.76282706,40.82263627,1650.32
-104.76282659,40.82276870,1650.21
-104.76282596,40.82294364,1650.03
-104.76282566,40.82302931,1650.00
-104.76282538,40.82310786,1649.76
-104.76282441,40.82337893,1649.24
-104.76282409,40.82347018,1649.14
-104.76282328,40.82369594,1648.88
-104.76282307,40.82375656,1648.81
-104.76282192,40.82407951,1648.29
-104.76282073,40.82441148,1647.73
-104.76282050,40.82447589,1647.58
-104.76281913,40.82486163,1647.19
-104.76281905,40.82488262,1647.15
-104.76281884,40.82494207,1647.16
-104.76281811,40.82514719,1647.26
-104.76281803,40.82517152,1647.26
-104.76281715,40.82541691,1647.39
-104.76281689,40.82548997,1647.40
-104.76281577,40.82580337,1647.53
-104.76281560,40.82585328,1647.52
-104.76281454,40.82614857,1647.66
-104.76281434,40.82620704,1647.62
-104.76281372,40.82637955,1646.84
-104.76281363,40.82640504,1646.61
-104.76281323,40.82651711,1647.08
-104.76281308,40.82655873,1646.77
-104.76281273,40.82665890,1646.82
-104.76281201,40.82685952,1647.76
-104.76281147,40.82701068,1648.17
-104.76281092,40.82716698,1648.40
-104.76281059,40.82725823,1648.47
-104.76281010,40.82739633,1648.53
-104.76281001,40.82742209,1648.62
-104.76280991,40.82744975,1648.66
-104.76280899,40.82770874,1648.98
-104.76280872,40.82778243,1649.09
-104.76280766,40.82808079,1649.27
-104.76280758,40.82810241,1649.28
-104.76280726,40.82819223,1649.66
-104.76280653,40.82843086,1649.55
-104.76280549,40.82869039,1649.96
-104.76280484,40.82887110,1649.99
-104.76280460,40.82894038,1649.76
-104.76280374,40.82918171,1648.97
-104.76280334,40.82929179,1648.39
-104.76280328,40.82930945,1648.32
-104.76280324,40.82932152,1648.30
-104.76280314,40.82935008,1648.21
-104.76280274,40.82946052,1648.02
-104.76280166,40.82976582,1648.24
-104.76280099,40.82995355,1648.82
-104.76280079,40.83000914,1648.85
-104.76280033,40.83013904,1649.12
-104.76280010,40.83020075,1649.28
-104.76280001,40.83022876,1649.32
-104.76279917,40.83046415,1649.45
-104.76279916,40.83046631,1649.44
-104.76279803,40.83078278,1648.81
-104.76281261,40.83078425,1648.78
-104.76281724,40.83078471,1648.80
-104.76282186,40.83078517,1648.81
-104.76284012,40.83078539,1648.82
-104.76289954,40.83078560,1648.86
-104.76304257,40.83078598,1648.99
-104.76319913,40.83078631,1649.75
-104.76327230,40.83078646,1650.04
-104.76347369,40.83078687,1650.61
-104.76357177,40.83078707,1650.85
-104.76373757,40.83078741,1651.36
-104.76389258,40.83078773,1651.66
-104.76405317,40.83078806,1651.88
-104.76421316,40.83078838,1651.93
-104.76430057,40.83078856,1651.96
-104.76437861,40.83078872,1652.13
-104.76450954,40.83078899,1652.19
-104.76462624,40.83078923,1652.10
-104.76463478,40.83078924,1652.18
-104.76477070,40.83078952,1652.36
-104.76482691,40.83078964,1652.25
-104.76487839,40.83078974,1652.32
-104.76496259,40.83078991,1652.41
-104.76500208,40.83078999,1652.39
-104.76504182,40.83079007,1652.36
-104.76518568,40.83079037,1652.42
-104.76529811,40.83079059,1652.58
-104.76547969,40.83079096,1652.64
-104.76563328,40.83079128,1652.70
-104.76564312,40.83079130,1652.70
     </coordinates>
    </LineString>
   </MultiGeometry>
  </Placemark>
 </Document>
</kml>
