<kml>
 <Document>
  <Style id="yellow">
   <LineStyle>
   <color>ff00ffff</color>
   <width>1</width>
   </LineStyle>
  </Style>
  <Style id="red">
   <LineStyle>
   <color>ffff0000</color>
   <width>2</width>
   </LineStyle>
  </Style>
  <Style id="green">
   <LineStyle>
   <color>ff00ff00</color>
   <width>1</width>
   </LineStyle>
  </Style>
  <Placemark>
  <styleUrl>#yellow</styleUrl>
   <MultiGeometry>
    <LineString>
     <coordinates>
-104.76280724,40.82819709,1649.70
-104.76280706,40.82824997,1649.93
-104.76280608,40.82852401,1649.76
-104.76280592,40.82857013,1649.83
-104.76280557,40.82866751,1649.85
-104.76280440,40.82899596,1649.71
-104.76280324,40.82932188,1648.25
-104.76280316,40.82934260,1648.19
-104.76280242,40.82955079,1648.01
-104.76280153,40.82980113,1648.39
-104.76280077,40.83001391,1648.98
-104.76279996,40.83024227,1649.43
-104.76279950,40.83036974,1649.76
-104.76279897,40.83051928,1649.20
-104.76279885,40.83055261,1649.02
-104.76279883,40.83055802,1649.04
-104.76279848,40.83065540,1648.77
-104.76279839,40.83078152,1648.83
-104.76280289,40.83078369,1648.81
-104.76281178,40.83078443,1648.78
-104.76282921,40.83078501,1648.78
-104.76285400,40.83078542,1648.83
-104.76287986,40.83078565,1648.83
-104.76335176,40.83078662,1650.28
-104.76360521,40.83078714,1650.97
-104.76370389,40.83078734,1651.26
-104.76383731,40.83078761,1651.53
-104.76397465,40.83078781,1651.73
-104.76399920,40.83078777,1651.78
-104.76403099,40.83078756,1651.83
-104.76403799,40.83078712,1651.81
-104.76404952,40.83078021,1651.84
-104.76408862,40.83075660,1651.86
-104.76410336,40.83074771,1651.84
-104.76411513,40.83074062,1651.86
-104.76417301,40.83070569,1651.89
-104.76420783,40.83068468,1651.85
-104.76423434,40.83066870,1651.83
-104.76424610,40.83066161,1651.83
-104.76426916,40.83064769,1651.79
-104.76428818,40.83063620,1651.81
-104.76429947,40.83062938,1651.78
-104.76434558,40.83060155,1651.80
-104.76436092,40.83059230,1651.79
-104.76436864,40.83058763,1651.79
-104.76442593,40.83055307,1651.79
-104.76446384,40.83053017,1651.81
-104.76455572,40.83047487,1651.74
-104.76457474,40.83046337,1651.74
-104.76457830,40.83046122,1651.72
-104.76460148,40.83044721,1651.76
-104.76464688,40.83041983,1651.77
-104.76469228,40.83039245,1651.72
-104.76472675,40.83037162,1651.78
-104.76474921,40.83035806,1651.79
-104.76484037,40.83030302,1651.86
-104.76485155,40.83029629,1651.81
-104.76489707,40.83026882,1651.83
-104.76492321,40.83025302,1651.86
-104.76496101,40.83023021,1651.82
-104.76499916,40.83020723,1651.81
-104.76504433,40.83018002,1651.76
-104.76510102,40.83014582,1651.86
-104.76513477,40.83012544,1651.81
-104.76519135,40.83009132,1651.82
-104.76522938,40.83006833,1651.86
-104.76525897,40.83005047,1651.87
-104.76527799,40.83003898,1651.89
-104.76528572,40.83003431,1651.90
-104.76532292,40.83001186,1651.91
-104.76533825,40.83000261,1651.91
-104.76536428,40.82998690,1651.93
-104.76538317,40.82997550,1651.96
-104.76542061,40.82995287,1651.98
-104.76544724,40.82993680,1651.99
-104.76551867,40.82989380,1651.97
-104.76553744,40.82988249,1651.96
-104.76560495,40.82984172,1651.99
-104.76564619,40.82981685,1651.93
-104.76566878,40.82980321,1652.02
-104.76569148,40.82978947,1651.97
-104.76572523,40.82976909,1652.00
-104.76573700,40.82976200,1652.00
-104.76576279,40.82974646,1652.01
-104.76578157,40.82973515,1651.98
-104.76579690,40.82972590,1652.00
-104.76584182,40.82969879,1652.00
-104.76587926,40.82967616,1651.98
-104.76590220,40.82966234,1651.95
-104.76591706,40.82965336,1651.96
-104.76594713,40.82963522,1652.07
-104.76597708,40.82961718,1652.15
-104.76601107,40.82959662,1652.27
-104.76608975,40.82954903,1652.48
-104.76611245,40.82953529,1652.57
-104.76615001,40.82951258,1652.67
-104.76616130,40.82950575,1652.69
-104.76619172,40.82948735,1652.71
-104.76619529,40.82948519,1652.80
-104.76625162,40.82945108,1653.07
-104.76626648,40.82944210,1653.10
-104.76630071,40.82942136,1653.28
-104.76633387,40.82940125,1653.49
-104.76634528,40.82939433,1653.53
-104.76638295,40.82937153,1653.76
-104.76645058,40.82933058,1654.19
-104.76646983,40.82931891,1654.30
-104.76649170,40.82930562,1654.47
-104.76650680,40.82929647,1654.61
-104.76652962,40.82928264,1654.76
-104.76654423,40.82927375,1654.94
-104.76657823,40.82925310,1655.24
-104.76661543,40.82923056,1655.42
-104.76663848,40.82921656,1655.61
-104.76665298,40.82920776,1655.75
-104.76670944,40.82917346,1656.08
-104.76676958,40.82913692,1656.57
-104.76678835,40.82912551,1656.69
-104.76679976,40.82911860,1656.82
-104.76680761,40.82911384,1656.83
-104.76681842,40.82910729,1656.90
-104.76685622,40.82908439,1657.19
-104.76688248,40.82906841,1657.40
-104.76690863,40.82905252,1657.63
-104.76692753,40.82904103,1657.83
-104.76696865,40.82901607,1658.38
-104.76702083,40.82898428,1659.04
-104.76703984,40.82897270,1659.24
-104.76707348,40.82895223,1659.62
-104.76707716,40.82894998,1659.64
-104.76710331,40.82893409,1659.90
-104.76712613,40.82892026,1660.04
-104.76714907,40.82890635,1660.19
-104.76716000,40.82889970,1660.26
-104.76718282,40.82888587,1660.44
-104.76720219,40.82887411,1660.57
-104.76722073,40.82886289,1660.71
-104.76723571,40.82885382,1660.80
-104.76725888,40.82883972,1661.03
-104.76727754,40.82882841,1661.16
-104.76729632,40.82881701,1661.28
-104.76730785,40.82881000,1661.37
-104.76733816,40.82879160,1661.57
-104.76735325,40.82878244,1661.71
-104.76736478,40.82877544,1661.81
-104.76739128,40.82875936,1661.99
-104.76740257,40.82875254,1662.08
-104.76744072,40.82872938,1662.35
-104.76745201,40.82872255,1662.45
-104.76745974,40.82871788,1662.49
-104.76747507,40.82870864,1662.60
-104.76749432,40.82869696,1662.72
-104.76749801,40.82869472,1662.74
-104.76751322,40.82868547,1662.89
-104.76754020,40.82866913,1663.06
-104.76755886,40.82865782,1663.19
-104.76758596,40.82864139,1663.36
-104.76761258,40.82862522,1663.60
-104.76763540,40.82861140,1663.73
-104.76765893,40.82859712,1663.90
-104.76767367,40.82858814,1664.03
-104.76770445,40.82856947,1664.27
-104.76772370,40.82855779,1664.45
-104.76773880,40.82854864,1664.53
-104.76775021,40.82854172,1664.65
-104.76777766,40.82852502,1664.83
-104.76778859,40.82851838,1664.92
-104.76781189,40.82850428,1665.11
-104.76782758,40.82849476,1665.23
-104.76783899,40.82848785,1665.31
-104.76784635,40.82848336,1665.38
-104.76785800,40.82847627,1665.48
-104.76787725,40.82846459,1665.63
-104.76788926,40.82845732,1665.72
-104.76794714,40.82842222,1666.24
-104.76795082,40.82841997,1666.27
-104.76796603,40.82841072,1666.42
-104.76796972,40.82840848,1666.45
-104.76798921,40.82839663,1666.61
-104.76800109,40.82838944,1666.66
-104.76801262,40.82838244,1666.77
-104.76802403,40.82837553,1666.86
-104.76804329,40.82836385,1667.01
-104.76804745,40.82836134,1667.04
-104.76805113,40.82835909,1667.06
-104.76806325,40.82835173,1667.18
-104.76809760,40.82833090,1667.43
-104.76810556,40.82832605,1667.54
-104.76812149,40.82831636,1667.64
-104.76813646,40.82830729,1667.73
-104.76815203,40.82829786,1667.90
-104.76816784,40.82828825,1667.97
-104.76818364,40.82827864,1668.13
-104.76819505,40.82827173,1668.15
-104.76820290,40.82826697,1668.24
-104.76821074,40.82826221,1668.27
-104.76822667,40.82825261,1668.33
-104.76824651,40.82824058,1668.41
-104.76825424,40.82823591,1668.41
-104.76825840,40.82823339,1668.45
-104.76827385,40.82822405,1668.56
-104.76829001,40.82821427,1668.63
-104.76831343,40.82820008,1668.77
-104.76832947,40.82819038,1668.78
-104.76834159,40.82818302,1668.81
-104.76835407,40.82817548,1668.77
-104.76836215,40.82817063,1668.75
-104.76837832,40.82816102,1668.71
-104.76839436,40.82815133,1668.65
-104.76841100,40.82814136,1668.60
-104.76889221,40.82791756,1665.66
-104.76891892,40.82790843,1665.53
-104.76892735,40.82790556,1665.49
-104.76894493,40.82789956,1665.44
-104.76897141,40.82789052,1665.27
-104.76897615,40.82788891,1665.24
-104.76900667,40.82787852,1665.12
-104.76901118,40.82787699,1665.07
-104.76901961,40.82787413,1665.06
-104.76902875,40.82787099,1665.04
-104.76904680,40.82786481,1665.00
-104.76907281,40.82785595,1664.85
-104.76909917,40.82784690,1664.77
-104.76911306,40.82784216,1664.74
-104.76913016,40.82783633,1664.67
-104.76915663,40.82782729,1664.53
-104.76917480,40.82782111,1664.44
-104.76917955,40.82781950,1664.41
-104.76919653,40.82781367,1664.36
-104.76920543,40.82781063,1664.33
-104.76921850,40.82780615,1664.29
-104.76924129,40.82779836,1664.20
-104.76925863,40.82779245,1664.17
-104.76927644,40.82778636,1664.07
-104.76928962,40.82778188,1663.99
-104.76930327,40.82777722,1663.93
-104.76932108,40.82777113,1663.83
-104.76935647,40.82775904,1663.71
-104.76937926,40.82775125,1663.65
-104.76939209,40.82774686,1663.58
-104.76941857,40.82773782,1663.54
-104.76944611,40.82772841,1663.43
-104.76945478,40.82772546,1663.38
-104.76947235,40.82771946,1663.29
-104.76950857,40.82770710,1663.18
-104.76951332,40.82770549,1663.16
-104.76954419,40.82769492,1663.07
-104.76955286,40.82769196,1663.05
-104.76956651,40.82768730,1662.96
-104.76958040,40.82768256,1662.95
-104.76960237,40.82767503,1662.88
-104.76962469,40.82766742,1662.82
-104.76964298,40.82766115,1662.83
-104.76967385,40.82765058,1662.77
-104.76969190,40.82764440,1662.74
-104.76970080,40.82764136,1662.76
-104.76971018,40.82763813,1662.73
-104.76973203,40.82763061,1662.70
-104.76974117,40.82762748,1662.70
-104.76975008,40.82762443,1662.68
-104.76976373,40.82761977,1662.67
-104.76977264,40.82761673,1662.65
-104.76982179,40.82759998,1662.58
-104.76982654,40.82759837,1662.58
-104.76984958,40.82759049,1662.54
-104.76985848,40.82758744,1662.52
-104.76989873,40.82757365,1662.50
-104.76991726,40.82756729,1662.46
-104.76993471,40.82756129,1662.43
-104.76995276,40.82755511,1662.43
-104.76997081,40.82754893,1662.41
-104.76999812,40.82753962,1662.43
-104.77002507,40.82753039,1662.45
-104.77006164,40.82751785,1662.43
-104.77010237,40.82750388,1662.43
-104.77012089,40.82749752,1662.44
-104.77013834,40.82749152,1662.45
-104.77014748,40.82748838,1662.40
-104.77018904,40.82747414,1662.42
-104.77020662,40.82746814,1662.41
-104.77023404,40.82745874,1662.41
-104.77028925,40.82743984,1662.30
-104.77033972,40.82742255,1662.26
-104.77039077,40.82740509,1662.15
-104.77040882,40.82739891,1662.11
-104.77043625,40.82738951,1662.08
-104.77046926,40.82737822,1661.99
-104.77047816,40.82737518,1661.97
-104.77049205,40.82737043,1661.95
-104.77050571,40.82736577,1661.93
-104.77054335,40.82735287,1661.88
-104.77056638,40.82734499,1661.82
-104.77058027,40.82734025,1661.80
-104.77059440,40.82733541,1661.78
-104.77060853,40.82733057,1661.77
-104.77061768,40.82732744,1661.75
-104.77065959,40.82731311,1661.65
-104.77070174,40.82729869,1661.53
-104.77075386,40.82728095,1661.38
-104.77077227,40.82727469,1661.35
-104.77082914,40.82725525,1661.11
-104.77084826,40.82724871,1661.06
-104.77086239,40.82724387,1661.00
-104.77089599,40.82723241,1660.88
-104.77091985,40.82722426,1660.77
-104.77096284,40.82720957,1660.62
-104.77099145,40.82719981,1660.51
-104.77101508,40.82719175,1660.42
-104.77102505,40.82718835,1660.41
-104.77108216,40.82716882,1660.31
-104.77109712,40.82716372,1660.18
-104.77112574,40.82715395,1660.08
-104.77115483,40.82714401,1659.94
-104.77119876,40.82712905,1659.66
-104.77122322,40.82712072,1659.50
-104.77124317,40.82711392,1659.38
-104.77124815,40.82711222,1659.33
-104.77127202,40.82710406,1659.22
-104.77128199,40.82710066,1659.18
-104.77131643,40.82708893,1659.04
-104.77135988,40.82707406,1658.91
-104.77138446,40.82706564,1658.84
-104.77138957,40.82706385,1658.83
-104.77138592,40.82705465,1658.82
-104.77137555,40.82703626,1658.81
-104.77131032,40.82693352,1658.49
-104.77125382,40.82684503,1658.26
-104.77123671,40.82681906,1657.92
-104.77123069,40.82680995,1658.10
-104.77118432,40.82674022,1658.07
-104.77116084,40.82670558,1657.89
-104.77111506,40.82663810,1657.64
-104.77105972,40.82655728,1657.38
-104.77104910,40.82654248,1657.32
-104.77100649,40.82648330,1657.22
-104.77098158,40.82644938,1657.12
-104.77096222,40.82642340,1657.07
-104.77091157,40.82635781,1656.93
-104.77088607,40.82632487,1656.87
-104.77073210,40.82612656,1651.09
-104.77053354,40.82589771,1655.08
-104.77048511,40.82584095,1654.88
-104.77037962,40.82572129,1654.67
-104.77032315,40.82566037,1654.75
-104.77031570,40.82565234,1654.80
-104.77026655,40.82560026,1654.86
-104.77020321,40.82553374,1654.98
-104.77016882,40.82549809,1655.09
-104.77014034,40.82546939,1655.15
-104.77011234,40.82544104,1655.21
-104.77007723,40.82540656,1655.37
-104.77006258,40.82539257,1655.43
-104.76999296,40.82532523,1655.78
-104.76993728,40.82527233,1656.06
-104.76989425,40.82523287,1656.27
-104.76979543,40.82514196,1656.78
-104.76976717,40.82511695,1656.87
-104.76974589,40.82509844,1656.98
-104.76968346,40.82504282,1657.35
-104.76962872,40.82499614,1657.73
-104.76957527,40.82495027,1657.92
-104.76956215,40.82493916,1657.92
-104.76949948,40.82488508,1658.07
-104.76942203,40.82481898,1658.09
-104.76937166,40.82477699,1658.12
-104.76934115,40.82475161,1658.18
-104.76928392,40.82470348,1658.30
-104.76923591,40.82466357,1658.35
-104.76920883,40.82464145,1658.39
-104.76916945,40.82460930,1658.39
-104.76913386,40.82458094,1658.34
-104.76908572,40.82454184,1658.39
-104.76903771,40.82450381,1658.34
-104.76896485,40.82444727,1658.37
-104.76894581,40.82443309,1658.35
-104.76889684,40.82439642,1658.35
-104.76886952,40.82437538,1658.35
-104.76884539,40.82435749,1658.34
-104.76881795,40.82433717,1658.36
-104.76881263,40.82433319,1658.37
-104.76879950,40.82432344,1658.35
-104.76875372,40.82428965,1658.26
-104.76872710,40.82427095,1658.33
-104.76868274,40.82423879,1658.30
-104.76866500,40.82422606,1658.24
-104.76864252,40.82420998,1658.22
-104.76861638,40.82419092,1658.21
-104.76858503,40.82416851,1658.15
-104.76854553,40.82413906,1658.06
-104.76854091,40.82413563,1658.05
-104.76851075,40.82411332,1657.94
-104.76847586,40.82408722,1657.86
-104.76846663,40.82408053,1657.84
-104.76843245,40.82405497,1657.74
-104.76838490,40.82401983,1657.64
-104.76837650,40.82401387,1657.63
-104.76832540,40.82397602,1657.48
-104.76829973,40.82395651,1657.40
-104.76824792,40.82391956,1657.28
-104.76820191,40.82388379,1657.10
-104.76815507,40.82384956,1657.06
-104.76814218,40.82384025,1657.05
-104.76810764,40.82381514,1656.99
-104.76809581,40.82380602,1657.02
-104.76807085,40.82378768,1656.99
-104.76804104,40.82376582,1656.96
-104.76800745,40.82374098,1656.92
-104.76799988,40.82373520,1656.90
-104.76795232,40.82370186,1656.88
-104.76793932,40.82369148,1656.89
-104.76793187,40.82368524,1656.85
-104.76788502,40.82365173,1656.90
-104.76787674,40.82364505,1656.91
-104.76783262,40.82361514,1656.95
-104.76781641,40.82360340,1656.97
-104.76779879,40.82359057,1656.98
-104.76775799,40.82355787,1657.00
-104.76781444,40.82311315,1655.53
-104.76781848,40.82311054,1655.52
-104.76782573,40.82310587,1655.47
-104.76782978,40.82310327,1655.45
-104.76783750,40.82309842,1655.41
-104.76784487,40.82309366,1655.33
-104.76785236,40.82308899,1655.31
-104.76786044,40.82308378,1655.25
-104.76786448,40.82308118,1655.24
-104.76786816,40.82307884,1655.22
-104.76787221,40.82307624,1655.19
-104.76787613,40.82307373,1655.17
-104.76787981,40.82307139,1655.15
-104.76788754,40.82306654,1655.15
-104.76789526,40.82306151,1655.08
-104.76789895,40.82305918,1655.06
-104.76790263,40.82305684,1655.06
-104.76790643,40.82305442,1655.05
-104.76791012,40.82305208,1655.05
-104.76791404,40.82304957,1655.02
-104.76791808,40.82304696,1655.02
-104.76792212,40.82304436,1654.98
-104.76792581,40.82304202,1654.95
-104.76792985,40.82303951,1654.93
-104.76793389,40.82303691,1654.90
-104.76794126,40.82303215,1654.87
-104.76794530,40.82302954,1654.83
-104.76795302,40.82302469,1654.84
-104.76795659,40.82302245,1654.84
-104.76796051,40.82301993,1654.83
-104.76797204,40.82301257,1654.76
-104.76797596,40.82301015,1654.76
-104.76798369,40.82300521,1654.73
-104.76799177,40.82300000,1654.67
-104.76799534,40.82299775,1654.71
-104.76799914,40.82299533,1654.66
-104.76800686,40.82299039,1654.64
-104.76801102,40.82298779,1654.62
-104.76801851,40.82298303,1654.59
-104.76802220,40.82298069,1654.58
-104.76802992,40.82297575,1654.55
-104.76804169,40.82296830,1654.52
-104.76804573,40.82296569,1654.50
-104.76804977,40.82296309,1654.48
-104.76805357,40.82296066,1654.46
-104.76806142,40.82295573,1654.43
-104.76806914,40.82295079,1654.42
-104.76808031,40.82294360,1654.36
-104.76808816,40.82293866,1654.32
-104.76809220,40.82293606,1654.30
-104.76809992,40.82293112,1654.27
-104.76810801,40.82292600,1654.25
-104.76811193,40.82292349,1654.24
-104.76811977,40.82291846,1654.19
-104.76812346,40.82291612,1654.17
-104.76813130,40.82291118,1654.15
-104.76814247,40.82290409,1654.12
-104.76814651,40.82290149,1654.10
-104.76815471,40.82289628,1654.08
-104.76815852,40.82289385,1654.07
-104.76816244,40.82289134,1654.09
-104.76817040,40.82288631,1654.04
-104.76818193,40.82287895,1653.99
-104.76818977,40.82287392,1653.95
-104.76819358,40.82287149,1653.91
-104.76819726,40.82286916,1653.92
-104.76820118,40.82286664,1653.92
-104.76821343,40.82285892,1653.87
-104.76822127,40.82285389,1653.86
-104.76822531,40.82285129,1653.84
-104.76822911,40.82284886,1653.81
-104.76823280,40.82284653,1653.80
-104.76824468,40.82283898,1653.79
-104.76824849,40.82283656,1653.78
-104.76825621,40.82283171,1653.75
-104.76827214,40.82282156,1653.72
-104.76827594,40.82281914,1653.71
-104.76828402,40.82281402,1653.71
-104.76829151,40.82280926,1653.70
-104.76829567,40.82280666,1653.68
-104.76831124,40.82279678,1653.66
-104.76831873,40.82279202,1653.64
-104.76832277,40.82278941,1653.63
-104.76833097,40.82278421,1653.61
-104.76833477,40.82278178,1653.60
-104.76834678,40.82277424,1653.58
-104.76835474,40.82276912,1653.57
-104.76836270,40.82276409,1653.55
-104.76837411,40.82275691,1653.52
-104.76838623,40.82274918,1653.46
-104.76839824,40.82274155,1653.45
-104.76840228,40.82273895,1653.43
-104.76841416,40.82273140,1653.40
-104.76842985,40.82272143,1653.33
-104.76844150,40.82271398,1653.31
-104.76844578,40.82271129,1653.25
-104.76845790,40.82270356,1653.24
-104.76847394,40.82269333,1653.15
-104.76847775,40.82269090,1653.16
-104.76848571,40.82268587,1653.11
-104.76849344,40.82268093,1653.07
-104.76850556,40.82267321,1653.04
-104.76851780,40.82266540,1652.99
-104.76852968,40.82265785,1652.95
-104.76854169,40.82265022,1652.93
-104.76854561,40.82264771,1652.92
-104.76854941,40.82264528,1652.92
-104.76856130,40.82263774,1652.90
-104.76856962,40.82263244,1652.89
-104.76857758,40.82262741,1652.88
-104.76858186,40.82262472,1652.85
-104.76858566,40.82262229,1652.84
-104.76858935,40.82261996,1652.87
-104.76859363,40.82261726,1652.84
-104.76860159,40.82261224,1652.85
-104.76860943,40.82260730,1652.84
-104.76861716,40.82260236,1652.81
-104.76862536,40.82259715,1652.81
-104.76863344,40.82259203,1652.82
-104.76863760,40.82258943,1652.81
-104.76864936,40.82258197,1652.82
-104.76865364,40.82257928,1652.80
-104.76866553,40.82257174,1652.80
-104.76866945,40.82256922,1652.81
-104.76867325,40.82256680,1652.81
-104.76867706,40.82256437,1652.80
-104.76867339,40.82256049,1652.78
-104.76865459,40.82254658,1652.79
-104.76864500,40.82254016,1652.79
-104.76855745,40.82248387,1652.55
-104.76850147,40.82244979,1652.47
-104.76845698,40.82242286,1652.47
-104.76809065,40.82218835,1652.08
-104.76797862,40.82211146,1651.87
-104.76787783,40.82204225,1651.78
-104.76786197,40.82203141,1651.78
-104.76775278,40.82195633,1651.81
-104.76751843,40.82179407,1651.75
-104.76750765,40.82179008,1651.77
-104.76749830,40.82178709,1651.81
-104.76748371,40.82178679,1651.82
-104.76745608,40.82178655,1651.86
-104.76734117,40.82178632,1652.16
-104.76684099,40.82178531,1653.57
-104.76653539,40.82178479,1654.54
-104.76615106,40.82178392,1656.19
-104.76608051,40.82178377,1656.49
-104.76604173,40.82178370,1656.64
-104.76592516,40.82178346,1657.28
-104.76585792,40.82178332,1657.69
-104.76576246,40.82178313,1658.34
-104.76564032,40.82178297,1659.01
-104.76512436,40.82178201,1663.06
-104.76498823,40.82178155,1664.48
-104.76468548,40.82178094,1669.29
-104.76465050,40.82178087,1669.51
-104.76462180,40.82178081,1669.76
-104.76455741,40.82178068,1669.37
-104.76451709,40.82178059,1669.28
-104.76438855,40.82178033,1669.97
-104.76436685,40.82178029,1670.38
-104.76426463,40.82178008,1671.12
-104.76417000,40.82177988,1669.54
-104.76412067,40.82177978,1668.17
-104.76399449,40.82177953,1664.52
-104.76388907,40.82177931,1662.55
-104.76361562,40.82177875,1658.89
-104.76355917,40.82177863,1658.28
-104.76349929,40.82177851,1657.61
-104.76340881,40.82177833,1656.61
-104.76326402,40.82177803,1655.29
-104.76324635,40.82177799,1655.15
-104.76317330,40.82177784,1654.54
-104.76310096,40.82177769,1654.00
-104.76297040,40.82177743,1652.90
-104.76295285,40.82177739,1652.74
-104.76292190,40.82177733,1652.52
-104.76286949,40.82177731,1652.10
-104.76284648,40.82177744,1651.98
-104.76283249,40.82177804,1651.84
-104.76283118,40.82177840,1651.83
-104.76283033,40.82178398,1651.81
-104.76283016,40.82179876,1651.79
-104.76282988,40.82184236,1651.75
-104.76282987,40.82184542,1651.75
-104.76282960,40.82192082,1651.57
-104.76282951,40.82194650,1651.56
-104.76282950,40.82194947,1651.54
-104.76282928,40.82201199,1651.43
-104.76282918,40.82203892,1651.33
-104.76282862,40.82219621,1651.18
-104.76282847,40.82223855,1651.07
-104.76282835,40.82227233,1651.06
-104.76282790,40.82239935,1650.92
-104.76282785,40.82241449,1650.88
-104.76282761,40.82248151,1650.77
-104.76282736,40.82255015,1650.52
-104.76282734,40.82255754,1650.51
-104.76282685,40.82269429,1650.30
-104.76282672,40.82273041,1650.20
-104.76282653,40.82278392,1650.18
-104.76282650,40.82279365,1650.18
-104.76282598,40.82293797,1650.06
-104.76282580,40.82298823,1650.01
-104.76282573,40.82300832,1650.00
-104.76282544,40.82308967,1649.83
-104.76282537,40.82310913,1649.76
-104.76282503,40.82320444,1649.55
-104.76282502,40.82320651,1649.57
-104.76282485,40.82325470,1649.49
-104.76282476,40.82328065,1649.39
-104.76282430,40.82341028,1649.17
-104.76282412,40.82346082,1649.11
-104.76282402,40.82348775,1649.08
-104.76282399,40.82349685,1649.07
-104.76282393,40.82351505,1649.02
-104.76282373,40.82357018,1648.99
-104.76282370,40.82357711,1648.98
-104.76282352,40.82362819,1648.90
-104.76282344,40.82365089,1648.88
-104.76282334,40.82367819,1648.85
-104.76282332,40.82368621,1648.85
-104.76282329,40.82369377,1648.87
-104.76282291,40.82379980,1648.72
-104.76282246,40.82392556,1648.57
-104.76282232,40.82396439,1648.45
-104.76282224,40.82398880,1648.42
-104.76282160,40.82416753,1648.11
-104.76282149,40.82420014,1648.07
-104.76282136,40.82423554,1648.03
-104.76282095,40.82435058,1647.83
-104.76282088,40.82436932,1647.86
-104.76282074,40.82440931,1647.69
-104.76282007,40.82459615,1647.44
-104.76281990,40.82464543,1647.36
-104.76281969,40.82470272,1647.34
-104.76281961,40.82472542,1647.28
-104.76281903,40.82488964,1647.15
-104.76281884,40.82494306,1647.14
-104.76281883,40.82494631,1647.16
-104.76281873,40.82497351,1647.18
-104.76281863,40.82500108,1647.25
-104.76281844,40.82505522,1647.26
-104.76281841,40.82506324,1647.25
-104.76281837,40.82507468,1647.24
-104.76281831,40.82509107,1647.23
-104.76281828,40.82509927,1647.22
-104.76281822,40.82511765,1647.23
-104.76281803,40.82517080,1647.26
-104.76281767,40.82527106,1647.33
-104.76281748,40.82532538,1647.35
-104.76281744,40.82533700,1647.38
-104.76281713,40.82542294,1647.39
-104.76281707,40.82543970,1647.39
-104.76281693,40.82547816,1647.41
-104.76281686,40.82549708,1647.39
-104.76281677,40.82552240,1647.40
-104.76281658,40.82557807,1647.45
-104.76281654,40.82558942,1647.50
-104.76281649,40.82560212,1647.45
-104.76281638,40.82563275,1647.47
-104.76281634,40.82564482,1647.47
-104.76281631,40.82565365,1647.54
-104.76281619,40.82568590,1647.52
-104.76281609,40.82571554,1647.51
-104.76281566,40.82583382,1647.55
-104.76281562,40.82584553,1647.52
-104.76281559,40.82585535,1647.49
-104.76281554,40.82586805,1647.48
-104.76281546,40.82589084,1647.53
-104.76281531,40.82593318,1647.53
-104.76281531,40.82593381,1647.57
-104.76281531,40.82593426,1647.54
-104.76281519,40.82596597,1647.56
-104.76281510,40.82599174,1647.61
-104.76281507,40.82600183,1647.66
-104.76281499,40.82602335,1647.62
-104.76281482,40.82607101,1647.68
-104.76281461,40.82612875,1647.70
-104.76281448,40.82616569,1647.65
-104.76281440,40.82619028,1647.57
-104.76281438,40.82619578,1647.60
-104.76281427,40.82622623,1647.57
-104.76281423,40.82623722,1647.59
-104.76281416,40.82625667,1647.57
-104.76281313,40.82654656,1646.75
-104.76281312,40.82654846,1646.73
-104.76281267,40.82667503,1646.92
-104.76281230,40.82677781,1647.31
-104.76281183,40.82691087,1647.92
-104.76281172,40.82694167,1648.00
-104.76281137,40.82703816,1648.29
-104.76281105,40.82712824,1648.43
-104.76280985,40.82746534,1648.74
-104.76280970,40.82750803,1648.81
-104.76280956,40.82754839,1648.89
-104.76280930,40.82762055,1648.99
-104.76280926,40.82763064,1648.99
-104.76280900,40.82770568,1648.98
-104.76280762,40.82809286,1649.24
-104.76280751,40.82812169,1649.32
-104.76280732,40.82817493,1649.49
-104.76280724,40.82819709,1649.70
     </coordinates>
    </LineString>
   </MultiGeometry>
  </Placemark>
 </Document>
</kml>
