<kml>
 <Document>
  <Style id="yellow">
   <LineStyle>
   <color>ff00ffff</color>
   <width>1</width>
   </LineStyle>
  </Style>
  <Style id="red">
   <LineStyle>
   <color>ffff0000</color>
   <width>2</width>
   </LineStyle>
  </Style>
  <Style id="green">
   <LineStyle>
   <color>ff00ff00</color>
   <width>1</width>
   </LineStyle>
  </Style>
  <Placemark>
  <styleUrl>#yellow</styleUrl>
   <MultiGeometry>
    <LineString>
     <coordinates>
-104.74248861,40.83074194,1638.87
-104.74262725,40.83074225,1639.00
-104.74276993,40.83074257,1639.13
-104.74290833,40.83074287,1639.31
-104.74311660,40.83074334,1639.51
-104.74364709,40.83074452,1640.25
-104.74390185,40.83074508,1640.86
-104.74395071,40.83074519,1641.07
-104.74399886,40.83074530,1641.15
-104.74401297,40.83074533,1641.19
-104.74415980,40.83074566,1641.58
-104.74420321,40.83074575,1641.68
-104.74428196,40.83074593,1641.89
-104.74460811,40.83074665,1643.01
-104.74477284,40.83074701,1643.35
-104.74480617,40.83074709,1643.42
-104.74481720,40.83074711,1643.42
-104.74486642,40.83074722,1643.62
-104.74507646,40.83074768,1644.48
-104.74521226,40.83074798,1645.06
-104.74524107,40.83074805,1645.20
-104.74531105,40.83074820,1645.50
-104.74552488,40.83074867,1646.39
-104.74562178,40.83074889,1646.91
-104.74583087,40.83074935,1647.95
-104.74584593,40.83074938,1648.03
-104.74598908,40.83074970,1648.90
-104.74630800,40.83075040,1650.62
-104.74665467,40.83075116,1652.39
-104.74696042,40.83075183,1654.26
-104.74701118,40.83075194,1654.69
-104.74721754,40.83075240,1656.01
-104.74726142,40.83075249,1656.27
-104.74738074,40.83075275,1657.03
-104.74767439,40.83075340,1658.22
-104.74772930,40.83075352,1658.45
-104.74783426,40.83075375,1658.81
-104.74794183,40.83075398,1658.47
-104.74806992,40.83075426,1659.26
-104.74813242,40.83075440,1659.52
-104.74814547,40.83075443,1659.57
-104.74846201,40.83075512,1660.55
-104.74872329,40.83075569,1660.97
-104.74906485,40.83075643,1660.54
-104.74936408,40.83075708,1660.34
-104.74974443,40.83075791,1660.13
-104.74982615,40.83075808,1660.14
-104.75003951,40.83075854,1660.09
-104.75009715,40.83075867,1660.17
-104.75014815,40.83075878,1660.19
-104.75031383,40.83075914,1660.21
-104.75083828,40.83076018,1661.71
-104.75093233,40.83076030,1661.86
-104.75093707,40.83075995,1661.88
-104.75093813,40.83066779,1661.19
-104.75093871,40.83054492,1660.27
-104.75093928,40.83039339,1659.05
-104.75093962,40.83030133,1658.28
-104.75094054,40.82996117,1656.74
-104.75094143,40.82981866,1656.50
-104.75094202,40.82965930,1656.05
-104.75094276,40.82946292,1655.47
-104.75094292,40.82942076,1655.32
-104.75094404,40.82911951,1654.31
-104.75094481,40.82888367,1653.69
-104.75094579,40.82865270,1653.17
-104.75094655,40.82844902,1652.76
-104.75094710,40.82830092,1652.48
-104.75094794,40.82807859,1651.71
-104.75094862,40.82789716,1651.19
-104.75094996,40.82753664,1650.73
-104.75095105,40.82724747,1650.58
-104.75095109,40.82723576,1650.57
-104.75095217,40.82694812,1650.40
-104.75095317,40.82668012,1649.90
-104.75095344,40.82660715,1649.79
-104.75095490,40.82621826,1649.23
-104.75095536,40.82609349,1649.16
-104.75095552,40.82605061,1649.15
-104.75095669,40.82570658,1649.07
-104.75095744,40.82553749,1649.33
-104.75095766,40.82547975,1649.56
-104.75095782,40.82543642,1649.69
-104.75095790,40.82541489,1649.77
-104.75095833,40.82530129,1650.21
-104.75095869,40.82520481,1650.65
-104.75095872,40.82519734,1650.64
-104.75095877,40.82518355,1650.78
-104.75095910,40.82509428,1651.08
-104.75096033,40.82473295,1652.79
-104.75096145,40.82446576,1654.23
-104.75096174,40.82438811,1654.57
-104.75096240,40.82421217,1655.53
-104.75096385,40.82379436,1657.47
-104.75096482,40.82353303,1657.17
-104.75096654,40.82310504,1656.57
-104.75096657,40.82309792,1656.54
-104.75096720,40.82292847,1656.22
-104.75096724,40.82291847,1656.20
-104.75096742,40.82287037,1656.18
-104.75096784,40.82275866,1656.18
-104.75096820,40.82266110,1656.22
-104.75096894,40.82246472,1656.70
-104.75096998,40.82218663,1656.82
-104.75097026,40.82211123,1656.75
-104.75097100,40.82188214,1656.39
-104.75097090,40.82184467,1656.36
-104.75097071,40.82180170,1656.33
-104.75097055,40.82177890,1656.29
-104.75096767,40.82175665,1656.29
-104.75095251,40.82175211,1656.31
-104.75075957,40.82175178,1656.41
-104.75035722,40.82175082,1656.32
-104.75021634,40.82175052,1656.22
-104.75009835,40.82175026,1656.00
-104.74995344,40.82174995,1655.68
-104.74981529,40.82174965,1655.40
-104.74975363,40.82174952,1655.26
-104.74975149,40.82174951,1655.24
-104.74969054,40.82174938,1655.16
-104.74954468,40.82174906,1654.76
-104.74946654,40.82174889,1654.60
-104.74926554,40.82174846,1654.17
-104.74909762,40.82174809,1653.72
-104.74890682,40.82174768,1653.64
-104.74866337,40.82174715,1653.40
-104.74860775,40.82174703,1653.23
-104.74844185,40.82174666,1652.91
-104.74833062,40.82174642,1652.76
-104.74816484,40.82174606,1652.67
-104.74809677,40.82174591,1652.74
-104.74803286,40.82174577,1652.75
-104.74789815,40.82174548,1652.93
-104.74783518,40.82174534,1653.02
-104.74777790,40.82174521,1653.17
-104.74774731,40.82174515,1653.21
-104.74771588,40.82174508,1653.20
-104.74765825,40.82174495,1653.25
-104.74757916,40.82174478,1653.19
-104.74752164,40.82174465,1653.09
-104.74742085,40.82174443,1652.95
-104.74732479,40.82174422,1652.70
-104.74678037,40.82174303,1650.93
-104.74632015,40.82174211,1649.39
-104.74585080,40.82174099,1647.29
-104.74566723,40.82174058,1646.52
-104.74563130,40.82174050,1646.35
-104.74539769,40.82173999,1645.29
-104.74539674,40.82173998,1645.30
-104.74497588,40.82173905,1643.94
-104.74486359,40.82173881,1643.83
-104.74472306,40.82173850,1643.73
-104.74425098,40.82173745,1643.47
-104.74421197,40.82173736,1643.45
-104.74413999,40.82173720,1643.34
-104.74388136,40.82173663,1643.20
-104.74347793,40.82173573,1643.11
-104.74335484,40.82173546,1643.08
-104.74316523,40.82173504,1643.04
-104.74303111,40.82173474,1643.00
-104.74296352,40.82173459,1642.93
-104.74283142,40.82173429,1642.84
-104.74242455,40.82173339,1642.64
-104.74222272,40.82173294,1642.57
-104.74195401,40.82173234,1642.68
-104.74167534,40.82173171,1643.17
-104.74146450,40.82173124,1643.65
-104.74140556,40.82173111,1643.76
-104.74123646,40.82173073,1644.00
-104.74089376,40.82172996,1644.65
-104.74078845,40.82172972,1644.88
-104.74025127,40.82172851,1646.34
-104.73987180,40.82172775,1647.71
-104.73956514,40.82172697,1648.94
-104.73950822,40.82172684,1649.12
-104.73939296,40.82172658,1649.57
-104.73937102,40.82172653,1649.60
-104.73913374,40.82172608,1650.51
-104.73911736,40.82172866,1650.71
-104.73911520,40.82173586,1650.71
-104.73911359,40.82175216,1650.81
-104.73911344,40.82176153,1650.89
-104.73911292,40.82183450,1651.31
-104.73911278,40.82186819,1651.53
-104.73911241,40.82196224,1652.10
-104.73911200,40.82206728,1652.79
-104.73911028,40.82250815,1655.94
-104.73911020,40.82252671,1656.04
-104.73911017,40.82253499,1656.10
-104.73910993,40.82259760,1656.55
-104.73910876,40.82289605,1658.00
-104.73910858,40.82294055,1658.18
-104.73910754,40.82320531,1658.84
-104.73910672,40.82341494,1659.16
-104.73910535,40.82376437,1659.08
-104.73910530,40.82377744,1659.08
-104.73910524,40.82379437,1659.02
-104.73910501,40.82385157,1658.86
-104.73910494,40.82386869,1658.74
-104.73910474,40.82392175,1658.57
-104.73910385,40.82414759,1657.55
-104.73910382,40.82415597,1657.43
-104.73910336,40.82427182,1656.67
-104.73910312,40.82433317,1656.18
-104.73910270,40.82444028,1655.45
-104.73910194,40.82463549,1653.99
-104.73910189,40.82464765,1653.93
-104.73910161,40.82471855,1653.59
-104.73910159,40.82472386,1653.57
-104.73910038,40.82503393,1651.81
-104.73909947,40.82526581,1650.54
-104.73909873,40.82545498,1649.72
-104.73909808,40.82562056,1649.16
-104.73909788,40.82567001,1649.06
-104.73909722,40.82583856,1648.42
-104.73909670,40.82597117,1647.74
-104.73909603,40.82614413,1646.84
-104.73909588,40.82618232,1646.60
-104.73909545,40.82629105,1645.97
-104.73909509,40.82638240,1645.37
-104.73909412,40.82663112,1644.07
-104.73909363,40.82675562,1643.42
-104.73909338,40.82682012,1643.11
-104.73909331,40.82683715,1643.03
-104.73909315,40.82687741,1642.79
-104.73909303,40.82691002,1642.65
-104.73909230,40.82709632,1641.84
-104.73909202,40.82716577,1641.51
-104.73909194,40.82718658,1641.45
-104.73909077,40.82751593,1640.21
-104.73908992,40.82770312,1639.61
-104.73908959,40.82778672,1639.40
-104.73908929,40.82786320,1639.23
-104.73908919,40.82788807,1639.15
-104.73908918,40.82789050,1639.11
-104.73908870,40.82801446,1638.68
-104.73908807,40.82817517,1638.22
-104.73908771,40.82826732,1637.92
-104.73908672,40.82851739,1637.36
-104.73908671,40.82852163,1637.37
-104.73908615,40.82866297,1637.06
-104.73908588,40.82873216,1636.87
-104.73908587,40.82873549,1636.86
-104.73908587,40.82873666,1636.86
-104.73908563,40.82879729,1636.77
-104.73908554,40.82881846,1636.65
-104.73908532,40.82887602,1636.57
-104.73908489,40.82898520,1636.22
-104.73908485,40.82899475,1636.15
-104.73908428,40.82914078,1635.75
-104.73908415,40.82917402,1635.63
-104.73908382,40.82925753,1635.54
-104.73908380,40.82926302,1635.52
-104.73908375,40.82927662,1635.51
-104.73908357,40.82932185,1635.53
-104.73908276,40.82952904,1634.99
-104.73908259,40.82957336,1634.94
-104.73908254,40.82958462,1634.98
-104.73908229,40.82965011,1634.90
-104.73908208,40.82970137,1634.83
-104.73908145,40.82986298,1634.82
-104.73908125,40.82991442,1634.77
-104.73908118,40.82993280,1634.75
-104.73908057,40.83008783,1634.81
-104.73908048,40.83011017,1634.81
-104.73908033,40.83014783,1634.80
-104.73908012,40.83020260,1634.81
-104.73908008,40.83021314,1634.79
-104.73907969,40.83031313,1634.83
-104.73907961,40.83033169,1634.81
-104.73907954,40.83034962,1634.81
-104.73907892,40.83050762,1634.86
-104.73907805,40.83073166,1635.01
-104.73910579,40.83073380,1634.97
-104.73911895,40.83073410,1634.97
-104.73917422,40.83073440,1634.94
-104.73929602,40.83073477,1635.04
-104.73958541,40.83073542,1635.59
-104.73977493,40.83073585,1635.59
-104.74002897,40.83073642,1635.49
-104.74019216,40.83073679,1635.56
-104.74032511,40.83073709,1635.77
-104.74043600,40.83073734,1635.92
-104.74057820,40.83073766,1636.14
-104.74061165,40.83073773,1636.07
-104.74095950,40.83073851,1636.59
-104.74111653,40.83073887,1636.97
-104.74115887,40.83073896,1637.03
-104.74126454,40.83073920,1637.17
-104.74132337,40.83073933,1637.22
-104.74154610,40.83073983,1637.52
-104.74158168,40.83073991,1637.56
-104.74163327,40.83074003,1637.51
-104.74188660,40.83074059,1637.94
-104.74207956,40.83074102,1638.30
-104.74241496,40.83074177,1638.81
-104.74248861,40.83074194,1638.87
     </coordinates>
    </LineString>
   </MultiGeometry>
  </Placemark>
 </Document>
</kml>
