<kml>
 <Document>
  <Style id="yellow">
   <LineStyle>
   <color>ff00ffff</color>
   <width>1</width>
   </LineStyle>
  </Style>
  <Style id="red">
   <LineStyle>
   <color>ffff0000</color>
   <width>2</width>
   </LineStyle>
  </Style>
  <Style id="green">
   <LineStyle>
   <color>ff00ff00</color>
   <width>1</width>
   </LineStyle>
  </Style>
  <Placemark>
  <styleUrl>#yellow</styleUrl>
   <MultiGeometry>
    <LineString>
     <coordinates>
-104.71760765,40.80365819,1630.33
-104.71781820,40.80365871,1630.64
-104.71786716,40.80365883,1630.75
-104.71796994,40.80365908,1630.90
-104.71801416,40.80365918,1631.00
-104.71813283,40.80365948,1631.20
-104.71817432,40.80365958,1631.27
-104.71839352,40.80366011,1631.58
-104.71847319,40.80366031,1631.80
-104.71877680,40.80366105,1632.33
-104.71898024,40.80366154,1632.79
-104.71911764,40.80366188,1632.98
-104.71922979,40.80366215,1632.96
-104.71933257,40.80366240,1633.12
-104.71973007,40.80366337,1633.84
-104.71977050,40.80366346,1633.92
-104.71982669,40.80366360,1634.07
-104.71997215,40.80366395,1634.36
-104.71998211,40.80366398,1634.39
-104.72004981,40.80366414,1634.49
-104.72027363,40.80366469,1634.66
-104.72033279,40.80366483,1634.74
-104.72052828,40.80366530,1635.04
-104.72057855,40.80366542,1635.08
-104.72088998,40.80366618,1635.49
-104.72094416,40.80366631,1635.67
-104.72137687,40.80366726,1637.45
-104.72169980,40.80366813,1638.39
-104.72191782,40.80366866,1638.70
-104.72202499,40.80366892,1639.08
-104.72225344,40.80366947,1639.56
-104.72237744,40.80366977,1639.73
-104.72249564,40.80367005,1639.89
-104.72285094,40.80367090,1639.73
-104.72307761,40.80367145,1639.26
-104.72318715,40.80367171,1638.90
-104.72331246,40.80367201,1638.47
-104.72348009,40.80367241,1637.90
-104.72354482,40.80367257,1637.66
-104.72391411,40.80367345,1635.84
-104.72401843,40.80367370,1635.29
-104.72454255,40.80367495,1633.33
-104.72459898,40.80367509,1633.23
-104.72476495,40.80367549,1632.88
-104.72492286,40.80367586,1632.54
-104.72496364,40.80367596,1632.50
-104.72540632,40.80367701,1632.74
-104.72559066,40.80367745,1633.12
-104.72564247,40.80367758,1633.20
-104.72567460,40.80367765,1633.26
-104.72587270,40.80367812,1633.84
-104.72605740,40.80367856,1634.30
-104.72626403,40.80367905,1635.02
-104.72641341,40.80367941,1635.55
-104.72643356,40.80367945,1635.63
-104.72673883,40.80368018,1636.90
-104.72678566,40.80368029,1637.09
-104.72688619,40.80368053,1637.57
-104.72703592,40.80368088,1638.32
-104.72713835,40.80368112,1638.80
-104.72718032,40.80368122,1639.03
-104.72719822,40.80368126,1639.10
-104.72726840,40.80368143,1639.44
-104.72732792,40.80368130,1639.68
-104.72732843,40.80367256,1639.69
-104.72732863,40.80365184,1639.76
-104.72732936,40.80350348,1639.83
-104.72732965,40.80343186,1640.02
-104.72732983,40.80338799,1640.02
-104.72732987,40.80337907,1640.04
-104.72733005,40.80333421,1640.03
-104.72733023,40.80329043,1639.95
-104.72733046,40.80323385,1639.83
-104.72733067,40.80318205,1639.71
-104.72733078,40.80315503,1639.66
-104.72733217,40.80281658,1638.13
-104.72733364,40.80242724,1635.68
-104.72733472,40.80219302,1634.40
-104.72733534,40.80204104,1633.62
-104.72733556,40.80198726,1633.35
-104.72733626,40.80181637,1632.59
-104.72733648,40.80176394,1632.37
-104.72733678,40.80168872,1632.06
-104.72733680,40.80168386,1632.06
-104.72733750,40.80151279,1631.26
-104.72733756,40.80149801,1631.19
-104.72733774,40.80145369,1631.05
-104.72733819,40.80134460,1630.84
-104.72733851,40.80126776,1630.73
-104.72733871,40.80121740,1630.69
-104.72733876,40.80120488,1630.70
-104.72733882,40.80119002,1630.68
-104.72733927,40.80108119,1630.66
-104.72733929,40.80107543,1630.65
-104.72733942,40.80104444,1630.58
-104.72733950,40.80102534,1630.58
-104.72734000,40.80090247,1630.49
-104.72734111,40.80063086,1629.99
-104.72734132,40.80058104,1629.89
-104.72734262,40.80026179,1629.35
-104.72734344,40.80006117,1629.25
-104.72734355,40.80003450,1629.21
-104.72734362,40.80001793,1629.21
-104.72734511,40.79965435,1629.95
-104.72734574,40.79949985,1629.79
-104.72734593,40.79945274,1630.07
-104.72734610,40.79941085,1630.22
-104.72734629,40.79936436,1630.46
-104.72734756,40.79905573,1631.98
-104.72734820,40.79889854,1632.88
-104.72734837,40.79885584,1633.15
-104.72734851,40.79882395,1633.39
-104.72734857,40.79880701,1633.51
-104.72734868,40.79878161,1633.69
-104.72734905,40.79869053,1634.38
-104.72734942,40.79860153,1635.07
-104.72734976,40.79851658,1635.67
-104.72734992,40.79847757,1635.97
-104.72735012,40.79842893,1636.30
-104.72735095,40.79822687,1637.68
-104.72735103,40.79820588,1637.81
-104.72735164,40.79805895,1638.54
-104.72735213,40.79793688,1638.85
-104.72735230,40.79789554,1639.07
-104.72735320,40.79767663,1639.89
-104.72735323,40.79767005,1639.93
-104.72735370,40.79755330,1640.13
-104.72735387,40.79751349,1640.13
-104.72735453,40.79735179,1640.37
-104.72735462,40.79732836,1640.42
-104.72735485,40.79727269,1640.76
-104.72735551,40.79711081,1641.34
-104.72735573,40.79705712,1641.48
-104.72735575,40.79705234,1641.52
-104.72735605,40.79697992,1641.62
-104.72735642,40.79688902,1642.01
-104.72735648,40.79687515,1642.04
-104.72735690,40.79677101,1642.24
-104.72735701,40.79674444,1642.25
-104.72735732,40.79666985,1642.16
-104.72735732,40.79666967,1642.15
-104.72735761,40.79659760,1642.11
-104.72735767,40.79658300,1642.14
-104.72735784,40.79654147,1641.92
-104.72735801,40.79650067,1641.77
-104.72735841,40.79640274,1641.20
-104.72735876,40.79631734,1640.87
-104.72735896,40.79626897,1640.68
-104.72735923,40.79620258,1640.20
-104.72735939,40.79616438,1639.98
-104.72735973,40.79608024,1639.72
-104.72736059,40.79587107,1638.84
-104.72736139,40.79567486,1637.94
-104.72736153,40.79564036,1637.81
-104.72736202,40.79552028,1637.12
-104.72736203,40.79551920,1637.09
-104.72736226,40.79546181,1636.67
-104.72736286,40.79531614,1635.68
-104.72736313,40.79524858,1635.21
-104.72736443,40.79493220,1633.28
-104.72736463,40.79488365,1633.79
-104.72736466,40.79487608,1633.93
-104.72736512,40.79476312,1634.92
-104.72736515,40.79475555,1634.97
-104.72736504,40.79469636,1635.11
-104.72736461,40.79468357,1635.16
-104.72736429,40.79467528,1635.19
-104.72736264,40.79467320,1635.18
-104.72731938,40.79467310,1634.99
-104.72705409,40.79467247,1633.96
-104.72704829,40.79467246,1633.95
-104.72697847,40.79467230,1633.75
-104.72689869,40.79467211,1633.45
-104.72682129,40.79467192,1633.16
-104.72671805,40.79467168,1632.76
-104.72642645,40.79467099,1631.78
-104.72635023,40.79467081,1631.53
-104.72631989,40.79467074,1631.46
-104.72617729,40.79467040,1631.09
-104.72614718,40.79467033,1630.99
-104.72610925,40.79467024,1630.91
-104.72602959,40.79467005,1630.69
-104.72593133,40.79466981,1630.48
-104.72581753,40.79466954,1630.36
-104.72574665,40.79466937,1630.28
-104.72562503,40.79466909,1630.09
-104.72555533,40.79466892,1630.02
-104.72546655,40.79466871,1629.82
-104.72534789,40.79466843,1629.52
-104.72517709,40.79466802,1629.14
-104.72513512,40.79466792,1629.06
-104.72509387,40.79466782,1629.01
-104.72487861,40.79466731,1628.49
-104.72469868,40.79466688,1628.15
-104.72437472,40.79466611,1627.42
-104.72434947,40.79466605,1627.37
-104.72431474,40.79466596,1627.24
-104.72416029,40.79466559,1626.90
-104.72415661,40.79466558,1626.90
-104.72411228,40.79466548,1626.83
-104.72408988,40.79466543,1626.79
-104.72400892,40.79466523,1626.62
-104.72398841,40.79466518,1626.58
-104.72374387,40.79466460,1626.24
-104.72371329,40.79466452,1626.17
-104.72351972,40.79466406,1625.88
-104.72348748,40.79466398,1625.86
-104.72342264,40.79466383,1625.74
-104.72339965,40.79466377,1625.66
-104.72339834,40.79466377,1625.64
-104.72335934,40.79466368,1625.60
-104.72334453,40.79466364,1625.54
-104.72328965,40.79466351,1625.46
-104.72323927,40.79466339,1625.40
-104.72309383,40.79466304,1625.15
-104.72280199,40.79466234,1624.66
-104.72254062,40.79466171,1624.40
-104.72247163,40.79466154,1624.37
-104.72231979,40.79466118,1624.22
-104.72205569,40.79466054,1623.53
-104.72200401,40.79466042,1623.51
-104.72174833,40.79465980,1623.25
-104.72171028,40.79465971,1623.19
-104.72162849,40.79465951,1623.08
-104.72147380,40.79465914,1622.75
-104.72131070,40.79465875,1622.41
-104.72123531,40.79465856,1622.26
-104.72091586,40.79465779,1622.47
-104.72089962,40.79465775,1622.52
-104.72083691,40.79465760,1622.70
-104.72069171,40.79465725,1622.96
-104.72062722,40.79465709,1623.04
-104.72039181,40.79465652,1623.10
-104.72014360,40.79465592,1622.82
-104.72013732,40.79465591,1622.82
-104.72008350,40.79465578,1622.73
-104.71980186,40.79465509,1622.60
-104.71973999,40.79465494,1622.49
-104.71966009,40.79465475,1622.43
-104.71957712,40.79465455,1622.27
-104.71956716,40.79465452,1622.25
-104.71944969,40.79465424,1621.94
-104.71941911,40.79465416,1621.89
-104.71934645,40.79465399,1621.72
-104.71925624,40.79465377,1621.51
-104.71924546,40.79465374,1621.46
-104.71921274,40.79465366,1621.33
-104.71907334,40.79465332,1620.89
-104.71897946,40.79465309,1620.53
-104.71884030,40.79465275,1620.04
-104.71874097,40.79465251,1619.59
-104.71869652,40.79465240,1619.46
-104.71865230,40.79465230,1619.30
-104.71856305,40.79465208,1618.94
-104.71855238,40.79465205,1618.86
-104.71832290,40.79465149,1618.00
-104.71827844,40.79465138,1617.80
-104.71802549,40.79465077,1616.73
-104.71778498,40.79465018,1615.63
-104.71776151,40.79465012,1615.58
-104.71772726,40.79465004,1615.42
-104.71772050,40.79465002,1615.40
-104.71763835,40.79464982,1615.04
-104.71739820,40.79464923,1614.03
-104.71713636,40.79464859,1613.33
-104.71706500,40.79464841,1613.24
-104.71683172,40.79464784,1613.09
-104.71665404,40.79464741,1612.97
-104.71660615,40.79464729,1612.97
-104.71629523,40.79464652,1612.79
-104.71626263,40.79464644,1612.77
-104.71588415,40.79464551,1612.63
-104.71558437,40.79464486,1612.90
-104.71554075,40.79464485,1612.96
-104.71553553,40.79464537,1612.98
-104.71553055,40.79464590,1612.98
-104.71551585,40.79464749,1612.99
-104.71551215,40.79465270,1613.04
-104.71551185,40.79469594,1613.09
-104.71551137,40.79480828,1613.39
-104.71551039,40.79503763,1613.94
-104.71551010,40.79510457,1614.21
-104.71550907,40.79534590,1615.02
-104.71550769,40.79569876,1616.28
-104.71550668,40.79590722,1616.91
-104.71550658,40.79593037,1616.97
-104.71550636,40.79598217,1617.18
-104.71550634,40.79598586,1617.17
-104.71550529,40.79623324,1617.87
-104.71550445,40.79642935,1618.28
-104.71550298,40.79682960,1619.16
-104.71550256,40.79690013,1619.35
-104.71550103,40.79723101,1620.17
-104.71549993,40.79751586,1620.79
-104.71549873,40.79776827,1621.15
-104.71549868,40.79778116,1621.17
-104.71549695,40.79818627,1622.33
-104.71549635,40.79832725,1622.71
-104.71549601,40.79840490,1622.91
-104.71549599,40.79841022,1622.96
-104.71549533,40.79856435,1623.42
-104.71549439,40.79878551,1624.02
-104.71549372,40.79894135,1624.36
-104.71549222,40.79929367,1625.37
-104.71549150,40.79951853,1626.10
-104.71549010,40.79979121,1627.33
-104.71548916,40.80001093,1628.78
-104.71548898,40.80005282,1629.07
-104.71548819,40.80023731,1630.38
-104.71548703,40.80050981,1632.92
-104.71548679,40.80056630,1633.40
-104.71548619,40.80070638,1634.68
-104.71548578,40.80080268,1635.61
-104.71548570,40.80082043,1635.73
-104.71548460,40.80107933,1637.91
-104.71548427,40.80115446,1638.24
-104.71548389,40.80124481,1638.28
-104.71548328,40.80138805,1637.75
-104.71548259,40.80154867,1636.75
-104.71548254,40.80156146,1636.64
-104.71548235,40.80160542,1636.41
-104.71548220,40.80163983,1636.23
-104.71548179,40.80173676,1635.63
-104.71548100,40.80192198,1634.51
-104.71548089,40.80194639,1634.39
-104.71547933,40.80231348,1632.28
-104.71547885,40.80242375,1631.62
-104.71547788,40.80265256,1630.70
-104.71547702,40.80288093,1629.82
-104.71547562,40.80318100,1628.84
-104.71547476,40.80338152,1628.12
-104.71547396,40.80365277,1627.37
-104.71564207,40.80365336,1627.42
-104.71610252,40.80365450,1627.71
-104.71615124,40.80365462,1627.76
-104.71621182,40.80365477,1627.85
-104.71625640,40.80365488,1627.95
-104.71630856,40.80365500,1627.98
-104.71660802,40.80365574,1628.61
-104.71666090,40.80365587,1628.55
-104.71670381,40.80365598,1628.52
-104.71691969,40.80365651,1628.87
-104.71698596,40.80365667,1629.09
-104.71712076,40.80365700,1629.35
-104.71734731,40.80365755,1629.71
-104.71760765,40.80365819,1630.33
     </coordinates>
    </LineString>
   </MultiGeometry>
  </Placemark>
 </Document>
</kml>
