<kml>
 <Document>
  <Style id="yellow">
   <LineStyle>
   <color>ff00ffff</color>
   <width>1</width>
   </LineStyle>
  </Style>
  <Style id="red">
   <LineStyle>
   <color>ffff0000</color>
   <width>2</width>
   </LineStyle>
  </Style>
  <Style id="green">
   <LineStyle>
   <color>ff00ff00</color>
   <width>1</width>
   </LineStyle>
  </Style>
  <Placemark>
  <styleUrl>#yellow</styleUrl>
   <MultiGeometry>
    <LineString>
     <coordinates>
-104.76511701,40.81277321,1644.84
-104.76531430,40.81277361,1645.39
-104.76534549,40.81277368,1645.43
-104.76552488,40.81277404,1645.99
-104.76564902,40.81277429,1646.34
-104.76578786,40.81277458,1646.79
-104.76591746,40.81277484,1647.30
-104.76599761,40.81277500,1647.58
-104.76604895,40.81277511,1647.78
-104.76612246,40.81277525,1647.99
-104.76615388,40.81277532,1648.10
-104.76625313,40.81277552,1648.31
-104.76663657,40.81277630,1648.39
-104.76667523,40.81277637,1648.34
-104.76682178,40.81277667,1648.22
-104.76703579,40.81277710,1647.91
-104.76714737,40.81277733,1647.78
-104.76751244,40.81277797,1647.20
-104.76781028,40.81277866,1647.04
-104.76781514,40.81277867,1647.03
-104.76786328,40.81277877,1647.00
-104.76791521,40.81277887,1647.03
-104.76825503,40.81277956,1647.13
-104.76859828,40.81278025,1647.46
-104.76878894,40.81278063,1647.75
-104.76889079,40.81278083,1647.90
-104.76900070,40.81278105,1648.10
-104.76913077,40.81278131,1648.31
-104.76918104,40.81278141,1648.40
-104.76921543,40.81278148,1648.48
-104.76931669,40.81278169,1648.69
-104.76952643,40.81278210,1649.14
-104.76968081,40.81278241,1649.41
-104.76981550,40.81278268,1649.56
-104.76988427,40.81278282,1649.64
-104.77036400,40.81278377,1649.40
-104.77047284,40.81278399,1649.40
-104.77056592,40.81278418,1649.42
-104.77064904,40.81278434,1649.43
-104.77074768,40.81278454,1649.47
-104.77077851,40.81278460,1649.51
-104.77091392,40.81278487,1649.49
-104.77100664,40.81278505,1649.40
-104.77109390,40.81278522,1649.15
-104.77114145,40.81278532,1649.00
-104.77131302,40.81278566,1648.31
-104.77136139,40.81278576,1648.06
-104.77144261,40.81278592,1647.57
-104.77157280,40.81278617,1646.73
-104.77166742,40.81278636,1646.02
-104.77189009,40.81278680,1644.57
-104.77197866,40.81278698,1644.08
-104.77202798,40.81278707,1643.83
-104.77206533,40.81278715,1643.69
-104.77207031,40.81278716,1643.68
-104.77227401,40.81278756,1642.81
-104.77267299,40.81278835,1641.10
-104.77298981,40.81278897,1639.93
-104.77342863,40.81278983,1639.31
-104.77370975,40.81279038,1639.74
-104.77394286,40.81279084,1640.07
-104.77428908,40.81279152,1641.45
-104.77465296,40.81279223,1642.96
-104.77470845,40.81279234,1643.23
-104.77471629,40.81278758,1643.30
-104.77471877,40.81275687,1643.44
-104.77471978,40.81252751,1644.54
-104.77472007,40.81244265,1644.85
-104.77472018,40.81240878,1644.91
-104.77472142,40.81204285,1645.48
-104.77472274,40.81165333,1645.63
-104.77472307,40.81155577,1645.83
-104.77472336,40.81146884,1646.09
-104.77472364,40.81138758,1646.34
-104.77472431,40.81118777,1647.02
-104.77472483,40.81103400,1647.44
-104.77472539,40.81086941,1647.48
-104.77472659,40.81051583,1646.36
-104.77472688,40.81042764,1646.02
-104.77472707,40.81037395,1645.83
-104.77472778,40.81016333,1645.85
-104.77472792,40.81012027,1646.24
-104.77472803,40.81009009,1646.75
-104.77472920,40.80974326,1651.43
-104.77472985,40.80954922,1650.96
-104.77473006,40.80948986,1650.16
-104.77473074,40.80928708,1648.37
-104.77473123,40.80914195,1647.00
-104.77473220,40.80885449,1645.71
-104.77473278,40.80864801,1645.06
-104.77473412,40.80825299,1643.91
-104.77473456,40.80815831,1643.71
-104.77473571,40.80781860,1644.45
-104.77473643,40.80760510,1644.36
-104.77473756,40.80726999,1642.93
-104.77473764,40.80724792,1642.85
-104.77473823,40.80703856,1641.47
-104.77473930,40.80675597,1641.08
-104.77474068,40.80631239,1643.87
-104.77474168,40.80605087,1646.02
-104.77474251,40.80577125,1646.77
-104.77474346,40.80552451,1646.58
-104.77474398,40.80537262,1645.76
-104.77474411,40.80533245,1645.50
-104.77474467,40.80513309,1645.23
-104.77474587,40.80481212,1646.43
-104.77474597,40.80478401,1646.54
-104.77474668,40.80457438,1647.90
-104.77474686,40.80452150,1648.20
-104.77474690,40.80450781,1648.31
-104.77474791,40.80420891,1650.59
-104.77474853,40.80402667,1651.75
-104.77474865,40.80385064,1652.99
-104.77474850,40.80378884,1653.44
-104.77472741,40.80378610,1653.47
-104.77472243,40.80378546,1653.47
-104.77471248,40.80378427,1653.44
-104.77465285,40.80378397,1653.37
-104.77446352,40.80378342,1652.77
-104.77402938,40.80378266,1652.32
-104.77345476,40.80378145,1652.24
-104.77338885,40.80378132,1652.08
-104.77297486,40.80378050,1649.05
-104.77283533,40.80378023,1648.46
-104.77250540,40.80377958,1647.60
-104.77229342,40.80377916,1647.43
-104.77225229,40.80377908,1647.34
-104.77212283,40.80377882,1647.15
-104.77189627,40.80377837,1646.76
-104.77189094,40.80377836,1646.78
-104.77163036,40.80377785,1645.20
-104.77155425,40.80377770,1644.86
-104.77111241,40.80377682,1642.85
-104.77099563,40.80377659,1642.60
-104.77088645,40.80377637,1642.56
-104.77070625,40.80377602,1642.30
-104.77053957,40.80377568,1641.94
-104.77049214,40.80377559,1641.79
-104.77036755,40.80377534,1641.58
-104.77028503,40.80377518,1641.45
-104.77017798,40.80377496,1641.17
-104.76990330,40.80377442,1640.84
-104.76967532,40.80377396,1641.29
-104.76921273,40.80377304,1640.55
-104.76917088,40.80377295,1640.25
-104.76908884,40.80377279,1639.65
-104.76901712,40.80377265,1639.26
-104.76899377,40.80377260,1639.15
-104.76863171,40.80377187,1638.19
-104.76861796,40.80377185,1638.14
-104.76859282,40.80377180,1638.09
-104.76854896,40.80377171,1637.91
-104.76799117,40.80377059,1636.11
-104.76778560,40.80377018,1635.68
-104.76724003,40.80376908,1634.29
-104.76705165,40.80376870,1633.77
-104.76704773,40.80376869,1633.76
-104.76694009,40.80376847,1633.31
-104.76679557,40.80376818,1632.77
-104.76662593,40.80376784,1632.14
-104.76636096,40.80376730,1631.03
-104.76629766,40.80376717,1630.76
-104.76623435,40.80376704,1630.56
-104.76595575,40.80376648,1630.36
-104.76576038,40.80376608,1630.78
-104.76553288,40.80376562,1630.69
-104.76545997,40.80376547,1630.60
-104.76525143,40.80376505,1630.53
-104.76508226,40.80376470,1630.57
-104.76491961,40.80376437,1630.68
-104.76487503,40.80376428,1630.71
-104.76485535,40.80376424,1630.76
-104.76483046,40.80376419,1630.72
-104.76461268,40.80376375,1630.88
-104.76458327,40.80376369,1630.82
-104.76447575,40.80376347,1630.85
-104.76423864,40.80376298,1631.25
-104.76404884,40.80376259,1631.44
-104.76363652,40.80376175,1631.51
-104.76361399,40.80376170,1631.50
-104.76353385,40.80376154,1631.35
-104.76320558,40.80376087,1630.84
-104.76305692,40.80376056,1630.46
-104.76291015,40.80376026,1630.33
-104.76290754,40.80376025,1630.35
-104.76289746,40.80376150,1630.34
-104.76289437,40.80376500,1630.32
-104.76289379,40.80389256,1630.36
-104.76289325,40.80404517,1630.47
-104.76289315,40.80407426,1630.47
-104.76289307,40.80409534,1630.50
-104.76289208,40.80437479,1630.78
-104.76289163,40.80450081,1630.90
-104.76289145,40.80455117,1630.93
-104.76289116,40.80463396,1631.02
-104.76289101,40.80467387,1631.07
-104.76288948,40.80510474,1631.40
-104.76288884,40.80528572,1631.60
-104.76288831,40.80543283,1631.77
-104.76288783,40.80556958,1631.96
-104.76288672,40.80587974,1632.70
-104.76288669,40.80588956,1632.74
-104.76288652,40.80593676,1632.80
-104.76288633,40.80599018,1632.91
-104.76288630,40.80599937,1632.92
-104.76288612,40.80604865,1633.03
-104.76288570,40.80616594,1633.20
-104.76288546,40.80623395,1633.27
-104.76288535,40.80626593,1633.30
-104.76288520,40.80630656,1633.30
-104.76288518,40.80631260,1633.30
-104.76288477,40.80642691,1633.35
-104.76288428,40.80656582,1633.47
-104.76288299,40.80696229,1633.44
-104.76288152,40.80734208,1633.95
-104.76288116,40.80744334,1634.14
-104.76288108,40.80746433,1634.21
-104.76288094,40.80750388,1634.27
-104.76288083,40.80753532,1634.30
-104.76288078,40.80754838,1634.34
-104.76287994,40.80778638,1634.86
-104.76287913,40.80801303,1635.08
-104.76287894,40.80806663,1635.12
-104.76287866,40.80814357,1635.14
-104.76287848,40.80819464,1635.08
-104.76287787,40.80836517,1634.98
-104.76287745,40.80848391,1635.02
-104.76287690,40.80863849,1635.11
-104.76287593,40.80894577,1635.95
-104.76287471,40.80925422,1636.97
-104.76287467,40.80926440,1636.99
-104.76287426,40.80938016,1637.34
-104.76287411,40.80942205,1637.57
-104.76287404,40.80944376,1637.71
-104.76287261,40.80984545,1638.27
-104.76287160,40.81012795,1637.97
-104.76287157,40.81013507,1637.99
-104.76287129,40.81021434,1637.96
-104.76287059,40.81041208,1637.91
-104.76287037,40.81047306,1637.93
-104.76286958,40.81069539,1638.02
-104.76286864,40.81095889,1638.07
-104.76286857,40.81098015,1638.10
-104.76286815,40.81109708,1638.22
-104.76286810,40.81111113,1638.22
-104.76286784,40.81118338,1638.19
-104.76286778,40.81120095,1638.22
-104.76286773,40.81121581,1638.23
-104.76286771,40.81122104,1638.22
-104.76286746,40.81128950,1638.30
-104.76286697,40.81142967,1638.60
-104.76286691,40.81144652,1638.67
-104.76286684,40.81146418,1638.61
-104.76286638,40.81159345,1638.81
-104.76286611,40.81167101,1639.20
-104.76286575,40.81177055,1639.59
-104.76286493,40.81203333,1640.57
-104.76286378,40.81232547,1639.54
-104.76286363,40.81236520,1639.46
-104.76286355,40.81239024,1639.41
-104.76286276,40.81264500,1639.08
-104.76286266,40.81270500,1639.02
-104.76286275,40.81274572,1639.07
-104.76286285,40.81275149,1639.05
-104.76286471,40.81276365,1639.04
-104.76286588,40.81276762,1639.05
-104.76288496,40.81276847,1639.17
-104.76290488,40.81276869,1639.22
-104.76292445,40.81276873,1639.34
-104.76299073,40.81276886,1639.57
-104.76336125,40.81276962,1641.49
-104.76349085,40.81276989,1642.05
-104.76351088,40.81276993,1642.12
-104.76356910,40.81277005,1642.32
-104.76407230,40.81277099,1643.47
-104.76417226,40.81277119,1643.51
-104.76426616,40.81277139,1643.55
-104.76479462,40.81277256,1644.23
-104.76494402,40.81277286,1644.46
-104.76500022,40.81277297,1644.61
-104.76511701,40.81277321,1644.84
     </coordinates>
    </LineString>
   </MultiGeometry>
  </Placemark>
 </Document>
</kml>
