<kml>
 <Document>
  <Style id="yellow">
   <LineStyle>
   <color>ff00ffff</color>
   <width>1</width>
   </LineStyle>
  </Style>
  <Style id="red">
   <LineStyle>
   <color>ffff0000</color>
   <width>2</width>
   </LineStyle>
  </Style>
  <Style id="green">
   <LineStyle>
   <color>ff00ff00</color>
   <width>1</width>
   </LineStyle>
  </Style>
  <Placemark>
  <styleUrl>#yellow</styleUrl>
   <MultiGeometry>
    <LineString>
     <coordinates>
-104.74398050,40.80371972,1653.41
-104.74411221,40.80372001,1654.05
-104.74429158,40.80372041,1654.83
-104.74452300,40.80372092,1654.25
-104.74464001,40.80372118,1653.90
-104.74474801,40.80372142,1653.45
-104.74474872,40.80372142,1653.48
-104.74508066,40.80372216,1652.22
-104.74518416,40.80372239,1652.04
-104.74547070,40.80372302,1652.31
-104.74555926,40.80372321,1652.60
-104.74574206,40.80372362,1653.21
-104.74602955,40.80372425,1652.99
-104.74613400,40.80372448,1652.94
-104.74670020,40.80372572,1652.39
-104.74696338,40.80372630,1650.96
-104.74723487,40.80372690,1649.82
-104.74737108,40.80372719,1649.35
-104.74744056,40.80372735,1649.18
-104.74779526,40.80372812,1648.67
-104.74784102,40.80372822,1648.63
-104.74814973,40.80372881,1648.13
-104.74849827,40.80372966,1647.29
-104.74858517,40.80372985,1647.64
-104.74880556,40.80373033,1647.26
-104.74885749,40.80373044,1647.24
-104.74901587,40.80373078,1647.14
-104.74921125,40.80373112,1645.54
-104.74961408,40.80373208,1644.81
-104.74993737,40.80373278,1644.37
-104.75041585,40.80373373,1644.00
-104.75094601,40.80373497,1643.90
-104.75101406,40.80373484,1644.00
-104.75103849,40.80373228,1644.06
-104.75103946,40.80356950,1645.39
-104.75104059,40.80329754,1647.59
-104.75104180,40.80297350,1646.58
-104.75104216,40.80287837,1646.05
-104.75104319,40.80260136,1645.19
-104.75104345,40.80253281,1645.16
-104.75104356,40.80250308,1645.13
-104.75104423,40.80232390,1645.23
-104.75104431,40.80230390,1645.24
-104.75104476,40.80218184,1645.55
-104.75104494,40.80213301,1645.76
-104.75104508,40.80209671,1645.88
-104.75104520,40.80206509,1646.00
-104.75104566,40.80190870,1646.10
-104.75104713,40.80154827,1644.22
-104.75104743,40.80146900,1643.98
-104.75104898,40.80105299,1643.20
-104.75104910,40.80102137,1643.03
-104.75104977,40.80084057,1642.69
-104.75104985,40.80082048,1642.71
-104.75105057,40.80062824,1642.32
-104.75105116,40.80046852,1642.71
-104.75105123,40.80045194,1642.83
-104.75105137,40.80041456,1642.95
-104.75105142,40.80039951,1642.99
-104.75105169,40.80032727,1643.10
-104.75105211,40.80021421,1643.35
-104.75105338,40.79987594,1645.03
-104.75105347,40.79985027,1645.14
-104.75105392,40.79973081,1645.74
-104.75105401,40.79970703,1645.89
-104.75105428,40.79963343,1646.27
-104.75105433,40.79962073,1646.33
-104.75105445,40.79958983,1646.46
-104.75105456,40.79955938,1646.58
-104.75105458,40.79955308,1646.63
-104.75105520,40.79938876,1647.22
-104.75105539,40.79933759,1647.37
-104.75105548,40.79931408,1647.38
-104.75105569,40.79925670,1647.47
-104.75105614,40.79913599,1647.44
-104.75105668,40.79899284,1647.02
-104.75105787,40.79867439,1645.84
-104.75105906,40.79835522,1645.88
-104.75105933,40.79828153,1645.72
-104.75105945,40.79824928,1645.67
-104.75105959,40.79821361,1645.61
-104.75105996,40.79811316,1645.50
-104.75106029,40.79802461,1645.47
-104.75106049,40.79797137,1645.38
-104.75106057,40.79794975,1645.29
-104.75106100,40.79783651,1644.80
-104.75106160,40.79767481,1644.28
-104.75106273,40.79737249,1643.23
-104.75106336,40.79720394,1642.62
-104.75106390,40.79702872,1641.70
-104.75106527,40.79669217,1640.63
-104.75106531,40.79668235,1640.63
-104.75106576,40.79656046,1640.87
-104.75106662,40.79633192,1642.43
-104.75106668,40.79631426,1642.53
-104.75106748,40.79610085,1643.44
-104.75106884,40.79573808,1643.56
-104.75106929,40.79561755,1643.32
-104.75106951,40.79555638,1643.15
-104.75106969,40.79551044,1643.05
-104.75106998,40.79543287,1642.84
-104.75107106,40.79514127,1642.34
-104.75107186,40.79492705,1642.45
-104.75107216,40.79481525,1642.75
-104.75107175,40.79473444,1643.02
-104.75107024,40.79472813,1643.01
-104.75099556,40.79472662,1643.12
-104.75073277,40.79472605,1643.52
-104.75027534,40.79472507,1644.45
-104.74988773,40.79472423,1645.22
-104.74987611,40.79472420,1645.14
-104.74976599,40.79472396,1645.08
-104.74945733,40.79472329,1645.21
-104.74899634,40.79472229,1646.08
-104.74877089,40.79472180,1646.85
-104.74868566,40.79472161,1647.12
-104.74852457,40.79472126,1647.54
-104.74829579,40.79472076,1647.87
-104.74828264,40.79472074,1647.90
-104.74798724,40.79472009,1648.14
-104.74782580,40.79471974,1648.48
-104.74737157,40.79471875,1649.76
-104.74719946,40.79471837,1649.94
-104.74684017,40.79471758,1649.95
-104.74629230,40.79471638,1650.00
-104.74594440,40.79471561,1650.71
-104.74594357,40.79471561,1650.69
-104.74563052,40.79471492,1652.11
-104.74537187,40.79471435,1653.12
-104.74530905,40.79471421,1653.35
-104.74530277,40.79471420,1653.37
-104.74506131,40.79471366,1654.17
-104.74499457,40.79471352,1654.32
-104.74480824,40.79471310,1654.55
-104.74459487,40.79471263,1654.98
-104.74448641,40.79471239,1655.08
-104.74441813,40.79471224,1655.11
-104.74440201,40.79471221,1655.13
-104.74431216,40.79471201,1655.19
-104.74423014,40.79471182,1655.23
-104.74412642,40.79471159,1655.25
-104.74404487,40.79471141,1655.32
-104.74389361,40.79471108,1655.34
-104.74381834,40.79471091,1655.27
-104.74374414,40.79471075,1655.27
-104.74370123,40.79471065,1655.23
-104.74366828,40.79471058,1655.22
-104.74355851,40.79471033,1655.13
-104.74338782,40.79470995,1655.00
-104.74311780,40.79470935,1655.49
-104.74303838,40.79470918,1655.72
-104.74301681,40.79470913,1655.79
-104.74299037,40.79470907,1655.82
-104.74284872,40.79470875,1656.05
-104.74270221,40.79470843,1656.07
-104.74256412,40.79470812,1655.87
-104.74253010,40.79470804,1655.79
-104.74212482,40.79470732,1654.70
-104.74181758,40.79470654,1653.81
-104.74137615,40.79470546,1651.97
-104.74081773,40.79470430,1651.00
-104.74033908,40.79470313,1651.32
-104.74025564,40.79470295,1651.25
-104.73996795,40.79470230,1650.72
-104.73991165,40.79470217,1650.57
-104.73978955,40.79470190,1650.20
-104.73967505,40.79470164,1649.80
-104.73939258,40.79470100,1648.75
-104.73928175,40.79470075,1648.51
-104.73922295,40.79470062,1648.46
-104.73921969,40.79471547,1648.55
-104.73921945,40.79471719,1648.54
-104.73921928,40.79473052,1648.64
-104.73921887,40.79477403,1648.94
-104.73921813,40.79496420,1649.94
-104.73921710,40.79525805,1650.99
-104.73921597,40.79551615,1652.13
-104.73921517,40.79572082,1653.50
-104.73921482,40.79580946,1654.21
-104.73921476,40.79582622,1654.28
-104.73921443,40.79590891,1654.84
-104.73921439,40.79592072,1654.91
-104.73921428,40.79594684,1655.07
-104.73921363,40.79611350,1655.96
-104.73921308,40.79625358,1656.65
-104.73921300,40.79627457,1656.70
-104.73921289,40.79630312,1656.83
-104.73921230,40.79645366,1657.10
-104.73921130,40.79670977,1656.77
-104.73921036,40.79694876,1656.43
-104.73920938,40.79719965,1656.70
-104.73920926,40.79723082,1656.78
-104.73920887,40.79733063,1656.94
-104.73920770,40.79763016,1656.53
-104.73920693,40.79782628,1655.94
-104.73920569,40.79814220,1653.88
-104.73920540,40.79821616,1653.24
-104.73920516,40.79827895,1652.85
-104.73920394,40.79859010,1650.80
-104.73920359,40.79867839,1650.14
-104.73920302,40.79882459,1649.26
-104.73920272,40.79890234,1648.91
-104.73920170,40.79919259,1648.35
-104.73920058,40.79944798,1648.38
-104.73920054,40.79945771,1648.37
-104.73920042,40.79948915,1648.39
-104.73919999,40.79959797,1648.41
-104.73919979,40.79964932,1648.45
-104.73919976,40.79965806,1648.47
-104.73919975,40.79966139,1648.48
-104.73919960,40.79969995,1648.65
-104.73919870,40.79992813,1649.87
-104.73919814,40.80007245,1650.34
-104.73919789,40.80013460,1650.37
-104.73919699,40.80036549,1650.33
-104.73919667,40.80044837,1650.27
-104.73919663,40.80045900,1650.27
-104.73919658,40.80046954,1650.27
-104.73919633,40.80053413,1650.26
-104.73919600,40.80061845,1650.16
-104.73919574,40.80068412,1650.21
-104.73919423,40.80106977,1650.21
-104.73919423,40.80106986,1650.22
-104.73919423,40.80107076,1650.25
-104.73919413,40.80109725,1650.25
-104.73919409,40.80110716,1650.27
-104.73919408,40.80110788,1650.29
-104.73919406,40.80111391,1650.24
-104.73919405,40.80111617,1650.24
-104.73919404,40.80111860,1650.24
-104.73919398,40.80113535,1650.23
-104.73919390,40.80115625,1650.25
-104.73919343,40.80127607,1650.13
-104.73919321,40.80133012,1650.00
-104.73919176,40.80170190,1649.24
-104.73919133,40.80181144,1649.24
-104.73919094,40.80191143,1649.20
-104.73919093,40.80191287,1649.20
-104.73919090,40.80192116,1649.21
-104.73919079,40.80194855,1649.20
-104.73919060,40.80199935,1649.23
-104.73919043,40.80204061,1649.22
-104.73918979,40.80220466,1649.05
-104.73918952,40.80227420,1648.85
-104.73918816,40.80262292,1647.47
-104.73918798,40.80266841,1647.31
-104.73918773,40.80273183,1647.14
-104.73918754,40.80277967,1646.95
-104.73918666,40.80300569,1646.31
-104.73918620,40.80312343,1646.21
-104.73918581,40.80322261,1646.32
-104.73918573,40.80324126,1646.36
-104.73918468,40.80350989,1647.02
-104.73918455,40.80363457,1647.29
-104.73918452,40.80370376,1647.43
-104.73919682,40.80370901,1647.40
-104.73925895,40.80370915,1647.25
-104.73969427,40.80371004,1646.24
-104.73995532,40.80371072,1646.10
-104.73997855,40.80371077,1646.09
-104.74013042,40.80371111,1646.17
-104.74013161,40.80371112,1646.17
-104.74033611,40.80371158,1646.44
-104.74037191,40.80371166,1646.48
-104.74039752,40.80371172,1646.51
-104.74052567,40.80371200,1646.71
-104.74070563,40.80371241,1646.84
-104.74084090,40.80371271,1647.04
-104.74086331,40.80371276,1647.10
-104.74105002,40.80371318,1647.52
-104.74117107,40.80371345,1647.80
-104.74121280,40.80371355,1647.86
-104.74147112,40.80371413,1647.99
-104.74152672,40.80371425,1647.90
-104.74154936,40.80371430,1647.90
-104.74164278,40.80371451,1647.88
-104.74166507,40.80371456,1647.91
-104.74171107,40.80371466,1647.87
-104.74186471,40.80371501,1647.92
-104.74228024,40.80371585,1648.15
-104.74275587,40.80371700,1649.10
-104.74279439,40.80371708,1649.24
-104.74292777,40.80371738,1649.60
-104.74293512,40.80371740,1649.63
-104.74304644,40.80371765,1649.98
-104.74306054,40.80371768,1650.03
-104.74325319,40.80371811,1650.61
-104.74353546,40.80371873,1651.58
-104.74362935,40.80371894,1651.99
-104.74368697,40.80371907,1652.21
-104.74374755,40.80371920,1652.47
-104.74387108,40.80371948,1652.96
-104.74398050,40.80371972,1653.41
     </coordinates>
    </LineString>
   </MultiGeometry>
  </Placemark>
 </Document>
</kml>
