<kml>
 <Document>
  <Style id="yellow">
   <LineStyle>
   <color>ff00ffff</color>
   <width>1</width>
   </LineStyle>
  </Style>
  <Style id="red">
   <LineStyle>
   <color>ffff0000</color>
   <width>2</width>
   </LineStyle>
  </Style>
  <Style id="green">
   <LineStyle>
   <color>ff00ff00</color>
   <width>1</width>
   </LineStyle>
  </Style>
  <Placemark>
  <styleUrl>#yellow</styleUrl>
   <MultiGeometry>
    <LineString>
     <coordinates>
-104.72837719,40.79467551,1640.86
-104.72857834,40.79467598,1641.99
-104.72862931,40.79467610,1642.33
-104.72874405,40.79467637,1643.05
-104.72887693,40.79467668,1643.61
-104.72902913,40.79467704,1644.40
-104.72912621,40.79467709,1644.88
-104.72928968,40.79467711,1645.67
-104.73678267,40.79448139,1654.45
-104.73678530,40.79453590,1654.97
-104.73678697,40.79462554,1655.74
-104.73678837,40.79465897,1656.09
-104.73678948,40.79468014,1656.26
-104.73679299,40.79469114,1656.36
-104.73680864,40.79469126,1656.29
-104.73682973,40.79469140,1656.22
-104.73689647,40.79469182,1655.99
-104.73707131,40.79469294,1655.36
-104.73711730,40.79469323,1655.22
-104.73738684,40.79469492,1654.34
-104.73755812,40.79469603,1653.66
-104.73770345,40.79469699,1653.04
-104.73772810,40.79469714,1652.98
-104.73773355,40.79469715,1652.95
-104.73773865,40.79469716,1652.92
-104.73774398,40.79469718,1652.92
-104.73821034,40.79468977,1650.98
-104.73857113,40.79469887,1649.44
-104.73866916,40.79469927,1649.18
-104.73878840,40.79469954,1648.87
-104.73918680,40.79470045,1648.41
-104.73921870,40.79469610,1648.35
-104.73921951,40.79458134,1647.86
-104.73921955,40.79457089,1647.81
-104.73921965,40.79454431,1647.67
-104.73921992,40.79447603,1647.32
-104.73922037,40.79435991,1646.80
-104.73922088,40.79422956,1646.24
-104.73922160,40.79404804,1645.62
-104.73922181,40.79399398,1645.49
-104.73922210,40.79391876,1645.22
-104.73922227,40.79387507,1645.12
-104.73922286,40.79372490,1644.76
-104.73922360,40.79353437,1644.30
-104.73922363,40.79352753,1644.36
-104.73922419,40.79338384,1644.19
-104.73922426,40.79336709,1644.10
-104.73922455,40.79329177,1644.03
-104.73922496,40.79318881,1643.98
-104.73922541,40.79307242,1643.99
-104.73922610,40.79289684,1643.83
-104.73922662,40.79276316,1643.74
-104.73922663,40.79276226,1643.77
-104.73922739,40.79256731,1643.57
-104.73922790,40.79243597,1643.49
-104.73922811,40.79238174,1643.46
-104.73922835,40.79232075,1643.54
-104.73922850,40.79228328,1643.55
-104.73922876,40.79221796,1643.60
-104.73922890,40.79218184,1643.62
-104.73922940,40.79205356,1643.69
-104.73922981,40.79194897,1643.95
-104.73922997,40.79190807,1643.99
-104.73923003,40.79189231,1644.00
-104.73923016,40.79185862,1644.09
-104.73923022,40.79184393,1644.16
-104.73923035,40.79181132,1644.12
-104.73923045,40.79178412,1644.23
-104.73923078,40.79170151,1644.50
-104.73923089,40.79167340,1644.60
-104.73923201,40.79138693,1645.66
-104.73923205,40.79137684,1645.74
-104.73923212,40.79135901,1645.82
-104.73923215,40.79135153,1645.92
-104.73923267,40.79121757,1646.37
-104.73923351,40.79100290,1647.56
-104.73923358,40.79098389,1647.60
-104.73923360,40.79097912,1647.64
-104.73923301,40.79097804,1647.65
-104.73922270,40.79097747,1647.62
-104.73921725,40.79097719,1647.59
-104.73863739,40.79095156,1645.05
-104.73857268,40.79094880,1644.80
-104.73857161,40.79094879,1644.78
-104.73857231,40.79095150,1644.79
-104.73860788,40.79103932,1644.58
-104.73824174,40.79137307,1642.61
-104.73823664,40.79137333,1642.63
-104.73822656,40.79137376,1642.51
-104.73821672,40.79137418,1642.49
-104.73820617,40.79137461,1642.45
-104.73819621,40.79137504,1642.43
-104.73819100,40.79137530,1642.41
-104.73818092,40.79137572,1642.38
-104.73817594,40.79137589,1642.40
-104.73816563,40.79137632,1642.36
-104.73815567,40.79137675,1642.34
-104.73814571,40.79137718,1642.27
-104.73813575,40.79137760,1642.28
-104.73812532,40.79137803,1642.30
-104.73811524,40.79137846,1642.30
-104.73810505,40.79137889,1642.26
-104.73809485,40.79137931,1642.26
-104.73808478,40.79137974,1642.27
-104.73807482,40.79138017,1642.24
-104.73806521,40.79138060,1642.23
-104.73805466,40.79138102,1642.23
-104.73804471,40.79138145,1642.23
-104.73803404,40.79138188,1642.23
-104.73802431,40.79138231,1642.20
-104.73801424,40.79138273,1642.20
-104.73800404,40.79138316,1642.20
-104.73798922,40.79138376,1642.18
-104.73797358,40.79138444,1642.18
-104.73796338,40.79138487,1642.17
-104.73795330,40.79138530,1642.21
-104.73794856,40.79138547,1642.26
-104.73793837,40.79138589,1642.22
-104.73792805,40.79138632,1642.14
-104.73791821,40.79138675,1642.11
-104.73790256,40.79138743,1642.08
-104.73789249,40.79138786,1642.08
-104.73788194,40.79138829,1642.08
-104.73787210,40.79138872,1642.08
-104.73786190,40.79138914,1642.06
-104.73785182,40.79138957,1642.07
-104.73783689,40.79139017,1642.05
-104.73782088,40.79139085,1642.01
-104.73781069,40.79139128,1642.03
-104.73780049,40.79139171,1642.00
-104.73779030,40.79139213,1642.03
-104.73778010,40.79139256,1642.00
-104.73777026,40.79139299,1642.02
-104.73776042,40.79139342,1641.99
-104.73774975,40.79139384,1641.98
-104.73773956,40.79139427,1641.98
-104.73771917,40.79139513,1641.98
-104.73771371,40.79139538,1641.97
-104.73770340,40.79139581,1641.99
-104.73768858,40.79139641,1641.96
-104.73767827,40.79139683,1641.97
-104.73766285,40.79139752,1641.94
-104.73765219,40.79139795,1641.94
-104.73764211,40.79139837,1641.92
-104.73763168,40.79139880,1641.92
-104.73762148,40.79139923,1641.91
-104.73761152,40.79139966,1641.91
-104.73760133,40.79140008,1641.90
-104.73758568,40.79140077,1641.87
-104.73757489,40.79140119,1641.87
-104.73756481,40.79140162,1641.87
-104.73755462,40.79140205,1641.86
-104.73754430,40.79140248,1641.86
-104.73753435,40.79140290,1641.82
-104.73752391,40.79140333,1641.82
-104.73750838,40.79140401,1641.84
-104.73749748,40.79140444,1641.82
-104.73748752,40.79140487,1641.80
-104.73747720,40.79140530,1641.79
-104.73746689,40.79140572,1641.80
-104.73745693,40.79140615,1641.79
-104.73744117,40.79140683,1641.76
-104.73743061,40.79140726,1641.77
-104.73741508,40.79140786,1641.75
-104.73740453,40.79140828,1641.74
-104.73739422,40.79140871,1641.75
-104.73738414,40.79140914,1641.74
-104.73737407,40.79140956,1641.75
-104.73736328,40.79140999,1641.77
-104.73735296,40.79141042,1641.73
-104.73733720,40.79141110,1641.73
-104.73732688,40.79141153,1641.73
-104.73731633,40.79141196,1641.73
-104.73730626,40.79141238,1641.74
-104.73729630,40.79141281,1641.78
-104.73727994,40.79141349,1641.68
-104.73726405,40.79141418,1641.69
-104.73725397,40.79141461,1641.68
-104.73724354,40.79141503,1641.67
-104.73723299,40.79141546,1641.66
-104.73722291,40.79141589,1641.65
-104.73721248,40.79141631,1641.65
-104.73719660,40.79141700,1641.64
-104.73718059,40.79141768,1641.63
-104.73717004,40.79141811,1641.64
-104.73715949,40.79141854,1641.64
-104.73714953,40.79141896,1641.64
-104.73713934,40.79141939,1641.61
-104.73712309,40.79142007,1641.62
-104.73710721,40.79142076,1641.63
-104.73709701,40.79142119,1641.62
-104.73708646,40.79142161,1641.61
-104.73707615,40.79142204,1641.63
-104.73706595,40.79142247,1641.62
-104.73704983,40.79142315,1641.61
-104.73703371,40.79142383,1641.61
-104.73701818,40.79142452,1641.59
-104.73700763,40.79142495,1641.57
-104.73699708,40.79142537,1641.56
-104.73698676,40.79142580,1641.56
-104.73697064,40.79142648,1641.52
-104.73696021,40.79142691,1641.56
-104.73694408,40.79142759,1641.54
-104.73693353,40.79142802,1641.57
-104.73691777,40.79142870,1641.56
-104.73690745,40.79142913,1641.56
-104.73689702,40.79142956,1641.57
-104.73687011,40.79143067,1641.58
-104.73685979,40.79143109,1641.61
-104.73684379,40.79143178,1641.63
-104.73683359,40.79143221,1641.63
-104.73681249,40.79143306,1641.66
-104.73679625,40.79143374,1641.67
-104.73676981,40.79143485,1641.70
-104.73675926,40.79143528,1641.73
-104.73674895,40.79143571,1641.73
-104.73673840,40.79143613,1641.76
-104.73672228,40.79143682,1641.78
-104.73669537,40.79143793,1641.80
-104.73667462,40.79143878,1641.83
-104.73666430,40.79143921,1641.85
-104.73665873,40.79143946,1641.86
-104.73665316,40.79143972,1641.86
-104.73664771,40.79143998,1641.88
-104.73664403,40.79144078,1641.89
-104.73664563,40.79145493,1641.92
-104.73665500,40.79151306,1642.18
-104.73665812,40.79153432,1642.22
-104.73666629,40.79159569,1642.43
-104.73667148,40.79163300,1642.68
-104.73667597,40.79166688,1642.90
-104.73668093,40.79170148,1643.11
-104.73669407,40.79179592,1643.75
-104.73670053,40.79184044,1643.99
-104.73671077,40.79191902,1644.51
-104.73672450,40.79201472,1645.04
-104.73673322,40.79208672,1645.53
-104.73674192,40.79216403,1645.98
-104.73674522,40.79219989,1646.14
-104.73675148,40.79226621,1646.45
-104.73675952,40.79236199,1646.81
-104.73676119,40.79238875,1646.90
-104.73676479,40.79243596,1647.07
-104.73677025,40.79252453,1647.44
-104.73677277,40.79257624,1647.58
-104.73677436,40.79262570,1647.67
-104.73677619,40.79267246,1647.79
-104.73677761,40.79273201,1647.74
-104.73677955,40.79278201,1647.74
-104.73678016,40.79280706,1647.75
-104.73678259,40.79288175,1647.84
-104.73678279,40.79289112,1647.84
-104.73678540,40.79298130,1648.07
-104.73678549,40.79298832,1648.10
-104.73678628,40.79302904,1648.20
-104.73678670,40.79310319,1648.38
-104.73678665,40.79314426,1648.40
-104.73678666,40.79317156,1648.45
-104.73678614,40.79324507,1648.53
-104.73678604,40.79326912,1648.58
-104.73678571,40.79329299,1648.63
-104.73678366,40.79339235,1648.81
-104.73678224,40.79345072,1648.86
-104.73678193,40.79346991,1648.87
-104.73678088,40.79352396,1648.96
-104.73677948,40.79360909,1649.09
-104.73677860,40.79365287,1649.18
-104.73677780,40.79370530,1649.34
-104.73677735,40.79375890,1649.54
-104.73677678,40.79384421,1650.03
-104.73677640,40.79390826,1650.41
-104.73677645,40.79395654,1650.71
-104.73677640,40.79403032,1651.15
-104.73677663,40.79412239,1651.67
-104.73677671,40.79413149,1651.71
-104.73677761,40.79417419,1652.00
-104.73677749,40.79423383,1652.45
-104.73677845,40.79426122,1652.64
-104.73677938,40.79435599,1653.37
-104.73678013,40.79437509,1653.54
-104.73678236,40.79447067,1654.36
-104.73678267,40.79448139,1654.45
-104.72928968,40.79467711,1645.67
-104.72928354,40.79466971,1645.71
-104.72926830,40.79465742,1645.66
-104.72925247,40.79464486,1645.60
-104.72918109,40.79459082,1645.46
-104.72908313,40.79451582,1645.23
-104.72905642,40.79449558,1645.18
-104.72902983,40.79447534,1645.12
-104.72901069,40.79446079,1645.10
-104.72895633,40.79441913,1645.02
-104.72887680,40.79435886,1644.88
-104.72882835,40.79432172,1644.84
-104.72881796,40.79431377,1644.81
-104.72872212,40.79424012,1644.50
-104.72867852,40.79420615,1644.40
-104.72860479,40.79414895,1644.20
-104.72853141,40.79409194,1644.05
-104.72850246,40.79406953,1644.01
-104.72846677,40.79404188,1643.93
-104.72843121,40.79401387,1643.76
-104.72836256,40.79395938,1643.37
-104.72834898,40.79394845,1643.27
-104.72831152,40.79391908,1643.04
-104.72826402,40.79388096,1642.81
-104.72821794,40.79384454,1642.64
-104.72814091,40.79378292,1642.19
-104.72813453,40.79377777,1642.18
-104.72804829,40.79370694,1641.50
-104.72803611,40.79369998,1641.44
-104.72746294,40.79359602,1638.00
-104.72742994,40.79358027,1637.91
-104.72739894,40.79356533,1637.93
-104.72737350,40.79355392,1637.91
-104.72737014,40.79356454,1637.87
-104.72736982,40.79364381,1637.63
-104.72736888,40.79387299,1636.84
-104.72736865,40.79392992,1636.79
-104.72736838,40.79399478,1636.78
-104.72736826,40.79402451,1636.80
-104.72736824,40.79403028,1636.77
-104.72736694,40.79434674,1636.17
-104.72736607,40.79458925,1635.53
-104.72736619,40.79461835,1635.45
-104.72736654,40.79464745,1635.33
-104.72736707,40.79466276,1635.24
-104.72736893,40.79467160,1635.22
-104.72740401,40.79467249,1635.38
-104.72745309,40.79467324,1635.62
-104.72794394,40.79467449,1638.00
-104.72809187,40.79467483,1639.06
-104.72815209,40.79467498,1639.45
-104.72837719,40.79467551,1640.86
     </coordinates>
    </LineString>
   </MultiGeometry>
  </Placemark>
 </Document>
</kml>
