<kml>
 <Document>
  <Style id="yellow">
   <LineStyle>
   <color>ff00ffff</color>
   <width>1</width>
   </LineStyle>
  </Style>
  <Style id="red">
   <LineStyle>
   <color>ffff0000</color>
   <width>2</width>
   </LineStyle>
  </Style>
  <Style id="green">
   <LineStyle>
   <color>ff00ff00</color>
   <width>1</width>
   </LineStyle>
  </Style>
  <Placemark>
  <styleUrl>#yellow</styleUrl>
   <MultiGeometry>
    <LineString>
     <coordinates>
-104.72715881,40.84516099,1648.20
-104.72715832,40.84528062,1648.33
-104.72715755,40.84546664,1649.35
-104.72715750,40.84548060,1648.64
-104.72715721,40.84555078,1648.88
-104.72715708,40.84558159,1648.83
-104.72715625,40.84578491,1648.85
-104.72715618,40.84580139,1648.85
-104.72715617,40.84580391,1648.88
-104.72715588,40.84587373,1649.21
-104.72715580,40.84589571,1649.09
-104.72715544,40.84598318,1649.13
-104.72715513,40.84605876,1649.24
-104.72715506,40.84607534,1649.28
-104.72715484,40.84612876,1649.23
-104.72715462,40.84618245,1649.29
-104.72715368,40.84641216,1649.62
-104.72715330,40.84650414,1649.58
-104.72715324,40.84651882,1649.58
-104.72715316,40.84653873,1649.60
-104.72715282,40.84662205,1649.64
-104.72715248,40.84670403,1649.66
-104.72715233,40.84674142,1649.55
-104.72715218,40.84677826,1649.50
-104.72715178,40.84687546,1649.64
-104.72715078,40.84711950,1649.71
-104.72715042,40.84720706,1649.72
-104.72715020,40.84726003,1649.71
-104.72715003,40.84730066,1649.71
-104.72714989,40.84733489,1649.74
-104.72714957,40.84741281,1649.80
-104.72714951,40.84742767,1649.84
-104.72714950,40.84743074,1649.82
-104.72714928,40.84748533,1649.92
-104.72714906,40.84753812,1649.98
-104.72714869,40.84762784,1650.15
-104.72714862,40.84764523,1650.18
-104.72714859,40.84765126,1650.16
-104.72714831,40.84772027,1650.28
-104.72714716,40.84800124,1650.37
-104.72714651,40.84816069,1650.53
-104.72714607,40.84826653,1650.83
-104.72714544,40.84842013,1651.94
-104.72714461,40.84865209,1653.23
-104.72714493,40.84871794,1653.28
-104.72714705,40.84872200,1653.27
-104.72717919,40.84872370,1653.36
-104.72746616,40.84872438,1652.04
-104.72769832,40.84872493,1651.50
-104.72775895,40.84872507,1651.32
-104.72778813,40.84872514,1651.37
-104.72783629,40.84872525,1651.09
-104.72804627,40.84872575,1650.75
-104.72817463,40.84872605,1650.65
-104.72828816,40.84872632,1650.56
-104.72855022,40.84872694,1650.54
-104.72869602,40.84872728,1650.50
-104.72876838,40.84872745,1650.53
-104.72885024,40.84872764,1650.66
-104.72898643,40.84872796,1650.72
-104.72908371,40.84872819,1650.72
-104.72917648,40.84872841,1650.75
-104.72923211,40.84872854,1650.80
-104.72935371,40.84872882,1650.93
-104.72943972,40.84872903,1650.88
-104.72957413,40.84872934,1650.93
-104.72970818,40.84872966,1651.00
-104.72983903,40.84872996,1651.07
-104.73008982,40.84873055,1651.04
-104.73024203,40.84873090,1651.13
-104.73032922,40.84873111,1651.22
-104.73033183,40.84873111,1651.21
-104.73089391,40.84873243,1651.49
-104.73093104,40.84873251,1651.51
-104.73102678,40.84873274,1651.67
-104.73106770,40.84873283,1651.71
-104.73135515,40.84873350,1652.06
-104.73139335,40.84873359,1652.01
-104.73158779,40.84873404,1652.26
-104.73166039,40.84873421,1652.32
-104.73207050,40.84873508,1652.75
-104.73229151,40.84873568,1652.48
-104.73253625,40.84873625,1652.46
-104.73269854,40.84873662,1652.47
-104.73271882,40.84873667,1652.37
-104.73316334,40.84873770,1648.36
-104.73327829,40.84873796,1648.16
-104.73337841,40.84873820,1648.34
-104.73373692,40.84873902,1648.46
-104.73404536,40.84873965,1648.18
-104.73441015,40.84874058,1648.30
-104.73452001,40.84874083,1648.34
-104.73458644,40.84874098,1648.20
-104.73471694,40.84874128,1648.20
-104.73491612,40.84874174,1648.16
-104.73509193,40.84874214,1648.05
-104.73543786,40.84874294,1647.03
-104.73563147,40.84874338,1650.55
-104.73580491,40.84874378,1653.19
-104.73599840,40.84874422,1654.41
-104.73605736,40.84874436,1654.89
-104.73621549,40.84874472,1656.83
-104.73627054,40.84874484,1657.50
-104.73635026,40.84874503,1658.57
-104.73641527,40.84874517,1659.44
-104.73654719,40.84874548,1661.02
-104.73661422,40.84874563,1661.35
-104.73666914,40.84874575,1661.83
-104.73670960,40.84874585,1662.16
-104.73689644,40.84874627,1663.37
-104.73703904,40.84874660,1664.48
-104.73723905,40.84874705,1666.45
-104.73731011,40.84874722,1666.38
-104.73745567,40.84874755,1666.01
-104.73801799,40.84874874,1659.02
-104.73856334,40.84875006,1670.23
-104.73859869,40.84875014,1670.82
-104.73867556,40.84875032,1672.20
-104.73892422,40.84875088,1677.01
-104.73899219,40.84875085,1676.72
-104.73900679,40.84874972,1676.69
-104.73900711,40.84872774,1677.37
-104.73900835,40.84847298,1681.53
-104.73900838,40.84846460,1681.51
-104.73900862,40.84840497,1680.77
-104.73900905,40.84829344,1679.64
-104.73901012,40.84802202,1680.39
-104.73901068,40.84787861,1680.26
-104.73901134,40.84771078,1681.72
-104.73901161,40.84764313,1681.88
-104.73901171,40.84761637,1682.02
-104.73901179,40.84759547,1682.11
-104.73901266,40.84737351,1683.23
-104.73901268,40.84736819,1683.30
-104.73901269,40.84736675,1683.32
-104.73901276,40.84734945,1683.20
-104.73901284,40.84732729,1683.29
-104.73901291,40.84731045,1683.40
-104.73901338,40.84719046,1683.65
-104.73901344,40.84717613,1683.67
-104.73901361,40.84713127,1683.68
-104.73901407,40.84701452,1683.93
-104.73901426,40.84696687,1683.95
-104.73901458,40.84688417,1683.97
-104.73901482,40.84682444,1683.98
-104.73901500,40.84677751,1683.94
-104.73901511,40.84674977,1683.93
-104.73901540,40.84667626,1683.68
-104.73901545,40.84666328,1683.62
-104.73901566,40.84660987,1683.36
-104.73901588,40.84655356,1682.61
-104.73901629,40.84644844,1681.98
-104.73901646,40.84640619,1681.56
-104.73901745,40.84615251,1677.07
-104.73901782,40.84605963,1676.17
-104.73901851,40.84588271,1675.82
-104.73901878,40.84581343,1676.24
-104.73901931,40.84568011,1674.90
-104.73901958,40.84560948,1674.39
-104.73901989,40.84553021,1673.81
-104.73901995,40.84551634,1673.64
-104.73902089,40.84527770,1670.79
-104.73902097,40.84525545,1670.51
-104.73902214,40.84495827,1667.22
-104.73902326,40.84467216,1664.65
-104.73902334,40.84465225,1664.52
-104.73902349,40.84461280,1664.29
-104.73902354,40.84460208,1664.19
-104.73902409,40.84446028,1663.21
-104.73902525,40.84416544,1661.58
-104.73902548,40.84410535,1661.27
-104.73902602,40.84396834,1660.52
-104.73902635,40.84388384,1659.96
-104.73902663,40.84381384,1659.29
-104.73902770,40.84353972,1657.96
-104.73902819,40.84341459,1657.43
-104.73902896,40.84321803,1656.32
-104.73902921,40.84315515,1655.99
-104.73902939,40.84311020,1655.77
-104.73902996,40.84296318,1654.99
-104.73903006,40.84293976,1654.96
-104.73903011,40.84292480,1654.84
-104.73903028,40.84288192,1654.61
-104.73903046,40.84283580,1654.40
-104.73903063,40.84279418,1654.22
-104.73903099,40.84270257,1653.76
-104.73903226,40.84237817,1652.27
-104.73903317,40.84214711,1651.38
-104.73903402,40.84192866,1650.20
-104.73903411,40.84190649,1650.09
-104.73903506,40.84166480,1648.88
-104.73903546,40.84156228,1648.20
-104.73903630,40.84134698,1647.15
-104.73903657,40.84127978,1646.80
-104.73903683,40.84121312,1646.61
-104.73903713,40.84113700,1646.20
-104.73903760,40.84101701,1645.67
-104.73903782,40.84096124,1645.46
-104.73903795,40.84092692,1645.20
-104.73903829,40.84084080,1644.87
-104.73903843,40.84080477,1644.70
-104.73903860,40.84076045,1644.56
-104.73903923,40.84059965,1644.05
-104.73903977,40.84046308,1643.80
-104.73904002,40.84039876,1643.66
-104.73904011,40.84037732,1643.65
-104.73904013,40.84037210,1643.60
-104.73904085,40.84018823,1643.07
-104.73904125,40.84008527,1642.65
-104.73904237,40.83979952,1641.91
-104.73904241,40.83979051,1641.92
-104.73904248,40.83977178,1641.80
-104.73904253,40.83976006,1641.78
-104.73904185,40.83975123,1641.73
-104.73903749,40.83974357,1641.76
-104.73900203,40.83974268,1641.59
-104.73888958,40.83974242,1641.50
-104.73887938,40.83974240,1641.89
-104.73876824,40.83974215,1640.34
-104.73860716,40.83974178,1639.78
-104.73859494,40.83974176,1639.79
-104.73852507,40.83974160,1639.87
-104.73843848,40.83974140,1639.86
-104.73822937,40.83974093,1640.01
-104.73811455,40.83974067,1640.33
-104.73799949,40.83974040,1640.58
-104.73771090,40.83973975,1641.32
-104.73764151,40.83973959,1641.60
-104.73758326,40.83973946,1641.76
-104.73751826,40.83973931,1641.89
-104.73739905,40.83973904,1641.97
-104.73723774,40.83973867,1642.09
-104.73705614,40.83973826,1642.27
-104.73677597,40.83973762,1643.03
-104.73676909,40.83973760,1643.07
-104.73654289,40.83973709,1643.70
-104.73648678,40.83973696,1643.77
-104.73642830,40.83973683,1643.93
-104.73627090,40.83973647,1644.21
-104.73614339,40.83973617,1644.49
-104.73596926,40.83973578,1644.96
-104.73588753,40.83973559,1645.14
-104.73577437,40.83973533,1645.46
-104.73563963,40.83973502,1645.56
-104.73562089,40.83973498,1645.58
-104.73557629,40.83973488,1645.74
-104.73514417,40.83973388,1646.52
-104.73509257,40.83973377,1646.65
-104.73464824,40.83973274,1647.75
-104.73435087,40.83973206,1649.04
-104.73430994,40.83973197,1649.18
-104.73419073,40.83973169,1649.47
-104.73414815,40.83973159,1649.58
-104.73414234,40.83973158,1649.62
-104.73404318,40.83973135,1649.96
-104.73402788,40.83973132,1650.01
-104.73367215,40.83973050,1650.53
-104.73363893,40.83973042,1650.54
-104.73359576,40.83973032,1650.66
-104.73349600,40.83973009,1650.64
-104.73332579,40.83972970,1650.75
-104.73315605,40.83972930,1650.62
-104.73311880,40.83972922,1650.60
-104.73308144,40.83972913,1650.57
-104.73301644,40.83972898,1650.53
-104.73281847,40.83972852,1650.49
-104.73279083,40.83972846,1650.43
-104.73267233,40.83972818,1650.49
-104.73251766,40.83972782,1650.68
-104.73243914,40.83972764,1650.57
-104.73240379,40.83972756,1650.61
-104.73229419,40.83972731,1650.66
-104.73210369,40.83972686,1650.94
-104.73209740,40.83972685,1650.99
-104.73206561,40.83972678,1651.02
-104.73195008,40.83972651,1651.13
-104.73180502,40.83972617,1651.18
-104.73154489,40.83972557,1650.96
-104.73148962,40.83972544,1651.03
-104.73147301,40.83972540,1650.91
-104.73144952,40.83972534,1650.86
-104.73117695,40.83972471,1650.96
-104.73115939,40.83972467,1650.97
-104.73110400,40.83972454,1650.92
-104.73089915,40.83972406,1650.83
-104.73089440,40.83972405,1650.86
-104.73084874,40.83972394,1650.83
-104.73075159,40.83972372,1650.80
-104.73070391,40.83972360,1650.61
-104.73058446,40.83972333,1650.66
-104.73054069,40.83972322,1650.67
-104.73021307,40.83972246,1650.54
-104.73020809,40.83972245,1650.52
-104.73019943,40.83972243,1650.58
-104.73014155,40.83972229,1650.56
-104.73009399,40.83972218,1650.66
-104.72994749,40.83972184,1650.91
-104.72984276,40.83972159,1650.86
-104.72962581,40.83972108,1651.07
-104.72962142,40.83972107,1651.07
-104.72933923,40.83972041,1651.13
-104.72933840,40.83972041,1651.12
-104.72933473,40.83972040,1651.12
-104.72894234,40.83971948,1651.12
-104.72893784,40.83971947,1651.12
-104.72868293,40.83971887,1651.30
-104.72867831,40.83971886,1651.28
-104.72841711,40.83971824,1650.49
-104.72833574,40.83971805,1649.32
-104.72788595,40.83971699,1641.55
-104.72777730,40.83971674,1640.22
-104.72755644,40.83971621,1638.81
-104.72741825,40.83971589,1638.50
-104.72736238,40.83971576,1638.29
-104.72725136,40.83971549,1638.10
-104.72723238,40.83971554,1638.14
-104.72718302,40.83971921,1638.20
-104.72718183,40.83971965,1638.22
-104.72718111,40.83975163,1638.20
-104.72718008,40.83997414,1638.45
-104.72717981,40.84003837,1638.74
-104.72717972,40.84006017,1638.84
-104.72717898,40.84024223,1639.55
-104.72717889,40.84026304,1639.55
-104.72717837,40.84039114,1639.85
-104.72717788,40.84051059,1640.22
-104.72717764,40.84056986,1640.26
-104.72717741,40.84062590,1640.27
-104.72717690,40.84074841,1640.26
-104.72717659,40.84082363,1640.37
-104.72717646,40.84085606,1640.43
-104.72717643,40.84086480,1640.42
-104.72717568,40.84104704,1640.68
-104.72717515,40.84117604,1641.06
-104.72717416,40.84141719,1641.41
-104.72717412,40.84142827,1641.43
-104.72717365,40.84154079,1641.63
-104.72717328,40.84163267,1641.95
-104.72717281,40.84174582,1641.68
-104.72717261,40.84179563,1641.74
-104.72717225,40.84188311,1641.72
-104.72717190,40.84196986,1641.66
-104.72717181,40.84199103,1641.54
-104.72717142,40.84208597,1640.97
-104.72717082,40.84223272,1640.41
-104.72717076,40.84224704,1640.42
-104.72717006,40.84241811,1641.70
-104.72717001,40.84243001,1641.74
-104.72716972,40.84250144,1641.70
-104.72716952,40.84254856,1641.79
-104.72716939,40.84258008,1641.75
-104.72716923,40.84262044,1641.72
-104.72716912,40.84264711,1641.75
-104.72716766,40.84300267,1642.35
-104.72716760,40.84301816,1642.38
-104.72716739,40.84306825,1642.54
-104.72716734,40.84307996,1642.53
-104.72716660,40.84326058,1643.03
-104.72716563,40.84349795,1644.46
-104.72716516,40.84361317,1645.75
-104.72716425,40.84383288,1646.96
-104.72716399,40.84389774,1647.12
-104.72716365,40.84398125,1647.15
-104.72716359,40.84399620,1647.26
-104.72716350,40.84401800,1647.18
-104.72716320,40.84409097,1647.31
-104.72716258,40.84424213,1647.62
-104.72716250,40.84426078,1647.68
-104.72716158,40.84448563,1647.89
-104.72716051,40.84474579,1647.77
-104.72716033,40.84479047,1647.85
-104.72715999,40.84487317,1647.79
-104.72715963,40.84495974,1647.87
-104.72715954,40.84498307,1647.83
-104.72715919,40.84506802,1647.96
-104.72715917,40.84507189,1647.92
-104.72715881,40.84516099,1648.20
     </coordinates>
    </LineString>
   </MultiGeometry>
  </Placemark>
 </Document>
</kml>
