<kml>
 <Document>
  <Style id="yellow">
   <LineStyle>
   <color>ff00ffff</color>
   <width>1</width>
   </LineStyle>
  </Style>
  <Style id="red">
   <LineStyle>
   <color>ffff0000</color>
   <width>2</width>
   </LineStyle>
  </Style>
  <Style id="green">
   <LineStyle>
   <color>ff00ff00</color>
   <width>1</width>
   </LineStyle>
  </Style>
  <Placemark>
  <styleUrl>#yellow</styleUrl>
   <MultiGeometry>
    <LineString>
     <coordinates>
-104.71998183,40.81267250,1626.44
-104.71998847,40.81267252,1626.44
-104.72001870,40.81267259,1626.47
-104.72009127,40.81267277,1626.51
-104.72014699,40.81267290,1626.57
-104.72034737,40.81267339,1626.85
-104.72036113,40.81267342,1626.92
-104.72039824,40.81267351,1626.97
-104.72058569,40.81267396,1627.10
-104.72074517,40.81267435,1627.16
-104.72075358,40.81267437,1627.17
-104.72075880,40.81267438,1627.17
-104.72076746,40.81267441,1627.13
-104.72082425,40.81267454,1627.13
-104.72084310,40.81267459,1627.13
-104.72085686,40.81267462,1627.14
-104.72087025,40.81267465,1627.16
-104.72089800,40.81267472,1627.17
-104.72094803,40.81267484,1627.23
-104.72113205,40.81267529,1627.31
-104.72114438,40.81267532,1627.33
-104.72122074,40.81267550,1627.42
-104.72123189,40.81267553,1627.43
-104.72124789,40.81267557,1627.46
-104.72128820,40.81267566,1627.51
-104.72139468,40.81267592,1627.65
-104.72143001,40.81267601,1627.73
-104.72150957,40.81267620,1627.84
-104.72151419,40.81267621,1627.83
-104.72157775,40.81267636,1627.94
-104.72160265,40.81267642,1627.93
-104.72160620,40.81267643,1627.97
-104.72166537,40.81267657,1628.04
-104.72171327,40.81267669,1628.13
-104.72172987,40.81267673,1628.14
-104.72174730,40.81267677,1628.16
-104.72175050,40.81267678,1628.16
-104.72179982,40.81267690,1628.24
-104.72196238,40.81267729,1628.47
-104.72197613,40.81267732,1628.50
-104.72203388,40.81267746,1628.54
-104.72210158,40.81267763,1628.62
-104.72212114,40.81267767,1628.62
-104.72215126,40.81267775,1628.68
-104.72222086,40.81267791,1628.77
-104.72228263,40.81267806,1628.83
-104.72232306,40.81267816,1628.90
-104.72234180,40.81267820,1628.89
-104.72234654,40.81267822,1628.92
-104.72236302,40.81267826,1628.95
-104.72239396,40.81267833,1628.99
-104.72239420,40.81267833,1628.97
-104.72248941,40.81267856,1629.08
-104.72252474,40.81267864,1629.15
-104.72266110,40.81267897,1629.39
-104.72269939,40.81267906,1629.48
-104.72272880,40.81267913,1629.49
-104.72277208,40.81267924,1629.52
-104.72277706,40.81267925,1629.57
-104.72283942,40.81267940,1629.79
-104.72285033,40.81267943,1629.79
-104.72290179,40.81267955,1629.88
-104.72303150,40.81267986,1630.04
-104.72304419,40.81267989,1630.08
-104.72314663,40.81268014,1630.20
-104.72319192,40.81268025,1630.33
-104.72322263,40.81268032,1630.36
-104.72322880,40.81268034,1630.39
-104.72328796,40.81268048,1630.41
-104.72330077,40.81268051,1630.45
-104.72337890,40.81268070,1630.53
-104.72352889,40.81268105,1630.73
-104.72353269,40.81268106,1630.72
-104.72359541,40.81268121,1630.83
-104.72369038,40.81268144,1630.97
-104.72370912,40.81268149,1630.98
-104.72373366,40.81268154,1631.05
-104.72374065,40.81268156,1631.06
-104.72374516,40.81268157,1631.07
-104.72377433,40.81268164,1631.10
-104.72380504,40.81268172,1631.12
-104.72382673,40.81268177,1631.20
-104.72382863,40.81268177,1631.21
-104.72397376,40.81268212,1631.40
-104.72397494,40.81268212,1631.42
-104.72403826,40.81268227,1631.53
-104.72408225,40.81268238,1631.63
-104.72411521,40.81268246,1631.70
-104.72416430,40.81268258,1631.85
-104.72429235,40.81268288,1632.15
-104.72430598,40.81268291,1632.17
-104.72432341,40.81268296,1632.23
-104.72432958,40.81268297,1632.26
-104.72441246,40.81268317,1632.47
-104.72443878,40.81268323,1632.56
-104.72451632,40.81268342,1632.77
-104.72453233,40.81268345,1632.84
-104.72455948,40.81268352,1632.97
-104.72456980,40.81268354,1632.97
-104.72478677,40.81268406,1633.85
-104.72491364,40.81268436,1634.25
-104.72493747,40.81268442,1634.31
-104.72501442,40.81268461,1634.63
-104.72506873,40.81268473,1634.82
-104.72509552,40.81268480,1634.89
-104.72510975,40.81268483,1634.94
-104.72517082,40.81268498,1635.21
-104.72518421,40.81268501,1635.24
-104.72528013,40.81268524,1635.57
-104.72546142,40.81268567,1636.39
-104.72552770,40.81268583,1636.65
-104.72558130,40.81268595,1636.96
-104.72559944,40.81268600,1637.04
-104.72561331,40.81268603,1637.10
-104.72566797,40.81268616,1637.36
-104.72567840,40.81268619,1637.40
-104.72574788,40.81268635,1637.70
-104.72577017,40.81268640,1637.85
-104.72578891,40.81268645,1637.94
-104.72584926,40.81268659,1638.25
-104.72599178,40.81268693,1639.07
-104.72601561,40.81268699,1639.17
-104.72603908,40.81268704,1639.31
-104.72605308,40.81268708,1639.42
-104.72606339,40.81268710,1639.45
-104.72608260,40.81268715,1639.60
-104.72619299,40.81268741,1640.20
-104.72624160,40.81268752,1640.38
-104.72627195,40.81268759,1640.55
-104.72627978,40.81268761,1640.62
-104.72628274,40.81268762,1640.60
-104.72629958,40.81268766,1640.72
-104.72634677,40.81268777,1640.95
-104.72637036,40.81268783,1641.05
-104.72637190,40.81268783,1641.05
-104.72641411,40.81268793,1641.26
-104.72643332,40.81268798,1641.31
-104.72645858,40.81268804,1641.44
-104.72649249,40.81268812,1641.72
-104.72650731,40.81268815,1641.84
-104.72657691,40.81268832,1642.23
-104.72674812,40.81268872,1643.03
-104.72677065,40.81268878,1643.12
-104.72682092,40.81268890,1643.31
-104.72686443,40.81268900,1643.52
-104.72695703,40.81268922,1643.81
-104.72703944,40.81268941,1644.11
-104.72711402,40.81268959,1644.42
-104.72714520,40.81268966,1644.53
-104.72726401,40.81268994,1644.85
-104.72728381,40.81268990,1644.89
-104.72728997,40.81268956,1644.88
-104.72729177,40.81268623,1644.89
-104.72729189,40.81265614,1644.74
-104.72729198,40.81263452,1644.67
-104.72729228,40.81256155,1644.37
-104.72729249,40.81250885,1644.13
-104.72729296,40.81239507,1643.44
-104.72729318,40.81233994,1642.47
-104.72729324,40.81232661,1642.54
-104.72729361,40.81223553,1642.78
-104.72729369,40.81221671,1642.61
-104.72729383,40.81218112,1642.37
-104.72729384,40.81217887,1642.32
-104.72729386,40.81217554,1642.33
-104.72729437,40.81204942,1642.18
-104.72729457,40.81200249,1642.35
-104.72729460,40.81199492,1642.35
-104.72729481,40.81194393,1642.51
-104.72729488,40.81192610,1642.56
-104.72729507,40.81188024,1642.68
-104.72729533,40.81181664,1642.93
-104.72729553,40.81176782,1643.24
-104.72729572,40.81172160,1643.47
-104.72729586,40.81168584,1643.72
-104.72729587,40.81168431,1643.71
-104.72729602,40.81164647,1643.89
-104.72729610,40.81162882,1644.03
-104.72729631,40.81157675,1644.35
-104.72729639,40.81155576,1644.44
-104.72729661,40.81150216,1644.77
-104.72729662,40.81150063,1644.81
-104.72729719,40.81136199,1645.64
-104.72729732,40.81133055,1645.85
-104.72729748,40.81129136,1646.10
-104.72729749,40.81128875,1646.10
-104.72729773,40.81123001,1646.50
-104.72729787,40.81119578,1646.64
-104.72729804,40.81115308,1646.86
-104.72729811,40.81113714,1646.94
-104.72729849,40.81104327,1647.39
-104.72729859,40.81101985,1647.51
-104.72729868,40.81099832,1647.57
-104.72729878,40.81097201,1647.73
-104.72729945,40.81080878,1648.36
-104.72729980,40.81072383,1648.58
-104.72730058,40.81053294,1648.87
-104.72730078,40.81048412,1648.93
-104.72730108,40.81041205,1648.93
-104.72730118,40.81038763,1648.93
-104.72730139,40.81033674,1648.91
-104.72730194,40.81020044,1648.89
-104.72730213,40.81015414,1648.89
-104.72730271,40.81001378,1648.71
-104.72730302,40.80993775,1648.35
-104.72730403,40.80969011,1647.14
-104.72730424,40.80963993,1646.84
-104.72730444,40.80958994,1646.59
-104.72730496,40.80946391,1645.86
-104.72730524,40.80939572,1645.45
-104.72730559,40.80930887,1644.85
-104.72730675,40.80902754,1643.13
-104.72730735,40.80887899,1642.45
-104.72730808,40.80870207,1642.08
-104.72730818,40.80867657,1642.12
-104.72730870,40.80854910,1641.89
-104.72730875,40.80853676,1641.88
-104.72730915,40.80843992,1641.88
-104.72730948,40.80836065,1641.94
-104.72730967,40.80831380,1641.96
-104.72731029,40.80816129,1641.98
-104.72731033,40.80815102,1641.98
-104.72731143,40.80788284,1642.43
-104.72731170,40.80781717,1642.59
-104.72731172,40.80781257,1642.61
-104.72731191,40.80776627,1642.71
-104.72731200,40.80774303,1642.70
-104.72731235,40.80765790,1642.83
-104.72731262,40.80759349,1643.00
-104.72731284,40.80753782,1643.18
-104.72731324,40.80744016,1643.59
-104.72731456,40.80711739,1645.64
-104.72731504,40.80700217,1646.35
-104.72731588,40.80679633,1647.64
-104.72731642,40.80666472,1648.35
-104.72731664,40.80660977,1648.65
-104.72731717,40.80648122,1648.81
-104.72731779,40.80632951,1648.75
-104.72731784,40.80631753,1648.72
-104.72731794,40.80629285,1648.69
-104.72731827,40.80621285,1648.21
-104.72731896,40.80604359,1646.88
-104.72731916,40.80599503,1646.55
-104.72731982,40.80583369,1645.39
-104.72732003,40.80578234,1645.14
-104.72732031,40.80571298,1644.68
-104.72732061,40.80563965,1644.15
-104.72732064,40.80563424,1644.10
-104.72732124,40.80548768,1643.38
-104.72732130,40.80547272,1643.33
-104.72732143,40.80543912,1643.17
-104.72732189,40.80532805,1642.73
-104.72732198,40.80530588,1642.61
-104.72732215,40.80526391,1642.51
-104.72732246,40.80518796,1642.30
-104.72732357,40.80491609,1641.81
-104.72732401,40.80480862,1641.59
-104.72732448,40.80469403,1641.36
-104.72732467,40.80464809,1641.24
-104.72732484,40.80460728,1641.15
-104.72732580,40.80437252,1640.15
-104.72732652,40.80419767,1639.02
-104.72732667,40.80415992,1638.92
-104.72732669,40.80415605,1638.88
-104.72732674,40.80414371,1638.86
-104.72732768,40.80391201,1638.89
-104.72732812,40.80380562,1639.18
-104.72732815,40.80379886,1639.20
-104.72732830,40.80376193,1639.32
-104.72732834,40.80375184,1639.36
-104.72732840,40.80373760,1639.39
-104.72732842,40.80373310,1639.42
-104.72732847,40.80371986,1639.38
-104.72732851,40.80370968,1639.50
-104.72732743,40.80368337,1639.60
-104.72732033,40.80368191,1639.55
-104.72731950,40.80368182,1639.54
-104.72729792,40.80368168,1639.40
-104.72716858,40.80368128,1638.84
-104.72667102,40.80368011,1636.44
-104.72656741,40.80367986,1636.09
-104.72647174,40.80367963,1635.66
-104.72642277,40.80367952,1635.47
-104.72623582,40.80367907,1634.80
-104.72596920,40.80367844,1633.98
-104.72577537,40.80367798,1633.47
-104.72576956,40.80367797,1633.46
-104.72573079,40.80367788,1633.35
-104.72561971,40.80367761,1633.05
-104.72557122,40.80367750,1633.01
-104.72554893,40.80367744,1632.94
-104.72547187,40.80367726,1632.79
-104.72543820,40.80367718,1632.71
-104.72535119,40.80367697,1632.54
-104.72519921,40.80367661,1632.35
-104.72510851,40.80367639,1632.30
-104.72491444,40.80367593,1632.52
-104.72479660,40.80367565,1632.71
-104.72467355,40.80367536,1632.98
-104.72455808,40.80367508,1633.21
-104.72429264,40.80367445,1634.18
-104.72416650,40.80367415,1634.65
-104.72397848,40.80367370,1635.47
-104.72390190,40.80367351,1635.88
-104.72387736,40.80367346,1636.02
-104.72373664,40.80367312,1636.79
-104.72372277,40.80367309,1636.86
-104.72370795,40.80367305,1636.88
-104.72349610,40.80367254,1637.78
-104.72345934,40.80367245,1637.93
-104.72341287,40.80367234,1638.08
-104.72327037,40.80367200,1638.56
-104.72326302,40.80367198,1638.63
-104.72321845,40.80367188,1638.74
-104.72313013,40.80367166,1638.93
-104.72312906,40.80367166,1638.97
-104.72290180,40.80367112,1639.52
-104.72236594,40.80366992,1639.69
-104.72199417,40.80366893,1638.98
-104.72188036,40.80366866,1638.58
-104.72158789,40.80366795,1638.14
-104.72145559,40.80366763,1637.66
-104.72136881,40.80366742,1637.34
-104.72098446,40.80366650,1635.71
-104.72089425,40.80366628,1635.42
-104.72075068,40.80366602,1635.19
-104.72071416,40.80366755,1635.09
-104.72071024,40.80366998,1635.09
-104.72072512,40.80368217,1635.05
-104.72081802,40.80375113,1634.94
-104.72087523,40.80379019,1634.96
-104.72090551,40.80380882,1634.91
-104.72091627,40.80381515,1634.91
-104.72092596,40.80382085,1634.90
-104.72094584,40.80383153,1634.95
-104.72096512,40.80384185,1635.01
-104.72099043,40.80385533,1635.05
-104.72130013,40.80404418,1635.92
-104.72132744,40.80406298,1635.96
-104.72133560,40.80406867,1635.99
-104.72134742,40.80407690,1636.01
-104.72137519,40.80409661,1636.10
-104.72139186,40.80410863,1636.17
-104.72141278,40.80412318,1636.19
-104.72150568,40.80419070,1636.44
-104.72154646,40.80421999,1636.51
-104.72157885,40.80424331,1636.50
-104.72163121,40.80428055,1636.54
-104.72165178,40.80429474,1636.66
-104.72168417,40.80431707,1636.73
-104.72178051,40.80438469,1637.04
-104.72186763,40.80444642,1637.17
-104.72187980,40.80445492,1637.23
-104.72194587,40.80450346,1637.44
-104.72198830,40.80453509,1637.51
-104.72200107,40.80454449,1637.59
-104.72203546,40.80457052,1637.65
-104.72207374,40.80460088,1637.76
-104.72209962,40.80462085,1637.82
-104.72212172,40.80463766,1637.94
-104.72214370,40.80465483,1637.92
-104.72218116,40.80468501,1637.95
-104.72219888,40.80469955,1638.02
-104.72222912,40.80472458,1637.89
-104.72227662,40.80476370,1637.91
-104.72229907,40.80478213,1637.88
-104.72232861,40.80480652,1637.84
-104.72238614,40.80485441,1637.85
-104.72242584,40.80488739,1637.71
-104.72246541,40.80492225,1637.65
-104.72247533,40.80493029,1637.73
-104.72250688,40.80495641,1637.74
-104.72251208,40.80496074,1637.75
-104.72256051,40.80500275,1637.81
-104.72260163,40.80503645,1637.87
-104.72261935,40.80505172,1637.89
-104.72264085,40.80507023,1637.88
-104.72265892,40.80508523,1637.90
-104.72270866,40.80512715,1637.91
-104.72272177,40.80513844,1637.90
-104.72277045,40.80517964,1637.91
-104.72280128,40.80520539,1637.92
-104.72281499,40.80521704,1637.92
-104.72284996,40.80524649,1637.88
-104.72291907,40.80530503,1637.84
-104.72293136,40.80531470,1637.87
-104.72296102,40.80533847,1637.90
-104.72298547,40.80535816,1637.80
-104.72301596,40.80538373,1637.76
-104.72302730,40.80539286,1637.75
-104.72306842,40.80542611,1637.71
-104.72310671,40.80545521,1637.70
-104.72313483,40.80547762,1637.69
-104.72316603,40.80550174,1637.65
-104.72318317,40.80551539,1637.64
-104.72320479,40.80553220,1637.62
-104.72321129,40.80553735,1637.62
-104.72323363,40.80555470,1637.61
-104.72330961,40.80561370,1637.46
-104.72334022,40.80563819,1637.41
-104.72339682,40.80568193,1637.45
-104.72340911,40.80569214,1637.46
-104.72342967,40.80570948,1637.43
-104.72349831,40.80576577,1637.42
-104.72353530,40.80579523,1637.49
-104.72359638,40.80584600,1637.60
-104.72360087,40.80584988,1637.59
-104.72361020,40.80585801,1637.59
-104.72362497,40.80587012,1637.60
-104.72364920,40.80589018,1637.67
-104.72366881,40.80590599,1637.69
-104.72371347,40.80594231,1637.75
-104.72373687,40.80596228,1637.75
-104.72377089,40.80599082,1637.74
-104.72380031,40.80601504,1637.74
-104.72381497,40.80602624,1637.77
-104.72385868,40.80606202,1637.78
-104.72387806,40.80607837,1637.84
-104.72389732,40.80609391,1637.88
-104.72390724,40.80610205,1637.94
-104.72393738,40.80612545,1638.07
-104.72395652,40.80614036,1638.18
-104.72397673,40.80615635,1638.22
-104.72400544,40.80617948,1638.17
-104.72402423,40.80619574,1638.21
-104.72403285,40.80620306,1638.17
-104.72404739,40.80621445,1638.20
-104.72408237,40.80624183,1638.18
-104.72409135,40.80624896,1638.16
-104.72411533,40.80626884,1638.13
-104.72414027,40.80628881,1638.08
-104.72418221,40.80632395,1638.01
-104.72422605,40.80635847,1637.94
-104.72426008,40.80638531,1637.97
-104.72429400,40.80641259,1637.97
-104.72430806,40.80642362,1637.98
-104.72432177,40.80643437,1637.96
-104.72433488,40.80644476,1637.96
-104.72436774,40.80647069,1637.97
-104.72438168,40.80648064,1637.99
-104.72440048,40.80649501,1638.00
-104.72441359,40.80650531,1638.03
-104.72442659,40.80651534,1638.03
-104.72443995,40.80652582,1638.01
-104.72445318,40.80653585,1638.02
-104.72447115,40.80654896,1638.04
-104.72448403,40.80655854,1638.06
-104.72451051,40.80657905,1638.06
-104.72454466,40.80660471,1638.07
-104.72455731,40.80661393,1638.13
-104.72456984,40.80662297,1638.16
-104.72459478,40.80664150,1638.13
-104.72460731,40.80665018,1638.16
-104.72463627,40.80667015,1638.12
-104.72465211,40.80668154,1638.12
-104.72466334,40.80668995,1638.15
-104.72467469,40.80669835,1638.15
-104.72469053,40.80670974,1638.15
-104.72470531,40.80671987,1638.16
-104.72472020,40.80673053,1638.20
-104.72473782,40.80674283,1638.16
-104.72475212,40.80675259,1638.14
-104.72475661,40.80675566,1638.19
-104.72477801,40.80676986,1638.15
-104.72481005,40.80679182,1638.16
-104.72485297,40.80682084,1638.16
-104.72485746,40.80682365,1638.14
-104.72486550,40.80682853,1638.14
-104.72487697,40.80683585,1638.17
-104.72489589,40.80684887,1638.17
-104.72491410,40.80686135,1638.18
-104.72492532,40.80686984,1638.23
-104.72474738,40.80729741,1638.21
-104.72469166,40.80729782,1638.20
-104.72468573,40.80729763,1638.15
-104.72464862,40.80729619,1638.13
-104.72464282,40.80729617,1638.10
-104.72461187,40.80729610,1638.09
-104.72458069,40.80729557,1638.01
-104.72454465,40.80729495,1637.99
-104.72453754,40.80729502,1638.01
-104.72451371,40.80729514,1637.96
-104.72448312,40.80729426,1637.92
-104.72445704,40.80729402,1637.91
-104.72441413,40.80729346,1637.87
-104.72438306,40.80729321,1637.85
-104.72436504,40.80729344,1637.88
-104.72435283,40.80729341,1637.86
-104.72432888,40.80729281,1637.84
-104.72430944,40.80729303,1637.81
-104.72428431,40.80729243,1637.80
-104.72424815,40.80729172,1637.77
-104.72419848,40.80729142,1637.71
-104.72414916,40.80729013,1637.65
-104.72411857,40.80729006,1637.65
-104.72410719,40.80728994,1637.67
-104.72408763,40.80729016,1637.64
-104.72404590,40.80728925,1637.65
-104.72400417,40.80728861,1637.70
-104.72398093,40.80728837,1637.65
-104.72395758,40.80728814,1637.67
-104.72390518,40.80728783,1637.74
-104.72386582,40.80728747,1637.79
-104.72384957,40.80728734,1637.79
-104.72383132,40.80728703,1637.80
-104.72378354,40.80728673,1637.84
-104.72376089,40.80728650,1637.82
-104.72371123,40.80728476,1637.85
-104.72368846,40.80728461,1637.86
-104.72364958,40.80728398,1637.90
-104.72362112,40.80728454,1637.93
-104.72357619,40.80728416,1637.97
-104.72353150,40.80728297,1638.04
-104.72349261,40.80728270,1638.14
-104.72346487,40.80728263,1638.17
-104.72343618,40.80728230,1638.21
-104.72340785,40.80728151,1638.19
-104.72338591,40.80728163,1638.26
-104.72332486,40.80728068,1638.45
-104.72328586,40.80728004,1638.50
-104.72325835,40.80727980,1638.52
-104.72322610,40.80727945,1638.63
-104.72319848,40.80727965,1638.78
-104.72316469,40.80728020,1639.06
-104.72308881,40.80727912,1639.30
-104.72302859,40.80727862,1639.46
-104.72295722,40.80727763,1639.40
-104.72292000,40.80727691,1639.46
-104.72289237,40.80727721,1639.52
-104.72285443,40.80727712,1639.59
-104.72282634,40.80727651,1639.69
-104.72281424,40.80727657,1639.76
-104.72280393,40.80727654,1639.79
-104.72273801,40.80727522,1639.92
-104.72270375,40.80727540,1639.90
-104.72268158,40.80727526,1639.92
-104.72261934,40.80727340,1639.90
-104.72260950,40.80727328,1639.93
-104.72256303,40.80727254,1639.87
-104.72255189,40.80727243,1639.90
-104.72249878,40.80727203,1639.78
-104.72247661,40.80727134,1639.77
-104.72243595,40.80727053,1639.70
-104.72234952,40.80726897,1639.61
-104.72231988,40.80726871,1639.60
-104.72228930,40.80726810,1639.55
-104.72227804,40.80726780,1639.52
-104.72223062,40.80726688,1639.42
-104.72217063,40.80726583,1639.28
-104.72214194,40.80726522,1639.18
-104.72211206,40.80726506,1639.12
-104.72209499,40.80726502,1639.06
-104.72208243,40.80726490,1639.03
-104.72202967,40.80726369,1638.84
-104.72198166,40.80726186,1638.63
-104.72193306,40.80726040,1638.34
-104.72189749,40.80726013,1638.19
-104.72183680,40.80725845,1637.96
-104.72177693,40.80725714,1637.74
-104.72169845,40.80725569,1637.44
-104.72166798,40.80725534,1637.31
-104.72162697,40.80725443,1637.16
-104.72159745,40.80725364,1637.06
-104.72150854,40.80725162,1636.73
-104.72144784,40.80725130,1636.59
-104.72141749,40.80725068,1636.53
-104.72136236,40.80724983,1636.47
-104.72133853,40.80724932,1636.38
-104.72128317,40.80724829,1636.18
-104.72124725,40.80724712,1636.03
-104.72119106,40.80724680,1635.95
-104.72115478,40.80724609,1635.89
-104.72105496,40.80724422,1635.54
-104.72104773,40.80724421,1635.55
-104.72101050,40.80724385,1635.51
-104.72097909,40.80724332,1635.43
-104.72095348,40.80724335,1635.39
-104.72090854,40.80724351,1635.21
-104.72082592,40.80724196,1634.93
-104.72081228,40.80724147,1634.96
-104.72079984,40.80724108,1634.93
-104.72077364,40.80724057,1634.84
-104.72070251,40.80723932,1634.69
-104.72066552,40.80723914,1634.62
-104.72062118,40.80723840,1634.53
-104.72058905,40.80723832,1634.46
-104.72056415,40.80723808,1634.39
-104.72053902,40.80723766,1634.34
-104.72048923,40.80723655,1634.05
-104.72044608,40.80723518,1633.99
-104.72042652,40.80723477,1633.85
-104.72036487,40.80723363,1633.54
-104.72030382,40.80723214,1633.31
-104.72026826,40.80723133,1633.18
-104.72018919,40.80722961,1632.81
-104.72006234,40.80722696,1632.33
-104.71998018,40.80722540,1632.08
-104.71993407,40.80722367,1631.78
-104.71990823,40.80722280,1631.59
-104.71988760,40.80722212,1631.45
-104.71985097,40.80722104,1631.27
-104.71979952,40.80721974,1631.02
-104.71971595,40.80721792,1630.59
-104.71962111,40.80721642,1630.14
-104.71952034,40.80721519,1629.81
-104.71945383,40.80721440,1629.55
-104.71939408,40.80721425,1629.31
-104.71930907,40.80721395,1629.12
-104.71924873,40.80721291,1628.92
-104.71922146,40.80721311,1628.89
-104.71916835,40.80721298,1628.75
-104.71913349,40.80721272,1628.65
-104.71907184,40.80721221,1628.55
-104.71904540,40.80721205,1628.47
-104.71896680,40.80721168,1628.25
-104.71879098,40.80721053,1627.73
-104.71875067,40.80721061,1627.67
-104.71871949,40.80721072,1627.61
-104.71864326,40.80721062,1627.51
-104.71860414,40.80721035,1627.50
-104.71852767,40.80721007,1627.44
-104.71852055,40.80721014,1627.47
-104.71844586,40.80721014,1627.46
-104.71843780,40.80721021,1627.46
-104.71838634,40.80721045,1627.41
-104.71831224,40.80721026,1627.38
-104.71822475,40.80721068,1627.38
-104.71818799,40.80721068,1627.35
-104.71811496,40.80721068,1627.32
-104.71807963,40.80721042,1627.31
-104.71798739,40.80721019,1627.22
-104.71787832,40.80720983,1627.11
-104.71783291,40.80720936,1627.01
-104.71780007,40.80720937,1626.93
-104.71775467,40.80720917,1626.92
-104.71772242,40.80720882,1626.90
-104.71769017,40.80720829,1626.86
-104.71765366,40.80720820,1626.73
-104.71759640,40.80720761,1626.64
-104.71758430,40.80720767,1626.62
-104.71742924,40.80720576,1626.33
-104.71736048,40.80720460,1626.16
-104.71730345,40.80720437,1626.11
-104.71724749,40.80720361,1626.11
-104.71715040,40.80720283,1626.02
-104.71706611,40.80720199,1625.87
-104.71700600,40.80720175,1625.82
-104.71695490,40.80720109,1625.78
-104.71693380,40.80720095,1625.79
-104.71688946,40.80720066,1625.79
-104.71678134,40.80719967,1625.68
-104.71665768,40.80719865,1625.55
-104.71655549,40.80719867,1625.50
-104.71653023,40.80719860,1625.49
-104.71645388,40.80719833,1625.50
-104.71630865,40.80719878,1625.50
-104.71628150,40.80719853,1625.48
-104.71621273,40.80719854,1625.47
-104.71612216,40.80719814,1625.37
-104.71608932,40.80719797,1625.33
-104.71603952,40.80719803,1625.27
-104.71596412,40.80719784,1625.24
-104.71589524,40.80719803,1625.24
-104.71583299,40.80719815,1625.18
-104.71579825,40.80719833,1625.23
-104.71571668,40.80719822,1625.27
-104.71568218,40.80719832,1625.30
-104.71556932,40.80719840,1625.32
-104.71547056,40.80719816,1625.38
-104.71545880,40.80720173,1625.38
-104.71545817,40.80726758,1625.40
-104.71545752,40.80741847,1625.46
-104.71545721,40.80749198,1625.47
-104.71545614,40.80779809,1625.41
-104.71545437,40.80815734,1626.22
-104.71545281,40.80852237,1626.88
-104.71545222,40.80865929,1627.01
-104.71545221,40.80866164,1627.02
-104.71545186,40.80874325,1627.07
-104.71545142,40.80884712,1627.09
-104.71545132,40.80886955,1627.05
-104.71545105,40.80893324,1627.01
-104.71545102,40.80893964,1627.03
-104.71545067,40.80902296,1626.89
-104.71545033,40.80910314,1626.79
-104.71545010,40.80915710,1626.75
-104.71544978,40.80923016,1626.72
-104.71544951,40.80929547,1626.57
-104.71544875,40.80947348,1625.87
-104.71544855,40.80951942,1625.59
-104.71544798,40.80965148,1624.63
-104.71544792,40.80966680,1624.55
-104.71544733,40.80980472,1623.84
-104.71544716,40.80984345,1623.66
-104.71544644,40.81001236,1623.00
-104.71544606,40.81010163,1622.51
-104.71544565,40.81019883,1622.34
-104.71544526,40.81028865,1622.03
-104.71544525,40.81029117,1622.05
-104.71544492,40.81036828,1622.00
-104.71544467,40.81042684,1622.03
-104.71544411,40.81055737,1622.06
-104.71544378,40.81063538,1622.11
-104.71544335,40.81073520,1622.23
-104.71544299,40.81082006,1622.35
-104.71544294,40.81083258,1622.34
-104.71544234,40.81097338,1622.43
-104.71544220,40.81100545,1622.52
-104.71544178,40.81110391,1622.68
-104.71544124,40.81122931,1622.79
-104.71544120,40.81123931,1622.75
-104.71544034,40.81143983,1622.83
-104.71544032,40.81144479,1622.82
-104.71544005,40.81150848,1622.83
-104.71543979,40.81156938,1622.86
-104.71543953,40.81163045,1622.86
-104.71543941,40.81165892,1622.84
-104.71543903,40.81174684,1622.93
-104.71543882,40.81179621,1622.97
-104.71543859,40.81185107,1622.94
-104.71543846,40.81188026,1622.97
-104.71543833,40.81191170,1623.02
-104.71543813,40.81195854,1623.06
-104.71543809,40.81196809,1623.07
-104.71543808,40.81196935,1623.06
-104.71543788,40.81201547,1623.21
-104.71543743,40.81212159,1623.45
-104.71543733,40.81214501,1623.46
-104.71543705,40.81221177,1623.26
-104.71543694,40.81223591,1624.01
-104.71543682,40.81226465,1624.26
-104.71543658,40.81231987,1624.55
-104.71543653,40.81233203,1624.57
-104.71543629,40.81238896,1624.59
-104.71543617,40.81241635,1624.58
-104.71543609,40.81243644,1624.64
-104.71543560,40.81254958,1624.32
-104.71543549,40.81257580,1624.32
-104.71543523,40.81263805,1624.17
-104.71543560,40.81266120,1624.07
-104.71546595,40.81266145,1624.13
-104.71552844,40.81266161,1624.28
-104.71570783,40.81266205,1624.90
-104.71573285,40.81266211,1624.97
-104.71598243,40.81266273,1625.32
-104.71605215,40.81266290,1625.38
-104.71614297,40.81266312,1625.48
-104.71618874,40.81266323,1625.56
-104.71631371,40.81266354,1625.66
-104.71632723,40.81266357,1625.67
-104.71642552,40.81266382,1625.81
-104.71643382,40.81266384,1625.83
-104.71645670,40.81266389,1625.84
-104.71649915,40.81266400,1625.87
-104.71651658,40.81266404,1625.86
-104.71652381,40.81266406,1625.89
-104.71654361,40.81266411,1625.89
-104.71658570,40.81266421,1625.94
-104.71667783,40.81266444,1625.98
-104.71668459,40.81266445,1625.97
-104.71669988,40.81266449,1626.02
-104.71674020,40.81266459,1625.94
-104.71678822,40.81266471,1625.97
-104.71689267,40.81266496,1625.96
-104.71692398,40.81266504,1626.00
-104.71708416,40.81266543,1625.95
-104.71709175,40.81266545,1625.94
-104.71709258,40.81266545,1625.97
-104.71719099,40.81266569,1626.01
-104.71722952,40.81266579,1626.04
-104.71725762,40.81266586,1626.04
-104.71726225,40.81266587,1626.03
-104.71735414,40.81266609,1626.09
-104.71736410,40.81266612,1626.13
-104.71748942,40.81266642,1626.27
-104.71749298,40.81266643,1626.27
-104.71754764,40.81266657,1626.29
-104.71755084,40.81266658,1626.30
-104.71761570,40.81266673,1626.34
-104.71763751,40.81266679,1626.35
-104.71763763,40.81266679,1626.34
-104.71766573,40.81266686,1626.32
-104.71768328,40.81266690,1626.33
-104.71769371,40.81266692,1626.37
-104.71770344,40.81266695,1626.35
-104.71775027,40.81266706,1626.35
-104.71775644,40.81266708,1626.34
-104.71775928,40.81266709,1626.36
-104.71781857,40.81266723,1626.41
-104.71785971,40.81266733,1626.40
-104.71786066,40.81266733,1626.39
-104.71791650,40.81266747,1626.43
-104.71801053,40.81266770,1626.49
-104.71801159,40.81266770,1626.46
-104.71801812,40.81266772,1626.47
-104.71807159,40.81266785,1626.39
-104.71810514,40.81266793,1626.33
-104.71815957,40.81266806,1626.35
-104.71819727,40.81266816,1626.38
-104.71822596,40.81266823,1626.37
-104.71823332,40.81266824,1626.37
-104.71842611,40.81266871,1626.29
-104.71843417,40.81266873,1626.25
-104.71844188,40.81266875,1626.28
-104.71844235,40.81266875,1626.26
-104.71844460,40.81266876,1626.26
-104.71845978,40.81266880,1626.24
-104.71858854,40.81266911,1626.11
-104.71865945,40.81266928,1626.11
-104.71869656,40.81266937,1626.07
-104.71870249,40.81266939,1626.05
-104.71875655,40.81266952,1626.04
-104.71876805,40.81266955,1626.02
-104.71883777,40.81266972,1625.96
-104.71891413,40.81266991,1625.89
-104.71892848,40.81266994,1625.90
-104.71904147,40.81267022,1625.85
-104.71907443,40.81267030,1625.84
-104.71911996,40.81267041,1625.78
-104.71915316,40.81267049,1625.75
-104.71918826,40.81267057,1625.73
-104.71931263,40.81267087,1625.78
-104.71939290,40.81267107,1626.06
-104.71943405,40.81267117,1626.12
-104.71944104,40.81267119,1626.14
-104.71960395,40.81267158,1626.30
-104.71968126,40.81267177,1626.30
-104.71968411,40.81267178,1626.32
-104.71969549,40.81267181,1626.33
-104.71970735,40.81267183,1626.33
-104.71972821,40.81267189,1626.31
-104.71973224,40.81267189,1626.32
-104.71981702,40.81267210,1626.32
-104.71982959,40.81267213,1626.35
-104.71985994,40.81267220,1626.39
-104.71988709,40.81267227,1626.40
-104.71998183,40.81267250,1626.44
     </coordinates>
    </LineString>
   </MultiGeometry>
  </Placemark>
 </Document>
</kml>
