<kml>
 <Document>
  <Style id="yellow">
   <LineStyle>
   <color>ff00ffff</color>
   <width>1</width>
   </LineStyle>
  </Style>
  <Style id="red">
   <LineStyle>
   <color>ffff0000</color>
   <width>2</width>
   </LineStyle>
  </Style>
  <Style id="green">
   <LineStyle>
   <color>ff00ff00</color>
   <width>1</width>
   </LineStyle>
  </Style>
  <Placemark>
  <styleUrl>#yellow</styleUrl>
   <MultiGeometry>
    <LineString>
     <coordinates>
-104.71549569,40.79986906,1627.83
-104.71549188,40.79987175,1627.85
-104.71548990,40.79991940,1628.16
-104.71548883,40.80008858,1629.33
-104.71549390,40.80009400,1629.39
-104.71549850,40.80009860,1629.40
-104.71552545,40.80011741,1629.55
-104.71554803,40.80013305,1629.59
-104.71574401,40.80026506,1630.53
-104.71580690,40.80030692,1630.91
-104.71611804,40.80051353,1632.64
-104.71633591,40.80065667,1633.97
-104.71643769,40.80072367,1634.54
-104.71660651,40.80083426,1635.35
-104.71661561,40.80084023,1635.36
-104.71669884,40.80089377,1635.78
-104.71682215,40.80097334,1636.37
-104.71696863,40.80106730,1636.82
-104.71703744,40.80111107,1637.17
-104.71716383,40.80119066,1637.61
-104.71727130,40.80125840,1637.98
-104.71735087,40.80130859,1638.17
-104.71743458,40.80136167,1638.41
-104.71750410,40.80140571,1638.57
-104.71754844,40.80143375,1638.64
-104.71764066,40.80149226,1638.85
-104.71805289,40.80176271,1640.41
-104.71818930,40.80185574,1640.57
-104.71821637,40.80187419,1640.53
-104.71833730,40.80195700,1640.46
-104.71839321,40.80199506,1640.47
-104.71856095,40.80210889,1640.36
-104.71886097,40.80231367,1640.16
-104.71899052,40.80240271,1640.04
-104.71917032,40.80252594,1639.83
-104.71927612,40.80259844,1639.71
-104.71931477,40.80262466,1639.69
-104.71945970,40.80272294,1639.43
-104.71984384,40.80299683,1637.89
-104.71989986,40.80303868,1637.73
-104.72005100,40.80315408,1637.06
-104.72012403,40.80321074,1636.78
-104.72030257,40.80335063,1636.21
-104.72044744,40.80346548,1635.66
-104.72058013,40.80356967,1635.30
-104.72067349,40.80364151,1635.15
-104.72070480,40.80366528,1635.10
-104.72077190,40.80366580,1635.20
-104.72108132,40.80366664,1636.03
-104.72112934,40.80366676,1636.20
-104.72144030,40.80366751,1637.63
-104.72170182,40.80366814,1638.37
-104.72176370,40.80366829,1638.40
-104.72184053,40.80366847,1638.56
-104.72216903,40.80366926,1639.43
-104.72251698,40.80367010,1639.83
-104.72294874,40.80367114,1639.46
-104.72302296,40.80367132,1639.28
-104.72314020,40.80367160,1638.94
-104.72333356,40.80367206,1638.34
-104.72348661,40.80367243,1637.85
-104.72386503,40.80367334,1636.08
-104.72397433,40.80367360,1635.49
-104.72405874,40.80367380,1635.07
-104.72411813,40.80367394,1634.89
-104.72424119,40.80367423,1634.40
-104.72428257,40.80367433,1634.21
-104.72433390,40.80367446,1633.99
-104.72447343,40.80367479,1633.50
-104.72463751,40.80367518,1633.07
-104.72479720,40.80367556,1632.73
-104.72483241,40.80367565,1632.66
-104.72484023,40.80367567,1632.64
-104.72484687,40.80367568,1632.64
-104.72496151,40.80367595,1632.46
-104.72501320,40.80367608,1632.40
-104.72504011,40.80367614,1632.40
-104.72506252,40.80367620,1632.35
-104.72530175,40.80367676,1632.47
-104.72537158,40.80367693,1632.58
-104.72547460,40.80367718,1632.77
-104.72566642,40.80367763,1633.20
-104.72567863,40.80367766,1633.21
-104.72596813,40.80367835,1634.00
-104.72608502,40.80367863,1634.34
-104.72632011,40.80367918,1635.10
-104.72641258,40.80367940,1635.45
-104.72653979,40.80367971,1635.97
-104.72660902,40.80367987,1636.20
-104.72664459,40.80367995,1636.37
-104.72691559,40.80368060,1637.64
-104.72717487,40.80368121,1638.85
-104.72722703,40.80368133,1639.15
-104.72732673,40.80368148,1639.56
-104.72732841,40.80367734,1639.60
-104.72732892,40.80361086,1639.70
-104.72732949,40.80347113,1639.88
-104.72732996,40.80335520,1639.93
-104.72733013,40.80331385,1639.91
-104.72733037,40.80325619,1639.77
-104.72733042,40.80324475,1639.78
-104.72733075,40.80316197,1639.56
-104.72733123,40.80304666,1639.12
-104.72733167,40.80293919,1638.63
-104.72733178,40.80291189,1638.53
-104.72733216,40.80281910,1638.02
-104.72733218,40.80281289,1638.02
-104.72733230,40.80278343,1637.84
-104.72733239,40.80276325,1637.66
-104.72733261,40.80270866,1637.32
-104.72733274,40.80267785,1637.09
-104.72733279,40.80266461,1637.10
-104.72733327,40.80254732,1636.32
-104.72733341,40.80251345,1636.13
-104.72733368,40.80244678,1635.80
-104.72733404,40.80235931,1635.21
-104.72733410,40.80234517,1635.14
-104.72733411,40.80234184,1635.16
-104.72733419,40.80232328,1635.06
-104.72733485,40.80216113,1634.20
-104.72733517,40.80208347,1633.76
-104.72733529,40.80205357,1633.57
-104.72733543,40.80201897,1633.43
-104.72733557,40.80198447,1633.23
-104.72733619,40.80183331,1632.63
-104.72733623,40.80182313,1632.58
-104.72733638,40.80178818,1632.38
-104.72733648,40.80176313,1632.34
-104.72733669,40.80171224,1632.05
-104.72733697,40.80164206,1631.80
-104.72733755,40.80150099,1631.15
-104.72733761,40.80148657,1631.09
-104.72733769,40.80146775,1631.03
-104.72733771,40.80146144,1631.04
-104.72733779,40.80144369,1630.98
-104.72733782,40.80143622,1630.93
-104.72733835,40.80130605,1630.74
-104.72733844,40.80128488,1630.69
-104.72733857,40.80125163,1630.67
-104.72733857,40.80125154,1630.66
-104.72733860,40.80124434,1630.66
-104.72733868,40.80122542,1630.65
-104.72733877,40.80120263,1630.63
-104.72733910,40.80112227,1630.67
-104.72733932,40.80106795,1630.60
-104.72733938,40.80105462,1630.58
-104.72733944,40.80104012,1630.55
-104.72733950,40.80102408,1630.53
-104.72733994,40.80091769,1630.48
-104.72734023,40.80084715,1630.43
-104.72734056,40.80076590,1630.34
-104.72734067,40.80073887,1630.28
-104.72734085,40.80069437,1630.15
-104.72734107,40.80064059,1630.03
-104.72734126,40.80059447,1629.91
-104.72734136,40.80056996,1629.90
-104.72734158,40.80051727,1629.71
-104.72734159,40.80051384,1629.71
-104.72734163,40.80050384,1629.70
-104.72734187,40.80044502,1629.61
-104.72734203,40.80040736,1629.52
-104.72734211,40.80038754,1629.49
-104.72734217,40.80037322,1629.44
-104.72734227,40.80034746,1629.43
-104.72734241,40.80031241,1629.39
-104.72734245,40.80030349,1629.31
-104.72734277,40.80022467,1629.26
-104.72734287,40.80020215,1629.26
-104.72734358,40.80002766,1629.18
-104.72734365,40.80001135,1629.14
-104.72734367,40.80000486,1629.16
-104.72734439,40.79983010,1629.50
-104.72734467,40.79976128,1629.66
-104.72734474,40.79974533,1629.66
-104.72734524,40.79962210,1630.00
-104.72734528,40.79961336,1630.00
-104.72734549,40.79956165,1629.87
-104.72734557,40.79954012,1629.80
-104.72734563,40.79952562,1629.78
-104.72734571,40.79950814,1629.75
-104.72734581,40.79948210,1629.79
-104.72734614,40.79940175,1630.22
-104.72734620,40.79938734,1630.31
-104.72734650,40.79931473,1630.58
-104.72734673,40.79925851,1630.90
-104.72734681,40.79923906,1630.99
-104.72734689,40.79921762,1631.07
-104.72734696,40.79920059,1631.14
-104.72734733,40.79911177,1631.64
-104.72734744,40.79908366,1631.78
-104.72734753,40.79906150,1631.90
-104.72734764,40.79903601,1632.05
-104.72734777,40.79900439,1632.16
-104.72734842,40.79884521,1633.18
-104.72734851,40.79882323,1633.35
-104.72734856,40.79881025,1633.44
-104.72734884,40.79874287,1633.95
-104.72734889,40.79873035,1634.01
-104.72734894,40.79871711,1634.13
-104.72734907,40.79868558,1634.37
-104.72734910,40.79867936,1634.42
-104.72734915,40.79866531,1634.52
-104.72734916,40.79866405,1634.51
-104.72734923,40.79864693,1634.64
-104.72734982,40.79850271,1635.76
-104.72734985,40.79849568,1635.79
-104.72734997,40.79846649,1636.01
-104.72735023,40.79840190,1636.42
-104.72735046,40.79834677,1636.82
-104.72735090,40.79823894,1637.50
-104.72735155,40.79808012,1638.40
-104.72735226,40.79790644,1638.91
-104.72735231,40.79789310,1638.98
-104.72735238,40.79787815,1639.01
-104.72735260,40.79782284,1639.23
-104.72735279,40.79777716,1639.38
-104.72735290,40.79775068,1639.53
-104.72735298,40.79773149,1639.59
-104.72735310,40.79770122,1639.67
-104.72735324,40.79766645,1639.84
-104.72735330,40.79765186,1639.93
-104.72735333,40.79764555,1639.90
-104.72735338,40.79763231,1639.98
-104.72735364,40.79756997,1640.00
-104.72735404,40.79747169,1639.97
-104.72735408,40.79746034,1639.93
-104.72735461,40.79733170,1640.29
-104.72735558,40.79706640,1641.36
-104.72735685,40.79678434,1642.07
-104.72735740,40.79664913,1642.03
-104.72735798,40.79650697,1641.67
-104.72735856,40.79636635,1640.98
-104.72735862,40.79635266,1640.87
-104.72735875,40.79631879,1640.79
-104.72735882,40.79630320,1640.72
-104.72735884,40.79629771,1640.67
-104.72735887,40.79629041,1640.66
-104.72735899,40.79626149,1640.51
-104.72735945,40.79614880,1639.84
-104.72736006,40.79600097,1639.30
-104.72736121,40.79571891,1638.06
-104.72736229,40.79545397,1636.58
-104.72736333,40.79520084,1634.91
-104.72736355,40.79514625,1634.64
-104.72736420,40.79498752,1633.64
-104.72736422,40.79498346,1633.49
-104.72736469,40.79486815,1634.04
-104.72736488,40.79482113,1634.81
-104.72736527,40.79469798,1635.10
-104.72736477,40.79467402,1635.20
-104.72731380,40.79467336,1634.99
-104.72712652,40.79467265,1634.19
-104.72698297,40.79467231,1633.82
-104.72685780,40.79467201,1633.40
-104.72664064,40.79467150,1632.60
-104.72650172,40.79467117,1632.12
-104.72647813,40.79467111,1632.03
-104.72643593,40.79467101,1631.89
-104.72638579,40.79467089,1631.68
-104.72600778,40.79467000,1630.71
-104.72596392,40.79466989,1630.59
-104.72580935,40.79466952,1630.38
-104.72553340,40.79466896,1629.97
-104.72525520,40.79466839,1629.35
-104.72488122,40.79466740,1628.51
-104.72471800,40.79466702,1628.21
-104.72434923,40.79466614,1627.37
-104.72402907,40.79466528,1626.66
-104.72372194,40.79466454,1626.23
-104.72365651,40.79466439,1626.12
-104.72361325,40.79466428,1626.04
-104.72335769,40.79466367,1625.60
-104.72322836,40.79466336,1625.39
-104.72305495,40.79466295,1625.13
-104.72276264,40.79466224,1624.65
-104.72267397,40.79466203,1624.53
-104.72262774,40.79466192,1624.49
-104.72254975,40.79466173,1624.45
-104.72234314,40.79466124,1624.31
-104.72229430,40.79466112,1624.23
-104.72223160,40.79466097,1624.09
-104.72218715,40.79466086,1623.90
-104.72187066,40.79466010,1623.41
-104.72186117,40.79466170,1623.41
-104.72132083,40.79484309,1623.36
-104.72124724,40.79486750,1623.47
-104.72123323,40.79487215,1623.51
-104.72115548,40.79489800,1623.79
-104.72106812,40.79492707,1624.11
-104.72088793,40.79498690,1624.85
-104.72038772,40.79515189,1624.07
-104.72028528,40.79518552,1623.56
-104.72010129,40.79524579,1622.40
-104.71995102,40.79529497,1621.50
-104.71997598,40.79533593,1621.42
-104.72000977,40.79539033,1621.28
-104.72004887,40.79545016,1621.18
-104.72007055,40.79548228,1621.14
-104.72007891,40.79549428,1621.10
-104.72009953,40.79552532,1620.99
-104.72011154,40.79554373,1620.91
-104.72013569,40.79557865,1620.79
-104.72015490,40.79560662,1620.69
-104.72015867,40.79561204,1620.67
-104.72018423,40.79564939,1620.52
-104.72019248,40.79566076,1620.53
-104.72023728,40.79571898,1620.30
-104.72025366,40.79574289,1620.25
-104.72025649,40.79574677,1620.20
-104.72026003,40.79575137,1620.19
-104.72026380,40.79575625,1620.16
-104.72027747,40.79577421,1620.04
-104.72028125,40.79577899,1620.00
-104.72029433,40.79579623,1619.96
-104.72031036,40.79581825,1619.87
-104.72031437,40.79582348,1619.83
-104.72032427,40.79583648,1619.85
-104.72033842,40.79585399,1619.77
-104.72034927,40.79586843,1619.75
-104.72037733,40.79590462,1619.57
-104.72039089,40.79592222,1619.54
-104.72040491,40.79594108,1619.48
-104.72041930,40.79595959,1619.41
-104.72043038,40.79597349,1619.35
-104.72046814,40.79601601,1619.18
-104.72037590,40.79644297,1616.83
-104.72037198,40.79644575,1616.81
-104.72036021,40.79645401,1616.80
-104.72034939,40.79646164,1616.78
-104.72034535,40.79646443,1616.77
-104.72034166,40.79646703,1616.75
-104.72033774,40.79646981,1616.76
-104.72033037,40.79647493,1616.74
-104.72032644,40.79647771,1616.73
-104.72031883,40.79648301,1616.72
-104.72030694,40.79649136,1616.71
-104.72029589,40.79649917,1616.69
-104.72029220,40.79650177,1616.69
-104.72028840,40.79650447,1616.65
-104.72028067,40.79650985,1616.65
-104.72027710,40.79651237,1616.67
-104.72026949,40.79651766,1616.64
-104.72026545,40.79652054,1616.67
-104.72026176,40.79652314,1616.65
-104.72025392,40.79652862,1616.65
-104.72024619,40.79653400,1616.65
-104.72023894,40.79653912,1616.65
-104.72023525,40.79654172,1616.66
-104.72023133,40.79654451,1616.64
-104.72022776,40.79654702,1616.65
-104.72022384,40.79654980,1616.64
-104.72021635,40.79655501,1616.63
-104.72020862,40.79656040,1616.62
-104.72020482,40.79656309,1616.64
-104.72019685,40.79656865,1616.64
-104.72018568,40.79657646,1616.63
-104.72018199,40.79657907,1616.61
-104.72017842,40.79658158,1616.62
-104.72017450,40.79658437,1616.63
-104.72017081,40.79658697,1616.61
-104.72015964,40.79659478,1616.62
-104.72015560,40.79659765,1616.61
-104.72015179,40.79660035,1616.61
-104.72014406,40.79660573,1616.60
-104.72014026,40.79660843,1616.58
-104.72013253,40.79661381,1616.59
-104.72012896,40.79661633,1616.58
-104.72012159,40.79662144,1616.58
-104.72011030,40.79662943,1616.56
-104.72010661,40.79663204,1616.56
-104.72009889,40.79663742,1616.53
-104.72009508,40.79664012,1616.52
-104.72009163,40.79664254,1616.50
-104.72008355,40.79664820,1616.51
-104.72007606,40.79665340,1616.49
-104.72007225,40.79665601,1616.52
-104.72006500,40.79666112,1616.49
-104.72006132,40.79666373,1616.46
-104.72005371,40.79666902,1616.41
-104.72005002,40.79667163,1616.39
-104.72004646,40.79667414,1616.37
-104.72003873,40.79667953,1616.34
-104.72003504,40.79668213,1616.31
-104.72002351,40.79669021,1616.25
-104.72001269,40.79669775,1616.19
-104.72000900,40.79670035,1616.18
-104.72000520,40.79670305,1616.17
-104.72000151,40.79670565,1616.15
-104.71999759,40.79670843,1616.16
-104.71999402,40.79671095,1616.15
-104.71998642,40.79671624,1616.12
-104.71997500,40.79672423,1616.08
-104.71996716,40.79672971,1616.06
-104.71996371,40.79673213,1616.07
-104.71996002,40.79673474,1616.08
-104.71995645,40.79673725,1616.06
-104.71995277,40.79673986,1616.06
-104.71994136,40.79674785,1616.05
-104.71993018,40.79675566,1616.07
-104.71992626,40.79675844,1616.07
-104.71992269,40.79676095,1616.08
-104.71991484,40.79676643,1616.10
-104.71991092,40.79676921,1616.10
-104.71990735,40.79677173,1616.09
-104.71990367,40.79677433,1616.09
-104.71989249,40.79678214,1616.14
-104.71988500,40.79678744,1616.12
-104.71987383,40.79679525,1616.15
-104.71986645,40.79680045,1616.14
-104.71985456,40.79680880,1616.18
-104.71985100,40.79681132,1616.20
-104.71984743,40.79681383,1616.22
-104.71984375,40.79681643,1616.23
-104.71983257,40.79682424,1616.31
-104.71982865,40.79682703,1616.31
-104.71982508,40.79682954,1616.34
-104.71982139,40.79683214,1616.35
-104.71980998,40.79684013,1616.37
-104.71980213,40.79684561,1616.36
-104.71978739,40.79685593,1616.37
-104.71978394,40.79685836,1616.35
-104.71978002,40.79686114,1616.37
-104.71977645,40.79686366,1616.37
-104.71976540,40.79687138,1616.31
-104.71976159,40.79687407,1616.28
-104.71975018,40.79688206,1616.32
-104.71973520,40.79689256,1616.32
-104.71972795,40.79689768,1616.36
-104.71970928,40.79691070,1616.36
-104.71969406,40.79692138,1616.37
-104.71969014,40.79692416,1616.36
-104.71967551,40.79693440,1616.37
-104.71967207,40.79693682,1616.38
-104.71966458,40.79694212,1616.38
-104.71965352,40.79694984,1616.39
-104.71964579,40.79695532,1616.40
-104.71963438,40.79696330,1616.41
-104.71963057,40.79696600,1616.42
-104.71962689,40.79696860,1616.42
-104.71962344,40.79697103,1616.42
-104.71961238,40.79697875,1616.39
-104.71960882,40.79698126,1616.40
-104.71959776,40.79698898,1616.41
-104.71959384,40.79699176,1616.40
-104.71959015,40.79699437,1616.42
-104.71958646,40.79699697,1616.40
-104.71957493,40.79700505,1616.45
-104.71957137,40.79700756,1616.42
-104.71956780,40.79701008,1616.40
-104.71956411,40.79701268,1616.44
-104.71956067,40.79701511,1616.40
-104.71954937,40.79702301,1616.40
-104.71954568,40.79702561,1616.45
-104.71954224,40.79702803,1616.43
-104.71953082,40.79703602,1616.45
-104.71951929,40.79704410,1616.45
-104.71951216,40.79704913,1616.46
-104.71950871,40.79705155,1616.46
-104.71949753,40.79705936,1616.45
-104.71949385,40.79706197,1616.46
-104.71947887,40.79707247,1616.47
-104.71947150,40.79707768,1616.50
-104.71945307,40.79709061,1616.53
-104.71944938,40.79709321,1616.59
-104.71944570,40.79709581,1616.56
-104.71944213,40.79709833,1616.58
-104.71942334,40.79711143,1616.64
-104.71941978,40.79711395,1616.67
-104.71940825,40.79712203,1616.72
-104.71940468,40.79712454,1616.74
-104.71940099,40.79712714,1616.75
-104.71939755,40.79712957,1616.77
-104.71938649,40.79713729,1616.82
-104.71936782,40.79715030,1616.79
-104.71936426,40.79715282,1616.81
-104.71935260,40.79716099,1616.84
-104.71934559,40.79716593,1616.82
-104.71934214,40.79716835,1616.83
-104.71932728,40.79717876,1616.85
-104.71932371,40.79718128,1616.88
-104.71931634,40.79718648,1616.90
-104.71930136,40.79719699,1616.93
-104.71929387,40.79720228,1616.96
-104.71927937,40.79721243,1617.01
-104.71927580,40.79721494,1617.02
-104.71926855,40.79722006,1617.02
-104.71925713,40.79722805,1617.07
-104.71924988,40.79723317,1617.09
-104.71923859,40.79724107,1617.11
-104.71922420,40.79725121,1617.19
-104.71922063,40.79725373,1617.20
-104.71921326,40.79725893,1617.21
-104.71920969,40.79726145,1617.23
-104.71920601,40.79726405,1617.23
-104.71919079,40.79727473,1617.27
-104.71917985,40.79728236,1617.34
-104.71917629,40.79728488,1617.33
-104.71917284,40.79728730,1617.34
-104.71916154,40.79729520,1617.38
-104.71913574,40.79731334,1617.42
-104.71912492,40.79732097,1617.47
-104.71911779,40.79732599,1617.53
-104.71909936,40.79733892,1617.65
-104.71909187,40.79734422,1617.71
-104.71908830,40.79734673,1617.74
-104.71907321,40.79735732,1617.81
-104.71906976,40.79735975,1617.81
-104.71906619,40.79736226,1617.83
-104.71906274,40.79736469,1617.87
-104.71904431,40.79737752,1617.95
-104.71904051,40.79738022,1617.96
-104.71903302,40.79738551,1618.02
-104.71901804,40.79739602,1618.08
-104.71901471,40.79739835,1618.11
-104.71901114,40.79740087,1618.13
-104.71899283,40.79741370,1618.25
-104.71898927,40.79741622,1618.28
-104.71898178,40.79742151,1618.32
-104.71897440,40.79742672,1618.35
-104.71895609,40.79743956,1618.46
-104.71894884,40.79744468,1618.53
-104.71894528,40.79744719,1618.56
-104.71893446,40.79745482,1618.62
-104.71891959,40.79746523,1618.67
-104.71889772,40.79748059,1618.82
-104.71889035,40.79748579,1618.86
-104.71888678,40.79748831,1618.87
-104.71888321,40.79749082,1618.89
-104.71887965,40.79749333,1618.91
-104.71886086,40.79750653,1619.00
-104.71884291,40.79751910,1619.15
-104.71882484,40.79753185,1619.26
-104.71882115,40.79753445,1619.26
-104.71881378,40.79753966,1619.34
-104.71879523,40.79755267,1619.48
-104.71879190,40.79755501,1619.50
-104.71878453,40.79756021,1619.56
-104.71876634,40.79757296,1619.72
-104.71874054,40.79759101,1619.89
-104.71873353,40.79759594,1619.92
-104.71872627,40.79760106,1619.99
-104.71871533,40.79760878,1620.07
-104.71870440,40.79761650,1620.15
-104.71868953,40.79762692,1620.17
-104.71868264,40.79763176,1620.26
-104.71867527,40.79763697,1620.31
-104.71867170,40.79763949,1620.33
-104.71865327,40.79765241,1620.49
-104.71864994,40.79765475,1620.48
-104.71863151,40.79766767,1620.63
-104.71861725,40.79767773,1620.76
-104.71860274,40.79768796,1620.87
-104.71858407,40.79770107,1620.97
-104.71857706,40.79770601,1621.05
-104.71857349,40.79770852,1621.07
-104.71856279,40.79771606,1621.20
-104.71855566,40.79772109,1621.21
-104.71853723,40.79773402,1621.37
-104.71852272,40.79774425,1621.51
-104.71851571,40.79774919,1621.54
-104.71850120,40.79775933,1621.63
-104.71849015,40.79776714,1621.71
-104.71848289,40.79777226,1621.79
-104.71845020,40.79779515,1622.00
-104.71844330,40.79780000,1622.02
-104.71841738,40.79781822,1622.18
-104.71840323,40.79782819,1622.28
-104.71839967,40.79783070,1622.31
-104.71837791,40.79784596,1622.48
-104.71837042,40.79785126,1622.51
-104.71835972,40.79785880,1622.59
-104.71835627,40.79786123,1622.59
-104.71834165,40.79787146,1622.68
-104.71833095,40.79787900,1622.76
-104.71832369,40.79788412,1622.82
-104.71829468,40.79790450,1622.98
-104.71828053,40.79791437,1623.10
-104.71826199,40.79792739,1623.27
-104.71824427,40.79793987,1623.41
-104.71823714,40.79794490,1623.41
-104.71822656,40.79795235,1623.50
-104.71820789,40.79796545,1623.63
-104.71819374,40.79797542,1623.74
-104.71816461,40.79799580,1623.91
-104.71815736,40.79800091,1623.94
-104.71815367,40.79800352,1623.99
-104.71814297,40.79801106,1624.11
-104.71813952,40.79801348,1624.13
-104.71813596,40.79801600,1624.13
-104.71811432,40.79803117,1624.28
-104.71810707,40.79803628,1624.36
-104.71809969,40.79804149,1624.40
-104.71808555,40.79805146,1624.52
-104.71807092,40.79806169,1624.63
-104.71806747,40.79806411,1624.67
-104.71806391,40.79806663,1624.69
-104.71806022,40.79806923,1624.72
-104.71805309,40.79807426,1624.76
-104.71803846,40.79808458,1624.89
-104.71801682,40.79809975,1625.03
-104.71800244,40.79810990,1625.19
-104.71799162,40.79811753,1625.27
-104.71796665,40.79813504,1625.49
-104.71795952,40.79814006,1625.54
-104.71795595,40.79814258,1625.54
-104.71793371,40.79815820,1625.76
-104.71791612,40.79817059,1625.90
-104.71787617,40.79819859,1626.23
-104.71787272,40.79820102,1626.25
-104.71785489,40.79821359,1626.45
-104.71784799,40.79821843,1626.52
-104.71783693,40.79822625,1626.63
-104.71782956,40.79823145,1626.76
-104.71781898,40.79823890,1626.87
-104.71780495,40.79824878,1627.00
-104.71778664,40.79826162,1627.15
-104.71777939,40.79826673,1627.20
-104.71776500,40.79827688,1627.31
-104.71776155,40.79827930,1627.35
-104.71774015,40.79829429,1627.50
-104.71772553,40.79830462,1627.64
-104.71770412,40.79831970,1627.82
-104.71769687,40.79832482,1627.88
-104.71767155,40.79834259,1628.08
-104.71764289,40.79836270,1628.27
-104.71760639,40.79838829,1628.47
-104.71759224,40.79839825,1628.54
-104.71758511,40.79840328,1628.57
-104.71755574,40.79842393,1628.70
-104.71755241,40.79842626,1628.69
-104.71754540,40.79843120,1628.71
-104.71752019,40.79844888,1628.84
-104.71750152,40.79846199,1628.84
-104.71749463,40.79846684,1628.89
-104.71748393,40.79847438,1628.90
-104.71745111,40.79849736,1629.00
-104.71743340,40.79850975,1629.05
-104.71742614,40.79851486,1629.07
-104.71739689,40.79853542,1629.12
-104.71737169,40.79855311,1629.13
-104.71734993,40.79856837,1629.12
-104.71732782,40.79858381,1629.13
-104.71730249,40.79860158,1629.05
-104.71728751,40.79861209,1629.05
-104.71726575,40.79862735,1628.97
-104.71724375,40.79864279,1628.91
-104.71722877,40.79865329,1628.86
-104.71720737,40.79866828,1628.75
-104.71718514,40.79868390,1628.63
-104.71717016,40.79869441,1628.59
-104.71714828,40.79870976,1628.47
-104.71710774,40.79873813,1628.20
-104.71708586,40.79875348,1628.10
-104.71705602,40.79877439,1627.97
-104.71701523,40.79880294,1627.70
-104.71700739,40.79880842,1627.64
-104.71698194,40.79882628,1627.52
-104.71695935,40.79884208,1627.32
-104.71695150,40.79884756,1627.26
-104.71692606,40.79886542,1627.14
-104.71691108,40.79887593,1627.11
-104.71689598,40.79888652,1627.04
-104.71686316,40.79890950,1626.94
-104.71682607,40.79893553,1626.92
-104.71678873,40.79896175,1626.90
-104.71675580,40.79898491,1626.93
-104.71674093,40.79899532,1626.96
-104.71671846,40.79901103,1627.05
-104.71670003,40.79902396,1627.06
-104.71668505,40.79903446,1627.00
-104.71667340,40.79904263,1626.99
-104.71664760,40.79906076,1626.99
-104.71664415,40.79906319,1626.96
-104.71662893,40.79907387,1626.94
-104.71661740,40.79908195,1626.97
-104.71657317,40.79911292,1627.06
-104.71655450,40.79912603,1627.15
-104.71652490,40.79914685,1627.24
-104.71650219,40.79916283,1627.31
-104.71649517,40.79916777,1627.36
-104.71647638,40.79918097,1627.37
-104.71643144,40.79921248,1627.50
-104.71642003,40.79922047,1627.46
-104.71640873,40.79922837,1627.49
-104.71639720,40.79923645,1627.46
-104.71637865,40.79924946,1627.46
-104.71633299,40.79928151,1627.47
-104.71629530,40.79930799,1627.44
-104.71627235,40.79932406,1627.40
-104.71625357,40.79933726,1627.34
-104.71623442,40.79935072,1627.27
-104.71620791,40.79936931,1627.29
-104.71618484,40.79938547,1627.20
-104.71616142,40.79940189,1627.12
-104.71613847,40.79941796,1627.11
-104.71610732,40.79943978,1626.98
-104.71609246,40.79945019,1626.93
-104.71608069,40.79945845,1626.87
-104.71604941,40.79948035,1626.75
-104.71603051,40.79949364,1626.72
-104.71601541,40.79950423,1626.71
-104.71599163,40.79952093,1626.71
-104.71596928,40.79953664,1626.73
-104.71592659,40.79956653,1626.78
-104.71587998,40.79959921,1626.76
-104.71585323,40.79961797,1626.76
-104.71583361,40.79963171,1626.74
-104.71582172,40.79964005,1626.76
-104.71580650,40.79965074,1626.79
-104.71575561,40.79968647,1626.76
-104.71574027,40.79969724,1626.79
-104.71572505,40.79970792,1626.81
-104.71571316,40.79971627,1626.82
-104.71568962,40.79973279,1626.84
-104.71565859,40.79975460,1626.96
-104.71564682,40.79976286,1627.01
-104.71556561,40.79981986,1627.43
-104.71552244,40.79985021,1627.65
-104.71550722,40.79986089,1627.78
-104.71549569,40.79986906,1627.83
     </coordinates>
    </LineString>
   </MultiGeometry>
  </Placemark>
 </Document>
</kml>
