<kml>
 <Document>
  <Style id="yellow">
   <LineStyle>
   <color>ff00ffff</color>
   <width>1</width>
   </LineStyle>
  </Style>
  <Style id="red">
   <LineStyle>
   <color>ffff0000</color>
   <width>2</width>
   </LineStyle>
  </Style>
  <Style id="green">
   <LineStyle>
   <color>ff00ff00</color>
   <width>1</width>
   </LineStyle>
  </Style>
  <Placemark>
  <styleUrl>#yellow</styleUrl>
   <MultiGeometry>
    <LineString>
     <coordinates>
-104.76523052,40.84880742,1655.30
-104.76527774,40.84880751,1655.43
-104.76564039,40.84880825,1656.27
-104.76570018,40.84880837,1656.49
-104.76576247,40.84880850,1656.60
-104.76611492,40.84880921,1657.74
-104.76612370,40.84880923,1657.79
-104.76651021,40.84880992,1658.88
-104.76682553,40.84881065,1660.19
-104.76708747,40.84881118,1661.57
-104.76715924,40.84881133,1662.03
-104.76761194,40.84881224,1665.95
-104.76776913,40.84881255,1666.77
-104.76817924,40.84881329,1665.87
-104.76860584,40.84881424,1665.36
-104.76867631,40.84881438,1665.53
-104.76885794,40.84881474,1666.04
-104.76922309,40.84881547,1667.74
-104.76951623,40.84881606,1669.04
-104.76956926,40.84881616,1669.32
-104.76983191,40.84881669,1670.32
-104.77005909,40.84881714,1671.31
-104.77039731,40.84881781,1672.77
-104.77047798,40.84881798,1673.08
-104.77061002,40.84881824,1673.66
-104.77073577,40.84881849,1674.26
-104.77095607,40.84881893,1675.53
-104.77102571,40.84881906,1675.90
-104.77114956,40.84881931,1676.68
-104.77118194,40.84881937,1676.92
-104.77122596,40.84881946,1677.21
-104.77134957,40.84881971,1678.16
-104.77160605,40.84882021,1679.60
-104.77186111,40.84882072,1680.55
-104.77203135,40.84882106,1681.24
-104.77238701,40.84882176,1683.32
-104.77244514,40.84882187,1683.68
-104.77289500,40.84882267,1689.33
-104.77306049,40.84882308,1691.20
-104.77311838,40.84882320,1691.31
-104.77366302,40.84882427,1691.73
-104.77377987,40.84882450,1691.67
-104.77401144,40.84882486,1691.54
-104.77440530,40.84882572,1689.92
-104.77446094,40.84882574,1689.50
-104.77456759,40.84882568,1688.72
-104.77459382,40.84882240,1688.54
-104.77459610,40.84881502,1688.50
-104.77459705,40.84878106,1688.20
-104.77459750,40.84864845,1687.09
-104.77459774,40.84857647,1686.53
-104.77459880,40.84826388,1684.74
-104.77459895,40.84821947,1684.47
-104.77459942,40.84801057,1683.73
-104.77460058,40.84773770,1682.90
-104.77460120,40.84755573,1682.10
-104.77460171,40.84740475,1681.75
-104.77460294,40.84704234,1681.20
-104.77460369,40.84682119,1680.92
-104.77460424,40.84665876,1680.67
-104.77460545,40.84630176,1680.39
-104.77460649,40.84599403,1680.24
-104.77460785,40.84559127,1680.24
-104.77460918,40.84520084,1680.03
-104.77460954,40.84509310,1680.08
-104.77461027,40.84484429,1679.76
-104.77461112,40.84462647,1679.56
-104.77461226,40.84425667,1678.97
-104.77461325,40.84400011,1678.80
-104.77461332,40.84397957,1678.79
-104.77461333,40.84397462,1678.81
-104.77461374,40.84385373,1678.75
-104.77461445,40.84364338,1678.49
-104.77461569,40.84327872,1678.49
-104.77461691,40.84291892,1677.92
-104.77461701,40.84288946,1677.87
-104.77461719,40.84283523,1677.86
-104.77461807,40.84257453,1677.64
-104.77461879,40.84236202,1677.55
-104.77461991,40.84203339,1677.56
-104.77462073,40.84178954,1678.04
-104.77462098,40.84171738,1678.24
-104.77462122,40.84164603,1678.44
-104.77462153,40.84155550,1678.98
-104.77462179,40.84147703,1679.15
-104.77462268,40.84121498,1680.12
-104.77462415,40.84078050,1679.86
-104.77462437,40.84071591,1679.80
-104.77462486,40.84057115,1679.61
-104.77462515,40.84048485,1679.27
-104.77462545,40.84036197,1678.41
-104.77462687,40.83997704,1675.62
-104.77462696,40.83995128,1675.33
-104.77462705,40.83985507,1674.43
-104.77462684,40.83984552,1674.34
-104.77462468,40.83981885,1674.11
-104.77462018,40.83981821,1674.12
-104.77436527,40.83981726,1675.62
-104.77418094,40.83981690,1677.08
-104.77412151,40.83981678,1677.16
-104.77399424,40.83981654,1677.35
-104.77393066,40.83981641,1677.53
-104.77374467,40.83981605,1678.35
-104.77368085,40.83981592,1678.50
-104.77349475,40.83981556,1679.13
-104.77311173,40.83981480,1679.40
-104.77259623,40.83981379,1679.15
-104.77216411,40.83981294,1679.21
-104.77214252,40.83981289,1679.20
-104.77209757,40.83981280,1679.22
-104.77203588,40.83981268,1679.27
-104.77187587,40.83981237,1679.37
-104.77173745,40.83981209,1679.38
-104.77160863,40.83981184,1679.31
-104.77144909,40.83981152,1679.28
-104.77119774,40.83981102,1679.16
-104.77119667,40.83981102,1679.17
-104.77113381,40.83981090,1679.11
-104.77089420,40.83981042,1678.78
-104.77071616,40.83981007,1678.57
-104.77058675,40.83980981,1678.53
-104.77057679,40.83980979,1678.51
-104.77041523,40.83980947,1678.18
-104.77024110,40.83980912,1677.67
-104.77022592,40.83980909,1677.64
-104.77011679,40.83980887,1677.37
-104.77005594,40.83980875,1677.22
-104.76957744,40.83980789,1676.21
-104.76927391,40.83980719,1675.64
-104.76920606,40.83980706,1675.56
-104.76913999,40.83980692,1675.42
-104.76906906,40.83980678,1675.31
-104.76894546,40.83980653,1675.04
-104.76860183,40.83980585,1674.52
-104.76809450,40.83980492,1673.57
-104.76771410,40.83980406,1672.88
-104.76756488,40.83980376,1672.63
-104.76749182,40.83980361,1672.57
-104.76733975,40.83980331,1672.33
-104.76730701,40.83980324,1672.34
-104.76726941,40.83980316,1672.33
-104.76712090,40.83980287,1672.27
-104.76695543,40.83980253,1672.17
-104.76692329,40.83980247,1672.13
-104.76670764,40.83980203,1672.03
-104.76662971,40.83980187,1671.99
-104.76658844,40.83980179,1671.99
-104.76656780,40.83980175,1672.00
-104.76651477,40.83980164,1672.01
-104.76637837,40.83980136,1671.98
-104.76633341,40.83980127,1671.94
-104.76624789,40.83980110,1671.91
-104.76620127,40.83980101,1671.89
-104.76617055,40.83980094,1671.92
-104.76613070,40.83980086,1671.88
-104.76566145,40.83979991,1671.62
-104.76559408,40.83979977,1671.65
-104.76534830,40.83979927,1671.45
-104.76528449,40.83979914,1671.41
-104.76515508,40.83979888,1671.39
-104.76503682,40.83979864,1671.25
-104.76458892,40.83979773,1670.83
-104.76430080,40.83979714,1670.68
-104.76381590,40.83979624,1670.53
-104.76353075,40.83979556,1670.52
-104.76348271,40.83979546,1670.49
-104.76292687,40.83979432,1671.35
-104.76280766,40.83979417,1671.90
-104.76277018,40.83979427,1672.02
-104.76276744,40.83979814,1672.05
-104.76276611,40.83980390,1672.08
-104.76276578,40.83982930,1672.26
-104.76276523,40.83998587,1672.79
-104.76276522,40.83998740,1672.81
-104.76276498,40.84005515,1673.05
-104.76276492,40.84007100,1673.10
-104.76276485,40.84009136,1673.17
-104.76276479,40.84010857,1673.27
-104.76276478,40.84011244,1673.31
-104.76276464,40.84014919,1673.41
-104.76276439,40.84022135,1673.63
-104.76276432,40.84024018,1673.70
-104.76276402,40.84032351,1673.96
-104.76276391,40.84035621,1674.09
-104.76276331,40.84052385,1674.79
-104.76276289,40.84063979,1675.15
-104.76276259,40.84072438,1675.22
-104.76276225,40.84081978,1675.22
-104.76276216,40.84084464,1675.18
-104.76276208,40.84086888,1675.18
-104.76276143,40.84105003,1675.09
-104.76276112,40.84113850,1675.03
-104.76276111,40.84114120,1675.02
-104.76276110,40.84114255,1675.00
-104.76276109,40.84114642,1675.03
-104.76276054,40.84130020,1674.77
-104.76276039,40.84134209,1674.78
-104.76275963,40.84155649,1674.71
-104.76275869,40.84181881,1674.56
-104.76275824,40.84194421,1674.25
-104.76275776,40.84207934,1673.99
-104.76275760,40.84212456,1673.82
-104.76275723,40.84222978,1673.48
-104.76275671,40.84237337,1672.74
-104.76275607,40.84255453,1671.47
-104.76275489,40.84288523,1668.95
-104.76275419,40.84308215,1668.58
-104.76275383,40.84318251,1668.48
-104.76275301,40.84341330,1667.20
-104.76275293,40.84343546,1666.97
-104.76275245,40.84356770,1665.90
-104.76275233,40.84360266,1665.60
-104.76275144,40.84385300,1664.18
-104.76275127,40.84389993,1663.97
-104.76275112,40.84394254,1663.73
-104.76275109,40.84394975,1663.66
-104.76275097,40.84398398,1663.48
-104.76275057,40.84409659,1662.66
-104.76275049,40.84411866,1662.55
-104.76274991,40.84428234,1661.54
-104.76274929,40.84445602,1660.48
-104.76274922,40.84447530,1660.37
-104.76274876,40.84460412,1660.63
-104.76274842,40.84469934,1660.47
-104.76274795,40.84483203,1659.99
-104.76274731,40.84504301,1659.36
-104.76274629,40.84529660,1659.15
-104.76274588,40.84541164,1659.30
-104.76274578,40.84543839,1659.35
-104.76274520,40.84560117,1659.58
-104.76274431,40.84585161,1659.79
-104.76274413,40.84590151,1660.03
-104.76274378,40.84600142,1660.79
-104.76274223,40.84643517,1662.68
-104.76274200,40.84650084,1662.51
-104.76274193,40.84651922,1662.51
-104.76274179,40.84655687,1662.39
-104.76274170,40.84658291,1662.34
-104.76274100,40.84677974,1661.69
-104.76274062,40.84688532,1661.10
-104.76274023,40.84699495,1660.43
-104.76273974,40.84713368,1659.52
-104.76273970,40.84714449,1659.44
-104.76273892,40.84736213,1657.49
-104.76273843,40.84750023,1656.44
-104.76273824,40.84755392,1656.13
-104.76273791,40.84764743,1655.39
-104.76273697,40.84790940,1654.15
-104.76273679,40.84795912,1653.95
-104.76273669,40.84798948,1653.82
-104.76273652,40.84803632,1653.69
-104.76273633,40.84808830,1653.49
-104.76273613,40.84814415,1653.21
-104.76273600,40.84818235,1653.17
-104.76273597,40.84818920,1653.10
-104.76273480,40.84851800,1652.58
-104.76273466,40.84855782,1652.46
-104.76273442,40.84862439,1651.82
-104.76273437,40.84863908,1651.69
-104.76273422,40.84867979,1651.39
-104.76273459,40.84877673,1652.27
-104.76273607,40.84879303,1652.53
-104.76273712,40.84879763,1652.54
-104.76274672,40.84880197,1652.53
-104.76279536,40.84880225,1651.97
-104.76300593,40.84880278,1652.00
-104.76322991,40.84880333,1651.17
-104.76325992,40.84880339,1651.13
-104.76330761,40.84880349,1651.36
-104.76331188,40.84880350,1651.38
-104.76361843,40.84880412,1652.42
-104.76366363,40.84880422,1652.47
-104.76384596,40.84880459,1652.94
-104.76401490,40.84880494,1653.20
-104.76408738,40.84880508,1653.36
-104.76434102,40.84880560,1653.76
-104.76439606,40.84880571,1653.82
-104.76447887,40.84880588,1653.85
-104.76471103,40.84880636,1654.21
-104.76478956,40.84880652,1654.32
-104.76523052,40.84880742,1655.30
     </coordinates>
    </LineString>
   </MultiGeometry>
  </Placemark>
 </Document>
</kml>
