<kml>
 <Document>
  <Style id="yellow">
   <LineStyle>
   <color>ff00ffff</color>
   <width>1</width>
   </LineStyle>
  </Style>
  <Style id="red">
   <LineStyle>
   <color>ffff0000</color>
   <width>2</width>
   </LineStyle>
  </Style>
  <Style id="green">
   <LineStyle>
   <color>ff00ff00</color>
   <width>1</width>
   </LineStyle>
  </Style>
  <Placemark>
  <styleUrl>#yellow</styleUrl>
   <MultiGeometry>
    <LineString>
     <coordinates>
-104.71535467,40.79996807,1628.69
-104.71533137,40.79998450,1628.84
-104.71533585,40.79998929,1628.89
-104.71547521,40.80008368,1629.35
-104.71548244,40.80008451,1629.31
-104.71548660,40.80008164,1629.29
-104.71548722,40.80007515,1629.28
-104.71548864,40.80004984,1629.14
-104.71548912,40.79996471,1628.52
-104.71548916,40.79992589,1628.21
-104.71548878,40.79990390,1628.05
-104.71548840,40.79988219,1627.91
-104.71548784,40.79987462,1627.88
-104.71548368,40.79987750,1627.88
-104.71546038,40.79989384,1628.04
-104.71540937,40.79992965,1628.34
-104.71535467,40.79996807,1628.69
     </coordinates>
    </LineString>
   </MultiGeometry>
  </Placemark>
 </Document>
</kml>
