<kml>
 <Document>
  <Style id="yellow">
   <LineStyle>
   <color>ff00ffff</color>
   <width>1</width>
   </LineStyle>
  </Style>
  <Style id="red">
   <LineStyle>
   <color>ffff0000</color>
   <width>2</width>
   </LineStyle>
  </Style>
  <Style id="green">
   <LineStyle>
   <color>ff00ff00</color>
   <width>1</width>
   </LineStyle>
  </Style>
  <Placemark>
  <styleUrl>#yellow</styleUrl>
   <MultiGeometry>
    <LineString>
     <coordinates>
-104.71544817,40.80958032,1625.12
-104.71544874,40.80944681,1626.07
-104.71544905,40.80937429,1626.44
-104.71544972,40.80921818,1626.72
-104.71545056,40.80901990,1626.92
-104.71545150,40.80880064,1627.10
-104.71545178,40.80873542,1627.11
-104.71545244,40.80858020,1626.95
-104.71545253,40.80855912,1626.91
-104.71545286,40.80848237,1626.73
-104.71545332,40.80837373,1626.69
-104.71545364,40.80829923,1626.48
-104.71545491,40.80800204,1625.90
-104.71545517,40.80794222,1625.63
-104.71545551,40.80786259,1625.43
-104.71545580,40.80779394,1625.40
-104.71545616,40.80770945,1625.48
-104.71545645,40.80764170,1625.54
-104.71545770,40.80734893,1625.39
-104.71545783,40.80726317,1625.39
-104.71545479,40.80722586,1625.38
-104.71545411,40.80721766,1625.35
-104.71545377,40.80721361,1625.38
-104.71545276,40.80720154,1625.41
-104.71544553,40.80720080,1625.37
-104.71540084,40.80719817,1625.36
-104.71539385,40.80719806,1625.36
-104.71533813,40.80719774,1625.37
-104.71523238,40.80719694,1625.32
-104.71469440,40.80718651,1624.68
-104.71465030,40.80718523,1624.62
-104.71461592,40.80718461,1624.57
-104.71461188,40.80718685,1624.57
-104.71461210,40.80719090,1624.55
-104.71461244,40.80719514,1624.57
-104.71461278,40.80719928,1624.61
-104.71461312,40.80720343,1624.58
-104.71461345,40.80720766,1624.61
-104.71461435,40.80721973,1624.68
-104.71461503,40.80722811,1624.56
-104.71461592,40.80724046,1624.48
-104.71461638,40.80724514,1624.56
-104.71462726,40.80733354,1624.55
-104.71462760,40.80733751,1624.52
-104.71462794,40.80734165,1624.52
-104.71462883,40.80735391,1624.49
-104.71462917,40.80735796,1624.49
-104.71463007,40.80736995,1624.46
-104.71463041,40.80737427,1624.47
-104.71463074,40.80737833,1624.46
-104.71463108,40.80738238,1624.45
-104.71463198,40.80739463,1624.44
-104.71463232,40.80739869,1624.43
-104.71463265,40.80740301,1624.44
-104.71463389,40.80741914,1624.44
-104.71463423,40.80742311,1624.46
-104.71463457,40.80742707,1624.45
-104.71463524,40.80743554,1624.45
-104.71463580,40.80744365,1624.43
-104.71463614,40.80744779,1624.42
-104.71463647,40.80745212,1624.43
-104.71463703,40.80745996,1624.41
-104.71463737,40.80746428,1624.40
-104.71463861,40.80748032,1624.40
-104.71464018,40.80750068,1624.40
-104.71464052,40.80750474,1624.41
-104.71464085,40.80750888,1624.41
-104.71464119,40.80751321,1624.42
-104.71464153,40.80751717,1624.40
-104.71464243,40.80752934,1624.48
-104.71464276,40.80753357,1624.45
-104.71464366,40.80754511,1624.44
-104.71464400,40.80754907,1624.42
-104.71464434,40.80755330,1624.41
-104.71464524,40.80756556,1624.39
-104.71464557,40.80756988,1624.40
-104.71464669,40.80758601,1624.36
-104.71464759,40.80759781,1624.33
-104.71464793,40.80760178,1624.34
-104.71464882,40.80761376,1624.32
-104.71464916,40.80761791,1624.31
-104.71464950,40.80762223,1624.32
-104.71465073,40.80763836,1624.30
-104.71465141,40.80764638,1624.32
-104.71465231,40.80765845,1624.35
-104.71465321,40.80767017,1624.38
-104.71465354,40.80767440,1624.36
-104.71465388,40.80767855,1624.40
-104.71465422,40.80768278,1624.38
-104.71465489,40.80769098,1624.40
-104.71465545,40.80769900,1624.42
-104.71465635,40.80771098,1624.43
-104.71465669,40.80771513,1624.42
-104.71465759,40.80772684,1624.43
-104.71465793,40.80773063,1624.43
-104.71465826,40.80773477,1624.42
-104.71465860,40.80773892,1624.42
-104.71465916,40.80774693,1624.42
-104.71465950,40.80775117,1624.42
-104.71465984,40.80775540,1624.43
-104.71466073,40.80776730,1624.44
-104.71466107,40.80777135,1624.46
-104.71466141,40.80777541,1624.45
-104.71466197,40.80778316,1624.47
-104.71466231,40.80778703,1624.45
-104.71466320,40.80779919,1624.48
-104.71466354,40.80780343,1624.50
-104.71466388,40.80780730,1624.51
-104.71466422,40.80781154,1624.49
-104.71466478,40.80781938,1624.46
-104.71466512,40.80782334,1624.48
-104.71466545,40.80782749,1624.47
-104.71466601,40.80783542,1624.48
-104.71466691,40.80784704,1624.45
-104.71466759,40.80785488,1624.46
-104.71466815,40.80786317,1624.42
-104.71466871,40.80787110,1624.42
-104.71466926,40.80787920,1624.45
-104.71466960,40.80788317,1624.48
-104.71466994,40.80788722,1624.48
-104.71467028,40.80789119,1624.52
-104.71467084,40.80789921,1624.53
-104.71467174,40.80791074,1624.54
-104.71467207,40.80791507,1624.57
-104.71467241,40.80791903,1624.53
-104.71467275,40.80792326,1624.57
-104.71467331,40.80793128,1624.56
-104.71467365,40.80793552,1624.56
-104.71467421,40.80794300,1624.54
-104.71467455,40.80794705,1624.55
-104.71467488,40.80795102,1624.55
-104.71467544,40.80795886,1624.54
-104.71467578,40.80796273,1624.55
-104.71467634,40.80797048,1624.55
-104.71467668,40.80797444,1624.53
-104.71467702,40.80797868,1624.56
-104.71467736,40.80798273,1624.54
-104.71467792,40.80799075,1624.59
-104.71467825,40.80799481,1624.55
-104.71467859,40.80799868,1624.57
-104.71467915,40.80800652,1624.58
-104.71467949,40.80801048,1624.61
-104.71468005,40.80801841,1624.58
-104.71468039,40.80802229,1624.61
-104.71468095,40.80802986,1624.59
-104.71468129,40.80803391,1624.60
-104.71468163,40.80803815,1624.60
-104.71468196,40.80804211,1624.60
-104.71468252,40.80805013,1624.62
-104.71429318,40.80837924,1624.98
-104.71426591,40.80837971,1624.95
-104.71425583,40.80837969,1624.93
-104.71424706,40.80838020,1624.94
-104.71420223,40.80838208,1624.94
-104.71414638,40.80838338,1624.99
-104.71411840,40.80838421,1624.98
-104.71409089,40.80838513,1624.90
-104.71394307,40.80837990,1619.59
-104.71378364,40.80839851,1624.64
-104.71373941,40.80840048,1624.60
-104.71371368,40.80840167,1624.59
-104.71367039,40.80840490,1624.53
-104.71361881,40.80840702,1624.53
-104.71356757,40.80841050,1624.54
-104.71355180,40.80841190,1624.56
-104.71345218,40.80841832,1624.63
-104.71339490,40.80842187,1624.68
-104.71333702,40.80842587,1624.68
-104.71325780,40.80843180,1624.78
-104.71314833,40.80844000,1624.80
-104.71309425,40.80844383,1624.76
-104.71307860,40.80844505,1624.77
-104.71306235,40.80844627,1624.75
-104.71292774,40.80845593,1624.60
-104.71283653,40.80846327,1624.48
-104.71275956,40.80846966,1624.23
-104.71271591,40.80847324,1624.11
-104.71260395,40.80848314,1623.79
-104.71258379,40.80848490,1623.76
-104.71249341,40.80849368,1623.53
-104.71245130,40.80849799,1623.43
-104.71239887,40.80850416,1623.25
-104.71233339,40.80851085,1623.04
-104.71221228,40.80852604,1622.60
-104.71219946,40.80852754,1622.56
-104.71209224,40.80853889,1622.28
-104.71200540,40.80855075,1622.12
-104.71190326,40.80856473,1621.81
-104.71186494,40.80857031,1621.73
-104.71182603,40.80857579,1621.60
-104.71170727,40.80859342,1621.27
-104.71166788,40.80859954,1621.14
-104.71160192,40.80860983,1621.02
-104.71153607,40.80862074,1620.88
-104.71148398,40.80862899,1620.74
-104.71135489,40.80865119,1620.40
-104.71131479,40.80865775,1620.30
-104.71128999,40.80866220,1620.22
-104.71125238,40.80866895,1620.15
-104.71116362,40.80868548,1619.96
-104.71112696,40.80869251,1619.86
-104.71104152,40.80870851,1619.73
-104.71099216,40.80871766,1619.63
-104.71086210,40.80874427,1619.53
-104.71084964,40.80874677,1619.47
-104.71076966,40.80876359,1619.51
-104.71062120,40.80879529,1619.39
-104.71056578,40.80880776,1619.38
-104.71045624,40.80883181,1619.25
-104.71035869,40.80885409,1619.16
-104.71029531,40.80886906,1619.11
-104.71018149,40.80889634,1619.10
-104.71011004,40.80891391,1619.03
-104.71003063,40.80893425,1619.03
-104.70988191,40.80897207,1619.10
-104.70980476,40.80899224,1619.00
-104.70967917,40.80902588,1618.93
-104.70953815,40.80906517,1618.98
-104.70954226,40.80907301,1619.02
-104.70955049,40.80908862,1619.08
-104.70966292,40.80930078,1619.92
-104.70985259,40.80965935,1620.73
-104.71006461,40.81006148,1619.88
-104.71014587,40.81021600,1619.12
-104.71016080,40.81024442,1618.97
-104.71019832,40.81031577,1618.58
-104.71021889,40.81035492,1618.34
-104.71025264,40.81041905,1618.02
-104.71027687,40.81046506,1617.86
-104.71032214,40.81055084,1617.72
-104.71032590,40.81055797,1617.75
-104.71033719,40.81057934,1617.71
-104.71042939,40.81075389,1617.85
-104.71056710,40.81101458,1617.78
-104.71058932,40.81105662,1617.83
-104.71060779,40.81109153,1617.88
-104.71063389,40.81114087,1617.97
-104.71070245,40.81127040,1618.25
-104.71085381,40.81155644,1618.78
-104.71098811,40.81181037,1619.15
-104.71118239,40.81217795,1619.17
-104.71139937,40.81258847,1619.33
-104.71140289,40.81259515,1619.31
-104.71142700,40.81264070,1619.28
-104.71143241,40.81265089,1619.33
-104.71144581,40.81265147,1619.43
-104.71192613,40.81265267,1620.51
-104.71192921,40.81265268,1620.52
-104.71224460,40.81265346,1621.16
-104.71236696,40.81265377,1621.30
-104.71268211,40.81265455,1621.60
-104.71295991,40.81265516,1621.98
-104.71333115,40.81265617,1621.52
-104.71347272,40.81265652,1621.51
-104.71352228,40.81265664,1621.57
-104.71365235,40.81265697,1621.58
-104.71370547,40.81265710,1621.51
-104.71374246,40.81265719,1621.49
-104.71381431,40.81265737,1621.56
-104.71403295,40.81265791,1622.04
-104.71411938,40.81265812,1622.06
-104.71414262,40.81265818,1622.09
-104.71415199,40.81265820,1622.08
-104.71423155,40.81265840,1622.18
-104.71444959,40.81265894,1622.47
-104.71447188,40.81265900,1622.44
-104.71452477,40.81265913,1622.47
-104.71485000,40.81265993,1622.74
-104.71497034,40.81266023,1622.88
-104.71500686,40.81266032,1622.76
-104.71504445,40.81266041,1623.17
-104.71506650,40.81266047,1623.23
-104.71507693,40.81266049,1623.27
-104.71510622,40.81266057,1623.20
-104.71511464,40.81266059,1623.19
-104.71521412,40.81266083,1623.26
-104.71527032,40.81266097,1623.52
-104.71533541,40.81266113,1623.81
-104.71542611,40.81266126,1624.03
-104.71543382,40.81266110,1624.08
-104.71543467,40.81265768,1624.09
-104.71543514,40.81263084,1624.18
-104.71543536,40.81257850,1624.30
-104.71543538,40.81257499,1624.34
-104.71543570,40.81250004,1624.51
-104.71543572,40.81249481,1624.48
-104.71543595,40.81244085,1624.61
-104.71543608,40.81240932,1624.61
-104.71543621,40.81237860,1624.59
-104.71543640,40.81233554,1624.54
-104.71543653,40.81230491,1624.51
-104.71543702,40.81218952,1623.00
-104.71543710,40.81217132,1623.43
-104.71543715,40.81215979,1623.44
-104.71543753,40.81207178,1623.18
-104.71543764,40.81204565,1623.34
-104.71543876,40.81178351,1622.88
-104.71543905,40.81171540,1622.90
-104.71543905,40.81171504,1622.88
-104.71543980,40.81153839,1622.83
-104.71544054,40.81136606,1622.83
-104.71544128,40.81119309,1622.76
-104.71544137,40.81117264,1622.73
-104.71544189,40.81105049,1622.57
-104.71544245,40.81091978,1622.39
-104.71544310,40.81076709,1622.27
-104.71544333,40.81071231,1622.18
-104.71544358,40.81065358,1622.12
-104.71544438,40.81046783,1622.07
-104.71544540,40.81022946,1622.19
-104.71544571,40.81015676,1622.44
-104.71544605,40.81007641,1622.62
-104.71544633,40.81001164,1623.01
-104.71544658,40.80995326,1623.29
-104.71544759,40.80971715,1624.28
-104.71544811,40.80959491,1625.02
-104.71544817,40.80958032,1625.12
     </coordinates>
    </LineString>
   </MultiGeometry>
  </Placemark>
 </Document>
</kml>
