<kml>
 <Document>
  <Style id="yellow">
   <LineStyle>
   <color>ff00ffff</color>
   <width>1</width>
   </LineStyle>
  </Style>
  <Style id="red">
   <LineStyle>
   <color>ffff0000</color>
   <width>2</width>
   </LineStyle>
  </Style>
  <Style id="green">
   <LineStyle>
   <color>ff00ff00</color>
   <width>1</width>
   </LineStyle>
  </Style>
  <Placemark>
  <styleUrl>#yellow</styleUrl>
   <MultiGeometry>
    <LineString>
     <coordinates>
-104.75104669,40.80169646,1644.95
-104.75104663,40.80171457,1645.05
-104.75104659,40.80172520,1645.13
-104.75104643,40.80176637,1645.38
-104.75104600,40.80188249,1646.07
-104.75104519,40.80209815,1645.86
-104.75104509,40.80212590,1645.76
-104.75104506,40.80213391,1645.73
-104.75104491,40.80217346,1645.61
-104.75104486,40.80218670,1645.54
-104.75104452,40.80227823,1645.28
-104.75104421,40.80236165,1645.17
-104.75104404,40.80240804,1645.17
-104.75104378,40.80247632,1645.13
-104.75104363,40.80251641,1645.14
-104.75104323,40.80262235,1645.26
-104.75104287,40.80272063,1645.40
-104.75104268,40.80277171,1645.59
-104.75104257,40.80279919,1645.67
-104.75104230,40.80287297,1646.05
-104.75104229,40.80287522,1646.02
-104.75104210,40.80292504,1646.30
-104.75104208,40.80293116,1646.37
-104.75104183,40.80299828,1646.76
-104.75104183,40.80299855,1646.74
-104.75104138,40.80311872,1647.60
-104.75104131,40.80313800,1647.64
-104.75104086,40.80325799,1647.74
-104.75104006,40.80347167,1646.15
-104.75103968,40.80357473,1645.30
-104.75103955,40.80360977,1644.96
-104.75103939,40.80371418,1644.08
-104.75103957,40.80373102,1644.04
-104.75104062,40.80373418,1644.00
-104.75104915,40.80373510,1644.03
-104.75109005,40.80373528,1644.10
-104.75117482,40.80373546,1644.22
-104.75124939,40.80373562,1644.37
-104.75133522,40.80373581,1644.51
-104.75134624,40.80373583,1644.56
-104.75143800,40.80373603,1644.86
-104.75179876,40.80373680,1646.10
-104.75182507,40.80373686,1646.18
-104.75186515,40.80373695,1646.28
-104.75200587,40.80373725,1646.64
-104.75205815,40.80373736,1646.66
-104.75218938,40.80373764,1646.65
-104.75226692,40.80373781,1646.51
-104.75230509,40.80373789,1646.42
-104.75231624,40.80373792,1646.39
-104.75233532,40.80373796,1646.31
-104.75240811,40.80373811,1646.07
-104.75241546,40.80373813,1646.03
-104.75244996,40.80373820,1645.92
-104.75247000,40.80373825,1645.78
-104.75258357,40.80373849,1645.31
-104.75275014,40.80373885,1644.37
-104.75283857,40.80373904,1643.94
-104.75291208,40.80373919,1643.61
-104.75299815,40.80373938,1643.25
-104.75303940,40.80373947,1643.18
-104.75304817,40.80373948,1643.16
-104.75308967,40.80373957,1642.97
-104.75311610,40.80373963,1642.92
-104.75313247,40.80373966,1642.90
-104.75317633,40.80373976,1642.73
-104.75317917,40.80373977,1642.65
-104.75325007,40.80373992,1642.58
-104.75326560,40.80373995,1642.50
-104.75336447,40.80374016,1642.35
-104.75340181,40.80374024,1642.24
-104.75346512,40.80374038,1642.13
-104.75358142,40.80374062,1641.93
-104.75367176,40.80374082,1641.77
-104.75380726,40.80374111,1641.62
-104.75383156,40.80374116,1641.54
-104.75416221,40.80374186,1641.11
-104.75419659,40.80374194,1640.98
-104.75427317,40.80374210,1640.91
-104.75428740,40.80374213,1640.93
-104.75442338,40.80374242,1640.75
-104.75442847,40.80374243,1640.82
-104.75443084,40.80374244,1640.79
-104.75443274,40.80374244,1640.78
-104.75448905,40.80374256,1640.78
-104.75451241,40.80374261,1640.69
-104.75456374,40.80374272,1640.58
-104.75456588,40.80374272,1640.64
-104.75458117,40.80374276,1640.59
-104.75465503,40.80374291,1640.62
-104.75466404,40.80374293,1640.64
-104.75478662,40.80374319,1640.65
-104.75487162,40.80374337,1640.66
-104.75490932,40.80374345,1640.66
-104.75520843,40.80374409,1640.88
-104.75521838,40.80374411,1640.89
-104.75525502,40.80374419,1640.87
-104.75530185,40.80374429,1640.86
-104.75533741,40.80374436,1640.84
-104.75534109,40.80374437,1640.86
-104.75534867,40.80374439,1640.87
-104.75545300,40.80374461,1640.72
-104.75548655,40.80374468,1640.64
-104.75548845,40.80374468,1640.64
-104.75550303,40.80374471,1640.61
-104.75551061,40.80374473,1640.64
-104.75558613,40.80374489,1640.60
-104.75560344,40.80374492,1640.59
-104.75578234,40.80374530,1640.56
-104.75587125,40.80374549,1640.52
-104.75588974,40.80374553,1640.46
-104.75589994,40.80374555,1640.51
-104.75594392,40.80374565,1640.51
-104.75599217,40.80374575,1640.52
-104.75629353,40.80374639,1640.69
-104.75644350,40.80374670,1640.72
-104.75662417,40.80374708,1640.55
-104.75695873,40.80374779,1640.28
-104.75705546,40.80374799,1640.23
-104.75713406,40.80374816,1640.10
-104.75726423,40.80374843,1639.97
-104.75732719,40.80374856,1639.87
-104.75737674,40.80374867,1639.79
-104.75741065,40.80374874,1639.76
-104.75747597,40.80374888,1639.62
-104.75760045,40.80374914,1639.51
-104.75763708,40.80374921,1639.48
-104.75765297,40.80374925,1639.53
-104.75772848,40.80374941,1639.44
-104.75775136,40.80374945,1639.43
-104.75783731,40.80374964,1639.27
-104.75793168,40.80374983,1639.08
-104.75803755,40.80375006,1638.53
-104.75815195,40.80375029,1637.72
-104.75817673,40.80375035,1637.48
-104.75834199,40.80375069,1635.72
-104.75836143,40.80375073,1635.50
-104.75841893,40.80375085,1635.16
-104.75849599,40.80375102,1634.72
-104.75850962,40.80375104,1634.68
-104.75855230,40.80375113,1634.45
-104.75869195,40.80375143,1633.78
-104.75871353,40.80375147,1633.63
-104.75882888,40.80375171,1633.04
-104.75892764,40.80375192,1632.48
-104.75893273,40.80375193,1632.44
-104.75902509,40.80375212,1632.03
-104.75903030,40.80375213,1631.93
-104.75908875,40.80375225,1631.66
-104.75910404,40.80375229,1631.62
-104.75910902,40.80375230,1631.59
-104.75911542,40.80375231,1631.56
-104.75913534,40.80375235,1631.52
-104.75928614,40.80375267,1631.25
-104.75937813,40.80375286,1631.18
-104.75939366,40.80375289,1631.15
-104.75941571,40.80375294,1631.19
-104.75949337,40.80375310,1631.17
-104.75957078,40.80375326,1631.07
-104.75962733,40.80375338,1631.04
-104.75963776,40.80375340,1631.03
-104.75988767,40.80375392,1630.83
-104.75999543,40.80375414,1630.66
-104.76000741,40.80375417,1630.60
-104.76002590,40.80375421,1630.59
-104.76004392,40.80375424,1630.54
-104.76014528,40.80375446,1630.20
-104.76027024,40.80375472,1630.17
-104.76034753,40.80375488,1630.04
-104.76037990,40.80375494,1630.02
-104.76057693,40.80375535,1629.94
-104.76069086,40.80375559,1629.92
-104.76073460,40.80375568,1629.90
-104.76073745,40.80375569,1629.86
-104.76077456,40.80375576,1629.85
-104.76083549,40.80375589,1629.82
-104.76083632,40.80375589,1629.84
-104.76094183,40.80375611,1629.81
-104.76096199,40.80375615,1629.87
-104.76112227,40.80375648,1630.06
-104.76135179,40.80375696,1629.81
-104.76137289,40.80375700,1629.76
-104.76160762,40.80375749,1629.48
-104.76164745,40.80375757,1629.41
-104.76172416,40.80375773,1629.08
-104.76187792,40.80375804,1627.39
-104.76189475,40.80375808,1627.17
-104.76191337,40.80375812,1627.28
-104.76196387,40.80375822,1627.91
-104.76214288,40.80375859,1629.98
-104.76218331,40.80375867,1630.00
-104.76218805,40.80375868,1629.99
-104.76225705,40.80375883,1630.14
-104.76238200,40.80375908,1630.20
-104.76275912,40.80375986,1630.40
-104.76281721,40.80375989,1630.40
-104.76285752,40.80375961,1630.37
-104.76288455,40.80375913,1630.35
-104.76289155,40.80375752,1630.37
-104.76289226,40.80375599,1630.35
-104.76289335,40.80375059,1630.38
-104.76289436,40.80369915,1630.39
-104.76289455,40.80364672,1630.42
-104.76289570,40.80332395,1629.97
-104.76289580,40.80329656,1629.97
-104.76289594,40.80325557,1629.98
-104.76289669,40.80304631,1629.60
-104.76289706,40.80294235,1629.54
-104.76289799,40.80267966,1629.29
-104.76289843,40.80255534,1629.27
-104.76289982,40.80216591,1629.16
-104.76289988,40.80214834,1629.16
-104.76289991,40.80214086,1629.16
-104.76290022,40.80205339,1629.15
-104.76290025,40.80204628,1629.13
-104.76290068,40.80192493,1629.09
-104.76290072,40.80191295,1629.09
-104.76290093,40.80185421,1629.07
-104.76290122,40.80177296,1629.01
-104.76290126,40.80176233,1628.93
-104.76290128,40.80175638,1628.99
-104.76290144,40.80170954,1628.91
-104.76290161,40.80166152,1628.95
-104.76290177,40.80161882,1628.91
-104.76290188,40.80158738,1628.96
-104.76290202,40.80154658,1628.86
-104.76290238,40.80144568,1628.56
-104.76290282,40.80132154,1628.36
-104.76290289,40.80130398,1628.32
-104.76290290,40.80130109,1628.31
-104.76290295,40.80128533,1628.31
-104.76290342,40.80115408,1628.16
-104.76290360,40.80110300,1628.13
-104.76290370,40.80107651,1628.05
-104.76290508,40.80068897,1627.43
-104.76290509,40.80068446,1627.39
-104.76290592,40.80045205,1625.99
-104.76290612,40.80039484,1625.78
-104.76290621,40.80036908,1625.71
-104.76290649,40.80029197,1625.73
-104.76290649,40.80029143,1625.75
-104.76290686,40.80018747,1626.46
-104.76290728,40.80006856,1626.83
-104.76290732,40.80005693,1626.83
-104.76290739,40.80003910,1626.83
-104.76290742,40.80002937,1626.80
-104.76290757,40.79998766,1626.77
-104.76290772,40.79994532,1626.69
-104.76290779,40.79992550,1626.63
-104.76290784,40.79991325,1626.63
-104.76290786,40.79990523,1626.61
-104.76290794,40.79988478,1626.58
-104.76290797,40.79987442,1626.60
-104.76290822,40.79980389,1626.56
-104.76290825,40.79979569,1626.53
-104.76290828,40.79978893,1626.50
-104.76290874,40.79965768,1626.00
-104.76290889,40.79961714,1625.86
-104.76290892,40.79960966,1625.80
-104.76290906,40.79956885,1625.68
-104.76290912,40.79955156,1625.62
-104.76290931,40.79949949,1625.28
-104.76290935,40.79948859,1625.19
-104.76290944,40.79946220,1625.08
-104.76290968,40.79939436,1624.90
-104.76290994,40.79932157,1624.82
-104.76291046,40.79917482,1624.46
-104.76291091,40.79905033,1624.47
-104.76291102,40.79901952,1624.38
-104.76291134,40.79892970,1624.32
-104.76291168,40.79883412,1623.13
-104.76291171,40.79882439,1623.19
-104.76291187,40.79877962,1623.25
-104.76291209,40.79871683,1623.97
-104.76291229,40.79866089,1624.30
-104.76291234,40.79864747,1624.28
-104.76291246,40.79861270,1624.21
-104.76291258,40.79858063,1624.31
-104.76291275,40.79853180,1624.31
-104.76291307,40.79844280,1623.43
-104.76291354,40.79830911,1623.66
-104.76291396,40.79819326,1624.06
-104.76291488,40.79793310,1623.77
-104.76291499,40.79790319,1623.63
-104.76291510,40.79787130,1623.55
-104.76291514,40.79785941,1623.49
-104.76291613,40.79758068,1622.68
-104.76291645,40.79749321,1622.95
-104.76291653,40.79746961,1622.91
-104.76291680,40.79739277,1622.35
-104.76291758,40.79717557,1622.97
-104.76291759,40.79717107,1622.99
-104.76291839,40.79694568,1622.80
-104.76291840,40.79694406,1622.79
-104.76291854,40.79690433,1622.74
-104.76291854,40.79690343,1622.73
-104.76291968,40.79658444,1622.68
-104.76291975,40.79656435,1622.90
-104.76292030,40.79641102,1624.11
-104.76292054,40.79634256,1624.09
-104.76292067,40.79630689,1624.10
-104.76292094,40.79622869,1623.90
-104.76292117,40.79616518,1623.83
-104.76292127,40.79613834,1623.83
-104.76292141,40.79609888,1623.78
-104.76292169,40.79601789,1623.58
-104.76292179,40.79599024,1623.54
-104.76292205,40.79591655,1623.27
-104.76292229,40.79585025,1622.92
-104.76292231,40.79584538,1622.90
-104.76292337,40.79554810,1622.94
-104.76292346,40.79552207,1623.04
-104.76292375,40.79544144,1623.71
-104.76292384,40.79541541,1623.88
-104.76292423,40.79530577,1624.64
-104.76292474,40.79516128,1624.70
-104.76292507,40.79506939,1624.67
-104.76292518,40.79503777,1624.62
-104.76292555,40.79493336,1624.57
-104.76292573,40.79488354,1624.55
-104.76292524,40.79482120,1624.51
-104.76292314,40.79481255,1624.50
-104.76291062,40.79480055,1624.48
-104.76288333,40.79477445,1624.43
-104.76286135,40.79475351,1624.42
-104.76285365,40.79475304,1624.41
-104.76283315,40.79475192,1624.40
-104.76278573,40.79475155,1624.37
-104.76268142,40.79475125,1624.29
-104.76240843,40.79475069,1623.90
-104.76231894,40.79475050,1623.85
-104.76226429,40.79475039,1623.73
-104.76195859,40.79474976,1622.48
-104.76192824,40.79474970,1622.32
-104.76176858,40.79474937,1621.68
-104.76150021,40.79474881,1621.22
-104.76133236,40.79474847,1621.01
-104.76119546,40.79474818,1621.20
-104.76118965,40.79474817,1621.18
-104.76080180,40.79474737,1622.37
-104.76044880,40.79474690,1622.40
-104.76019620,40.79474611,1622.42
-104.76015317,40.79474602,1622.45
-104.76008620,40.79474588,1622.58
-104.75954662,40.79474476,1624.35
-104.75946116,40.79474458,1625.03
-104.75923167,40.79474410,1626.55
-104.75910104,40.79474383,1626.95
-104.75893071,40.79474365,1627.68
-104.75891731,40.79474435,1627.75
-104.75890544,40.79474792,1627.76
-104.75888381,40.79476509,1627.83
-104.75885314,40.79478826,1627.83
-104.75881927,40.79481414,1627.82
-104.75881189,40.79482007,1627.82
-104.75879359,40.79483498,1627.80
-104.75876363,40.79485843,1627.76
-104.75873344,40.79488107,1627.73
-104.75870027,40.79490731,1627.76
-104.75866782,40.79493309,1627.77
-104.75807726,40.79493501,1631.98
-104.75807371,40.79493221,1632.00
-104.75807017,40.79492941,1631.99
-104.75806331,40.79492408,1632.02
-104.75805988,40.79492137,1632.01
-104.75805622,40.79491848,1632.02
-104.75805256,40.79491559,1632.02
-104.75804877,40.79491261,1632.00
-104.75804535,40.79490990,1632.03
-104.75804180,40.79490710,1632.06
-104.75803802,40.79490412,1632.07
-104.75803471,40.79490150,1632.10
-104.75803128,40.79489879,1632.14
-104.75802750,40.79489581,1632.14
-104.75802052,40.79489021,1632.13
-104.75801367,40.79488479,1632.16
-104.75800681,40.79487946,1632.14
-104.75799925,40.79487359,1632.15
-104.75799558,40.79487070,1632.14
-104.75799204,40.79486790,1632.14
-104.75798849,40.79486510,1632.15
-104.75798459,40.79486203,1632.15
-104.75798116,40.79485932,1632.17
-104.75797785,40.79485670,1632.19
-104.75797419,40.79485381,1632.18
-104.75797076,40.79485110,1632.20
-104.75796355,40.79484550,1632.20
-104.75796012,40.79484279,1632.19
-104.75795670,40.79484008,1632.20
-104.75795315,40.79483728,1632.22
-104.75794949,40.79483439,1632.21
-104.75794582,40.79483150,1632.22
-104.75793861,40.79482581,1632.23
-104.75793483,40.79482283,1632.25
-104.75792786,40.79481732,1632.28
-104.75791355,40.79480602,1632.29
-104.75791013,40.79480331,1632.33
-104.75790658,40.79480051,1632.32
-104.75789972,40.79479519,1632.35
-104.75789594,40.79479220,1632.32
-104.75789228,40.79478931,1632.36
-104.75788850,40.79478633,1632.39
-104.75788507,40.79478362,1632.36
-104.75788140,40.79478073,1632.36
-104.75787762,40.79477775,1632.37
-104.75786710,40.79476944,1632.40
-104.75785977,40.79476375,1632.40
-104.75785280,40.79475824,1632.37
-104.75784583,40.79475273,1632.39
-104.75784204,40.79474975,1632.39
-104.75783838,40.79474686,1632.40
-104.75783117,40.79474117,1632.39
-104.75728259,40.79474002,1632.38
-104.75682563,40.79473906,1632.26
-104.75671622,40.79473883,1632.19
-104.75652905,40.79473843,1632.10
-104.75649930,40.79473855,1632.12
-104.75646717,40.79474091,1632.14
-104.75646325,40.79474316,1632.12
-104.75645885,40.79474630,1632.15
-104.75643235,40.79476552,1632.24
-104.75639704,40.79479283,1632.32
-104.75637446,40.79481035,1632.36
-104.75632929,40.79484458,1632.53
-104.75629386,40.79487225,1632.62
-104.75626391,40.79489534,1632.74
-104.75625226,40.79490423,1632.77
-104.75620209,40.79494286,1632.89
-104.75618105,40.79495958,1632.98
-104.75616096,40.79497530,1633.05
-104.75612922,40.79499973,1633.07
-104.75608952,40.79503073,1633.18
-104.75602497,40.79508095,1633.33
-104.75595459,40.79513621,1633.49
-104.75593295,40.79515337,1633.54
-104.75590561,40.79517484,1633.59
-104.75586674,40.79520557,1633.70
-104.75585580,40.79521410,1633.68
-104.75579006,40.79526486,1633.78
-104.75576914,40.79528139,1633.81
-104.75573990,40.79530421,1633.79
-104.75570055,40.79533395,1633.89
-104.75566239,40.79536368,1633.98
-104.75561425,40.79540061,1634.02
-104.75560521,40.79540761,1634.04
-104.75553947,40.79545864,1634.16
-104.75553068,40.79546547,1634.22
-104.75547207,40.79551057,1634.25
-104.75545365,40.79552440,1634.29
-104.75543558,40.79553770,1634.26
-104.75539493,40.79556905,1634.31
-104.75534536,40.79560678,1634.47
-104.75531849,40.79562772,1634.53
-104.75528236,40.79565503,1634.64
-104.75526060,40.79567146,1634.66
-104.75524563,40.79568260,1634.69
-104.75523255,40.79569231,1634.71
-104.75519273,40.79572348,1634.88
-104.75512996,40.79577127,1635.12
-104.75511617,40.79578142,1635.15
-104.75510631,40.79578897,1635.21
-104.75509299,40.79579903,1635.24
-104.75505603,40.79582724,1635.37
-104.75503249,40.79584530,1635.47
-104.75498981,40.79587845,1635.70
-104.75495676,40.79590378,1635.81
-104.75491801,40.79593388,1636.08
-104.75486487,40.79597574,1636.42
-104.75482160,40.79600871,1636.58
-104.75479723,40.79602740,1636.66
-104.75475313,40.79606127,1636.71
-104.75472852,40.79607932,1636.74
-104.75467111,40.79612262,1636.82
-104.75464662,40.79614113,1636.86
-104.75463747,40.79614814,1636.87
-104.75461298,40.79616700,1636.92
-104.75457352,40.79619656,1637.03
-104.75450826,40.79624560,1637.08
-104.75448294,40.79626528,1637.10
-104.75445833,40.79628405,1637.13
-104.75443253,40.79630346,1637.13
-104.75440627,40.79632268,1637.14
-104.75435551,40.79636149,1637.16
-104.75432888,40.79638143,1637.16
-104.75429345,40.79640937,1637.17
-104.75423141,40.79645563,1637.30
-104.75422059,40.79646381,1637.31
-104.75416447,40.79650774,1637.47
-104.75415378,40.79651565,1637.48
-104.75414391,40.79652292,1637.49
-104.75412275,40.79653945,1637.56
-104.75410302,40.79655481,1637.63
-104.75405630,40.79659012,1637.79
-104.75404108,40.79660225,1637.88
-104.75399508,40.79663773,1638.07
-104.75397962,40.79664977,1638.12
-104.75394919,40.79667340,1638.21
-104.75391376,40.79670080,1638.36
-104.75389426,40.79671625,1638.43
-104.75385884,40.79674347,1638.56
-104.75384398,40.79675470,1638.62
-104.75380380,40.79678588,1638.85
-104.75375446,40.79682460,1638.96
-104.75371047,40.79685883,1639.10
-104.75369086,40.79687356,1639.19
-104.75367184,40.79688829,1639.15
-104.75364307,40.79690967,1639.16
-104.75362310,40.79692404,1639.08
-104.75358946,40.79694937,1639.00
-104.75355142,40.79697821,1638.88
-104.75351802,40.79700318,1638.71
-104.75351446,40.79700579,1638.68
-104.75347345,40.79703606,1638.60
-104.75343089,40.79706777,1638.46
-104.75340355,40.79708888,1638.43
-104.75338429,40.79710379,1638.37
-104.75335112,40.79712904,1638.28
-104.75332284,40.79715015,1638.09
-104.75331142,40.79715886,1638.03
-104.75327386,40.79718707,1637.92
-104.75326768,40.79719192,1637.90
-104.75325068,40.79720503,1637.85
-104.75321430,40.79723342,1637.76
-104.75319742,40.79724627,1637.76
-104.75318743,40.79725390,1637.81
-104.75317697,40.79726253,1637.83
-104.75315426,40.79728041,1637.84
-104.75313441,40.79729631,1637.89
-104.75310695,40.79731715,1637.95
-104.75307698,40.79734249,1637.95
-104.75305475,40.79735992,1637.98
-104.75304833,40.79736486,1637.99
-104.75301837,40.79738696,1637.95
-104.75297557,40.79742200,1638.12
-104.75295215,40.79743997,1638.17
-104.75292623,40.79745973,1638.21
-104.75290388,40.79747752,1638.24
-104.75289568,40.79748408,1638.29
-104.75282743,40.79753861,1638.64
-104.75280758,40.79755479,1638.75
-104.75277643,40.79757985,1638.93
-104.75275716,40.79759657,1639.02
-104.75273707,40.79761292,1639.14
-104.75272149,40.79762568,1639.23
-104.75270508,40.79763835,1639.35
-104.75269308,40.79764742,1639.40
-104.75267322,40.79766395,1639.51
-104.75265681,40.79767716,1639.63
-104.75264147,40.79769010,1639.75
-104.75260461,40.79771939,1640.03
-104.75258083,40.79773916,1640.21
-104.75256062,40.79775623,1640.43
-104.75254005,40.79777222,1640.59
-104.75251556,40.79779235,1640.77
-104.75249047,40.79781211,1640.88
-104.75246586,40.79783242,1641.01
-104.75244481,40.79784913,1641.04
-104.75242746,40.79786206,1641.13
-104.75242401,40.79786494,1641.13
-104.75238251,40.79789899,1641.33
-104.75236575,40.79791202,1641.43
-104.75235303,40.79792172,1641.51
-104.75234031,40.79793187,1641.55
-104.75232782,40.79794212,1641.59
-104.75231569,40.79795164,1641.63
-104.75230380,40.79796134,1641.68
-104.75227491,40.79798416,1641.84
-104.75224590,40.79800887,1642.05
-104.75222913,40.79802190,1642.17
-104.75219584,40.79804868,1642.44
-104.75217170,40.79806862,1642.55
-104.75215506,40.79808174,1642.64
-104.75213901,40.79809459,1642.66
-104.75212902,40.79810222,1642.70
-104.75209288,40.79813115,1642.79
-104.75205412,40.79816233,1642.85
-104.75202047,40.79818838,1642.92
-104.75200905,40.79819872,1642.93
-104.75197458,40.79822504,1643.03
-104.75194913,40.79824651,1643.08
-104.75192702,40.79826313,1643.14
-104.75137160,40.79811699,1644.73
-104.75137170,40.79808834,1644.74
-104.75137214,40.79806789,1644.70
-104.75137251,40.79806330,1644.71
-104.75137254,40.79802375,1644.56
-104.75137331,40.79800853,1644.55
-104.75137334,40.79796862,1644.50
-104.75137404,40.79793853,1644.42
-104.75137493,40.79792358,1644.34
-104.75137520,40.79791295,1644.28
-104.75137561,40.79789827,1644.20
-104.75137585,40.79786728,1644.08
-104.75137569,40.79784665,1644.01
-104.75137600,40.79782611,1643.98
-104.75137740,40.79780026,1643.85
-104.75137765,40.79776468,1643.70
-104.75137746,40.79775369,1643.71
-104.75137838,40.79772783,1643.58
-104.75137907,40.79770306,1643.46
-104.75137993,40.79766226,1643.34
-104.75137957,40.79763163,1643.23
-104.75138036,40.79761190,1643.14
-104.75138124,40.79759659,1643.05
-104.75138097,40.79757605,1643.05
-104.75138116,40.79755587,1643.00
-104.75138149,40.79753010,1642.89
-104.75138240,40.79750903,1642.77
-104.75138214,40.79748389,1642.59
-104.75138292,40.79746398,1642.44
-104.75138349,40.79743957,1642.46
-104.75138382,40.79741462,1642.35
-104.75138379,40.79739012,1642.30
-104.75138371,40.79738093,1642.23
-104.75138492,40.79734255,1642.18
-104.75138430,40.79731895,1642.08
-104.75138538,40.79728130,1641.95
-104.75138612,40.79724382,1641.76
-104.75138587,40.79721553,1641.61
-104.75138682,40.79718311,1641.49
-104.75138653,40.79716455,1641.38
-104.75138696,40.79714518,1641.30
-104.75138698,40.79714059,1641.31
-104.75138715,40.79712662,1641.21
-104.75138722,40.79710752,1641.13
-104.75138751,40.79709356,1641.03
-104.75138809,40.79706537,1640.87
-104.75138783,40.79703771,1640.72
-104.75138824,40.79702429,1640.65
-104.75138868,40.79700177,1640.54
-104.75138888,40.79698060,1640.48
-104.75138889,40.79691330,1640.35
-104.75138851,40.79688826,1640.30
-104.75138842,40.79687988,1640.30
-104.75138765,40.79683277,1640.34
-104.75138809,40.79681124,1640.34
-104.75138698,40.79678934,1640.36
-104.75138667,40.79674700,1640.45
-104.75138629,40.79672007,1640.50
-104.75138544,40.79669484,1640.63
-104.75138435,40.79666925,1640.76
-104.75138358,40.79665322,1640.87
-104.75138189,40.79659736,1641.26
-104.75138205,40.79658538,1641.33
-104.75138142,40.79656574,1641.47
-104.75138057,40.79653880,1641.72
-104.75137980,40.79652249,1641.83
-104.75137929,40.79649880,1642.00
-104.75137744,40.79645655,1642.32
-104.75137730,40.79642979,1642.53
-104.75137684,40.79639511,1642.71
-104.75137621,40.79637195,1642.85
-104.75137517,40.79633466,1643.05
-104.75137546,40.79628664,1643.26
-104.75137555,40.79626376,1643.35
-104.75137570,40.79625592,1643.38
-104.75137481,40.79620881,1643.51
-104.75137393,40.79618799,1643.52
-104.75137364,40.79614016,1643.53
-104.75137371,40.79612232,1643.54
-104.75137359,40.79608989,1643.44
-104.75137285,40.79606656,1643.44
-104.75137163,40.79601016,1643.29
-104.75137088,40.79599106,1643.26
-104.75137031,40.79595277,1643.15
-104.75136993,40.79592800,1643.08
-104.75136633,40.79584367,1642.88
-104.75136591,40.79582781,1642.87
-104.75136497,40.79576313,1642.77
-104.75136420,40.79574691,1642.75
-104.75136224,40.79570106,1642.68
-104.75136182,40.79568493,1642.65
-104.75136141,40.79566980,1642.66
-104.75136131,40.79566412,1642.67
-104.75136069,40.79563853,1642.62
-104.75135911,40.79558637,1642.55
-104.75135903,40.79557637,1642.54
-104.75135648,40.79552880,1642.45
-104.75135570,40.79548232,1642.32
-104.75135396,40.79544069,1642.25
-104.75135268,40.79540438,1642.13
-104.75135075,40.79534790,1642.05
-104.75134740,40.79526060,1641.94
-104.75134655,40.79523474,1641.90
-104.75134629,40.79521033,1641.89
-104.75134619,40.79520555,1641.86
-104.75134611,40.79516276,1641.86
-104.75134825,40.79509664,1641.88
-104.75134926,40.79508178,1641.89
-104.75134959,40.79505503,1641.90
-104.75134991,40.79503260,1641.89
-104.75134983,40.79502467,1641.89
-104.75134833,40.79498070,1641.95
-104.75134800,40.79497386,1642.01
-104.75134702,40.79495061,1642.07
-104.75134421,40.79491025,1642.20
-104.75134152,40.79486826,1642.38
-104.75133928,40.79483312,1642.46
-104.75133623,40.79479195,1642.57
-104.75133367,40.79474744,1642.65
-104.75133231,40.79473140,1642.66
-104.75132805,40.79472797,1642.66
-104.75126523,40.79472720,1642.77
-104.75122220,40.79472711,1642.77
-104.75115085,40.79472696,1642.84
-104.75107842,40.79472680,1642.96
-104.75107332,40.79472715,1642.96
-104.75107294,40.79473373,1642.97
-104.75107225,40.79485498,1642.68
-104.75107103,40.79518325,1642.43
-104.75106990,40.79548584,1643.03
-104.75106903,40.79571907,1643.55
-104.75106893,40.79574475,1643.61
-104.75106816,40.79595194,1643.86
-104.75106805,40.79598104,1643.85
-104.75106716,40.79621976,1643.05
-104.75106562,40.79662974,1640.71
-104.75106517,40.79678369,1640.65
-104.75106389,40.79709241,1642.11
-104.75106315,40.79729276,1643.08
-104.75106169,40.79768373,1644.31
-104.75106091,40.79789246,1645.03
-104.75106048,40.79800749,1645.44
-104.75106003,40.79812623,1645.50
-104.75105882,40.79848206,1645.94
-104.75105827,40.79859683,1645.94
-104.75105797,40.79867944,1645.90
-104.75105753,40.79879519,1646.36
-104.75105711,40.79890969,1646.72
-104.75105658,40.79905104,1647.22
-104.75105651,40.79906977,1647.27
-104.75105622,40.79914644,1647.43
-104.75105609,40.79918067,1647.48
-104.75105608,40.79918553,1647.49
-104.75105590,40.79923328,1647.47
-104.75105577,40.79926823,1647.45
-104.75105486,40.79951209,1646.79
-104.75105391,40.79976496,1645.56
-104.75105308,40.79998711,1644.40
-104.75105292,40.80002900,1644.19
-104.75105254,40.80013322,1643.64
-104.75105230,40.80019493,1643.41
-104.75105217,40.80022988,1643.32
-104.75105212,40.80024547,1643.25
-104.75105202,40.80027042,1643.25
-104.75105041,40.80070328,1642.64
-104.75105039,40.80070616,1642.64
-104.75104998,40.80081606,1642.72
-104.75104990,40.80083859,1642.70
-104.75104917,40.80103425,1643.10
-104.75104876,40.80114316,1643.34
-104.75104838,40.80124487,1643.65
-104.75104825,40.80127901,1643.68
-104.75104775,40.80141450,1643.94
-104.75104770,40.80142711,1643.97
-104.75104769,40.80142972,1643.92
-104.75104759,40.80145720,1643.96
-104.75104744,40.80149593,1644.05
-104.75104741,40.80150548,1644.09
-104.75104669,40.80169646,1644.95
     </coordinates>
    </LineString>
   </MultiGeometry>
  </Placemark>
 </Document>
</kml>
