<kml>
 <Document>
  <Style id="yellow">
   <LineStyle>
   <color>ff00ffff</color>
   <width>1</width>
   </LineStyle>
  </Style>
  <Style id="red">
   <LineStyle>
   <color>ffff0000</color>
   <width>2</width>
   </LineStyle>
  </Style>
  <Style id="green">
   <LineStyle>
   <color>ff00ff00</color>
   <width>1</width>
   </LineStyle>
  </Style>
  <Placemark>
  <styleUrl>#yellow</styleUrl>
   <MultiGeometry>
    <LineString>
     <coordinates>
-97.61728272,33.38659237,296.25
-97.61732066,33.38659279,290.81
-97.61756552,33.38659552,290.88
-97.61759067,33.38659580,290.89
-97.61774556,33.38659752,290.89
-97.61776459,33.38659773,292.57
-97.61779716,33.38659810,295.31
-97.61789186,33.38659915,290.94
-97.61789648,33.38659920,290.94
-97.61799021,33.38660025,297.49
-97.61799601,33.38660031,297.97
-97.61813639,33.38660187,293.97
-97.61817831,33.38660234,296.70
-97.61822937,33.38660291,290.04
-97.61829999,33.38660370,296.11
-97.61831772,33.38660389,297.54
-97.61832331,33.38660396,298.01
-97.61832869,33.38660401,298.32
-97.61843671,33.38660522,291.55
-97.61844048,33.38660526,296.94
-97.61844671,33.38660533,296.36
-97.61845810,33.38660546,295.54
-97.61854055,33.38660637,288.26
-97.61855119,33.38660649,301.19
-97.61856247,33.38660662,302.12
-97.61857226,33.38660673,288.61
-97.61862976,33.38660737,301.37
-97.61870737,33.38660823,294.60
-97.61871468,33.38660831,293.67
-97.61873983,33.38660859,291.71
-97.61879390,33.38660919,291.76
-97.61894707,33.38661090,300.69
-97.61895341,33.38661097,300.23
-97.61904327,33.38661197,292.09
-97.61930027,33.38661483,292.59
-97.61931532,33.38661500,292.56
-97.61946054,33.38661661,292.76
-97.61961640,33.38661835,293.24
-97.61980536,33.38662045,294.16
-97.61997390,33.38662232,294.44
-97.62017802,33.38662459,295.57
-97.62030991,33.38662606,296.13
-97.62064517,33.38662979,297.61
-97.62095301,33.38663321,310.20
-97.62100966,33.38663384,301.10
-97.62103600,33.38663413,303.65
-97.62106190,33.38663442,305.81
-97.62115456,33.38663545,300.81
-97.62130042,33.38663707,313.48
-97.62147455,33.38663900,300.66
-97.62147906,33.38663905,300.46
-97.62151787,33.38663948,303.14
-97.62154334,33.38663977,306.14
-97.62154431,33.38663978,305.10
-97.62156505,33.38664001,306.78
-97.62157097,33.38664007,307.14
-97.62158075,33.38664018,308.51
-97.62158580,33.38664024,308.52
-97.62162514,33.38664068,301.69
-97.62193008,33.38664406,302.35
-97.62208455,33.38664578,299.43
-97.62220891,33.38664716,299.87
-97.62221396,33.38664721,299.87
-97.62221880,33.38664727,299.91
-97.62222170,33.38664730,299.95
-97.62222353,33.38664732,299.94
-97.62229684,33.38664813,305.86
-97.62230318,33.38664821,306.39
-97.62230844,33.38664826,306.58
-97.62231307,33.38664832,306.58
-97.62231543,33.38664834,307.52
-97.62242399,33.38664955,303.69
-97.62245517,33.38664989,306.67
-97.62249515,33.38665034,310.28
-97.62249913,33.38665038,310.54
-97.62275538,33.38665323,302.86
-97.62276011,33.38665328,302.90
-97.62276505,33.38665333,302.94
-97.62277021,33.38665339,303.00
-97.62299981,33.38665585,304.35
-97.62332066,33.38665950,305.90
-97.62332539,33.38665955,306.02
-97.62332980,33.38665960,306.02
-97.62333453,33.38665965,305.96
-97.62361368,33.38666275,306.39
-97.62373879,33.38666414,306.73
-97.62374363,33.38666410,306.73
-97.62379751,33.38666298,306.79
-97.62380000,33.38666202,306.79
-97.62380088,33.38664038,306.80
-97.62380170,33.38660856,306.83
-97.62380227,33.38657258,306.84
-97.62380324,33.38651090,306.84
-97.62380331,33.38650630,306.86
-97.62380378,33.38647663,306.86
-97.62381010,33.38607555,306.00
-97.62381079,33.38603182,305.71
-97.62381444,33.38580025,304.04
-97.62381624,33.38568592,303.63
-97.62381841,33.38554831,304.11
-97.62381894,33.38551450,304.28
-97.62381907,33.38550611,304.33
-97.62382022,33.38543334,304.12
-97.62382158,33.38534687,303.63
-97.62382230,33.38530106,302.87
-97.62382415,33.38518411,312.19
-97.62382455,33.38515832,304.84
-97.62382502,33.38512847,307.81
-97.62382581,33.38507861,307.46
-97.62382658,33.38502946,302.58
-97.62382687,33.38501116,302.47
-97.62382748,33.38497283,302.19
-97.62382895,33.38487951,304.60
-97.62382926,33.38485949,308.67
-97.62383077,33.38476400,301.72
-97.62383158,33.38471269,310.76
-97.62383185,33.38469547,310.10
-97.62383240,33.38466057,312.75
-97.62383285,33.38463207,313.00
-97.62383322,33.38460854,306.03
-97.62383397,33.38456075,310.78
-97.62383404,33.38455606,309.58
-97.62383497,33.38449727,310.09
-97.62383504,33.38449303,314.05
-97.62383511,33.38448834,307.71
-97.62383546,33.38446652,315.21
-97.62383573,33.38444893,301.23
-97.62383624,33.38441647,304.37
-97.62383646,33.38440268,304.08
-97.62383670,33.38438753,301.07
-97.62383843,33.38427779,316.53
-97.62384011,33.38417138,312.06
-97.62384024,33.38416300,301.57
-97.62384044,33.38415019,314.89
-97.62384375,33.38394036,311.92
-97.62384609,33.38379176,312.22
-97.62384643,33.38377003,311.85
-97.62384663,33.38375740,309.04
-97.62384691,33.38373937,306.49
-97.62384701,33.38373297,312.43
-97.62384877,33.38362179,305.08
-97.62384898,33.38360835,306.20
-97.62384981,33.38355533,313.82
-97.62385066,33.38350141,307.70
-97.62385068,33.38350014,307.35
-97.62385113,33.38347174,306.19
-97.62385166,33.38343783,303.02
-97.62385237,33.38339329,303.24
-97.62385422,33.38327571,303.52
-97.62385636,33.38313964,303.90
-97.62385748,33.38306840,304.21
-97.62385823,33.38302106,305.56
-97.62385974,33.38292512,304.71
-97.62386044,33.38288057,304.90
-97.62386175,33.38279743,306.53
-97.62386219,33.38276948,307.14
-97.62386274,33.38273458,305.10
-97.62386390,33.38266145,307.64
-97.62386413,33.38264666,305.26
-97.62386420,33.38264207,306.59
-97.62386686,33.38247308,306.08
-97.62386696,33.38246677,306.34
-97.62386741,33.38243873,305.92
-97.62386826,33.38238462,305.93
-97.62386852,33.38236776,305.89
-97.62386959,33.38229986,306.36
-97.62387063,33.38223377,309.24
-97.62387189,33.38215378,318.47
-97.62387200,33.38214693,315.53
-97.62387230,33.38212818,317.19
-97.62387439,33.38199526,315.27
-97.62387456,33.38198489,314.88
-97.62387530,33.38193773,310.09
-97.62387552,33.38192366,314.36
-97.62387596,33.38189553,314.29
-97.62387735,33.38180761,316.13
-97.62387864,33.38172538,312.76
-97.62387872,33.38172060,308.80
-97.62388056,33.38160364,314.59
-97.62388063,33.38159913,313.80
-97.62388446,33.38135630,310.06
-97.62388577,33.38127298,310.47
-97.62388707,33.38119056,310.72
-97.62388847,33.38110175,310.82
-97.62388890,33.38107451,310.44
-97.62388974,33.38102122,310.69
-97.62389034,33.38098281,312.12
-97.62389200,33.38087740,313.29
-97.62389231,33.38085801,316.58
-97.62389267,33.38083520,317.43
-97.62389278,33.38082807,317.00
-97.62389314,33.38080553,312.59
-97.62389367,33.38077153,318.99
-97.62389455,33.38071590,319.62
-97.62389527,33.38067036,321.43
-97.62389574,33.38064033,320.78
-97.62389608,33.38061896,311.89
-97.62389633,33.38060282,312.08
-97.62389637,33.38060057,320.85
-97.62389668,33.38058037,318.87
-97.62389682,33.38057189,319.64
-97.62389729,33.38054160,322.31
-97.62389744,33.38053240,322.00
-97.62389745,33.38053150,317.22
-97.62389768,33.38051698,321.58
-97.62389779,33.38050995,316.50
-97.62389821,33.38048325,318.83
-97.62389864,33.38045629,320.94
-97.62389878,33.38044719,320.20
-97.62389884,33.38044340,322.18
-97.62389953,33.38039985,320.32
-97.62389958,33.38039651,321.88
-97.62389959,33.38039588,320.54
-97.62390030,33.38035052,323.19
-97.62390135,33.38028433,322.32
-97.62390141,33.38028064,323.69
-97.62390248,33.38021238,317.18
-97.62390254,33.38020850,314.50
-97.62390330,33.38016062,324.94
-97.62390474,33.38006900,312.74
-97.62390512,33.38004493,322.00
-97.62390539,33.38002770,321.32
-97.62390561,33.38001364,323.35
-97.62390664,33.37994826,322.06
-97.62390833,33.37984087,313.24
-97.62390889,33.37980552,313.25
-97.62390999,33.37973600,323.94
-97.62391192,33.37961309,317.83
-97.62391239,33.37958334,313.78
-97.62391330,33.37952554,314.06
-97.62391378,33.37949542,314.97
-97.62391378,33.37949497,315.02
-97.62391657,33.37931805,314.63
-97.62391761,33.37925204,312.61
-97.62391978,33.37910750,311.45
-97.62392531,33.37876313,321.58
-97.62392633,33.37869821,312.22
-97.62392672,33.37867386,311.95
-97.62392845,33.37856385,312.92
-97.62392884,33.37853923,323.69
-97.62392886,33.37853788,319.10
-97.62393468,33.37816835,322.70
-97.62393484,33.37815825,321.97
-97.62393710,33.37801461,318.87
-97.62393757,33.37798503,317.55
-97.62394155,33.37773192,316.51
-97.62394202,33.37768187,320.82
-97.62394190,33.37765536,320.43
-97.62393875,33.37765045,320.63
-97.62386676,33.37764830,320.66
-97.62384925,33.37764783,320.23
-97.62373340,33.37764583,319.47
-97.62366065,33.37764457,319.52
-97.62365624,33.37764452,319.52
-97.62365151,33.37764447,319.56
-97.62361260,33.37764404,320.87
-97.62339378,33.37764161,320.80
-97.62338937,33.37764156,320.71
-97.62304867,33.37763778,322.98
-97.62304405,33.37763773,322.98
-97.62301761,33.37763744,322.17
-97.62299525,33.37763719,322.84
-97.62272366,33.37763418,325.31
-97.62268626,33.37763376,325.52
-97.62265799,33.37763345,325.65
-97.62265294,33.37763339,325.79
-97.62255417,33.37763229,326.40
-97.62254073,33.37763215,326.26
-97.62253149,33.37763204,326.28
-97.62242595,33.37763087,322.83
-97.62242100,33.37763082,322.83
-97.62238672,33.37763044,327.37
-97.62233556,33.37762987,327.76
-97.62228493,33.37762931,326.99
-97.62225205,33.37762894,328.34
-97.62225022,33.37762892,328.19
-97.62224538,33.37762887,328.18
-97.62224313,33.37762884,328.35
-97.62223302,33.37762873,328.70
-97.62222851,33.37762868,328.72
-97.62221959,33.37762858,328.54
-97.62221486,33.37762853,328.53
-97.62213092,33.37762760,331.38
-97.62205719,33.37762678,333.78
-97.62198722,33.37762600,324.66
-97.62196917,33.37762580,325.01
-97.62196304,33.37762573,330.22
-97.62184127,33.37762438,328.92
-97.62158010,33.37762148,322.44
-97.62153571,33.37762099,323.86
-97.62153077,33.37762093,323.91
-97.62152228,33.37762084,324.29
-97.62150433,33.37762064,324.77
-97.62149541,33.37762054,324.97
-97.62124918,33.37761780,320.90
-97.62124445,33.37761775,320.87
-97.62124025,33.37761770,320.86
-97.62111913,33.37761636,321.80
-97.62108345,33.37761596,321.92
-97.62098005,33.37761481,322.51
-97.62094931,33.37761447,322.81
-97.62093137,33.37761427,322.87
-97.62092234,33.37761417,322.94
-97.62061979,33.37761081,325.15
-97.62055788,33.37761012,325.57
-97.62048243,33.37760928,326.04
-97.62046470,33.37760909,326.24
-97.62046018,33.37760904,326.28
-97.62044202,33.37760883,326.36
-97.62022137,33.37760638,314.74
-97.62021202,33.37760628,314.67
-97.62020751,33.37760623,314.74
-97.62020310,33.37760618,314.73
-97.62019880,33.37760613,314.90
-97.61993527,33.37760320,316.56
-97.61991785,33.37760301,316.74
-97.61991366,33.37760296,316.88
-97.61990463,33.37760286,316.83
-97.61978437,33.37760152,317.78
-97.61976685,33.37760133,317.75
-97.61963766,33.37759989,318.78
-97.61958865,33.37759935,318.97
-97.61957522,33.37759920,319.11
-97.61956673,33.37759910,319.26
-97.61956189,33.37759905,319.22
-97.61909275,33.37759383,310.03
-97.61908770,33.37759377,310.02
-97.61878290,33.37759038,309.29
-97.61877806,33.37759033,309.32
-97.61875850,33.37759011,309.29
-97.61875366,33.37759006,309.30
-97.61874883,33.37759000,309.29
-97.61874399,33.37758995,309.30
-97.61873980,33.37758990,309.28
-97.61873528,33.37758985,309.31
-97.61843488,33.37758651,311.19
-97.61840490,33.37758617,308.61
-97.61840028,33.37758612,308.58
-97.61797735,33.37758141,307.47
-97.61797295,33.37758136,307.47
-97.61760527,33.37757727,306.97
-97.61760075,33.37757722,306.96
-97.61744792,33.37757552,306.75
-97.61744287,33.37757546,306.74
-97.61743782,33.37757540,306.72
-97.61743266,33.37757535,306.71
-97.61742804,33.37757529,306.71
-97.61720083,33.37757276,305.92
-97.61719621,33.37757271,305.91
-97.61681832,33.37756850,303.39
-97.61681359,33.37756845,303.40
-97.61640862,33.37756393,301.59
-97.61640400,33.37756388,301.59
-97.61598129,33.37755917,300.15
-97.61597645,33.37755912,300.15
-97.61568938,33.37755591,299.78
-97.61525120,33.37755103,299.80
-97.61490179,33.37754713,299.44
-97.61488374,33.37754692,299.37
-97.61487922,33.37754687,299.36
-97.61472994,33.37754521,298.97
-97.61453508,33.37754303,298.72
-97.61445404,33.37754213,298.76
-97.61444942,33.37754208,298.76
-97.61437988,33.37754130,298.79
-97.61419201,33.37753920,307.17
-97.61414150,33.37753864,304.39
-97.61406981,33.37753784,305.23
-97.61406842,33.37753782,301.89
-97.61406777,33.37753782,306.56
-97.61406594,33.37753780,305.56
-97.61406358,33.37753777,301.80
-97.61392956,33.37753627,301.60
-97.61381380,33.37753498,305.11
-97.61373126,33.37753406,304.73
-97.61372976,33.37753404,306.27
-97.61372793,33.37753402,301.01
-97.61372782,33.37753402,303.10
-97.61372599,33.37753400,302.28
-97.61372331,33.37753397,300.99
-97.61369042,33.37753360,308.30
-97.61366989,33.37753337,307.17
-97.61356800,33.37753223,301.73
-97.61354468,33.37753197,309.48
-97.61354038,33.37753192,309.17
-97.61352748,33.37753178,308.58
-97.61346859,33.37753112,305.31
-97.61331393,33.37752939,306.42
-97.61330662,33.37752931,309.54
-97.61330264,33.37752927,309.88
-97.61330114,33.37752925,303.80
-97.61330071,33.37752925,309.17
-97.61330028,33.37752924,307.04
-97.61329985,33.37752924,305.08
-97.61329662,33.37752920,303.81
-97.61327126,33.37752892,310.90
-97.61326696,33.37752887,310.59
-97.61326245,33.37752882,310.42
-97.61320323,33.37752816,307.36
-97.61319752,33.37752855,307.77
-97.61319569,33.37752925,307.59
-97.61319493,33.37755656,305.86
-97.61319381,33.37762022,305.89
-97.61319355,33.37763655,306.25
-97.61319304,33.37766856,304.11
-97.61319189,33.37774151,312.35
-97.61319102,33.37779597,312.09
-97.61319088,33.37780472,303.89
-97.61319081,33.37780931,312.94
-97.61318984,33.37787054,303.65
-97.61318967,33.37788082,305.93
-97.61318963,33.37788344,308.72
-97.61318926,33.37790679,311.28
-97.61318919,33.37791121,309.36
-97.61318839,33.37796198,310.76
-97.61318809,33.37798028,311.99
-97.61318790,33.37799236,308.73
-97.61318766,33.37800778,303.50
-97.61318692,33.37805440,306.69
-97.61318680,33.37806180,303.14
-97.61318583,33.37812284,310.73
-97.61318568,33.37813258,306.91
-97.61318552,33.37814268,309.54
-97.61318510,33.37816892,308.58
-97.61318469,33.37819453,309.52
-97.61318464,33.37819777,310.89
-97.61318464,33.37819823,309.10
-97.61318449,33.37820724,309.92
-97.61318448,33.37820778,310.86
-97.61318390,33.37824475,304.53
-97.61318340,33.37827613,308.04
-97.61318310,33.37829462,311.57
-97.61318196,33.37836694,312.38
-97.61318161,33.37838894,311.30
-97.61318083,33.37843817,303.81
-97.61318075,33.37844304,302.93
-97.61317965,33.37851220,309.18
-97.61317940,33.37852825,312.42
-97.61317939,33.37852880,307.73
-97.61317862,33.37857704,305.86
-97.61317706,33.37867541,307.94
-97.61317700,33.37867911,311.05
-97.61317623,33.37872744,307.49
-97.61317619,33.37872997,302.83
-97.61317378,33.37888209,304.94
-97.61317373,33.37888515,302.41
-97.61317350,33.37889967,302.40
-97.61317267,33.37895170,304.70
-97.61317260,33.37895630,302.13
-97.61317144,33.37902916,301.54
-97.61317136,33.37903421,304.43
-97.61317076,33.37907217,301.14
-97.61317039,33.37909544,301.01
-97.61316956,33.37914801,300.55
-97.61316948,33.37915269,300.56
-97.61316801,33.37924521,304.90
-97.61316774,33.37926270,302.76
-97.61316771,33.37926451,300.17
-97.61316731,33.37928976,301.95
-97.61316677,33.37932375,305.12
-97.61316661,33.37933331,308.43
-97.61316442,33.37947163,298.11
-97.61316424,33.37948317,297.88
-97.61316386,33.37950680,297.64
-97.61316336,33.37953836,297.36
-97.61316156,33.37965198,296.89
-97.61315990,33.37975630,300.70
-97.61315932,33.37979255,298.25
-97.61315885,33.37982249,303.13
-97.61315786,33.37988480,304.95
-97.61315686,33.37994774,300.47
-97.61315673,33.37995612,301.17
-97.61315455,33.38009301,292.75
-97.61315400,33.38012781,292.92
-97.61315281,33.38020265,298.07
-97.61315269,33.38021014,302.32
-97.61315167,33.38027452,295.63
-97.61315101,33.38031636,290.62
-97.61314982,33.38039102,291.65
-97.61314966,33.38040094,297.08
-97.61314959,33.38040590,293.18
-97.61314953,33.38040942,300.41
-97.61314798,33.38050734,300.22
-97.61314762,33.38052989,300.96
-97.61314700,33.38056866,300.32
-97.61314436,33.38073503,301.73
-97.61314372,33.38077515,301.15
-97.61314344,33.38079301,300.90
-97.61314315,33.38081131,302.26
-97.61314287,33.38082863,305.55
-97.61314266,33.38084197,304.23
-97.61314188,33.38089139,305.08
-97.61314004,33.38100708,293.47
-97.61313989,33.38101663,306.26
-97.61313959,33.38103521,293.51
-97.61313906,33.38106866,304.28
-97.61313872,33.38109003,302.99
-97.61313850,33.38110419,293.63
-97.61313845,33.38110753,299.24
-97.61313718,33.38118697,293.80
-97.61313681,33.38121041,293.64
-97.61313553,33.38129139,295.98
-97.61313348,33.38142015,296.33
-97.61313172,33.38153143,295.43
-97.61313113,33.38156803,295.41
-97.61312752,33.38179545,295.18
-97.61312732,33.38180843,295.15
-97.61312727,33.38181141,295.16
-97.61312636,33.38186894,295.12
-97.61312582,33.38190275,295.06
-97.61312422,33.38200320,294.86
-97.61312269,33.38210014,294.71
-97.61312161,33.38216786,294.68
-97.61311939,33.38230753,296.12
-97.61311917,33.38232160,296.26
-97.61311843,33.38236804,296.15
-97.61311657,33.38248517,295.93
-97.61311648,33.38249067,301.17
-97.61311070,33.38285488,305.88
-97.61311059,33.38286191,296.34
-97.61311058,33.38286254,306.06
-97.61310888,33.38296984,294.75
-97.61310882,33.38297363,305.06
-97.61310639,33.38312629,294.09
-97.61310588,33.38315875,302.54
-97.61310572,33.38316858,305.85
-97.61310354,33.38330582,293.41
-97.61310204,33.38340050,301.20
-97.61310196,33.38340519,301.05
-97.61310153,33.38343270,302.37
-97.61310094,33.38346931,292.16
-97.61310024,33.38351385,304.10
-97.61309904,33.38358950,304.04
-97.61309800,33.38365452,294.50
-97.61309721,33.38370447,302.66
-97.61309529,33.38382539,291.83
-97.61309393,33.38391115,296.98
-97.61309347,33.38393973,297.23
-97.61309311,33.38396254,302.81
-97.61309300,33.38396931,302.43
-97.61309257,33.38399681,303.35
-97.61308918,33.38421025,292.30
-97.61308799,33.38428527,291.96
-97.61308614,33.38440186,300.10
-97.61308464,33.38449582,297.37
-97.61308426,33.38452008,297.54
-97.61308393,33.38454046,299.18
-97.61308217,33.38465173,296.15
-97.61308172,33.38467977,296.89
-97.61308145,33.38469717,300.13
-97.61308123,33.38471052,298.62
-97.61308099,33.38472558,300.33
-97.61308034,33.38476706,298.83
-97.61307867,33.38487166,290.43
-97.61307760,33.38493919,291.39
-97.61307747,33.38494776,289.64
-97.61307745,33.38494902,290.87
-97.61307694,33.38498121,289.45
-97.61307558,33.38506625,295.04
-97.61307531,33.38508365,297.42
-97.61307505,33.38509979,289.59
-97.61307494,33.38510682,295.75
-97.61307462,33.38512702,291.28
-97.61307461,33.38512747,297.73
-97.61307395,33.38516949,298.44
-97.61307318,33.38521746,289.14
-97.61307315,33.38521945,298.76
-97.61307299,33.38522964,289.16
-97.61307226,33.38527572,298.56
-97.61307137,33.38533180,300.62
-97.61307133,33.38533433,296.99
-97.61307094,33.38535858,298.37
-97.61307068,33.38537517,301.47
-97.61307038,33.38539420,298.78
-97.61307029,33.38539979,299.30
-97.61307014,33.38540908,299.45
-97.61307005,33.38541476,299.04
-97.61306962,33.38544208,299.64
-97.61306771,33.38556228,288.30
-97.61306712,33.38559898,295.58
-97.61306608,33.38566454,293.04
-97.61306404,33.38579348,295.58
-97.61306365,33.38581774,289.91
-97.61306325,33.38584298,288.52
-97.61306318,33.38584731,287.78
-97.61305969,33.38606733,287.18
-97.61305935,33.38608834,289.59
-97.61305916,33.38610042,290.97
-97.61305856,33.38613848,292.80
-97.61305720,33.38622396,289.62
-97.61305664,33.38625913,289.72
-97.61305474,33.38637906,288.84
-97.61305372,33.38644317,286.26
-97.61305312,33.38648050,287.75
-97.61305215,33.38654191,286.62
-97.61308319,33.38654388,291.08
-97.61311917,33.38654590,296.85
-97.61312272,33.38654594,296.31
-97.61313003,33.38654602,295.55
-97.61315292,33.38654628,293.32
-97.61315690,33.38654632,293.01
-97.61337757,33.38654879,286.83
-97.61352085,33.38655039,286.52
-97.61353698,33.38655057,286.52
-97.61373626,33.38655280,286.43
-97.61381010,33.38655362,286.59
-97.61400390,33.38655579,289.39
-97.61400820,33.38655583,289.64
-97.61411709,33.38655705,286.84
-97.61428810,33.38655896,292.24
-97.61434668,33.38655961,293.47
-97.61437560,33.38655994,290.66
-97.61440860,33.38656031,287.65
-97.61441408,33.38656037,287.80
-97.61464045,33.38656289,290.15
-97.61469430,33.38656350,288.91
-97.61498645,33.38656676,289.88
-97.61504235,33.38656738,290.15
-97.61517316,33.38656884,294.33
-97.61556861,33.38657325,289.88
-97.61558634,33.38657345,288.46
-97.61587097,33.38657663,288.08
-97.61608455,33.38657901,297.36
-97.61610304,33.38657921,295.30
-97.61612658,33.38657948,293.43
-97.61643926,33.38658296,290.18
-97.61668423,33.38658569,293.70
-97.61705517,33.38658983,290.94
-97.61728272,33.38659237,296.25
     </coordinates>
    </LineString>
   </MultiGeometry>
  </Placemark>
 </Document>
</kml>
