<kml>
 <Document>
  <Style id="yellow">
   <LineStyle>
   <color>ff00ffff</color>
   <width>1</width>
   </LineStyle>
  </Style>
  <Style id="red">
   <LineStyle>
   <color>ffff0000</color>
   <width>2</width>
   </LineStyle>
  </Style>
  <Style id="green">
   <LineStyle>
   <color>ff00ff00</color>
   <width>1</width>
   </LineStyle>
  </Style>
  <Placemark>
  <styleUrl>#yellow</styleUrl>
   <MultiGeometry>
    <LineString>
     <coordinates>
-97.58087950,33.38165787,284.43
-97.58087902,33.38168745,291.87
-97.58087855,33.38171657,286.60
-97.58087785,33.38175976,284.48
-97.58087725,33.38179628,280.55
-97.58087719,33.38179980,285.19
-97.58087702,33.38181080,283.78
-97.58087663,33.38183433,287.38
-97.58087651,33.38184200,287.78
-97.58087602,33.38187221,290.10
-97.58087445,33.38196842,280.69
-97.58087440,33.38197184,280.13
-97.58087275,33.38207347,281.24
-97.58087221,33.38210647,281.30
-97.58087088,33.38218825,282.66
-97.58086914,33.38229556,284.06
-97.58086885,33.38231368,282.74
-97.58086853,33.38233316,283.55
-97.58086827,33.38234885,282.64
-97.58086804,33.38236345,278.03
-97.58086762,33.38238924,282.19
-97.58086733,33.38240701,276.13
-97.58086727,33.38241079,276.09
-97.58086627,33.38247220,281.31
-97.58086329,33.38265570,274.38
-97.58086272,33.38269077,274.23
-97.58086248,33.38270556,274.00
-97.58086070,33.38281512,283.90
-97.58086025,33.38284298,282.85
-97.58086005,33.38285506,282.51
-97.58085786,33.38298951,282.71
-97.58085647,33.38307562,280.48
-97.58085482,33.38317715,275.82
-97.58085432,33.38320754,279.47
-97.58085410,33.38322125,277.80
-97.58085342,33.38326318,278.14
-97.58085292,33.38329356,276.22
-97.58085142,33.38338626,284.70
-97.58085074,33.38342801,278.61
-97.58085022,33.38346020,281.60
-97.58084792,33.38360159,275.42
-97.58084614,33.38371114,285.36
-97.58084593,33.38372395,283.48
-97.58084544,33.38375424,284.41
-97.58084479,33.38379383,287.01
-97.58084392,33.38384793,284.37
-97.58084328,33.38388688,281.66
-97.58084283,33.38391493,269.10
-97.58084275,33.38391944,282.91
-97.58084180,33.38397814,280.49
-97.58084179,33.38397904,269.51
-97.58084041,33.38406398,283.19
-97.58083949,33.38412007,275.11
-97.58083895,33.38415379,273.19
-97.58083825,33.38419662,281.39
-97.58083538,33.38437354,270.14
-97.58083521,33.38438345,277.10
-97.58083457,33.38442286,289.74
-97.58083457,33.38442331,291.14
-97.58083420,33.38444567,275.42
-97.58083316,33.38450987,271.34
-97.58083184,33.38459094,275.05
-97.58083183,33.38459148,276.58
-97.58083106,33.38463927,281.24
-97.58082924,33.38475099,278.60
-97.58082904,33.38476334,283.37
-97.58082870,33.38478417,283.19
-97.58082630,33.38493178,281.73
-97.58082500,33.38501194,280.09
-97.58082227,33.38517975,270.71
-97.58082004,33.38531726,271.94
-97.58081992,33.38532465,272.08
-97.58081958,33.38534539,272.32
-97.58081873,33.38539805,277.26
-97.58081738,33.38548083,282.93
-97.58081682,33.38551527,286.19
-97.58081656,33.38553168,283.27
-97.58081636,33.38554350,283.56
-97.58081590,33.38557190,285.45
-97.58081585,33.38557533,285.85
-97.58081583,33.38557650,274.48
-97.58081571,33.38558344,283.42
-97.58081526,33.38561130,285.07
-97.58081455,33.38565531,285.73
-97.58081377,33.38570310,286.05
-97.58081371,33.38570707,286.06
-97.58081358,33.38571482,285.18
-97.58081348,33.38572077,286.47
-97.58081276,33.38576523,276.25
-97.58081197,33.38581410,283.87
-97.58081189,33.38581852,276.41
-97.58080972,33.38595224,277.10
-97.58080941,33.38597153,278.73
-97.58080928,33.38597929,283.74
-97.58080917,33.38598587,285.64
-97.58080891,33.38600246,282.81
-97.58080826,33.38604205,277.89
-97.58080805,33.38605503,280.48
-97.58080696,33.38612239,278.65
-97.58080645,33.38617325,278.90
-97.58080735,33.38617768,278.94
-97.58085030,33.38618106,278.74
-97.58106269,33.38618349,277.73
-97.58106795,33.38618355,277.72
-97.58107311,33.38618360,277.74
-97.58107795,33.38618366,277.73
-97.58108687,33.38618376,277.66
-97.58126852,33.38618584,285.97
-97.58131453,33.38618637,277.99
-97.58152907,33.38618882,277.78
-97.58153079,33.38618884,283.59
-97.58153552,33.38618889,283.41
-97.58156099,33.38618918,283.81
-97.58156561,33.38618924,283.81
-97.58157067,33.38618929,283.94
-97.58162129,33.38618987,284.57
-97.58162624,33.38618993,284.58
-97.58173222,33.38619114,277.19
-97.58198030,33.38619397,282.34
-97.58198932,33.38619408,280.55
-97.58200534,33.38619426,277.72
-97.58223955,33.38619694,276.24
-97.58225385,33.38619710,274.41
-97.58226384,33.38619721,275.81
-97.58228878,33.38619750,276.09
-97.58246688,33.38619953,274.44
-97.58255653,33.38620056,279.51
-97.58260468,33.38620111,280.07
-97.58268379,33.38620201,280.25
-97.58269454,33.38620214,278.24
-97.58269615,33.38620215,281.10
-97.58281578,33.38620352,282.73
-97.58284309,33.38620383,284.35
-97.58285212,33.38620393,283.05
-97.58287791,33.38620423,283.36
-97.58289081,33.38620438,275.47
-97.58307999,33.38620654,284.70
-97.58308310,33.38620657,283.81
-97.58309213,33.38620668,282.55
-97.58310471,33.38620682,286.13
-97.58310944,33.38620687,286.29
-97.58313330,33.38620715,275.01
-97.58317081,33.38620757,286.96
-97.58318478,33.38620773,287.20
-97.58319929,33.38620790,287.46
-97.58323251,33.38620828,287.96
-97.58344694,33.38621073,290.55
-97.58345135,33.38621078,290.37
-97.58360473,33.38621253,277.83
-97.58361376,33.38621263,277.90
-97.58369814,33.38621359,278.97
-97.58374038,33.38621408,279.38
-97.58376822,33.38621439,279.77
-97.58377316,33.38621445,279.92
-97.58383798,33.38621519,280.65
-97.58396771,33.38621667,281.97
-97.58398663,33.38621689,282.24
-97.58399620,33.38621700,282.44
-97.58416667,33.38621894,284.38
-97.58420838,33.38621942,284.87
-97.58440400,33.38622165,275.76
-97.58440841,33.38622170,275.79
-97.58441303,33.38622175,275.90
-97.58441765,33.38622180,276.06
-97.58442260,33.38622186,276.13
-97.58449214,33.38622265,276.87
-97.58451536,33.38622292,277.13
-97.58472323,33.38622529,279.58
-97.58483309,33.38622654,280.94
-97.58488403,33.38622712,281.52
-97.58490682,33.38622738,281.84
-97.58491166,33.38622744,281.91
-97.58503161,33.38622881,285.34
-97.58503645,33.38622886,289.48
-97.58505375,33.38622906,283.53
-97.58519134,33.38623063,285.10
-97.58520080,33.38623074,285.41
-97.58524594,33.38623125,285.84
-97.58528463,33.38623169,280.43
-97.58529313,33.38623179,287.59
-97.58529463,33.38623180,286.56
-97.58529657,33.38623183,286.45
-97.58533784,33.38623230,287.09
-97.58535601,33.38623250,287.19
-97.58536084,33.38623256,287.14
-97.58536503,33.38623261,287.37
-97.58537417,33.38623271,287.31
-97.58548961,33.38623403,278.51
-97.58549402,33.38623408,279.94
-97.58549423,33.38623408,278.47
-97.58578842,33.38623743,281.71
-97.58579090,33.38623746,280.88
-97.58597330,33.38623954,294.64
-97.58598244,33.38623964,294.85
-97.58598663,33.38623969,295.00
-97.58601017,33.38623996,295.04
-97.58603457,33.38624024,281.70
-97.58603930,33.38624029,281.71
-97.58604112,33.38624031,282.45
-97.58604618,33.38624037,290.20
-97.58604908,33.38624040,289.33
-97.58605112,33.38624043,290.13
-97.58627974,33.38624303,282.75
-97.58629726,33.38624323,290.10
-97.58630178,33.38624328,290.10
-97.58630307,33.38624330,292.61
-97.58630479,33.38624332,293.35
-97.58631296,33.38624341,282.99
-97.58646193,33.38624511,284.70
-97.58651793,33.38624575,285.46
-97.58653621,33.38624595,285.69
-97.58656039,33.38624623,285.74
-97.58657479,33.38624639,285.47
-97.58657759,33.38624642,286.86
-97.58657963,33.38624645,287.82
-97.58659758,33.38624665,286.28
-97.58661607,33.38624686,286.47
-97.58663015,33.38624702,286.69
-97.58684555,33.38624948,285.17
-97.58685060,33.38624953,285.44
-97.58685361,33.38624957,289.63
-97.58686028,33.38624964,289.22
-97.58687887,33.38624986,289.49
-97.58688812,33.38624996,289.57
-97.58691681,33.38625029,289.89
-97.58692144,33.38625034,290.06
-97.58693100,33.38625045,289.97
-97.58693584,33.38625050,290.04
-97.58714909,33.38625293,282.31
-97.58715113,33.38625296,283.66
-97.58732687,33.38625496,282.04
-97.58732913,33.38625498,283.72
-97.58733085,33.38625500,284.98
-97.58733203,33.38625502,285.90
-97.58742630,33.38625609,282.32
-97.58743178,33.38625615,282.31
-97.58743662,33.38625621,282.28
-97.58744189,33.38625627,282.28
-97.58744662,33.38625632,282.32
-97.58761290,33.38625821,282.74
-97.58785141,33.38626093,283.00
-97.58816591,33.38626451,288.94
-97.58817064,33.38626456,288.60
-97.58840314,33.38626720,280.33
-97.58840808,33.38626726,281.79
-97.58840840,33.38626726,283.08
-97.58841464,33.38626734,287.68
-97.58841496,33.38626734,289.00
-97.58841990,33.38626740,289.45
-97.58864799,33.38626999,281.06
-97.58865293,33.38627005,281.08
-97.58894519,33.38627337,281.27
-97.58917758,33.38627601,282.47
-97.58942813,33.38627886,282.63
-97.58943253,33.38627891,282.60
-97.58966051,33.38628150,281.51
-97.58966557,33.38628156,281.47
-97.58981615,33.38628327,290.14
-97.58984270,33.38628357,279.80
-97.58993987,33.38628468,279.09
-97.58994428,33.38628473,279.07
-97.59018559,33.38628747,284.12
-97.59022116,33.38628787,277.20
-97.59033983,33.38628922,276.62
-97.59034467,33.38628928,276.60
-97.59042700,33.38629021,273.05
-97.59055631,33.38629168,288.65
-97.59056190,33.38629174,288.83
-97.59057157,33.38629185,279.44
-97.59061198,33.38629231,279.99
-97.59074000,33.38629377,284.73
-97.59074215,33.38629379,286.00
-97.59074452,33.38629382,284.80
-97.59074527,33.38629383,286.95
-97.59095186,33.38629617,274.99
-97.59126378,33.38629971,275.56
-97.59146134,33.38630196,276.85
-97.59153221,33.38630087,278.36
-97.59155146,33.38630036,277.66
-97.59155460,33.38629201,277.69
-97.59156022,33.38595027,276.95
-97.59156135,33.38588056,276.54
-97.59156850,33.38543683,274.56
-97.59156865,33.38542781,274.54
-97.59157132,33.38526217,274.17
-97.59157251,33.38518859,274.30
-97.59157334,33.38513692,274.37
-97.59157377,33.38511059,274.33
-97.59157485,33.38504324,274.30
-97.59157791,33.38485334,269.35
-97.59157807,33.38484396,269.40
-97.59157815,33.38483855,269.44
-97.59157894,33.38478941,282.55
-97.59157981,33.38473557,281.42
-97.59158135,33.38463999,281.88
-97.59158211,33.38459301,270.72
-97.59158258,33.38456389,282.76
-97.59158475,33.38442917,284.68
-97.59158517,33.38440356,281.03
-97.59158952,33.38413341,280.18
-97.59158960,33.38412845,280.08
-97.59158974,33.38411971,280.14
-97.59159017,33.38409338,278.03
-97.59159221,33.38396669,276.49
-97.59159328,33.38390032,285.22
-97.59159418,33.38384469,289.50
-97.59159541,33.38376840,279.23
-97.59159635,33.38371015,278.08
-97.59160218,33.38334838,281.06
-97.59160227,33.38334288,281.08
-97.59160256,33.38332530,281.14
-97.59160304,33.38329527,281.34
-97.59160423,33.38322124,281.85
-97.59160549,33.38314352,282.13
-97.59160598,33.38311277,282.30
-97.59160689,33.38305650,282.28
-97.59160697,33.38305181,282.30
-97.59160705,33.38304685,282.46
-97.59160718,33.38303874,282.84
-97.59160967,33.38288437,282.10
-97.59161083,33.38281223,282.04
-97.59161287,33.38268536,281.69
-97.59161506,33.38254965,281.21
-97.59161662,33.38245335,280.79
-97.59161743,33.38240258,283.71
-97.59161831,33.38234821,286.16
-97.59162164,33.38214172,290.79
-97.59162210,33.38211349,289.79
-97.59162268,33.38207716,285.06
-97.59162275,33.38207265,285.50
-97.59162320,33.38204487,284.95
-97.59162324,33.38204262,279.25
-97.59162338,33.38203360,294.43
-97.59162465,33.38195488,285.77
-97.59162559,33.38189672,290.96
-97.59162604,33.38186904,291.83
-97.59162627,33.38185488,291.45
-97.59162629,33.38185344,291.10
-97.59162680,33.38182188,287.26
-97.59162729,33.38179149,287.45
-97.59162791,33.38175272,289.26
-97.59162821,33.38173433,284.72
-97.59162910,33.38167923,287.73
-97.59162917,33.38167454,291.85
-97.59162924,33.38167048,289.47
-97.59162935,33.38166372,292.65
-97.59162949,33.38165507,291.83
-97.59163004,33.38162071,280.69
-97.59163116,33.38155137,284.73
-97.59163184,33.38150899,290.96
-97.59163214,33.38149068,280.63
-97.59163252,33.38146706,285.02
-97.59163304,33.38143460,287.70
-97.59163426,33.38135903,288.42
-97.59163977,33.38101729,281.76
-97.59163984,33.38101332,286.09
-97.59164061,33.38096535,288.45
-97.59164123,33.38092667,283.69
-97.59164273,33.38083397,281.87
-97.59164458,33.38071900,281.78
-97.59164542,33.38066715,284.31
-97.59164554,33.38065949,286.71
-97.59164594,33.38063478,288.69
-97.59164599,33.38063145,291.34
-97.59164667,33.38058952,282.03
-97.59164675,33.38058474,291.32
-97.59164763,33.38053009,295.80
-97.59164892,33.38044957,290.58
-97.59164916,33.38043505,287.35
-97.59165180,33.38027130,291.50
-97.59165193,33.38026310,289.33
-97.59165319,33.38018519,286.90
-97.59165431,33.38011585,291.13
-97.59165531,33.38005372,286.08
-97.59165665,33.37997040,291.59
-97.59165723,33.37993451,284.42
-97.59165729,33.37993082,289.73
-97.59165797,33.37988853,290.97
-97.59165804,33.37988447,295.19
-97.59165810,33.37988077,295.73
-97.59165855,33.37985255,295.22
-97.59165940,33.37980007,297.35
-97.59166022,33.37974912,291.07
-97.59166089,33.37970755,294.26
-97.59166134,33.37967960,288.55
-97.59166172,33.37965598,287.81
-97.59166180,33.37965093,294.15
-97.59166280,33.37958880,286.84
-97.59166297,33.37957816,286.85
-97.59166325,33.37956103,293.13
-97.59166339,33.37955255,296.41
-97.59166367,33.37953524,295.00
-97.59166387,33.37952243,295.61
-97.59166513,33.37944453,296.92
-97.59166556,33.37941784,290.54
-97.59166572,33.37940765,286.87
-97.59166577,33.37940476,295.08
-97.59166815,33.37925724,286.59
-97.59166902,33.37920341,286.87
-97.59167078,33.37909430,287.22
-97.59167123,33.37906635,287.80
-97.59167144,33.37905318,288.10
-97.59167253,33.37898574,292.64
-97.59167260,33.37898105,296.13
-97.59167302,33.37895526,289.45
-97.59167413,33.37888628,297.66
-97.59167466,33.37885346,299.82
-97.59167493,33.37883650,299.34
-97.59167514,33.37882352,296.85
-97.59167565,33.37879214,300.26
-97.59167632,33.37875048,299.72
-97.59167638,33.37874696,301.31
-97.59167645,33.37874218,301.54
-97.59167727,33.37869160,300.76
-97.59167755,33.37867401,299.15
-97.59167786,33.37865472,300.08
-97.59167788,33.37865391,290.82
-97.59167831,33.37862704,300.73
-97.59167868,33.37860386,290.80
-97.59167897,33.37858628,297.33
-97.59168027,33.37850512,297.06
-97.59168064,33.37848249,296.42
-97.59168123,33.37844570,294.09
-97.59168222,33.37838412,291.03
-97.59168338,33.37831261,289.99
-97.59168670,33.37810675,288.74
-97.59168783,33.37803633,288.49
-97.59168861,33.37798817,288.47
-97.59169040,33.37787672,290.85
-97.59169060,33.37786482,288.37
-97.59169081,33.37785175,288.40
-97.59169220,33.37776518,289.66
-97.59169375,33.37766897,292.65
-97.59169490,33.37759782,290.22
-97.59169576,33.37754435,296.46
-97.59169603,33.37752758,290.63
-97.59169699,33.37746843,292.55
-97.59169734,33.37744652,294.02
-97.59169742,33.37744183,294.49
-97.59169866,33.37736464,295.51
-97.59169893,33.37734787,292.14
-97.59169982,33.37729296,290.50
-97.59169947,33.37728745,293.19
-97.59169508,33.37728695,290.47
-97.59153957,33.37728419,294.76
-97.59153689,33.37728416,295.70
-97.59140684,33.37728269,287.41
-97.59140158,33.37728263,287.35
-97.59134322,33.37728196,287.04
-97.59106958,33.37727886,286.34
-97.59095684,33.37727758,285.12
-97.59075199,33.37727525,284.83
-97.59065849,33.37727419,291.98
-97.59065365,33.37727414,292.00
-97.59040098,33.37727127,288.57
-97.59023654,33.37726940,289.05
-97.59023074,33.37726933,288.84
-97.59007791,33.37726760,282.20
-97.59005362,33.37726732,286.12
-97.59004728,33.37726725,287.15
-97.59003030,33.37726706,289.48
-97.58987069,33.37726524,290.52
-97.58986865,33.37726522,282.03
-97.58986253,33.37726515,289.61
-97.58985726,33.37726509,289.55
-97.58981115,33.37726457,291.25
-97.58975086,33.37726388,280.94
-97.58956525,33.37726177,282.89
-97.58954924,33.37726159,285.36
-97.58954451,33.37726154,285.81
-97.58953387,33.37726141,287.35
-97.58952763,33.37726134,288.89
-97.58951678,33.37726122,290.65
-97.58950076,33.37726104,293.11
-97.58949561,33.37726098,293.86
-97.58925830,33.37725828,286.13
-97.58924282,33.37725811,288.96
-97.58923799,33.37725805,289.79
-97.58895189,33.37725480,281.08
-97.58863322,33.37725118,281.36
-97.58836550,33.37724813,281.03
-97.58836056,33.37724807,281.02
-97.58806511,33.37724471,279.91
-97.58784683,33.37724223,289.58
-97.58784134,33.37724217,289.70
-97.58776891,33.37724134,286.12
-97.58774849,33.37724111,289.67
-97.58773570,33.37724097,291.17
-97.58767562,33.37724028,285.38
-97.58762822,33.37723974,287.55
-97.58760952,33.37723953,288.67
-97.58753482,33.37723868,279.28
-97.58752075,33.37723852,279.19
-97.58737791,33.37723689,286.19
-97.58729709,33.37723597,289.92
-97.58729150,33.37723591,290.17
-97.58718188,33.37723466,282.06
-97.58688836,33.37723132,284.13
-97.58686955,33.37723111,284.15
-97.58660205,33.37722806,286.21
-97.58652671,33.37722720,289.84
-97.58650156,33.37722692,287.45
-97.58646964,33.37722655,292.92
-97.58646577,33.37722651,293.41
-97.58646179,33.37722646,293.71
-97.58644879,33.37722631,296.36
-97.58644481,33.37722627,296.83
-97.58643557,33.37722616,294.25
-97.58628102,33.37722440,289.43
-97.58624684,33.37722401,289.84
-97.58604382,33.37722170,299.62
-97.58603855,33.37722164,299.91
-97.58598611,33.37722104,291.26
-97.58598148,33.37722099,291.20
-97.58597063,33.37722087,291.21
-97.58594505,33.37722058,297.74
-97.58593839,33.37722050,298.86
-97.58587852,33.37721982,295.66
-97.58576739,33.37721855,289.67
-97.58548871,33.37721538,289.61
-97.58536748,33.37721399,289.50
-97.58530697,33.37721330,298.23
-97.58530213,33.37721325,298.66
-97.58526839,33.37721286,300.15
-97.58506504,33.37721055,287.72
-97.58498616,33.37720965,287.42
-97.58455894,33.37720478,285.80
-97.58444631,33.37720349,291.16
-97.58444158,33.37720344,291.22
-97.58443245,33.37720333,291.85
-97.58435872,33.37720249,295.21
-97.58431734,33.37720202,297.19
-97.58405177,33.37719899,285.36
-97.58404736,33.37719894,285.71
-97.58404285,33.37719889,285.79
-97.58401458,33.37719857,287.07
-97.58398782,33.37719826,288.52
-97.58389668,33.37719722,292.80
-97.58386089,33.37719681,294.75
-97.58385187,33.37719671,295.04
-97.58376578,33.37719573,287.50
-97.58376137,33.37719568,287.69
-97.58350451,33.37719275,289.29
-97.58345990,33.37719224,291.57
-97.58338381,33.37719137,295.08
-97.58337941,33.37719132,295.24
-97.58330890,33.37719051,298.52
-97.58316488,33.37718887,291.83
-97.58307385,33.37718783,292.20
-97.58306880,33.37718777,292.24
-97.58306332,33.37718771,292.33
-97.58305848,33.37718765,292.38
-97.58305311,33.37718759,292.45
-97.58289781,33.37718582,293.24
-97.58276218,33.37718427,299.57
-97.58275315,33.37718417,300.04
-97.58270177,33.37718358,302.56
-97.58268823,33.37718343,303.08
-97.58263772,33.37718285,293.83
-97.58256367,33.37718200,297.37
-97.58213979,33.37717716,293.86
-97.58206101,33.37717626,297.52
-97.58194504,33.37717494,302.88
-97.58192763,33.37717474,303.77
-97.58191097,33.37717455,304.62
-97.58189808,33.37717440,305.20
-97.58188969,33.37717430,305.65
-97.58181091,33.37717340,296.31
-97.58180339,33.37717332,296.36
-97.58179834,33.37717326,296.47
-97.58178856,33.37717315,301.02
-97.58178641,33.37717312,299.83
-97.58178630,33.37717312,302.09
-97.58178576,33.37717312,298.02
-97.58178426,33.37717310,300.85
-97.58178329,33.37717309,299.16
-97.58178243,33.37717308,303.88
-97.58178114,33.37717306,300.21
-97.58178029,33.37717305,302.68
-97.58177577,33.37717300,302.69
-97.58177448,33.37717299,301.34
-97.58165131,33.37717158,303.83
-97.58164734,33.37717153,304.00
-97.58159349,33.37717092,297.89
-97.58158909,33.37717087,297.93
-97.58144292,33.37716920,304.91
-97.58125441,33.37716704,300.04
-97.58112974,33.37716562,305.85
-97.58112114,33.37716552,306.28
-97.58103043,33.37716448,299.20
-97.58095400,33.37716442,304.77
-97.58095306,33.37716928,304.31
-97.58095278,33.37717334,304.15
-97.58095232,33.37718181,305.84
-97.58095152,33.37722446,298.33
-97.58095152,33.37722473,305.98
-97.58095015,33.37730922,299.28
-97.58094917,33.37736945,299.22
-97.58094549,33.37759605,303.55
-97.58094406,33.37768415,295.82
-97.58093993,33.37793825,300.12
-97.58093963,33.37795655,302.70
-97.58093942,33.37796990,297.22
-97.58093905,33.37799262,297.29
-97.58093874,33.37801138,298.22
-97.58093653,33.37814780,302.28
-97.58093640,33.37815556,300.51
-97.58093606,33.37817657,302.14
-97.58093424,33.37828865,291.96
-97.58093249,33.37839640,296.34
-97.58093097,33.37848982,297.33
-97.58093089,33.37849469,297.59
-97.58093078,33.37850127,302.16
-97.58093015,33.37854050,299.21
-97.58092974,33.37856565,299.23
-97.58092967,33.37856971,291.75
-97.58092822,33.37865889,292.14
-97.58092547,33.37882832,297.19
-97.58092398,33.37891993,299.82
-97.58092347,33.37895131,298.20
-97.58092126,33.37908765,292.36
-97.58092040,33.37914040,292.31
-97.58091930,33.37920839,299.83
-97.58091593,33.37941569,294.13
-97.58091522,33.37945951,293.08
-97.58091447,33.37950541,300.59
-97.58091403,33.37953255,294.63
-97.58091339,33.37957196,293.66
-97.58091314,33.37958711,291.30
-97.58091234,33.37963670,300.15
-97.58091218,33.37964671,291.22
-97.58091112,33.37971145,297.73
-97.58091098,33.37972056,291.48
-97.58090922,33.37982858,299.68
-97.58090897,33.37984382,299.37
-97.58090884,33.37985185,291.92
-97.58090512,33.38008124,291.52
-97.58090327,33.38019485,291.29
-97.58089949,33.38042758,293.45
-97.58089846,33.38049106,294.17
-97.58089823,33.38050513,289.00
-97.58089733,33.38056059,294.08
-97.58089690,33.38058701,288.61
-97.58089523,33.38068989,296.26
-97.58089512,33.38069665,288.20
-97.58089453,33.38073272,296.91
-97.58089447,33.38073642,296.86
-97.58089421,33.38075238,295.58
-97.58089368,33.38078502,295.77
-97.58089355,33.38079305,293.99
-97.58089353,33.38079431,293.97
-97.58089318,33.38081568,297.20
-97.58089277,33.38084102,294.68
-97.58089244,33.38086130,293.12
-97.58089183,33.38089891,292.16
-97.58089107,33.38094570,292.67
-97.58089067,33.38097014,293.47
-97.58089060,33.38097456,294.69
-97.58088999,33.38101207,286.40
-97.58088996,33.38101423,295.85
-97.58088933,33.38105283,293.19
-97.58088927,33.38105661,296.97
-97.58088895,33.38107645,292.46
-97.58088883,33.38108339,295.08
-97.58088737,33.38117357,284.94
-97.58088721,33.38118357,291.50
-97.58088712,33.38118871,289.95
-97.58088646,33.38122956,291.45
-97.58088560,33.38128222,287.72
-97.58088534,33.38129818,286.65
-97.58088524,33.38130467,288.48
-97.58088366,33.38140170,284.44
-97.58088311,33.38143551,288.30
-97.58088270,33.38146103,289.73
-97.58088246,33.38147591,290.45
-97.58088177,33.38151847,282.23
-97.58088171,33.38152198,289.91
-97.58088157,33.38153082,282.12
-97.58088151,33.38153443,282.71
-97.58088149,33.38153569,285.60
-97.58088125,33.38155048,283.52
-97.58088118,33.38155472,285.77
-97.58088104,33.38156301,283.63
-97.58088070,33.38158411,289.72
-97.58088055,33.38159304,289.84
-97.58087987,33.38163524,292.14
-97.58087964,33.38164948,285.95
-97.58087950,33.38165787,284.43
     </coordinates>
    </LineString>
   </MultiGeometry>
  </Placemark>
 </Document>
</kml>
