<kml>
 <Document>
  <Style id="yellow">
   <LineStyle>
   <color>ff00ffff</color>
   <width>1</width>
   </LineStyle>
  </Style>
  <Style id="red">
   <LineStyle>
   <color>ffff0000</color>
   <width>2</width>
   </LineStyle>
  </Style>
  <Style id="green">
   <LineStyle>
   <color>ff00ff00</color>
   <width>1</width>
   </LineStyle>
  </Style>
  <Placemark>
  <styleUrl>#yellow</styleUrl>
   <MultiGeometry>
    <LineString>
     <coordinates>
-97.56220716,33.40400380,253.07
-97.56227694,33.40400461,253.07
-97.56234768,33.40400543,252.99
-97.56244916,33.40400660,253.01
-97.56270954,33.40400962,252.97
-97.56281931,33.40401089,253.06
-97.56297788,33.40401273,253.42
-97.56302658,33.40401329,253.22
-97.56315882,33.40401482,253.12
-97.56323601,33.40401572,253.09
-97.56342038,33.40401785,253.21
-97.56348360,33.40401859,253.20
-97.56348736,33.40401863,253.22
-97.56367915,33.40402085,253.22
-97.56377096,33.40402191,253.20
-97.56398759,33.40402442,253.16
-97.56399350,33.40402449,253.17
-97.56411434,33.40402589,253.20
-97.56422335,33.40402715,253.34
-97.56448019,33.40403012,253.40
-97.56453910,33.40403080,253.43
-97.56471649,33.40403286,253.50
-97.56478121,33.40403360,253.58
-97.56498773,33.40403599,253.60
-97.56517941,33.40403821,253.73
-97.56527348,33.40403930,253.80
-97.56544593,33.40404129,254.05
-97.56565524,33.40404371,254.60
-97.56588692,33.40404639,254.89
-97.56609065,33.40404875,255.51
-97.56632684,33.40405148,255.83
-97.56657013,33.40405429,271.20
-97.56658518,33.40405446,257.21
-97.56677418,33.40405665,258.53
-97.56698930,33.40405913,257.47
-97.56707101,33.40406007,257.77
-97.56707574,33.40406013,257.67
-97.56718937,33.40406144,258.06
-97.56735644,33.40406337,262.61
-97.56739826,33.40406385,266.73
-97.56740202,33.40406390,263.73
-97.56762994,33.40406653,261.01
-97.56781130,33.40406862,262.52
-97.56787172,33.40406932,262.74
-97.56787634,33.40406937,262.72
-97.56805319,33.40407142,272.77
-97.56805491,33.40407143,271.86
-97.56805717,33.40407146,270.63
-97.56824230,33.40407360,265.68
-97.56826789,33.40407389,265.57
-97.56827305,33.40407395,265.60
-97.56844839,33.40407598,275.47
-97.56845807,33.40407609,265.37
-97.56860213,33.40407775,269.70
-97.56860438,33.40407778,270.71
-97.56871501,33.40407905,264.55
-97.56871952,33.40407910,264.54
-97.56882585,33.40408033,263.99
-97.56904785,33.40408289,268.59
-97.56904860,33.40408290,269.95
-97.56904957,33.40408291,266.22
-97.56905032,33.40408292,267.72
-97.56908258,33.40408329,270.26
-97.56909053,33.40408338,269.42
-97.56912504,33.40408378,264.19
-97.56923825,33.40408509,273.98
-97.56923986,33.40408511,271.94
-97.56924018,33.40408511,273.36
-97.56924427,33.40408516,267.30
-97.56943370,33.40408734,271.99
-97.56943714,33.40408738,274.01
-97.56944004,33.40408742,270.10
-97.56944154,33.40408743,262.09
-97.56945315,33.40408757,268.70
-97.56945756,33.40408762,268.80
-97.56946079,33.40408765,267.58
-97.56947681,33.40408784,265.47
-97.56949207,33.40408802,262.56
-97.56950046,33.40408811,261.34
-97.56960657,33.40408934,270.24
-97.56960807,33.40408935,271.29
-97.56961313,33.40408941,260.87
-97.56975893,33.40408992,264.49
-97.56976121,33.40408814,264.31
-97.56976203,33.40408445,262.97
-97.56976206,33.40408220,264.44
-97.56976393,33.40396823,265.38
-97.56976526,33.40388689,274.60
-97.56976575,33.40385750,270.14
-97.56976603,33.40384018,272.96
-97.56976707,33.40377661,266.07
-97.56976836,33.40369772,263.31
-97.56976861,33.40368293,274.34
-97.56976933,33.40363856,272.50
-97.56977135,33.40351557,264.55
-97.56977176,33.40349024,264.51
-97.56977248,33.40344641,271.89
-97.56977297,33.40341648,264.80
-97.56977332,33.40339538,271.44
-97.56977388,33.40336111,272.32
-97.56977575,33.40324696,275.66
-97.56977765,33.40313082,267.68
-97.56977771,33.40312739,267.74
-97.56977771,33.40312712,273.35
-97.56977994,33.40299115,266.08
-97.56978036,33.40296581,270.07
-97.56978063,33.40294922,273.11
-97.56978090,33.40293272,266.31
-97.56978164,33.40288754,271.40
-97.56978185,33.40287492,269.68
-97.56978416,33.40273362,271.10
-97.56978597,33.40262334,276.90
-97.56978665,33.40258169,275.03
-97.56978692,33.40256536,267.28
-97.56978747,33.40253164,273.96
-97.56978908,33.40243354,277.29
-97.56978959,33.40240261,268.85
-97.56978959,33.40240225,274.21
-97.56979052,33.40234553,269.11
-97.56979094,33.40232028,272.68
-97.56979100,33.40231659,275.69
-97.56979218,33.40224436,273.41
-97.56979358,33.40215915,269.97
-97.56979370,33.40215158,274.61
-97.56979465,33.40209396,278.19
-97.56979549,33.40204229,276.85
-97.56979570,33.40202967,270.96
-97.56979602,33.40201019,271.36
-97.56979950,33.40179802,272.21
-97.56980093,33.40171065,272.73
-97.56980179,33.40165790,275.94
-97.56980231,33.40162634,281.56
-97.56980359,33.40154807,280.45
-97.56980409,33.40151750,273.06
-97.56980651,33.40136998,275.79
-97.56980872,33.40123482,281.23
-97.56980944,33.40119100,274.22
-97.56981035,33.40113563,274.22
-97.56981180,33.40104709,273.92
-97.56981250,33.40100417,273.85
-97.56981369,33.40093176,280.67
-97.56981377,33.40092707,273.50
-97.56981456,33.40087856,273.22
-97.56981748,33.40070047,276.38
-97.56981770,33.40068686,275.40
-97.56981784,33.40067847,272.21
-97.56981839,33.40064511,273.06
-97.56981886,33.40061607,283.01
-97.56982049,33.40051653,282.03
-97.56982076,33.40050039,282.08
-97.56982097,33.40048776,271.43
-97.56982211,33.40041761,278.09
-97.56982265,33.40038497,273.22
-97.56982682,33.40013024,275.23
-97.56983286,33.39976172,284.81
-97.56983339,33.39972935,283.27
-97.56983359,33.39971717,274.59
-97.56983367,33.39971212,284.97
-97.56983507,33.39962718,280.77
-97.56983553,33.39959878,282.75
-97.56983632,33.39955063,276.78
-97.56983667,33.39952953,276.99
-97.56983834,33.39942764,285.79
-97.56983858,33.39941258,277.71
-97.56983906,33.39938372,283.64
-97.56984272,33.39915983,287.11
-97.56984313,33.39913513,286.48
-97.56984319,33.39913125,289.37
-97.56984374,33.39909798,289.01
-97.56984576,33.39897444,289.31
-97.56984738,33.39887571,285.33
-97.56984771,33.39885533,286.73
-97.56984806,33.39883441,288.12
-97.56985088,33.39866210,282.25
-97.56985188,33.39860123,282.42
-97.56985269,33.39855128,282.60
-97.56985515,33.39840159,282.85
-97.56985596,33.39835191,282.99
-97.56985848,33.39819817,283.03
-97.56985996,33.39810791,283.10
-97.56986158,33.39800872,283.01
-97.56986773,33.39763344,282.28
-97.56987303,33.39730360,281.73
-97.56987710,33.39706158,283.98
-97.56988262,33.39672489,284.03
-97.56988325,33.39668611,288.42
-97.56988560,33.39654301,287.07
-97.56988724,33.39644302,281.02
-97.56988731,33.39643842,280.99
-97.56988792,33.39640145,284.10
-97.56988873,33.39635203,281.34
-97.56988895,33.39633815,281.38
-97.56989140,33.39618901,281.86
-97.56989372,33.39604735,282.27
-97.56989803,33.39578414,289.43
-97.56989949,33.39569497,289.60
-97.56990103,33.39560110,281.93
-97.56990111,33.39559632,282.00
-97.56990303,33.39547883,284.06
-97.56990334,33.39546007,283.97
-97.56990480,33.39537072,283.55
-97.56990605,33.39529470,283.92
-97.56990692,33.39524123,284.16
-97.56990743,33.39521030,284.15
-97.56990772,33.39515295,284.21
-97.56990792,33.39510840,284.29
-97.56990772,33.39508738,284.35
-97.56990701,33.39507818,284.32
-97.56987236,33.39507381,284.48
-97.56986806,33.39507376,284.49
-97.56961254,33.39507081,284.60
-97.56960738,33.39507075,284.62
-97.56939131,33.39506826,293.86
-97.56938916,33.39506824,292.13
-97.56938701,33.39506821,293.77
-97.56936637,33.39506797,284.26
-97.56929026,33.39506710,286.97
-97.56927414,33.39506691,287.44
-97.56916374,33.39506564,283.28
-97.56898186,33.39506354,282.75
-97.56886490,33.39506219,282.71
-97.56886028,33.39506214,282.67
-97.56870226,33.39506032,282.31
-97.56846104,33.39505753,281.93
-97.56845631,33.39505748,281.93
-97.56834204,33.39505616,281.86
-97.56833763,33.39505611,281.86
-97.56822132,33.39505477,281.95
-97.56799848,33.39505219,281.83
-97.56799375,33.39505214,281.85
-97.56798891,33.39505208,281.87
-97.56779058,33.39504979,281.84
-97.56764804,33.39504815,281.87
-97.56764321,33.39504809,281.86
-97.56755065,33.39504702,281.92
-97.56754614,33.39504697,281.92
-97.56737618,33.39504501,282.01
-97.56717904,33.39504273,281.91
-97.56717441,33.39504268,281.90
-97.56709508,33.39504176,281.91
-97.56687332,33.39503920,281.32
-97.56686902,33.39503915,281.38
-97.56678603,33.39503819,284.33
-97.56677184,33.39503803,284.90
-97.56664263,33.39503654,280.54
-97.56649246,33.39503480,279.83
-97.56633981,33.39503304,279.35
-97.56610977,33.39503038,278.95
-97.56591854,33.39502817,278.08
-97.56569666,33.39502561,277.51
-97.56548361,33.39502314,277.07
-97.56527807,33.39502077,276.59
-97.56508953,33.39501859,276.41
-97.56503674,33.39501798,276.43
-97.56496107,33.39501710,276.36
-97.56491506,33.39501657,276.31
-97.56482444,33.39501552,276.23
-97.56469093,33.39501398,276.05
-97.56460235,33.39501295,275.88
-97.56453280,33.39501215,275.81
-97.56452797,33.39501209,275.80
-97.56436446,33.39501020,275.73
-97.56427331,33.39500914,275.43
-97.56426643,33.39500906,275.39
-97.56409304,33.39500706,275.57
-97.56407691,33.39500687,275.59
-97.56395017,33.39500540,275.69
-97.56392384,33.39500510,275.56
-97.56382193,33.39500392,275.17
-97.56375485,33.39500314,274.99
-97.56374701,33.39500305,274.97
-97.56362994,33.39500170,274.82
-97.56355287,33.39500081,275.76
-97.56342796,33.39499936,275.87
-97.56334325,33.39499838,275.77
-97.56333519,33.39499829,275.76
-97.56333057,33.39499823,275.80
-97.56324285,33.39499722,275.93
-97.56312460,33.39499585,276.27
-97.56310955,33.39499567,276.21
-97.56310461,33.39499561,276.27
-97.56310042,33.39499557,276.44
-97.56304097,33.39499488,276.18
-97.56288274,33.39499305,275.95
-97.56284941,33.39499266,275.99
-97.56274686,33.39499147,275.83
-97.56271676,33.39499112,275.72
-97.56263174,33.39499014,275.53
-97.56244179,33.39498794,275.09
-97.56223787,33.39498557,274.78
-97.56216402,33.39498472,274.52
-97.56207985,33.39498374,275.35
-97.56207566,33.39498369,274.70
-97.56197311,33.39498251,276.10
-97.56196472,33.39498241,273.81
-97.56187733,33.39498140,273.25
-97.56177134,33.39498017,272.85
-97.56158150,33.39497797,271.88
-97.56147014,33.39497668,271.18
-97.56145283,33.39497647,279.63
-97.56144788,33.39497642,278.56
-97.56131298,33.39497485,273.44
-97.56130792,33.39497479,272.17
-97.56125428,33.39497417,278.81
-97.56123934,33.39497400,275.12
-97.56123418,33.39497394,274.12
-97.56112400,33.39497266,275.27
-97.56102618,33.39497153,272.07
-97.56094276,33.39497056,271.85
-97.56079173,33.39496881,271.22
-97.56075163,33.39496834,270.90
-97.56066295,33.39496731,270.47
-97.56063220,33.39496696,270.19
-97.56058835,33.39496645,275.30
-97.56049837,33.39496540,277.82
-97.56049117,33.39496532,275.51
-97.56037894,33.39496402,279.09
-97.56037346,33.39496396,278.22
-97.56037260,33.39496395,277.44
-97.56033143,33.39496347,281.55
-97.56032251,33.39496336,278.16
-97.56030208,33.39496313,279.48
-97.56021985,33.39496217,277.63
-97.56021340,33.39496210,275.98
-97.56020523,33.39496200,273.25
-97.56014611,33.39496132,277.99
-97.56014439,33.39496130,276.74
-97.56001045,33.39495974,271.00
-97.55980760,33.39495739,271.79
-97.55973021,33.39495649,272.14
-97.55965560,33.39495562,272.23
-97.55951092,33.39495394,272.43
-97.55939536,33.39495260,272.48
-97.55921337,33.39495049,272.10
-97.55917359,33.39495030,271.93
-97.55916013,33.39495122,271.93
-97.55916011,33.39495267,271.90
-97.55915924,33.39500569,271.76
-97.55915841,33.39505564,271.55
-97.55915796,33.39508296,271.57
-97.55915614,33.39519315,281.12
-97.55915604,33.39519937,280.67
-97.55915566,33.39522245,280.71
-97.55915559,33.39522642,280.38
-97.55915340,33.39535933,270.64
-97.55915307,33.39537953,270.54
-97.55915257,33.39540965,270.34
-97.55915131,33.39548566,269.97
-97.55915008,33.39556041,268.24
-97.55915006,33.39556185,268.24
-97.55914879,33.39563832,267.64
-97.55914489,33.39587465,269.27
-97.55914116,33.39610079,270.51
-97.55913970,33.39618961,271.82
-97.55913819,33.39628077,266.66
-97.55913786,33.39630070,264.53
-97.55913773,33.39630836,264.59
-97.55913614,33.39640503,276.42
-97.55913600,33.39641323,265.74
-97.55913579,33.39642604,276.58
-97.55913417,33.39652432,268.94
-97.55913395,33.39653794,271.61
-97.55912987,33.39678464,272.04
-97.55912948,33.39680853,277.41
-97.55912933,33.39681773,273.22
-97.55912865,33.39685894,263.33
-97.55912848,33.39686922,273.43
-97.55912800,33.39689816,267.92
-97.55912790,33.39690402,269.23
-97.55912643,33.39699338,269.01
-97.55912553,33.39704784,267.30
-97.55912474,33.39709563,268.84
-97.55912452,33.39710907,270.74
-97.55912394,33.39714423,264.01
-97.55912285,33.39720997,263.95
-97.55912223,33.39724775,263.78
-97.55911553,33.39765378,274.79
-97.55911532,33.39766623,275.87
-97.55911529,33.39766785,268.07
-97.55911326,33.39779093,268.86
-97.55911252,33.39783610,266.29
-97.55911100,33.39792826,265.98
-97.55910907,33.39804503,266.73
-97.55910878,33.39806261,266.85
-97.55910718,33.39815972,267.32
-97.55910226,33.39845773,267.79
-97.55910198,33.39847432,267.78
-97.55910069,33.39855286,267.79
-97.55910038,33.39857126,267.79
-97.55909996,33.39859686,267.81
-97.55909858,33.39868027,267.73
-97.55909346,33.39899036,267.73
-97.55908995,33.39920334,267.46
-97.55908959,33.39922498,267.49
-97.55908862,33.39928404,267.52
-97.55908688,33.39938891,278.16
-97.55908530,33.39948494,267.26
-97.55908293,33.39962840,269.00
-97.55908229,33.39966744,267.45
-97.55908182,33.39969594,267.33
-97.55908084,33.39975482,267.19
-97.55907823,33.39991325,271.19
-97.55907748,33.39995887,273.07
-97.55907593,33.40005265,266.47
-97.55907518,33.40009809,267.48
-97.55907355,33.40019692,265.81
-97.55907317,33.40021964,265.81
-97.55907309,33.40022424,265.82
-97.55907298,33.40023136,265.84
-97.55907251,33.40025941,265.53
-97.55907186,33.40029881,265.32
-97.55906720,33.40058149,263.51
-97.55906553,33.40068248,262.93
-97.55906529,33.40069691,262.92
-97.55906338,33.40081269,262.44
-97.55905953,33.40104568,261.47
-97.55905761,33.40116209,259.95
-97.55905362,33.40140411,258.41
-97.55905336,33.40141934,258.35
-97.55905193,33.40150609,258.55
-97.55905139,33.40153864,258.71
-97.55904728,33.40178814,258.17
-97.55904553,33.40189373,263.56
-97.55904519,33.40191473,257.56
-97.55904502,33.40192465,255.85
-97.55904396,33.40198912,255.27
-97.55904374,33.40200238,255.20
-97.55904334,33.40202627,255.07
-97.55903930,33.40227144,254.02
-97.55903799,33.40235034,253.81
-97.55903709,33.40240517,253.81
-97.55903696,33.40241319,253.79
-97.55903650,33.40244060,253.65
-97.55903548,33.40250273,253.52
-97.55903538,33.40250859,253.57
-97.55903472,33.40254854,253.55
-97.55903400,33.40259209,253.62
-97.55903358,33.40261770,253.62
-97.55903253,33.40268126,258.00
-97.55903190,33.40271932,268.38
-97.55903169,33.40273212,259.64
-97.55903166,33.40273419,253.87
-97.55903098,33.40277531,265.84
-97.55903057,33.40280020,267.12
-97.55903048,33.40280516,253.41
-97.55903022,33.40282112,260.41
-97.55902912,33.40288766,253.20
-97.55902692,33.40302084,253.21
-97.55902441,33.40317332,252.95
-97.55902409,33.40319252,252.99
-97.55902371,33.40321552,252.98
-97.55902035,33.40341912,252.60
-97.55901989,33.40344671,252.56
-97.55901682,33.40363273,264.70
-97.55901655,33.40364878,261.90
-97.55901644,33.40365545,264.95
-97.55901617,33.40367204,262.22
-97.55901535,33.40372173,252.48
-97.55901484,33.40375284,265.34
-97.55901478,33.40375599,252.74
-97.55901452,33.40377213,261.51
-97.55901450,33.40377330,266.39
-97.55901434,33.40378304,265.02
-97.55901416,33.40379386,252.67
-97.55901388,33.40381100,265.60
-97.55901355,33.40383047,265.34
-97.55901286,33.40387231,252.51
-97.55901193,33.40392867,252.33
-97.55901195,33.40394075,252.35
-97.55901265,33.40395690,252.38
-97.55901336,33.40396584,252.37
-97.55901508,33.40396613,252.35
-97.55902012,33.40396664,252.35
-97.55910451,33.40396780,252.47
-97.55914332,33.40396825,252.50
-97.55928469,33.40396989,252.49
-97.55930931,33.40397018,252.50
-97.55933200,33.40397044,252.49
-97.55960109,33.40397357,252.78
-97.55966581,33.40397432,252.80
-97.55972010,33.40397495,252.75
-97.55977471,33.40397558,252.71
-97.55981159,33.40397601,252.65
-97.55993382,33.40397743,252.86
-97.55998682,33.40397805,252.78
-97.56005584,33.40397885,252.76
-97.56013120,33.40397972,252.81
-97.56013464,33.40397976,252.83
-97.56015636,33.40398001,252.82
-97.56017023,33.40398017,252.83
-97.56023495,33.40398093,252.81
-97.56029483,33.40398162,252.82
-97.56034848,33.40398224,252.79
-97.56038492,33.40398267,252.81
-97.56045244,33.40398345,252.89
-97.56050630,33.40398407,252.86
-97.56052468,33.40398429,252.89
-97.56054306,33.40398450,252.90
-97.56060488,33.40398522,252.94
-97.56062434,33.40398544,252.92
-97.56065487,33.40398580,252.93
-97.56067874,33.40398608,253.00
-97.56079538,33.40398743,253.13
-97.56089031,33.40398853,253.19
-97.56096567,33.40398940,253.19
-97.56113510,33.40399137,253.22
-97.56120703,33.40399220,253.22
-97.56129593,33.40399323,253.24
-97.56137968,33.40399421,253.23
-97.56154084,33.40399607,253.19
-97.56168973,33.40399780,253.23
-97.56191131,33.40400037,253.33
-97.56206525,33.40400215,253.21
-97.56213169,33.40400292,253.14
-97.56220716,33.40400380,253.07
     </coordinates>
    </LineString>
   </MultiGeometry>
  </Placemark>
 </Document>
</kml>
