<kml>
 <Document>
  <Style id="yellow">
   <LineStyle>
   <color>ff00ffff</color>
   <width>1</width>
   </LineStyle>
  </Style>
  <Style id="red">
   <LineStyle>
   <color>ffff0000</color>
   <width>2</width>
   </LineStyle>
  </Style>
  <Style id="green">
   <LineStyle>
   <color>ff00ff00</color>
   <width>1</width>
   </LineStyle>
  </Style>
  <Placemark>
  <styleUrl>#yellow</styleUrl>
   <MultiGeometry>
    <LineString>
     <coordinates>
-97.60313980,33.38643397,289.47
-97.60314475,33.38643402,289.35
-97.60315754,33.38643417,294.39
-97.60316582,33.38643426,295.21
-97.60317882,33.38643441,294.76
-97.60326341,33.38643536,293.13
-97.60326814,33.38643541,293.13
-97.60338584,33.38643674,291.19
-97.60342389,33.38643716,290.51
-97.60342862,33.38643722,290.33
-97.60343324,33.38643727,290.28
-97.60350892,33.38643812,289.15
-97.60365456,33.38643976,281.23
-97.60365596,33.38643978,283.28
-97.60365843,33.38643980,284.08
-97.60365951,33.38643982,282.83
-97.60394241,33.38644300,282.01
-97.60406849,33.38644442,293.32
-97.60408344,33.38644459,292.97
-97.60408526,33.38644461,291.69
-97.60408677,33.38644462,294.07
-97.60408806,33.38644464,292.74
-97.60409150,33.38644468,294.02
-97.60452499,33.38644955,285.25
-97.60453993,33.38644972,289.84
-97.60454509,33.38644978,289.90
-97.60454671,33.38644980,290.64
-97.60474921,33.38645207,281.49
-97.60475448,33.38645213,281.43
-97.60475921,33.38645219,281.40
-97.60494720,33.38645430,289.20
-97.60501051,33.38645501,281.73
-97.60506609,33.38645564,294.59
-97.60507275,33.38645571,295.84
-97.60507608,33.38645575,297.75
-97.60536748,33.38645902,281.90
-97.60537285,33.38645908,281.88
-97.60537769,33.38645914,281.86
-97.60560653,33.38646171,282.09
-97.60561137,33.38646176,282.04
-97.60574702,33.38646329,290.27
-97.60583322,33.38646426,288.68
-97.60621502,33.38646855,282.18
-97.60621996,33.38646860,282.19
-97.60622459,33.38646865,282.16
-97.60664615,33.38647339,283.29
-97.60664637,33.38647339,284.71
-97.60666077,33.38647355,286.21
-97.60674484,33.38647377,286.30
-97.60727560,33.38648045,285.14
-97.60728001,33.38648050,285.13
-97.60776510,33.38648595,283.06
-97.60776961,33.38648600,283.01
-97.60777456,33.38648605,282.91
-97.60780315,33.38648637,282.81
-97.60801705,33.38648868,282.83
-97.60835628,33.38649258,283.35
-97.60836112,33.38649263,283.42
-97.60843292,33.38649344,283.26
-97.60867906,33.38649620,283.25
-97.60888060,33.38649846,283.33
-97.60895133,33.38649925,283.20
-97.60895585,33.38649930,283.24
-97.60910762,33.38650100,283.47
-97.60927971,33.38650293,283.21
-97.60945437,33.38650489,281.93
-97.60954036,33.38650585,278.75
-97.60954488,33.38650590,278.88
-97.60955283,33.38650599,279.46
-97.60955595,33.38650603,280.10
-97.60956992,33.38650618,285.96
-97.60957433,33.38650623,286.25
-97.60957863,33.38650628,286.44
-97.60958282,33.38650633,286.81
-97.60974523,33.38650815,296.03
-97.60994527,33.38651039,283.95
-97.61028859,33.38651423,290.12
-97.61028966,33.38651425,284.11
-97.61033459,33.38651475,297.76
-97.61033706,33.38651478,298.53
-97.61033975,33.38651481,299.20
-97.61034179,33.38651483,299.98
-97.61034426,33.38651486,299.27
-97.61067662,33.38651858,289.38
-97.61098167,33.38652199,284.81
-97.61125877,33.38652509,286.57
-97.61165755,33.38652956,296.02
-97.61187468,33.38653199,286.23
-97.61202774,33.38653370,284.23
-97.61225669,33.38653626,298.26
-97.61229904,33.38653673,294.33
-97.61233300,33.38653711,290.90
-97.61235171,33.38653732,289.11
-97.61239169,33.38653777,281.11
-97.61243179,33.38653822,281.20
-97.61249725,33.38653895,286.45
-97.61258646,33.38653995,296.74
-97.61259431,33.38654003,295.98
-97.61259764,33.38654007,295.52
-97.61260194,33.38654012,295.23
-97.61261355,33.38654025,294.13
-97.61264730,33.38654063,293.92
-97.61275575,33.38654184,299.34
-97.61280982,33.38654244,298.97
-97.61282014,33.38654256,297.62
-97.61282444,33.38654261,297.37
-97.61283186,33.38654269,296.50
-97.61292279,33.38654362,288.69
-97.61300126,33.38654440,289.63
-97.61303319,33.38654422,290.19
-97.61304179,33.38654413,290.41
-97.61304966,33.38654323,286.63
-97.61305097,33.38654144,296.72
-97.61305135,33.38653811,290.47
-97.61305226,33.38652838,293.45
-97.61305356,33.38644623,288.79
-97.61305538,33.38633198,289.88
-97.61305575,33.38630845,286.15
-97.61305665,33.38625200,288.51
-97.61305708,33.38622495,289.57
-97.61305712,33.38622225,286.56
-97.61305807,33.38616246,287.76
-97.61305850,33.38613541,292.01
-97.61305915,33.38609465,291.29
-97.61305931,33.38608455,287.20
-97.61306326,33.38583577,288.67
-97.61306350,33.38582062,294.65
-97.61306361,33.38581350,292.37
-97.61306433,33.38576841,287.99
-97.61306581,33.38567472,297.70
-97.61306695,33.38560295,296.52
-97.61306708,33.38559510,295.76
-97.61306716,33.38558987,294.70
-97.61306774,33.38555362,288.24
-97.61306780,33.38554993,288.24
-97.61306881,33.38548608,292.53
-97.61306888,33.38548140,290.76
-97.61306939,33.38544929,288.64
-97.61306955,33.38543938,296.05
-97.61307022,33.38539709,288.66
-97.61307032,33.38539113,293.34
-97.61307228,33.38526769,290.48
-97.61307289,33.38522928,295.69
-97.61307289,33.38522901,299.75
-97.61307458,33.38512260,295.45
-97.61307501,33.38509564,294.00
-97.61307516,33.38508635,297.28
-97.61307544,33.38506832,294.61
-97.61307545,33.38506823,298.05
-97.61307550,33.38506453,298.92
-97.61307624,33.38501818,295.91
-97.61307633,33.38501259,300.30
-97.61307829,33.38488933,298.30
-97.61307835,33.38488554,300.03
-97.61307888,33.38485182,300.35
-97.61307926,33.38482801,289.87
-97.61307972,33.38479925,293.17
-97.61308098,33.38471981,297.09
-97.61308139,33.38469402,299.45
-97.61308258,33.38461899,301.25
-97.61308365,33.38455182,299.05
-97.61308441,33.38450375,298.58
-97.61308445,33.38450105,292.48
-97.61308511,33.38445948,292.30
-97.61308579,33.38441665,297.63
-97.61308584,33.38441385,296.36
-97.61308696,33.38434316,295.70
-97.61308709,33.38433477,291.60
-97.61308809,33.38427192,292.01
-97.61308812,33.38426985,291.99
-97.61308858,33.38424117,299.34
-97.61308878,33.38422882,292.24
-97.61309036,33.38412882,298.11
-97.61309085,33.38409852,297.92
-97.61309119,33.38407679,299.18
-97.61309406,33.38389609,303.01
-97.61309448,33.38386967,300.27
-97.61309452,33.38386732,300.34
-97.61309485,33.38384640,302.19
-97.61309620,33.38376128,299.51
-97.61309667,33.38373152,301.00
-97.61309733,33.38368995,305.69
-97.61309743,33.38368382,306.17
-97.61309767,33.38366858,292.46
-97.61309808,33.38364307,306.81
-97.61309816,33.38363784,305.28
-97.61309852,33.38361538,293.14
-97.61309873,33.38360168,295.09
-97.61309948,33.38355497,304.17
-97.61310118,33.38344775,302.02
-97.61310148,33.38342909,293.98
-97.61310243,33.38336867,292.83
-97.61310273,33.38335001,296.07
-97.61310292,33.38333783,294.40
-97.61310484,33.38321691,293.42
-97.61310568,33.38316461,304.06
-97.61310748,33.38305118,305.40
-97.61310781,33.38302990,307.31
-97.61310819,33.38300645,296.53
-97.61310864,33.38297778,306.45
-97.61311032,33.38287183,307.44
-97.61311097,33.38283125,303.98
-97.61311230,33.38274766,295.40
-97.61311242,33.38273972,304.77
-97.61311244,33.38273855,295.55
-97.61311250,33.38273449,304.66
-97.61311493,33.38258192,300.36
-97.61311564,33.38253720,301.06
-97.61311869,33.38234504,296.23
-97.61311870,33.38234432,296.22
-97.61311994,33.38226596,295.48
-97.61312007,33.38225803,295.36
-97.61312016,33.38225217,295.31
-97.61312038,33.38223855,295.18
-97.61312053,33.38222899,295.07
-97.61312116,33.38218932,294.76
-97.61312144,33.38217191,294.67
-97.61312809,33.38175316,295.21
-97.61312866,33.38171691,295.19
-97.61313141,33.38154369,296.17
-97.61313247,33.38147705,295.25
-97.61313255,33.38147236,296.05
-97.61313345,33.38141546,295.18
-97.61313407,33.38137660,295.04
-97.61313582,33.38126623,294.99
-97.61313648,33.38122484,295.71
-97.61313855,33.38109409,303.26
-97.61313912,33.38105847,293.59
-97.61313919,33.38105369,301.51
-97.61314018,33.38099139,307.24
-97.61314078,33.38095396,301.58
-97.61314171,33.38089526,293.56
-97.61314185,33.38088652,303.74
-97.61314269,33.38083340,305.02
-97.61314315,33.38080428,301.20
-97.61314384,33.38076127,293.47
-97.61314461,33.38071257,298.77
-97.61314483,33.38069842,301.33
-97.61314509,33.38068210,298.65
-97.61314683,33.38057290,300.93
-97.61314720,33.38054945,299.11
-97.61314794,33.38050274,303.69
-97.61314794,33.38050247,300.12
-97.61314856,33.38046370,304.92
-97.61314896,33.38043863,301.35
-97.61314956,33.38040094,298.77
-97.61314999,33.38037344,299.12
-97.61315052,33.38033998,290.63
-97.61315072,33.38032790,301.38
-97.61315113,33.38030193,301.67
-97.61315155,33.38027560,302.78
-97.61315293,33.38018832,297.86
-97.61315311,33.38017740,300.66
-97.61315739,33.37990752,302.64
-97.61315749,33.37990103,300.73
-97.61315828,33.37985134,295.99
-97.61316039,33.37971879,298.29
-97.61316058,33.37970635,304.12
-97.61316097,33.37968218,299.68
-97.61316123,33.37966559,297.67
-97.61316165,33.37963899,297.02
-97.61316317,33.37954332,297.29
-97.61316349,33.37952312,297.50
-97.61316374,33.37950743,297.64
-97.61316524,33.37941302,298.41
-97.61316533,33.37940743,298.48
-97.61316545,33.37939976,298.54
-97.61316588,33.37937271,298.72
-97.61316678,33.37931617,309.63
-97.61316692,33.37930761,305.33
-97.61316724,33.37928714,305.50
-97.61316832,33.37921933,305.39
-97.61316837,33.37921626,300.21
-97.61316868,33.37919670,305.91
-97.61316899,33.37917695,300.60
-97.61316900,33.37917623,302.14
-97.61316920,33.37916369,302.45
-97.61317051,33.37908092,301.08
-97.61317104,33.37904755,305.37
-97.61317151,33.37901843,301.62
-97.61317235,33.37896559,305.10
-97.61317360,33.37888669,305.01
-97.61317527,33.37878155,302.46
-97.61317573,33.37875251,306.48
-97.61317601,33.37873475,307.92
-97.61317608,33.37873006,304.64
-97.61317681,33.37868461,309.92
-97.61317695,33.37867550,309.77
-97.61317736,33.37864990,310.31
-97.61317769,33.37862861,309.00
-97.61317776,33.37862474,307.80
-97.61317832,33.37858912,307.15
-97.61317936,33.37852383,306.86
-97.61317962,33.37850706,307.72
-97.61317972,33.37850084,309.33
-97.61318010,33.37847686,311.65
-97.61318098,33.37842176,303.18
-97.61318098,33.37842140,303.24
-97.61318249,33.37832636,305.73
-97.61318261,33.37831878,309.56
-97.61318355,33.37825999,310.38
-97.61318359,33.37825729,310.22
-97.61318509,33.37816261,311.51
-97.61318533,33.37814773,306.62
-97.61318536,33.37814547,305.69
-97.61318566,33.37812708,304.65
-97.61318604,33.37810282,312.17
-97.61318642,33.37807929,311.83
-97.61318655,33.37807108,303.14
-97.61318655,33.37807099,312.73
-97.61318753,33.37800895,311.56
-97.61318773,33.37799624,304.61
-97.61318861,33.37794096,312.92
-97.61318899,33.37791698,310.33
-97.61318958,33.37788001,309.24
-97.61319027,33.37783664,303.86
-97.61319035,33.37783123,309.11
-97.61319148,33.37776035,311.97
-97.61319163,33.37775097,310.08
-97.61319191,33.37773294,311.14
-97.61319339,33.37763979,306.52
-97.61319341,33.37763853,304.04
-97.61319363,33.37762509,306.65
-97.61319380,33.37761382,309.20
-97.61319386,33.37761030,304.08
-97.61319479,33.37755169,306.14
-97.61319494,33.37754250,306.53
-97.61319435,33.37753221,307.88
-97.61319224,33.37752930,306.30
-97.61319096,33.37752919,308.83
-97.61317313,33.37752782,305.72
-97.61314777,33.37752754,304.37
-97.61297247,33.37752558,305.39
-97.61292948,33.37752510,305.63
-97.61292443,33.37752504,305.65
-97.61288864,33.37752464,310.27
-97.61273979,33.37752298,312.71
-97.61271034,33.37752265,311.16
-97.61263306,33.37752179,315.92
-97.61257545,33.37752114,309.96
-97.61256976,33.37752108,306.78
-97.61256062,33.37752098,312.06
-97.61252204,33.37752054,310.04
-97.61251323,33.37752045,309.64
-97.61246422,33.37751990,315.45
-97.61246153,33.37751987,306.92
-97.61245175,33.37751976,314.86
-97.61244745,33.37751971,314.55
-97.61233879,33.37751850,308.94
-97.61213319,33.37751620,315.89
-97.61212889,33.37751615,315.70
-97.61198186,33.37751450,317.17
-97.61196864,33.37751436,316.55
-97.61196757,33.37751434,307.17
-97.61194263,33.37751407,315.23
-97.61191179,33.37751372,313.63
-97.61190706,33.37751367,313.40
-97.61187686,33.37751333,311.71
-97.61138085,33.37750778,305.29
-97.61116504,33.37750537,304.21
-97.61114118,33.37750510,309.81
-97.61101672,33.37750371,303.43
-97.61088936,33.37750228,307.36
-97.61088452,33.37750223,307.10
-97.61070085,33.37750017,307.16
-97.61067269,33.37749986,305.62
-97.61062035,33.37749927,302.99
-97.61030135,33.37749570,304.25
-97.61029641,33.37749564,304.26
-97.61029147,33.37749559,304.26
-97.61012359,33.37749371,304.00
-97.60987424,33.37749091,305.91
-97.60979686,33.37749005,303.96
-97.60979192,33.37748999,303.98
-97.60973409,33.37748934,303.83
-97.60960620,33.37748791,306.10
-97.60952892,33.37748705,309.23
-97.60952430,33.37748699,309.20
-97.60950721,33.37748680,311.50
-97.60944788,33.37748614,307.03
-97.60942961,33.37748593,306.44
-97.60916952,33.37748302,312.73
-97.60916447,33.37748296,312.62
-97.60915372,33.37748284,312.09
-97.60912180,33.37748248,310.48
-97.60910353,33.37748228,313.11
-97.60902013,33.37748134,305.28
-97.60886557,33.37747961,315.60
-97.60884451,33.37747938,314.64
-97.60882688,33.37747918,305.79
-97.60881839,33.37747908,315.07
-97.60881001,33.37747899,314.58
-97.60880528,33.37747894,314.67
-97.60880109,33.37747889,314.58
-97.60879733,33.37747885,314.16
-97.60876240,33.37747846,310.48
-97.60876111,33.37747844,313.35
-97.60869436,33.37747769,311.69
-97.60868974,33.37747764,311.60
-97.60867674,33.37747750,311.08
-97.60867233,33.37747745,311.12
-97.60865471,33.37747725,310.55
-97.60865030,33.37747720,310.27
-97.60850768,33.37747560,306.45
-97.60850284,33.37747555,306.47
-97.60849843,33.37747550,306.44
-97.60848446,33.37747534,306.48
-97.60842557,33.37747468,314.24
-97.60839880,33.37747438,311.20
-97.60839321,33.37747432,311.06
-97.60838720,33.37747425,310.72
-97.60838139,33.37747418,310.36
-97.60836344,33.37747398,312.54
-97.60826919,33.37747293,314.35
-97.60822931,33.37747248,312.40
-97.60815107,33.37747160,306.56
-97.60814645,33.37747155,306.69
-97.60795708,33.37746943,308.00
-97.60793193,33.37746914,306.61
-97.60791344,33.37746894,312.40
-97.60790882,33.37746888,312.49
-97.60787829,33.37746854,311.38
-97.60786443,33.37746839,311.25
-97.60783197,33.37746802,311.62
-97.60782477,33.37746794,310.14
-97.60777974,33.37746744,308.91
-97.60777565,33.37746739,308.61
-97.60769086,33.37746644,306.50
-97.60744054,33.37746363,311.03
-97.60739551,33.37746313,309.78
-97.60737337,33.37746288,308.85
-97.60736875,33.37746283,308.76
-97.60733715,33.37746247,308.16
-97.60724311,33.37746142,305.39
-97.60723838,33.37746136,305.26
-97.60723365,33.37746131,305.23
-97.60696851,33.37745833,311.56
-97.60693272,33.37745793,310.56
-97.60692326,33.37745783,310.29
-97.60684609,33.37745696,308.08
-97.60682793,33.37745676,307.54
-97.60682331,33.37745670,307.44
-97.60681868,33.37745665,307.29
-97.60680998,33.37745655,307.11
-97.60670014,33.37745532,304.53
-97.60668746,33.37745518,310.55
-97.60668283,33.37745513,310.48
-97.60661297,33.37745434,301.93
-97.60660857,33.37745429,301.88
-97.60659180,33.37745410,308.43
-97.60652291,33.37745333,306.48
-97.60641232,33.37745209,303.31
-97.60630065,33.37745084,300.17
-97.60629613,33.37745078,300.14
-97.60607506,33.37744830,306.99
-97.60605206,33.37744804,306.39
-97.60602390,33.37744773,305.60
-97.60601412,33.37744762,305.36
-97.60599563,33.37744741,304.73
-97.60598187,33.37744726,304.53
-97.60593834,33.37744677,300.43
-97.60590578,33.37744640,298.03
-97.60580658,33.37744529,299.57
-97.60579701,33.37744518,299.28
-97.60578756,33.37744507,299.08
-97.60577326,33.37744491,298.53
-97.60572511,33.37744437,297.06
-97.60572060,33.37744432,297.09
-97.60571587,33.37744427,297.07
-97.60566288,33.37744367,303.61
-97.60565891,33.37744363,296.79
-97.60565848,33.37744362,303.66
-97.60561463,33.37744313,302.38
-97.60559528,33.37744291,304.55
-97.60559141,33.37744287,301.86
-97.60546706,33.37744147,309.86
-97.60546244,33.37744142,309.98
-97.60544804,33.37744126,309.42
-97.60542439,33.37744099,308.66
-97.60542353,33.37744098,309.51
-97.60539237,33.37744063,295.80
-97.60538731,33.37744058,295.75
-97.60538280,33.37744052,306.68
-97.60538269,33.37744052,295.73
-97.60521664,33.37743866,308.91
-97.60521256,33.37743861,294.58
-97.60521223,33.37743861,308.68
-97.60520890,33.37743857,310.35
-97.60520428,33.37743852,310.45
-97.60518031,33.37743825,309.65
-97.60513904,33.37743779,303.52
-97.60512572,33.37743764,307.87
-97.60512088,33.37743758,307.85
-97.60510218,33.37743737,307.40
-97.60505220,33.37743681,305.79
-97.60504704,33.37743675,305.61
-97.60501749,33.37743642,304.68
-97.60498922,33.37743610,307.39
-97.60495913,33.37743576,303.40
-97.60485821,33.37743463,292.81
-97.60483069,33.37743432,295.81
-97.60482650,33.37743427,295.47
-97.60478555,33.37743381,292.51
-97.60477825,33.37743373,305.94
-97.60471741,33.37743305,296.22
-97.60466765,33.37743249,297.89
-97.60466679,33.37743248,294.86
-97.60463132,33.37743208,305.38
-97.60457920,33.37743149,303.59
-97.60455867,33.37743126,304.49
-97.60455846,33.37743126,291.45
-97.60455340,33.37743120,291.26
-97.60454427,33.37743110,302.77
-97.60434727,33.37742888,296.75
-97.60431126,33.37742848,295.83
-97.60430524,33.37742841,304.05
-97.60421829,33.37742743,305.18
-97.60421270,33.37742737,304.97
-97.60416724,33.37742686,307.96
-97.60411705,33.37742629,304.48
-97.60411329,33.37742625,290.40
-97.60408180,33.37742590,301.06
-97.60407868,33.37742586,288.79
-97.60407363,33.37742581,288.82
-97.60402860,33.37742530,299.67
-97.60402107,33.37742522,297.55
-97.60400216,33.37742500,298.72
-97.60399700,33.37742494,298.67
-97.60394305,33.37742434,303.99
-97.60391779,33.37742405,304.14
-97.60390597,33.37742392,302.80
-97.60390135,33.37742387,302.88
-97.60387738,33.37742360,294.82
-97.60386663,33.37742348,294.52
-97.60386180,33.37742342,294.62
-97.60378140,33.37742252,292.59
-97.60377022,33.37742239,298.68
-97.60371025,33.37742172,289.43
-97.60366361,33.37742119,301.47
-97.60362814,33.37742079,304.06
-97.60361116,33.37742060,303.47
-97.60360106,33.37742049,303.30
-97.60356183,33.37742005,301.76
-97.60348466,33.37741918,299.65
-97.60344446,33.37741873,299.31
-97.60344038,33.37741868,298.99
-97.60343565,33.37741863,298.80
-97.60342211,33.37741848,297.53
-97.60340588,33.37741829,296.51
-97.60339986,33.37741823,296.83
-97.60334838,33.37741765,295.21
-97.60330206,33.37741713,288.85
-97.60314041,33.37741549,288.24
-97.60265408,33.37740992,288.19
-97.60246020,33.37740765,289.84
-97.60245149,33.37740773,289.67
-97.60244927,33.37741871,289.41
-97.60244845,33.37742276,289.34
-97.60244646,33.37749371,289.39
-97.60244592,33.37751391,288.03
-97.60244462,33.37759542,287.45
-97.60244371,33.37765196,287.48
-97.60244333,33.37767604,294.12
-97.60244183,33.37776954,297.06
-97.60243999,33.37788442,293.48
-97.60243946,33.37791770,289.64
-97.60243941,33.37792094,285.61
-97.60243918,33.37793546,284.86
-97.60243858,33.37797252,293.48
-97.60243738,33.37804781,293.46
-97.60243737,33.37804808,294.20
-97.60243389,33.37826567,295.48
-97.60243367,33.37827937,293.89
-97.60243229,33.37836594,293.06
-97.60243171,33.37840246,296.42
-97.60243153,33.37841319,285.83
-97.60243134,33.37842536,294.77
-97.60243133,33.37842563,295.40
-97.60242959,33.37853465,293.54
-97.60242938,33.37854808,285.76
-97.60242924,33.37855620,290.81
-97.60242924,33.37855665,292.08
-97.60242657,33.37872329,297.09
-97.60242617,33.37874863,297.63
-97.60242616,33.37874899,298.78
-97.60242542,33.37879506,293.50
-97.60242260,33.37897135,295.05
-97.60242238,33.37898560,290.06
-97.60242116,33.37906179,288.18
-97.60242097,33.37907324,288.24
-97.60241618,33.37937261,288.77
-97.60241575,33.37939948,289.05
-97.60241459,33.37947198,289.34
-97.60241288,33.37957919,289.94
-97.60241236,33.37961130,289.74
-97.60241126,33.37968037,289.15
-97.60240680,33.37995927,297.63
-97.60239963,33.38040706,295.39
-97.60239963,33.38040733,296.29
-97.60239682,33.38058271,286.99
-97.60239679,33.38058451,292.25
-97.60239141,33.38092112,287.04
-97.60238987,33.38101698,287.04
-97.60238979,33.38102239,287.06
-97.60238618,33.38125476,285.41
-97.60237920,33.38168406,286.84
-97.60237691,33.38182690,291.96
-97.60237660,33.38184673,289.61
-97.60237506,33.38194249,288.85
-97.60237441,33.38198343,288.99
-97.60237266,33.38209254,286.09
-97.60237265,33.38209362,289.27
-97.60236864,33.38234430,292.71
-97.60236701,33.38244565,291.80
-97.60236548,33.38254141,291.35
-97.60236222,33.38274520,287.09
-97.60236042,33.38285764,287.55
-97.60236014,33.38287496,287.59
-97.60235955,33.38291184,287.59
-97.60235815,33.38299939,287.53
-97.60235808,33.38300390,287.57
-97.60235801,33.38300814,287.56
-97.60235477,33.38321066,287.53
-97.60234996,33.38351129,286.98
-97.60234792,33.38363898,287.52
-97.60234791,33.38363934,288.28
-97.60234263,33.38396918,285.80
-97.60234165,33.38403032,292.68
-97.60233875,33.38421184,286.28
-97.60233873,33.38421283,288.74
-97.60233609,33.38437793,285.68
-97.60233601,33.38438334,285.65
-97.60233272,33.38458866,284.96
-97.60233207,33.38462933,284.76
-97.60233205,33.38463077,288.08
-97.60232872,33.38483835,291.85
-97.60232798,33.38488505,293.35
-97.60232730,33.38492752,288.11
-97.60232693,33.38495043,293.57
-97.60232409,33.38512798,285.30
-97.60232407,33.38512906,288.16
-97.60232015,33.38538091,284.79
-97.60231412,33.38575115,280.26
-97.60231315,33.38581147,280.52
-97.60231292,33.38582554,294.07
-97.60231192,33.38588848,288.14
-97.60231116,33.38593573,284.09
-97.60230830,33.38611436,282.28
-97.60230829,33.38611499,283.69
-97.60230829,33.38611526,284.54
-97.60230828,33.38611553,285.19
-97.60230631,33.38623889,280.02
-97.60230427,33.38636639,280.02
-97.60230411,33.38637658,280.05
-97.60230395,33.38641319,280.25
-97.60230775,33.38642415,280.04
-97.60231667,33.38642434,280.12
-97.60235633,33.38642515,294.97
-97.60236547,33.38642525,294.87
-97.60242082,33.38642587,293.95
-97.60286216,33.38643084,286.13
-97.60308348,33.38643333,282.35
-97.60312906,33.38643385,286.49
-97.60313185,33.38643388,295.57
-97.60313980,33.38643397,289.47
     </coordinates>
    </LineString>
   </MultiGeometry>
  </Placemark>
 </Document>
</kml>
