<kml>
 <Document>
  <Style id="yellow">
   <LineStyle>
   <color>ff00ffff</color>
   <width>1</width>
   </LineStyle>
  </Style>
  <Style id="red">
   <LineStyle>
   <color>ffff0000</color>
   <width>2</width>
   </LineStyle>
  </Style>
  <Style id="green">
   <LineStyle>
   <color>ff00ff00</color>
   <width>1</width>
   </LineStyle>
  </Style>
  <Placemark>
  <styleUrl>#yellow</styleUrl>
   <MultiGeometry>
    <LineString>
     <coordinates>
-97.58515779,33.35015525,304.42
-97.58516553,33.35015534,292.46
-97.58516746,33.35015536,303.39
-97.58518272,33.35015553,305.78
-97.58518325,33.35015554,304.50
-97.58518691,33.35015558,305.52
-97.58525621,33.35015637,291.91
-97.58532379,33.35015714,310.61
-97.58532851,33.35015719,310.33
-97.58533313,33.35015725,310.02
-97.58563548,33.35016069,293.07
-97.58563924,33.35016073,294.29
-97.58565546,33.35016092,304.08
-97.58565686,33.35016093,303.04
-97.58565750,33.35016094,305.20
-97.58565825,33.35016095,304.61
-97.58565944,33.35016096,305.36
-97.58566158,33.35016099,304.56
-97.58566406,33.35016102,303.78
-97.58569768,33.35016140,300.02
-97.58570392,33.35016147,298.84
-97.58603075,33.35016519,294.02
-97.58603548,33.35016525,293.85
-97.58616226,33.35016669,304.72
-97.58616613,33.35016673,304.39
-97.58616678,33.35016674,302.87
-97.58624951,33.35016768,298.90
-97.58625466,33.35016774,298.65
-97.58626745,33.35016789,296.97
-97.58649576,33.35017049,304.40
-97.58651618,33.35017072,301.72
-97.58659816,33.35017165,295.36
-97.58660213,33.35017170,299.50
-97.58660235,33.35017170,297.26
-97.58660256,33.35017170,295.27
-97.58660600,33.35017174,298.94
-97.58660697,33.35017175,297.30
-97.58661191,33.35017181,304.01
-97.58661373,33.35017183,304.83
-97.58661707,33.35017187,304.05
-97.58661857,33.35017189,304.73
-97.58677522,33.35017367,302.26
-97.58678070,33.35017373,301.97
-97.58682400,33.35017422,296.08
-97.58709744,33.35017734,296.91
-97.58710227,33.35017739,296.92
-97.58712043,33.35017760,296.97
-97.58732565,33.35017993,304.26
-97.58733489,33.35018004,302.92
-97.58734413,33.35018014,301.57
-97.58743395,33.35018117,297.62
-97.58743771,33.35018121,300.44
-97.58743900,33.35018122,297.83
-97.58743996,33.35018123,302.05
-97.58744211,33.35018126,300.16
-97.58744566,33.35018130,302.78
-97.58745039,33.35018135,302.92
-97.58757008,33.35018271,304.78
-97.58795021,33.35018704,298.46
-97.58795547,33.35018710,304.78
-97.58795676,33.35018711,306.24
-97.58795751,33.35018712,307.14
-97.58796041,33.35018715,305.15
-97.58796084,33.35018716,305.74
-97.58840200,33.35019217,307.67
-97.58840254,33.35019218,308.91
-97.58840662,33.35019223,308.21
-97.58840727,33.35019224,309.82
-97.58841199,33.35019229,309.58
-97.58892310,33.35019765,300.87
-97.58896403,33.35019847,300.95
-97.58897359,33.35019867,301.01
-97.58897832,33.35019873,301.06
-97.58898552,33.35019881,309.81
-97.58898949,33.35019885,312.12
-97.58898982,33.35019886,310.22
-97.58899003,33.35019886,309.29
-97.58899379,33.35019890,312.41
-97.58899401,33.35019890,311.71
-97.58940540,33.35020358,302.21
-97.58941722,33.35020371,312.97
-97.58941808,33.35020372,311.64
-97.58941905,33.35020373,310.03
-97.58942173,33.35020377,312.96
-97.58942259,33.35020377,311.56
-97.58988664,33.35020905,302.72
-97.58989179,33.35020910,302.66
-97.58989620,33.35020915,302.58
-97.58989717,33.35020917,308.03
-97.58989964,33.35020919,310.09
-97.58990136,33.35020921,308.57
-97.58990415,33.35020924,310.14
-97.59011216,33.35021161,310.96
-97.59011710,33.35021166,310.89
-97.59015911,33.35021214,310.22
-97.59017340,33.35021230,310.03
-97.59020542,33.35021267,309.44
-97.59021004,33.35021272,309.38
-97.59038990,33.35021476,303.34
-97.59039570,33.35021483,311.43
-97.59039720,33.35021484,313.29
-97.59039903,33.35021486,314.97
-97.59040171,33.35021489,313.29
-97.59040343,33.35021491,315.13
-97.59040515,33.35021493,314.06
-97.59054536,33.35021653,303.72
-97.59054988,33.35021658,303.73
-97.59070223,33.35021831,310.68
-97.59071652,33.35021847,310.41
-97.59072060,33.35021851,310.21
-97.59079141,33.35021932,305.05
-97.59079377,33.35021935,306.17
-97.59079581,33.35021937,305.09
-97.59079807,33.35021939,306.45
-97.59098233,33.35022149,316.57
-97.59098674,33.35022154,316.40
-97.59109117,33.35022272,314.68
-97.59110890,33.35022292,314.32
-97.59127565,33.35022481,307.86
-97.59128027,33.35022487,307.87
-97.59146776,33.35022699,316.72
-97.59147657,33.35022709,316.54
-97.59148086,33.35022714,316.42
-97.59148989,33.35022724,316.27
-97.59151202,33.35022750,315.99
-97.59158401,33.35022831,314.77
-97.59158863,33.35022836,314.63
-97.59175344,33.35023023,308.18
-97.59175806,33.35023029,308.19
-97.59176097,33.35023032,308.93
-97.59176129,33.35023032,313.73
-97.59176311,33.35023034,313.10
-97.59176419,33.35023036,311.16
-97.59176451,33.35023036,315.93
-97.59176666,33.35023038,313.49
-97.59176892,33.35023041,316.13
-97.59194824,33.35023244,308.37
-97.59195275,33.35023249,308.32
-97.59212165,33.35023441,315.68
-97.59212605,33.35023446,315.58
-97.59213135,33.35023263,308.89
-97.59213201,33.35023164,308.87
-97.59213471,33.35022419,315.90
-97.59213568,33.35021058,311.89
-97.59213604,33.35020156,308.90
-97.59213653,33.35018443,311.65
-97.59213670,33.35017424,314.48
-97.59213932,33.35001112,311.35
-97.59214011,33.34996189,317.32
-97.59214156,33.34987190,313.79
-97.59214195,33.34984773,308.15
-97.59214246,33.34981599,312.89
-97.59214365,33.34974232,311.87
-97.59214398,33.34972176,314.33
-97.59214552,33.34962600,312.11
-97.59214578,33.34960977,307.39
-97.59214601,33.34959562,307.05
-97.59214658,33.34956054,316.45
-97.59214722,33.34952050,317.63
-97.59214730,33.34951545,307.28
-97.59214901,33.34940932,316.46
-97.59214934,33.34938912,314.30
-97.59215088,33.34929327,312.67
-97.59215101,33.34928488,309.78
-97.59215134,33.34926451,321.66
-97.59215154,33.34925188,307.34
-97.59215232,33.34920373,315.70
-97.59215255,33.34918930,306.45
-97.59215293,33.34916559,305.85
-97.59215332,33.34914151,314.51
-97.59215402,33.34909787,306.77
-97.59215414,33.34909066,318.25
-97.59215459,33.34906288,317.82
-97.59215469,33.34905648,306.96
-97.59215490,33.34904350,307.81
-97.59215665,33.34893466,306.91
-97.59215690,33.34891924,307.05
-97.59215719,33.34890094,307.22
-97.59215724,33.34889832,307.11
-97.59215730,33.34889408,308.99
-97.59215893,33.34879327,315.28
-97.59216125,33.34864891,310.91
-97.59216167,33.34862303,318.28
-97.59216222,33.34858885,310.31
-97.59216228,33.34858470,315.27
-97.59216229,33.34858461,312.38
-97.59216301,33.34853989,316.83
-97.59216547,33.34838714,318.01
-97.59216559,33.34837929,317.35
-97.59216605,33.34835053,309.78
-97.59216724,33.34827713,306.80
-97.59216769,33.34824909,306.81
-97.59216796,33.34823213,311.39
-97.59216815,33.34822050,312.69
-97.59216844,33.34820256,308.41
-97.59216849,33.34819922,312.95
-97.59216883,33.34817821,307.69
-97.59216904,33.34816478,309.70
-97.59216914,33.34815864,316.35
-97.59216937,33.34814431,315.40
-97.59216995,33.34810851,313.09
-97.59217045,33.34807722,308.64
-97.59217144,33.34801608,306.98
-97.59217160,33.34800607,306.93
-97.59217257,33.34794566,307.09
-97.59217287,33.34792744,307.31
-97.59217298,33.34792005,307.60
-97.59217320,33.34790670,307.49
-97.59217339,33.34789471,308.91
-97.59217421,33.34784359,308.39
-97.59217511,33.34778777,309.20
-97.59217554,33.34776144,307.37
-97.59217585,33.34774178,310.25
-97.59217624,33.34771807,312.42
-97.59217734,33.34764972,308.82
-97.59218029,33.34746640,307.70
-97.59218117,33.34741157,311.86
-97.59218185,33.34736946,307.86
-97.59218279,33.34731058,307.99
-97.59218318,33.34728660,312.76
-97.59218537,33.34715035,308.63
-97.59218753,33.34701662,309.04
-97.59219251,33.34670679,308.62
-97.59219428,33.34659733,308.58
-97.59219734,33.34640670,307.79
-97.59219930,33.34628515,307.36
-97.59219972,33.34625918,307.02
-97.59220022,33.34622789,306.68
-97.59220093,33.34618380,310.23
-97.59220105,33.34617650,306.11
-97.59220310,33.34604926,308.25
-97.59220360,33.34601806,304.82
-97.59220365,33.34601509,313.48
-97.59220365,33.34601500,312.07
-97.59220367,33.34601383,304.96
-97.59220393,33.34599769,313.22
-97.59220402,33.34599182,305.20
-97.59220553,33.34589841,304.29
-97.59220685,33.34581608,311.29
-97.59220692,33.34581148,311.40
-97.59220795,33.34574782,311.02
-97.59220799,33.34574557,311.00
-97.59220848,33.34571464,303.04
-97.59221020,33.34560778,301.69
-97.59221080,33.34557072,301.41
-97.59221135,33.34553655,301.23
-97.59221193,33.34550057,301.09
-97.59221368,33.34539164,300.86
-97.59221689,33.34519263,299.48
-97.59221724,33.34517063,299.59
-97.59221738,33.34516198,299.17
-97.59221937,33.34503835,303.72
-97.59222123,33.34492239,306.80
-97.59222131,33.34491788,306.79
-97.59222216,33.34486504,296.73
-97.59222216,33.34486477,296.78
-97.59222266,33.34483402,296.54
-97.59222291,33.34481824,306.98
-97.59222372,33.34476775,295.87
-97.59222412,33.34474313,297.61
-97.59222438,33.34472717,302.50
-97.59222440,33.34472582,303.41
-97.59222493,33.34469281,295.23
-97.59222588,33.34463393,309.96
-97.59222628,33.34460923,309.61
-97.59222655,33.34459218,302.36
-97.59222716,33.34455431,298.69
-97.59222840,33.34447739,305.53
-97.59222878,33.34445377,305.85
-97.59222889,33.34444665,307.13
-97.59222902,33.34443898,306.82
-97.59222928,33.34442257,293.31
-97.59222938,33.34441644,305.93
-97.59222986,33.34438659,304.35
-97.59223014,33.34436928,304.71
-97.59223024,33.34436315,292.89
-97.59223057,33.34434241,296.09
-97.59223076,33.34433078,303.94
-97.59223097,33.34431770,295.31
-97.59223120,33.34430345,302.84
-97.59223125,33.34430039,304.93
-97.59223174,33.34426946,305.80
-97.59223265,33.34421283,306.32
-97.59223375,33.34414484,298.80
-97.59223396,33.34413159,299.03
-97.59223425,33.34411355,293.78
-97.59223433,33.34410904,291.05
-97.59223532,33.34404719,290.98
-97.59223536,33.34404493,299.50
-97.59223539,33.34404295,298.63
-97.59223553,33.34403411,298.39
-97.59223563,33.34402825,304.05
-97.59223587,33.34401301,299.59
-97.59223664,33.34396549,301.06
-97.59223696,33.34394511,296.00
-97.59223892,33.34382338,300.62
-97.59224094,33.34369786,289.70
-97.59224144,33.34366720,289.74
-97.59224243,33.34360553,292.09
-97.59224246,33.34360363,294.99
-97.59224256,33.34359723,292.32
-97.59224312,33.34356269,298.94
-97.59224358,33.34353420,300.28
-97.59224424,33.34349326,298.85
-97.59224499,33.34344619,295.65
-97.59224599,33.34338425,289.12
-97.59224647,33.34335467,294.67
-97.59224697,33.34332338,288.92
-97.59224800,33.34325945,300.23
-97.59224846,33.34323059,296.51
-97.59224850,33.34322843,292.14
-97.59225044,33.34310760,295.32
-97.59225130,33.34305449,297.70
-97.59225182,33.34302221,298.55
-97.59225402,33.34288551,291.23
-97.59225427,33.34287000,284.81
-97.59225508,33.34281923,282.95
-97.59225873,33.34259254,287.44
-97.59225927,33.34255882,290.05
-97.59225991,33.34251905,293.44
-97.59226025,33.34249804,295.05
-97.59226076,33.34246657,293.65
-97.59226088,33.34245900,291.30
-97.59226237,33.34236657,294.10
-97.59226258,33.34235341,298.38
-97.59226262,33.34235079,298.06
-97.59226290,33.34233348,288.34
-97.59226404,33.34226251,287.39
-97.59226677,33.34209317,286.67
-97.59227022,33.34187847,288.71
-97.59227587,33.34152770,294.40
-97.59227698,33.34145881,291.70
-97.59227933,33.34131265,292.60
-97.59228053,33.34123780,293.40
-97.59228002,33.34122274,293.39
-97.59227975,33.34121967,293.39
-97.59227721,33.34121747,293.37
-97.59227259,33.34121742,293.34
-97.59226764,33.34121736,293.28
-97.59226281,33.34121731,293.26
-97.59225841,33.34121726,293.23
-97.59225346,33.34121720,293.19
-97.59182460,33.34121234,305.11
-97.59159491,33.34120974,293.29
-97.59157740,33.34120954,292.63
-97.59157482,33.34120951,295.24
-97.59157375,33.34120950,290.38
-97.59157342,33.34120949,294.07
-97.59157074,33.34120946,293.28
-97.59157042,33.34120946,296.81
-97.59156956,33.34120945,295.47
-97.59156848,33.34120944,292.29
-97.59156612,33.34120941,296.71
-97.59156440,33.34120939,295.59
-97.59156386,33.34120938,293.94
-97.59156096,33.34120935,295.00
-97.59155957,33.34120934,291.84
-97.59155881,33.34120933,293.90
-97.59155849,33.34120932,295.87
-97.59155602,33.34120930,294.92
-97.59155033,33.34120923,295.16
-97.59146202,33.34120823,293.18
-97.59143871,33.34120796,293.20
-97.59132956,33.34120673,293.41
-97.59118667,33.34120511,293.36
-97.59107269,33.34120381,293.28
-97.59089854,33.34120184,293.19
-97.59089446,33.34120179,293.39
-97.59076898,33.34120037,293.39
-97.59059816,33.34119843,293.25
-97.59046065,33.34119687,293.28
-97.59044604,33.34119670,293.11
-97.59003931,33.34119208,288.55
-97.59003479,33.34119203,288.56
-97.59003018,33.34119198,288.57
-97.59002545,33.34119193,288.56
-97.59002051,33.34119187,288.56
-97.59001556,33.34119181,288.58
-97.58949041,33.34118756,287.72
-97.58946259,33.34118716,287.71
-97.58943036,33.34118670,287.67
-97.58940179,33.34118629,287.62
-97.58937418,33.34118588,287.61
-97.58934174,33.34118542,287.68
-97.58931262,33.34118500,289.49
-97.58925343,33.34118415,287.58
-97.58916975,33.34118293,287.38
-97.58910873,33.34118205,289.22
-97.58907725,33.34118161,287.41
-97.58898874,33.34118033,286.98
-97.58893341,33.34117952,286.85
-97.58892858,33.34117947,286.93
-97.58892772,33.34117946,291.55
-97.58892740,33.34117945,293.09
-97.58892417,33.34117942,286.98
-97.58892331,33.34117941,291.58
-97.58892299,33.34117940,293.37
-97.58891934,33.34117936,286.92
-97.58891869,33.34117935,290.59
-97.58891816,33.34117935,293.51
-97.58891440,33.34117930,286.94
-97.58891364,33.34117930,291.11
-97.58891343,33.34117929,292.45
-97.58890924,33.34117925,291.34
-97.58890892,33.34117924,293.15
-97.58890494,33.34117920,290.58
-97.58890473,33.34117919,292.04
-97.58890451,33.34117919,292.99
-97.58889989,33.34117914,292.38
-97.58837386,33.34117641,289.82
-97.58834292,33.34117597,292.30
-97.58831671,33.34117558,286.02
-97.58828341,33.34117511,293.46
-97.58825666,33.34117471,286.01
-97.58822733,33.34117429,292.99
-97.58820112,33.34117390,286.16
-97.58814515,33.34117309,285.99
-97.58776198,33.34116629,293.59
-97.58770204,33.34116552,296.36
-97.58763661,33.34116478,299.36
-97.58749846,33.34116321,285.44
-97.58745967,33.34116276,293.12
-97.58734794,33.34116149,284.68
-97.58734343,33.34116144,284.70
-97.58733849,33.34116139,284.69
-97.58733376,33.34116133,284.76
-97.58732914,33.34116128,284.80
-97.58732452,33.34116123,284.80
-97.58703962,33.34115799,292.47
-97.58692617,33.34115669,284.91
-97.58680381,33.34115530,290.84
-97.58665437,33.34115360,284.13
-97.58651901,33.34115206,290.59
-97.58650816,33.34115194,291.05
-97.58635475,33.34115019,290.83
-97.58633659,33.34114998,285.66
-97.58615718,33.34114794,283.69
-97.58615224,33.34114789,283.70
-97.58614751,33.34114783,291.55
-97.58614740,33.34114783,289.60
-97.58614300,33.34114778,291.78
-97.58614246,33.34114777,283.78
-97.58614010,33.34114775,292.46
-97.58613999,33.34114775,290.57
-97.58613870,33.34114773,293.93
-97.58613752,33.34114772,291.42
-97.58613720,33.34114771,283.71
-97.58613580,33.34114770,292.78
-97.58613419,33.34114768,290.10
-97.58613408,33.34114768,293.95
-97.58613258,33.34114766,293.37
-97.58613075,33.34114764,290.77
-97.58612914,33.34114762,293.83
-97.58612463,33.34114757,293.95
-97.58612055,33.34114752,292.33
-97.58611969,33.34114751,293.77
-97.58605888,33.34114682,286.12
-97.58605383,33.34114676,286.25
-97.58595371,33.34114562,283.65
-97.58584434,33.34114438,283.58
-97.58554268,33.34114094,283.39
-97.58548896,33.34114033,293.01
-97.58542568,33.34113961,295.93
-97.58541881,33.34113953,289.39
-97.58533458,33.34113857,279.87
-97.58529967,33.34113817,301.97
-97.58527034,33.34113784,303.26
-97.58512960,33.34113624,296.02
-97.58488638,33.34113347,295.68
-97.58484792,33.34113303,290.15
-97.58477476,33.34113219,286.98
-97.58456634,33.34112982,290.44
-97.58455700,33.34112971,290.98
-97.58453068,33.34112941,284.93
-97.58434600,33.34112731,287.47
-97.58433666,33.34112720,287.82
-97.58432720,33.34112709,288.27
-97.58431356,33.34112694,288.95
-97.58414779,33.34112505,289.17
-97.58410933,33.34112461,285.86
-97.58404391,33.34112386,294.02
-97.58389544,33.34112217,301.03
-97.58383872,33.34112152,298.57
-97.58383442,33.34112147,298.75
-97.58381272,33.34112123,299.83
-97.58375084,33.34112052,295.35
-97.58364427,33.34111930,293.68
-97.58360838,33.34111889,287.94
-97.58355488,33.34111828,290.52
-97.58346045,33.34111721,282.87
-97.58341802,33.34111672,296.89
-97.58341372,33.34111667,297.17
-97.58340932,33.34111662,297.32
-97.58336108,33.34111607,299.65
-97.58333906,33.34111582,300.69
-97.58323023,33.34111458,293.74
-97.58315234,33.34111369,290.12
-97.58313171,33.34111346,284.72
-97.58297390,33.34111166,292.21
-97.58291266,33.34111096,285.05
-97.58290869,33.34111091,284.73
-97.58290729,33.34111090,288.24
-97.58290439,33.34111086,286.07
-97.58290428,33.34111086,284.56
-97.58290364,33.34111085,280.15
-97.58290203,33.34111084,283.82
-97.58290095,33.34111082,285.60
-97.58290031,33.34111082,287.35
-97.58289827,33.34111079,283.42
-97.58289795,33.34111079,281.93
-97.58289558,33.34111076,287.28
-97.58289504,33.34111076,282.85
-97.58289161,33.34111072,282.43
-97.58288151,33.34111060,282.59
-97.58277139,33.34110934,281.15
-97.58255836,33.34110691,283.65
-97.58245426,33.34110572,283.73
-97.58214636,33.34110221,284.11
-97.58183954,33.34109871,284.58
-97.58156688,33.34109559,284.08
-97.58154147,33.34109864,284.12
-97.58153918,33.34110736,284.10
-97.58153772,33.34112466,284.06
-97.58153740,33.34113097,284.09
-97.58153619,33.34119896,283.90
-97.58153543,33.34124621,283.83
-97.58153514,33.34126406,283.80
-97.58153510,33.34126631,283.77
-97.58153382,33.34134539,283.62
-97.58152907,33.34163836,283.07
-97.58152843,33.34167786,283.15
-97.58152806,33.34170031,283.05
-97.58152375,33.34196613,282.75
-97.58152062,33.34215955,282.46
-97.58151866,33.34228038,282.24
-97.58151666,33.34240364,282.05
-97.58151419,33.34255594,281.83
-97.58151397,33.34256956,281.79
-97.58151121,33.34273989,293.87
-97.58151111,33.34274557,290.25
-97.58151089,33.34275937,286.71
-97.58151048,33.34278453,288.83
-97.58151020,33.34280175,296.98
-97.58150999,33.34281482,287.85
-97.58150998,33.34281563,291.10
-97.58150958,33.34284016,288.03
-97.58150947,33.34284665,298.74
-97.58150920,33.34286370,299.77
-97.58150919,33.34286433,298.62
-97.58150889,33.34288272,297.04
-97.58150820,33.34292510,283.47
-97.58150814,33.34292880,289.00
-97.58150808,33.34293250,289.36
-97.58150798,33.34293881,284.70
-97.58150694,33.34300274,295.84
-97.58150623,33.34304656,286.84
-97.58150522,33.34310914,281.68
-97.58150283,33.34325621,281.63
-97.58150251,33.34327587,281.66
-97.58150165,33.34332907,281.68
-97.58149916,33.34348272,281.90
-97.58149717,33.34360526,282.54
-97.58149524,33.34372438,282.95
-97.58149380,33.34381320,283.16
-97.58149356,33.34382771,283.22
-97.58149181,33.34393565,295.40
-97.58149172,33.34394142,290.43
-97.58149046,33.34401906,292.21
-97.58148888,33.34411653,289.59
-97.58148876,33.34412402,288.17
-97.58148854,33.34413727,282.05
-97.58148837,33.34414836,294.23
-97.58148761,33.34419462,281.98
-97.58148611,33.34428750,283.38
-97.58148487,33.34436405,296.14
-97.58148436,33.34439552,293.43
-97.58148389,33.34442447,291.67
-97.58148334,33.34445828,292.69
-97.58148315,33.34446973,295.56
-97.58148297,33.34448127,292.70
-97.58148071,33.34462014,296.89
-97.58147677,33.34486342,291.69
-97.58147509,33.34496675,293.58
-97.58147459,33.34499786,294.40
-97.58147262,33.34511914,299.87
-97.58147252,33.34512510,299.90
-97.58147242,33.34513168,299.91
-97.58147195,33.34516062,299.99
-97.58147128,33.34520165,295.15
-97.58147113,33.34521121,295.29
-97.58146985,33.34529002,300.69
-97.58146887,33.34535016,295.15
-97.58146588,33.34553483,294.09
-97.58146541,33.34556351,303.78
-97.58146540,33.34556423,301.35
-97.58146526,33.34557325,301.64
-97.58146484,33.34559921,293.51
-97.58146467,33.34560922,293.42
-97.58146454,33.34561734,302.21
-97.58146423,33.34563628,293.14
-97.58146400,33.34565079,300.44
-97.58146381,33.34566260,299.58
-97.58146328,33.34569507,299.86
-97.58146321,33.34569967,301.94
-97.58146175,33.34578930,302.35
-97.58146155,33.34580165,297.04
-97.58146052,33.34586513,301.74
-97.58146046,33.34586919,291.55
-97.58146039,33.34587343,291.63
-97.58146011,33.34589047,291.39
-97.58145915,33.34594962,297.46
-97.58145719,33.34607081,294.28
-97.58145665,33.34610417,289.96
-97.58145639,33.34611968,289.96
-97.58145577,33.34615846,297.63
-97.58145535,33.34618379,295.93
-97.58145534,33.34618442,293.45
-97.58145486,33.34621436,297.04
-97.58145462,33.34622897,289.34
-97.58145451,33.34623609,289.27
-97.58145448,33.34623799,299.65
-97.58145418,33.34625593,294.40
-97.58145247,33.34636152,293.67
-97.58145161,33.34641472,297.33
-97.58145148,33.34642266,295.72
-97.58145010,33.34650805,298.19
-97.58144957,33.34654069,302.60
-97.58144911,33.34656891,304.98
-97.58144907,33.34657117,295.42
-97.58144883,33.34658623,304.15
-97.58144877,33.34658992,301.23
-97.58144874,33.34659137,287.64
-97.58144812,33.34662996,290.05
-97.58144632,33.34674060,286.29
-97.58144527,33.34680543,286.10
-97.58144379,33.34689650,285.81
-97.58144249,33.34697721,291.02
-97.58144186,33.34701598,285.51
-97.58144139,33.34704484,285.38
-97.58144099,33.34706936,292.04
-97.58144047,33.34710173,285.31
-97.58143813,33.34724556,285.06
-97.58143429,33.34748253,285.02
-97.58143383,33.34751066,284.81
-97.58143166,33.34764438,284.37
-97.58143093,33.34768947,284.69
-97.58142975,33.34776242,284.96
-97.58142971,33.34776458,285.00
-97.58142823,33.34785601,285.04
-97.58142660,33.34795665,285.03
-97.58142622,33.34798036,285.02
-97.58142585,33.34800272,285.01
-97.58142533,33.34803509,284.99
-97.58142389,33.34812364,285.11
-97.58142372,33.34813446,285.08
-97.58142327,33.34816169,285.13
-97.58142093,33.34830633,285.22
-97.58142074,33.34831814,285.24
-97.58141891,33.34843076,296.97
-97.58141824,33.34847188,285.32
-97.58141817,33.34847612,302.55
-97.58141718,33.34853708,298.96
-97.58141640,33.34858514,288.92
-97.58141633,33.34858992,293.63
-97.58141604,33.34860741,296.66
-97.58141598,33.34861111,298.62
-97.58141576,33.34862472,291.90
-97.58141518,33.34866070,292.54
-97.58141505,33.34866873,294.01
-97.58141455,33.34869975,293.76
-97.58141409,33.34872806,295.00
-97.58141311,33.34878820,296.14
-97.58141270,33.34881372,295.17
-97.58141202,33.34885547,283.12
-97.58141109,33.34891282,293.18
-97.58141080,33.34893049,292.90
-97.58141068,33.34893834,295.27
-97.58141061,33.34894258,295.54
-97.58141037,33.34895736,285.61
-97.58140992,33.34898469,295.57
-97.58140991,33.34898577,285.80
-97.58140926,33.34902562,295.19
-97.58140837,33.34908054,296.49
-97.58140818,33.34909208,296.08
-97.58140773,33.34912021,295.86
-97.58140734,33.34914429,293.51
-97.58140727,33.34914816,291.59
-97.58140688,33.34917224,286.01
-97.58140643,33.34919992,294.52
-97.58140623,33.34921246,286.15
-97.58140618,33.34921552,296.86
-97.58140589,33.34923356,300.45
-97.58140497,33.34929000,290.49
-97.58140365,33.34937161,292.49
-97.58140351,33.34938008,286.40
-97.58140211,33.34946611,286.51
-97.58140122,33.34952129,286.67
-97.58140097,33.34953689,286.75
-97.58140041,33.34957143,286.86
-97.58139690,33.34978730,289.09
-97.58139609,33.34983725,289.08
-97.58139427,33.34994997,289.09
-97.58139350,33.34999740,289.12
-97.58139316,33.35001804,289.13
-97.58139228,33.35007900,289.12
-97.58139198,33.35011074,289.14
-97.58148725,33.35011337,289.18
-97.58165626,33.35011530,289.27
-97.58173802,33.35011623,289.27
-97.58192250,33.35011834,295.38
-97.58194421,33.35011859,298.11
-97.58195516,33.35011871,296.59
-97.58195978,33.35011876,296.47
-97.58199288,33.35011914,292.39
-97.58216758,33.35012114,300.96
-97.58217091,33.35012117,300.29
-97.58247593,33.35012466,286.92
-97.58248077,33.35012471,286.99
-97.58254878,33.35012549,286.90
-97.58268276,33.35012702,300.16
-97.58268512,33.35012705,299.40
-97.58269039,33.35012711,299.16
-97.58269898,33.35012720,298.06
-97.58270350,33.35012726,298.20
-97.58274024,33.35012768,302.56
-97.58274486,33.35012773,302.33
-97.58275915,33.35012789,299.89
-97.58276302,33.35012793,299.51
-97.58276732,33.35012798,299.43
-97.58279482,33.35012830,295.66
-97.58280514,33.35012842,287.67
-97.58280976,33.35012847,287.75
-97.58285757,33.35012901,287.73
-97.58309329,33.35013170,288.16
-97.58358441,33.35013731,292.75
-97.58377630,33.35013950,303.97
-97.58378060,33.35013955,303.19
-97.58379747,33.35013974,301.25
-97.58381842,33.35013998,298.57
-97.58387085,33.35014058,291.88
-97.58415267,33.35014379,291.04
-97.58437142,33.35014628,291.91
-97.58437572,33.35014633,291.89
-97.58468569,33.35014987,292.31
-97.58490025,33.35015231,298.19
-97.58513211,33.35015496,308.10
-97.58515285,33.35015519,305.23
-97.58515779,33.35015525,304.42
     </coordinates>
    </LineString>
   </MultiGeometry>
  </Placemark>
 </Document>
</kml>
