<kml>
 <Document>
  <Style id="yellow">
   <LineStyle>
   <color>ff00ffff</color>
   <width>1</width>
   </LineStyle>
  </Style>
  <Style id="red">
   <LineStyle>
   <color>ffff0000</color>
   <width>2</width>
   </LineStyle>
  </Style>
  <Style id="green">
   <LineStyle>
   <color>ff00ff00</color>
   <width>1</width>
   </LineStyle>
  </Style>
  <Placemark>
  <styleUrl>#yellow</styleUrl>
   <MultiGeometry>
    <LineString>
     <coordinates>
-97.58102385,33.37277165,300.83
-97.58102301,33.37282323,303.48
-97.58102290,33.37282999,291.16
-97.58102252,33.37285317,301.41
-97.58102199,33.37288626,291.31
-97.58102055,33.37297445,299.27
-97.58102011,33.37300177,301.20
-97.58101827,33.37311484,296.60
-97.58101793,33.37313585,295.48
-97.58101762,33.37315488,295.75
-97.58101718,33.37318229,302.82
-97.58101627,33.37323811,297.91
-97.58101626,33.37323856,299.59
-97.58101621,33.37324171,294.51
-97.58101603,33.37325307,300.09
-97.58101525,33.37330114,290.25
-97.58101480,33.37332855,299.18
-97.58101453,33.37334523,298.44
-97.58101271,33.37345713,289.79
-97.58101250,33.37347038,299.90
-97.58101233,33.37348048,303.03
-97.58100987,33.37363215,294.87
-97.58100727,33.37379211,288.08
-97.58100613,33.37386236,296.85
-97.58100582,33.37388138,296.59
-97.58100581,33.37388201,297.50
-97.58100565,33.37389238,297.47
-97.58100538,33.37390888,298.19
-97.58100432,33.37397381,299.86
-97.58100394,33.37399752,297.52
-97.58100330,33.37403693,290.20
-97.58100285,33.37406416,293.12
-97.58100266,33.37407633,299.06
-97.58100092,33.37418336,290.99
-97.58100057,33.37420482,293.52
-97.58100031,33.37422088,292.00
-97.58099885,33.37431050,294.38
-97.58099862,33.37432484,298.43
-97.58099582,33.37449752,291.98
-97.58099470,33.37456632,299.39
-97.58099450,33.37457867,300.47
-97.58099409,33.37460356,294.18
-97.58099356,33.37463656,297.59
-97.58099295,33.37467398,298.24
-97.58099240,33.37470798,297.91
-97.58099029,33.37483773,293.27
-97.58098554,33.37513034,293.99
-97.58098474,33.37517948,294.54
-97.58098205,33.37534503,294.57
-97.58097942,33.37550707,294.70
-97.58097274,33.37592501,295.37
-97.58096581,33.37634475,297.06
-97.58096465,33.37641644,297.39
-97.58096246,33.37655097,297.92
-97.58096233,33.37655891,297.93
-97.58096195,33.37658289,297.99
-97.58096171,33.37659723,298.05
-97.58096071,33.37665918,298.17
-97.58095887,33.37677225,299.03
-97.58095886,33.37677279,303.41
-97.58095853,33.37679299,299.10
-97.58095820,33.37681337,301.89
-97.58095787,33.37683393,304.76
-97.58095614,33.37694006,306.76
-97.58095507,33.37700633,304.44
-97.58095346,33.37710516,298.97
-97.58095346,33.37710534,305.96
-97.58095317,33.37713663,303.21
-97.58095353,33.37716063,305.77
-97.58095426,33.37716208,298.71
-97.58097004,33.37716325,300.50
-97.58102495,33.37716433,299.09
-97.58111620,33.37716537,306.22
-97.58124968,33.37716690,300.07
-97.58143776,33.37716905,304.86
-97.58144625,33.37716915,304.33
-97.58158404,33.37717072,297.97
-97.58172440,33.37717232,307.96
-97.58172773,33.37717236,306.39
-97.58172859,33.37717237,308.15
-97.58173074,33.37717240,307.12
-97.58173257,33.37717242,306.25
-97.58173450,33.37717244,307.46
-97.58173536,33.37717245,304.93
-97.58173708,33.37717247,306.24
-97.58174095,33.37717251,306.47
-97.58174632,33.37717258,306.00
-97.58176599,33.37717280,296.67
-97.58177018,33.37717285,296.71
-97.58177147,33.37717286,300.46
-97.58177513,33.37717291,296.68
-97.58177943,33.37717295,296.71
-97.58178394,33.37717301,296.88
-97.58180576,33.37717325,296.33
-97.58190195,33.37717435,304.87
-97.58191463,33.37717450,304.10
-97.58191904,33.37717455,304.01
-97.58192312,33.37717460,303.74
-97.58193140,33.37717469,303.38
-97.58194064,33.37717480,303.07
-97.58213474,33.37717701,293.88
-97.58238924,33.37717992,293.60
-97.58263256,33.37718270,293.76
-97.58289308,33.37718568,293.30
-97.58303269,33.37718727,292.71
-97.58303807,33.37718733,292.65
-97.58304290,33.37718739,292.59
-97.58304785,33.37718744,292.53
-97.58316048,33.37718873,291.85
-97.58331299,33.37719047,298.16
-97.58341111,33.37719159,293.56
-97.58342863,33.37719179,292.64
-97.58354169,33.37719308,298.00
-97.58357265,33.37719343,296.55
-97.58375697,33.37719554,287.60
-97.58413506,33.37719985,281.19
-97.58431938,33.37720195,284.82
-97.58441880,33.37720309,292.17
-97.58443696,33.37720329,291.32
-97.58455443,33.37720463,285.84
-97.58478185,33.37720723,297.05
-97.58480721,33.37720752,286.75
-97.58481216,33.37720757,286.66
-97.58498175,33.37720951,287.42
-97.58507031,33.37721052,287.80
-97.58525313,33.37721260,288.81
-97.58525915,33.37721267,300.29
-97.58526355,33.37721272,300.28
-97.58527795,33.37721288,299.61
-97.58530730,33.37721322,300.14
-97.58531224,33.37721327,300.06
-97.58533126,33.37721349,296.95
-97.58537221,33.37721396,289.44
-97.58548398,33.37721523,289.64
-97.58568582,33.37721753,289.95
-97.58569077,33.37721759,290.02
-97.58576245,33.37721841,289.80
-97.58592495,33.37722026,293.04
-97.58594398,33.37722047,299.06
-97.58596633,33.37722073,291.10
-97.58599180,33.37722102,291.43
-97.58624168,33.37722387,289.91
-97.58628618,33.37722437,289.39
-97.58629069,33.37722442,289.36
-97.58637302,33.37722536,296.90
-97.58638914,33.37722555,296.07
-97.58643127,33.37722602,294.12
-97.58650640,33.37722688,287.37
-97.58651112,33.37722693,287.38
-97.58659238,33.37722786,286.40
-97.58659732,33.37722792,286.25
-97.58687428,33.37723107,284.14
-97.58688342,33.37723117,284.14
-97.58718618,33.37723462,282.02
-97.58727506,33.37723563,290.69
-97.58736792,33.37723669,286.26
-97.58737351,33.37723675,286.08
-97.58744390,33.37723755,282.72
-97.58751537,33.37723837,279.24
-97.58761640,33.37723952,288.10
-97.58767068,33.37724014,285.28
-97.58774075,33.37724093,291.30
-97.58775494,33.37724109,281.40
-97.58776977,33.37724126,287.11
-97.58777353,33.37724131,286.30
-97.58779255,33.37724152,279.64
-97.58780588,33.37724167,291.20
-97.58781469,33.37724177,279.75
-97.58795527,33.37724337,283.75
-97.58806952,33.37724467,279.90
-97.58807403,33.37724472,279.91
-97.58837034,33.37724810,281.06
-97.58863828,33.37725114,281.30
-97.58894695,33.37725465,282.66
-97.58895167,33.37725471,281.95
-97.58895651,33.37725476,281.87
-97.58895673,33.37725476,281.14
-97.58924745,33.37725807,288.77
-97.58925239,33.37725813,288.36
-97.58925776,33.37725819,287.12
-97.58926282,33.37725824,286.42
-97.58926765,33.37725830,286.00
-97.58950023,33.37726094,293.73
-97.58950506,33.37726100,293.30
-97.58951033,33.37726106,292.87
-97.58951570,33.37726112,292.05
-97.58954870,33.37726149,286.07
-97.58955354,33.37726155,285.76
-97.58955880,33.37726161,284.85
-97.58975570,33.37726385,280.87
-97.58980997,33.37726446,292.30
-97.58981588,33.37726453,291.14
-97.58986683,33.37726511,289.39
-97.58987328,33.37726518,281.92
-97.58987833,33.37726524,281.91
-97.59005835,33.37726728,286.02
-97.59015604,33.37726839,282.31
-97.59016142,33.37726846,282.39
-97.59020226,33.37726892,285.95
-97.59022042,33.37726913,287.22
-97.59024858,33.37726945,289.77
-97.59025417,33.37726951,289.87
-97.59026137,33.37726959,290.56
-97.59028706,33.37726988,292.62
-97.59029307,33.37726995,292.87
-97.59039915,33.37727116,289.68
-97.59041742,33.37727136,286.99
-97.59044300,33.37727165,283.18
-97.59055703,33.37727295,283.45
-97.59057627,33.37727317,284.91
-97.59065118,33.37727402,291.07
-97.59075705,33.37727522,284.88
-97.59076145,33.37727527,284.91
-97.59096189,33.37727755,285.16
-97.59107496,33.37727883,286.25
-97.59134816,33.37728193,287.03
-97.59135321,33.37728199,287.03
-97.59141189,33.37728265,287.57
-97.59141716,33.37728271,287.69
-97.59154269,33.37728414,295.44
-97.59154463,33.37728416,294.78
-97.59157279,33.37728439,291.65
-97.59159751,33.37728449,290.05
-97.59168115,33.37728418,290.40
-97.59169071,33.37728411,290.41
-97.59169653,33.37728363,294.98
-97.59169987,33.37728286,292.81
-97.59170087,33.37722749,295.84
-97.59170369,33.37705292,292.47
-97.59170380,33.37704607,289.51
-97.59170468,33.37699142,289.72
-97.59170521,33.37695860,289.67
-97.59170568,33.37692939,289.30
-97.59170676,33.37686194,289.35
-97.59170990,33.37666726,289.03
-97.59170997,33.37666284,289.06
-97.59171051,33.37662966,290.45
-97.59171059,33.37662470,296.60
-97.59171085,33.37660829,297.77
-97.59171132,33.37657934,297.55
-97.59171166,33.37655851,297.64
-97.59171216,33.37652713,297.99
-97.59171270,33.37649395,300.03
-97.59171271,33.37649332,297.23
-97.59171321,33.37646176,296.03
-97.59171392,33.37641785,296.81
-97.59171450,33.37638223,292.45
-97.59171493,33.37635509,290.87
-97.59171594,33.37629242,298.76
-97.59171661,33.37625103,291.84
-97.59171693,33.37623155,288.19
-97.59171804,33.37616266,291.53
-97.59171817,33.37615428,288.38
-97.59171860,33.37612759,288.48
-97.59171937,33.37607971,293.12
-97.59171961,33.37606501,288.67
-97.59172035,33.37601929,294.28
-97.59172048,33.37601091,288.40
-97.59172293,33.37585897,287.49
-97.59172346,33.37582605,288.44
-97.59172538,33.37570685,287.44
-97.59172579,33.37568196,287.64
-97.59172604,33.37566600,294.09
-97.59172741,33.37558142,295.88
-97.59172888,33.37549026,301.30
-97.59172967,33.37544084,297.84
-97.59172996,33.37542317,298.18
-97.59173043,33.37539405,294.73
-97.59173215,33.37528692,292.10
-97.59173321,33.37522110,289.92
-97.59173488,33.37511767,292.92
-97.59173509,33.37510442,290.26
-97.59173673,33.37500270,286.94
-97.59173825,33.37490865,293.37
-97.59174042,33.37477394,290.85
-97.59174148,33.37470857,290.08
-97.59174315,33.37460487,290.00
-97.59174418,33.37454094,289.95
-97.59174588,33.37443544,290.00
-97.59174605,33.37442462,290.03
-97.59174898,33.37424319,293.08
-97.59175083,33.37412822,289.08
-97.59175194,33.37405933,293.87
-97.59175255,33.37402128,295.95
-97.59175358,33.37395771,288.50
-97.59175372,33.37394878,288.49
-97.59175379,33.37394428,288.50
-97.59175410,33.37392561,288.49
-97.59175510,33.37386357,293.36
-97.59175581,33.37381939,295.87
-97.59175602,33.37380640,294.05
-97.59175631,33.37378801,288.52
-97.59175709,33.37373977,292.09
-97.59175914,33.37361281,292.07
-97.59176001,33.37355834,292.08
-97.59176019,33.37354725,291.72
-97.59176061,33.37352146,293.58
-97.59176156,33.37346276,297.85
-97.59176228,33.37341750,295.94
-97.59176252,33.37340289,296.81
-97.59176252,33.37340280,297.43
-97.59176353,33.37334049,300.29
-97.59176568,33.37320686,296.08
-97.59176687,33.37313310,295.58
-97.59176709,33.37311966,294.34
-97.59176710,33.37311858,300.13
-97.59176716,33.37311506,298.74
-97.59176785,33.37307214,296.62
-97.59176785,33.37307205,298.18
-97.59176893,33.37300496,288.62
-97.59176934,33.37297972,302.15
-97.59176940,33.37297575,294.88
-97.59177032,33.37291867,298.65
-97.59177077,33.37289117,287.01
-97.59177260,33.37277728,298.11
-97.59177269,33.37277169,296.16
-97.59177284,33.37276267,288.54
-97.59177334,33.37273184,294.70
-97.59177352,33.37272020,295.84
-97.59177523,33.37261425,296.98
-97.59177556,33.37259387,292.38
-97.59177562,33.37259000,296.11
-97.59177587,33.37257449,300.71
-97.59177614,33.37255763,299.70
-97.59177641,33.37254140,295.30
-97.59177655,33.37253229,298.81
-97.59177895,33.37238378,292.22
-97.59178048,33.37228865,302.98
-97.59178057,33.37228324,306.32
-97.59178067,33.37227665,293.78
-97.59178080,33.37226854,301.65
-97.59178092,33.37226150,306.83
-97.59178117,33.37224554,300.26
-97.59178152,33.37222399,306.84
-97.59178216,33.37218459,288.24
-97.59178289,33.37213905,288.72
-97.59178445,33.37204230,289.22
-97.59178510,33.37198170,287.19
-97.59179125,33.37156718,286.94
-97.59179323,33.37149054,289.15
-97.59179402,33.37144861,289.77
-97.59179454,33.37141642,287.73
-97.59179669,33.37128261,300.31
-97.59179703,33.37126160,287.21
-97.59179755,33.37122914,287.31
-97.59179996,33.37107990,299.75
-97.59180083,33.37102580,301.77
-97.59180142,33.37098946,288.38
-97.59180320,33.37087864,294.22
-97.59180537,33.37074420,287.56
-97.59180732,33.37062337,287.64
-97.59180778,33.37059460,287.79
-97.59180785,33.37059009,287.86
-97.59180860,33.37054347,287.70
-97.59180886,33.37052733,304.99
-97.59181068,33.37041453,299.71
-97.59181081,33.37040632,296.23
-97.59181131,33.37037585,287.58
-97.59181137,33.37037197,307.58
-97.59181153,33.37036214,297.24
-97.59181166,33.37035394,299.78
-97.59181251,33.37030137,308.86
-97.59181286,33.37027963,291.58
-97.59181358,33.37023482,299.47
-97.59181420,33.37019596,288.21
-97.59181490,33.37015285,303.63
-97.59181512,33.37013933,305.50
-97.59181533,33.37012598,304.52
-97.59181589,33.37009154,301.00
-97.59181764,33.36998297,306.21
-97.59181925,33.36988279,296.33
-97.59181942,33.36987233,300.69
-97.59181971,33.36985439,301.43
-97.59182239,33.36968784,296.05
-97.59182250,33.36968108,307.29
-97.59182266,33.36967143,292.08
-97.59182309,33.36964447,300.68
-97.59182377,33.36960263,306.64
-97.59182488,33.36953365,309.65
-97.59182530,33.36950741,309.72
-97.59182580,33.36947621,310.97
-97.59182581,33.36947585,305.81
-97.59182626,33.36944790,309.29
-97.59182690,33.36940822,293.38
-97.59182705,33.36939893,306.44
-97.59182740,33.36937738,304.38
-97.59182777,33.36935403,301.52
-97.59182799,33.36934077,305.52
-97.59182899,33.36927837,299.03
-97.59182924,33.36926323,300.26
-97.59183116,33.36914402,294.13
-97.59183176,33.36910642,307.05
-97.59183240,33.36906692,307.38
-97.59183260,33.36905430,309.03
-97.59183271,33.36904736,311.62
-97.59183336,33.36900732,292.30
-97.59183624,33.36882869,302.96
-97.59183631,33.36882445,295.01
-97.59183666,33.36880218,294.85
-97.59183700,33.36878162,304.47
-97.59183766,33.36874041,299.50
-97.59183803,33.36871751,307.78
-97.59183823,33.36870498,306.74
-97.59183851,33.36868766,306.74
-97.59183884,33.36866719,306.89
-97.59183899,33.36865773,307.06
-97.59183968,33.36861490,308.85
-97.59184000,33.36859533,310.12
-97.59184071,33.36855096,295.40
-97.59184101,33.36853248,310.29
-97.59184180,33.36848370,304.73
-97.59184196,33.36847360,303.75
-97.59184218,33.36845962,310.70
-97.59184250,33.36844032,307.02
-97.59184281,33.36842076,295.68
-97.59184315,33.36839948,308.84
-97.59184318,33.36839758,308.75
-97.59184348,33.36837928,306.94
-97.59184435,33.36832536,296.56
-97.59184442,33.36832112,295.83
-97.59184488,33.36828595,304.87
-97.59184504,33.36826891,306.40
-97.59156929,33.36826578,296.66
-97.59156445,33.36826572,296.63
-97.59149234,33.36826490,304.78
-97.59145151,33.36826444,297.08
-97.59144302,33.36826435,300.36
-97.59143947,33.36826430,301.77
-97.59143883,33.36826430,300.03
-97.59143399,33.36826424,301.93
-97.59143270,33.36826423,302.43
-97.59143012,33.36826420,301.50
-97.59142819,33.36826418,302.27
-97.59141723,33.36826405,302.08
-97.59139219,33.36826377,301.21
-97.59094986,33.36825875,299.07
-97.59094524,33.36825870,299.09
-97.59086722,33.36825781,299.48
-97.59086228,33.36825775,299.50
-97.59067615,33.36825564,300.52
-97.59020976,33.36825034,301.70
-97.59020492,33.36825029,301.71
-97.59009832,33.36824908,302.21
-97.59009380,33.36824903,302.22
-97.58961107,33.36824354,303.59
-97.58960656,33.36824349,303.63
-97.58960183,33.36824344,303.68
-97.58959990,33.36824342,306.21
-97.58959635,33.36824338,304.92
-97.58959442,33.36824335,307.60
-97.58958979,33.36824330,307.43
-97.58910028,33.36823864,305.00
-97.58904150,33.36823752,305.20
-97.58899186,33.36823660,305.16
-97.58897327,33.36823629,305.17
-97.58897295,33.36823629,307.38
-97.58896338,33.36823618,308.42
-97.58895898,33.36823613,308.13
-97.58895425,33.36823608,311.16
-97.58894952,33.36823602,310.87
-97.58894931,33.36823602,312.44
-97.58894501,33.36823597,312.07
-97.58843670,33.36823019,304.24
-97.58843230,33.36823014,304.25
-97.58793785,33.36822470,302.81
-97.58784157,33.36822342,308.66
-97.58781685,33.36822314,310.12
-97.58779245,33.36822286,302.19
-97.58777214,33.36822263,309.85
-97.58760643,33.36822075,314.65
-97.58760052,33.36822068,314.91
-97.58753379,33.36821992,311.01
-97.58751487,33.36821971,299.90
-97.58726309,33.36821684,309.10
-97.58725997,33.36821681,310.03
-97.58725793,33.36821678,311.49
-97.58725298,33.36821673,311.27
-97.58724922,33.36821668,311.62
-97.58720097,33.36821613,309.57
-97.58711565,33.36821516,301.23
-97.58698647,33.36821369,302.15
-97.58681485,33.36821174,303.01
-97.58674457,33.36821094,303.25
-97.58674006,33.36821089,303.27
-97.58673501,33.36821083,303.26
-97.58666516,33.36821003,303.30
-97.58648139,33.36820794,304.01
-97.58647591,33.36820788,304.40
-97.58624121,33.36820521,308.54
-97.58620413,33.36820478,310.80
-97.58618844,33.36820460,311.75
-97.58613944,33.36820405,305.33
-97.58602521,33.36820275,305.90
-97.58602048,33.36820269,305.91
-97.58598888,33.36820233,313.63
-97.58596234,33.36820203,316.09
-97.58594708,33.36820186,317.23
-97.58586573,33.36820093,309.66
-97.58574763,33.36819958,307.81
-97.58563694,33.36819832,314.66
-97.58561663,33.36819809,315.94
-97.58561158,33.36819803,316.17
-97.58558321,33.36819771,309.16
-97.58548423,33.36819658,315.41
-97.58545027,33.36819619,317.34
-97.58540353,33.36819566,310.05
-97.58537688,33.36819536,310.22
-97.58537215,33.36819530,310.34
-97.58536753,33.36819525,310.41
-97.58536334,33.36819520,313.44
-97.58535871,33.36819515,313.50
-97.58535646,33.36819513,312.86
-97.58535560,33.36819512,315.47
-97.58535485,33.36819511,313.79
-97.58535474,33.36819511,313.09
-97.58535087,33.36819506,315.58
-97.58534990,33.36819505,316.80
-97.58534646,33.36819501,317.23
-97.58534517,33.36819500,315.45
-97.58534302,33.36819497,317.71
-97.58522868,33.36819367,311.17
-97.58514250,33.36819269,316.52
-97.58512799,33.36819252,317.56
-97.58512337,33.36819247,317.69
-97.58499871,33.36819105,312.82
-97.58499387,33.36819099,313.11
-97.58486191,33.36818949,313.49
-97.58485761,33.36818944,313.62
-97.58448138,33.36818515,315.62
-97.58427333,33.36818278,317.15
-97.58412363,33.36818107,317.40
-97.58407935,33.36818056,320.00
-97.58407516,33.36818052,320.26
-97.58399983,33.36817966,324.79
-97.58395706,33.36817917,317.99
-97.58386969,33.36817817,323.21
-97.58386539,33.36817812,323.46
-97.58383015,33.36817772,325.54
-97.58377824,33.36817713,328.54
-97.58371473,33.36817640,320.27
-97.58365820,33.36817576,323.50
-97.58363714,33.36817552,324.80
-97.58362392,33.36817537,325.57
-97.58347025,33.36817361,325.58
-97.58346616,33.36817357,325.80
-97.58321277,33.36817068,320.97
-97.58320954,33.36817064,330.44
-97.58319235,33.36817044,331.54
-97.58318353,33.36817034,332.02
-97.58317547,33.36817025,332.52
-97.58317118,33.36817020,332.67
-97.58309982,33.36816939,321.02
-97.58308778,33.36816925,323.08
-97.58305898,33.36816892,327.23
-97.58305200,33.36816884,330.24
-97.58304974,33.36816881,328.60
-97.58304491,33.36816876,328.67
-97.58304372,33.36816875,330.88
-97.58303986,33.36816870,330.16
-97.58303975,33.36816870,331.07
-97.58303534,33.36816865,330.03
-97.58303126,33.36816860,331.23
-97.58302610,33.36816854,331.42
-97.58301912,33.36816846,322.31
-97.58289242,33.36816702,319.90
-97.58288693,33.36816696,320.10
-97.58285674,33.36816661,325.12
-97.58285212,33.36816656,325.09
-97.58283933,33.36816641,327.73
-97.58283471,33.36816636,327.75
-97.58278474,33.36816579,324.53
-97.58276378,33.36816555,325.69
-97.58273143,33.36816518,319.80
-97.58264665,33.36816421,317.98
-97.58264181,33.36816416,318.01
-97.58263912,33.36816413,325.26
-97.58263891,33.36816412,318.98
-97.58257088,33.36816335,317.56
-97.58249781,33.36816251,317.21
-97.58245826,33.36816206,323.93
-97.58244870,33.36816195,324.81
-97.58244515,33.36816191,324.64
-97.58243720,33.36816182,325.11
-97.58243655,33.36816181,325.88
-97.58242731,33.36816171,327.49
-97.58229707,33.36816022,324.08
-97.58228041,33.36816003,325.15
-97.58225913,33.36815979,315.51
-97.58224613,33.36815964,315.54
-97.58218702,33.36815896,325.66
-97.58211792,33.36815817,315.12
-97.58202153,33.36815707,320.40
-97.58201734,33.36815702,314.08
-97.58201261,33.36815697,314.14
-97.58196296,33.36815640,321.72
-97.58183121,33.36815490,321.36
-97.58179134,33.36815444,312.56
-97.58178618,33.36815438,312.63
-97.58171665,33.36815359,322.55
-97.58171031,33.36815352,323.38
-97.58166475,33.36815300,319.22
-97.58165196,33.36815285,319.92
-97.58163487,33.36815265,311.84
-97.58160661,33.36815233,322.57
-97.58159017,33.36815214,323.56
-97.58158608,33.36815210,323.80
-97.58150903,33.36815122,318.68
-97.58150377,33.36815116,317.93
-97.58149205,33.36815102,319.71
-97.58135493,33.36814946,309.90
-97.58133451,33.36814922,309.86
-97.58131775,33.36814903,310.84
-97.58129690,33.36814879,320.50
-97.58128852,33.36814870,320.91
-97.58127584,33.36814855,320.35
-97.58127132,33.36814850,320.55
-97.58110089,33.36814655,308.16
-97.58109987,33.36814925,319.32
-97.58109907,33.36815248,308.12
-97.58109811,33.36819847,315.98
-97.58109757,33.36823129,319.52
-97.58109693,33.36827124,316.77
-97.58109506,33.36838629,316.59
-97.58109499,33.36839026,307.52
-97.58109448,33.36842155,307.35
-97.58109359,33.36847700,318.62
-97.58109280,33.36852507,307.05
-97.58109169,33.36859342,312.71
-97.58109098,33.36863724,320.69
-97.58108947,33.36873056,315.88
-97.58108893,33.36876366,306.35
-97.58108884,33.36876925,313.88
-97.58108804,33.36881821,314.01
-97.58108701,33.36888169,314.65
-97.58108646,33.36891605,313.80
-97.58108582,33.36895545,315.05
-97.58108473,33.36902254,305.36
-97.58108470,33.36902434,305.34
-97.58108414,33.36905861,305.22
-97.58108376,33.36908223,314.57
-97.58108327,33.36911253,313.83
-97.58108134,33.36923092,304.03
-97.58107805,33.36943345,303.40
-97.58107606,33.36955617,308.52
-97.58107434,33.36966230,306.71
-97.58107426,33.36966726,304.85
-97.58107398,33.36968448,302.60
-97.58107219,33.36979440,302.07
-97.58107087,33.36987600,301.70
-97.58107046,33.36990134,301.50
-97.58106925,33.36997555,300.68
-97.58106779,33.37006563,299.61
-97.58106706,33.37011072,300.03
-97.58106416,33.37028935,299.01
-97.58106341,33.37033560,298.48
-97.58106150,33.37045264,298.80
-97.58106057,33.37051008,299.55
-97.58106003,33.37054345,299.83
-97.58105521,33.37084029,302.08
-97.58105376,33.37092974,296.93
-97.58105313,33.37096833,296.78
-97.58105227,33.37102117,304.17
-97.58105071,33.37111720,306.14
-97.58105064,33.37112171,305.84
-97.58104779,33.37129745,301.71
-97.58104729,33.37132793,301.39
-97.58104715,33.37133650,303.04
-97.58104689,33.37135273,295.14
-97.58104688,33.37135327,295.03
-97.58104672,33.37136310,302.41
-97.58104622,33.37139421,305.05
-97.58104618,33.37139655,303.08
-97.58104540,33.37144425,303.01
-97.58104462,33.37149276,304.17
-97.58104414,33.37152189,294.48
-97.58104338,33.37156905,307.37
-97.58104269,33.37161152,302.84
-97.58104241,33.37162829,294.17
-97.58104238,33.37163009,304.20
-97.58104135,33.37169375,294.10
-97.58104132,33.37169574,302.11
-97.58104125,33.37169970,299.52
-97.58103740,33.37193712,293.53
-97.58103711,33.37195480,293.45
-97.58103694,33.37196526,302.34
-97.58103593,33.37202775,295.89
-97.58103549,33.37205471,293.45
-97.58103402,33.37214524,304.98
-97.58103368,33.37216634,301.54
-97.58103311,33.37220105,298.96
-97.58103246,33.37224118,304.02
-97.58102959,33.37241818,295.55
-97.58102950,33.37242368,295.80
-97.58102858,33.37248031,303.65
-97.58102820,33.37250331,301.74
-97.58102591,33.37264469,291.60
-97.58102522,33.37268680,291.71
-97.58102493,33.37270466,291.47
-97.58102464,33.37272305,291.44
-97.58102453,33.37272927,291.45
-97.58102450,33.37273126,297.67
-97.58102408,33.37275750,301.37
-97.58102385,33.37277165,300.83
     </coordinates>
    </LineString>
   </MultiGeometry>
  </Placemark>
 </Document>
</kml>
