<kml>
 <Document>
  <Style id="yellow">
   <LineStyle>
   <color>ff00ffff</color>
   <width>1</width>
   </LineStyle>
  </Style>
  <Style id="red">
   <LineStyle>
   <color>ffff0000</color>
   <width>2</width>
   </LineStyle>
  </Style>
  <Style id="green">
   <LineStyle>
   <color>ff00ff00</color>
   <width>1</width>
   </LineStyle>
  </Style>
  <Placemark>
  <styleUrl>#yellow</styleUrl>
   <MultiGeometry>
    <LineString>
     <coordinates>
-97.62923726,33.35966857,321.11
-97.62926735,33.35966890,327.15
-97.62928530,33.35966910,326.30
-97.62936879,33.35967002,322.82
-97.62943509,33.35967075,320.11
-97.62969449,33.35967362,318.95
-97.62991423,33.35967604,317.23
-97.62991853,33.35967609,317.19
-97.63015730,33.35967872,316.06
-97.63035631,33.35968092,315.13
-97.63055134,33.35968307,314.55
-97.63055574,33.35968312,314.53
-97.63060012,33.35968361,314.23
-97.63074132,33.35968517,313.86
-97.63074594,33.35968522,313.79
-97.63089262,33.35968684,313.07
-97.63093087,33.35968726,312.90
-97.63114148,33.35968958,311.97
-97.63114600,33.35968963,311.90
-97.63115567,33.35968974,311.96
-97.63123046,33.35969056,311.66
-97.63133512,33.35969171,311.39
-97.63158195,33.35969444,310.28
-97.63186445,33.35969755,311.47
-97.63188991,33.35969783,310.36
-97.63189507,33.35969789,310.22
-97.63209612,33.35970010,308.90
-97.63229491,33.35970229,307.24
-97.63245352,33.35970404,308.78
-97.63281554,33.35970803,309.38
-97.63282070,33.35970808,309.24
-97.63282682,33.35970815,308.89
-97.63285970,33.35970851,309.60
-97.63292213,33.35970920,308.13
-97.63298757,33.35970992,308.95
-97.63307397,33.35971087,308.92
-97.63308762,33.35971102,310.09
-97.63309353,33.35971109,309.78
-97.63311136,33.35971128,308.99
-97.63329468,33.35971330,309.50
-97.63334777,33.35971389,309.59
-97.63337764,33.35971422,318.81
-97.63337818,33.35971422,311.40
-97.63338881,33.35971434,316.53
-97.63340461,33.35971451,313.39
-97.63343147,33.35971481,316.29
-97.63346210,33.35971515,310.07
-97.63369968,33.35971776,310.81
-97.63373891,33.35971819,310.97
-97.63382079,33.35971909,312.79
-97.63391889,33.35972017,311.57
-97.63396671,33.35972070,311.44
-97.63407084,33.35972185,312.16
-97.63412360,33.35972243,312.52
-97.63437236,33.35972516,316.76
-97.63437719,33.35972522,315.55
-97.63438729,33.35972533,313.09
-97.63445983,33.35972613,313.48
-97.63448658,33.35972642,314.47
-97.63457900,33.35972744,314.76
-97.63460554,33.35972773,316.22
-97.63466754,33.35972841,315.22
-97.63486311,33.35973056,314.47
-97.63491383,33.35973112,314.99
-97.63491845,33.35973117,315.08
-97.63491909,33.35973118,315.04
-97.63492425,33.35973123,315.11
-97.63492941,33.35973129,315.16
-97.63496036,33.35973154,315.48
-97.63497186,33.35973140,315.56
-97.63497279,33.35970651,315.44
-97.63497298,33.35969434,315.32
-97.63497738,33.35941201,315.02
-97.63497832,33.35935204,315.28
-97.63497995,33.35924789,313.81
-97.63498060,33.35920605,313.09
-97.63498328,33.35903419,313.03
-97.63498370,33.35900731,312.92
-97.63498515,33.35891480,319.96
-97.63498553,33.35889027,312.39
-97.63498876,33.35868350,311.39
-97.63498961,33.35862922,317.84
-97.63498969,33.35862417,316.33
-97.63499203,33.35847430,310.46
-97.63499604,33.35821695,309.40
-97.63499892,33.35803254,308.79
-97.63499969,33.35798367,308.63
-97.63500090,33.35790621,308.27
-97.63500141,33.35787303,308.11
-97.63500230,33.35781649,307.90
-97.63500298,33.35777276,307.69
-97.63500461,33.35766834,307.24
-97.63500544,33.35761504,307.12
-97.63500668,33.35753605,306.90
-97.63500840,33.35742550,306.27
-97.63500949,33.35735598,306.05
-97.63501018,33.35731170,305.85
-97.63501076,33.35727455,305.75
-97.63501094,33.35726319,305.69
-97.63501301,33.35713027,305.53
-97.63501389,33.35707383,305.39
-97.63501540,33.35697707,304.39
-97.63501595,33.35694181,303.61
-97.63502281,33.35650276,303.03
-97.63502318,33.35647905,304.12
-97.63502801,33.35616254,301.89
-97.63503108,33.35597300,309.56
-97.63503456,33.35575000,303.62
-97.63503519,33.35570942,307.22
-97.63503572,33.35567569,299.10
-97.63503645,33.35562926,305.94
-97.63503703,33.35559165,304.76
-97.63503767,33.35555072,300.36
-97.63503783,33.35554044,299.06
-97.63503784,33.35554017,299.05
-97.63503784,33.35553971,299.07
-97.63503787,33.35553818,302.32
-97.63503788,33.35553755,302.30
-97.63503789,33.35553647,302.28
-97.63503797,33.35553178,299.64
-97.63503809,33.35552384,295.98
-97.63503826,33.35551293,295.59
-97.63503905,33.35546235,296.38
-97.63503911,33.35545838,294.47
-97.63504050,33.35536956,296.86
-97.63504057,33.35536532,303.03
-97.63504080,33.35535062,303.68
-97.63504090,33.35534413,303.51
-97.63504329,33.35519093,302.00
-97.63504357,33.35517298,296.16
-97.63504439,33.35512023,299.62
-97.63504611,33.35500986,306.02
-97.63504772,33.35490724,307.93
-97.63504984,33.35477126,305.40
-97.63505021,33.35474781,306.32
-97.63505057,33.35472455,307.18
-97.63505119,33.35468496,305.11
-97.63505163,33.35465629,305.14
-97.63505178,33.35464709,297.96
-97.63505467,33.35446215,298.39
-97.63505487,33.35444871,300.81
-97.63505691,33.35431859,297.43
-97.63505704,33.35430975,297.22
-97.63505796,33.35425123,294.18
-97.63506091,33.35406241,301.42
-97.63506126,33.35403942,301.64
-97.63506165,33.35401489,298.81
-97.63506209,33.35398630,298.99
-97.63506325,33.35391191,298.02
-97.63506457,33.35382751,298.17
-97.63506672,33.35368973,298.33
-97.63507208,33.35334626,298.89
-97.63507527,33.35314247,299.05
-97.63507735,33.35300883,299.19
-97.63507905,33.35290026,299.29
-97.63507930,33.35288412,299.33
-97.63508119,33.35276302,299.38
-97.63508256,33.35267501,299.27
-97.63508804,33.35232379,298.81
-97.63508860,33.35228808,298.84
-97.63509449,33.35190385,298.29
-97.63509781,33.35169798,298.17
-97.63510105,33.35149077,297.63
-97.63510588,33.35118129,296.75
-97.63510637,33.35114946,296.64
-97.63510933,33.35095992,296.36
-97.63511141,33.35082709,296.12
-97.63511250,33.35074350,301.92
-97.63511231,33.35072095,303.16
-97.63511181,33.35071842,296.98
-97.63510843,33.35071487,296.75
-97.63499970,33.35071340,307.14
-97.63484981,33.35071166,297.03
-97.63479964,33.35071111,306.20
-97.63450739,33.35070790,302.79
-97.63437040,33.35070639,293.95
-97.63415132,33.35070398,292.51
-97.63411672,33.35070360,302.19
-97.63391247,33.35070135,296.28
-97.63381201,33.35070025,303.03
-97.63364009,33.35069836,303.41
-97.63353942,33.35069725,300.45
-97.63351589,33.35069699,299.80
-97.63349085,33.35069671,293.73
-97.63348591,33.35069666,293.56
-97.63301992,33.35069153,299.40
-97.63300187,33.35069133,300.11
-97.63298855,33.35069118,299.58
-97.63296760,33.35069095,302.22
-97.63296276,33.35069090,302.07
-97.63278451,33.35068894,304.90
-97.63262979,33.35068723,301.79
-97.63260551,33.35068697,301.02
-97.63250515,33.35068586,294.93
-97.63250075,33.35068581,294.81
-97.63241641,33.35068488,295.29
-97.63228575,33.35068344,295.44
-97.63224836,33.35068303,296.76
-97.63224385,33.35068298,296.64
-97.63221753,33.35068269,295.60
-97.63202939,33.35068062,298.17
-97.63200822,33.35068039,295.94
-97.63196320,33.35067989,295.84
-97.63188058,33.35067898,296.90
-97.63166096,33.35067656,297.60
-97.63165237,33.35067646,297.33
-97.63160864,33.35067598,295.70
-97.63151140,33.35067491,292.26
-97.63150678,33.35067486,292.15
-97.63132745,33.35067288,292.48
-97.63123913,33.35067191,292.67
-97.63120980,33.35067159,292.68
-97.63108731,33.35067024,292.97
-97.63093625,33.35066857,293.50
-97.63084642,33.35066758,293.67
-97.63072190,33.35066621,295.57
-97.63070922,33.35066607,296.93
-97.63070911,33.35066606,293.32
-97.63065506,33.35066547,293.17
-97.63059780,33.35066484,293.26
-97.63043835,33.35066308,292.64
-97.63040074,33.35066266,295.14
-97.63037958,33.35066243,294.24
-97.63026558,33.35066117,302.14
-97.63026085,33.35066112,301.90
-97.63007336,33.35065905,295.08
-97.63000750,33.35065833,302.62
-97.62991778,33.35065734,299.35
-97.62990747,33.35065722,309.53
-97.62986040,33.35065670,287.36
-97.62960608,33.35065390,298.42
-97.62938958,33.35065151,300.97
-97.62936691,33.35065126,300.20
-97.62904436,33.35064778,299.12
-97.62862544,33.35064307,294.59
-97.62851842,33.35064189,301.06
-97.62851703,33.35064187,299.31
-97.62851241,33.35064182,298.96
-97.62848436,33.35064151,300.58
-97.62841861,33.35064078,307.75
-97.62841366,33.35064073,307.55
-97.62838122,33.35064037,308.99
-97.62837563,33.35064031,309.08
-97.62837090,33.35064026,308.96
-97.62835231,33.35064005,308.50
-97.62833910,33.35063990,307.96
-97.62831310,33.35063962,303.77
-97.62830139,33.35063949,296.12
-97.62829601,33.35063943,296.15
-97.62828301,33.35063928,306.68
-97.62825948,33.35063902,306.26
-97.62819856,33.35063835,309.56
-97.62812303,33.35063752,296.61
-97.62811809,33.35063746,296.57
-97.62810584,33.35063733,306.07
-97.62808660,33.35063711,305.36
-97.62808134,33.35063706,302.58
-97.62806769,33.35063691,302.17
-97.62804040,33.35063660,301.43
-97.62803503,33.35063654,301.67
-97.62802600,33.35063644,301.23
-97.62796605,33.35063578,299.80
-97.62794370,33.35063554,299.97
-97.62792909,33.35063537,299.47
-97.62790072,33.35063506,298.31
-97.62786914,33.35063471,297.16
-97.62785366,33.35063454,297.21
-97.62784894,33.35063449,297.23
-97.62784378,33.35063443,297.21
-97.62783905,33.35063438,297.22
-97.62776180,33.35063353,304.02
-97.62775675,33.35063347,303.93
-97.62768122,33.35063263,300.96
-97.62764855,33.35063227,307.84
-97.62763963,33.35063217,307.48
-97.62763555,33.35063213,307.13
-97.62761718,33.35063193,306.97
-97.62761310,33.35063188,306.66
-97.62760794,33.35063182,307.69
-97.62760278,33.35063177,306.73
-97.62754852,33.35063117,305.43
-97.62754659,33.35063115,305.34
-97.62754347,33.35063111,305.40
-97.62735630,33.35062904,300.61
-97.62731075,33.35062854,296.56
-97.62730570,33.35062848,296.33
-97.62724983,33.35062787,298.55
-97.62720545,33.35062737,297.13
-97.62720019,33.35062732,297.18
-97.62719535,33.35062726,297.18
-97.62707598,33.35062594,297.54
-97.62707351,33.35062592,309.13
-97.62706846,33.35062586,308.93
-97.62699959,33.35062510,306.32
-97.62690912,33.35062410,302.90
-97.62690343,33.35062404,302.58
-97.62689483,33.35062394,309.11
-97.62684326,33.35062337,309.86
-97.62683552,33.35062328,307.77
-97.62683208,33.35062325,309.44
-97.62682703,33.35062319,307.39
-97.62682155,33.35062313,307.70
-97.62681790,33.35062309,307.28
-97.62680887,33.35062299,307.01
-97.62680404,33.35062294,307.18
-97.62679963,33.35062289,307.11
-97.62679555,33.35062284,306.92
-97.62678126,33.35062268,306.66
-97.62677686,33.35062264,306.61
-97.62676010,33.35062245,305.30
-97.62674204,33.35062225,304.86
-97.62674065,33.35062223,306.05
-97.62673549,33.35062218,305.83
-97.62673323,33.35062215,304.68
-97.62672904,33.35062211,304.56
-97.62672421,33.35062205,304.44
-97.62670981,33.35062189,304.44
-97.62670562,33.35062185,304.08
-97.62670046,33.35062179,304.18
-97.62668714,33.35062164,303.82
-97.62668252,33.35062159,303.88
-97.62657604,33.35062041,299.62
-97.62655284,33.35062016,308.80
-97.62652920,33.35061990,299.86
-97.62652458,33.35061984,299.84
-97.62651974,33.35061979,299.85
-97.62651480,33.35061974,299.86
-97.62650986,33.35061968,299.90
-97.62650534,33.35061963,299.84
-97.62643615,33.35061887,304.29
-97.62634805,33.35061789,309.11
-97.62634686,33.35061788,300.96
-97.62632527,33.35061764,308.66
-97.62632043,33.35061759,308.92
-97.62631624,33.35061754,308.45
-97.62631141,33.35061749,308.40
-97.62629830,33.35061734,307.91
-97.62628422,33.35061719,308.12
-97.62627187,33.35061705,307.39
-97.62626692,33.35061699,307.42
-97.62621277,33.35061640,306.02
-97.62615808,33.35061579,304.99
-97.62614884,33.35061569,304.97
-97.62612940,33.35061547,312.97
-97.62611167,33.35061528,312.12
-97.62575313,33.35061131,309.18
-97.62571681,33.35061091,308.08
-97.62570757,33.35061080,308.11
-97.62556263,33.35060920,304.42
-97.62555382,33.35060910,304.30
-97.62554930,33.35060905,304.39
-97.62541554,33.35060757,314.01
-97.62539792,33.35060738,313.34
-97.62539308,33.35060732,313.50
-97.62538868,33.35060727,313.43
-97.62535741,33.35060693,312.25
-97.62534344,33.35060677,312.30
-97.62532539,33.35060657,311.93
-97.62528467,33.35060612,310.60
-97.62526651,33.35060592,310.05
-97.62519839,33.35060517,308.20
-97.62484683,33.35060127,312.64
-97.62479214,33.35060067,311.39
-97.62478731,33.35060061,311.51
-97.62478269,33.35060056,311.34
-97.62477807,33.35060051,310.98
-97.62475980,33.35060031,310.74
-97.62475056,33.35060021,310.67
-97.62466343,33.35059924,308.23
-97.62456587,33.35059816,305.69
-97.62456114,33.35059811,305.67
-97.62455663,33.35059806,305.65
-97.62455233,33.35059801,305.59
-97.62454749,33.35059796,305.57
-97.62448313,33.35059743,305.13
-97.62439986,33.35059677,304.77
-97.62437246,33.35059656,304.53
-97.62437168,33.35059854,304.51
-97.62436953,33.35060500,304.46
-97.62436823,33.35063340,304.33
-97.62436741,33.35068525,304.64
-97.62436603,33.35077290,305.52
-97.62436556,33.35080310,306.84
-97.62436349,33.35093458,311.59
-97.62436125,33.35107687,315.22
-97.62436062,33.35111673,307.88
-97.62436035,33.35113377,308.06
-97.62435943,33.35119274,306.82
-97.62435785,33.35129319,306.18
-97.62435441,33.35151141,306.22
-97.62435119,33.35171619,308.66
-97.62435065,33.35175073,317.30
-97.62435004,33.35178932,319.18
-97.62434998,33.35179338,308.50
-97.62434951,33.35182341,317.10
-97.62434794,33.35192296,308.74
-97.62434787,33.35192738,310.41
-97.62434688,33.35199050,315.30
-97.62434557,33.35207364,310.74
-97.62434121,33.35235056,308.92
-97.62434057,33.35239122,309.08
-97.62433815,33.35254551,309.50
-97.62433808,33.35254993,309.49
-97.62433628,33.35266400,309.02
-97.62433574,33.35269871,315.12
-97.62433311,33.35286589,317.78
-97.62433289,33.35287978,316.74
-97.62433283,33.35288330,310.99
-97.62433261,33.35289727,307.55
-97.62433208,33.35293091,318.45
-97.62432978,33.35307699,306.99
-97.62432583,33.35332857,307.67
-97.62432369,33.35346464,313.01
-97.62432268,33.35352830,309.73
-97.62431912,33.35375508,312.92
-97.62431461,33.35404165,314.29
-97.62431021,33.35432119,314.26
-97.62430919,33.35438611,314.07
-97.62430797,33.35446384,313.75
-97.62430624,33.35457376,318.17
-97.62430572,33.35460631,318.36
-97.62430168,33.35486358,315.67
-97.62430009,33.35496466,313.88
-97.62429908,33.35502850,310.84
-97.62429812,33.35508937,318.01
-97.62429714,33.35515186,311.79
-97.62429454,33.35531705,309.49
-97.62429305,33.35541192,307.56
-97.62429289,33.35542228,312.49
-97.62429250,33.35544663,315.78
-97.62429100,33.35554203,318.71
-97.62429020,33.35559307,312.99
-97.62428841,33.35570678,315.10
-97.62428776,33.35574790,316.21
-97.62428690,33.35580245,313.24
-97.62428569,33.35587982,315.63
-97.62428448,33.35595647,315.39
-97.62428213,33.35610561,318.93
-97.62428176,33.35612915,317.80
-97.62428059,33.35620354,319.51
-97.62427898,33.35630580,324.13
-97.62427825,33.35635260,319.21
-97.62427556,33.35652311,319.43
-97.62427512,33.35655125,318.54
-97.62427381,33.35663447,311.00
-97.62427371,33.35664106,319.04
-97.62427337,33.35666279,310.17
-97.62427313,33.35667767,310.13
-97.62427209,33.35674385,309.44
-97.62426540,33.35716875,310.28
-97.62426264,33.35734431,309.44
-97.62426212,33.35737750,309.19
-97.62426071,33.35746722,307.99
-97.62425984,33.35752213,309.90
-97.62425812,33.35763169,319.32
-97.62425604,33.35776388,308.45
-97.62425592,33.35777155,317.60
-97.62425146,33.35805478,310.01
-97.62424747,33.35830871,317.61
-97.62424670,33.35835740,310.98
-97.62424605,33.35839888,316.07
-97.62424589,33.35840889,312.77
-97.62424286,33.35860799,308.35
-97.62423870,33.35886570,309.54
-97.62423354,33.35920051,311.89
-97.62422728,33.35959836,314.48
-97.62423059,33.35961309,314.62
-97.62423521,33.35961314,314.62
-97.62423994,33.35961320,314.66
-97.62424435,33.35961325,314.69
-97.62424907,33.35961330,314.73
-97.62425370,33.35961335,314.77
-97.62425853,33.35961340,314.78
-97.62429851,33.35961376,314.97
-97.62433064,33.35961402,315.05
-97.62436180,33.35961428,315.10
-97.62442509,33.35961480,315.21
-97.62465011,33.35961675,316.11
-97.62474027,33.35961757,316.68
-97.62489265,33.35961899,317.86
-97.62494229,33.35961944,318.24
-97.62499602,33.35961995,318.68
-97.62505405,33.35962050,319.24
-97.62510735,33.35962100,319.65
-97.62515205,33.35962141,319.97
-97.62520202,33.35962187,320.34
-97.62524586,33.35962227,320.58
-97.62527756,33.35962253,320.68
-97.62530411,33.35962273,320.67
-97.62533140,33.35962294,320.64
-97.62535794,33.35962315,320.55
-97.62538030,33.35962330,320.44
-97.62542049,33.35962357,320.19
-97.62544295,33.35962373,320.04
-97.62546584,33.35962389,320.01
-97.62550592,33.35962415,319.66
-97.62552881,33.35962432,319.51
-97.62555105,33.35962447,319.38
-97.62608624,33.35963373,316.66
-97.62609107,33.35963379,316.52
-97.62609591,33.35963384,316.45
-97.62610827,33.35963398,316.10
-97.62633962,33.35963654,317.92
-97.62636605,33.35963683,317.08
-97.62664178,33.35963988,314.39
-97.62666811,33.35964017,313.50
-97.62667230,33.35964022,313.38
-97.62667660,33.35964027,313.22
-97.62684906,33.35964217,314.08
-97.62693449,33.35964312,324.63
-97.62701186,33.35964398,321.70
-97.62701626,33.35964402,321.53
-97.62744200,33.35964873,316.34
-97.62744673,33.35964878,316.40
-97.62745114,33.35964883,316.48
-97.62745576,33.35964888,316.56
-97.62746070,33.35964894,316.59
-97.62746543,33.35964899,316.62
-97.62747016,33.35964904,316.64
-97.62747456,33.35964909,316.65
-97.62747907,33.35964914,316.69
-97.62748337,33.35964919,316.74
-97.62748832,33.35964924,316.79
-97.62749261,33.35964929,316.87
-97.62749745,33.35964934,316.91
-97.62750175,33.35964939,316.97
-97.62750626,33.35964944,317.04
-97.62759373,33.35965041,317.42
-97.62776974,33.35965235,318.82
-97.62793007,33.35965413,320.13
-97.62803376,33.35965527,326.48
-97.62805643,33.35965552,326.92
-97.62807019,33.35965568,321.35
-97.62824050,33.35965756,322.72
-97.62827134,33.35965790,327.68
-97.62837859,33.35965908,323.35
-97.62856889,33.35966119,326.61
-97.62865013,33.35966208,323.38
-97.62885687,33.35966437,322.82
-97.62886805,33.35966449,330.88
-97.62887696,33.35966459,330.40
-97.62889437,33.35966478,329.86
-97.62891156,33.35966497,329.10
-97.62906705,33.35966669,328.01
-97.62912390,33.35966732,325.70
-97.62913679,33.35966746,325.22
-97.62923726,33.35966857,321.11
     </coordinates>
    </LineString>
   </MultiGeometry>
  </Placemark>
 </Document>
</kml>
