<kml>
 <Document>
  <Style id="yellow">
   <LineStyle>
   <color>ff00ffff</color>
   <width>1</width>
   </LineStyle>
  </Style>
  <Style id="red">
   <LineStyle>
   <color>ffff0000</color>
   <width>2</width>
   </LineStyle>
  </Style>
  <Style id="green">
   <LineStyle>
   <color>ff00ff00</color>
   <width>1</width>
   </LineStyle>
  </Style>
  <Placemark>
  <styleUrl>#yellow</styleUrl>
   <MultiGeometry>
    <LineString>
     <coordinates>
-97.59424592,33.37731479,290.05
-97.59425086,33.37731484,290.08
-97.59448774,33.37731753,291.59
-97.59449247,33.37731758,291.68
-97.59471462,33.37732010,292.09
-97.59471946,33.37732015,292.10
-97.59472429,33.37732021,292.11
-97.59484456,33.37732157,292.40
-97.59518945,33.37732547,293.86
-97.59519450,33.37732553,293.89
-97.59525103,33.37732617,294.13
-97.59557948,33.37732989,294.19
-97.59558442,33.37732994,294.19
-97.59560301,33.37733015,294.22
-97.59564966,33.37733068,298.08
-97.59565192,33.37733070,298.03
-97.59602464,33.37733492,293.05
-97.59616468,33.37733651,298.85
-97.59622605,33.37733720,301.98
-97.59623583,33.37733731,302.55
-97.59624056,33.37733736,302.73
-97.59649732,33.37734027,289.75
-97.59650194,33.37734032,289.75
-97.59669024,33.37734245,290.06
-97.59674924,33.37734312,295.08
-97.59676107,33.37734325,296.12
-97.59723020,33.37734855,302.89
-97.59723461,33.37734860,302.97
-97.59725374,33.37734882,304.55
-97.59726825,33.37734898,305.33
-97.59727298,33.37734904,305.53
-97.59756026,33.37735228,291.37
-97.59756520,33.37735234,291.33
-97.59760271,33.37735276,293.54
-97.59766333,33.37735345,297.04
-97.59766784,33.37735350,297.13
-97.59767236,33.37735355,297.58
-97.59801606,33.37735743,292.68
-97.59802101,33.37735749,292.71
-97.59802563,33.37735754,292.68
-97.59805304,33.37735785,294.59
-97.59806626,33.37735791,295.87
-97.59859020,33.37736374,297.07
-97.59861309,33.37736418,297.12
-97.59868822,33.37736503,300.93
-97.59870584,33.37736522,302.33
-97.59873647,33.37736557,303.63
-97.59873938,33.37736560,305.97
-97.59899517,33.37736849,298.46
-97.59900011,33.37736855,298.47
-97.59900484,33.37736860,298.53
-97.59927450,33.37737164,299.42
-97.59948300,33.37737400,298.19
-97.59954781,33.37737473,297.35
-97.59955286,33.37737479,297.34
-97.59962197,33.37737556,300.91
-97.59962605,33.37737561,301.13
-97.59963358,33.37737570,301.93
-97.59965142,33.37737590,302.60
-97.59965496,33.37737594,303.12
-97.59965937,33.37737599,303.22
-97.59966378,33.37737604,303.50
-97.59966851,33.37737609,303.61
-97.59967238,33.37737613,303.87
-97.59970688,33.37737652,305.56
-97.59971924,33.37737666,306.45
-97.59972364,33.37737671,306.49
-97.59973031,33.37737679,301.50
-97.59973632,33.37737686,301.86
-97.59976534,33.37737718,303.81
-97.59987851,33.37737846,296.66
-97.60005402,33.37738044,295.68
-97.60005854,33.37738049,295.68
-97.60005929,33.37738050,295.67
-97.60006348,33.37738055,295.72
-97.60025683,33.37738273,294.11
-97.60029606,33.37738317,296.96
-97.60030745,33.37738330,297.91
-97.60060935,33.37738670,292.72
-97.60061462,33.37738676,292.71
-97.60072994,33.37738806,300.02
-97.60073811,33.37738815,299.44
-97.60076799,33.37738849,301.05
-97.60077680,33.37738859,303.35
-97.60078561,33.37738869,301.89
-97.60102571,33.37739140,290.90
-97.60104205,33.37739158,290.75
-97.60104742,33.37739164,290.72
-97.60109697,33.37739220,295.87
-97.60113179,33.37739259,295.72
-97.60115221,33.37739282,299.64
-97.60124271,33.37739384,289.50
-97.60128323,33.37739430,292.20
-97.60128742,33.37739417,292.02
-97.60178734,33.37739673,290.76
-97.60186983,33.37740091,290.24
-97.60208650,33.37740335,291.73
-97.60224772,33.37740516,288.29
-97.60231233,33.37740463,289.22
-97.60240028,33.37740373,289.76
-97.60244619,33.37740307,289.61
-97.60244763,33.37739335,289.78
-97.60245236,33.37710489,288.45
-97.60245289,33.37707162,288.50
-97.60245301,33.37706431,291.88
-97.60245410,33.37699605,289.33
-97.60245670,33.37683347,289.47
-97.60245693,33.37681914,289.48
-97.60245830,33.37673302,289.83
-97.60246131,33.37654493,290.40
-97.60246422,33.37636341,291.18
-97.60246543,33.37628776,302.75
-97.60246755,33.37615494,307.62
-97.60246863,33.37608731,310.74
-97.60246970,33.37602040,308.82
-97.60247010,33.37599560,292.33
-97.60247336,33.37579190,291.72
-97.60247372,33.37576927,303.56
-97.60247552,33.37565665,292.70
-97.60247607,33.37562220,291.64
-97.60247671,33.37558271,305.22
-97.60247694,33.37556837,300.08
-97.60247927,33.37542238,308.17
-97.60247943,33.37541237,305.16
-97.60247953,33.37540597,302.65
-97.60248021,33.37536368,294.00
-97.60248069,33.37533356,296.94
-97.60248098,33.37531526,301.36
-97.60248274,33.37520570,305.92
-97.60248312,33.37518144,302.27
-97.60248609,33.37499614,298.05
-97.60248676,33.37495430,297.12
-97.60248772,33.37489434,301.81
-97.60248783,33.37488740,295.72
-97.60248824,33.37486188,306.34
-97.60248847,33.37484736,305.71
-97.60248880,33.37482671,299.37
-97.60248889,33.37482076,296.10
-97.60248962,33.37477522,303.39
-97.60249133,33.37466819,297.06
-97.60249577,33.37439073,297.98
-97.60250024,33.37411165,304.74
-97.60250213,33.37399317,306.59
-97.60250272,33.37395619,310.37
-97.60250330,33.37391995,300.26
-97.60250367,33.37389686,302.97
-97.60250496,33.37381607,305.34
-97.60250552,33.37378162,302.87
-97.60250573,33.37376819,304.14
-97.60250710,33.37368252,304.97
-97.60250751,33.37365710,300.31
-97.60250785,33.37363582,310.85
-97.60250967,33.37352175,312.40
-97.60251147,33.37340922,304.59
-97.60251206,33.37337233,309.04
-97.60251417,33.37324077,312.14
-97.60251452,33.37321859,299.47
-97.60251513,33.37318081,309.54
-97.60251606,33.37312238,313.22
-97.60251670,33.37308225,313.57
-97.60251756,33.37302833,317.93
-97.60252133,33.37279271,310.34
-97.60252276,33.37270335,311.95
-97.60252431,33.37260669,299.69
-97.60252543,33.37253645,299.11
-97.60252558,33.37252716,299.63
-97.60253083,33.37219875,306.54
-97.60253265,33.37208532,315.06
-97.60253271,33.37208117,319.72
-97.60253289,33.37206981,310.12
-97.60253501,33.37193735,301.50
-97.60253672,33.37183031,312.65
-97.60253681,33.37182472,315.78
-97.60253733,33.37179217,315.85
-97.60253774,33.37176692,313.82
-97.60253817,33.37174005,313.02
-97.60253861,33.37171246,313.14
-97.60254121,33.37155006,305.28
-97.60254197,33.37150218,318.89
-97.60254206,33.37149695,300.90
-97.60254236,33.37147819,301.25
-97.60254373,33.37139226,313.29
-97.60254431,33.37135628,317.58
-97.60254658,33.37121426,314.36
-97.60254707,33.37118315,319.38
-97.60254818,33.37111399,303.08
-97.60254900,33.37106268,320.55
-97.60254985,33.37100984,314.12
-97.60255322,33.37079893,316.76
-97.60255331,33.37079334,314.48
-97.60255353,33.37077963,318.97
-97.60255508,33.37068261,322.56
-97.60255620,33.37061255,320.51
-97.60255821,33.37048685,304.89
-97.60255997,33.37037684,316.13
-97.60256043,33.37034834,319.20
-97.60256076,33.37032742,316.92
-97.60256170,33.37026863,313.66
-97.60256210,33.37024338,310.05
-97.60256302,33.37018604,311.08
-97.60256532,33.37004221,310.30
-97.60256630,33.36998099,318.97
-97.60256688,33.36994456,312.12
-97.60256705,33.36993401,309.56
-97.60256796,33.36987738,306.29
-97.60256844,33.36984699,306.75
-97.60256866,33.36983346,311.29
-97.60256945,33.36978432,317.52
-97.60257036,33.36972706,315.90
-97.60257103,33.36968504,314.26
-97.60257200,33.36962472,317.19
-97.60257354,33.36952814,306.98
-97.60257487,33.36944510,321.10
-97.60257604,33.36937170,320.63
-97.60258168,33.36901949,321.36
-97.60258303,33.36893491,316.45
-97.60258356,33.36890172,320.52
-97.60258655,33.36871462,324.80
-97.60258703,33.36868450,308.47
-97.60258705,33.36868342,327.77
-97.60258799,33.36862472,320.31
-97.60258884,33.36857170,320.39
-97.60258985,33.36850839,323.01
-97.60259000,33.36849866,325.87
-97.60259051,33.36846710,325.41
-97.60259068,33.36845646,327.39
-97.60259087,33.36844428,323.88
-97.60259168,33.36839379,308.18
-97.60259170,33.36839270,318.00
-97.60258773,33.36839203,304.70
-97.60256175,33.36839011,324.74
-97.60253972,33.36838977,324.74
-97.60251705,33.36838952,325.16
-97.60239078,33.36838810,315.30
-97.60212673,33.36838539,318.67
-97.60182411,33.36838172,321.49
-97.60173932,33.36838076,322.34
-97.60157705,33.36837893,311.85
-97.60156813,33.36837883,311.89
-97.60155867,33.36837873,311.98
-97.60155395,33.36837867,312.05
-97.60118599,33.36837453,327.20
-97.60118491,33.36837451,324.73
-97.60117900,33.36837445,317.93
-97.60098868,33.36837230,326.82
-97.60098556,33.36837227,318.83
-97.60098062,33.36837221,314.36
-97.60081975,33.36837040,320.00
-97.60081749,33.36837037,324.61
-97.60081469,33.36837034,322.50
-97.60062513,33.36836820,326.61
-97.60062147,33.36836816,324.71
-97.60062029,33.36836815,319.96
-97.60051992,33.36836702,323.28
-97.60039880,33.36836565,329.68
-97.60038935,33.36836555,321.16
-97.60036216,33.36836524,324.84
-97.60030853,33.36836463,325.48
-97.60022321,33.36836367,325.58
-97.60021859,33.36836362,321.74
-97.60021783,33.36836361,320.20
-97.60021579,33.36836359,319.24
-97.60012230,33.36836253,317.60
-97.60011306,33.36836243,317.61
-97.60010392,33.36836233,317.76
-97.60007168,33.36836196,318.05
-97.60006749,33.36836192,318.19
-97.60005137,33.36836173,328.28
-97.60004234,33.36836163,328.42
-97.60004116,33.36836162,329.88
-97.60003955,33.36836160,330.57
-97.60003847,33.36836159,327.04
-97.59985052,33.36835947,331.01
-97.59984278,33.36835938,330.41
-97.59965504,33.36835726,330.82
-97.59965472,33.36835726,328.46
-97.59964719,33.36835717,320.23
-97.59963279,33.36835701,332.59
-97.59955993,33.36835619,333.40
-97.59944280,33.36835487,330.50
-97.59944172,33.36835486,331.15
-97.59943581,33.36835479,321.57
-97.59940432,33.36835443,324.78
-97.59938982,33.36835427,324.98
-97.59928719,33.36835311,332.09
-97.59928332,33.36835307,325.93
-97.59906613,33.36835062,330.07
-97.59906151,33.36835057,323.18
-97.59889483,33.36834868,331.39
-97.59889247,33.36834866,329.42
-97.59889139,33.36834865,326.52
-97.59888011,33.36834852,330.18
-97.59869194,33.36834639,325.55
-97.59852859,33.36834455,330.02
-97.59852268,33.36834448,325.87
-97.59831431,33.36834213,325.57
-97.59810249,33.36833974,324.42
-97.59794269,33.36833793,329.04
-97.59794237,33.36833793,331.27
-97.59793872,33.36833789,327.41
-97.59775356,33.36833580,322.38
-97.59758677,33.36833391,331.80
-97.59757592,33.36833379,321.29
-97.59737625,33.36833153,332.41
-97.59737539,33.36833152,330.20
-97.59717389,33.36832925,331.96
-97.59701194,33.36832742,332.57
-97.59700109,33.36832729,318.73
-97.59678111,33.36832481,326.89
-97.59676359,33.36832461,317.52
-97.59666053,33.36832344,326.72
-97.59661250,33.36832290,327.47
-97.59661174,33.36832289,326.86
-97.59661056,33.36832288,325.87
-97.59660035,33.36832276,317.25
-97.59640100,33.36832051,322.58
-97.59639896,33.36832049,321.11
-97.59636919,33.36832015,316.46
-97.59636490,33.36832010,316.25
-97.59630730,33.36831945,324.80
-97.59625346,33.36831884,323.22
-97.59625227,33.36831883,325.29
-97.59625163,33.36831882,322.05
-97.59624647,33.36831876,315.57
-97.59612611,33.36831740,318.28
-97.59604540,33.36831649,323.18
-97.59604229,33.36831645,321.38
-97.59601714,33.36831617,314.56
-97.59598049,33.36831575,323.60
-97.59592891,33.36831517,321.76
-97.59583832,33.36831415,324.87
-97.59583649,33.36831412,323.92
-97.59564048,33.36831191,319.93
-97.59542684,33.36830949,311.60
-97.59527800,33.36830781,311.12
-97.59527348,33.36830775,311.09
-97.59525532,33.36830755,311.03
-97.59512271,33.36830605,316.28
-97.59509187,33.36830570,315.18
-97.59505952,33.36830533,317.57
-97.59505759,33.36830531,314.13
-97.59505501,33.36830528,314.26
-97.59505469,33.36830528,315.82
-97.59504867,33.36830521,313.73
-97.59504437,33.36830516,313.66
-97.59501847,33.36830487,312.67
-97.59493142,33.36830388,309.70
-97.59487801,33.36830328,315.64
-97.59478753,33.36830225,317.49
-97.59478345,33.36830221,317.29
-97.59470575,33.36830133,314.59
-97.59469382,33.36830119,318.07
-97.59469006,33.36830115,313.72
-97.59468684,33.36830111,309.45
-97.59461892,33.36830034,311.55
-97.59461451,33.36830029,311.33
-97.59456196,33.36829970,309.44
-97.59455347,33.36829960,309.21
-97.59449641,33.36829896,307.12
-97.59449200,33.36829891,307.09
-97.59445074,33.36829844,312.11
-97.59444977,33.36829843,310.37
-97.59444719,33.36829840,309.63
-97.59431791,33.36829694,310.50
-97.59425225,33.36829619,304.55
-97.59416767,33.36829523,305.32
-97.59412780,33.36829478,303.89
-97.59412361,33.36829474,303.83
-97.59366141,33.36828950,312.35
-97.59327593,33.36828513,310.26
-97.59313505,33.36828353,305.29
-97.59285241,33.36828033,306.60
-97.59256828,33.36827711,296.65
-97.59256377,33.36827706,296.45
-97.59255882,33.36827700,296.39
-97.59254679,33.36827687,306.75
-97.59251347,33.36827649,305.66
-97.59249982,33.36827633,305.11
-97.59228210,33.36827386,297.42
-97.59224374,33.36827343,296.09
-97.59223868,33.36827337,295.96
-97.59197980,33.36827044,311.10
-97.59192876,33.36826986,295.85
-97.59189190,33.36826944,304.60
-97.59188394,33.36826935,295.81
-97.59187932,33.36826930,307.22
-97.59187535,33.36826925,308.54
-97.59187288,33.36826922,307.63
-97.59187040,33.36826919,308.47
-97.59186675,33.36826915,309.68
-97.59186514,33.36826913,308.53
-97.59185987,33.36826907,306.94
-97.59185074,33.36826915,307.00
-97.59184708,33.36826947,307.72
-97.59184654,33.36826955,295.91
-97.59184585,33.36827189,295.90
-97.59184505,33.36828875,304.47
-97.59184481,33.36830327,296.00
-97.59184438,33.36832987,297.19
-97.59184409,33.36834817,295.72
-97.59184343,33.36838884,307.49
-97.59184285,33.36842491,305.09
-97.59184272,33.36843293,305.67
-97.59184197,33.36847955,295.54
-97.59184149,33.36850967,304.52
-97.59184059,33.36856530,307.06
-97.59183997,33.36860381,308.81
-97.59183821,33.36871273,307.01
-97.59183800,33.36872599,295.08
-97.59183788,33.36873320,304.86
-97.59183725,33.36877261,295.02
-97.59183682,33.36879921,302.44
-97.59183677,33.36880227,297.98
-97.59183484,33.36892211,299.54
-97.59183464,33.36893428,306.73
-97.59183379,33.36898712,297.39
-97.59183353,33.36900335,309.48
-97.59183332,33.36901634,311.00
-97.59183316,33.36902662,305.32
-97.59183294,33.36904005,310.33
-97.59183285,33.36904546,311.58
-97.59183256,33.36906359,311.09
-97.59183095,33.36916323,297.63
-97.59183048,33.36919235,298.63
-97.59183029,33.36920462,294.24
-97.59183027,33.36920570,301.20
-97.59182956,33.36924988,299.68
-97.59182868,33.36930462,293.70
-97.59182839,33.36932220,296.17
-97.59182719,33.36939713,309.30
-97.59182665,33.36943004,307.16
-97.59182615,33.36946115,308.76
-97.59182570,33.36948938,309.90
-97.59182361,33.36961868,289.67
-97.59182309,33.36965096,290.13
-97.59182290,33.36966287,294.49
-97.59182257,33.36968333,295.90
-97.59182186,33.36972779,304.48
-97.59182073,33.36979794,303.20
-97.59181808,33.36996196,298.05
-97.59181771,33.36998487,303.44
-97.59181718,33.37001787,304.09
-97.59181671,33.37004726,298.99
-97.59181621,33.37007810,289.00
-97.59181610,33.37008496,289.25
-97.59181580,33.37010353,290.33
-97.59181552,33.37012102,303.52
-97.59181455,33.37018099,301.61
-97.59181436,33.37019271,302.33
-97.59181422,33.37020191,288.24
-97.59181305,33.37027414,300.63
-97.59181289,33.37028405,294.88
-97.59181177,33.37035349,309.59
-97.59181169,33.37035863,299.58
-97.59180939,33.37050110,303.50
-97.59180865,33.37054762,301.46
-97.59180705,33.37064663,291.83
-97.59180669,33.37066881,288.10
-97.59180577,33.37072580,287.53
-97.59180491,33.37077963,291.34
-97.59180484,33.37078387,291.09
-97.59180460,33.37079848,287.67
-97.59180386,33.37084438,287.68
-97.59180362,33.37085917,287.53
-97.59180115,33.37101264,289.05
-97.59180010,33.37107783,299.90
-97.59179993,33.37108847,302.90
-97.59179795,33.37121146,287.38
-97.59179664,33.37129226,287.20
-97.59179641,33.37130677,287.31
-97.59179605,33.37132905,287.36
-97.59179398,33.37145745,292.88
-97.59179365,33.37147828,287.72
-97.59179324,33.37150362,287.06
-97.59179256,33.37155240,286.93
-97.59178601,33.37197900,287.07
-97.59178519,33.37201660,288.37
-97.59178473,33.37203833,289.07
-97.59178412,33.37206935,289.92
-97.59178193,33.37220533,288.67
-97.59178105,33.37225970,296.94
-97.59178099,33.37226358,297.52
-97.59178057,33.37228946,288.07
-97.59178052,33.37229279,305.42
-97.59177925,33.37237178,293.71
-97.59177893,33.37239126,295.23
-97.59177893,33.37239153,290.33
-97.59177776,33.37246394,288.39
-97.59177674,33.37252742,301.79
-97.59177524,33.37262039,297.28
-97.59177499,33.37263608,297.38
-97.59177434,33.37267647,288.45
-97.59177308,33.37275438,292.92
-97.59177254,33.37278774,291.90
-97.59177201,33.37282093,299.54
-97.59177197,33.37282354,289.35
-97.59177178,33.37283508,299.24
-97.59177054,33.37291191,287.03
-97.59177042,33.37291912,288.37
-97.59176816,33.37305952,301.48
-97.59176753,33.37309856,288.94
-97.59176656,33.37315880,297.65
-97.59176613,33.37318531,292.88
-97.59176606,33.37318982,299.47
-97.59176529,33.37323770,298.38
-97.59176512,33.37324834,294.50
-97.59176497,33.37325744,289.27
-97.59176477,33.37326980,297.56
-97.59176417,33.37330749,291.76
-97.59176400,33.37331768,298.23
-97.59176392,33.37332291,295.56
-97.59176391,33.37332318,288.91
-97.59176371,33.37333598,295.86
-97.59176363,33.37334058,298.54
-97.59176298,33.37338089,288.97
-97.59176163,33.37346457,298.00
-97.59176081,33.37351597,292.69
-97.59175979,33.37357917,293.59
-97.59175856,33.37365546,291.87
-97.59175766,33.37371128,298.61
-97.59175716,33.37374193,297.51
-97.59175621,33.37380127,294.15
-97.59175591,33.37381966,291.96
-97.59175571,33.37383183,297.42
-97.59175565,33.37383598,296.10
-97.59175539,33.37385194,296.75
-97.59175449,33.37390767,288.49
-97.59175392,33.37394301,288.50
-97.59175365,33.37395988,288.54
-97.59175345,33.37397259,288.53
-97.59175276,33.37401542,292.71
-97.59175032,33.37416646,289.09
-97.59174923,33.37423391,291.71
-97.59174899,33.37424869,289.20
-97.59174623,33.37442029,290.00
-97.59174566,33.37445537,290.00
-97.59174404,33.37455618,290.01
-97.59174036,33.37478431,289.85
-97.59174015,33.37479748,289.88
-97.59173604,33.37505230,292.38
-97.59173421,33.37516591,291.54
-97.59173101,33.37536465,291.82
-97.59173049,33.37539684,292.30
-97.59173033,33.37540640,287.49
-97.59173003,33.37542534,298.07
-97.59172925,33.37547385,290.03
-97.59172918,33.37547782,291.45
-97.59172915,33.37548016,300.79
-97.59172912,33.37548160,300.90
-97.59172885,33.37549856,290.25
-97.59172736,33.37559098,294.41
-97.59172635,33.37565338,294.90
-97.59172601,33.37567448,292.04
-97.59172396,33.37580162,288.09
-97.59172385,33.37580838,291.45
-97.59172221,33.37591019,288.00
-97.59172194,33.37592705,288.22
-97.59172009,33.37604165,294.08
-97.59172001,33.37604670,293.55
-97.59171952,33.37607736,288.55
-97.59171823,33.37615743,292.81
-97.59171786,33.37618025,291.45
-97.59171782,33.37618268,294.57
-97.59171766,33.37619251,292.14
-97.59171751,33.37620198,293.53
-97.59171739,33.37620955,288.26
-97.59171664,33.37625572,293.35
-97.59171662,33.37625725,293.62
-97.59171623,33.37628124,294.40
-97.59171612,33.37628791,293.78
-97.59171599,33.37629657,295.92
-97.59171540,33.37633255,288.19
-97.59171476,33.37637249,295.14
-97.59171468,33.37637745,292.06
-97.59171397,33.37642173,288.54
-97.59171288,33.37648899,288.70
-97.59171274,33.37649774,288.72
-97.59171269,33.37650126,295.71
-97.59171123,33.37659152,295.77
-97.59171028,33.37665049,293.61
-97.59170842,33.37676600,288.77
-97.59170771,33.37680982,288.93
-97.59170746,33.37682524,289.01
-97.59170652,33.37688358,289.32
-97.59170646,33.37688737,289.33
-97.59170408,33.37703534,289.56
-97.59170357,33.37706681,289.46
-97.59170309,33.37709648,289.63
-97.59170281,33.37711361,289.72
-97.59170246,33.37713570,290.03
-97.59170089,33.37723290,296.33
-97.59170117,33.37728242,290.54
-97.59170781,33.37728385,292.99
-97.59170953,33.37728405,290.61
-97.59178086,33.37728684,291.17
-97.59181848,33.37728727,294.22
-97.59189811,33.37728817,291.58
-97.59220227,33.37729162,293.27
-97.59222258,33.37729185,293.36
-97.59261562,33.37729631,294.59
-97.59299587,33.37730062,293.12
-97.59300071,33.37730068,293.21
-97.59301984,33.37730089,295.15
-97.59303370,33.37730105,296.08
-97.59334882,33.37730462,292.01
-97.59335333,33.37730467,291.99
-97.59368543,33.37730844,290.76
-97.59410040,33.37731314,289.86
-97.59424076,33.37731473,289.94
-97.59424592,33.37731479,290.05
     </coordinates>
    </LineString>
   </MultiGeometry>
  </Placemark>
 </Document>
</kml>
