<kml>
 <Document>
  <Style id="yellow">
   <LineStyle>
   <color>ff00ffff</color>
   <width>1</width>
   </LineStyle>
  </Style>
  <Style id="red">
   <LineStyle>
   <color>ffff0000</color>
   <width>2</width>
   </LineStyle>
  </Style>
  <Style id="green">
   <LineStyle>
   <color>ff00ff00</color>
   <width>1</width>
   </LineStyle>
  </Style>
  <Placemark>
  <styleUrl>#yellow</styleUrl>
   <MultiGeometry>
    <LineString>
     <coordinates>
-97.56253639,33.36793286,281.61
-97.56260582,33.36793366,279.23
-97.56260646,33.36793367,286.86
-97.56310305,33.36793942,279.21
-97.56322781,33.36794086,284.35
-97.56339040,33.36794274,281.44
-97.56339878,33.36794284,282.12
-97.56340254,33.36794288,279.12
-97.56341942,33.36794308,283.81
-97.56345327,33.36794347,286.02
-97.56346165,33.36794357,286.62
-97.56369774,33.36794630,284.26
-97.56372504,33.36794662,278.83
-97.56373493,33.36794673,286.74
-97.56396920,33.36794944,278.36
-97.56397360,33.36794949,278.33
-97.56397822,33.36794954,278.37
-97.56398327,33.36794960,278.46
-97.56401841,33.36795001,290.27
-97.56402970,33.36795014,278.41
-97.56406301,33.36795053,278.23
-97.56410438,33.36795100,278.30
-97.56410922,33.36795106,278.34
-97.56412534,33.36795125,282.25
-97.56413684,33.36795138,278.26
-97.56414586,33.36795148,278.31
-97.56416972,33.36795176,278.47
-97.56417445,33.36795182,278.38
-97.56417928,33.36795187,278.44
-97.56418380,33.36795192,278.42
-97.56418820,33.36795197,278.41
-97.56419304,33.36795203,278.37
-97.56419745,33.36795208,278.37
-97.56420228,33.36795214,278.36
-97.56420669,33.36795219,278.34
-97.56421120,33.36795224,278.32
-97.56421561,33.36795229,278.35
-97.56422023,33.36795234,278.34
-97.56422496,33.36795240,278.34
-97.56422979,33.36795245,278.32
-97.56423463,33.36795251,278.28
-97.56423903,33.36795256,278.27
-97.56424376,33.36795262,278.25
-97.56424860,33.36795267,278.24
-97.56428331,33.36795307,278.10
-97.56430856,33.36795337,278.21
-97.56431329,33.36795342,278.26
-97.56431834,33.36795348,278.32
-97.56432275,33.36795353,278.35
-97.56432748,33.36795358,278.41
-97.56433220,33.36795364,278.40
-97.56433672,33.36795369,278.41
-97.56434145,33.36795375,278.44
-97.56434607,33.36795380,278.42
-97.56435058,33.36795385,278.45
-97.56435499,33.36795390,278.48
-97.56435939,33.36795395,278.47
-97.56436423,33.36795401,278.47
-97.56436917,33.36795407,278.49
-97.56437390,33.36795412,278.49
-97.56437841,33.36795417,278.53
-97.56439238,33.36795434,278.48
-97.56439679,33.36795439,278.45
-97.56440163,33.36795444,278.46
-97.56440614,33.36795449,278.46
-97.56441087,33.36795455,278.47
-97.56441538,33.36795460,278.45
-97.56441979,33.36795465,278.46
-97.56442430,33.36795470,278.43
-97.56442860,33.36795475,278.44
-97.56443343,33.36795481,278.40
-97.56443816,33.36795487,278.40
-97.56444300,33.36795492,278.38
-97.56444740,33.36795497,278.38
-97.56445224,33.36795503,278.39
-97.56445697,33.36795508,278.39
-97.56446170,33.36795514,278.49
-97.56446610,33.36795519,278.42
-97.56447051,33.36795524,278.27
-97.56447491,33.36795529,278.26
-97.56447975,33.36795535,278.22
-97.56448416,33.36795540,278.19
-97.56448846,33.36795545,278.16
-97.56449275,33.36795550,278.12
-97.56449727,33.36795555,278.09
-97.56451156,33.36795571,278.09
-97.56451629,33.36795577,278.29
-97.56451812,33.36795579,278.27
-97.56452134,33.36795583,278.37
-97.56453037,33.36795593,278.33
-97.56453445,33.36795598,278.08
-97.56457625,33.36795646,278.30
-97.56457948,33.36795650,282.31
-97.56458571,33.36795657,278.51
-97.56459012,33.36795662,278.33
-97.56459162,33.36795664,283.04
-97.56459474,33.36795668,278.16
-97.56459925,33.36795673,278.17
-97.56460409,33.36795678,278.50
-97.56460838,33.36795683,278.21
-97.56461279,33.36795689,278.19
-97.56461784,33.36795694,278.33
-97.56462676,33.36795705,278.44
-97.56463579,33.36795715,278.41
-97.56464030,33.36795720,278.37
-97.56464492,33.36795726,278.27
-97.56465943,33.36795742,278.56
-97.56466394,33.36795748,278.39
-97.56467297,33.36795758,278.47
-97.56467759,33.36795763,278.49
-97.56468210,33.36795769,278.48
-97.56469124,33.36795779,278.40
-97.56469973,33.36795789,278.23
-97.56470413,33.36795794,278.26
-97.56470886,33.36795800,278.21
-97.56471370,33.36795805,278.20
-97.56471843,33.36795811,278.25
-97.56472305,33.36795816,278.35
-97.56472756,33.36795821,278.23
-97.56473250,33.36795827,278.31
-97.56473669,33.36795832,278.20
-97.56474110,33.36795837,278.17
-97.56474572,33.36795842,278.09
-97.56475475,33.36795853,278.00
-97.56485952,33.36795974,277.94
-97.56486436,33.36795979,277.97
-97.56486930,33.36795985,278.13
-97.56487801,33.36795995,278.11
-97.56488295,33.36796001,278.15
-97.56488725,33.36796006,278.12
-97.56489187,33.36796011,278.10
-97.56490509,33.36796026,278.07
-97.56490960,33.36796032,278.16
-97.56491422,33.36796037,278.11
-97.56492379,33.36796048,278.16
-97.56492819,33.36796053,278.16
-97.56493281,33.36796059,278.10
-97.56493765,33.36796064,278.04
-97.56494206,33.36796069,278.14
-97.56498429,33.36796118,287.32
-97.56502362,33.36796163,290.39
-97.56518299,33.36796348,278.77
-97.56524295,33.36796417,285.99
-97.56528013,33.36796460,288.17
-97.56531968,33.36796506,290.94
-97.56533999,33.36796529,292.30
-97.56551741,33.36796734,278.51
-97.56592706,33.36797208,277.98
-97.56593179,33.36797213,277.98
-97.56616165,33.36797479,278.45
-97.56621549,33.36797541,278.45
-97.56622473,33.36797552,278.51
-97.56623795,33.36797567,278.59
-97.56624236,33.36797572,278.53
-97.56624708,33.36797577,278.55
-97.56625138,33.36797582,278.54
-97.56628266,33.36797618,278.54
-97.56628738,33.36797624,278.56
-97.56629211,33.36797629,278.55
-97.56629641,33.36797634,278.61
-97.56630071,33.36797639,278.59
-97.56630544,33.36797645,278.54
-97.56630984,33.36797650,278.58
-97.56631446,33.36797655,278.52
-97.56631887,33.36797660,278.49
-97.56632306,33.36797665,278.56
-97.56632757,33.36797670,278.51
-97.56633166,33.36797675,278.54
-97.56633649,33.36797681,278.55
-97.56634111,33.36797686,278.52
-97.56634584,33.36797691,278.51
-97.56635003,33.36797696,278.58
-97.56635476,33.36797702,278.68
-97.56635938,33.36797707,278.85
-97.56636390,33.36797712,278.83
-97.56637712,33.36797728,278.93
-97.56638184,33.36797733,278.82
-97.56638614,33.36797738,278.86
-97.56639044,33.36797743,278.70
-97.56642225,33.36797780,278.58
-97.56642687,33.36797785,278.58
-97.56643128,33.36797790,278.54
-97.56647136,33.36797836,278.38
-97.56653874,33.36797914,278.37
-97.56654820,33.36797925,278.26
-97.56659301,33.36797977,278.37
-97.56662471,33.36798013,278.46
-97.56670541,33.36798107,278.77
-97.56671928,33.36798123,278.75
-97.56677312,33.36798185,278.75
-97.56677774,33.36798190,278.79
-97.56678204,33.36798195,278.93
-97.56678687,33.36798201,278.76
-97.56679106,33.36798206,278.82
-97.56679558,33.36798211,278.80
-97.56696741,33.36798409,278.74
-97.56697171,33.36798414,278.79
-97.56700610,33.36798454,290.32
-97.56701577,33.36798465,290.21
-97.56702028,33.36798470,290.09
-97.56702469,33.36798475,289.82
-97.56703017,33.36798482,289.94
-97.56703468,33.36798487,289.86
-97.56703930,33.36798492,279.05
-97.56703984,33.36798493,289.99
-97.56704371,33.36798497,278.89
-97.56704973,33.36798504,288.60
-97.56705779,33.36798514,289.53
-97.56706122,33.36798518,289.03
-97.56706552,33.36798522,288.87
-97.56706982,33.36798527,288.78
-97.56707487,33.36798533,278.95
-97.56707874,33.36798538,288.37
-97.56707971,33.36798539,278.92
-97.56708272,33.36798542,288.14
-97.56708745,33.36798548,288.01
-97.56709142,33.36798552,287.70
-97.56709819,33.36798560,278.91
-97.56710195,33.36798565,286.48
-97.56710270,33.36798565,278.94
-97.56710475,33.36798568,287.31
-97.56710571,33.36798569,286.24
-97.56710711,33.36798570,278.95
-97.56710840,33.36798572,287.00
-97.56711066,33.36798575,286.26
-97.56711141,33.36798575,279.03
-97.56711517,33.36798580,286.07
-97.56712011,33.36798585,286.12
-97.56712054,33.36798586,278.90
-97.56713763,33.36798606,285.45
-97.56713849,33.36798607,278.83
-97.56716310,33.36798635,284.07
-97.56716611,33.36798639,278.79
-97.56717073,33.36798644,278.94
-97.56719319,33.36798670,279.05
-97.56721533,33.36798695,279.07
-97.56730882,33.36798803,279.07
-97.56731108,33.36798806,279.07
-97.56731537,33.36798811,279.03
-97.56732010,33.36798816,279.08
-97.56732451,33.36798821,279.07
-97.56735621,33.36798858,279.02
-97.56736094,33.36798863,279.08
-97.56736524,33.36798868,279.06
-97.56737459,33.36798879,279.18
-97.56737921,33.36798885,279.13
-97.56742886,33.36798942,279.31
-97.56744272,33.36798958,279.31
-97.56745153,33.36798968,279.24
-97.56745615,33.36798973,279.39
-97.56746528,33.36798984,279.33
-97.56746969,33.36798989,279.31
-97.56747410,33.36798994,279.35
-97.56750150,33.36799026,279.38
-97.56750612,33.36799031,279.41
-97.56774632,33.36799191,280.14
-97.56777491,33.36799215,280.12
-97.56784691,33.36799271,280.09
-97.56790613,33.36799321,280.62
-97.56842794,33.36800095,299.72
-97.56843073,33.36800098,299.00
-97.56843267,33.36800100,299.88
-97.56843654,33.36800104,299.44
-97.56843997,33.36800108,298.81
-97.56844137,33.36800110,299.42
-97.56844589,33.36800115,299.29
-97.56844965,33.36800120,299.05
-97.56845362,33.36800124,298.74
-97.56845814,33.36800129,298.83
-97.56846071,33.36800132,297.89
-97.56846308,33.36800135,298.98
-97.56847071,33.36800144,298.28
-97.56847512,33.36800149,298.15
-97.56847855,33.36800153,297.61
-97.56848629,33.36800162,296.92
-97.56849102,33.36800167,296.90
-97.56849543,33.36800172,296.82
-97.56849908,33.36800177,296.32
-97.56851713,33.36800197,296.12
-97.56852111,33.36800202,295.91
-97.56852573,33.36800207,296.00
-97.56853024,33.36800213,295.81
-97.56853368,33.36800217,295.40
-97.56853755,33.36800221,294.95
-97.56854271,33.36800227,295.31
-97.56854712,33.36800232,295.23
-97.56855217,33.36800238,295.31
-97.56855603,33.36800242,294.95
-97.56856818,33.36800256,293.94
-97.56859085,33.36800282,294.08
-97.56859332,33.36800285,292.90
-97.56860590,33.36800300,292.28
-97.56861192,33.36800307,293.11
-97.56865834,33.36800360,290.76
-97.56872873,33.36800441,286.49
-97.56874592,33.36800461,285.76
-97.56875033,33.36800466,285.78
-97.56882018,33.36800547,283.51
-97.56882501,33.36800552,283.48
-97.56882953,33.36800558,283.33
-97.56889455,33.36800615,283.64
-97.56896365,33.36800676,283.62
-97.56906069,33.36800761,284.27
-97.56909766,33.36800795,284.37
-97.56912969,33.36800823,284.46
-97.56919868,33.36800884,284.68
-97.56926724,33.36800945,284.86
-97.56929916,33.36800973,285.03
-97.56940427,33.36801067,285.26
-97.56949529,33.36801145,285.54
-97.56954075,33.36801188,285.64
-97.56957707,33.36801221,285.57
-97.56960383,33.36801243,285.62
-97.57013349,33.36802060,297.28
-97.57013821,33.36802066,297.66
-97.57014283,33.36802071,297.58
-97.57014703,33.36802076,297.55
-97.57015143,33.36802081,296.84
-97.57015616,33.36802087,296.97
-97.57034057,33.36802299,288.46
-97.57034497,33.36802304,288.47
-97.57034949,33.36802309,288.51
-97.57035175,33.36802249,298.66
-97.57035224,33.36801889,288.52
-97.57035397,33.36793296,287.96
-97.57035582,33.36782006,287.36
-97.57035662,33.36777083,296.53
-97.57035676,33.36776226,287.21
-97.57035713,33.36773981,293.16
-97.57036113,33.36749536,286.21
-97.57036121,33.36749013,294.13
-97.57036227,33.36742557,294.12
-97.57036283,33.36739130,290.25
-97.57036401,33.36731917,289.73
-97.57036410,33.36731394,294.51
-97.57036423,33.36730564,294.08
-97.57036437,33.36729735,287.57
-97.57036458,33.36728427,294.94
-97.57036471,33.36727652,286.74
-97.57036590,33.36720393,292.64
-97.57036632,33.36717832,291.71
-97.57036694,33.36714000,292.71
-97.57036721,33.36712377,285.82
-97.57036827,33.36705903,292.93
-97.57036922,33.36700069,294.81
-97.57036997,33.36695470,288.53
-97.57037087,33.36690015,285.81
-97.57037148,33.36686237,291.09
-97.57037428,33.36669131,288.87
-97.57037477,33.36666165,288.24
-97.57037667,33.36654515,287.79
-97.57037683,33.36653568,292.93
-97.57037753,33.36649285,294.21
-97.57037838,33.36644109,291.02
-97.57037951,33.36637184,293.21
-97.57038048,33.36631215,285.73
-97.57038064,33.36630295,292.70
-97.57038105,33.36627779,289.75
-97.57038161,33.36624335,288.95
-97.57038299,33.36615895,283.50
-97.57038334,33.36613740,289.55
-97.57038590,33.36598122,293.55
-97.57038693,33.36591819,285.26
-97.57038872,33.36580855,292.69
-97.57038944,33.36576499,295.30
-97.57039062,33.36569268,289.66
-97.57039147,33.36564065,292.71
-97.57039482,33.36543587,298.26
-97.57039495,33.36542776,291.77
-97.57039596,33.36536635,292.57
-97.57039645,33.36533623,294.59
-97.57039659,33.36532749,289.33
-97.57039730,33.36528448,291.71
-97.57039846,33.36521333,296.68
-97.57040093,33.36506211,292.42
-97.57040122,33.36504444,293.08
-97.57040158,33.36502280,292.45
-97.57040222,33.36498322,294.18
-97.57040251,33.36496563,285.90
-97.57040286,33.36494435,294.54
-97.57040434,33.36485391,290.89
-97.57040462,33.36483669,293.56
-97.57040470,33.36483200,289.62
-97.57040519,33.36480206,290.77
-97.57040539,33.36478953,295.26
-97.57040617,33.36474210,292.59
-97.57040724,33.36467646,297.75
-97.57040731,33.36467195,287.61
-97.57040817,33.36461974,295.95
-97.57041048,33.36447835,295.03
-97.57041133,33.36442669,298.79
-97.57041146,33.36441830,296.75
-97.57041302,33.36432299,297.94
-97.57041357,33.36428936,289.40
-97.57041388,33.36427051,297.97
-97.57041394,33.36426681,297.91
-97.57041825,33.36400352,292.59
-97.57041984,33.36390613,290.72
-97.57042196,33.36377647,290.31
-97.57042481,33.36360235,290.32
-97.57042964,33.36330686,292.67
-97.57043013,33.36327701,296.81
-97.57043098,33.36322535,297.76
-97.57043154,33.36319072,293.36
-97.57043449,33.36301056,294.25
-97.57043759,33.36282111,295.39
-97.57044197,33.36255304,296.13
-97.57044788,33.36219172,298.45
-97.57044877,33.36213708,298.77
-97.57045067,33.36202121,299.13
-97.57045276,33.36189326,299.69
-97.57045345,33.36185097,300.05
-97.57045528,33.36173916,300.42
-97.57045572,33.36171229,308.28
-97.57045597,33.36169705,308.47
-97.57045949,33.36148199,302.00
-97.57045984,33.36146071,301.96
-97.57046124,33.36137505,302.87
-97.57046331,33.36124800,303.84
-97.57046482,33.36115603,304.43
-97.57046565,33.36110517,307.19
-97.57046572,33.36110102,309.34
-97.57046572,33.36110093,311.22
-97.57046674,33.36103880,305.36
-97.57046819,33.36094990,309.93
-97.57046853,33.36092898,315.77
-97.57047135,33.36075648,308.38
-97.57047156,33.36074359,308.43
-97.57047176,33.36073177,317.62
-97.57047459,33.36055838,317.91
-97.57047459,33.36055820,319.47
-97.57047487,33.36054124,318.49
-97.57047514,33.36052456,317.03
-97.57048018,33.36021645,313.35
-97.57048068,33.36018597,313.71
-97.57048095,33.36016938,314.10
-97.57048181,33.36011699,314.72
-97.57048591,33.35986605,321.86
-97.57048834,33.35971790,323.20
-97.57049118,33.35954396,323.09
-97.57049631,33.35923035,317.48
-97.57049776,33.35913495,317.15
-97.57049801,33.35911303,317.06
-97.57049895,33.35902286,316.04
-97.57049880,33.35901889,316.02
-97.57049842,33.35900941,315.99
-97.57044195,33.35900552,316.22
-97.57043765,33.35900547,316.24
-97.57043303,33.35900541,316.24
-97.57040241,33.35900524,316.37
-97.57038908,33.35900518,316.44
-97.57034545,33.35900494,316.66
-97.57030246,33.35900472,316.89
-97.57025851,33.35900448,317.17
-97.57020188,33.35900419,317.40
-97.56970795,33.35899706,317.43
-97.56970375,33.35899701,317.47
-97.56962660,33.35899612,328.45
-97.56962596,33.35899612,327.71
-97.56961844,33.35899603,329.48
-97.56961779,33.35899602,328.72
-97.56961446,33.35899598,330.08
-97.56961081,33.35899594,330.45
-97.56943727,33.35899394,321.60
-97.56942889,33.35899384,322.67
-97.56941664,33.35899370,315.70
-97.56938785,33.35899337,319.85
-97.56934873,33.35899292,315.19
-97.56932004,33.35899259,319.35
-97.56922409,33.35899148,314.70
-97.56918831,33.35899107,314.41
-97.56911599,33.35899024,313.86
-97.56910815,33.35899015,313.81
-97.56910353,33.35899010,313.77
-97.56909182,33.35898996,317.06
-97.56908580,33.35898989,317.09
-97.56907699,33.35898979,317.15
-97.56907495,33.35898977,318.64
-97.56907301,33.35898974,317.32
-97.56907086,33.35898972,319.00
-97.56906742,33.35898968,319.59
-97.56906227,33.35898962,318.94
-97.56904830,33.35898946,313.43
-97.56897523,33.35898862,312.97
-97.56878805,33.35898646,311.76
-97.56858443,33.35898411,310.29
-97.56850201,33.35898316,309.68
-97.56849771,33.35898311,309.71
-97.56849331,33.35898306,309.68
-97.56830494,33.35898089,308.94
-97.56786310,33.35897579,306.79
-97.56785827,33.35897574,306.77
-97.56785354,33.35897568,306.84
-97.56784935,33.35897563,306.78
-97.56777037,33.35897472,306.70
-97.56772632,33.35897421,312.03
-97.56772008,33.35897414,312.96
-97.56745167,33.35897104,304.70
-97.56729683,33.35896926,303.79
-97.56729178,33.35896920,303.75
-97.56719378,33.35896807,303.38
-97.56710750,33.35896707,302.83
-97.56701778,33.35896604,302.40
-97.56668188,33.35896225,300.82
-97.56638456,33.35895873,299.20
-97.56609101,33.35895533,298.27
-97.56591070,33.35895325,296.62
-97.56578821,33.35895184,296.35
-97.56549648,33.35894847,295.78
-97.56527674,33.35894593,294.31
-97.56516531,33.35894464,306.63
-97.56511803,33.35894409,295.03
-97.56508966,33.35894376,303.99
-97.56506957,33.35894353,306.23
-97.56506183,33.35894344,306.55
-97.56499199,33.35894264,294.46
-97.56494707,33.35894212,303.31
-97.56484596,33.35894095,291.39
-97.56480728,33.35894050,295.75
-97.56471519,33.35893944,298.59
-97.56470273,33.35893929,296.98
-97.56458357,33.35893791,296.94
-97.56458066,33.35893788,296.99
-97.56445978,33.35893648,295.77
-97.56434524,33.35893516,296.08
-97.56429989,33.35893463,305.41
-97.56426390,33.35893422,304.88
-97.56422135,33.35893372,296.87
-97.56411454,33.35893249,297.04
-97.56369666,33.35892766,297.80
-97.56368795,33.35892755,299.79
-97.56333970,33.35892352,298.16
-97.56323752,33.35892234,298.27
-97.56321280,33.35892206,298.26
-97.56309697,33.35892072,298.26
-97.56291269,33.35891858,305.97
-97.56290485,33.35891849,304.40
-97.56282727,33.35891759,298.40
-97.56257508,33.35891467,298.35
-97.56244990,33.35891322,298.37
-97.56234309,33.35891199,296.96
-97.56204029,33.35890848,304.94
-97.56191350,33.35890701,299.35
-97.56180164,33.35890572,300.49
-97.56155977,33.35890291,296.25
-97.56129544,33.35889985,295.87
-97.56116510,33.35889834,295.53
-97.56102606,33.35889673,295.25
-97.56089529,33.35889521,294.75
-97.56064074,33.35889226,294.41
-97.56063923,33.35889224,294.39
-97.56063407,33.35889218,294.42
-97.56050975,33.35889074,294.37
-97.56046140,33.35889018,294.29
-97.56023178,33.35888752,294.02
-97.56017601,33.35888687,293.94
-97.55994681,33.35888421,293.79
-97.55992307,33.35888394,293.62
-97.55982185,33.35888276,293.18
-97.55975702,33.35888427,292.86
-97.55975506,33.35889218,292.83
-97.55975425,33.35892211,292.71
-97.55975284,33.35900750,292.58
-97.55975150,33.35908893,292.45
-97.55975076,33.35913383,292.40
-97.55974963,33.35920218,292.35
-97.55974888,33.35924808,292.27
-97.55974541,33.35945844,292.21
-97.55974535,33.35946205,292.18
-97.55974251,33.35963445,291.99
-97.55974166,33.35968621,291.94
-97.55974104,33.35972345,291.87
-97.55973679,33.35998179,291.64
-97.55973590,33.36003544,291.35
-97.55973567,33.36004942,291.39
-97.55973500,33.36008999,291.51
-97.55973398,33.36015239,294.82
-97.55973386,33.36015915,294.26
-97.55973323,33.36019793,300.26
-97.55973312,33.36020460,291.34
-97.55973065,33.36035446,290.62
-97.55973017,33.36038332,290.51
-97.55972987,33.36040135,295.29
-97.55972904,33.36045185,291.27
-97.55972847,33.36048683,290.44
-97.55972825,33.36050018,290.49
-97.55972752,33.36054436,298.65
-97.55972662,33.36059873,294.86
-97.55972300,33.36081884,289.43
-97.55972271,33.36083615,289.42
-97.55972125,33.36092479,289.33
-97.55972083,33.36095040,289.32
-97.55972071,33.36095761,289.30
-97.55971969,33.36101920,289.17
-97.55971765,33.36114318,288.91
-97.55971342,33.36139989,288.40
-97.55971165,33.36150738,291.96
-97.55970999,33.36160819,287.74
-97.55970832,33.36170981,287.33
-97.55970634,33.36182964,286.68
-97.55970628,33.36183325,286.66
-97.55970591,33.36185588,286.56
-97.55970446,33.36194398,286.15
-97.55970372,33.36198852,285.97
-97.55970344,33.36200565,285.89
-97.55970344,33.36200583,285.89
-97.55970332,33.36201314,285.89
-97.55970197,33.36209492,285.53
-97.55970108,33.36214893,285.43
-97.55970043,33.36218852,285.42
-97.55970033,33.36219447,285.42
-97.55969881,33.36228689,284.58
-97.55969713,33.36238870,284.21
-97.55969431,33.36255993,283.03
-97.55968972,33.36283810,281.32
-97.55968838,33.36291989,280.83
-97.55968646,33.36303630,280.11
-97.55968363,33.36320762,279.34
-97.55968313,33.36323810,279.17
-97.55968008,33.36342349,280.90
-97.55967863,33.36351113,282.02
-97.55967462,33.36375477,276.50
-97.55967280,33.36386478,278.16
-97.55967278,33.36386604,282.32
-97.55967216,33.36390409,285.19
-97.55967187,33.36392131,293.52
-97.55967102,33.36397334,297.42
-97.55967084,33.36398407,295.15
-97.55967071,33.36399183,296.92
-97.55967037,33.36401230,289.98
-97.55967030,33.36401689,291.91
-97.55966983,33.36404548,289.21
-97.55966958,33.36406045,277.86
-97.55966921,33.36408281,280.61
-97.55966901,33.36409507,290.65
-97.55966891,33.36410120,289.80
-97.55966848,33.36412708,290.57
-97.55966843,33.36413051,291.05
-97.55966790,33.36416234,290.40
-97.55966753,33.36418479,290.86
-97.55966752,33.36418569,286.51
-97.55966750,33.36418659,290.02
-97.55966720,33.36420490,283.00
-97.55966676,33.36423168,283.60
-97.55966673,33.36423312,276.86
-97.55966492,33.36434340,282.69
-97.55966460,33.36436270,283.26
-97.55966218,33.36450931,282.15
-97.55966171,33.36453790,276.54
-97.55966086,33.36458956,285.54
-97.55966044,33.36461526,280.38
-97.55966026,33.36462626,280.53
-97.55965931,33.36468370,277.32
-97.55965924,33.36468776,277.08
-97.55965637,33.36486197,282.93
-97.55965623,33.36487062,276.14
-97.55965507,33.36494078,275.70
-97.55965480,33.36495710,275.61
-97.55965065,33.36520903,275.23
-97.55964949,33.36527963,288.82
-97.55964758,33.36539550,280.58
-97.55964599,33.36549162,280.29
-97.55964538,33.36552895,276.09
-97.55964507,33.36554780,274.50
-97.55964481,33.36556340,274.87
-97.55964081,33.36580650,298.29
-97.55963902,33.36591461,274.02
-97.55963849,33.36594698,283.28
-97.55963677,33.36605149,273.65
-97.55963647,33.36606970,276.51
-97.55963641,33.36607313,273.61
-97.55963605,33.36609513,281.27
-97.55963534,33.36613832,275.95
-97.55963458,33.36618431,275.60
-97.55963434,33.36619892,275.65
-97.55963395,33.36622263,285.32
-97.55963358,33.36624490,284.25
-97.55963357,33.36624544,286.24
-97.55963150,33.36637096,284.60
-97.55963116,33.36639170,283.14
-97.55963071,33.36641893,279.42
-97.55963021,33.36644923,284.14
-97.55963019,33.36645049,278.45
-97.55963014,33.36645383,281.78
-97.55962968,33.36648151,289.21
-97.55962935,33.36650144,289.56
-97.55962887,33.36653074,281.07
-97.55962818,33.36657249,274.06
-97.55962804,33.36658133,291.04
-97.55962583,33.36671532,286.44
-97.55962405,33.36682316,279.87
-97.55962398,33.36682758,280.09
-97.55962307,33.36688285,287.72
-97.55962300,33.36688691,289.69
-97.55962240,33.36692343,292.72
-97.55962159,33.36697212,273.59
-97.55962152,33.36697645,286.13
-97.55962147,33.36697997,284.32
-97.55962098,33.36700954,283.38
-97.55962005,33.36706563,279.98
-97.55961989,33.36707582,280.61
-97.55961924,33.36711495,284.75
-97.55961854,33.36715760,278.75
-97.55961796,33.36719268,278.83
-97.55961762,33.36721306,275.50
-97.55961760,33.36721477,278.13
-97.55961707,33.36724696,278.06
-97.55961682,33.36726202,279.96
-97.55961612,33.36730404,278.32
-97.55961517,33.36736220,277.67
-97.55961497,33.36737419,277.77
-97.55961454,33.36739989,278.76
-97.55961427,33.36741657,282.16
-97.55961414,33.36742414,272.93
-97.55961100,33.36761512,281.94
-97.55961039,33.36765173,279.06
-97.55960944,33.36770935,279.57
-97.55960939,33.36771269,279.61
-97.55960915,33.36772738,281.12
-97.55960912,33.36772883,285.05
-97.55960833,33.36777698,284.99
-97.55960807,33.36779258,284.48
-97.55960804,33.36779483,284.60
-97.55960758,33.36782269,272.67
-97.55960756,33.36782333,280.24
-97.55960685,33.36786697,280.52
-97.55960645,33.36789781,279.23
-97.55960934,33.36789838,281.78
-97.55961116,33.36789867,282.98
-97.55962115,33.36789897,282.90
-97.55963136,33.36789918,282.58
-97.55966166,33.36789953,279.87
-97.55966263,33.36789954,271.47
-97.55966790,33.36789960,283.35
-97.55968015,33.36789974,284.38
-97.55972969,33.36790032,277.10
-97.55978460,33.36790096,281.94
-97.55979631,33.36790109,282.91
-97.55983199,33.36790151,271.42
-97.55983833,33.36790158,271.95
-97.55989711,33.36790226,283.15
-97.55990936,33.36790240,282.05
-97.55992301,33.36790256,280.53
-97.56000716,33.36790354,272.79
-97.56003198,33.36790383,288.43
-97.56003703,33.36790389,288.63
-97.56016964,33.36790542,284.33
-97.56018705,33.36790563,285.90
-97.56019156,33.36790568,284.52
-97.56039101,33.36790799,274.80
-97.56063044,33.36791077,275.52
-97.56074327,33.36791208,275.27
-97.56107555,33.36791593,274.55
-97.56127822,33.36791828,274.23
-97.56144382,33.36792020,273.81
-97.56170281,33.36792320,279.77
-97.56170721,33.36792325,280.05
-97.56186164,33.36792504,278.61
-97.56187045,33.36792514,279.12
-97.56188893,33.36792536,280.55
-97.56193116,33.36792585,283.82
-97.56193568,33.36792590,284.23
-97.56203755,33.36792708,273.82
-97.56227730,33.36792985,292.13
-97.56240002,33.36793128,285.20
-97.56240937,33.36793138,285.77
-97.56241776,33.36793148,286.48
-97.56242216,33.36793153,286.89
-97.56243108,33.36793164,287.55
-97.56243989,33.36793174,288.15
-97.56245763,33.36793194,289.48
-97.56246182,33.36793199,289.75
-97.56247084,33.36793210,290.83
-97.56253639,33.36793286,281.61
     </coordinates>
    </LineString>
   </MultiGeometry>
  </Placemark>
 </Document>
</kml>
