<kml>
 <Document>
  <Style id="yellow">
   <LineStyle>
   <color>ff00ffff</color>
   <width>1</width>
   </LineStyle>
  </Style>
  <Style id="red">
   <LineStyle>
   <color>ffff0000</color>
   <width>2</width>
   </LineStyle>
  </Style>
  <Style id="green">
   <LineStyle>
   <color>ff00ff00</color>
   <width>1</width>
   </LineStyle>
  </Style>
  <Placemark>
  <styleUrl>#yellow</styleUrl>
   <MultiGeometry>
    <LineString>
     <coordinates>
-97.59162827,33.38173730,284.57
-97.59162722,33.38180223,291.03
-97.59162608,33.38187301,291.59
-97.59162579,33.38189122,285.64
-97.59162521,33.38192711,281.28
-97.59162518,33.38192892,281.27
-97.59162513,33.38193189,281.64
-97.59162502,33.38193911,281.50
-97.59162433,33.38198185,294.27
-97.59162380,33.38201440,294.21
-97.59162379,33.38201485,294.20
-97.59162361,33.38202603,294.52
-97.59162356,33.38202910,283.09
-97.59162299,33.38206453,291.31
-97.59162160,33.38215083,280.35
-97.59162140,33.38216354,288.28
-97.59162108,33.38218338,282.63
-97.59162081,33.38219961,291.51
-97.59162065,33.38220962,280.23
-97.59161997,33.38225200,283.90
-97.59161880,33.38232459,281.76
-97.59161380,33.38263450,281.57
-97.59161349,33.38265398,281.57
-97.59161039,33.38284604,285.13
-97.59160838,33.38297057,282.24
-97.59160694,33.38305993,282.28
-97.59160515,33.38317102,282.03
-97.59160490,33.38318671,281.93
-97.59160487,33.38318842,281.91
-97.59160328,33.38328680,281.35
-97.59160144,33.38340096,280.64
-97.59159833,33.38359401,280.55
-97.59159482,33.38381159,282.23
-97.59159431,33.38384297,286.54
-97.59159365,33.38388436,284.33
-97.59159270,33.38394297,287.59
-97.59159249,33.38395623,277.69
-97.59159218,33.38397507,277.60
-97.59159014,33.38410194,279.95
-97.59159007,33.38410636,281.71
-97.59158977,33.38412503,282.54
-97.59158892,33.38417742,274.81
-97.59158797,33.38423639,274.49
-97.59158657,33.38432349,274.30
-97.59158534,33.38439951,277.03
-97.59158508,33.38441547,281.87
-97.59158499,33.38442115,282.98
-97.59158458,33.38444658,283.54
-97.59158425,33.38446741,283.47
-97.59158294,33.38454802,281.96
-97.59158162,33.38463008,282.91
-97.59158161,33.38463062,281.06
-97.59158149,33.38463819,279.07
-97.59158147,33.38463945,285.99
-97.59158097,33.38467029,286.32
-97.59158095,33.38467182,281.85
-97.59158069,33.38468769,288.46
-97.59158007,33.38472656,283.64
-97.59157944,33.38476551,282.93
-97.59157868,33.38481231,280.54
-97.59157863,33.38481529,270.56
-97.59157854,33.38482124,282.94
-97.59157830,33.38483585,269.49
-97.59157778,33.38486849,281.91
-97.59157738,33.38489283,277.52
-97.59157713,33.38490861,270.34
-97.59157695,33.38492006,280.82
-97.59157590,33.38498472,280.13
-97.59157584,33.38498850,278.62
-97.59157453,33.38506975,274.36
-97.59157410,33.38509653,274.33
-97.59157301,33.38516407,274.38
-97.59157285,33.38517390,274.31
-97.59157085,33.38529815,274.22
-97.59156739,33.38551267,274.87
-97.59156618,33.38558787,274.78
-97.59156585,33.38560780,274.82
-97.59156173,33.38586343,276.43
-97.59156134,33.38588760,276.59
-97.59156085,33.38591826,276.77
-97.59155671,33.38617506,277.55
-97.59155575,33.38623421,277.63
-97.59155511,33.38630050,277.77
-97.59172340,33.38630493,278.71
-97.59172866,33.38630499,278.71
-97.59201426,33.38630823,280.78
-97.59201920,33.38630829,280.83
-97.59227856,33.38631123,282.34
-97.59228104,33.38631126,282.36
-97.59228587,33.38631131,282.39
-97.59229049,33.38631136,282.42
-97.59229490,33.38631141,282.45
-97.59231382,33.38631154,282.57
-97.59233242,33.38631166,282.66
-97.59235166,33.38631179,282.78
-97.59288855,33.38631815,282.01
-97.59289296,33.38631820,282.00
-97.59292553,33.38631839,282.03
-97.59294897,33.38631847,282.02
-97.59302798,33.38631874,282.11
-97.59306990,33.38631894,282.25
-97.59309312,33.38631902,282.33
-97.59361366,33.38632637,281.36
-97.59361817,33.38632642,281.36
-97.59367869,33.38632665,281.43
-97.59374373,33.38632694,281.63
-97.59422591,33.38633312,282.12
-97.59426642,33.38633376,281.06
-97.59434822,33.38633451,280.35
-97.59462752,33.38633497,281.30
-97.59490328,33.38634098,280.56
-97.59502702,33.38634121,280.47
-97.59544416,33.38634710,278.24
-97.59544889,33.38634715,278.24
-97.59552424,33.38634801,279.31
-97.59555949,33.38634841,289.35
-97.59601749,33.38635359,277.54
-97.59604103,33.38635385,277.86
-97.59618840,33.38635552,279.97
-97.59620344,33.38635569,280.18
-97.59673541,33.38636117,281.51
-97.59677829,33.38636174,281.76
-97.59681580,33.38636226,282.10
-97.59685847,33.38636283,282.32
-97.59694715,33.38636401,282.72
-97.59698960,33.38636458,283.00
-97.59699466,33.38636464,283.04
-97.59699906,33.38636469,283.05
-97.59700369,33.38636474,283.08
-97.59700820,33.38636479,283.11
-97.59701271,33.38636484,283.15
-97.59701766,33.38636490,283.21
-97.59702217,33.38636495,283.25
-97.59736641,33.38636497,291.03
-97.59764737,33.38636868,291.84
-97.59774421,33.38637014,293.96
-97.59776227,33.38637043,294.68
-97.59779945,33.38637103,295.77
-97.59808686,33.38637509,299.53
-97.59814641,33.38637594,300.05
-97.59825056,33.38637730,300.04
-97.59834181,33.38637851,300.44
-97.59878023,33.38638473,287.38
-97.59896296,33.38638688,284.30
-97.59896823,33.38638694,284.26
-97.59897274,33.38638699,284.19
-97.59897768,33.38638705,284.08
-97.59898284,33.38638710,284.05
-97.59898790,33.38638716,284.05
-97.59911946,33.38638865,294.45
-97.59913849,33.38638886,294.13
-97.59914321,33.38638891,294.03
-97.59928499,33.38639051,291.60
-97.59932766,33.38639100,290.97
-97.59937259,33.38639150,295.37
-97.59937721,33.38639156,295.32
-97.59938237,33.38639161,295.13
-97.59948287,33.38639275,288.14
-97.59948760,33.38639280,288.08
-97.59952952,33.38639327,287.35
-97.59954575,33.38639346,292.09
-97.59955070,33.38639351,291.89
-97.59955532,33.38639357,291.80
-97.59956435,33.38639367,292.10
-97.59956972,33.38639373,291.76
-97.59957435,33.38639378,291.72
-97.59962895,33.38639440,285.67
-97.59964260,33.38639455,290.39
-97.59964711,33.38639460,290.32
-97.59965206,33.38639466,290.16
-97.59965743,33.38639472,289.87
-97.59966184,33.38639477,290.22
-97.59966646,33.38639482,290.04
-97.59966861,33.38639484,288.82
-97.59967130,33.38639487,290.13
-97.59967614,33.38639493,290.18
-97.59968151,33.38639499,289.99
-97.59969032,33.38639509,290.07
-97.59970269,33.38639523,288.29
-97.59973708,33.38639562,287.64
-97.59974256,33.38639568,287.13
-97.59977191,33.38639601,286.65
-97.59987724,33.38639720,281.48
-97.59989057,33.38639735,284.33
-97.59989498,33.38639740,284.53
-97.59989971,33.38639745,284.68
-97.59999064,33.38639848,279.60
-97.60000462,33.38639864,279.45
-97.60013564,33.38640011,279.61
-97.60014048,33.38640017,279.58
-97.60027011,33.38640163,289.52
-97.60027505,33.38640169,289.50
-97.60027957,33.38640174,289.44
-97.60032160,33.38640221,288.74
-97.60063976,33.38640580,283.45
-97.60074198,33.38640695,281.68
-97.60074639,33.38640700,281.49
-97.60075122,33.38640706,281.56
-97.60114280,33.38641147,286.94
-97.60115193,33.38641157,286.86
-97.60153448,33.38641589,280.08
-97.60154373,33.38641599,279.97
-97.60154845,33.38641604,279.91
-97.60185447,33.38641949,288.65
-97.60206182,33.38642174,285.14
-97.60230292,33.38642409,280.06
-97.60230489,33.38631418,279.95
-97.60230821,33.38611355,280.26
-97.60230951,33.38603194,294.41
-97.60230952,33.38603167,293.75
-97.60231107,33.38593447,280.85
-97.60231282,33.38582518,293.05
-97.60231283,33.38582446,291.29
-97.60231660,33.38558911,291.58
-97.60231975,33.38539218,286.96
-97.60231976,33.38539154,285.29
-97.60232147,33.38528505,292.26
-97.60232147,33.38528469,291.30
-97.60232148,33.38528415,289.89
-97.60232158,33.38527829,287.09
-97.60232176,33.38526648,281.48
-97.60232178,33.38526558,293.81
-97.60232180,33.38526449,290.82
-97.60232867,33.38483519,284.10
-97.60233117,33.38467847,284.42
-97.60233481,33.38445115,285.42
-97.60233521,33.38442662,285.47
-97.60233636,33.38435467,285.79
-97.60233827,33.38423528,286.26
-97.60233997,33.38412879,295.00
-97.60233998,33.38412852,294.27
-97.60233998,33.38412797,292.93
-97.60234045,33.38409885,289.60
-97.60234047,33.38409768,286.79
-97.60234146,33.38403600,293.18
-97.60234549,33.38378415,286.79
-97.60234782,33.38363816,285.41
-97.60234825,33.38361120,286.55
-97.60234826,33.38361084,285.53
-97.60235205,33.38337432,290.40
-97.60235205,33.38337378,289.02
-97.60235206,33.38337324,287.65
-97.60235446,33.38322329,287.48
-97.60235938,33.38291607,287.60
-97.60235988,33.38288460,287.58
-97.60236024,33.38286197,287.58
-97.60236061,33.38283880,287.70
-97.60236144,33.38278695,287.16
-97.60236243,33.38272518,287.05
-97.60236380,33.38263952,286.83
-97.60236577,33.38251670,288.50
-97.60236683,33.38245070,291.50
-97.60236683,33.38245025,290.26
-97.60236691,33.38244520,290.29
-97.60236692,33.38244448,288.03
-97.60236853,33.38234385,291.34
-97.60236855,33.38234276,287.88
-97.60236883,33.38232545,293.19
-97.60236884,33.38232500,291.92
-97.60237292,33.38206982,293.78
-97.60237293,33.38206945,292.71
-97.60237358,33.38202852,288.15
-97.60237602,33.38187577,286.25
-97.60237682,33.38182635,290.32
-97.60237683,33.38182536,287.50
-97.60237954,33.38164908,286.21
-97.60238486,33.38131021,285.42
-97.60238827,33.38111066,286.05
-97.60239330,33.38078911,287.14
-97.60239555,33.38064889,291.32
-97.60240193,33.38025665,296.53
-97.60240194,33.38025629,295.60
-97.60240194,33.38025584,294.19
-97.60240196,33.38025512,292.40
-97.60240374,33.38014340,301.66
-97.60240951,33.37978307,289.33
-97.60240982,33.37976359,289.03
-97.60241005,33.37974926,288.96
-97.60241100,33.37968965,289.06
-97.60241115,33.37968073,290.20
-97.60241454,33.37946855,289.29
-97.60241649,33.37934664,288.86
-97.60241796,33.37925458,288.68
-97.60242037,33.37910444,288.25
-97.60242248,33.37897243,298.73
-97.60242248,33.37897225,297.98
-97.60242514,33.37880597,288.92
-97.60242673,33.37870642,298.71
-97.60242838,33.37860372,295.22
-97.60242912,33.37855701,292.92
-97.60242930,33.37854583,292.16
-97.60242931,33.37854556,291.34
-97.60242960,33.37852752,289.64
-97.60243159,33.37840273,297.11
-97.60243217,33.37836684,295.67
-97.60243315,33.37830561,294.38
-97.60243350,33.37828352,293.91
-97.60243356,33.37827982,295.17
-97.60243586,33.37813591,295.24
-97.60243726,33.37804835,295.20
-97.60243743,33.37803798,290.60
-97.60243847,33.37797297,294.77
-97.60243921,33.37792653,285.17
-97.60243934,33.37791824,291.16
-97.60244065,33.37783663,286.00
-97.60244123,33.37780065,298.38
-97.60244139,33.37779019,297.35
-97.60244157,33.37777937,296.45
-97.60244321,33.37767631,295.04
-97.60244340,33.37766476,292.30
-97.60244360,33.37765223,288.21
-97.60244533,33.37754403,287.88
-97.60244659,33.37743825,289.13
-97.60244665,33.37740768,289.55
-97.60224310,33.37740520,288.30
-97.60203889,33.37740290,288.54
-97.60186488,33.37740103,290.23
-97.60186015,33.37740107,290.24
-97.60185564,33.37740111,290.24
-97.60185123,33.37740115,290.23
-97.60181425,33.37740146,289.69
-97.60180930,33.37740149,289.56
-97.60127484,33.37739466,293.09
-97.60123841,33.37739397,289.63
-97.60116425,33.37739305,296.57
-97.60114791,33.37739286,295.64
-97.60114738,33.37739286,299.62
-97.60113803,33.37739275,295.43
-97.60110277,33.37739236,296.59
-97.60109203,33.37739223,295.75
-97.60105258,33.37739179,290.65
-97.60094306,33.37739056,298.88
-97.60093264,33.37739044,298.12
-97.60072467,33.37738809,299.88
-97.60071941,33.37738803,299.60
-97.60069318,33.37738774,297.62
-97.60067599,33.37738754,295.32
-97.60062461,33.37738696,292.66
-97.60062364,33.37738695,292.69
-97.60061924,33.37738690,292.70
-97.60045426,33.37738504,293.10
-97.60033002,33.37738364,299.70
-97.60031895,33.37738352,298.93
-97.60026317,33.37738289,294.98
-97.60025242,33.37738277,294.24
-97.60006821,33.37738069,295.63
-97.59987357,33.37737849,296.67
-97.59974266,33.37737702,302.56
-97.59972912,33.37737686,306.20
-97.59971655,33.37737672,305.46
-97.59971160,33.37737667,305.51
-97.59970322,33.37737657,304.99
-97.59969903,33.37737652,304.78
-97.59969537,33.37737648,304.33
-97.59969054,33.37737643,304.49
-97.59968731,33.37737639,303.82
-97.59968377,33.37737635,298.36
-97.59968269,33.37737634,303.64
-97.59964744,33.37737594,302.10
-97.59964357,33.37737590,301.69
-97.59963110,33.37737576,300.94
-97.59961391,33.37737556,300.01
-97.59956232,33.37737498,297.36
-97.59955770,33.37737493,297.33
-97.59947849,33.37737404,298.25
-97.59905235,33.37736923,298.72
-97.59901408,33.37736879,298.51
-97.59900935,33.37736874,298.51
-97.59886286,33.37736709,297.99
-97.59874099,33.37736571,303.50
-97.59872659,33.37736555,305.23
-97.59870670,33.37736532,301.34
-97.59869348,33.37736518,300.64
-97.59868445,33.37736507,300.45
-97.59863201,33.37736448,297.22
-97.59862706,33.37736443,297.34
-97.59862233,33.37736437,297.22
-97.59819102,33.37736040,295.72
-97.59804906,33.37735799,292.84
-97.59803498,33.37735774,292.83
-97.59803025,33.37735768,292.67
-97.59767665,33.37735369,297.39
-97.59765387,33.37735343,295.93
-97.59757466,33.37735254,291.34
-97.59757014,33.37735249,291.37
-97.59727244,33.37734912,304.55
-97.59726276,33.37734901,304.01
-97.59724858,33.37734885,303.32
-97.59722053,33.37734854,301.96
-97.59709682,33.37734714,295.11
-97.59709209,33.37734708,295.12
-97.59677095,33.37734345,297.62
-97.59676784,33.37734342,297.10
-97.59675655,33.37734329,296.03
-97.59675225,33.37734324,295.73
-97.59670131,33.37734267,291.43
-97.59669637,33.37734261,291.43
-97.59668508,33.37734248,290.21
-97.59651161,33.37734052,289.73
-97.59650678,33.37734047,289.73
-97.59635857,33.37733879,294.47
-97.59631741,33.37733832,291.58
-97.59627484,33.37733784,303.92
-97.59627012,33.37733779,303.94
-97.59623959,33.37733744,302.08
-97.59621939,33.37733722,300.84
-97.59621466,33.37733716,300.90
-97.59620413,33.37733704,300.09
-97.59610826,33.37733596,300.03
-97.59601970,33.37733496,293.01
-97.59565353,33.37733081,297.72
-97.59564643,33.37733073,298.25
-97.59564224,33.37733069,298.12
-97.59559839,33.37733019,294.23
-97.59559399,33.37733014,294.21
-97.59558915,33.37733009,294.20
-97.59524652,33.37732621,294.13
-97.59524168,33.37732615,294.08
-97.59520460,33.37732573,293.94
-97.59519977,33.37732568,293.93
-97.59485627,33.37732179,293.84
-97.59484004,33.37732161,292.37
-97.59483564,33.37732156,292.38
-97.59472902,33.37732035,292.10
-97.59448301,33.37731756,291.53
-97.59426193,33.37731506,290.17
-97.59425645,33.37731500,290.15
-97.59409556,33.37731326,290.57
-97.59368060,33.37730847,290.75
-97.59367630,33.37730842,290.76
-97.59334441,33.37730466,292.04
-97.59302940,33.37730109,296.47
-97.59299114,33.37730066,293.19
-97.59261111,33.37729635,294.59
-97.59260670,33.37729630,294.61
-97.59221785,33.37729189,293.34
-97.59221323,33.37729184,293.32
-97.59219743,33.37729166,293.28
-97.59219238,33.37729160,293.25
-97.59189349,33.37728821,291.53
-97.59181374,33.37728730,294.24
-97.59178677,33.37728700,292.11
-97.59178215,33.37728695,291.97
-97.59177634,33.37728688,291.18
-97.59177172,33.37728683,291.07
-97.59176635,33.37728677,290.84
-97.59170013,33.37728692,290.51
-97.59169930,33.37733173,294.56
-97.59169913,33.37734219,294.47
-97.59169886,33.37735887,295.91
-97.59169813,33.37740450,290.71
-97.59169696,33.37747682,293.20
-97.59169683,33.37748493,292.37
-97.59169655,33.37750215,290.47
-97.59169372,33.37767754,296.14
-97.59169326,33.37770657,295.34
-97.59168858,33.37799656,288.47
-97.59168723,33.37808042,288.78
-97.59168710,33.37808863,288.76
-97.59168400,33.37828078,289.32
-97.59168226,33.37838890,291.01
-97.59168105,33.37846338,291.06
-97.59168067,33.37848700,297.29
-97.59168005,33.37852541,290.98
-97.59167968,33.37854850,291.16
-97.59167922,33.37857744,299.07
-97.59167872,33.37860837,297.56
-97.59167871,33.37860873,300.20
-97.59167867,33.37861144,299.52
-97.59167815,33.37864354,290.80
-97.59167779,33.37866563,296.16
-97.59167775,33.37866843,295.12
-97.59167731,33.37869593,297.41
-97.59167730,33.37869647,300.38
-97.59167725,33.37869908,299.39
-97.59167531,33.37881946,296.76
-97.59167413,33.37889295,296.64
-97.59167399,33.37890152,296.63
-97.59167385,33.37891017,299.30
-97.59167197,33.37902685,288.47
-97.59167044,33.37912180,287.09
-97.59167037,33.37912595,287.08
-97.59166626,33.37938105,286.49
-97.59166538,33.37943551,296.64
-97.59166467,33.37947951,287.17
-97.59166412,33.37951351,297.61
-97.59166409,33.37951531,287.42
-97.59166348,33.37955372,291.10
-97.59166237,33.37962243,289.61
-97.59166226,33.37962938,296.35
-97.59166036,33.37974714,291.88
-97.59166033,33.37974876,294.47
-97.59166011,33.37976247,293.48
-97.59165953,33.37979836,285.75
-97.59165933,33.37981062,296.64
-97.59165927,33.37981468,296.44
-97.59165914,33.37982279,292.20
-97.59165864,33.37985372,297.33
-97.59165800,33.37989340,291.39
-97.59165773,33.37990981,295.95
-97.59165759,33.37991856,294.12
-97.59165759,33.37991892,295.96
-97.59165749,33.37992478,291.22
-97.59165744,33.37992802,295.04
-97.59165731,33.37993632,288.17
-97.59165618,33.38000620,283.76
-97.59165563,33.38004065,285.04
-97.59165551,33.38004750,283.41
-97.59165543,33.38005300,283.37
-97.59165539,33.38005525,284.83
-97.59165492,33.38008438,283.24
-97.59165480,33.38009204,291.83
-97.59165420,33.38012892,285.51
-97.59165410,33.38013497,290.27
-97.59165258,33.38022928,291.92
-97.59165183,33.38027626,288.73
-97.59165176,33.38028014,293.05
-97.59165083,33.38033785,288.35
-97.59165068,33.38034750,285.57
-97.59165060,33.38035210,283.11
-97.59165034,33.38036815,292.55
-97.59164834,33.38049276,294.47
-97.59164813,33.38050548,288.96
-97.59164745,33.38054768,293.94
-97.59164700,33.38057563,282.13
-97.59164650,33.38060683,293.94
-97.59164472,33.38071684,281.80
-97.59164236,33.38086328,282.01
-97.59164211,33.38087888,283.75
-97.59164095,33.38095101,286.53
-97.59164089,33.38095435,283.83
-97.59164073,33.38096454,285.97
-97.59164003,33.38100764,283.73
-97.59163745,33.38116778,281.27
-97.59163692,33.38120061,282.94
-97.59163669,33.38121476,282.08
-97.59163554,33.38128618,290.52
-97.59163291,33.38144975,291.12
-97.59163279,33.38145678,288.53
-97.59163276,33.38145858,288.56
-97.59163258,33.38147022,280.79
-97.59163179,33.38151864,285.54
-97.59163087,33.38157581,288.76
-97.59163086,33.38157671,288.31
-97.59163086,33.38157680,290.19
-97.59163004,33.38162720,280.70
-97.59162934,33.38167076,292.68
-97.59162920,33.38167932,289.38
-97.59162869,33.38171142,284.08
-97.59162850,33.38172315,280.64
-97.59162827,33.38173730,284.57
     </coordinates>
    </LineString>
   </MultiGeometry>
  </Placemark>
 </Document>
</kml>
