<kml>
 <Document>
  <Style id="yellow">
   <LineStyle>
   <color>ff00ffff</color>
   <width>1</width>
   </LineStyle>
  </Style>
  <Style id="red">
   <LineStyle>
   <color>ffff0000</color>
   <width>2</width>
   </LineStyle>
  </Style>
  <Style id="green">
   <LineStyle>
   <color>ff00ff00</color>
   <width>1</width>
   </LineStyle>
  </Style>
  <Placemark>
  <styleUrl>#yellow</styleUrl>
   <MultiGeometry>
    <LineString>
     <coordinates>
-97.60605924,33.35941047,340.89
-97.60606364,33.35941052,340.87
-97.60640857,33.35941439,339.04
-97.60641276,33.35941444,338.99
-97.60676983,33.35941845,334.71
-97.60677413,33.35941850,334.66
-97.60718332,33.35942309,332.02
-97.60718718,33.35942313,333.53
-97.60719137,33.35942318,333.96
-97.60719535,33.35942322,334.66
-97.60719567,33.35942323,333.73
-97.60757681,33.35942750,330.02
-97.60758100,33.35942755,329.93
-97.60758466,33.35942759,330.96
-97.60804746,33.35943278,327.39
-97.60805241,33.35943284,327.28
-97.60829536,33.35943556,326.44
-97.60837971,33.35943651,328.50
-97.60841152,33.35943686,329.46
-97.60842291,33.35943699,331.08
-97.60842688,33.35943704,331.28
-97.60843065,33.35943708,331.78
-97.60843623,33.35943714,329.85
-97.60851897,33.35943807,331.78
-97.60852929,33.35943818,332.04
-97.60858979,33.35943886,333.32
-97.60860977,33.35943909,322.93
-97.60890882,33.35944244,327.72
-97.60891355,33.35944249,327.66
-97.60891924,33.35944255,329.46
-97.60892332,33.35944260,329.83
-97.60893568,33.35944274,330.64
-97.60895062,33.35944290,334.32
-97.60895524,33.35944296,334.38
-97.60895943,33.35944300,334.51
-97.60896545,33.35944307,336.04
-97.60896931,33.35944311,336.42
-97.60897265,33.35944315,336.98
-97.60912588,33.35944487,335.00
-97.60914070,33.35944503,335.36
-97.60914554,33.35944509,335.49
-97.60920077,33.35944571,326.78
-97.60937463,33.35944766,334.11
-97.60937872,33.35944770,334.22
-97.60938441,33.35944777,335.55
-97.60938763,33.35944780,336.08
-97.60942460,33.35944822,332.00
-97.60943427,33.35944832,332.27
-97.60975115,33.35945187,329.66
-97.60975620,33.35945193,329.65
-97.60980004,33.35945242,329.88
-97.60980456,33.35945247,329.91
-97.61016990,33.35945656,331.77
-97.61017442,33.35945661,331.83
-97.61029874,33.35945800,332.26
-97.61083129,33.35946396,335.68
-97.61117965,33.35946786,333.20
-97.61154640,33.35947196,331.77
-97.61194441,33.35947642,330.56
-97.61233662,33.35948080,329.08
-97.61234124,33.35948085,329.09
-97.61270959,33.35948497,327.74
-97.61315703,33.35948997,326.98
-97.61347929,33.35949348,326.66
-97.61348117,33.35949007,326.67
-97.61348146,33.35948529,326.64
-97.61348173,33.35946861,326.56
-97.61348200,33.35945157,326.54
-97.61348498,33.35926356,326.26
-97.61348527,33.35924517,326.28
-97.61348679,33.35914940,326.13
-97.61348729,33.35911802,326.03
-97.61348821,33.35905986,326.01
-97.61348892,33.35901505,325.94
-97.61349075,33.35889972,325.60
-97.61349287,33.35876626,325.28
-97.61349359,33.35872091,325.20
-97.61349427,33.35867780,325.20
-97.61349561,33.35859322,325.09
-97.61349617,33.35855769,325.08
-97.61350018,33.35830485,324.84
-97.61350492,33.35800638,324.57
-97.61350497,33.35800314,324.56
-97.61350622,33.35792406,324.46
-97.61350660,33.35790016,324.42
-97.61350686,33.35788393,324.40
-97.61350735,33.35785273,324.40
-97.61350808,33.35780674,324.37
-97.61351056,33.35765083,324.25
-97.61351168,33.35757987,331.12
-97.61351182,33.35757094,328.83
-97.61351194,33.35756373,331.33
-97.61351248,33.35752964,328.02
-97.61351256,33.35752459,330.75
-97.61351377,33.35744822,336.17
-97.61351379,33.35744686,333.99
-97.61351419,33.35742162,331.64
-97.61351429,33.35741539,332.04
-97.61351474,33.35738699,331.56
-97.61351490,33.35737707,333.86
-97.61351554,33.35733667,333.57
-97.61351610,33.35730115,334.65
-97.61351618,33.35729637,334.50
-97.61351622,33.35729357,334.41
-97.61351705,33.35724109,330.77
-97.61351708,33.35723956,331.57
-97.61351729,33.35722603,331.26
-97.61351734,33.35722306,323.46
-97.61351780,33.35719411,323.48
-97.61351818,33.35716995,323.26
-97.61351826,33.35716508,323.22
-97.61351948,33.35708825,323.01
-97.61352122,33.35697842,329.50
-97.61352131,33.35697265,332.86
-97.61352164,33.35695200,329.92
-97.61352286,33.35687517,324.89
-97.61352325,33.35685056,322.24
-97.61352426,33.35678653,321.86
-97.61353115,33.35635200,320.62
-97.61353270,33.35625470,320.38
-97.61353581,33.35605830,319.83
-97.61353598,33.35604757,319.78
-97.61353931,33.35583792,319.20
-97.61353948,33.35582710,319.19
-97.61354104,33.35572882,318.94
-97.61354308,33.35559987,322.44
-97.61354328,33.35558725,323.37
-97.61354329,33.35558697,325.12
-97.61354378,33.35555605,329.99
-97.61354403,33.35554036,327.01
-97.61354587,33.35542412,318.67
-97.61354626,33.35539915,321.49
-97.61354774,33.35530582,318.69
-97.61354904,33.35522430,317.97
-97.61355433,33.35489030,318.24
-97.61355508,33.35484314,318.18
-97.61355732,33.35470203,318.05
-97.61355861,33.35462033,317.89
-97.61355921,33.35458282,317.81
-97.61356140,33.35444440,317.64
-97.61356670,33.35410355,317.30
-97.61357121,33.35382618,316.94
-97.61357260,33.35373818,316.68
-97.61357271,33.35373141,316.67
-97.61357343,33.35368624,316.63
-97.61357537,33.35356333,320.25
-97.61357550,33.35355558,321.97
-97.61357594,33.35352780,320.88
-97.61357620,33.35351112,322.16
-97.61358028,33.35325386,315.84
-97.61358204,33.35314322,315.64
-97.61358412,33.35301202,315.29
-97.61358787,33.35277541,314.38
-97.61358944,33.35267631,314.07
-97.61358968,33.35266089,314.02
-97.61359007,33.35263663,313.97
-97.61359069,33.35259705,313.86
-97.61359131,33.35255809,313.75
-97.61359840,33.35211093,312.26
-97.61359923,33.35205863,312.04
-97.61360210,33.35187747,311.84
-97.61360657,33.35159559,311.15
-97.61360887,33.35145096,310.72
-97.61361072,33.35133391,310.41
-97.61361129,33.35129785,310.33
-97.61361158,33.35127990,310.20
-97.61361626,33.35098450,310.67
-97.61361646,33.35097205,310.65
-97.61361709,33.35093193,310.56
-97.61361717,33.35092724,314.00
-97.61361769,33.35089460,316.04
-97.61361774,33.35089099,313.84
-97.61361784,33.35088504,316.32
-97.61361814,33.35086601,313.89
-97.61361832,33.35085438,316.07
-97.61361967,33.35076962,310.09
-97.61362064,33.35070803,316.15
-97.61362142,33.35065916,318.55
-97.61362151,33.35065348,310.64
-97.61362241,33.35059694,310.66
-97.61362243,33.35059567,310.66
-97.61362272,33.35057701,310.66
-97.61362291,33.35056502,310.64
-97.61362322,33.35054554,310.58
-97.61362381,33.35050857,310.56
-97.61362231,33.35048113,310.47
-97.61362021,33.35047795,310.44
-97.61358091,33.35047598,310.28
-97.61351623,33.35047526,312.54
-97.61341491,33.35047413,309.81
-97.61340975,33.35047407,309.65
-97.61339643,33.35047392,309.65
-97.61316650,33.35047135,308.83
-97.61300232,33.35046952,308.95
-97.61299760,33.35046947,308.94
-97.61299255,33.35046941,318.04
-97.61298481,33.35046932,317.05
-97.61293539,33.35046877,309.70
-97.61283493,33.35046765,318.35
-97.61259791,33.35046500,311.54
-97.61259275,33.35046494,311.59
-97.61252194,33.35046415,311.92
-97.61230867,33.35046177,312.69
-97.61207831,33.35045919,313.42
-97.61184827,33.35045662,314.32
-97.61167819,33.35045472,314.64
-97.61142258,33.35045186,314.86
-97.61122070,33.35044960,314.93
-97.61099668,33.35044710,315.35
-97.61058323,33.35044247,315.46
-97.61033923,33.35043974,315.42
-97.61009168,33.35043697,315.05
-97.61008685,33.35043692,315.04
-97.60993900,33.35043526,314.91
-97.60976505,33.35043331,320.87
-97.60976086,33.35043327,320.70
-97.60974260,33.35043306,319.85
-97.60971928,33.35043280,315.12
-97.60948355,33.35043016,314.37
-97.60940662,33.35042930,313.21
-97.60940200,33.35042925,313.17
-97.60939738,33.35042920,313.04
-97.60924116,33.35042745,312.16
-97.60907645,33.35042560,311.47
-97.60906775,33.35042550,311.36
-97.60882449,33.35042278,309.21
-97.60873284,33.35042175,308.75
-97.60872855,33.35042170,308.71
-97.60860918,33.35042037,307.78
-97.60837817,33.35041778,306.51
-97.60828835,33.35041677,306.87
-97.60828405,33.35041672,306.51
-97.60798858,33.35041341,310.37
-97.60798568,33.35041338,309.12
-97.60798407,33.35041336,310.11
-97.60794486,33.35041292,303.18
-97.60760824,33.35040914,304.16
-97.60723132,33.35040492,304.30
-97.60722692,33.35040487,304.22
-97.60693392,33.35040158,305.57
-97.60657796,33.35039759,307.49
-97.60657313,33.35039753,307.48
-97.60640423,33.35039564,320.14
-97.60638994,33.35039548,318.87
-97.60638080,33.35039537,317.62
-97.60637597,33.35039532,316.48
-97.60631720,33.35039466,308.54
-97.60631269,33.35039461,308.57
-97.60587926,33.35038974,310.28
-97.60561602,33.35038679,310.75
-97.60555768,33.35038613,310.90
-97.60555339,33.35038608,310.90
-97.60519528,33.35038206,312.31
-97.60491603,33.35037892,313.14
-97.60491120,33.35037887,313.18
-97.60469846,33.35037648,313.37
-97.60469405,33.35037643,313.36
-97.60455782,33.35037490,313.40
-97.60422002,33.35037110,312.34
-97.60421561,33.35037105,312.30
-97.60413685,33.35037016,315.02
-97.60380196,33.35036640,313.35
-97.60379723,33.35036635,313.33
-97.60375500,33.35036587,313.19
-97.60375049,33.35036582,313.18
-97.60343665,33.35036229,313.45
-97.60328763,33.35036061,313.53
-97.60327828,33.35036060,313.55
-97.60326904,33.35036059,313.54
-97.60326044,33.35036058,313.55
-97.60302649,33.35036047,313.44
-97.60292742,33.35036044,313.42
-97.60288722,33.35036044,313.42
-97.60288282,33.35036048,313.42
-97.60288025,33.35039328,313.47
-97.60287939,33.35041356,313.57
-97.60287491,33.35068038,314.15
-97.60286788,33.35112736,315.54
-97.60286253,33.35146199,316.20
-97.60285962,33.35163746,316.85
-97.60285390,33.35199526,318.30
-97.60284896,33.35230455,318.13
-97.60284880,33.35231465,318.13
-97.60284597,33.35249193,318.26
-97.60284447,33.35258598,318.31
-97.60284423,33.35260104,318.31
-97.60284359,33.35264062,318.28
-97.60284075,33.35281871,318.28
-97.60283988,33.35287272,327.67
-97.60283945,33.35289987,322.81
-97.60283933,33.35290762,318.53
-97.60283922,33.35291456,327.06
-97.60283915,33.35291862,323.50
-97.60283795,33.35299373,323.38
-97.60283767,33.35301114,318.51
-97.60283751,33.35302151,326.57
-97.60283623,33.35310113,327.76
-97.60283455,33.35320645,318.72
-97.60283424,33.35322629,322.40
-97.60283362,33.35326479,329.18
-97.60283347,33.35327408,327.77
-97.60283244,33.35333846,326.32
-97.60283237,33.35334297,326.21
-97.60283168,33.35338625,326.00
-97.60283114,33.35341971,328.65
-97.60283100,33.35342899,330.56
-97.60282942,33.35352773,319.52
-97.60282915,33.35354432,327.91
-97.60282884,33.35356362,329.29
-97.60282795,33.35361935,331.65
-97.60282781,33.35362854,330.99
-97.60282764,33.35363882,330.61
-97.60282726,33.35366308,332.46
-97.60282687,33.35368697,328.24
-97.60282674,33.35369527,320.18
-97.60282616,33.35373152,329.49
-97.60282536,33.35378184,332.26
-97.60282476,33.35381953,325.14
-97.60282444,33.35383927,323.47
-97.60282435,33.35384523,329.47
-97.60282350,33.35389843,324.87
-97.60282153,33.35402133,322.65
-97.60282078,33.35406840,330.95
-97.60282062,33.35407859,332.12
-97.60282007,33.35411249,327.17
-97.60281962,33.35414099,324.89
-97.60281897,33.35418184,329.96
-97.60281764,33.35426452,323.03
-97.60281684,33.35431466,325.23
-97.60281595,33.35437057,333.88
-97.60281551,33.35439798,323.57
-97.60281524,33.35441484,333.76
-97.60281123,33.35466579,325.25
-97.60280906,33.35480159,331.57
-97.60280777,33.35488220,334.89
-97.60280610,33.35498725,327.42
-97.60280132,33.35528599,333.69
-97.60279464,33.35570403,336.16
-97.60279388,33.35575173,331.58
-97.60279162,33.35589339,332.95
-97.60279127,33.35591494,339.44
-97.60279035,33.35597265,336.82
-97.60279029,33.35597634,331.97
-97.60278959,33.35601999,334.70
-97.60278762,33.35614316,331.95
-97.60278356,33.35639763,331.88
-97.60277682,33.35681927,333.31
-97.60277489,33.35694001,333.75
-97.60276885,33.35731765,336.48
-97.60276223,33.35773235,337.68
-97.60275885,33.35794362,338.44
-97.60275871,33.35795264,338.48
-97.60275864,33.35795688,338.51
-97.60275550,33.35815327,339.02
-97.60275481,33.35819637,339.13
-97.60274917,33.35854930,340.13
-97.60274868,33.35858014,340.12
-97.60274803,33.35862054,340.15
-97.60274399,33.35887338,340.05
-97.60274208,33.35899295,339.94
-97.60274134,33.35903903,339.91
-97.60274058,33.35908646,339.96
-97.60273835,33.35922595,339.84
-97.60273687,33.35931883,339.86
-97.60273636,33.35935102,339.84
-97.60273673,33.35936149,339.83
-97.60273763,33.35937196,339.84
-97.60290342,33.35937491,340.30
-97.60327531,33.35937918,340.78
-97.60352525,33.35938199,340.08
-97.60353030,33.35938205,340.06
-97.60384342,33.35938557,338.16
-97.60396764,33.35938697,336.91
-97.60397194,33.35938702,336.87
-97.60431031,33.35939082,335.72
-97.60431493,33.35939087,335.64
-97.60437253,33.35939152,335.42
-97.60456906,33.35939373,335.65
-97.60475367,33.35939580,336.26
-97.60475818,33.35939586,336.32
-97.60478214,33.35939613,336.51
-97.60497696,33.35939831,338.18
-97.60513803,33.35940012,338.66
-97.60514287,33.35940018,338.69
-97.60518327,33.35940063,338.81
-97.60532833,33.35940226,339.04
-97.60553927,33.35940463,339.75
-97.60559095,33.35940521,339.95
-97.60559536,33.35940526,340.01
-97.60573720,33.35940686,340.57
-97.60594211,33.35940916,341.06
-97.60605924,33.35941047,340.89
     </coordinates>
    </LineString>
   </MultiGeometry>
  </Placemark>
 </Document>
</kml>
