<kml>
 <Document>
  <Style id="yellow">
   <LineStyle>
   <color>ff00ffff</color>
   <width>1</width>
   </LineStyle>
  </Style>
  <Style id="red">
   <LineStyle>
   <color>ffff0000</color>
   <width>2</width>
   </LineStyle>
  </Style>
  <Style id="green">
   <LineStyle>
   <color>ff00ff00</color>
   <width>1</width>
   </LineStyle>
  </Style>
  <Placemark>
  <styleUrl>#yellow</styleUrl>
   <MultiGeometry>
    <LineString>
     <coordinates>
-99.22405417,47.10628726,573.56
-99.22405680,47.10628784,573.51
-99.22406588,47.10628801,573.45
-99.22416737,47.10628796,573.07
-99.22437225,47.10628757,572.49
-99.22488848,47.10628661,572.34
-99.22514287,47.10628609,572.70
-99.22557139,47.10628525,573.05
-99.22594748,47.10628448,574.22
-99.22637912,47.10628363,573.89
-99.22655057,47.10628322,573.03
-99.22719652,47.10628205,572.30
-99.22755741,47.10628133,570.53
-99.22816486,47.10628008,569.64
-99.22835660,47.10627971,569.93
-99.22883857,47.10627877,569.02
-99.22945587,47.10627755,566.56
-99.22992697,47.10627659,566.31
-99.23019306,47.10627607,568.19
-99.23045542,47.10627551,569.06
-99.23101549,47.10627440,567.90
-99.23142126,47.10627359,567.08
-99.23181080,47.10627277,568.32
-99.23208552,47.10627220,567.04
-99.23268104,47.10627103,567.00
-99.23280973,47.10627076,567.32
-99.23327770,47.10626980,566.97
-99.23353339,47.10626929,567.16
-99.23366062,47.10626902,567.47
-99.23430065,47.10626772,570.75
-99.23446316,47.10626741,571.11
-99.23473131,47.10626682,570.77
-99.23515799,47.10626594,570.12
-99.23539676,47.10626548,570.22
-99.23580373,47.10626466,573.09
-99.23606926,47.10626409,573.68
-99.23668598,47.10626283,572.59
-99.23696316,47.10626226,573.57
-99.23718913,47.10626179,575.17
-99.23722697,47.10626164,575.45
-99.23723268,47.10626123,575.51
-99.23723264,47.10620794,575.09
-99.23723236,47.10606624,573.72
-99.23723067,47.10568845,572.31
-99.23722955,47.10543868,570.12
-99.23722858,47.10522705,569.63
-99.23722740,47.10495161,569.42
-99.23722592,47.10461515,570.01
-99.23722470,47.10436620,570.60
-99.23722306,47.10399052,569.53
-99.23722242,47.10383021,567.64
-99.23722110,47.10354268,567.37
-99.23721993,47.10326657,567.10
-99.23721802,47.10285476,567.34
-99.23721627,47.10245531,573.72
-99.23721550,47.10228791,572.58
-99.23721462,47.10209980,571.44
-99.23721356,47.10183762,572.36
-99.23721344,47.10180567,572.05
-99.23721155,47.10138715,571.51
-99.23721007,47.10105574,572.03
-99.23720884,47.10078040,572.99
-99.23720719,47.10040601,570.87
-99.23720584,47.10009496,572.39
-99.23720435,47.09976617,572.44
-99.23720335,47.09953862,572.52
-99.23720208,47.09925878,573.51
-99.23720021,47.09882709,577.12
-99.23719965,47.09871839,578.37
-99.23719809,47.09835553,581.76
-99.23719664,47.09804549,582.35
-99.23719599,47.09788872,583.12
-99.23719514,47.09770500,582.43
-99.23719362,47.09735906,581.56
-99.23719284,47.09727122,581.21
-99.23719273,47.09726437,581.20
-99.23709496,47.09726342,581.84
-99.23660720,47.09726442,585.89
-99.23641612,47.09726486,585.56
-99.23593777,47.09726578,581.90
-99.23531244,47.09726709,581.77
-99.23484527,47.09726804,579.64
-99.23444582,47.09726889,577.94
-99.23395356,47.09726985,576.28
-99.23331885,47.09727117,573.86
-99.23308968,47.09727167,573.36
-99.23265683,47.09727251,573.22
-99.23244927,47.09727293,573.22
-99.23196176,47.09727394,573.20
-99.23136690,47.09727511,577.34
-99.23095886,47.09727593,577.20
-99.23044101,47.09727697,574.52
-99.23024604,47.09727736,573.22
-99.22975608,47.09727838,571.10
-99.22913188,47.09727960,571.74
-99.22866432,47.09728055,572.71
-99.22820521,47.09728147,568.31
-99.22781571,47.09728227,570.21
-99.22720209,47.09728344,570.89
-99.22680237,47.09728425,572.78
-99.22630434,47.09728524,576.11
-99.22577370,47.09728628,578.02
-99.22528444,47.09728723,577.89
-99.22465811,47.09728848,575.90
-99.22431613,47.09728913,574.44
-99.22417212,47.09728942,573.82
-99.22403260,47.09729008,573.12
-99.22401825,47.09729192,572.99
-99.22401659,47.09731330,572.97
-99.22401647,47.09732268,572.93
-99.22401688,47.09748877,573.15
-99.22401818,47.09780493,570.93
-99.22401833,47.09784087,570.76
-99.22401985,47.09819341,570.25
-99.22402034,47.09831611,570.21
-99.22402100,47.09848115,570.79
-99.22402229,47.09878408,572.60
-99.22402352,47.09908377,571.98
-99.22402408,47.09922062,569.81
-99.22402467,47.09934336,566.53
-99.22402618,47.09972226,567.49
-99.22402681,47.09986628,567.42
-99.22402761,47.10004936,571.26
-99.22402911,47.10039922,574.48
-99.22402987,47.10059246,572.51
-99.22403067,47.10079193,570.60
-99.22403233,47.10118786,572.85
-99.22403300,47.10134257,574.07
-99.22403479,47.10177489,572.84
-99.22403616,47.10209866,571.30
-99.22403675,47.10221251,571.27
-99.22403861,47.10258180,571.25
-99.22403929,47.10262027,571.29
-99.22403988,47.10262607,571.27
-99.22404091,47.10263258,571.25
-99.22406364,47.10307154,571.23
-99.22404059,47.10310489,571.27
-99.22404094,47.10322468,572.57
-99.22404127,47.10331566,573.54
-99.22404161,47.10339912,574.45
-99.22404259,47.10358684,575.02
-99.22404365,47.10387299,573.78
-99.22404489,47.10417790,573.65
-99.22404595,47.10442095,573.92
-99.22404740,47.10477388,574.46
-99.22404922,47.10521419,575.36
-99.22404963,47.10530841,575.36
-99.22405078,47.10556324,574.25
-99.22405237,47.10596557,574.60
-99.22405308,47.10612479,573.85
-99.22405384,47.10628422,573.53
-99.22405417,47.10628726,573.56
     </coordinates>
    </LineString>
   </MultiGeometry>
  </Placemark>
 </Document>
</kml>
