<kml>
 <Document>
  <Style id="yellow">
   <LineStyle>
   <color>ff00ffff</color>
   <width>1</width>
   </LineStyle>
  </Style>
  <Style id="red">
   <LineStyle>
   <color>ffff0000</color>
   <width>2</width>
   </LineStyle>
  </Style>
  <Style id="green">
   <LineStyle>
   <color>ff00ff00</color>
   <width>1</width>
   </LineStyle>
  </Style>
  <Placemark>
  <styleUrl>#yellow</styleUrl>
   <MultiGeometry>
    <LineString>
     <coordinates>
-99.26375339,47.13319936,601.79
-99.26387917,47.13319917,602.62
-99.26437606,47.13319796,603.68
-99.26489420,47.13319680,604.55
-99.26496559,47.13319665,604.33
-99.26510782,47.13319633,604.32
-99.26528731,47.13319590,604.54
-99.26544342,47.13319552,604.82
-99.26555120,47.13319526,605.31
-99.26613657,47.13319380,609.04
-99.26642882,47.13319317,611.11
-99.26691611,47.13319213,613.39
-99.26707863,47.13319174,613.31
-99.26724087,47.13319135,613.25
-99.26749770,47.13319073,612.59
-99.26792767,47.13318977,615.03
-99.26835849,47.13318875,614.58
-99.26893032,47.13318737,610.13
-99.26954192,47.13318592,609.70
-99.26966981,47.13318567,609.75
-99.27017025,47.13318440,610.32
-99.27040904,47.13318394,610.04
-99.27073994,47.13318315,611.96
-99.27092631,47.13318268,612.69
-99.27136995,47.13318151,613.18
-99.27164628,47.13318101,613.97
-99.27224311,47.13317957,619.63
-99.27287082,47.13317810,622.64
-99.27317965,47.13317736,623.22
-99.27364156,47.13317624,624.37
-99.27419812,47.13317493,624.91
-99.27452485,47.13317414,624.40
-99.27496800,47.13317308,623.62
-99.27539997,47.13317204,624.94
-99.27578477,47.13317109,624.23
-99.27613648,47.13317015,622.62
-99.27649862,47.13316940,620.10
-99.27673200,47.13316883,618.96
-99.27691166,47.13316812,618.98
-99.27691035,47.13291709,621.64
-99.27690808,47.13248269,619.82
-99.27690628,47.13213025,620.25
-99.27690526,47.13192948,622.19
-99.27690324,47.13154460,621.22
-99.27690212,47.13133172,622.11
-99.27690070,47.13105356,621.77
-99.27689930,47.13078859,620.38
-99.27689807,47.13055906,618.81
-99.27689658,47.13027485,618.53
-99.27689515,47.13001157,620.17
-99.27689417,47.12979856,620.38
-99.27689302,47.12958314,619.29
-99.27689166,47.12933398,618.77
-99.27689048,47.12908971,619.15
-99.27688858,47.12873253,621.48
-99.27688755,47.12852949,621.37
-99.27688633,47.12828797,621.46
-99.27688565,47.12815608,621.46
-99.27688458,47.12796996,621.52
-99.27688261,47.12759779,621.16
-99.27688214,47.12748950,621.32
-99.27688191,47.12743452,621.51
-99.27688038,47.12714566,619.80
-99.27687895,47.12685900,617.67
-99.27687753,47.12658785,615.90
-99.27687662,47.12642331,615.72
-99.27687470,47.12604332,616.07
-99.27687307,47.12572597,615.09
-99.27687186,47.12549848,616.35
-99.27687165,47.12546116,616.53
-99.27687026,47.12521330,616.74
-99.27686895,47.12494763,617.57
-99.27686718,47.12460608,617.68
-99.27686647,47.12447921,618.43
-99.27686496,47.12425735,617.17
-99.27686477,47.12423111,617.18
-99.27686422,47.12417544,616.74
-99.27686384,47.12417077,616.65
-99.27685368,47.12417033,616.64
-99.27684816,47.12417011,616.67
-99.27665990,47.12417046,616.99
-99.27627741,47.12417138,616.11
-99.27566639,47.12417285,613.35
-99.27534721,47.12417362,620.30
-99.27481669,47.12417491,608.60
-99.27444858,47.12417578,613.57
-99.27384845,47.12417721,619.04
-99.27352823,47.12417797,609.61
-99.27300774,47.12417922,608.19
-99.27255393,47.12418030,609.37
-99.27220072,47.12418114,606.78
-99.27212261,47.12418135,606.40
-99.27195923,47.12418177,605.50
-99.27138632,47.12418317,611.90
-99.27108428,47.12418378,614.80
-99.27106575,47.12418383,613.21
-99.27073121,47.12418463,610.37
-99.27061860,47.12418491,611.84
-99.26997542,47.12418645,603.29
-99.26964552,47.12418718,602.32
-99.26928039,47.12418805,602.05
-99.26911831,47.12418844,600.73
-99.26876838,47.12418928,599.46
-99.26821181,47.12419062,599.38
-99.26783203,47.12419144,599.35
-99.26755593,47.12419210,599.40
-99.26728282,47.12419278,599.39
-99.26682926,47.12419377,599.62
-99.26619164,47.12419527,602.86
-99.26565868,47.12419654,602.23
-99.26500673,47.12419801,599.56
-99.26450043,47.12419919,599.88
-99.26406534,47.12420023,599.30
-99.26376353,47.12420091,599.38
-99.26368685,47.12420119,599.47
-99.26368338,47.12420462,599.52
-99.26368241,47.12420863,599.47
-99.26368170,47.12427653,599.96
-99.26368164,47.12429565,599.98
-99.26368184,47.12434493,600.16
-99.26368310,47.12458856,599.63
-99.26368470,47.12492874,598.80
-99.26368623,47.12520607,598.44
-99.26368733,47.12545781,595.74
-99.26368928,47.12585180,595.55
-99.26369092,47.12618782,595.55
-99.26369265,47.12653762,595.53
-99.26369469,47.12694643,595.64
-99.26369545,47.12710138,597.48
-99.26369743,47.12750105,597.09
-99.26369936,47.12789593,596.58
-99.26370107,47.12822541,597.33
-99.26370249,47.12851218,599.43
-99.26370448,47.12891821,602.95
-99.26370554,47.12914449,603.39
-99.26370644,47.12932670,602.78
-99.26370825,47.12968867,602.94
-99.26370909,47.12986291,602.64
-99.26370943,47.12992916,602.68
-99.26371117,47.13027148,603.11
-99.26371300,47.13065192,602.98
-99.26371437,47.13091053,602.32
-99.26371538,47.13110863,601.76
-99.26371677,47.13141815,605.08
-99.26371896,47.13186027,600.78
-99.26372047,47.13216506,600.24
-99.26372189,47.13245108,600.66
-99.26372355,47.13278824,600.53
-99.26372542,47.13316192,601.59
-99.26372667,47.13318853,601.74
-99.26372754,47.13319930,601.67
-99.26375339,47.13319936,601.79
     </coordinates>
    </LineString>
   </MultiGeometry>
  </Placemark>
 </Document>
</kml>
