<kml>
 <Document>
  <Style id="yellow">
   <LineStyle>
   <color>ff00ffff</color>
   <width>1</width>
   </LineStyle>
  </Style>
  <Style id="red">
   <LineStyle>
   <color>ffff0000</color>
   <width>2</width>
   </LineStyle>
  </Style>
  <Style id="green">
   <LineStyle>
   <color>ff00ff00</color>
   <width>1</width>
   </LineStyle>
  </Style>
  <Placemark>
  <styleUrl>#yellow</styleUrl>
   <MultiGeometry>
    <LineString>
     <coordinates>
-99.28993522,47.10321343,604.09
-99.28993620,47.10339458,604.97
-99.28993731,47.10359662,605.70
-99.28993918,47.10394055,606.89
-99.28994103,47.10427445,608.07
-99.28994225,47.10450664,607.60
-99.28994442,47.10490849,609.60
-99.28994609,47.10521148,609.09
-99.28994701,47.10538550,608.34
-99.28994753,47.10548059,608.13
-99.28994894,47.10573779,608.59
-99.28995108,47.10612811,608.73
-99.28995441,47.10613829,608.54
-99.29000114,47.10613937,608.39
-99.29003045,47.10613993,608.47
-99.29003862,47.10614008,608.42
-99.29059230,47.10613876,607.71
-99.29101618,47.10613768,606.49
-99.29142798,47.10613662,606.43
-99.29185630,47.10613555,607.20
-99.29233682,47.10613424,606.63
-99.29256124,47.10613372,605.43
-99.29299473,47.10613264,604.48
-99.29320417,47.10613211,605.36
-99.29361573,47.10613097,606.96
-99.29382229,47.10613043,606.18
-99.29434974,47.10612916,604.43
-99.29489819,47.10612773,607.29
-99.29549306,47.10612616,606.13
-99.29591965,47.10612508,604.86
-99.29652929,47.10612353,605.90
-99.29668715,47.10612310,606.06
-99.29722011,47.10612176,607.66
-99.29764412,47.10612066,610.29
-99.29814665,47.10611935,610.18
-99.29846080,47.10611853,609.39
-99.29882507,47.10611756,609.36
-99.29918502,47.10611659,609.00
-99.29979178,47.10611506,611.43
-99.30017293,47.10611400,612.04
-99.30077038,47.10611247,612.39
-99.30138791,47.10611086,612.70
-99.30188328,47.10610954,613.31
-99.30244940,47.10610806,613.91
-99.30272043,47.10610734,614.29
-99.30294239,47.10610676,614.72
-99.30299263,47.10610662,614.94
-99.30312619,47.10610260,615.56
-99.30312870,47.10609461,615.70
-99.30313009,47.10603931,616.05
-99.30312959,47.10594424,616.13
-99.30312929,47.10589148,616.12
-99.30312815,47.10569519,614.69
-99.30312611,47.10534168,614.84
-99.30312483,47.10511131,614.59
-99.30312331,47.10484319,614.45
-99.30312268,47.10473206,614.31
-99.30312140,47.10451363,614.32
-99.30311962,47.10419676,614.51
-99.30311790,47.10388825,615.35
-99.30311652,47.10364521,615.89
-99.30311410,47.10321772,616.86
-99.30311229,47.10292014,617.57
-99.30311090,47.10265921,617.01
-99.30310854,47.10223664,614.85
-99.30310682,47.10193277,613.13
-99.30310574,47.10174434,612.76
-99.30310407,47.10145164,612.28
-99.30310242,47.10115722,611.65
-99.30310005,47.10075031,611.98
-99.30309886,47.10053803,612.28
-99.30309769,47.10032388,610.57
-99.30309543,47.09992551,604.32
-99.30309334,47.09955874,603.65
-99.30309177,47.09928122,600.63
-99.30309092,47.09913180,599.39
-99.30308876,47.09875819,596.24
-99.30308758,47.09854482,596.30
-99.30308603,47.09827676,596.21
-99.30308414,47.09793590,599.59
-99.30308203,47.09756709,593.23
-99.30308019,47.09724133,591.13
-99.30307947,47.09713728,592.30
-99.30307876,47.09712041,592.13
-99.30307654,47.09710846,592.15
-99.30293982,47.09710821,592.77
-99.30282730,47.09710847,592.73
-99.30227172,47.09710995,594.50
-99.30161435,47.09711168,597.91
-99.30103902,47.09711321,597.64
-99.30065593,47.09711423,595.23
-99.30020386,47.09711537,595.61
-99.29977120,47.09711652,596.29
-99.29934610,47.09711762,598.47
-99.29895341,47.09711864,600.09
-99.29851621,47.09711981,600.78
-99.29821567,47.09712058,601.34
-99.29769251,47.09712195,601.98
-99.29743965,47.09712258,601.25
-99.29729232,47.09712297,601.80
-99.29696649,47.09712381,599.94
-99.29664743,47.09712464,599.28
-99.29625874,47.09712565,599.54
-99.29580998,47.09712681,601.92
-99.29541207,47.09712785,600.95
-99.29509085,47.09712868,601.35
-99.29448609,47.09713025,602.68
-99.29437754,47.09713052,602.64
-99.29373785,47.09713214,603.04
-99.29349558,47.09713288,603.76
-99.29292694,47.09713423,605.32
-99.29267602,47.09713486,605.21
-99.29220405,47.09713609,604.60
-99.29158881,47.09713764,602.89
-99.29138201,47.09713816,603.39
-99.29116087,47.09713874,603.38
-99.29064099,47.09714007,601.26
-99.29041193,47.09714062,600.61
-99.29017212,47.09714125,600.79
-99.29007185,47.09714154,600.83
-99.28995175,47.09714200,600.75
-99.28990387,47.09714436,600.77
-99.28990348,47.09714957,600.79
-99.28990276,47.09718522,600.68
-99.28990270,47.09720628,600.77
-99.28990295,47.09726419,600.84
-99.28990311,47.09729411,600.79
-99.28990510,47.09765769,600.55
-99.28990604,47.09781885,600.12
-99.28990685,47.09795855,599.29
-99.28990845,47.09827030,602.98
-99.28991031,47.09861557,606.29
-99.28991247,47.09902294,605.45
-99.28991372,47.09924370,604.88
-99.28991607,47.09966678,605.36
-99.28991669,47.09978413,605.46
-99.28991863,47.10014968,605.10
-99.28991932,47.10027979,604.75
-99.28991948,47.10031019,604.59
-99.28992085,47.10054990,605.00
-99.28992264,47.10089362,605.33
-99.28992322,47.10100027,603.78
-99.28992436,47.10119831,602.99
-99.28992571,47.10145414,602.58
-99.28992750,47.10178707,602.83
-99.28992818,47.10190693,603.13
-99.28993061,47.10234556,603.17
-99.28993162,47.10254055,602.56
-99.28993368,47.10292591,603.29
-99.28993522,47.10321343,604.09
     </coordinates>
    </LineString>
   </MultiGeometry>
  </Placemark>
 </Document>
</kml>
