<kml>
 <Document>
  <Style id="yellow">
   <LineStyle>
   <color>ff00ffff</color>
   <width>1</width>
   </LineStyle>
  </Style>
  <Style id="red">
   <LineStyle>
   <color>ffff0000</color>
   <width>2</width>
   </LineStyle>
  </Style>
  <Style id="green">
   <LineStyle>
   <color>ff00ff00</color>
   <width>1</width>
   </LineStyle>
  </Style>
  <Placemark>
  <styleUrl>#yellow</styleUrl>
   <MultiGeometry>
    <LineString>
     <coordinates>
-99.29028497,47.13313528,619.32
-99.29052914,47.13313467,617.95
-99.29086277,47.13313380,618.63
-99.29127784,47.13313273,617.18
-99.29193410,47.13313110,616.70
-99.29239431,47.13312991,616.50
-99.29283488,47.13312870,616.66
-99.29336653,47.13312741,616.66
-99.29354336,47.13312696,616.93
-99.29402940,47.13312574,617.75
-99.29455232,47.13312440,618.84
-99.29490343,47.13312346,618.19
-99.29526463,47.13312248,616.96
-99.29565018,47.13312156,615.38
-99.29579020,47.13312117,614.89
-99.29631214,47.13311985,612.51
-99.29667189,47.13311892,612.32
-99.29708493,47.13311773,612.38
-99.29774369,47.13311615,611.82
-99.29811016,47.13311516,612.23
-99.29826205,47.13311476,612.23
-99.29849205,47.13311408,611.97
-99.29894295,47.13311301,611.19
-99.29900815,47.13311258,611.07
-99.29907257,47.13311215,610.94
-99.29928217,47.13311092,609.87
-99.29928772,47.13311088,609.82
-99.29937931,47.13311026,609.73
-99.29941169,47.13311003,609.74
-99.29944380,47.13310980,609.74
-99.29948171,47.13310953,609.75
-99.30013280,47.13310992,609.75
-99.30013840,47.13310988,609.74
-99.30017092,47.13310966,609.71
-99.30020807,47.13310939,609.73
-99.30024139,47.13310916,609.74
-99.30027859,47.13310890,609.73
-99.30029457,47.13310879,609.73
-99.30031112,47.13310867,609.73
-99.30035437,47.13310837,609.75
-99.30101190,47.13310755,612.58
-99.30103820,47.13310754,612.52
-99.30148284,47.13310637,614.37
-99.30211564,47.13310467,618.71
-99.30241835,47.13310384,620.98
-99.30278736,47.13310292,624.13
-99.30303057,47.13310229,624.68
-99.30318769,47.13310184,625.04
-99.30328029,47.13310058,624.74
-99.30328371,47.13309000,624.90
-99.30328362,47.13305969,624.88
-99.30328247,47.13285911,624.46
-99.30327992,47.13241768,624.47
-99.30327829,47.13212175,626.93
-99.30327725,47.13194419,627.73
-99.30327547,47.13164686,628.17
-99.30327431,47.13142423,627.70
-99.30327231,47.13106721,627.98
-99.30327050,47.13075826,628.68
-99.30326958,47.13059302,628.94
-99.30326897,47.13048593,629.22
-99.30326708,47.13015191,629.64
-99.30326474,47.12974770,629.77
-99.30326305,47.12943889,630.52
-99.30326079,47.12905013,628.86
-99.30325963,47.12884921,630.30
-99.30325874,47.12869150,631.54
-99.30325652,47.12829013,633.84
-99.30325542,47.12809671,634.34
-99.30325394,47.12784093,634.31
-99.30325282,47.12766427,633.51
-99.30325066,47.12725874,633.32
-99.30324946,47.12704779,633.82
-99.30324693,47.12660591,634.75
-99.30324572,47.12638953,634.81
-99.30324410,47.12611721,634.97
-99.30324267,47.12586051,634.98
-99.30324130,47.12561945,635.46
-99.30323952,47.12530406,636.96
-99.30323863,47.12514894,637.82
-99.30323694,47.12486169,639.86
-99.30323597,47.12467931,641.18
-99.30323586,47.12465669,641.33
-99.30323571,47.12462936,641.24
-99.30323448,47.12441234,641.41
-99.30323283,47.12412549,639.97
-99.30323195,47.12411458,639.97
-99.30323075,47.12410595,639.97
-99.30322875,47.12410379,639.93
-99.30312108,47.12410354,639.91
-99.30305150,47.12410370,639.54
-99.30284817,47.12410421,637.63
-99.30229389,47.12410568,637.99
-99.30186978,47.12410681,636.73
-99.30141113,47.12410802,634.48
-99.30100662,47.12410907,633.42
-99.30100473,47.12410908,633.55
-99.30076008,47.12410973,632.66
-99.30011634,47.12411140,630.08
-99.29969709,47.12411249,628.01
-99.29904490,47.12411424,625.80
-99.29847413,47.12411571,625.58
-99.29833222,47.12411607,626.46
-99.29816873,47.12411648,627.36
-99.29795668,47.12411704,627.57
-99.29764614,47.12411786,626.78
-99.29719464,47.12411901,625.82
-99.29679932,47.12412009,624.68
-99.29648440,47.12412086,622.88
-99.29584667,47.12412252,622.72
-99.29551953,47.12412335,621.00
-99.29533812,47.12412382,619.71
-99.29475447,47.12412534,617.76
-99.29442034,47.12412621,616.98
-99.29405988,47.12412716,615.67
-99.29369450,47.12412808,612.17
-99.29333515,47.12412898,611.20
-99.29287324,47.12413018,613.43
-99.29247240,47.12413122,609.83
-99.29218197,47.12413196,609.80
-99.29189515,47.12413267,609.77
-99.29168260,47.12413325,609.81
-99.29138611,47.12413414,609.82
-99.29090602,47.12413517,609.81
-99.29086188,47.12413528,611.68
-99.29032403,47.12413664,610.82
-99.29021051,47.12413696,610.39
-99.29008649,47.12413738,610.28
-99.29005131,47.12414018,610.22
-99.29005043,47.12414095,610.22
-99.29004900,47.12414496,611.00
-99.29005030,47.12436569,613.02
-99.29005171,47.12463071,614.84
-99.29005298,47.12488389,612.82
-99.29005322,47.12492983,612.09
-99.29005414,47.12510375,610.37
-99.29005626,47.12549455,611.34
-99.29005641,47.12552228,610.24
-99.29005737,47.12569882,612.69
-99.29005767,47.12575424,613.33
-99.29005841,47.12588909,614.32
-99.29005993,47.12617002,614.73
-99.29006169,47.12648529,615.66
-99.29006248,47.12663423,615.59
-99.29006427,47.12696711,615.95
-99.29006648,47.12737103,616.45
-99.29006746,47.12755492,616.05
-99.29006848,47.12773945,614.70
-99.29007058,47.12812112,611.25
-99.29007124,47.12825065,611.25
-99.29007364,47.12867424,611.48
-99.29007441,47.12882973,614.06
-99.29007573,47.12907420,615.14
-99.29007746,47.12938875,617.14
-99.29007876,47.12963089,618.16
-99.29008011,47.12988210,617.70
-99.29008039,47.12993142,616.70
-99.29008279,47.13037372,616.46
-99.29008414,47.13062034,616.49
-99.29008582,47.13092703,617.86
-99.29008740,47.13121708,620.82
-99.29008832,47.13138941,622.20
-99.29009023,47.13174213,619.55
-99.29009217,47.13209654,620.55
-99.29009300,47.13224787,620.89
-99.29009432,47.13248458,619.57
-99.29009561,47.13272486,620.24
-99.29009719,47.13301478,620.61
-99.29009744,47.13306033,620.75
-99.29009794,47.13312879,621.14
-99.29009976,47.13313409,619.05
-99.29010228,47.13313496,619.84
-99.29010582,47.13313522,619.30
-99.29011119,47.13313541,619.10
-99.29013500,47.13313560,620.62
-99.29028497,47.13313528,619.32
     </coordinates>
    </LineString>
   </MultiGeometry>
  </Placemark>
 </Document>
</kml>
