<kml>
 <Document>
  <Style id="yellow">
   <LineStyle>
   <color>ff00ffff</color>
   <width>1</width>
   </LineStyle>
  </Style>
  <Style id="red">
   <LineStyle>
   <color>ffff0000</color>
   <width>2</width>
   </LineStyle>
  </Style>
  <Style id="green">
   <LineStyle>
   <color>ff00ff00</color>
   <width>1</width>
   </LineStyle>
  </Style>
  <Placemark>
  <styleUrl>#yellow</styleUrl>
   <MultiGeometry>
    <LineString>
     <coordinates>
-99.21097877,47.13273417,564.19
-99.21097947,47.13294928,565.31
-99.21098076,47.13326193,566.58
-99.21098397,47.13330332,566.73
-99.21099382,47.13330625,566.66
-99.21099869,47.13330768,566.69
-99.21111762,47.13330845,566.18
-99.21113757,47.13330843,566.06
-99.21132863,47.13330808,565.43
-99.21182994,47.13330712,563.29
-99.21201281,47.13330689,562.77
-99.21255889,47.13330589,560.79
-99.21286156,47.13330532,560.77
-99.21309001,47.13330488,561.94
-99.21328810,47.13330446,562.41
-99.21388699,47.13330342,563.94
-99.21441250,47.13330243,566.90
-99.21467732,47.13330188,568.28
-99.21519610,47.13330097,569.15
-99.21555979,47.13330027,568.90
-99.21601104,47.13329942,568.61
-99.21663857,47.13329824,564.56
-99.21717183,47.13329723,564.24
-99.21735450,47.13329685,563.82
-99.21796265,47.13329574,563.71
-99.21818867,47.13329530,563.98
-99.21830057,47.13329506,564.37
-99.21870572,47.13329419,569.16
-99.21906811,47.13329358,572.71
-99.21937857,47.13329301,572.14
-99.22001629,47.13329181,568.38
-99.22033749,47.13329107,567.45
-99.22071421,47.13329045,568.22
-99.22110625,47.13328970,570.36
-99.22141441,47.13328909,571.92
-99.22196675,47.13328802,573.20
-99.22223462,47.13328751,570.14
-99.22264591,47.13328666,567.75
-99.22303455,47.13328595,567.68
-99.22363878,47.13328473,569.47
-99.22398051,47.13328406,571.80
-99.22413542,47.13328366,572.79
-99.22414060,47.13328329,572.82
-99.22415727,47.13328210,572.90
-99.22416284,47.13328168,572.96
-99.22416589,47.13327875,572.95
-99.22416663,47.13324182,572.67
-99.22416666,47.13319629,572.38
-99.22416634,47.13311282,571.91
-99.22416582,47.13298883,570.67
-99.22416507,47.13282760,569.68
-99.22416371,47.13250841,567.84
-99.22416294,47.13231463,567.42
-99.22416255,47.13221758,568.30
-99.22416135,47.13195073,568.30
-99.22416033,47.13169757,567.84
-99.22415914,47.13139713,569.77
-99.22415767,47.13104577,568.43
-99.22415672,47.13082155,568.09
-99.22415593,47.13063836,567.06
-99.22415485,47.13040489,568.24
-99.22415380,47.13013785,568.30
-99.22415210,47.12972147,569.56
-99.22415076,47.12940289,571.48
-99.22414924,47.12905690,573.86
-99.22414877,47.12893489,573.71
-99.22414765,47.12869395,575.03
-99.22414628,47.12836696,576.38
-99.22414602,47.12830184,576.48
-99.22414449,47.12792635,575.75
-99.22414389,47.12777633,574.73
-99.22414238,47.12742325,573.56
-99.22414106,47.12709400,573.82
-99.22414090,47.12705412,573.68
-99.22414069,47.12700742,573.54
-99.22413906,47.12662953,573.23
-99.22413870,47.12653412,572.92
-99.22413794,47.12636318,571.70
-99.22413652,47.12602188,571.32
-99.22413524,47.12571616,571.75
-99.22413456,47.12554518,571.63
-99.22413454,47.12554067,571.53
-99.22413312,47.12520321,571.40
-99.22413275,47.12511477,572.85
-99.22413263,47.12508668,571.28
-99.22413250,47.12505423,571.45
-99.22413210,47.12496609,572.63
-99.22413191,47.12492464,571.59
-99.22413012,47.12448862,572.43
-99.22412943,47.12434629,574.26
-99.22412929,47.12431823,574.56
-99.22412903,47.12429413,574.76
-99.22412383,47.12428797,574.87
-99.22412133,47.12428541,574.83
-99.22400466,47.12428560,575.71
-99.22363558,47.12428626,575.97
-99.22318841,47.12428721,573.74
-99.22272582,47.12428802,573.55
-99.22226634,47.12428895,572.71
-99.22192698,47.12428958,571.99
-99.22170348,47.12429002,571.43
-99.22125794,47.12429095,570.42
-99.22103069,47.12429135,570.36
-99.22091557,47.12429156,570.55
-99.22058677,47.12429222,569.78
-99.22039866,47.12429266,568.78
-99.21981457,47.12429364,566.56
-99.21936909,47.12429449,564.92
-99.21914807,47.12429494,564.26
-99.21861632,47.12429597,564.25
-99.21820461,47.12429674,564.36
-99.21796837,47.12429718,564.28
-99.21756402,47.12429795,564.41
-99.21717604,47.12429867,564.34
-99.21691817,47.12429916,563.38
-99.21651375,47.12429998,561.92
-99.21605315,47.12430106,560.36
-99.21579683,47.12430135,560.00
-99.21520519,47.12430244,559.35
-99.21500238,47.12430280,559.32
-99.21490304,47.12430299,560.86
-99.21430520,47.12430411,558.79
-99.21397762,47.12430475,558.99
-99.21349673,47.12430562,558.60
-99.21318670,47.12430618,558.50
-99.21287769,47.12430679,558.65
-99.21266878,47.12430719,558.83
-99.21219543,47.12430805,559.68
-99.21174827,47.12430885,561.61
-99.21150611,47.12430928,562.69
-99.21104058,47.12431017,564.94
-99.21096614,47.12431039,565.42
-99.21095175,47.12431079,565.49
-99.21094632,47.12431441,565.57
-99.21094560,47.12432967,565.47
-99.21094572,47.12440335,565.16
-99.21094704,47.12474799,563.21
-99.21094819,47.12502595,562.80
-99.21094925,47.12529945,562.24
-99.21094983,47.12541918,562.06
-99.21095116,47.12579163,562.98
-99.21095230,47.12608110,564.28
-99.21095329,47.12631561,565.27
-99.21095433,47.12658381,566.19
-99.21095479,47.12670470,566.26
-99.21095583,47.12696956,566.52
-99.21095714,47.12728832,566.19
-99.21095786,47.12748805,565.88
-99.21095878,47.12771402,565.81
-99.21095998,47.12801420,565.80
-99.21096135,47.12829106,563.44
-99.21096210,47.12850982,561.94
-99.21096258,47.12868085,561.24
-99.21096391,47.12900125,560.41
-99.21096544,47.12940429,558.17
-99.21096665,47.12971114,557.00
-99.21096773,47.12997776,556.73
-99.21096949,47.13042562,556.57
-99.21096955,47.13044010,556.51
-99.21097127,47.13079141,557.50
-99.21097219,47.13105926,558.71
-99.21097341,47.13137737,559.31
-99.21097523,47.13182317,559.81
-99.21097566,47.13197773,560.12
-99.21097582,47.13202876,560.37
-99.21097633,47.13214894,560.92
-99.21097741,47.13233445,561.47
-99.21097877,47.13273417,564.19
     </coordinates>
    </LineString>
   </MultiGeometry>
  </Placemark>
 </Document>
</kml>
