<kml>
 <Document>
  <Style id="yellow">
   <LineStyle>
   <color>ff00ffff</color>
   <width>1</width>
   </LineStyle>
  </Style>
  <Style id="red">
   <LineStyle>
   <color>ffff0000</color>
   <width>2</width>
   </LineStyle>
  </Style>
  <Style id="green">
   <LineStyle>
   <color>ff00ff00</color>
   <width>1</width>
   </LineStyle>
  </Style>
  <Placemark>
  <styleUrl>#yellow</styleUrl>
   <MultiGeometry>
    <LineString>
     <coordinates>
-99.25057781,47.14138903,589.76
-99.25057791,47.14141320,589.87
-99.25057953,47.14175544,590.00
-99.25058162,47.14217928,590.93
-99.25058192,47.14220059,591.00
-99.25058350,47.14222106,590.96
-99.25058458,47.14222701,591.04
-99.25080595,47.14222702,591.31
-99.25143887,47.14222568,591.09
-99.25179249,47.14222488,593.21
-99.25196275,47.14222449,593.52
-99.25243950,47.14222344,592.78
-99.25262265,47.14222308,593.38
-99.25279493,47.14222270,594.36
-99.25329396,47.14222158,594.58
-99.25365038,47.14222080,593.88
-99.25428682,47.14221941,591.59
-99.25463605,47.14221855,591.59
-99.25497366,47.14221786,591.60
-99.25534473,47.14221701,592.59
-99.25566550,47.14221626,594.93
-99.25599474,47.14221550,593.40
-99.25634456,47.14221475,593.93
-99.25668463,47.14221398,595.35
-99.25728719,47.14221269,596.92
-99.25737674,47.14221249,596.61
-99.25763006,47.14221191,596.69
-99.25810549,47.14221083,600.11
-99.25818124,47.14221066,599.61
-99.25872954,47.14220942,598.77
-99.25894613,47.14220896,599.77
-99.25955511,47.14220757,599.77
-99.25998298,47.14220663,601.92
-99.26054370,47.14220530,601.74
-99.26074418,47.14220486,602.33
-99.26105881,47.14220415,604.50
-99.26171330,47.14220269,600.20
-99.26205864,47.14220190,601.13
-99.26258515,47.14220064,599.53
-99.26284105,47.14220006,599.78
-99.26309492,47.14219950,599.98
-99.26335579,47.14219891,601.06
-99.26376936,47.14219789,601.00
-99.26376977,47.14217029,601.15
-99.26376853,47.14188867,602.40
-99.26376745,47.14167005,604.24
-99.26376647,47.14147892,605.33
-99.26376482,47.14114348,606.99
-99.26376341,47.14085333,606.61
-99.26376331,47.14083312,606.43
-99.26376276,47.14073247,606.27
-99.26376098,47.14036191,604.44
-99.26376051,47.14026551,604.12
-99.26375897,47.13996662,604.60
-99.26375707,47.13958186,604.09
-99.26375594,47.13934196,605.98
-99.26375371,47.13890140,605.86
-99.26375300,47.13875244,606.40
-99.26375172,47.13849191,607.41
-99.26375060,47.13826281,606.19
-99.26374980,47.13810348,607.02
-99.26374827,47.13779209,607.18
-99.26374796,47.13772916,607.08
-99.26374591,47.13732201,610.26
-99.26374392,47.13691205,610.22
-99.26374326,47.13677889,609.58
-99.26374213,47.13654935,608.84
-99.26374028,47.13618037,608.93
-99.26373864,47.13584899,607.47
-99.26373738,47.13559123,607.87
-99.26373583,47.13527562,605.48
-99.26373377,47.13485940,602.39
-99.26373331,47.13476652,601.97
-99.26373230,47.13456745,601.89
-99.26373105,47.13431183,601.72
-99.26372981,47.13405979,600.87
-99.26372850,47.13380182,600.92
-99.26372651,47.13340082,601.71
-99.26372573,47.13326698,601.91
-99.26372539,47.13322950,601.77
-99.26372509,47.13320977,601.79
-99.26372400,47.13320271,601.74
-99.26372222,47.13320022,601.67
-99.26369863,47.13319998,601.49
-99.26365475,47.13319991,601.24
-99.26355784,47.13319991,600.32
-99.26339670,47.13320028,599.46
-99.26315502,47.13320084,598.37
-99.26255254,47.13320225,599.47
-99.26220382,47.13320305,601.39
-99.26187107,47.13320389,603.19
-99.26146502,47.13320480,606.23
-99.26083449,47.13320621,604.78
-99.26034523,47.13320730,603.17
-99.25983997,47.13320847,599.88
-99.25945778,47.13320934,600.13
-99.25912215,47.13321004,600.65
-99.25869025,47.13321106,600.64
-99.25836801,47.13321177,601.86
-99.25820025,47.13321214,600.87
-99.25804258,47.13321250,601.07
-99.25748909,47.13321372,599.28
-99.25696122,47.13321492,596.52
-99.25683453,47.13321521,595.94
-99.25646487,47.13321609,595.05
-99.25599927,47.13321715,595.46
-99.25548797,47.13321822,593.82
-99.25502554,47.13321924,592.18
-99.25439652,47.13322063,592.09
-99.25378373,47.13322201,590.67
-99.25320645,47.13322326,591.47
-99.25302251,47.13322367,592.21
-99.25290636,47.13322394,590.69
-99.25232619,47.13322525,592.64
-99.25220109,47.13322551,593.73
-99.25196880,47.13322601,593.26
-99.25152815,47.13322697,591.49
-99.25098585,47.13322819,593.83
-99.25054185,47.13322913,592.50
-99.25053976,47.13323694,592.52
-99.25053978,47.13330087,592.41
-99.25054150,47.13365727,591.65
-99.25054284,47.13393639,591.56
-99.25054401,47.13420116,592.04
-99.25054602,47.13462823,592.54
-99.25054794,47.13501489,593.60
-99.25054921,47.13531105,593.28
-99.25055130,47.13575273,591.88
-99.25055243,47.13599025,591.95
-99.25055463,47.13639515,589.35
-99.25055501,47.13652072,588.32
-99.25055560,47.13665661,588.23
-99.25055678,47.13692244,588.61
-99.25055806,47.13719401,588.74
-99.25055950,47.13747674,589.60
-99.25056036,47.13766281,590.52
-99.25056142,47.13787831,591.05
-99.25056300,47.13823304,591.87
-99.25056446,47.13855111,592.68
-99.25056550,47.13877833,591.68
-99.25056629,47.13894656,590.60
-99.25056690,47.13907697,589.38
-99.25056868,47.13945521,586.91
-99.25056980,47.13967888,586.62
-99.25057153,47.14005622,587.10
-99.25057295,47.14035575,588.18
-99.25057428,47.14061280,588.19
-99.25057564,47.14088366,587.76
-99.25057681,47.14115526,589.68
-99.25057781,47.14138903,589.76
     </coordinates>
    </LineString>
   </MultiGeometry>
  </Placemark>
 </Document>
</kml>
