<kml>
 <Document>
  <Style id="yellow">
   <LineStyle>
   <color>ff00ffff</color>
   <width>1</width>
   </LineStyle>
  </Style>
  <Style id="red">
   <LineStyle>
   <color>ffff0000</color>
   <width>2</width>
   </LineStyle>
  </Style>
  <Style id="green">
   <LineStyle>
   <color>ff00ff00</color>
   <width>1</width>
   </LineStyle>
  </Style>
  <Placemark>
  <styleUrl>#yellow</styleUrl>
   <MultiGeometry>
    <LineString>
     <coordinates>
-99.21091079,47.11530119,561.74
-99.21091203,47.11530584,561.86
-99.21092243,47.11530889,561.80
-99.21093228,47.11531172,562.01
-99.21098556,47.11531165,562.17
-99.21152609,47.11531066,565.72
-99.21206616,47.11530961,570.11
-99.21220147,47.11530938,570.49
-99.21237804,47.11530907,570.59
-99.21266618,47.11530855,570.31
-99.21297939,47.11530794,568.84
-99.21338747,47.11530720,570.70
-99.21400418,47.11530600,574.73
-99.21439386,47.11530529,575.67
-99.21467852,47.11530468,575.26
-99.21509891,47.11530391,574.37
-99.21557236,47.11530305,573.83
-99.21576288,47.11530273,572.95
-99.21603850,47.11530216,572.76
-99.21655811,47.11530116,570.74
-99.21712197,47.11530017,567.10
-99.21724073,47.11529991,566.65
-99.21784365,47.11529879,563.06
-99.21831844,47.11529788,561.98
-99.21897352,47.11529665,563.18
-99.21926374,47.11529609,563.34
-99.21932143,47.11529597,563.05
-99.21980326,47.11529499,564.89
-99.22005150,47.11529456,566.35
-99.22022515,47.11529424,566.45
-99.22048249,47.11529375,565.58
-99.22088996,47.11529292,563.54
-99.22115870,47.11529244,563.43
-99.22142011,47.11529196,563.11
-99.22166468,47.11529148,562.84
-99.22186871,47.11529106,562.84
-99.22203840,47.11529071,563.53
-99.22253909,47.11528975,563.27
-99.22317867,47.11528854,564.28
-99.22323956,47.11528843,564.25
-99.22362427,47.11528768,563.56
-99.22390260,47.11528711,564.16
-99.22408554,47.11528672,564.64
-99.22409071,47.11528624,564.64
-99.22409100,47.11526972,564.62
-99.22409105,47.11522699,564.60
-99.22409100,47.11521425,564.64
-99.22408966,47.11485333,565.48
-99.22408900,47.11469883,565.61
-99.22408796,47.11445670,566.29
-99.22408664,47.11413441,568.09
-99.22408661,47.11412645,568.02
-99.22408646,47.11409137,568.06
-99.22408542,47.11384942,568.07
-99.22408414,47.11355592,568.54
-99.22408325,47.11332554,569.05
-99.22408299,47.11326621,569.01
-99.22408168,47.11296542,568.66
-99.22408037,47.11264909,568.52
-99.22407943,47.11242555,568.67
-99.22407783,47.11204423,565.17
-99.22407709,47.11186106,564.52
-99.22407693,47.11182424,564.25
-99.22407570,47.11153040,564.00
-99.22407519,47.11141790,563.81
-99.22407378,47.11108812,563.10
-99.22407325,47.11095245,563.18
-99.22407193,47.11062852,564.77
-99.22407152,47.11053188,564.25
-99.22406967,47.11009695,563.69
-99.22406922,47.10998917,564.40
-99.22406734,47.10954474,564.75
-99.22406702,47.10945871,565.30
-99.22406648,47.10933327,565.72
-99.22406486,47.10895326,566.44
-99.22406316,47.10853907,565.41
-99.22406276,47.10844337,564.04
-99.22406229,47.10833802,564.05
-99.22406046,47.10789656,564.24
-99.22405903,47.10755560,571.44
-99.22405750,47.10720008,571.95
-99.22405621,47.10688713,572.53
-99.22405502,47.10660842,573.94
-99.22405368,47.10629167,573.51
-99.22403422,47.10628833,573.58
-99.22356544,47.10628924,574.48
-99.22305295,47.10629027,574.65
-99.22264527,47.10629107,572.36
-99.22238578,47.10629154,571.28
-99.22189394,47.10629246,571.16
-99.22138942,47.10629351,571.83
-99.22111237,47.10629400,572.81
-99.22061278,47.10629496,573.63
-99.22031199,47.10629551,574.90
-99.22005578,47.10629606,574.99
-99.21955656,47.10629701,573.80
-99.21939148,47.10629731,573.35
-99.21927412,47.10629752,573.14
-99.21902535,47.10629799,572.94
-99.21867855,47.10629864,572.36
-99.21855726,47.10629887,572.06
-99.21812517,47.10629978,571.02
-99.21774776,47.10630042,570.38
-99.21739934,47.10630108,569.83
-99.21684825,47.10630212,568.61
-99.21661724,47.10630260,569.09
-99.21596304,47.10630387,569.54
-99.21540056,47.10630485,572.12
-99.21488782,47.10630583,574.64
-99.21453372,47.10630648,574.26
-99.21402183,47.10630745,574.36
-99.21379072,47.10630787,574.79
-99.21346094,47.10630848,575.05
-99.21304407,47.10630926,575.46
-99.21258964,47.10631012,575.44
-99.21223403,47.10631077,576.05
-99.21162134,47.10631190,574.41
-99.21115517,47.10631276,570.73
-99.21100707,47.10631303,571.19
-99.21094859,47.10631316,570.66
-99.21087485,47.10631334,570.38
-99.21087451,47.10636169,570.41
-99.21087471,47.10642769,569.69
-99.21087609,47.10678970,568.28
-99.21087669,47.10694662,567.96
-99.21087744,47.10713706,568.62
-99.21087780,47.10722262,568.39
-99.21087906,47.10750862,568.49
-99.21088058,47.10792539,563.91
-99.21088180,47.10823299,560.34
-99.21088354,47.10868056,556.62
-99.21088457,47.10893759,556.55
-99.21088481,47.10899126,556.56
-99.21088620,47.10930621,556.55
-99.21088705,47.10951190,556.55
-99.21088807,47.10981197,556.55
-99.21088963,47.11021591,556.53
-99.21089075,47.11050350,556.54
-99.21089211,47.11082562,555.90
-99.21089262,47.11096289,555.91
-99.21089331,47.11114476,555.88
-99.21089414,47.11135763,555.90
-99.21089583,47.11176153,555.89
-99.21089708,47.11208913,555.89
-99.21089788,47.11231205,555.88
-99.21089845,47.11245159,555.88
-99.21090001,47.11284608,555.92
-99.21090083,47.11305496,558.51
-99.21090113,47.11312989,558.87
-99.21090283,47.11352314,560.89
-99.21090350,47.11372431,561.13
-99.21090435,47.11393829,559.02
-99.21090562,47.11426585,561.19
-99.21090657,47.11449965,560.57
-99.21090799,47.11486519,560.07
-99.21090989,47.11528966,561.69
-99.21091079,47.11530119,561.74
     </coordinates>
    </LineString>
   </MultiGeometry>
  </Placemark>
 </Document>
</kml>
