<kml>
 <Document>
  <Style id="yellow">
   <LineStyle>
   <color>ff00ffff</color>
   <width>1</width>
   </LineStyle>
  </Style>
  <Style id="red">
   <LineStyle>
   <color>ffff0000</color>
   <width>2</width>
   </LineStyle>
  </Style>
  <Style id="green">
   <LineStyle>
   <color>ff00ff00</color>
   <width>1</width>
   </LineStyle>
  </Style>
  <Placemark>
  <styleUrl>#yellow</styleUrl>
   <MultiGeometry>
    <LineString>
     <coordinates>
-99.25053925,47.13316662,592.53
-99.25053966,47.13320901,592.57
-99.25054178,47.13322535,592.47
-99.25054744,47.13322897,592.52
-99.25070409,47.13322867,592.71
-99.25084973,47.13322837,593.27
-99.25128348,47.13322748,592.24
-99.25156838,47.13322685,591.33
-99.25183185,47.13322627,592.12
-99.25234298,47.13322513,592.51
-99.25268528,47.13322440,590.96
-99.25312374,47.13322340,592.20
-99.25333110,47.13322293,590.74
-99.25347852,47.13322259,590.63
-99.25408147,47.13322129,590.67
-99.25452032,47.13322030,591.77
-99.25485836,47.13321958,592.21
-99.25517381,47.13321888,592.38
-99.25580288,47.13321748,595.32
-99.25615427,47.13321665,595.23
-99.25666147,47.13321553,595.25
-99.25715617,47.13321444,597.31
-99.25735062,47.13321402,598.29
-99.25790796,47.13321275,601.57
-99.25839411,47.13321167,602.00
-99.25854302,47.13321133,601.33
-99.25893407,47.13321045,600.54
-99.25929286,47.13320963,600.50
-99.25950478,47.13320914,600.00
-99.25991158,47.13320815,599.87
-99.26016599,47.13320761,602.43
-99.26057732,47.13320669,604.13
-99.26116859,47.13320534,606.02
-99.26181616,47.13320389,603.50
-99.26210163,47.13320321,602.14
-99.26265261,47.13320197,598.96
-99.26325361,47.13320060,598.72
-99.26367924,47.13319954,601.36
-99.26370780,47.13319930,601.60
-99.26372555,47.13319825,601.74
-99.26372380,47.13284831,600.35
-99.26372328,47.13273689,600.59
-99.26372255,47.13258842,600.51
-99.26372220,47.13252138,600.65
-99.26372022,47.13212765,600.52
-99.26371955,47.13198433,600.36
-99.26371922,47.13191614,600.71
-99.26371732,47.13153359,603.72
-99.26371654,47.13137684,605.42
-99.26371525,47.13111989,601.74
-99.26371336,47.13073034,602.89
-99.26371260,47.13057559,602.78
-99.26371093,47.13024312,603.24
-99.26371028,47.13010986,602.97
-99.26370852,47.12975110,602.87
-99.26370670,47.12938997,603.03
-99.26370610,47.12926732,602.94
-99.26370476,47.12899244,603.04
-99.26370397,47.12883027,602.54
-99.26370271,47.12857915,600.62
-99.26370123,47.12828638,597.84
-99.26369964,47.12795388,596.70
-99.26369863,47.12775076,596.57
-99.26369767,47.12755672,596.95
-99.26369725,47.12747050,597.14
-99.26369633,47.12728774,598.24
-99.26369499,47.12702077,596.38
-99.26369410,47.12683337,595.55
-99.26369280,47.12657331,595.54
-99.26369078,47.12616469,595.50
-99.26368900,47.12580086,595.55
-99.26368728,47.12547926,595.68
-99.26368612,47.12522044,598.49
-99.26368511,47.12502398,598.53
-99.26368342,47.12468329,599.92
-99.26368260,47.12451089,599.71
-99.26368206,47.12439948,600.24
-99.26368126,47.12423536,599.57
-99.26368089,47.12420781,599.60
-99.26368033,47.12420472,599.38
-99.26367856,47.12420355,599.53
-99.26367255,47.12420138,599.47
-99.26366776,47.12420112,599.49
-99.26338837,47.12420174,600.39
-99.26307962,47.12420245,600.62
-99.26288233,47.12420293,599.18
-99.26255685,47.12420373,598.74
-99.26212002,47.12420467,598.49
-99.26169883,47.12420568,598.15
-99.26116678,47.12420687,598.31
-99.26071763,47.12420791,597.68
-99.26016410,47.12420915,598.65
-99.25978033,47.12420999,598.45
-99.25960573,47.12421038,598.07
-99.25923337,47.12421123,597.43
-99.25887759,47.12421203,598.77
-99.25842162,47.12421306,597.23
-99.25840136,47.12421310,597.20
-99.25790347,47.12421429,595.91
-99.25736465,47.12421546,595.35
-99.25696725,47.12421633,595.12
-99.25655131,47.12421734,593.99
-99.25615441,47.12421814,593.38
-99.25585512,47.12421886,594.00
-99.25531501,47.12422011,595.53
-99.25487699,47.12422105,593.50
-99.25445478,47.12422195,594.43
-99.25405464,47.12422283,593.58
-99.25358613,47.12422386,595.02
-99.25343144,47.12422421,597.45
-99.25280011,47.12422565,596.34
-99.25259404,47.12422608,598.58
-99.25241663,47.12422646,600.67
-99.25192363,47.12422752,598.42
-99.25165483,47.12422814,595.24
-99.25117402,47.12422920,593.24
-99.25071530,47.12423017,595.98
-99.25049743,47.12423073,596.26
-99.25049726,47.12423485,596.27
-99.25049795,47.12438014,597.12
-99.25049926,47.12465246,593.68
-99.25050015,47.12485718,593.27
-99.25050160,47.12516899,593.95
-99.25050356,47.12557726,591.91
-99.25050427,47.12571695,591.27
-99.25050621,47.12614569,591.51
-99.25050656,47.12622331,591.76
-99.25050774,47.12646565,593.55
-99.25050953,47.12685780,596.47
-99.25051097,47.12714118,596.24
-99.25051212,47.12737254,596.61
-99.25051371,47.12772663,593.23
-99.25051452,47.12792101,593.68
-99.25051575,47.12817361,596.21
-99.25051760,47.12855097,596.35
-99.25051836,47.12873067,594.73
-99.25051981,47.12903717,590.94
-99.25052128,47.12935194,591.68
-99.25052247,47.12961665,591.99
-99.25052420,47.12998439,591.45
-99.25052528,47.13021504,589.69
-99.25052618,47.13039806,589.35
-99.25052767,47.13071871,589.31
-99.25052910,47.13102289,590.01
-99.25052921,47.13104654,590.09
-99.25052947,47.13109414,590.15
-99.25053081,47.13134189,589.95
-99.25053144,47.13146324,590.00
-99.25053283,47.13171262,592.07
-99.25053376,47.13200704,593.89
-99.25053440,47.13213834,593.07
-99.25053592,47.13244797,590.65
-99.25053649,47.13259927,590.96
-99.25053857,47.13303705,592.43
-99.25053899,47.13313560,592.43
-99.25053925,47.13316662,592.53
     </coordinates>
    </LineString>
   </MultiGeometry>
  </Placemark>
 </Document>
</kml>
