<kml>
 <Document>
  <Style id="yellow">
   <LineStyle>
   <color>ff00ffff</color>
   <width>1</width>
   </LineStyle>
  </Style>
  <Style id="red">
   <LineStyle>
   <color>ffff0000</color>
   <width>2</width>
   </LineStyle>
  </Style>
  <Style id="green">
   <LineStyle>
   <color>ff00ff00</color>
   <width>1</width>
   </LineStyle>
  </Style>
  <Placemark>
  <styleUrl>#yellow</styleUrl>
   <MultiGeometry>
    <LineString>
     <coordinates>
-99.23857897,47.14225230,577.86
-99.23923547,47.14225181,579.90
-99.23956790,47.14224677,581.43
-99.24000802,47.14225005,579.92
-99.24009580,47.14224993,580.12
-99.24049942,47.14224915,578.85
-99.24091431,47.14224829,579.21
-99.24113682,47.14224780,580.39
-99.24159396,47.14224681,584.29
-99.24213734,47.14224561,584.30
-99.24234958,47.14224518,583.56
-99.24280421,47.14224429,584.66
-99.24326623,47.14224334,585.33
-99.24359412,47.14224261,584.48
-99.24404671,47.14224152,583.01
-99.24439991,47.14224091,581.28
-99.24475220,47.14224017,580.43
-99.24522677,47.14223909,580.93
-99.24558841,47.14223830,581.01
-99.24596704,47.14223756,583.47
-99.24661043,47.14223620,587.71
-99.24723656,47.14223477,591.30
-99.24751698,47.14223421,590.68
-99.24812722,47.14223291,590.77
-99.24841822,47.14223226,594.40
-99.24900502,47.14223094,590.64
-99.24930730,47.14223032,591.32
-99.24957634,47.14222975,590.77
-99.25019023,47.14222842,590.24
-99.25055351,47.14222759,590.98
-99.25057412,47.14222723,591.06
-99.25057958,47.14222711,591.03
-99.25058049,47.14221568,591.01
-99.25058129,47.14215880,590.79
-99.25058102,47.14209055,590.51
-99.25057925,47.14172553,590.03
-99.25057818,47.14148314,589.73
-99.25057795,47.14143372,591.42
-99.25057679,47.14120296,590.02
-99.25057544,47.14091065,587.74
-99.25057339,47.14047130,589.01
-99.25057252,47.14030003,587.34
-99.25057124,47.14000923,586.59
-99.25056973,47.13970177,586.65
-99.25056894,47.13952996,586.88
-99.25056697,47.13910901,589.38
-99.25056601,47.13890165,590.89
-99.25056576,47.13885012,591.18
-99.25056397,47.13847784,592.78
-99.25056346,47.13836296,592.54
-99.25056308,47.13827792,592.12
-99.25056285,47.13822472,591.78
-99.25056198,47.13804128,591.18
-99.25056084,47.13780390,590.95
-99.25055951,47.13751516,589.78
-99.25055765,47.13710904,588.69
-99.25055602,47.13676769,589.74
-99.25055519,47.13659137,589.75
-99.25055377,47.13629245,590.49
-99.25055219,47.13597258,591.72
-99.25055137,47.13578106,591.60
-99.25055009,47.13550889,591.74
-99.25054975,47.13544265,592.05
-99.25054965,47.13542363,592.15
-99.25054785,47.13509751,593.98
-99.25054738,47.13492748,593.16
-99.25054639,47.13471539,592.56
-99.25054482,47.13437940,592.46
-99.25054383,47.13416763,591.98
-99.25054376,47.13415271,591.96
-99.25054268,47.13394052,591.59
-99.25054077,47.13354204,591.88
-99.25054003,47.13336618,592.25
-99.25053991,47.13334099,592.29
-99.25053915,47.13324062,592.48
-99.25053647,47.13322928,592.51
-99.25038894,47.13322952,592.56
-99.25025282,47.13322979,592.75
-99.24970458,47.13323097,592.40
-99.24920245,47.13323205,592.44
-99.24864007,47.13323327,591.86
-99.24846511,47.13323368,591.77
-99.24823638,47.13323419,591.57
-99.24771361,47.13323527,590.80
-99.24721168,47.13323637,589.64
-99.24698013,47.13323686,589.10
-99.24646957,47.13323796,588.40
-99.24646463,47.13323797,588.37
-99.24581768,47.13323937,588.43
-99.24533052,47.13324042,588.06
-99.24507865,47.13324326,590.35
-99.24462543,47.13324307,588.68
-99.24457928,47.13324267,589.12
-99.24454772,47.13324238,589.46
-99.24452193,47.13324216,589.71
-99.24420250,47.13324281,587.23
-99.24408884,47.13324308,586.28
-99.24406809,47.13324320,586.00
-99.24341442,47.13324559,586.01
-99.24338402,47.13324544,586.11
-99.24335729,47.13324546,585.98
-99.24307586,47.13324526,585.07
-99.24256731,47.13324815,585.28
-99.24251876,47.13324831,584.80
-99.24190072,47.13324860,581.53
-99.24185816,47.13324848,581.55
-99.24175546,47.13324828,581.40
-99.24174471,47.13324827,581.37
-99.24170625,47.13324822,581.27
-99.24166842,47.13324818,581.17
-99.24110218,47.13324938,580.90
-99.24109718,47.13324939,580.86
-99.24047802,47.13325069,578.36
-99.24041965,47.13325082,577.88
-99.23976702,47.13325333,575.82
-99.23974670,47.13325339,575.75
-99.23973638,47.13325342,575.78
-99.23971608,47.13325348,575.82
-99.23966896,47.13325363,576.23
-99.23959552,47.13325385,577.41
-99.23951825,47.13325409,577.74
-99.23949797,47.13325415,577.69
-99.23944108,47.13325432,577.87
-99.23942079,47.13325438,578.00
-99.23941052,47.13325441,578.03
-99.23934377,47.13325461,578.19
-99.23933358,47.13325464,578.15
-99.23932325,47.13325467,578.18
-99.23930238,47.13325474,578.13
-99.23929217,47.13325477,578.12
-99.23928215,47.13325480,578.19
-99.23927203,47.13325483,578.11
-99.23926170,47.13325486,578.06
-99.23919548,47.13325505,577.43
-99.23918531,47.13325508,577.38
-99.23916481,47.13325514,577.13
-99.23910875,47.13325530,576.56
-99.23908830,47.13325536,576.35
-99.23903218,47.13325552,575.74
-99.23902237,47.13325555,575.73
-99.23898089,47.13325568,575.60
-99.23888881,47.13325595,575.32
-99.23885798,47.13325604,575.24
-99.23880165,47.13325621,575.22
-99.23878118,47.13325627,575.13
-99.23877083,47.13325630,575.15
-99.23876023,47.13325633,575.18
-99.23875021,47.13325636,575.14
-99.23873005,47.13325642,575.19
-99.23871974,47.13325646,575.12
-99.23870950,47.13325649,575.09
-99.23869919,47.13325652,575.09
-99.23867829,47.13325658,575.09
-99.23866843,47.13325661,575.02
-99.23865813,47.13325664,575.05
-99.23864791,47.13325667,575.02
-99.23862731,47.13325673,574.93
-99.23858646,47.13325685,574.93
-99.23856593,47.13325691,574.91
-99.23852935,47.13325702,574.86
-99.23851945,47.13325705,574.91
-99.23850959,47.13325708,574.87
-99.23849929,47.13325711,574.91
-99.23848908,47.13325714,574.84
-99.23847873,47.13325717,574.82
-99.23846851,47.13325720,574.85
-99.23845778,47.13325723,574.87
-99.23844757,47.13325727,574.73
-99.23843762,47.13325729,574.72
-99.23842732,47.13325733,574.65
-99.23841697,47.13325736,574.68
-99.23839640,47.13325742,574.66
-99.23838606,47.13325745,574.59
-99.23837543,47.13325748,574.69
-99.23836549,47.13325751,574.60
-99.23833511,47.13325760,574.61
-99.23832473,47.13325763,574.43
-99.23831453,47.13325766,574.46
-99.23830375,47.13325769,574.40
-99.23825299,47.13325784,574.37
-99.23820140,47.13325799,574.13
-99.23819112,47.13325802,574.10
-99.23816506,47.13325810,574.07
-99.23815480,47.13325814,574.04
-99.23814403,47.13325817,574.05
-99.23813419,47.13325820,574.06
-99.23812425,47.13325823,574.06
-99.23811399,47.13325826,573.99
-99.23810356,47.13325829,574.02
-99.23744473,47.13325704,574.28
-99.23743177,47.13325721,574.33
-99.23736493,47.13325810,574.38
-99.23735943,47.13325821,574.28
-99.23735558,47.13326050,574.21
-99.23735342,47.13326520,574.13
-99.23735367,47.13334707,574.10
-99.23735526,47.13370164,573.44
-99.23735593,47.13385469,573.71
-99.23735660,47.13400269,574.40
-99.23735850,47.13443366,574.42
-99.23736029,47.13481099,573.97
-99.23736100,47.13497977,572.80
-99.23736203,47.13521496,573.07
-99.23736401,47.13564990,571.71
-99.23736584,47.13607915,571.67
-99.23736747,47.13633639,571.71
-99.23736825,47.13660858,571.78
-99.23736839,47.13664915,572.89
-99.23736950,47.13690255,571.73
-99.23737142,47.13733667,572.21
-99.23737246,47.13757094,572.10
-99.23737347,47.13779398,572.38
-99.23737525,47.13819057,577.80
-99.23737718,47.13859760,576.07
-99.23737786,47.13877444,575.70
-99.23737886,47.13900184,575.56
-99.23737990,47.13920453,576.02
-99.23738136,47.13952621,578.68
-99.23738179,47.13962819,580.57
-99.23738212,47.13970177,581.72
-99.23738376,47.14007727,581.50
-99.23738445,47.14021978,579.17
-99.23738579,47.14056256,576.30
-99.23738765,47.14096559,579.30
-99.23738886,47.14124828,579.39
-99.23738993,47.14149185,578.46
-99.23739135,47.14181400,576.32
-99.23739315,47.14221839,581.54
-99.23739335,47.14225527,581.93
-99.23741393,47.14225531,582.09
-99.23745083,47.14225528,582.32
-99.23748148,47.14225522,582.27
-99.23750779,47.14225515,582.17
-99.23753804,47.14225503,581.88
-99.23757879,47.14225484,581.42
-99.23761440,47.14225468,581.02
-99.23762896,47.14225460,580.83
-99.23767544,47.14225437,580.22
-99.23770534,47.14225421,579.80
-99.23771583,47.14225415,579.65
-99.23793513,47.14225317,577.25
-99.23843514,47.14225253,577.83
-99.23857897,47.14225230,577.86
     </coordinates>
    </LineString>
   </MultiGeometry>
  </Placemark>
 </Document>
</kml>
