<kml>
 <Document>
  <Style id="yellow">
   <LineStyle>
   <color>ff00ffff</color>
   <width>1</width>
   </LineStyle>
  </Style>
  <Style id="red">
   <LineStyle>
   <color>ffff0000</color>
   <width>2</width>
   </LineStyle>
  </Style>
  <Style id="green">
   <LineStyle>
   <color>ff00ff00</color>
   <width>1</width>
   </LineStyle>
  </Style>
  <Placemark>
  <styleUrl>#yellow</styleUrl>
   <MultiGeometry>
    <LineString>
     <coordinates>
-99.22515755,47.16027742,597.35
-99.22571314,47.16027634,596.86
-99.22623105,47.16027532,595.49
-99.22680457,47.16027407,594.71
-99.22720900,47.16027337,594.54
-99.22762229,47.16027250,594.87
-99.22792806,47.16027192,595.87
-99.22850995,47.16027079,597.46
-99.22913178,47.16026955,596.22
-99.22948421,47.16026884,598.60
-99.22986867,47.16026806,600.02
-99.23035705,47.16026708,599.09
-99.23067433,47.16026645,599.79
-99.23104143,47.16026571,601.22
-99.23148347,47.16026481,601.71
-99.23156466,47.16026465,601.08
-99.23208880,47.16026358,599.56
-99.23240501,47.16026296,598.96
-99.23301783,47.16026170,597.97
-99.23328116,47.16026118,597.44
-99.23344893,47.16026081,595.66
-99.23403712,47.16025961,593.70
-99.23450046,47.16025868,591.15
-99.23494761,47.16025776,592.94
-99.23526010,47.16025712,592.66
-99.23564793,47.16025633,590.26
-99.23584607,47.16025591,590.19
-99.23648804,47.16025460,595.22
-99.23693582,47.16025366,596.32
-99.23742409,47.16025264,590.33
-99.23746674,47.16024909,590.27
-99.23747256,47.16024859,590.33
-99.23747294,47.16024788,590.35
-99.23747339,47.16023794,590.25
-99.23747320,47.16019558,590.39
-99.23747220,47.15997215,591.70
-99.23747195,47.15991447,593.81
-99.23747085,47.15967402,596.34
-99.23746983,47.15944015,591.48
-99.23746841,47.15914415,590.34
-99.23746686,47.15877324,590.70
-99.23746513,47.15838766,592.95
-99.23746396,47.15812289,592.95
-99.23746250,47.15779751,595.58
-99.23746112,47.15748433,596.39
-99.23746020,47.15728761,596.09
-99.23745880,47.15697281,598.75
-99.23745794,47.15677442,598.72
-99.23745699,47.15655938,597.53
-99.23745592,47.15631791,596.98
-99.23745403,47.15589627,599.01
-99.23745327,47.15572253,600.00
-99.23745293,47.15564506,598.33
-99.23745167,47.15538130,600.60
-99.23744981,47.15497280,598.70
-99.23744941,47.15488480,598.65
-99.23744766,47.15447813,596.91
-99.23744655,47.15422020,599.26
-99.23744597,47.15408665,598.67
-99.23744473,47.15380452,598.53
-99.23744429,47.15371331,596.94
-99.23744382,47.15361176,596.27
-99.23744200,47.15320482,596.12
-99.23744097,47.15296910,596.41
-99.23744001,47.15275129,594.77
-99.23743837,47.15237625,595.97
-99.23743804,47.15230679,596.71
-99.23743732,47.15215603,598.11
-99.23743563,47.15176143,597.33
-99.23743407,47.15142351,593.43
-99.23743351,47.15129274,592.05
-99.23743341,47.15127782,591.97
-99.23743275,47.15125416,591.77
-99.23719697,47.15125463,591.02
-99.23707793,47.15125487,590.83
-99.23693724,47.15125516,590.87
-99.23641032,47.15125626,591.03
-99.23626622,47.15125654,591.29
-99.23603386,47.15125704,591.87
-99.23556895,47.15125803,594.39
-99.23515742,47.15125883,595.31
-99.23478557,47.15125968,595.56
-99.23440975,47.15126036,594.09
-99.23417648,47.15126084,593.39
-99.23400774,47.15126118,592.93
-99.23367938,47.15126185,592.69
-99.23333871,47.15126258,594.33
-99.23282630,47.15126365,595.11
-99.23248209,47.15126433,593.16
-99.23213724,47.15126500,592.90
-99.23167545,47.15126592,592.44
-99.23126896,47.15126676,591.78
-99.23065123,47.15126801,591.05
-99.23034383,47.15126864,589.68
-99.23012849,47.15126909,589.78
-99.22966116,47.15126998,590.21
-99.22945772,47.15127038,590.45
-99.22894984,47.15127140,593.52
-99.22834191,47.15127261,596.04
-99.22806595,47.15127323,593.38
-99.22746915,47.15127439,591.99
-99.22696273,47.15127536,592.22
-99.22633548,47.15127660,596.70
-99.22583803,47.15127760,598.57
-99.22540234,47.15127844,597.06
-99.22490564,47.15127943,595.82
-99.22480118,47.15127964,595.61
-99.22425773,47.15128077,592.60
-99.22424814,47.15128138,592.65
-99.22424635,47.15128204,592.51
-99.22424363,47.15128646,592.37
-99.22424296,47.15132561,592.42
-99.22424315,47.15137691,592.44
-99.22424449,47.15168812,593.03
-99.22424576,47.15199356,593.52
-99.22424661,47.15219429,595.45
-99.22424821,47.15257022,596.42
-99.22424848,47.15263493,596.60
-99.22425012,47.15303044,596.28
-99.22425064,47.15315206,596.82
-99.22425186,47.15343559,596.37
-99.22425289,47.15367761,595.68
-99.22425444,47.15404244,597.29
-99.22425583,47.15436063,597.18
-99.22425662,47.15456609,597.16
-99.22425714,47.15469260,597.41
-99.22425869,47.15506865,597.75
-99.22425934,47.15522683,596.51
-99.22426029,47.15545264,597.25
-99.22426157,47.15574119,597.93
-99.22426268,47.15601661,598.24
-99.22426376,47.15622850,596.58
-99.22426435,47.15634979,596.03
-99.22426565,47.15668503,593.80
-99.22426667,47.15696772,594.11
-99.22426754,47.15716236,596.37
-99.22426890,47.15749784,595.87
-99.22427070,47.15792140,592.83
-99.22427211,47.15825729,594.18
-99.22427248,47.15833856,594.90
-99.22427385,47.15862668,596.15
-99.22427493,47.15891419,596.77
-99.22427523,47.15899592,597.81
-99.22427597,47.15917205,599.80
-99.22427671,47.15932959,596.66
-99.22427820,47.15970426,595.20
-99.22427966,47.16002591,593.76
-99.22428012,47.16016413,593.72
-99.22428068,47.16027209,593.57
-99.22428115,47.16027542,593.80
-99.22428194,47.16027812,593.64
-99.22428691,47.16027864,593.49
-99.22434744,47.16027897,593.44
-99.22455004,47.16027861,595.09
-99.22515755,47.16027742,597.35
     </coordinates>
    </LineString>
   </MultiGeometry>
  </Placemark>
 </Document>
</kml>
