<kml>
 <Document>
  <Style id="yellow">
   <LineStyle>
   <color>ff00ffff</color>
   <width>1</width>
   </LineStyle>
  </Style>
  <Style id="red">
   <LineStyle>
   <color>ffff0000</color>
   <width>2</width>
   </LineStyle>
  </Style>
  <Style id="green">
   <LineStyle>
   <color>ff00ff00</color>
   <width>1</width>
   </LineStyle>
  </Style>
  <Placemark>
  <styleUrl>#yellow</styleUrl>
   <MultiGeometry>
    <LineString>
     <coordinates>
-84.31775441,35.92540642,245.73
-84.31777372,35.92540722,253.53
-84.31793660,35.92541104,258.06
-84.31807762,35.92541419,246.08
-84.31854415,35.92542463,249.53
-84.31896374,35.92543398,250.62
-84.31911302,35.92543732,250.63
-84.31947635,35.92544547,244.32
-84.31992023,35.92545538,244.36
-84.32010644,35.92545950,244.13
-84.32053478,35.92546912,243.81
-84.32106485,35.92548094,243.54
-84.32117544,35.92548336,243.48
-84.32161905,35.92549329,251.31
-84.32177453,35.92549677,249.01
-84.32217415,35.92550572,244.65
-84.32252846,35.92551363,250.72
-84.32257881,35.92551475,266.51
-84.32281309,35.92551998,263.64
-84.32310782,35.92552656,257.46
-84.32359498,35.92553743,267.84
-84.32364989,35.92553865,271.64
-84.32392645,35.92554478,267.95
-84.32429375,35.92555298,261.15
-84.32469128,35.92556188,276.08
-84.32473637,35.92556288,271.12
-84.32502459,35.92556927,260.61
-84.32536298,35.92557676,261.42
-84.32565867,35.92558332,255.18
-84.32600051,35.92559102,256.77
-84.32618032,35.92559507,257.78
-84.32659610,35.92560434,261.25
-84.32700044,35.92561334,262.29
-84.32728600,35.92561971,263.86
-84.32736469,35.92562146,267.79
-84.32750718,35.92562463,285.42
-84.32766276,35.92562809,282.54
-84.32805620,35.92563684,278.32
-84.32825780,35.92564135,285.93
-84.32851355,35.92564705,292.00
-84.32872864,35.92565182,276.79
-84.32875854,35.92565247,264.41
-84.32880893,35.92565351,269.02
-84.32882159,35.92565356,271.38
-84.32882413,35.92562587,281.11
-84.32883261,35.92537562,268.67
-84.32883266,35.92537402,271.34
-84.32884556,35.92499075,278.93
-84.32885006,35.92485663,259.79
-84.32886383,35.92444796,264.69
-84.32887742,35.92404291,262.74
-84.32889191,35.92361358,263.22
-84.32889366,35.92356148,265.22
-84.32889978,35.92337966,255.97
-84.32891229,35.92300758,270.45
-84.32891467,35.92293652,270.14
-84.32891758,35.92284973,267.95
-84.32892004,35.92277545,262.27
-84.32893017,35.92247156,269.16
-84.32893689,35.92227590,268.43
-84.32894569,35.92201530,255.35
-84.32895661,35.92169079,265.61
-84.32896197,35.92152959,257.84
-84.32897244,35.92121995,265.50
-84.32897643,35.92110142,267.42
-84.32898685,35.92079135,268.48
-84.32899764,35.92047064,258.86
-84.32901195,35.92004599,250.11
-84.32901815,35.91986090,252.11
-84.32902834,35.91955872,253.62
-84.32903233,35.91943963,254.11
-84.32904210,35.91914877,255.15
-84.32905604,35.91873517,257.01
-84.32906267,35.91853832,256.79
-84.32906786,35.91838405,258.49
-84.32907801,35.91808156,259.57
-84.32908941,35.91774334,260.07
-84.32909433,35.91759511,260.36
-84.32910475,35.91728739,261.61
-84.32911758,35.91690643,283.87
-84.32912374,35.91672299,301.59
-84.32912448,35.91669820,297.99
-84.32912517,35.91664776,285.02
-84.32910951,35.91664737,283.69
-84.32908827,35.91664689,294.08
-84.32886326,35.91664187,293.90
-84.32835829,35.91663062,297.23
-84.32830340,35.91662940,270.25
-84.32784424,35.91661919,306.14
-84.32753345,35.91661226,309.66
-84.32751228,35.91661179,276.70
-84.32729235,35.91660689,302.28
-84.32718296,35.91660446,306.98
-84.32667050,35.91659303,300.40
-84.32661609,35.91659181,305.22
-84.32608540,35.91658000,328.33
-84.32583625,35.91657444,295.40
-84.32560595,35.91656931,315.21
-84.32556748,35.91656845,288.42
-84.32533712,35.91656334,300.35
-84.32479651,35.91655126,298.88
-84.32461602,35.91654723,303.08
-84.32447224,35.91654403,307.34
-84.32421255,35.91653824,300.45
-84.32405612,35.91653475,300.91
-84.32396775,35.91653278,303.87
-84.32368616,35.91652650,301.44
-84.32350106,35.91652237,298.77
-84.32302456,35.91651174,284.15
-84.32258338,35.91650189,279.31
-84.32251953,35.91650047,284.05
-84.32205789,35.91649018,289.00
-84.32175615,35.91648344,287.74
-84.32143961,35.91647636,266.99
-84.32100175,35.91646660,256.08
-84.32047705,35.91645495,250.25
-84.31999334,35.91644412,250.62
-84.31946140,35.91643221,247.17
-84.31924123,35.91642729,246.38
-84.31895459,35.91642090,246.14
-84.31861440,35.91641329,246.15
-84.31845324,35.91640969,245.70
-84.31809239,35.91640172,244.10
-84.31807535,35.91640137,244.01
-84.31806497,35.91640176,243.97
-84.31805599,35.91640283,243.90
-84.31805475,35.91640895,243.92
-84.31805380,35.91643265,243.92
-84.31803993,35.91683860,244.32
-84.31803342,35.91703230,244.46
-84.31803152,35.91708879,244.45
-84.31801664,35.91752771,244.75
-84.31800144,35.91797755,243.69
-84.31799204,35.91825610,243.77
-84.31798013,35.91860906,242.12
-84.31796571,35.91903746,250.41
-84.31796411,35.91908395,249.92
-84.31796225,35.91913766,272.08
-84.31795097,35.91947165,244.72
-84.31794449,35.91966354,265.22
-84.31793115,35.92005805,275.66
-84.31791661,35.92048889,277.25
-84.31790259,35.92090348,255.51
-84.31789609,35.92109591,266.51
-84.31788365,35.92146408,237.68
-84.31787703,35.92165997,238.15
-84.31786591,35.92199066,237.87
-84.31785162,35.92241298,236.27
-84.31784039,35.92274419,236.73
-84.31783531,35.92289534,237.11
-84.31783239,35.92298192,239.96
-84.31782072,35.92332898,237.29
-84.31781697,35.92343877,237.34
-84.31780696,35.92373352,237.46
-84.31780304,35.92384981,237.87
-84.31779171,35.92418519,237.57
-84.31778701,35.92432424,240.56
-84.31777376,35.92471606,259.81
-84.31776248,35.92505040,244.11
-84.31775467,35.92528163,245.36
-84.31775253,35.92534489,245.72
-84.31775228,35.92540217,245.72
-84.31775298,35.92540486,253.03
-84.31775341,35.92540583,253.13
-84.31775441,35.92540642,245.73
     </coordinates>
    </LineString>
   </MultiGeometry>
  </Placemark>
 </Document>
</kml>
