<kml>
 <Document>
  <Style id="yellow">
   <LineStyle>
   <color>ff00ffff</color>
   <width>1</width>
   </LineStyle>
  </Style>
  <Style id="red">
   <LineStyle>
   <color>ffff0000</color>
   <width>2</width>
   </LineStyle>
  </Style>
  <Style id="green">
   <LineStyle>
   <color>ff00ff00</color>
   <width>1</width>
   </LineStyle>
  </Style>
  <Placemark>
  <styleUrl>#yellow</styleUrl>
   <MultiGeometry>
    <LineString>
     <coordinates>
-84.30670136,35.92446197,323.93
-84.30669991,35.92450479,327.88
-84.30668991,35.92479946,328.27
-84.30668090,35.92506499,328.73
-84.30668002,35.92509313,332.34
-84.30667883,35.92513723,335.74
-84.30667894,35.92515165,336.75
-84.30668239,35.92515866,334.77
-84.30676032,35.92516064,329.63
-84.30709759,35.92516820,298.19
-84.30750228,35.92517727,318.79
-84.30800665,35.92518860,303.96
-84.30830515,35.92519536,319.56
-84.30865752,35.92520326,314.75
-84.30886910,35.92520800,275.89
-84.30928542,35.92521731,263.67
-84.30955688,35.92522344,273.55
-84.30957919,35.92522394,279.04
-84.30999029,35.92523314,290.45
-84.31050902,35.92524477,324.76
-84.31072252,35.92524957,330.88
-84.31121789,35.92526066,325.85
-84.31137388,35.92526415,333.37
-84.31163430,35.92526994,323.98
-84.31197528,35.92527764,290.98
-84.31233311,35.92528563,276.40
-84.31284613,35.92529715,280.67
-84.31330824,35.92530750,250.37
-84.31354904,35.92531285,242.04
-84.31375062,35.92531731,241.39
-84.31411583,35.92532559,248.27
-84.31412088,35.92532570,248.07
-84.31454397,35.92533516,240.32
-84.31488008,35.92534267,240.70
-84.31519346,35.92534968,239.39
-84.31545251,35.92535533,239.03
-84.31578304,35.92536283,239.03
-84.31618217,35.92537172,240.15
-84.31634537,35.92537545,240.41
-84.31662822,35.92538179,240.78
-84.31678757,35.92538535,241.30
-84.31731372,35.92539706,249.08
-84.31743665,35.92539983,248.72
-84.31774982,35.92540684,245.74
-84.31775079,35.92538398,245.74
-84.31775266,35.92533951,245.69
-84.31776314,35.92502998,244.03
-84.31777094,35.92479867,255.19
-84.31777331,35.92472804,259.60
-84.31777842,35.92457615,258.97
-84.31779111,35.92420164,239.55
-84.31779700,35.92402733,244.30
-84.31780053,35.92392286,237.98
-84.31781263,35.92356478,237.79
-84.31782756,35.92312257,237.56
-84.31783946,35.92277126,236.89
-84.31784323,35.92265851,235.19
-84.31785650,35.92226520,237.08
-84.31786103,35.92213247,238.52
-84.31786200,35.92210415,238.06
-84.31787459,35.92173192,238.27
-84.31788377,35.92145913,237.67
-84.31789221,35.92120973,260.04
-84.31790010,35.92097693,274.86
-84.31790343,35.92087828,278.89
-84.31791826,35.92043926,261.55
-84.31792041,35.92037560,286.98
-84.31793456,35.91995646,274.97
-84.31794426,35.91966903,268.68
-84.31795779,35.91926915,245.46
-84.31796174,35.91915174,249.13
-84.31797650,35.91871561,242.95
-84.31798308,35.91851447,243.51
-84.31799177,35.91826122,243.64
-84.31799338,35.91821385,244.02
-84.31800396,35.91790215,243.43
-84.31800922,35.91774636,243.98
-84.31801780,35.91749202,244.83
-84.31802542,35.91726588,244.77
-84.31803444,35.91699781,244.46
-84.31804512,35.91668344,244.18
-84.31805031,35.91652928,244.05
-84.31805418,35.91641207,243.91
-84.31805327,35.91640749,243.90
-84.31805245,35.91640349,243.89
-84.31805149,35.91640318,243.87
-84.31803805,35.91640073,243.89
-84.31798691,35.91639944,243.62
-84.31792598,35.91639804,243.45
-84.31762199,35.91639109,241.42
-84.31714466,35.91638042,234.23
-84.31672411,35.91637102,231.71
-84.31658513,35.91636791,231.81
-84.31615439,35.91635826,241.49
-84.31606420,35.91635624,246.39
-84.31575166,35.91634926,238.40
-84.31550997,35.91634387,243.83
-84.31519255,35.91633679,243.19
-84.31464707,35.91632457,244.55
-84.31448578,35.91632093,243.73
-84.31423041,35.91631522,265.45
-84.31386321,35.91630699,239.44
-84.31382335,35.91630610,239.65
-84.31363872,35.91630202,241.14
-84.31314479,35.91629092,263.75
-84.31300713,35.91628782,264.95
-84.31254330,35.91627743,272.11
-84.31235369,35.91627318,274.03
-84.31201797,35.91626574,274.29
-84.31164146,35.91625723,282.55
-84.31138927,35.91625158,269.25
-84.31134087,35.91625049,273.84
-84.31119658,35.91624726,263.66
-84.31089628,35.91624053,264.51
-84.31064699,35.91623495,264.03
-84.31010812,35.91622289,250.75
-84.30985172,35.91621712,243.16
-84.30949710,35.91620916,242.27
-84.30923657,35.91620335,266.50
-84.30878243,35.91619313,243.64
-84.30851007,35.91618703,245.99
-84.30810065,35.91617785,277.85
-84.30756605,35.91616586,271.55
-84.30740026,35.91616215,253.07
-84.30701585,35.91615375,250.32
-84.30698483,35.91615332,253.15
-84.30698395,35.91616481,254.13
-84.30698143,35.91620931,257.10
-84.30698104,35.91622018,257.71
-84.30697819,35.91630340,253.91
-84.30697023,35.91653749,254.21
-84.30696604,35.91666167,263.83
-84.30695889,35.91687361,251.79
-84.30694803,35.91719330,254.80
-84.30694247,35.91735529,252.89
-84.30693230,35.91765611,258.41
-84.30692256,35.91794499,254.48
-84.30691406,35.91819503,254.99
-84.30690050,35.91859266,271.00
-84.30689178,35.91884991,282.30
-84.30687871,35.91923486,284.99
-84.30686723,35.91957391,262.17
-84.30685534,35.91992400,281.32
-84.30684670,35.92017841,275.44
-84.30683275,35.92059027,280.50
-84.30682288,35.92088061,254.62
-84.30681347,35.92115856,264.33
-84.30681101,35.92123140,254.07
-84.30680886,35.92129545,270.23
-84.30679511,35.92169889,257.24
-84.30678662,35.92195674,260.36
-84.30677818,35.92219801,272.21
-84.30677627,35.92225440,285.99
-84.30677194,35.92238354,286.52
-84.30676372,35.92262801,291.72
-84.30675034,35.92301851,277.61
-84.30673811,35.92338132,299.08
-84.30672977,35.92362563,301.19
-84.30672674,35.92371398,294.48
-84.30672080,35.92388985,283.50
-84.30671659,35.92401420,310.98
-84.30670136,35.92446197,323.93
     </coordinates>
    </LineString>
   </MultiGeometry>
  </Placemark>
 </Document>
</kml>
