<kml>
 <Document>
  <Style id="yellow">
   <LineStyle>
   <color>ff00ffff</color>
   <width>1</width>
   </LineStyle>
  </Style>
  <Style id="red">
   <LineStyle>
   <color>ffff0000</color>
   <width>2</width>
   </LineStyle>
  </Style>
  <Style id="green">
   <LineStyle>
   <color>ff00ff00</color>
   <width>1</width>
   </LineStyle>
  </Style>
  <Placemark>
  <styleUrl>#yellow</styleUrl>
   <MultiGeometry>
    <LineString>
     <coordinates>
-84.35037755,35.94386726,254.32
-84.35037268,35.94401354,239.51
-84.35036845,35.94414058,253.28
-84.35036829,35.94415544,258.15
-84.35037156,35.94415778,251.64
-84.35068365,35.94416470,254.68
-84.35081147,35.94416754,261.07
-84.35098002,35.94417126,249.21
-84.35099754,35.94417164,257.16
-84.35143374,35.94418126,251.57
-84.35190851,35.94419175,239.55
-84.35202558,35.94419434,257.18
-84.35223101,35.94419887,255.50
-84.35246684,35.94420407,246.35
-84.35279430,35.94421129,250.92
-84.35317629,35.94421974,239.68
-84.35366478,35.94423050,239.18
-84.35401859,35.94423832,250.50
-84.35450006,35.94424894,259.42
-84.35501602,35.94426032,255.11
-84.35535508,35.94426780,259.74
-84.35584008,35.94427848,252.68
-84.35608758,35.94428393,253.67
-84.35643462,35.94429158,250.83
-84.35667058,35.94429679,255.57
-84.35687905,35.94430139,253.84
-84.35698683,35.94430377,257.38
-84.35727654,35.94431014,243.91
-84.35776255,35.94432084,261.75
-84.35786872,35.94432319,253.88
-84.35816864,35.94432980,264.04
-84.35828396,35.94433234,249.59
-84.35866228,35.94434065,237.88
-84.35898593,35.94434774,232.59
-84.35929210,35.94435449,258.68
-84.35977066,35.94436506,266.05
-84.35996062,35.94436925,233.92
-84.36050354,35.94438120,249.88
-84.36077768,35.94438723,259.72
-84.36113634,35.94439513,245.70
-84.36116189,35.94439569,251.89
-84.36143642,35.94440172,236.80
-84.36144199,35.94440143,243.37
-84.36144343,35.94439442,237.43
-84.36144382,35.94439176,241.30
-84.36144666,35.94430939,237.88
-84.36146051,35.94389149,238.76
-84.36146314,35.94381257,239.57
-84.36146974,35.94361523,240.84
-84.36147915,35.94333281,246.70
-84.36149001,35.94300558,247.19
-84.36149769,35.94277492,262.07
-84.36150719,35.94248965,257.16
-84.36151185,35.94234976,258.33
-84.36151353,35.94229927,258.95
-84.36152114,35.94207035,266.51
-84.36153161,35.94175574,265.28
-84.36154062,35.94148452,263.15
-84.36154844,35.94124938,265.61
-84.36156023,35.94089509,272.09
-84.36156184,35.94084677,272.12
-84.36157483,35.94045629,272.77
-84.36157832,35.94035121,264.13
-84.36158967,35.94000997,263.69
-84.36160264,35.93961982,264.50
-84.36161272,35.93931697,262.67
-84.36162392,35.93898034,263.11
-84.36162697,35.93888815,261.66
-84.36164109,35.93846389,252.80
-84.36164881,35.93823168,274.66
-84.36166015,35.93789097,267.64
-84.36166303,35.93780414,277.65
-84.36167202,35.93753359,265.27
-84.36168349,35.93718792,285.86
-84.36169133,35.93695298,289.45
-84.36169630,35.93680368,282.65
-84.36170255,35.93661504,264.29
-84.36171171,35.93633631,269.77
-84.36171800,35.93615086,273.49
-84.36172850,35.93583553,280.66
-84.36173134,35.93575002,291.73
-84.36173713,35.93557582,305.48
-84.36174018,35.93548427,313.40
-84.36174236,35.93541459,293.55
-84.36174241,35.93539636,294.18
-84.36173963,35.93539592,294.23
-84.36173364,35.93539536,294.34
-84.36171903,35.93539499,298.40
-84.36168379,35.93539415,308.13
-84.36154831,35.93539116,320.08
-84.36125128,35.93538464,292.81
-84.36076676,35.93537397,285.14
-84.36037484,35.93536535,301.99
-84.35994418,35.93535589,322.74
-84.35973888,35.93535136,316.21
-84.35942601,35.93534446,321.00
-84.35914337,35.93533829,306.47
-84.35886644,35.93533214,330.90
-84.35862404,35.93532681,335.73
-84.35809675,35.93531520,347.17
-84.35763299,35.93530498,349.59
-84.35734019,35.93529856,349.51
-84.35703135,35.93529176,354.50
-84.35666990,35.93528376,335.62
-84.35637187,35.93527722,306.74
-84.35608280,35.93527084,315.21
-84.35597531,35.93526847,311.62
-84.35568960,35.93526217,316.59
-84.35527071,35.93525292,310.88
-84.35511440,35.93524951,301.42
-84.35476931,35.93524198,283.84
-84.35427504,35.93523097,283.95
-84.35397515,35.93522436,273.18
-84.35370061,35.93521831,288.02
-84.35352918,35.93521454,270.35
-84.35299944,35.93520283,279.40
-84.35264307,35.93519496,274.99
-84.35246509,35.93519104,264.44
-84.35212961,35.93518363,282.30
-84.35199448,35.93518065,284.32
-84.35173979,35.93517503,266.77
-84.35169512,35.93517404,277.86
-84.35124504,35.93516414,281.54
-84.35101458,35.93515904,282.17
-84.35070982,35.93515235,279.00
-84.35067858,35.93515189,280.12
-84.35067424,35.93515212,279.63
-84.35066981,35.93515243,279.06
-84.35066739,35.93519313,283.00
-84.35066733,35.93519469,279.78
-84.35066049,35.93539568,286.56
-84.35064909,35.93573831,289.63
-84.35064096,35.93598082,280.41
-84.35063343,35.93620697,286.12
-84.35062053,35.93659342,287.18
-84.35061341,35.93680570,278.25
-84.35059963,35.93721865,270.99
-84.35059159,35.93746005,280.39
-84.35058333,35.93770695,283.62
-84.35057724,35.93788906,275.40
-84.35057618,35.93792094,283.76
-84.35056707,35.93819559,269.18
-84.35055436,35.93857466,277.75
-84.35054672,35.93880300,291.24
-84.35053520,35.93914818,309.08
-84.35052479,35.93946032,303.14
-84.35051884,35.93963774,325.34
-84.35051669,35.93970191,332.32
-84.35051217,35.93983721,336.39
-84.35050416,35.94007719,304.85
-84.35050006,35.94020031,328.12
-84.35048906,35.94052923,317.12
-84.35047979,35.94080737,282.84
-84.35046819,35.94115388,296.34
-84.35046429,35.94127113,280.78
-84.35045160,35.94165132,276.25
-84.35044567,35.94182797,275.09
-84.35044494,35.94185005,277.18
-84.35043329,35.94219927,264.43
-84.35041851,35.94264138,237.42
-84.35041282,35.94281139,250.91
-84.35039846,35.94324213,258.70
-84.35039120,35.94346040,239.98
-84.35038066,35.94377433,243.84
-84.35037755,35.94386726,254.32
     </coordinates>
    </LineString>
   </MultiGeometry>
  </Placemark>
 </Document>
</kml>
