<kml>
 <Document>
  <Style id="yellow">
   <LineStyle>
   <color>ff00ffff</color>
   <width>1</width>
   </LineStyle>
  </Style>
  <Style id="red">
   <LineStyle>
   <color>ffff0000</color>
   <width>2</width>
   </LineStyle>
  </Style>
  <Style id="green">
   <LineStyle>
   <color>ff00ff00</color>
   <width>1</width>
   </LineStyle>
  </Style>
  <Placemark>
  <styleUrl>#yellow</styleUrl>
   <MultiGeometry>
    <LineString>
     <coordinates>
-84.34946796,35.97117673,244.26
-84.34948040,35.97117705,245.12
-84.34962089,35.97118019,244.28
-84.34982725,35.97118477,250.09
-84.34998885,35.97118833,257.54
-84.35039381,35.97119723,248.93
-84.35074743,35.97120507,252.52
-84.35087064,35.97120779,263.15
-84.35141806,35.97121988,253.74
-84.35155328,35.97122290,247.87
-84.35157109,35.97122329,251.19
-84.35202790,35.97123337,256.69
-84.35216326,35.97123637,246.00
-84.35233492,35.97124015,243.99
-84.35245428,35.97124276,234.87
-84.35277287,35.97124901,234.89
-84.35310438,35.97125671,234.85
-84.35358094,35.97126719,234.86
-84.35366673,35.97126950,239.72
-84.35368687,35.97127000,244.42
-84.35389500,35.97127460,242.53
-84.35405409,35.97127810,248.06
-84.35446634,35.97128719,258.71
-84.35467483,35.97129179,267.80
-84.35512375,35.97130170,259.06
-84.35546785,35.97130930,278.12
-84.35584435,35.97131760,281.01
-84.35630758,35.97132778,283.96
-84.35646719,35.97133131,289.46
-84.35663401,35.97133500,279.96
-84.35706967,35.97134461,284.81
-84.35715087,35.97134640,280.99
-84.35766210,35.97135762,300.73
-84.35797003,35.97136444,295.77
-84.35838788,35.97137366,317.72
-84.35869009,35.97138031,302.95
-84.35900734,35.97138730,319.93
-84.35956104,35.97139950,311.62
-84.35993791,35.97140778,321.75
-84.36030344,35.97141584,313.88
-84.36042452,35.97141851,313.07
-84.36054320,35.97142097,291.54
-84.36054404,35.97140559,285.57
-84.36054522,35.97138331,284.59
-84.36054804,35.97130178,301.22
-84.36054887,35.97127740,303.13
-84.36055066,35.97122520,305.41
-84.36056256,35.97086785,283.15
-84.36056446,35.97081086,272.41
-84.36056717,35.97072953,278.68
-84.36057642,35.97045140,285.37
-84.36058787,35.97010794,269.26
-84.36060037,35.96973245,275.27
-84.36060870,35.96948211,285.93
-84.36062066,35.96912316,260.57
-84.36063254,35.96876696,255.27
-84.36063666,35.96864320,262.27
-84.36064345,35.96843951,259.23
-84.36065810,35.96799945,246.46
-84.36067165,35.96759146,248.52
-84.36068191,35.96728451,246.95
-84.36069121,35.96700520,264.41
-84.36069802,35.96680086,269.08
-84.36069834,35.96679139,264.25
-84.36070173,35.96668939,263.28
-84.36070895,35.96647158,262.82
-84.36071871,35.96617959,255.58
-84.36073018,35.96583512,259.00
-84.36073898,35.96557113,263.31
-84.36074933,35.96525879,243.97
-84.36076255,35.96486325,258.06
-84.36077560,35.96447112,259.35
-84.36078203,35.96427725,236.83
-84.36079662,35.96384008,235.24
-84.36080876,35.96347529,252.08
-84.36082273,35.96305586,251.38
-84.36082991,35.96284029,256.35
-84.36083536,35.96267671,235.85
-84.36084312,35.96244292,240.63
-84.36084346,35.96242393,251.49
-84.36084334,35.96241563,254.12
-84.36084141,35.96241510,254.32
-84.36075449,35.96241285,245.23
-84.36066410,35.96241080,237.95
-84.36058660,35.96240909,251.28
-84.36039148,35.96240478,242.17
-84.36024581,35.96240158,254.77
-84.36004303,35.96239711,248.30
-84.35995270,35.96239513,264.73
-84.35948414,35.96238484,231.06
-84.35896427,35.96237337,250.53
-84.35845666,35.96236220,244.45
-84.35794584,35.96235093,235.88
-84.35764735,35.96234435,234.84
-84.35746236,35.96234028,239.28
-84.35725420,35.96233569,244.74
-84.35710879,35.96233249,253.69
-84.35702208,35.96233057,264.11
-84.35684816,35.96232674,266.27
-84.35650310,35.96231914,270.56
-84.35633721,35.96231549,280.33
-84.35613749,35.96231110,273.06
-84.35559071,35.96229902,252.09
-84.35509506,35.96228810,261.46
-84.35466307,35.96227856,260.43
-84.35417570,35.96226782,240.29
-84.35404731,35.96226498,243.29
-84.35364906,35.96225619,251.96
-84.35337155,35.96225008,249.58
-84.35298684,35.96224158,262.99
-84.35254061,35.96223173,272.10
-84.35219044,35.96222404,273.85
-84.35197419,35.96221923,267.71
-84.35170933,35.96221337,281.53
-84.35134462,35.96220533,266.35
-84.35123772,35.96220297,265.12
-84.35080044,35.96219334,270.96
-84.35068037,35.96219068,300.20
-84.35046341,35.96218587,305.38
-84.35002115,35.96217608,320.96
-84.34982755,35.96217181,322.58
-84.34980623,35.96217155,327.01
-84.34980197,35.96217169,327.15
-84.34976737,35.96217287,326.94
-84.34976601,35.96217323,325.56
-84.34976565,35.96217758,327.23
-84.34975699,35.96243507,322.39
-84.34974733,35.96272492,313.53
-84.34973354,35.96313631,301.82
-84.34972693,35.96333447,284.94
-84.34971788,35.96360458,243.22
-84.34971537,35.96368001,240.55
-84.34970225,35.96407207,240.02
-84.34969213,35.96437478,260.51
-84.34968628,35.96454951,250.55
-84.34967134,35.96499696,256.30
-84.34966534,35.96517633,269.09
-84.34965233,35.96556498,272.99
-84.34963738,35.96601201,269.37
-84.34963248,35.96615847,262.78
-84.34962823,35.96628576,255.56
-84.34961345,35.96672779,237.85
-84.34960852,35.96687594,237.25
-84.34959744,35.96720741,237.04
-84.34958883,35.96746348,237.25
-84.34957960,35.96773966,236.78
-84.34957666,35.96782740,236.30
-84.34956755,35.96809985,250.25
-84.34955659,35.96842794,238.90
-84.34954690,35.96871714,257.68
-84.34953247,35.96914905,254.78
-84.34952244,35.96944854,254.39
-84.34951041,35.96980835,245.26
-84.34950986,35.96982451,248.55
-84.34949829,35.97017113,241.20
-84.34948395,35.97059930,252.36
-84.34947009,35.97101428,252.03
-84.34946490,35.97117046,243.34
-84.34946502,35.97117370,242.03
-84.34946796,35.97117673,244.26
     </coordinates>
    </LineString>
   </MultiGeometry>
  </Placemark>
 </Document>
</kml>
