<kml>
 <Document>
  <Style id="yellow">
   <LineStyle>
   <color>ff00ffff</color>
   <width>1</width>
   </LineStyle>
  </Style>
  <Style id="red">
   <LineStyle>
   <color>ffff0000</color>
   <width>2</width>
   </LineStyle>
  </Style>
  <Style id="green">
   <LineStyle>
   <color>ff00ff00</color>
   <width>1</width>
   </LineStyle>
  </Style>
  <Placemark>
  <styleUrl>#yellow</styleUrl>
   <MultiGeometry>
    <LineString>
     <coordinates>
-84.35127201,35.91707454,271.61
-84.35127090,35.91711073,276.87
-84.35127030,35.91713337,276.17
-84.35127158,35.91713736,277.27
-84.35128658,35.91713870,274.07
-84.35133602,35.91714004,274.77
-84.35163132,35.91714654,280.08
-84.35202422,35.91715520,292.10
-84.35236760,35.91716280,292.19
-84.35290804,35.91717473,302.32
-84.35326929,35.91718269,315.31
-84.35369945,35.91719217,289.77
-84.35394339,35.91719756,295.18
-84.35439369,35.91720750,284.26
-84.35481028,35.91721668,300.81
-84.35515185,35.91722422,292.20
-84.35565126,35.91723521,279.31
-84.35573669,35.91723710,289.45
-84.35592856,35.91724133,302.50
-84.35623614,35.91724810,293.62
-84.35668355,35.91725797,307.10
-84.35682347,35.91726103,287.39
-84.35737589,35.91727321,302.17
-84.35768551,35.91728004,302.29
-84.35794271,35.91728567,297.61
-84.35844092,35.91729667,318.13
-84.35864565,35.91730117,300.49
-84.35914398,35.91731214,314.53
-84.35914721,35.91731221,306.28
-84.35915037,35.91731228,299.18
-84.35953216,35.91732067,293.98
-84.36000544,35.91733107,302.09
-84.36041340,35.91734008,293.69
-84.36083599,35.91734937,298.84
-84.36106340,35.91735437,297.38
-84.36153061,35.91736464,283.92
-84.36202556,35.91737554,303.40
-84.36230902,35.91738177,286.40
-84.36232866,35.91738151,309.83
-84.36234127,35.91738048,290.19
-84.36234191,35.91737187,308.94
-84.36234218,35.91736811,310.47
-84.36234489,35.91729066,305.32
-84.36235850,35.91688030,291.23
-84.36236590,35.91665822,298.92
-84.36237661,35.91633548,297.78
-84.36238776,35.91600007,308.43
-84.36238923,35.91595601,290.81
-84.36240201,35.91557080,288.32
-84.36241090,35.91530329,300.28
-84.36242492,35.91488139,298.29
-84.36243277,35.91464525,297.38
-84.36243886,35.91446191,279.35
-84.36244463,35.91428683,291.36
-84.36245448,35.91399063,294.72
-84.36245700,35.91391505,269.50
-84.36245983,35.91383012,287.47
-84.36246290,35.91373806,278.61
-84.36246941,35.91354209,262.06
-84.36247621,35.91333735,280.38
-84.36248545,35.91305920,283.37
-84.36249411,35.91279772,283.20
-84.36250349,35.91251603,273.30
-84.36251539,35.91215777,273.09
-84.36252665,35.91181881,296.94
-84.36253874,35.91145444,305.32
-84.36254518,35.91126068,295.72
-84.36254986,35.91111961,308.29
-84.36255560,35.91094677,311.40
-84.36256721,35.91059731,310.99
-84.36257266,35.91043311,312.55
-84.36258317,35.91011718,306.00
-84.36259608,35.90972834,298.66
-84.36260070,35.90958929,297.69
-84.36260280,35.90952599,296.11
-84.36261465,35.90916815,279.12
-84.36262094,35.90897972,261.73
-84.36263149,35.90866200,270.71
-84.36263210,35.90864376,264.28
-84.36263856,35.90844903,259.92
-84.36263937,35.90842235,262.43
-84.36264060,35.90837705,263.62
-84.36263483,35.90837620,262.72
-84.36262208,35.90837578,263.46
-84.36244630,35.90837176,256.98
-84.36205980,35.90836323,257.63
-84.36156550,35.90835238,250.49
-84.36144271,35.90834969,249.52
-84.36092620,35.90833833,248.81
-84.36081337,35.90833582,248.32
-84.36044838,35.90832779,255.61
-84.35993837,35.90831658,258.57
-84.35976376,35.90831274,242.41
-84.35946697,35.90830624,238.07
-84.35911902,35.90829854,247.95
-84.35898026,35.90829549,236.71
-84.35865449,35.90828835,251.40
-84.35839371,35.90828258,261.97
-84.35828917,35.90828028,270.96
-84.35793034,35.90827239,286.73
-84.35747298,35.90826231,289.07
-84.35716478,35.90825552,260.50
-84.35691613,35.90825004,293.99
-84.35691247,35.90824996,291.69
-84.35649670,35.90824081,283.16
-84.35606441,35.90823128,278.36
-84.35595319,35.90822883,269.51
-84.35560661,35.90822119,267.09
-84.35529003,35.90821421,264.37
-84.35507039,35.90820939,264.37
-84.35455138,35.90819793,249.35
-84.35418518,35.90818988,257.28
-84.35394840,35.90818466,251.01
-84.35355123,35.90817590,272.42
-84.35321401,35.90816844,259.44
-84.35292703,35.90816211,287.25
-84.35255251,35.90815385,289.66
-84.35232445,35.90814882,286.16
-84.35212206,35.90814435,289.68
-84.35157413,35.90813228,275.90
-84.35157287,35.90813230,263.22
-84.35157034,35.90813544,276.70
-84.35157001,35.90814043,279.40
-84.35156301,35.90834964,286.15
-84.35155664,35.90854172,297.58
-84.35154370,35.90892885,292.31
-84.35153876,35.90907807,287.55
-84.35152842,35.90938698,269.05
-84.35152607,35.90945745,257.96
-84.35151743,35.90971660,259.39
-84.35151064,35.90992052,256.76
-84.35150042,35.91022680,263.37
-84.35149605,35.91035805,259.25
-84.35148862,35.91058069,278.31
-84.35148182,35.91078495,279.50
-84.35147062,35.91112038,282.38
-84.35145745,35.91151514,289.94
-84.35144645,35.91184477,282.81
-84.35143943,35.91205650,286.21
-84.35142840,35.91238620,290.51
-84.35141456,35.91280104,290.23
-84.35140006,35.91323742,268.90
-84.35139454,35.91340125,266.40
-84.35138363,35.91372811,280.78
-84.35137410,35.91401535,286.55
-84.35136604,35.91425612,261.67
-84.35135610,35.91455390,259.42
-84.35135112,35.91470310,271.09
-84.35134302,35.91494676,286.70
-84.35133135,35.91529608,253.58
-84.35133107,35.91530447,264.97
-84.35132455,35.91550019,279.05
-84.35131228,35.91586751,278.55
-84.35130442,35.91610259,254.25
-84.35129783,35.91630059,255.34
-84.35128967,35.91654694,259.16
-84.35128183,35.91677996,275.76
-84.35127201,35.91707454,271.61
     </coordinates>
    </LineString>
   </MultiGeometry>
  </Placemark>
 </Document>
</kml>
