<kml>
 <Document>
  <Style id="yellow">
   <LineStyle>
   <color>ff00ffff</color>
   <width>1</width>
   </LineStyle>
  </Style>
  <Style id="red">
   <LineStyle>
   <color>ffff0000</color>
   <width>2</width>
   </LineStyle>
  </Style>
  <Style id="green">
   <LineStyle>
   <color>ff00ff00</color>
   <width>1</width>
   </LineStyle>
  </Style>
  <Placemark>
  <styleUrl>#yellow</styleUrl>
   <MultiGeometry>
    <LineString>
     <coordinates>
-104.75107636,40.79375568,1638.88
-104.75107603,40.79384225,1638.99
-104.75107506,40.79410376,1640.44
-104.75107367,40.79447608,1642.97
-104.75107279,40.79471021,1643.02
-104.75107310,40.79472319,1643.01
-104.75108316,40.79472636,1642.94
-104.75119174,40.79472687,1642.82
-104.75129179,40.79472699,1642.72
-104.75131277,40.79472523,1642.68
-104.75132273,40.79472436,1642.68
-104.75132831,40.79472383,1642.68
-104.75133272,40.79468483,1638.40
-104.75646991,40.79473777,1632.15
-104.75648531,40.79473789,1632.13
-104.75654221,40.79473819,1632.12
-104.75662874,40.79473855,1632.16
-104.75715220,40.79473965,1632.36
-104.75747165,40.79474033,1632.37
-104.75759362,40.79474058,1632.40
-104.75773243,40.79474087,1632.47
-104.75782264,40.79474070,1632.39
-104.75782727,40.79473819,1632.38
-104.75891329,40.79474145,1627.76
-104.75892147,40.79474201,1627.71
-104.75895501,40.79474298,1627.53
-104.75903929,40.79474361,1627.18
-104.75929746,40.79474415,1626.24
-104.75952363,40.79474462,1624.53
-104.75997631,40.79474556,1622.71
-104.76017747,40.79474598,1622.44
-104.76021315,40.79474605,1622.43
-104.76035172,40.79474634,1622.41
-104.76043007,40.79474651,1622.45
-104.76061747,40.79474689,1622.38
-104.76073755,40.79474714,1622.35
-104.76096016,40.79474760,1619.37
-104.76128744,40.79474828,1620.99
-104.76174250,40.79474922,1621.66
-104.76209420,40.79474995,1623.20
-104.76217255,40.79475011,1623.38
-104.76254439,40.79475088,1624.09
-104.76259299,40.79475098,1624.12
-104.76261291,40.79475102,1624.14
-104.76263282,40.79475106,1624.20
-104.76270217,40.79475120,1624.29
-104.76271034,40.79475122,1624.33
-104.76273950,40.79475128,1624.36
-104.76279557,40.79475121,1624.37
-104.76284180,40.79475104,1624.40
-104.76285840,40.79475071,1624.40
-104.76284907,40.79474177,1624.39
-104.76269774,40.79459715,1624.36
-104.76266041,40.79456148,1624.35
-104.76259791,40.79450181,1624.29
-104.76225178,40.79417120,1623.36
-104.76222343,40.79414412,1623.23
-104.76218515,40.79410756,1623.14
-104.76217901,40.79410169,1623.09
-104.76215916,40.79408273,1622.98
-104.76215302,40.79407686,1622.90
-104.76210151,40.79402766,1622.41
-104.76204765,40.79397620,1622.64
-104.76203820,40.79396717,1622.70
-104.76172645,40.79366942,1621.75
-104.76137843,40.79333692,1620.82
-104.76132126,40.79328230,1620.68
-104.76117903,40.79314643,1620.35
-104.76113497,40.79310436,1620.39
-104.76111122,40.79308170,1620.42
-104.76110457,40.79308502,1620.41
-104.76104541,40.79312192,1620.40
-104.76102201,40.79313628,1620.35
-104.76094705,40.79318216,1620.25
-104.76088646,40.79321969,1620.22
-104.76084940,40.79324277,1620.15
-104.76082718,40.79325722,1620.11
-104.76074876,40.79330760,1620.06
-104.76064064,40.79337899,1619.94
-104.76060832,40.79340046,1619.91
-104.76041357,40.79353356,1619.65
-104.76031734,40.79359354,1615.71
-104.76010191,40.79377335,1623.14
-104.76003986,40.79382151,1623.40
-104.76001835,40.79383759,1623.40
-104.75997626,40.79387065,1623.54
-104.75995582,40.79388628,1623.60
-104.75992277,40.79391252,1623.74
-104.75990161,40.79392905,1623.78
-104.75989769,40.79393220,1623.80
-104.75983683,40.79398063,1623.95
-104.75982506,40.79398970,1623.95
-104.75977264,40.79403076,1623.95
-104.75973281,40.79406311,1623.93
-104.75966552,40.79411882,1624.20
-104.75965684,40.79412592,1624.24
-104.75963592,40.79414272,1624.27
-104.75960251,40.79416914,1624.40
-104.75959015,40.79417893,1624.45
-104.75957802,40.79418918,1624.52
-104.75954985,40.79421227,1624.63
-104.75950479,40.79424893,1624.81
-104.75945533,40.79429117,1625.19
-104.75943678,40.79430716,1625.31
-104.75943297,40.79431049,1625.38
-104.75940479,40.79433520,1625.63
-104.75938719,40.79435039,1625.73
-104.75934950,40.79438193,1626.01
-104.75927269,40.79444618,1626.42
-104.75923310,40.79447961,1626.70
-104.75919410,40.79451205,1626.81
-104.75917936,40.79452427,1626.92
-104.75916569,40.79453587,1626.97
-104.75914797,40.79455141,1627.14
-104.75909839,40.79459158,1627.33
-104.75909090,40.79459769,1627.34
-104.75908484,40.79460290,1627.36
-104.75904632,40.79463444,1627.48
-104.75903289,40.79464540,1627.54
-104.75901791,40.79465726,1627.55
-104.75899235,40.79467802,1627.61
-104.75895645,40.79470614,1627.72
-104.75893148,40.79472636,1627.71
-104.75891329,40.79474145,1627.76
-104.75782727,40.79473819,1632.38
-104.75782360,40.79473530,1632.36
-104.75780942,40.79472410,1632.37
-104.75780209,40.79471841,1632.38
-104.75779855,40.79471561,1632.36
-104.75779512,40.79471290,1632.39
-104.75779169,40.79471019,1632.38
-104.75778046,40.79470134,1632.41
-104.75777325,40.79469574,1632.42
-104.75776947,40.79469276,1632.44
-104.75776604,40.79469005,1632.44
-104.75776261,40.79468734,1632.43
-104.75775883,40.79468435,1632.46
-104.75774784,40.79467577,1632.45
-104.75774087,40.79467035,1632.42
-104.75772597,40.79465861,1632.37
-104.75771853,40.79465283,1632.39
-104.75771498,40.79465003,1632.41
-104.75771132,40.79464714,1632.38
-104.75770056,40.79463865,1632.40
-104.75769335,40.79463296,1632.38
-104.75768626,40.79462745,1632.38
-104.75767905,40.79462176,1632.37
-104.75766782,40.79461300,1632.37
-104.75766404,40.79461002,1632.39
-104.75766014,40.79460694,1632.34
-104.75765671,40.79460423,1632.36
-104.75765316,40.79460143,1632.37
-104.75764938,40.79459845,1632.35
-104.75764205,40.79459267,1632.33
-104.75763496,40.79458716,1632.31
-104.75762054,40.79457578,1632.36
-104.75761652,40.79457262,1632.33
-104.75761309,40.79456991,1632.34
-104.75760541,40.79456395,1632.36
-104.75759844,40.79455844,1632.33
-104.75759454,40.79455537,1632.34
-104.75759099,40.79455257,1632.32
-104.75758011,40.79454408,1632.34
-104.75757657,40.79454128,1632.34
-104.75757302,40.79453848,1632.34
-104.75756924,40.79453550,1632.33
-104.75756546,40.79453252,1632.33
-104.75756168,40.79452953,1632.35
-104.75755435,40.79452375,1632.36
-104.75754336,40.79451517,1632.33
-104.75753957,40.79451219,1632.33
-104.75753614,40.79450948,1632.34
-104.75753224,40.79450641,1632.34
-104.75752503,40.79450072,1632.34
-104.75752161,40.79449801,1632.36
-104.75751428,40.79449223,1632.36
-104.75750305,40.79448347,1632.33
-104.75749927,40.79448049,1632.36
-104.75749525,40.79447733,1632.32
-104.75748083,40.79446594,1632.35
-104.75746629,40.79445456,1632.34
-104.75745506,40.79444580,1632.33
-104.75745128,40.79444282,1632.35
-104.75744773,40.79444002,1632.37
-104.75744005,40.79443397,1632.37
-104.75743650,40.79443117,1632.37
-104.75743284,40.79442828,1632.35
-104.75742906,40.79442530,1632.39
-104.75742551,40.79442250,1632.37
-104.75741452,40.79441392,1632.38
-104.75741097,40.79441112,1632.36
-104.75740743,40.79440832,1632.36
-104.75740353,40.79440524,1632.35
-104.75739963,40.79440217,1632.35
-104.75738828,40.79439332,1632.35
-104.75738438,40.79439025,1632.35
-104.75738083,40.79438745,1632.36
-104.75737729,40.79438465,1632.37
-104.75737350,40.79438167,1632.38
-104.75736984,40.79437878,1632.35
-104.75736594,40.79437571,1632.35
-104.75736239,40.79437291,1632.35
-104.75735164,40.79436451,1632.35
-104.75734774,40.79436144,1632.34
-104.75733627,40.79435240,1632.30
-104.75733249,40.79434942,1632.35
-104.75732150,40.79434084,1632.38
-104.75731405,40.79433497,1632.37
-104.75730282,40.79432621,1632.33
-104.75729928,40.79432341,1632.34
-104.75729561,40.79432052,1632.34
-104.75729171,40.79431745,1632.32
-104.75728036,40.79430859,1632.34
-104.75727646,40.79430552,1632.33
-104.75727256,40.79430245,1632.34
-104.75726902,40.79429965,1632.36
-104.75726547,40.79429685,1632.37
-104.75726157,40.79429378,1632.33
-104.75725802,40.79429098,1632.36
-104.75725412,40.79428791,1632.37
-104.75724301,40.79427924,1632.31
-104.75723947,40.79427644,1632.32
-104.75723557,40.79427337,1632.33
-104.75723167,40.79427030,1632.30
-104.75722020,40.79426135,1632.30
-104.75721630,40.79425828,1632.32
-104.75721275,40.79425548,1632.31
-104.75720909,40.79425259,1632.31
-104.75720519,40.79424952,1632.31
-104.75719763,40.79424356,1632.30
-104.75719396,40.79424067,1632.30
-104.75718321,40.79423218,1632.31
-104.75717127,40.79422287,1632.27
-104.75716772,40.79422007,1632.28
-104.75716382,40.79421700,1632.29
-104.75715099,40.79422634,1632.27
-104.75711889,40.79425096,1632.38
-104.75707313,40.79428501,1632.23
-104.75703260,40.79431519,1632.11
-104.75697947,40.79435499,1632.10
-104.75696782,40.79436406,1632.10
-104.75690031,40.79441491,1632.13
-104.75688818,40.79442407,1632.15
-104.75684123,40.79445892,1632.00
-104.75682507,40.79447069,1631.99
-104.75676778,40.79451381,1631.91
-104.75672832,40.79454255,1631.87
-104.75671703,40.79455082,1631.88
-104.75664844,40.79460175,1631.85
-104.75662241,40.79462134,1631.89
-104.75658164,40.79465215,1631.97
-104.75655145,40.79467506,1631.96
-104.75652601,40.79469419,1632.00
-104.75649309,40.79471998,1632.07
-104.75647430,40.79473435,1632.10
-104.75646991,40.79473777,1632.15
-104.75133272,40.79468483,1638.40
-104.75132521,40.79460148,1642.77
-104.75132269,40.79454608,1642.71
-104.75132156,40.79449977,1642.60
-104.75132041,40.79445806,1642.43
-104.75132001,40.79440725,1642.15
-104.75132002,40.79437031,1641.80
-104.75132051,40.79433590,1641.56
-104.75131905,40.79425077,1640.78
-104.75132112,40.79417231,1640.13
-104.75132109,40.79414943,1639.98
-104.75132129,40.79412654,1639.78
-104.75132117,40.79400033,1639.06
-104.75132109,40.79399079,1639.01
-104.75132104,40.79397187,1638.98
-104.75131994,40.79388529,1638.82
-104.75131823,40.79383367,1638.86
-104.75131764,40.79380169,1638.89
-104.75131754,40.79376583,1638.90
-104.75131761,40.79371422,1638.92
-104.75131766,40.79370061,1638.89
-104.75131762,40.79364800,1638.87
-104.75131780,40.79363251,1638.88
-104.75131795,40.79359332,1638.89
-104.75131814,40.79354071,1639.03
-104.75131853,40.79350044,1639.14
-104.75131869,40.79345693,1639.34
-104.75131937,40.79340324,1639.58
-104.75131954,40.79338910,1639.63
-104.75132024,40.79335937,1639.73
-104.75132242,40.79328461,1639.96
-104.75132263,40.79325974,1640.04
-104.75132271,40.79323858,1640.13
-104.75132490,40.79315894,1640.39
-104.75132649,40.79311363,1640.52
-104.75132710,40.79307697,1640.61
-104.75132738,40.79306553,1640.69
-104.75132786,40.79303409,1640.75
-104.75132893,40.79300031,1640.80
-104.75132961,40.79297761,1640.84
-104.75133170,40.79292627,1640.74
-104.75133554,40.79284952,1640.42
-104.75133892,40.79280197,1640.06
-104.75134156,40.79275981,1639.75
-104.75134435,40.79271036,1639.44
-104.75134691,40.79266091,1639.12
-104.75134975,40.79259822,1638.75
-104.75135029,40.79258047,1638.64
-104.75135374,40.79251354,1638.37
-104.75135596,40.79245815,1638.29
-104.75135786,40.79239428,1638.25
-104.75135882,40.79235933,1638.22
-104.75136114,40.79227681,1638.21
-104.75136243,40.79225069,1638.23
-104.75136383,40.79222511,1638.22
-104.75136592,40.79217269,1638.21
-104.75136656,40.79215935,1638.23
-104.75136859,40.79212369,1638.23
-104.75136999,40.79209756,1638.24
-104.75137205,40.79205415,1638.23
-104.75137573,40.79198866,1638.27
-104.75137727,40.79195669,1638.25
-104.75137931,40.79191885,1638.31
-104.75138073,40.79188760,1638.29
-104.75138203,40.79185742,1638.31
-104.75138371,40.79181896,1638.37
-104.75138507,40.79177185,1638.45
-104.75138706,40.79171672,1638.56
-104.75138948,40.79167159,1638.70
-104.75139119,40.79162628,1638.78
-104.75139179,40.79159331,1638.85
-104.75139351,40.79154458,1638.92
-104.75139492,40.79151603,1638.95
-104.75139569,40.79149990,1638.95
-104.75139748,40.79146333,1638.90
-104.75139900,40.79143883,1638.83
-104.75140041,40.79141136,1638.77
-104.75140432,40.79134650,1638.53
-104.75140573,40.79131867,1638.41
-104.75140852,40.79126994,1638.27
-104.75141006,40.79123751,1638.12
-104.75141421,40.79117302,1637.84
-104.75141442,40.79114834,1637.74
-104.75140364,40.79114886,1637.81
-104.75136629,40.79115094,1637.91
-104.75111128,40.79116516,1638.48
-104.75110049,40.79116577,1638.51
-104.75108994,40.79116638,1638.52
-104.75108874,40.79117124,1638.56
-104.75108691,40.79118277,1638.59
-104.75108613,40.79123528,1638.63
-104.75108574,40.79130816,1638.66
-104.75108487,40.79147653,1638.55
-104.75108407,40.79175444,1638.33
-104.75108317,40.79196416,1638.22
-104.75108301,40.79200704,1638.24
-104.75108275,40.79207722,1638.20
-104.75108118,40.79246485,1638.27
-104.75107975,40.79284780,1639.72
-104.75107907,40.79303076,1639.93
-104.75107822,40.79325643,1639.41
-104.75107752,40.79344569,1638.91
-104.75107749,40.79345254,1638.91
-104.75107636,40.79375568,1638.88
     </coordinates>
    </LineString>
   </MultiGeometry>
  </Placemark>
 </Document>
</kml>
