<kml>
 <Document>
  <Style id="yellow">
   <LineStyle>
   <color>ff00ffff</color>
   <width>1</width>
   </LineStyle>
  </Style>
  <Style id="red">
   <LineStyle>
   <color>ffff0000</color>
   <width>2</width>
   </LineStyle>
  </Style>
  <Style id="green">
   <LineStyle>
   <color>ff00ff00</color>
   <width>1</width>
   </LineStyle>
  </Style>
  <Placemark>
  <styleUrl>#yellow</styleUrl>
   <MultiGeometry>
    <LineString>
     <coordinates>
-104.77460592,40.84619609,1680.37
-104.77460449,40.84662075,1680.64
-104.77460433,40.84666687,1680.70
-104.77460403,40.84675434,1680.93
-104.77460287,40.84709612,1681.32
-104.77460256,40.84718765,1681.36
-104.77460194,40.84737313,1681.70
-104.77460180,40.84744844,1681.83
-104.77460026,40.84786796,1683.50
-104.77459954,40.84811606,1683.97
-104.77459828,40.84845297,1685.79
-104.77459752,40.84867575,1687.28
-104.77459736,40.84875917,1688.00
-104.77459802,40.84880880,1688.45
-104.77459845,40.84882295,1688.56
-104.77460319,40.84882359,1688.53
-104.77461825,40.84882542,1688.49
-104.77462288,40.84882597,1688.47
-104.77468800,40.84882628,1688.37
-104.77508815,40.84882697,1687.09
-104.77543657,40.84882773,1686.17
-104.77601514,40.84882886,1685.97
-104.77607256,40.84882897,1686.05
-104.77629678,40.84882941,1686.24
-104.77639987,40.84882916,1686.37
-104.77645278,40.84882854,1686.46
-104.77645494,40.84882287,1686.44
-104.77645463,40.84877233,1686.35
-104.77645444,40.84876026,1686.32
-104.77645293,40.84871359,1686.16
-104.77644322,40.84831990,1685.55
-104.77644390,40.84822531,1685.25
-104.77644436,40.84815793,1685.00
-104.77644228,40.84806973,1684.81
-104.77644066,40.84802325,1684.74
-104.77643786,40.84797261,1684.62
-104.77643675,40.84795153,1684.57
-104.77643585,40.84793559,1684.53
-104.77643305,40.84788594,1684.48
-104.77642587,40.84765955,1683.94
-104.77643581,40.84731310,1683.45
-104.77644868,40.84711944,1683.15
-104.77645392,40.84704378,1683.00
-104.77646303,40.84690849,1682.63
-104.77646764,40.84684427,1682.47
-104.77647478,40.84669655,1682.05
-104.77647786,40.84659178,1681.74
-104.77647838,40.84654296,1681.67
-104.77647842,40.84638927,1681.42
-104.77647701,40.84631549,1681.41
-104.77647587,40.84626621,1681.39
-104.77647455,40.84623495,1681.34
-104.77647265,40.84619900,1681.36
-104.77646998,40.84614819,1681.37
-104.77646751,40.84610540,1681.33
-104.77646212,40.84605016,1681.22
-104.77645612,40.84599970,1681.14
-104.77645067,40.84596285,1681.11
-104.77644881,40.84595204,1681.08
-104.77643643,40.84589355,1680.98
-104.77638487,40.84556347,1680.72
-104.77637938,40.84536221,1680.49
-104.77638163,40.84525681,1680.47
-104.77638229,40.84523744,1680.45
-104.77638463,40.84517646,1680.43
-104.77638794,40.84510945,1680.41
-104.77638971,40.84507495,1680.46
-104.77639239,40.84502009,1680.50
-104.77639428,40.84498622,1680.39
-104.77639594,40.84495190,1680.33
-104.77639909,40.84489714,1680.28
-104.77640242,40.84482291,1680.32
-104.77640552,40.84474815,1680.26
-104.77640997,40.84466096,1680.21
-104.77641112,40.84463492,1680.19
-104.77641307,40.84458349,1680.20
-104.77641820,40.84439928,1680.13
-104.77641962,40.84432982,1680.01
-104.77641867,40.84418884,1679.86
-104.77641770,40.84408947,1679.93
-104.77641586,40.84386129,1680.00
-104.77641661,40.84363797,1679.41
-104.77641614,40.84356635,1679.31
-104.77641451,40.84348590,1679.17
-104.77641244,40.84339545,1679.10
-104.77640682,40.84294835,1679.14
-104.77640596,40.84288709,1679.23
-104.77640089,40.84266682,1679.94
-104.77639620,40.84247547,1680.47
-104.77639441,40.84240809,1680.66
-104.77639290,40.84236043,1680.78
-104.77639269,40.84235394,1680.77
-104.77638553,40.84215529,1681.09
-104.77637375,40.84191754,1681.15
-104.77637116,40.84187618,1681.19
-104.77636723,40.84181122,1681.17
-104.77636375,40.84175374,1681.17
-104.77636204,40.84173077,1681.17
-104.77634568,40.84148327,1679.82
-104.77634122,40.84143137,1679.27
-104.77633483,40.84135875,1678.69
-104.77633044,40.84132154,1678.41
-104.77632558,40.84128532,1678.11
-104.77631224,40.84119647,1677.27
-104.77629931,40.84112753,1676.90
-104.77627188,40.84071011,1672.28
-104.77627639,40.84064112,1671.51
-104.77628018,40.84057068,1670.87
-104.77628370,40.84051276,1670.51
-104.77628724,40.84044664,1670.38
-104.77629297,40.84036513,1669.77
-104.77632699,40.83998531,1667.56
-104.77633419,40.83992613,1666.88
-104.77634129,40.83985913,1666.23
-104.77634330,40.83982616,1665.99
-104.77631745,40.83982241,1666.08
-104.77631176,40.83982159,1666.23
-104.77601771,40.83982057,1668.19
-104.77566720,40.83981980,1670.90
-104.77536627,40.83981940,1671.76
-104.77486939,40.83981825,1672.70
-104.77467984,40.83981797,1673.90
-104.77462954,40.83981949,1674.10
-104.77462773,40.83986390,1674.49
-104.77462705,40.83996002,1675.44
-104.77462609,40.84024360,1677.40
-104.77462512,40.84056376,1679.53
-104.77462415,40.84081753,1679.92
-104.77462287,40.84119480,1680.11
-104.77462183,40.84149992,1679.10
-104.77462126,40.84166936,1678.38
-104.77461979,40.84210447,1677.59
-104.77461937,40.84222744,1677.58
-104.77461931,40.84224419,1677.57
-104.77461925,40.84226257,1677.57
-104.77461912,40.84230239,1677.58
-104.77461835,40.84256291,1677.63
-104.77461729,40.84284145,1677.87
-104.77461632,40.84312675,1678.19
-104.77461577,40.84328899,1678.51
-104.77461559,40.84334412,1678.63
-104.77461545,40.84338313,1678.60
-104.77461415,40.84376760,1678.71
-104.77461363,40.84392255,1678.76
-104.77461340,40.84399038,1678.81
-104.77461264,40.84421370,1678.91
-104.77461225,40.84432928,1679.09
-104.77461211,40.84437117,1679.17
-104.77461097,40.84470556,1679.64
-104.77461025,40.84495482,1679.91
-104.77460914,40.84524697,1680.05
-104.77460831,40.84549227,1680.09
-104.77460819,40.84552704,1680.14
-104.77460725,40.84580423,1680.18
-104.77460668,40.84597313,1680.22
-104.77460643,40.84604799,1680.25
-104.77460592,40.84619609,1680.37
     </coordinates>
    </LineString>
   </MultiGeometry>
  </Placemark>
 </Document>
</kml>
