<kml>
 <Document>
  <Style id="yellow">
   <LineStyle>
   <color>ff00ffff</color>
   <width>1</width>
   </LineStyle>
  </Style>
  <Style id="red">
   <LineStyle>
   <color>ffff0000</color>
   <width>2</width>
   </LineStyle>
  </Style>
  <Style id="green">
   <LineStyle>
   <color>ff00ff00</color>
   <width>1</width>
   </LineStyle>
  </Style>
  <Placemark>
  <styleUrl>#yellow</styleUrl>
   <MultiGeometry>
    <LineString>
     <coordinates>
-104.71555135,40.81829081,1623.97
-104.71555214,40.81829892,1624.06
-104.71555294,40.81830667,1624.14
-104.71558851,40.81830847,1624.01
-104.71564756,40.81830880,1624.03
-104.71566771,40.81830894,1624.04
-104.71572190,40.81830943,1624.05
-104.71581320,40.81831065,1624.07
-104.71581973,40.81831075,1624.06
-104.71590794,40.81831151,1624.09
-104.71598668,40.81831206,1624.11
-104.71604561,40.81831239,1624.23
-104.71611877,40.81831248,1624.14
-104.71619514,40.81831177,1624.27
-104.71627862,40.81831089,1624.25
-104.71636495,40.81831056,1624.12
-104.71649848,40.81830909,1624.20
-104.71652468,40.81830888,1624.17
-104.71656891,40.81830845,1624.16
-104.71660485,40.81830809,1624.18
-104.71664718,40.81830783,1624.19
-104.71666473,40.81830779,1624.17
-104.71678296,40.81830726,1624.18
-104.71685517,40.81830717,1624.24
-104.71700528,40.81830889,1624.24
-104.71710962,40.81831158,1624.27
-104.71715883,40.81831269,1624.42
-104.71720720,40.81831398,1624.48
-104.71727324,40.81831549,1624.71
-104.71732743,40.81831644,1624.85
-104.71739869,40.81831751,1625.06
-104.71758283,40.81831995,1625.52
-104.71764829,40.81832002,1625.72
-104.71772536,40.81832066,1626.03
-104.71774979,40.81832071,1626.11
-104.71786753,40.81832127,1626.61
-104.71790714,40.81832128,1626.78
-104.71804138,40.81832008,1627.34
-104.71805691,40.81831993,1627.42
-104.71813304,40.81831895,1627.73
-104.71819530,40.81831874,1627.92
-104.71831744,40.81831769,1628.32
-104.71844041,40.81831655,1628.66
-104.71853124,40.81831551,1629.00
-104.71858117,40.81831482,1629.21
-104.71863797,40.81831424,1629.37
-104.71871232,40.81831379,1629.59
-104.71873675,40.81831376,1629.60
-104.71876853,40.81831347,1629.70
-104.71883411,40.81831264,1629.85
-104.71889031,40.81831197,1630.10
-104.71890751,40.81831165,1630.25
-104.71903713,40.81830944,1630.83
-104.71910958,40.81830845,1631.23
-104.71922959,40.81830649,1631.66
-104.71964729,40.81831949,1628.15
-104.71997059,40.81830613,1633.47
-104.72013470,40.81830734,1633.74
-104.72017051,40.81830787,1633.76
-104.72030651,40.81830991,1633.84
-104.72033461,40.81831061,1633.83
-104.72035773,40.81831103,1633.81
-104.72044452,40.81831358,1633.72
-104.72055455,40.81831709,1633.68
-104.72062888,40.81831997,1633.67
-104.72067156,40.81832125,1633.76
-104.72069326,40.81832202,1633.77
-104.72080696,40.81832599,1633.73
-104.72083648,40.81832669,1633.72
-104.72090940,40.81832903,1633.74
-104.72100627,40.81833152,1633.74
-104.72103223,40.81833239,1633.76
-104.72106567,40.81833301,1633.79
-104.72112626,40.81833388,1633.80
-104.72120902,40.81833597,1633.82
-104.72122349,40.81833646,1633.83
-104.72125099,40.81833697,1633.83
-104.72131419,40.81833857,1633.89
-104.72136185,40.81833958,1633.83
-104.72139707,40.81834039,1633.82
-104.72144556,40.81834195,1633.82
-104.72152856,40.81834404,1633.78
-104.72164511,40.81834603,1633.89
-104.72171056,40.81834754,1633.89
-104.72172467,40.81834794,1633.91
-104.72178680,40.81834971,1633.88
-104.72182841,40.81835098,1633.88
-104.72194045,40.81835530,1633.89
-104.72198728,40.81835704,1633.91
-104.72204324,40.81835969,1633.94
-104.72207454,40.81836094,1633.96
-104.72211319,40.81836248,1633.96
-104.72214793,40.81836409,1633.96
-104.72216180,40.81836484,1633.96
-104.72219559,40.81836682,1634.02
-104.72228829,40.81837191,1634.06
-104.72232492,40.81837407,1634.02
-104.72236665,40.81837669,1634.03
-104.72242806,40.81838017,1634.04
-104.72245272,40.81838086,1634.08
-104.72256025,40.81838652,1634.06
-104.72263815,40.81838914,1634.14
-104.72270715,40.81839183,1634.26
-104.72274758,40.81839274,1634.29
-104.72279038,40.81839392,1634.28
-104.72282026,40.81839517,1634.30
-104.72289317,40.81839804,1634.40
-104.72296182,40.81839992,1634.51
-104.72306142,40.81840277,1634.60
-104.72307387,40.81840298,1634.64
-104.72316161,40.81840454,1634.83
-104.72321602,40.81840729,1634.76
-104.72327886,40.81840915,1634.86
-104.72337716,40.81841110,1635.10
-104.72342126,40.81841237,1635.20
-104.72348517,40.81841397,1635.31
-104.72351102,40.81841493,1635.31
-104.72353686,40.81841562,1635.35
-104.72361975,40.81841663,1635.54
-104.72365342,40.81841752,1635.60
-104.72366694,40.81841801,1635.62
-104.72369919,40.81841862,1635.72
-104.72371970,40.81841921,1635.75
-104.72373831,40.81841962,1635.80
-104.72380412,40.81842068,1635.93
-104.72384491,40.81842086,1636.03
-104.72385795,40.81842108,1636.10
-104.72387859,40.81842122,1636.15
-104.72393207,40.81842098,1636.31
-104.72400463,40.81842296,1636.42
-104.72402419,40.81842328,1636.44
-104.72404376,40.81842350,1636.51
-104.72407032,40.81842393,1636.54
-104.72414241,40.81842464,1636.75
-104.72421415,40.81842535,1636.98
-104.72423964,40.81842541,1636.98
-104.72428600,40.81842606,1637.11
-104.72431079,40.81842594,1637.17
-104.72432988,40.81842608,1637.24
-104.72434920,40.81842612,1637.30
-104.72437908,40.81842665,1637.36
-104.72443291,40.81842777,1637.43
-104.72445675,40.81842827,1637.54
-104.72447904,40.81842860,1637.59
-104.72450275,40.81842901,1637.67
-104.72452528,40.81842943,1637.70
-104.72454746,40.81842921,1637.81
-104.72462915,40.81843067,1638.30
-104.72464077,40.81843087,1638.33
-104.72466792,40.81843166,1638.26
-104.72471499,40.81843303,1638.34
-104.72473693,40.81843309,1638.40
-104.72477547,40.81843327,1638.64
-104.72479645,40.81843350,1638.75
-104.72481851,40.81843391,1638.79
-104.72487186,40.81843584,1638.88
-104.72490838,40.81843584,1638.95
-104.72497988,40.81843745,1639.26
-104.72500762,40.81843833,1639.33
-104.72507924,40.81843949,1639.49
-104.72511232,40.81844038,1639.57
-104.72514493,40.81844063,1639.72
-104.72520587,40.81844123,1639.89
-104.72521572,40.81844152,1639.89
-104.72528853,40.81844080,1640.12
-104.72531615,40.81844158,1640.16
-104.72533287,40.81844207,1640.22
-104.72539891,40.81844457,1640.41
-104.72541124,40.81844541,1640.42
-104.72541586,40.81844569,1640.44
-104.72545606,40.81844633,1640.55
-104.72546104,40.81844634,1640.57
-104.72549044,40.81844623,1640.63
-104.72551345,40.81844674,1640.71
-104.72555447,40.81844702,1640.88
-104.72558376,40.81844699,1641.04
-104.72563096,40.81844720,1641.25
-104.72564756,40.81844679,1641.31
-104.72568384,40.81844696,1641.51
-104.72572060,40.81844678,1641.68
-104.72574017,40.81844665,1641.78
-104.72579045,40.81844586,1642.00
-104.72582911,40.81844587,1642.20
-104.72584250,40.81844626,1642.22
-104.72589717,40.81844531,1642.57
-104.72590346,40.81844541,1642.58
-104.72594461,40.81844443,1642.71
-104.72598066,40.81844433,1642.88
-104.72603058,40.81844283,1643.01
-104.72606711,40.81844256,1643.25
-104.72607244,40.81844257,1643.30
-104.72609522,40.81844109,1643.42
-104.72610897,40.81844068,1643.46
-104.72614597,40.81844112,1643.63
-104.72617479,40.81843984,1643.67
-104.72618202,40.81843959,1643.71
-104.72619697,40.81843908,1643.78
-104.72621084,40.81843812,1643.83
-104.72626942,40.81843808,1644.17
-104.72627512,40.81843774,1644.21
-104.72628294,40.81843721,1644.25
-104.72655250,40.81883612,1646.02
-104.72652870,40.81885471,1645.99
-104.72650896,40.81886917,1645.96
-104.72649088,40.81888273,1645.95
-104.72648553,40.81888713,1645.93
-104.72647731,40.81889414,1645.92
-104.72643591,40.81892692,1645.89
-104.72642604,40.81893446,1645.87
-104.72642259,40.81893707,1645.89
-104.72640749,40.81894784,1645.88
-104.72637989,40.81896940,1645.82
-104.72637561,40.81897281,1645.76
-104.72633896,40.81900173,1645.69
-104.72630590,40.81902670,1645.58
-104.72627770,40.81904852,1645.49
-104.72625522,40.81906603,1645.35
-104.72622608,40.81908794,1645.23
-104.72620728,40.81910240,1645.10
-104.72618004,40.81912468,1645.00
-104.72615553,40.81914255,1644.86
-104.72614578,40.81914937,1644.81
-104.72612235,40.81916733,1644.63
-104.72609773,40.81918610,1644.47
-104.72607263,40.81920514,1644.29
-104.72604610,40.81922472,1644.12
-104.72602006,40.81924384,1643.95
-104.72599781,40.81926118,1643.80
-104.72597628,40.81927698,1643.68
-104.72594108,40.81930275,1643.45
-104.72591777,40.81931936,1643.30
-104.72589980,40.81933310,1643.22
-104.72585841,40.81936399,1642.96
-104.72583950,40.81937782,1642.87
-104.72580941,40.81939991,1642.51
-104.72579002,40.81941365,1642.49
-104.72577777,40.81942200,1642.35
-104.72577052,40.81942684,1642.36
-104.72573959,40.81944992,1642.11
-104.72569000,40.81948620,1641.79
-104.72567073,40.81949903,1641.63
-104.72561578,40.81954043,1641.39
-104.72560412,40.81954896,1641.31
-104.72557831,40.81956764,1641.14
-104.72552372,40.81960787,1640.82
-104.72549208,40.81963049,1640.65
-104.72548007,40.81963965,1640.59
-104.72541834,40.81968446,1640.12
-104.72540026,40.81969739,1639.96
-104.72536398,40.81972433,1639.70
-104.72534472,40.81973852,1639.57
-104.72532069,40.81975593,1639.40
-104.72530249,40.81976886,1639.29
-104.72528418,40.81978224,1639.14
-104.72524207,40.81981322,1638.75
-104.72519747,40.81984456,1638.43
-104.72518058,40.81985758,1638.31
-104.72514431,40.81988407,1637.98
-104.72510744,40.81991001,1637.73
-104.72506045,40.81994476,1637.37
-104.72501954,40.81997557,1637.23
-104.72500264,40.81998832,1637.11
-104.72498504,40.82000134,1637.02
-104.72494996,40.82002648,1636.87
-104.72492069,40.82004830,1636.68
-104.72487966,40.82007811,1636.49
-104.72485682,40.82009616,1636.41
-104.72482232,40.82012284,1636.26
-104.72481054,40.82013155,1636.26
-104.72478747,40.82014825,1636.19
-104.72474013,40.82018228,1636.09
-104.72469529,40.82021649,1635.98
-104.72466710,40.82023723,1635.91
-104.72462380,40.82026992,1635.86
-104.72456634,40.82031356,1635.78
-104.72454564,40.82032919,1635.81
-104.72452601,40.82034464,1635.83
-104.72451091,40.82035622,1635.80
-104.72447522,40.82038271,1635.76
-104.72442859,40.82041918,1635.82
-104.72437458,40.82046049,1635.80
-104.72436209,40.82046992,1635.78
-104.72433151,40.82049398,1635.84
-104.72430332,40.82051626,1635.87
-104.72425776,40.82055038,1635.85
-104.72421766,40.82058236,1635.88
-104.72417448,40.82061567,1635.96
-104.72410607,40.82067046,1636.41
-104.72408644,40.82068645,1636.52
-104.72402861,40.82073235,1636.93
-104.72398697,40.82076549,1637.21
-104.72395366,40.82079234,1637.46
-104.72391000,40.82082656,1637.64
-104.72384064,40.82088108,1637.87
-104.72381910,40.82089823,1637.98
-104.72378900,40.82092167,1638.01
-104.72373130,40.82096631,1638.12
-104.72369181,40.82099675,1638.10
-104.72365124,40.82102764,1638.01
-104.72357808,40.82108332,1637.93
-104.72354727,40.82110739,1637.84
-104.72351408,40.82113235,1637.72
-104.72348196,40.82115714,1637.68
-104.72344925,40.82118156,1637.60
-104.72343069,40.82119566,1637.47
-104.72340690,40.82121335,1637.42
-104.72337930,40.82123419,1637.32
-104.72335634,40.82125170,1637.21
-104.72328212,40.82130737,1636.91
-104.72323180,40.82134500,1636.50
-104.72320813,40.82136260,1636.34
-104.72316138,40.82139681,1636.03
-104.72308906,40.82145042,1635.43
-104.72303184,40.82149262,1635.01
-104.72297903,40.82153204,1634.49
-104.72294394,40.82155745,1634.14
-104.72291230,40.82158089,1633.89
-104.72288197,40.82160279,1633.64
-104.72285211,40.82162497,1633.46
-104.72281250,40.82165433,1633.19
-104.72276884,40.82168774,1632.95
-104.72316088,40.82168868,1634.27
-104.72339544,40.82168924,1634.97
-104.72379696,40.82169012,1635.65
-104.72433011,40.82169148,1635.58
-104.72455945,40.82169203,1635.69
-104.72474373,40.82169247,1635.78
-104.72482864,40.82169267,1635.83
-104.72504339,40.82169318,1635.99
-104.72525471,40.82169369,1636.19
-104.72532965,40.82169387,1636.18
-104.72533440,40.82169388,1636.15
-104.72542405,40.82169409,1636.19
-104.72550077,40.82169427,1636.29
-104.72555164,40.82169439,1636.42
-104.72593479,40.82169521,1637.01
-104.72631129,40.82169620,1637.31
-104.72639181,40.82169639,1637.40
-104.72649782,40.82169664,1637.57
-104.72660597,40.82169690,1637.77
-104.72663858,40.82169697,1637.83
-104.72666170,40.82169703,1637.90
-104.72667902,40.82169707,1637.98
-104.72671032,40.82169715,1638.05
-104.72688630,40.82169756,1638.62
-104.72698816,40.82169780,1638.91
-104.72701591,40.82169787,1639.00
-104.72712453,40.82169803,1639.44
-104.72723280,40.82169802,1639.79
-104.72724858,40.82169752,1639.92
-104.72725487,40.82169528,1639.91
-104.72725492,40.82168393,1639.94
-104.72725519,40.82161691,1640.06
-104.72725541,40.82156268,1640.11
-104.72725586,40.82145431,1640.43
-104.72725588,40.82144845,1640.41
-104.72725625,40.82135773,1640.53
-104.72725646,40.82130738,1640.50
-104.72725792,40.82095146,1641.81
-104.72725804,40.82092236,1641.91
-104.72725835,40.82084669,1642.00
-104.72725863,40.82077669,1642.14
-104.72726012,40.82041374,1643.25
-104.72726111,40.82017223,1643.96
-104.72726155,40.82006521,1644.38
-104.72726268,40.81978865,1645.54
-104.72726302,40.81970487,1645.98
-104.72726333,40.81963010,1646.33
-104.72726352,40.81958416,1646.56
-104.72726401,40.81946444,1647.06
-104.72726544,40.81911455,1648.22
-104.72726705,40.81869367,1648.08
-104.72726751,40.81860981,1647.94
-104.72726852,40.81836226,1647.57
-104.72726876,40.81830487,1647.63
-104.72727008,40.81795336,1647.81
-104.72727130,40.81768293,1647.14
-104.72727145,40.81764654,1647.02
-104.72727175,40.81757465,1646.72
-104.72727237,40.81739367,1645.90
-104.72727369,40.81709945,1643.98
-104.72727511,40.81675290,1641.76
-104.72727587,40.81656805,1640.72
-104.72727667,40.81637401,1639.64
-104.72727698,40.81629644,1639.24
-104.72727713,40.81625933,1639.09
-104.72727731,40.81621771,1638.89
-104.72727768,40.81612636,1638.70
-104.72727856,40.81591133,1638.51
-104.72727861,40.81589899,1638.51
-104.72727874,40.81586791,1638.50
-104.72727877,40.81586080,1638.52
-104.72727924,40.81574576,1638.62
-104.72727974,40.81562324,1638.95
-104.72728023,40.81550388,1639.52
-104.72728038,40.81546677,1639.65
-104.72728051,40.81543560,1639.70
-104.72728104,40.81530669,1640.35
-104.72728117,40.81527282,1640.50
-104.72728176,40.81513012,1641.05
-104.72728193,40.81508950,1641.17
-104.72728205,40.81505995,1641.37
-104.72728213,40.81503968,1641.43
-104.72728259,40.81492635,1642.00
-104.72728286,40.81486050,1642.35
-104.72728299,40.81483059,1642.50
-104.72728300,40.81482816,1642.47
-104.72728345,40.81471601,1642.99
-104.72728354,40.81469448,1643.06
-104.72728371,40.81465367,1643.23
-104.72728373,40.81464889,1643.25
-104.72728445,40.81447359,1643.96
-104.72728463,40.81443017,1644.13
-104.72728467,40.81441855,1644.20
-104.72728494,40.81435360,1644.42
-104.72728495,40.81435071,1644.39
-104.72728568,40.81417172,1644.96
-104.72728589,40.81412172,1645.17
-104.72728634,40.81401110,1645.46
-104.72728641,40.81399470,1645.51
-104.72728653,40.81396515,1645.60
-104.72728659,40.81395119,1645.66
-104.72728661,40.81394542,1645.65
-104.72728682,40.81389543,1645.73
-104.72728694,40.81386579,1645.79
-104.72728696,40.81385993,1645.80
-104.72728730,40.81377814,1645.95
-104.72728748,40.81373400,1646.04
-104.72728785,40.81364364,1646.18
-104.72728832,40.81352833,1646.32
-104.72728844,40.81349951,1646.33
-104.72728859,40.81346302,1646.35
-104.72728882,40.81340654,1646.30
-104.72728893,40.81337789,1646.30
-104.72728900,40.81336294,1646.32
-104.72728915,40.81332528,1646.38
-104.72728930,40.81328952,1646.31
-104.72728966,40.81319980,1646.21
-104.72728981,40.81316520,1646.16
-104.72728994,40.81313169,1646.15
-104.72728997,40.81312404,1646.10
-104.72728999,40.81311899,1646.09
-104.72729017,40.81307539,1645.99
-104.72729053,40.81298747,1645.79
-104.72729075,40.81293333,1645.64
-104.72729083,40.81291567,1645.60
-104.72729091,40.81289522,1645.57
-104.72729106,40.81285784,1645.45
-104.72729114,40.81283865,1645.39
-104.72729120,40.81282541,1645.34
-104.72729143,40.81276730,1645.17
-104.72729147,40.81275748,1645.17
-104.72729163,40.81271974,1645.02
-104.72729166,40.81271298,1645.00
-104.72729151,40.81269046,1644.91
-104.72728962,40.81269019,1644.91
-104.72726353,40.81269003,1644.86
-104.72722251,40.81268994,1644.75
-104.72721670,40.81268992,1644.73
-104.72714188,40.81268975,1644.51
-104.72704513,40.81268952,1644.14
-104.72703256,40.81268949,1644.09
-104.72697411,40.81268935,1643.91
-104.72697138,40.81268934,1643.88
-104.72697067,40.81268934,1643.91
-104.72694186,40.81268927,1643.74
-104.72693024,40.81268925,1643.72
-104.72678393,40.81268890,1643.18
-104.72669998,40.81268870,1642.82
-104.72664449,40.81268857,1642.55
-104.72663417,40.81268854,1642.49
-104.72662825,40.81268853,1642.44
-104.72657821,40.81268841,1642.23
-104.72655307,40.81268835,1642.08
-104.72645929,40.81268813,1641.54
-104.72644032,40.81268808,1641.40
-104.72643664,40.81268808,1641.35
-104.72643202,40.81268806,1641.35
-104.72638530,40.81268795,1641.11
-104.72624041,40.81268761,1640.39
-104.72616192,40.81268742,1640.04
-104.72611153,40.81268730,1639.84
-104.72611129,40.81268730,1639.73
-104.72604976,40.81268716,1639.41
-104.72604146,40.81268714,1639.31
-104.72603600,40.81268713,1639.31
-104.72601478,40.81268707,1639.20
-104.72600660,40.81268706,1639.16
-104.72597826,40.81268699,1639.02
-104.72592668,40.81268687,1638.72
-104.72591483,40.81268684,1638.66
-104.72590664,40.81268682,1638.60
-104.72585827,40.81268670,1638.32
-104.72581926,40.81268661,1638.11
-104.72581796,40.81268661,1638.10
-104.72579353,40.81268655,1637.96
-104.72578843,40.81268654,1637.93
-104.72566548,40.81268624,1637.34
-104.72564769,40.81268620,1637.26
-104.72564212,40.81268619,1637.25
-104.72558438,40.81268605,1636.96
-104.72558023,40.81268604,1636.92
-104.72556647,40.81268601,1636.88
-104.72554739,40.81268596,1636.76
-104.72554596,40.81268596,1636.74
-104.72553980,40.81268595,1636.70
-104.72549960,40.81268585,1636.54
-104.72545751,40.81268575,1636.39
-104.72545135,40.81268574,1636.33
-104.72538673,40.81268558,1636.05
-104.72538435,40.81268558,1636.03
-104.72538020,40.81268557,1636.04
-104.72534961,40.81268549,1635.85
-104.72532792,40.81268544,1635.73
-104.72532721,40.81268544,1635.73
-104.72527219,40.81268531,1635.52
-104.72514414,40.81268500,1635.07
-104.72514129,40.81268500,1635.07
-104.72511615,40.81268494,1634.94
-104.72507039,40.81268483,1634.90
-104.72495775,40.81268456,1634.43
-104.72488329,40.81268438,1634.16
-104.72458023,40.81268366,1633.01
-104.72457727,40.81268365,1633.03
-104.72452628,40.81268353,1632.84
-104.72450577,40.81268348,1632.75
-104.72448846,40.81268344,1632.71
-104.72443747,40.81268332,1632.52
-104.72442728,40.81268329,1632.51
-104.72440356,40.81268324,1632.40
-104.72431049,40.81268302,1632.20
-104.72427931,40.81268294,1632.08
-104.72422820,40.81268282,1631.99
-104.72421552,40.81268279,1631.94
-104.72420532,40.81268276,1631.93
-104.72419892,40.81268275,1631.91
-104.72412398,40.81268257,1631.70
-104.72412386,40.81268257,1631.73
-104.72411639,40.81268255,1631.72
-104.72399368,40.81268226,1631.46
-104.72397743,40.81268222,1631.41
-104.72396842,40.81268220,1631.40
-104.72386764,40.81268196,1631.24
-104.72372192,40.81268161,1631.00
-104.72355853,40.81268122,1630.76
-104.72348870,40.81268105,1630.66
-104.72340700,40.81268085,1630.55
-104.72328239,40.81268055,1630.43
-104.72319726,40.81268035,1630.34
-104.72315339,40.81268024,1630.25
-104.72310418,40.81268013,1630.19
-104.72306245,40.81268003,1630.10
-104.72296131,40.81267978,1629.92
-104.72295420,40.81267977,1629.92
-104.72283717,40.81267949,1629.76
-104.72275880,40.81267930,1629.53
-104.72263252,40.81267899,1629.33
-104.72262778,40.81267898,1629.34
-104.72259458,40.81267890,1629.26
-104.72258652,40.81267888,1629.24
-104.72247257,40.81267861,1629.05
-104.72244708,40.81267855,1629.03
-104.72241495,40.81267847,1629.07
-104.72237642,40.81267838,1628.97
-104.72233705,40.81267828,1628.91
-104.72233326,40.81267827,1628.95
-104.72229342,40.81267818,1628.85
-104.72220817,40.81267797,1628.74
-104.72212209,40.81267777,1628.64
-104.72197364,40.81267741,1628.49
-104.72192906,40.81267730,1628.44
-104.72192799,40.81267730,1628.43
-104.72191780,40.81267727,1628.43
-104.72187132,40.81267716,1628.33
-104.72176591,40.81267691,1628.18
-104.72176022,40.81267689,1628.18
-104.72175074,40.81267687,1628.17
-104.72168386,40.81267671,1628.07
-104.72164201,40.81267661,1627.98
-104.72163869,40.81267660,1627.98
-104.72159968,40.81267651,1627.95
-104.72150234,40.81267627,1627.86
-104.72145550,40.81267616,1627.77
-104.72142527,40.81267609,1627.70
-104.72137998,40.81267598,1627.63
-104.72127326,40.81267572,1627.49
-104.72126923,40.81267571,1627.49
-104.72125453,40.81267567,1627.48
-104.72115897,40.81267544,1627.34
-104.72110324,40.81267531,1627.32
-104.72108700,40.81267527,1627.28
-104.72104858,40.81267518,1627.25
-104.72095147,40.81267494,1627.23
-104.72084429,40.81267468,1627.12
-104.72056032,40.81267399,1627.08
-104.72055475,40.81267398,1627.12
-104.72052878,40.81267392,1627.05
-104.72052819,40.81267392,1627.04
-104.72046025,40.81267375,1627.03
-104.72043523,40.81267369,1627.03
-104.72039421,40.81267359,1626.92
-104.72039266,40.81267359,1626.96
-104.72039172,40.81267359,1626.98
-104.72028311,40.81267332,1626.77
-104.72017865,40.81267307,1626.67
-104.72015992,40.81267302,1626.59
-104.72005095,40.81267276,1626.46
-104.71997163,40.81267257,1626.47
-104.71992551,40.81267245,1626.38
-104.71989978,40.81267239,1626.40
-104.71989160,40.81267237,1626.42
-104.71989029,40.81267237,1626.39
-104.71982603,40.81267221,1626.35
-104.71979627,40.81267214,1626.34
-104.71960265,40.81267167,1626.31
-104.71955949,40.81267157,1626.20
-104.71940903,40.81267120,1626.08
-104.71940369,40.81267119,1626.09
-104.71937239,40.81267111,1625.94
-104.71933587,40.81267102,1625.92
-104.71909459,40.81267043,1625.81
-104.71905795,40.81267035,1625.83
-104.71901823,40.81267025,1625.86
-104.71900234,40.81267021,1625.87
-104.71893452,40.81267004,1625.92
-104.71889077,40.81266994,1625.94
-104.71887310,40.81266989,1625.93
-104.71874066,40.81266957,1626.05
-104.71873557,40.81266956,1626.08
-104.71870249,40.81266948,1626.07
-104.71860609,40.81266924,1626.15
-104.71855606,40.81266912,1626.15
-104.71848539,40.81266895,1626.23
-104.71845492,40.81266888,1626.22
-104.71843844,40.81266884,1626.27
-104.71840903,40.81266876,1626.26
-104.71815269,40.81266814,1626.34
-104.71803187,40.81266784,1626.44
-104.71802914,40.81266784,1626.47
-104.71800365,40.81266777,1626.44
-104.71797282,40.81266770,1626.42
-104.71795421,40.81266765,1626.42
-104.71784963,40.81266740,1626.41
-104.71783113,40.81266735,1626.42
-104.71782959,40.81266735,1626.41
-104.71774375,40.81266714,1626.34
-104.71772205,40.81266708,1626.34
-104.71759530,40.81266677,1626.35
-104.71755499,40.81266668,1626.29
-104.71754373,40.81266665,1626.25
-104.71747354,40.81266648,1626.26
-104.71737726,40.81266624,1626.12
-104.71736837,40.81266622,1626.14
-104.71735722,40.81266619,1626.10
-104.71726533,40.81266597,1626.02
-104.71719336,40.81266579,1626.01
-104.71716407,40.81266572,1625.97
-104.71715755,40.81266570,1625.99
-104.71715174,40.81266569,1625.97
-104.71712376,40.81266562,1625.97
-104.71710183,40.81266557,1625.97
-104.71708641,40.81266553,1625.97
-104.71691117,40.81266510,1625.95
-104.71685805,40.81266497,1625.99
-104.71680055,40.81266483,1625.95
-104.71679237,40.81266481,1625.97
-104.71678170,40.81266478,1625.99
-104.71675348,40.81266471,1625.96
-104.71673332,40.81266466,1625.98
-104.71661096,40.81266436,1625.95
-104.71657219,40.81266427,1625.93
-104.71651077,40.81266411,1625.91
-104.71642172,40.81266390,1625.81
-104.71638094,40.81266380,1625.78
-104.71637442,40.81266378,1625.76
-104.71624447,40.81266346,1625.66
-104.71619811,40.81266335,1625.59
-104.71618649,40.81266332,1625.54
-104.71615139,40.81266323,1625.48
-104.71615080,40.81266323,1625.49
-104.71612127,40.81266316,1625.45
-104.71599464,40.81266285,1625.30
-104.71598978,40.81266283,1625.30
-104.71597828,40.81266281,1625.27
-104.71595291,40.81266274,1625.24
-104.71587869,40.81266256,1625.21
-104.71574186,40.81266222,1624.96
-104.71569325,40.81266210,1624.90
-104.71566989,40.81266205,1624.82
-104.71566408,40.81266203,1624.80
-104.71560788,40.81266189,1624.55
-104.71549287,40.81266179,1624.18
-104.71544295,40.81266176,1624.07
-104.71543714,40.81266192,1624.08
-104.71543523,40.81266525,1624.04
-104.71543472,40.81275615,1623.59
-104.71543466,40.81277029,1623.54
-104.71543443,40.81282407,1623.35
-104.71543274,40.81321981,1623.28
-104.71543261,40.81324954,1623.29
-104.71543245,40.81328647,1623.24
-104.71543222,40.81334106,1623.29
-104.71543221,40.81334458,1623.30
-104.71543126,40.81356501,1623.61
-104.71543111,40.81360077,1623.60
-104.71543004,40.81385166,1624.22
-104.71542952,40.81397435,1624.43
-104.71542882,40.81413678,1624.70
-104.71542789,40.81435361,1625.07
-104.71542768,40.81440297,1625.14
-104.71542717,40.81452243,1625.33
-104.71542685,40.81459801,1625.61
-104.71542647,40.81468620,1625.75
-104.71542580,40.81484331,1625.98
-104.71542573,40.81486060,1626.04
-104.71542557,40.81489871,1626.10
-104.71542531,40.81495879,1626.09
-104.71542505,40.81501888,1626.13
-104.71542408,40.81524616,1626.09
-104.71542385,40.81529985,1626.12
-104.71542327,40.81543669,1625.91
-104.71542289,40.81552398,1625.68
-104.71542277,40.81555272,1625.64
-104.71542214,40.81570028,1625.39
-104.71542201,40.81573136,1625.32
-104.71542152,40.81584486,1625.06
-104.71542088,40.81599647,1624.55
-104.71542023,40.81614763,1624.20
-104.71541980,40.81624799,1623.97
-104.71541938,40.81634582,1623.69
-104.71541892,40.81645428,1623.59
-104.71541856,40.81653797,1623.27
-104.71541828,40.81660364,1623.25
-104.71541786,40.81670192,1623.13
-104.71541784,40.81670733,1623.18
-104.71541769,40.81674219,1623.14
-104.71541688,40.81693047,1623.20
-104.71541676,40.81696010,1623.23
-104.71546571,40.81740804,1623.32
-104.71546878,40.81743975,1623.38
-104.71546991,40.81745147,1623.35
-104.71547219,40.81747472,1623.37
-104.71547639,40.81751824,1623.42
-104.71547832,40.81753797,1623.42
-104.71548252,40.81758131,1623.48
-104.71548366,40.81759312,1623.45
-104.71548445,40.81760132,1623.45
-104.71548866,40.81764439,1623.56
-104.71549331,40.81769259,1623.54
-104.71549717,40.81773242,1623.58
-104.71550296,40.81779207,1623.67
-104.71550490,40.81781190,1623.72
-104.71550955,40.81785992,1623.72
-104.71551580,40.81792435,1623.76
-104.71552205,40.81798869,1623.89
-104.71552750,40.81804500,1624.07
-104.71553465,40.81811880,1623.86
-104.71553579,40.81813051,1623.87
-104.71553942,40.81816791,1623.89
-104.71555135,40.81829081,1623.97
     </coordinates>
    </LineString>
   </MultiGeometry>
  </Placemark>
 </Document>
</kml>
