<kml>
 <Document>
  <Style id="yellow">
   <LineStyle>
   <color>ff00ffff</color>
   <width>1</width>
   </LineStyle>
  </Style>
  <Style id="red">
   <LineStyle>
   <color>ffff0000</color>
   <width>2</width>
   </LineStyle>
  </Style>
  <Style id="green">
   <LineStyle>
   <color>ff00ff00</color>
   <width>1</width>
   </LineStyle>
  </Style>
  <Placemark>
  <styleUrl>#yellow</styleUrl>
   <MultiGeometry>
    <LineString>
     <coordinates>
-104.75243637,40.79472963,1639.12
-104.75264641,40.79473008,1638.35
-104.75291063,40.79473065,1637.48
-104.75296539,40.79473077,1637.36
-104.75329255,40.79473138,1636.49
-104.75363358,40.79473219,1635.91
-104.75376895,40.79473248,1635.69
-104.75396595,40.79473290,1635.51
-104.75397994,40.79473293,1635.49
-104.75416841,40.79473333,1635.16
-104.75425269,40.79473351,1635.07
-104.75437763,40.79473378,1635.01
-104.75443939,40.79473391,1634.85
-104.75444448,40.79473392,1634.86
-104.75460474,40.79473426,1634.59
-104.75506229,40.79473524,1633.87
-104.75522208,40.79473558,1633.72
-104.75528336,40.79473571,1633.70
-104.75539111,40.79473593,1633.71
-104.75545263,40.79473606,1633.57
-104.75549969,40.79473616,1633.59
-104.75568034,40.79473655,1633.53
-104.75582045,40.79473684,1633.08
-104.75599055,40.79473720,1632.67
-104.75604460,40.79473732,1632.52
-104.75629720,40.79473785,1632.17
-104.75644217,40.79473816,1632.09
-104.75657896,40.79473845,1632.11
-104.75663159,40.79473856,1632.07
-104.75688739,40.79473910,1632.20
-104.75696242,40.79473925,1632.18
-104.75712031,40.79473959,1632.30
-104.75718681,40.79473973,1632.30
-104.75721822,40.79473979,1632.29
-104.75752985,40.79474045,1632.30
-104.75761520,40.79474063,1632.35
-104.75763653,40.79474067,1632.33
-104.75766664,40.79474074,1632.39
-104.75779407,40.79474100,1632.29
-104.75796073,40.79474135,1631.88
-104.75801348,40.79474146,1631.72
-104.75801443,40.79474147,1631.72
-104.75815714,40.79474176,1631.06
-104.75834159,40.79474215,1630.17
-104.75848347,40.79474245,1629.58
-104.75857652,40.79474264,1629.14
-104.75889906,40.79474332,1627.86
-104.75893699,40.79474340,1627.69
-104.75900456,40.79474354,1627.41
-104.75910780,40.79474375,1627.02
-104.75941374,40.79474439,1625.40
-104.75975193,40.79474510,1623.27
-104.75998402,40.79474549,1622.97
-104.76036594,40.79474637,1622.73
-104.76041585,40.79474648,1622.73
-104.76047405,40.79474660,1622.76
-104.76065387,40.79474697,1622.62
-104.76096716,40.79474762,1619.62
-104.76107822,40.79474785,1621.15
-104.76110904,40.79474791,1621.18
-104.76116784,40.79474803,1621.32
-104.76131897,40.79474835,1621.12
-104.76167126,40.79474908,1621.75
-104.76197400,40.79474970,1622.71
-104.76203682,40.79474983,1623.13
-104.76226358,40.79475030,1623.87
-104.76232830,40.79475043,1623.96
-104.76244601,40.79475067,1624.07
-104.76268996,40.79475118,1624.40
-104.76271426,40.79475123,1624.40
-104.76275207,40.79475130,1624.45
-104.76287499,40.79475156,1624.50
-104.76290688,40.79475153,1624.52
-104.76292419,40.79474967,1624.56
-104.76292527,40.79474752,1624.56
-104.76292608,40.79468401,1624.57
-104.76292665,40.79462590,1624.56
-104.76292695,40.79454185,1624.43
-104.76292731,40.79443871,1624.41
-104.76292800,40.79424421,1624.30
-104.76292861,40.79407296,1624.28
-104.76292878,40.79402495,1624.27
-104.76292885,40.79400504,1624.29
-104.76292919,40.79391054,1624.24
-104.76293021,40.79359011,1624.26
-104.76293150,40.79326166,1624.19
-104.76293202,40.79311383,1624.08
-104.76293237,40.79301654,1624.13
-104.76293337,40.79273493,1624.04
-104.76293376,40.79262665,1623.93
-104.76293424,40.79249080,1623.77
-104.76293449,40.79242062,1623.71
-104.76293564,40.79209623,1623.49
-104.76293583,40.79204281,1623.43
-104.76293599,40.79199894,1623.37
-104.76293609,40.79197047,1623.38
-104.76293621,40.79193786,1623.36
-104.76293630,40.79191065,1623.34
-104.76293680,40.79177066,1623.24
-104.76293704,40.79170337,1623.19
-104.76293744,40.79159266,1623.08
-104.76293745,40.79158779,1623.10
-104.76293748,40.79157923,1623.08
-104.76293780,40.79148906,1623.05
-104.76293784,40.79148023,1623.03
-104.76293798,40.79143906,1623.03
-104.76293832,40.79134519,1622.98
-104.76293920,40.79109764,1622.97
-104.76293924,40.79108557,1622.97
-104.76293946,40.79102314,1622.91
-104.76294048,40.79073604,1622.73
-104.76294168,40.79040047,1622.98
-104.76294208,40.79028750,1622.79
-104.76294259,40.79014202,1622.71
-104.76294303,40.79001995,1622.63
-104.76294347,40.78989528,1622.70
-104.76294366,40.78984104,1622.75
-104.76294404,40.78973673,1623.12
-104.76294446,40.78961826,1623.63
-104.76294448,40.78961277,1623.67
-104.76294449,40.78960817,1623.68
-104.76294451,40.78960331,1623.73
-104.76294501,40.78946296,1624.60
-104.76294517,40.78941719,1624.90
-104.76294518,40.78941440,1624.92
-104.76294548,40.78933080,1625.50
-104.76294561,40.78929477,1625.75
-104.76294581,40.78923739,1626.17
-104.76294595,40.78919766,1626.51
-104.76294677,40.78896650,1628.14
-104.76294745,40.78877534,1628.53
-104.76294783,40.78866931,1628.27
-104.76294796,40.78863265,1628.07
-104.76294834,40.78852535,1627.14
-104.76294869,40.78842878,1626.30
-104.76294908,40.78831762,1625.31
-104.76294921,40.78828104,1624.96
-104.76294926,40.78826870,1624.88
-104.76294965,40.78815817,1623.87
-104.76295005,40.78804565,1622.13
-104.76295101,40.78777423,1623.73
-104.76295200,40.78749748,1624.22
-104.76295237,40.78739308,1624.77
-104.76295269,40.78730335,1625.59
-104.76295312,40.78718111,1626.45
-104.76295412,40.78690004,1627.36
-104.76295423,40.78686878,1627.40
-104.76295429,40.78685239,1627.42
-104.76295470,40.78673825,1627.33
-104.76295474,40.78672600,1627.34
-104.76295495,40.78666879,1627.30
-104.76295651,40.78622873,1627.02
-104.76295691,40.78611531,1626.95
-104.76295802,40.78580281,1626.90
-104.76295764,40.78574506,1626.84
-104.76289969,40.78574332,1626.79
-104.76280914,40.78574304,1626.84
-104.76270579,40.78574274,1626.85
-104.76231372,40.78574202,1626.00
-104.76195437,40.78574119,1625.40
-104.76178062,40.78574084,1624.87
-104.76171461,40.78574070,1624.61
-104.76160889,40.78574048,1623.89
-104.76148563,40.78574023,1622.72
-104.76138382,40.78574002,1622.15
-104.76113327,40.78573950,1620.59
-104.76101996,40.78573926,1620.02
-104.76065599,40.78573851,1618.04
-104.76028810,40.78573774,1615.98
-104.76002961,40.78573721,1615.05
-104.75986795,40.78573687,1614.94
-104.75973272,40.78573659,1614.96
-104.75942528,40.78573595,1614.99
-104.75932228,40.78573573,1614.91
-104.75920886,40.78573550,1614.84
-104.75909615,40.78573526,1614.78
-104.75909093,40.78573525,1614.78
-104.75895570,40.78573497,1614.55
-104.75883031,40.78573471,1614.45
-104.75878539,40.78573461,1614.38
-104.75876216,40.78573456,1614.36
-104.75868524,40.78573440,1614.39
-104.75865774,40.78573435,1614.42
-104.75858331,40.78573419,1614.67
-104.75852903,40.78573408,1615.28
-104.75836002,40.78573372,1615.62
-104.75824352,40.78573348,1615.53
-104.75797329,40.78573291,1615.15
-104.75779800,40.78573254,1615.20
-104.75773246,40.78573241,1615.23
-104.75761820,40.78573217,1615.19
-104.75761441,40.78573216,1615.19
-104.75750490,40.78573193,1615.10
-104.75737595,40.78573166,1615.11
-104.75734478,40.78573159,1615.13
-104.75730401,40.78573151,1615.12
-104.75716119,40.78573121,1615.46
-104.75713535,40.78573115,1615.55
-104.75692380,40.78573071,1616.05
-104.75690578,40.78573067,1616.10
-104.75681476,40.78573048,1616.05
-104.75676628,40.78573037,1615.99
-104.75670252,40.78573024,1616.12
-104.75664385,40.78573012,1616.00
-104.75645126,40.78572971,1615.96
-104.75638477,40.78572957,1616.03
-104.75616965,40.78572912,1616.07
-104.75615152,40.78572908,1616.09
-104.75603762,40.78572884,1616.34
-104.75598227,40.78572872,1616.45
-104.75583887,40.78572842,1616.85
-104.75571786,40.78572816,1617.09
-104.75549812,40.78572769,1617.39
-104.75530043,40.78572728,1617.36
-104.75515027,40.78572696,1617.25
-104.75489438,40.78572641,1616.97
-104.75479056,40.78572619,1616.74
-104.75471399,40.78572603,1616.46
-104.75447624,40.78572553,1616.08
-104.75438202,40.78572532,1616.13
-104.75420234,40.78572494,1616.03
-104.75414071,40.78572481,1616.03
-104.75413965,40.78572481,1616.03
-104.75397384,40.78572446,1616.21
-104.75388483,40.78572427,1616.40
-104.75385793,40.78572421,1616.45
-104.75381182,40.78572411,1616.53
-104.75356400,40.78572358,1616.70
-104.75339357,40.78572322,1617.33
-104.75297306,40.78572232,1619.30
-104.75288512,40.78572213,1619.77
-104.75279386,40.78572193,1620.38
-104.75270722,40.78572175,1620.96
-104.75253501,40.78572138,1622.10
-104.75235071,40.78572098,1623.32
-104.75184404,40.78571989,1626.43
-104.75135953,40.78571885,1627.38
-104.75112830,40.78571844,1627.07
-104.75112320,40.78571879,1627.07
-104.75111360,40.78571949,1627.07
-104.75110897,40.78571984,1627.07
-104.75110670,40.78572614,1627.06
-104.75110630,40.78573686,1627.05
-104.75110515,40.78604622,1627.09
-104.75110493,40.78610450,1627.25
-104.75110485,40.78612450,1627.34
-104.75110445,40.78623269,1627.89
-104.75110408,40.78633142,1628.36
-104.75110377,40.78641538,1628.78
-104.75110237,40.78682239,1630.11
-104.75110188,40.78695175,1629.32
-104.75110041,40.78731533,1626.36
-104.75110029,40.78734659,1626.20
-104.75109967,40.78751235,1625.77
-104.75109849,40.78782981,1626.59
-104.75109802,40.78795457,1627.16
-104.75109739,40.78812339,1628.02
-104.75109608,40.78847508,1629.92
-104.75109571,40.78857481,1630.20
-104.75109430,40.78898316,1631.81
-104.75109310,40.78927125,1632.55
-104.75109292,40.78932089,1632.57
-104.75109177,40.78962943,1633.31
-104.75109115,40.78979582,1633.88
-104.75109036,40.79000626,1635.07
-104.75108891,40.79039398,1636.33
-104.75108819,40.79058649,1636.87
-104.75108724,40.79084233,1637.63
-104.75108706,40.79089044,1637.75
-104.75108629,40.79109529,1638.23
-104.75108566,40.79126492,1638.46
-104.75108456,40.79155914,1638.25
-104.75108305,40.79199686,1638.17
-104.75108196,40.79225459,1638.18
-104.75108047,40.79265547,1638.61
-104.75107902,40.79307490,1639.72
-104.75107775,40.79338308,1638.99
-104.75107677,40.79367658,1638.82
-104.75107582,40.79389873,1639.10
-104.75107522,40.79406070,1640.12
-104.75107479,40.79417511,1641.10
-104.75107451,40.79425042,1641.77
-104.75107396,40.79439663,1642.55
-104.75107388,40.79441834,1642.69
-104.75107359,40.79449788,1643.03
-104.75107351,40.79451860,1643.04
-104.75107311,40.79462454,1643.17
-104.75107280,40.79470913,1643.05
-104.75107431,40.79471544,1643.04
-104.75107690,40.79472139,1643.01
-104.75109348,40.79472665,1642.98
-104.75121841,40.79472701,1642.83
-104.75140404,40.79472741,1642.59
-104.75146129,40.79472754,1642.54
-104.75154533,40.79472772,1642.28
-104.75165451,40.79472795,1642.14
-104.75174732,40.79472815,1641.87
-104.75192690,40.79472854,1641.33
-104.75198226,40.79472866,1641.10
-104.75203275,40.79472877,1640.90
-104.75207815,40.79472886,1640.70
-104.75212509,40.79472896,1640.48
-104.75213149,40.79472898,1640.48
-104.75243637,40.79472963,1639.12
     </coordinates>
    </LineString>
   </MultiGeometry>
  </Placemark>
 </Document>
</kml>
