<kml>
 <Document>
  <Style id="yellow">
   <LineStyle>
   <color>ff00ffff</color>
   <width>1</width>
   </LineStyle>
  </Style>
  <Style id="red">
   <LineStyle>
   <color>ffff0000</color>
   <width>2</width>
   </LineStyle>
  </Style>
  <Style id="green">
   <LineStyle>
   <color>ff00ff00</color>
   <width>1</width>
   </LineStyle>
  </Style>
  <Placemark>
  <styleUrl>#yellow</styleUrl>
   <MultiGeometry>
    <LineString>
     <coordinates>
-104.76816430,40.79476230,1641.97
-104.76832859,40.79476263,1643.33
-104.76849905,40.79476298,1644.56
-104.76851517,40.79476301,1644.62
-104.76855678,40.79476309,1644.74
-104.76881803,40.79476362,1645.10
-104.76891641,40.79476381,1645.52
-104.76906897,40.79476412,1645.86
-104.76922923,40.79476444,1646.15
-104.76925472,40.79476449,1646.18
-104.76939020,40.79476476,1646.59
-104.76947033,40.79476492,1646.89
-104.76963771,40.79476525,1647.45
-104.76977758,40.79476553,1648.28
-104.76984372,40.79476567,1648.70
-104.76992468,40.79476583,1649.29
-104.77008874,40.79476615,1650.39
-104.77022387,40.79476642,1651.31
-104.77035378,40.79476668,1651.86
-104.77040700,40.79476679,1652.05
-104.77053965,40.79476705,1652.35
-104.77063590,40.79476724,1652.36
-104.77083587,40.79476764,1652.36
-104.77092726,40.79476782,1652.38
-104.77109653,40.79476816,1652.43
-104.77132767,40.79476862,1652.35
-104.77144479,40.79476885,1652.31
-104.77150026,40.79476896,1652.28
-104.77161998,40.79476920,1652.31
-104.77211096,40.79477017,1651.24
-104.77217876,40.79477030,1650.89
-104.77225581,40.79477045,1650.99
-104.77230109,40.79477054,1651.01
-104.77235775,40.79477065,1650.98
-104.77242129,40.79477078,1650.94
-104.77249075,40.79477092,1650.91
-104.77284055,40.79477160,1649.90
-104.77296442,40.79477185,1649.05
-104.77311295,40.79477214,1648.36
-104.77318644,40.79477228,1648.04
-104.77320588,40.79477232,1647.98
-104.77340336,40.79477271,1647.31
-104.77371072,40.79477331,1646.59
-104.77375802,40.79477341,1646.55
-104.77378184,40.79477345,1646.56
-104.77384692,40.79477358,1646.49
-104.77404665,40.79477397,1646.60
-104.77410557,40.79477409,1646.70
-104.77414670,40.79477417,1646.76
-104.77430352,40.79477447,1647.35
-104.77440250,40.79477467,1647.71
-104.77448986,40.79477484,1647.92
-104.77451783,40.79477489,1648.04
-104.77453431,40.79477493,1648.06
-104.77465747,40.79477517,1648.25
-104.77475597,40.79477536,1648.46
-104.77477091,40.79477530,1648.49
-104.77477577,40.79477504,1648.44
-104.77477909,40.79477459,1648.41
-104.77477969,40.79477288,1648.42
-104.77477987,40.79475505,1648.38
-104.77477988,40.79475162,1648.37
-104.77478000,40.79471469,1648.28
-104.77478007,40.79469442,1648.18
-104.77478059,40.79454245,1647.43
-104.77478119,40.79432840,1646.24
-104.77478254,40.79396491,1643.74
-104.77478302,40.79378699,1642.50
-104.77478426,40.79345440,1640.21
-104.77478506,40.79321991,1639.10
-104.77478613,40.79290281,1638.63
-104.77478654,40.79278147,1638.35
-104.77478673,40.79272543,1638.26
-104.77478676,40.79271570,1638.23
-104.77478700,40.79264508,1638.22
-104.77478716,40.79259571,1638.20
-104.77478771,40.79243455,1638.50
-104.77478781,40.79240338,1638.59
-104.77478783,40.79239960,1638.59
-104.77478806,40.79233104,1638.82
-104.77478832,40.79225492,1639.12
-104.77478852,40.79219600,1639.34
-104.77478942,40.79189413,1640.78
-104.77479054,40.79152541,1642.58
-104.77479198,40.79117039,1642.55
-104.77479301,40.79083194,1643.23
-104.77479447,40.79043421,1645.80
-104.77479597,40.78998874,1648.63
-104.77479682,40.78966831,1648.04
-104.77479792,40.78941391,1647.06
-104.77479866,40.78919239,1646.88
-104.77479877,40.78916203,1646.85
-104.77479972,40.78888016,1647.66
-104.77480089,40.78853225,1648.64
-104.77480182,40.78825704,1646.99
-104.77480311,40.78787634,1644.99
-104.77480365,40.78768031,1644.33
-104.77480468,40.78741285,1644.13
-104.77480487,40.78735376,1644.14
-104.77480611,40.78698774,1645.04
-104.77480725,40.78664920,1646.82
-104.77480822,40.78636417,1646.99
-104.77480844,40.78629697,1647.01
-104.77480909,40.78600023,1646.73
-104.77480987,40.78583889,1646.24
-104.77480987,40.78580510,1646.07
-104.77480947,40.78578186,1645.95
-104.77480762,40.78577024,1645.90
-104.77480264,40.78576978,1645.89
-104.77479269,40.78576886,1645.87
-104.77478262,40.78576793,1645.85
-104.77477752,40.78576747,1645.86
-104.77477219,40.78576701,1645.85
-104.77452164,40.78576643,1645.74
-104.77421384,40.78576583,1645.08
-104.77403891,40.78576549,1644.64
-104.77397834,40.78576537,1644.50
-104.77379950,40.78576502,1644.23
-104.77368406,40.78576479,1644.16
-104.77340696,40.78576425,1643.93
-104.77286579,40.78576328,1643.31
-104.77271089,40.78576297,1642.99
-104.77213820,40.78576175,1640.95
-104.77196848,40.78576142,1640.20
-104.77188386,40.78576125,1639.77
-104.77182626,40.78576114,1639.54
-104.77174033,40.78576097,1639.16
-104.77170264,40.78576089,1639.00
-104.77166412,40.78576082,1638.88
-104.77154951,40.78576059,1638.48
-104.77140195,40.78576030,1638.32
-104.77132598,40.78576015,1638.31
-104.77131176,40.78576012,1638.33
-104.77108977,40.78575968,1638.46
-104.77099768,40.78575949,1638.65
-104.77080070,40.78575910,1639.19
-104.77076846,40.78575904,1639.21
-104.77050345,40.78575851,1639.76
-104.77048390,40.78575847,1639.80
-104.77032650,40.78575816,1640.05
-104.77018866,40.78575789,1640.14
-104.76993717,40.78575739,1640.04
-104.76971589,40.78575694,1639.95
-104.76967334,40.78575686,1639.94
-104.76963944,40.78575679,1639.88
-104.76946166,40.78575644,1639.77
-104.76945728,40.78575643,1639.77
-104.76940987,40.78575633,1639.72
-104.76934753,40.78575621,1639.68
-104.76930865,40.78575613,1639.64
-104.76894385,40.78575540,1639.27
-104.76882616,40.78575516,1639.13
-104.76874201,40.78575500,1638.90
-104.76868026,40.78575487,1638.73
-104.76862385,40.78575476,1638.57
-104.76855273,40.78575462,1638.35
-104.76829614,40.78575410,1637.50
-104.76821566,40.78575394,1637.21
-104.76815948,40.78575383,1637.06
-104.76790680,40.78575332,1636.26
-104.76783035,40.78575317,1636.07
-104.76770460,40.78575291,1635.71
-104.76761275,40.78575273,1635.41
-104.76760611,40.78575271,1635.37
-104.76712919,40.78575175,1634.28
-104.76704160,40.78575158,1634.11
-104.76691384,40.78575132,1633.97
-104.76688634,40.78575126,1633.90
-104.76637434,40.78575023,1633.48
-104.76635893,40.78575020,1633.48
-104.76620142,40.78574988,1633.30
-104.76618553,40.78574984,1633.23
-104.76597599,40.78574942,1632.67
-104.76564259,40.78574874,1631.73
-104.76560336,40.78574866,1631.65
-104.76541539,40.78574828,1631.07
-104.76528478,40.78574802,1630.64
-104.76522837,40.78574790,1630.38
-104.76514872,40.78574774,1630.03
-104.76493432,40.78574730,1629.32
-104.76471150,40.78574685,1628.61
-104.76461348,40.78574665,1628.34
-104.76450860,40.78574643,1628.16
-104.76437502,40.78574616,1627.96
-104.76427001,40.78574595,1627.78
-104.76422379,40.78574585,1627.70
-104.76414818,40.78574570,1627.59
-104.76366438,40.78574471,1627.08
-104.76355807,40.78574449,1627.08
-104.76353164,40.78574444,1627.08
-104.76336950,40.78574410,1626.97
-104.76328974,40.78574394,1627.03
-104.76319065,40.78574374,1626.98
-104.76318805,40.78574373,1626.99
-104.76300505,40.78574336,1626.87
-104.76300387,40.78574335,1626.89
-104.76297826,40.78574429,1626.83
-104.76296250,40.78574489,1626.88
-104.76295870,40.78574677,1626.85
-104.76295824,40.78577515,1626.84
-104.76295797,40.78585190,1626.95
-104.76295795,40.78585794,1626.97
-104.76295695,40.78613882,1626.98
-104.76295622,40.78634251,1627.12
-104.76295543,40.78656700,1627.33
-104.76295515,40.78664447,1627.32
-104.76295511,40.78665555,1627.33
-104.76295427,40.78689157,1627.37
-104.76295407,40.78694896,1627.31
-104.76295359,40.78708255,1626.93
-104.76295356,40.78709192,1626.91
-104.76295306,40.78723246,1626.05
-104.76295216,40.78748613,1624.29
-104.76295119,40.78775927,1623.81
-104.76295023,40.78802908,1621.91
-104.76294957,40.78821384,1624.48
-104.76294933,40.78828014,1624.96
-104.76294883,40.78842176,1626.25
-104.76294841,40.78853968,1627.30
-104.76294752,40.78878957,1628.56
-104.76294748,40.78880182,1628.54
-104.76294726,40.78886272,1628.49
-104.76294713,40.78890119,1628.39
-104.76294692,40.78895947,1628.14
-104.76294661,40.78904595,1627.66
-104.76294659,40.78905082,1627.64
-104.76294548,40.78936404,1625.24
-104.76294535,40.78939936,1624.98
-104.76294458,40.78961808,1623.64
-104.76294442,40.78966078,1623.41
-104.76294437,40.78967583,1623.33
-104.76294413,40.78974492,1623.11
-104.76294301,40.79005887,1622.65
-104.76294296,40.79007211,1622.63
-104.76294198,40.79034921,1622.85
-104.76294178,40.79040362,1622.97
-104.76294080,40.79071271,1622.73
-104.76294001,40.79090161,1622.80
-104.76293998,40.79091152,1622.81
-104.76293939,40.79107710,1622.97
-104.76293905,40.79117250,1622.96
-104.76293884,40.79123087,1623.01
-104.76293814,40.79142861,1623.04
-104.76293806,40.79144978,1623.03
-104.76293747,40.79161572,1623.12
-104.76293699,40.79175048,1623.22
-104.76293681,40.79180165,1623.24
-104.76293678,40.79181003,1623.27
-104.76293644,40.79190651,1623.34
-104.76293635,40.79193219,1623.33
-104.76293574,40.79210209,1623.49
-104.76293536,40.79220829,1623.54
-104.76293490,40.79233820,1623.61
-104.76293335,40.79277412,1624.04
-104.76293324,40.79280682,1624.09
-104.76293284,40.79291879,1624.13
-104.76293217,40.79310536,1624.05
-104.76293157,40.79327598,1624.20
-104.76293149,40.79329832,1624.21
-104.76293061,40.79354479,1624.27
-104.76293061,40.79354597,1624.28
-104.76293038,40.79360866,1624.28
-104.76293035,40.79361713,1624.28
-104.76293023,40.79365082,1624.27
-104.76292969,40.79380451,1624.23
-104.76292906,40.79398162,1624.22
-104.76292896,40.79400927,1624.26
-104.76292894,40.79401450,1624.25
-104.76292866,40.79409296,1624.29
-104.76292852,40.79413287,1624.25
-104.76292791,40.79430268,1624.33
-104.76292765,40.79437709,1624.33
-104.76292763,40.79438168,1624.35
-104.76292713,40.79452321,1624.50
-104.76292705,40.79454573,1624.46
-104.76292636,40.79473977,1624.55
-104.76292635,40.79474211,1624.55
-104.76292905,40.79475032,1624.56
-104.76293414,40.79475105,1624.56
-104.76294635,40.79475152,1624.59
-104.76307828,40.79475197,1624.76
-104.76321163,40.79475225,1624.82
-104.76327612,40.79475238,1624.88
-104.76334024,40.79475251,1624.97
-104.76340473,40.79475264,1625.03
-104.76361371,40.79475298,1625.37
-104.76415198,40.79475408,1626.39
-104.76445804,40.79475480,1627.51
-104.76455619,40.79475500,1627.99
-104.76472534,40.79475534,1628.96
-104.76474063,40.79475537,1629.04
-104.76485205,40.79475560,1629.67
-104.76498671,40.79475588,1630.49
-104.76512433,40.79475616,1631.47
-104.76526894,40.79475645,1632.47
-104.76536602,40.79475665,1633.28
-104.76537563,40.79475667,1633.34
-104.76566829,40.79475726,1635.77
-104.76577130,40.79475747,1636.67
-104.76578695,40.79475750,1636.80
-104.76587881,40.79475769,1637.58
-104.76612134,40.79475818,1640.40
-104.76642977,40.79475881,1641.76
-104.76658457,40.79475912,1642.12
-104.76670015,40.79475935,1642.00
-104.76696365,40.79475989,1640.92
-104.76707306,40.79476011,1640.55
-104.76719053,40.79476034,1640.02
-104.76730954,40.79476058,1639.54
-104.76743163,40.79476083,1639.32
-104.76748391,40.79476093,1639.24
-104.76769241,40.79476135,1639.47
-104.76800511,40.79476198,1641.00
-104.76803711,40.79476205,1641.18
-104.76805892,40.79476209,1641.31
-104.76809555,40.79476217,1641.54
-104.76816430,40.79476230,1641.97
     </coordinates>
    </LineString>
   </MultiGeometry>
  </Placemark>
 </Document>
</kml>
