<kml>
 <Document>
  <Style id="yellow">
   <LineStyle>
   <color>ff00ffff</color>
   <width>1</width>
   </LineStyle>
  </Style>
  <Style id="red">
   <LineStyle>
   <color>ffff0000</color>
   <width>2</width>
   </LineStyle>
  </Style>
  <Style id="green">
   <LineStyle>
   <color>ff00ff00</color>
   <width>1</width>
   </LineStyle>
  </Style>
  <Placemark>
  <styleUrl>#yellow</styleUrl>
   <MultiGeometry>
    <LineString>
     <coordinates>
-104.72726068,40.82030546,1643.51
-104.72726065,40.82031438,1643.49
-104.72725919,40.82067066,1642.37
-104.72725884,40.82075552,1642.17
-104.72725881,40.82076264,1642.17
-104.72725768,40.82103722,1641.52
-104.72725737,40.82111334,1641.03
-104.72725658,40.82130621,1640.48
-104.72725632,40.82137152,1640.52
-104.72725556,40.82155511,1640.13
-104.72725540,40.82159457,1640.13
-104.72725569,40.82169798,1639.93
-104.72725865,40.82169817,1639.93
-104.72726743,40.82169837,1639.97
-104.72740190,40.82169878,1640.54
-104.72774307,40.82169959,1641.92
-104.72782240,40.82169977,1642.20
-104.72782797,40.82169979,1642.30
-104.72784351,40.82169982,1642.40
-104.72789580,40.82169995,1642.58
-104.72794205,40.82170006,1642.88
-104.72796577,40.82170011,1642.98
-104.72802352,40.82170025,1643.16
-104.72826329,40.82170081,1644.38
-104.72829721,40.82170089,1644.47
-104.72832543,40.82170096,1644.61
-104.72844686,40.82170125,1645.24
-104.72846560,40.82170129,1645.32
-104.72852904,40.82170144,1645.53
-104.72873857,40.82170193,1646.37
-104.72897977,40.82170250,1647.11
-104.72899543,40.82170254,1647.11
-104.72908626,40.82170275,1647.33
-104.72911247,40.82170281,1647.39
-104.72926900,40.82170318,1647.77
-104.72928679,40.82170322,1647.83
-104.72938912,40.82170346,1648.09
-104.72941094,40.82170351,1648.13
-104.72956297,40.82170387,1648.62
-104.72960257,40.82170396,1648.78
-104.72962843,40.82170402,1648.83
-104.72969744,40.82170418,1649.03
-104.72981911,40.82170447,1649.45
-104.72988824,40.82170463,1649.66
-104.72993331,40.82170473,1649.85
-104.73002675,40.82170495,1650.13
-104.73008035,40.82170508,1650.35
-104.73009505,40.82170511,1650.36
-104.73014035,40.82170522,1650.53
-104.73017557,40.82170530,1650.68
-104.73018091,40.82170531,1650.68
-104.73020866,40.82170538,1650.76
-104.73041855,40.82170587,1651.56
-104.73044357,40.82170593,1651.63
-104.73052219,40.82170611,1651.93
-104.73053239,40.82170613,1651.94
-104.73058267,40.82170625,1652.13
-104.73069117,40.82170651,1652.48
-104.73081521,40.82170680,1652.93
-104.73085411,40.82170689,1653.08
-104.73087332,40.82170693,1653.13
-104.73089478,40.82170698,1653.16
-104.73090533,40.82170701,1653.22
-104.73095514,40.82170712,1653.39
-104.73102095,40.82170727,1653.60
-104.73110906,40.82170748,1653.90
-104.73113515,40.82170754,1653.94
-104.73125694,40.82170783,1654.32
-104.73126203,40.82170784,1654.37
-104.73142165,40.82170821,1654.82
-104.73143730,40.82170824,1654.84
-104.73150608,40.82170840,1655.06
-104.73152968,40.82170846,1655.07
-104.73159300,40.82170861,1655.28
-104.73162170,40.82170867,1655.36
-104.73172344,40.82170891,1655.68
-104.73192681,40.82170938,1656.21
-104.73203259,40.82170963,1656.46
-104.73203947,40.82170964,1656.50
-104.73212935,40.82170985,1656.62
-104.73216422,40.82170993,1656.68
-104.73219043,40.82171000,1656.69
-104.73219280,40.82171000,1656.72
-104.73227284,40.82171019,1656.81
-104.73234636,40.82171036,1656.91
-104.73239344,40.82171047,1656.95
-104.73240720,40.82171050,1656.92
-104.73244443,40.82171058,1656.96
-104.73244953,40.82171060,1656.95
-104.73247550,40.82171066,1656.94
-104.73254926,40.82171083,1656.99
-104.73264424,40.82171105,1657.04
-104.73266844,40.82171110,1657.05
-104.73267413,40.82171112,1657.05
-104.73268456,40.82171114,1657.03
-104.73272393,40.82171123,1657.09
-104.73281702,40.82171145,1657.15
-104.73289979,40.82171164,1657.21
-104.73295885,40.82171178,1657.29
-104.73296217,40.82171178,1657.33
-104.73297154,40.82171181,1657.36
-104.73307245,40.82171204,1657.59
-104.73320325,40.82171234,1657.77
-104.73331104,40.82171259,1657.90
-104.73339085,40.82171278,1658.03
-104.73345204,40.82171292,1658.06
-104.73354038,40.82171312,1658.08
-104.73357608,40.82171320,1658.09
-104.73357892,40.82171321,1658.09
-104.73361829,40.82171330,1658.10
-104.73363300,40.82171333,1658.06
-104.73364438,40.82171336,1658.03
-104.73373035,40.82171356,1658.06
-104.73391700,40.82171399,1658.22
-104.73395341,40.82171407,1658.08
-104.73401590,40.82171422,1658.03
-104.73410271,40.82171442,1658.24
-104.73427785,40.82171482,1658.07
-104.73430252,40.82171488,1658.09
-104.73432280,40.82171493,1658.06
-104.73443059,40.82171517,1657.95
-104.73444601,40.82171521,1657.95
-104.73448644,40.82171530,1657.90
-104.73451312,40.82171536,1657.89
-104.73455890,40.82171547,1657.87
-104.73466396,40.82171571,1657.65
-104.73470274,40.82171580,1657.71
-104.73472112,40.82171584,1657.74
-104.73476096,40.82171593,1657.66
-104.73484385,40.82171612,1657.61
-104.73485903,40.82171616,1657.53
-104.73486117,40.82171616,1657.57
-104.73486970,40.82171618,1657.57
-104.73493374,40.82171633,1657.47
-104.73504746,40.82171659,1657.37
-104.73510723,40.82171673,1657.35
-104.73510794,40.82171673,1657.33
-104.73516035,40.82171685,1657.30
-104.73516937,40.82171687,1657.29
-104.73521715,40.82171698,1657.21
-104.73532080,40.82171722,1657.08
-104.73549417,40.82171762,1656.74
-104.73565840,40.82171799,1656.56
-104.73576964,40.82171825,1656.28
-104.73577307,40.82171826,1656.29
-104.73577770,40.82171827,1656.29
-104.73596945,40.82171870,1655.88
-104.73602566,40.82171883,1655.74
-104.73632354,40.82171952,1655.33
-104.73635283,40.82171958,1655.26
-104.73682574,40.82172066,1654.80
-104.73696235,40.82172097,1654.77
-104.73707489,40.82172123,1654.80
-104.73719205,40.82172150,1654.79
-104.73722928,40.82172158,1654.81
-104.73732024,40.82172179,1654.84
-104.73735202,40.82172186,1654.83
-104.73737917,40.82172192,1654.84
-104.73746052,40.82172211,1654.88
-104.73754021,40.82172229,1654.91
-104.73759843,40.82172242,1654.93
-104.73764409,40.82172253,1654.95
-104.73768927,40.82172263,1654.96
-104.73772129,40.82172270,1655.01
-104.73776315,40.82172280,1655.00
-104.73782694,40.82172294,1655.01
-104.73789987,40.82172311,1654.91
-104.73790284,40.82172311,1654.87
-104.73808842,40.82172353,1654.72
-104.73809518,40.82172355,1654.56
-104.73816301,40.82172370,1654.62
-104.73818447,40.82172375,1654.55
-104.73821448,40.82172382,1654.31
-104.73825219,40.82172391,1654.35
-104.73832500,40.82172407,1654.14
-104.73836674,40.82172417,1653.98
-104.73840694,40.82172426,1653.78
-104.73850975,40.82172449,1653.44
-104.73857414,40.82172464,1653.18
-104.73861873,40.82172474,1653.03
-104.73862501,40.82172475,1652.99
-104.73869154,40.82172490,1652.74
-104.73870209,40.82172493,1652.68
-104.73872901,40.82172499,1652.55
-104.73873447,40.82172500,1652.52
-104.73877052,40.82172508,1652.37
-104.73877656,40.82172509,1652.37
-104.73881012,40.82172517,1652.19
-104.73890534,40.82172539,1651.73
-104.73892871,40.82172544,1651.60
-104.73894875,40.82172548,1651.50
-104.73898835,40.82172557,1651.30
-104.73910635,40.82172557,1650.75
-104.73910967,40.82172522,1650.73
-104.73911276,40.82172279,1650.73
-104.73911314,40.82171577,1650.64
-104.73911332,40.82170117,1650.56
-104.73911350,40.82165568,1650.30
-104.73911362,40.82162415,1650.14
-104.73911387,40.82156163,1649.83
-104.73911397,40.82153398,1649.71
-104.73911405,40.82151344,1649.63
-104.73911419,40.82147867,1649.48
-104.73911445,40.82141209,1649.19
-104.73911468,40.82135399,1648.99
-104.73911478,40.82132913,1648.89
-104.73911486,40.82130687,1648.78
-104.73911493,40.82128940,1648.78
-104.73911521,40.82121922,1648.46
-104.73911542,40.82116364,1648.16
-104.73911576,40.82107788,1647.79
-104.73911607,40.82099888,1647.43
-104.73911609,40.82099491,1647.40
-104.73911638,40.82092023,1647.08
-104.73911761,40.82060503,1646.09
-104.73911762,40.82060350,1646.07
-104.73911770,40.82058179,1646.05
-104.73911779,40.82056062,1646.03
-104.73911823,40.82044837,1646.04
-104.73911831,40.82042711,1646.09
-104.73911837,40.82041279,1646.05
-104.73911837,40.82041198,1646.08
-104.73911838,40.82040919,1646.11
-104.73911873,40.82031910,1646.12
-104.73911880,40.82030307,1646.14
-104.73911897,40.82025856,1646.16
-104.73911901,40.82024983,1646.15
-104.73911933,40.82016749,1646.14
-104.73911948,40.82012974,1646.22
-104.73911971,40.82007056,1646.26
-104.73911982,40.82004290,1646.29
-104.73912040,40.81989498,1646.40
-104.73912114,40.81970482,1646.52
-104.73912132,40.81965779,1646.61
-104.73912151,40.81961077,1646.68
-104.73912155,40.81960140,1646.71
-104.73912161,40.81958527,1646.73
-104.73912175,40.81954951,1646.81
-104.73912194,40.81950060,1646.93
-104.73912207,40.81946735,1647.02
-104.73912208,40.81946537,1647.04
-104.73912214,40.81945042,1647.06
-104.73912219,40.81943673,1647.09
-104.73912238,40.81938808,1647.18
-104.73912266,40.81931700,1647.32
-104.73912272,40.81930151,1647.34
-104.73912295,40.81924205,1647.44
-104.73912301,40.81922701,1647.52
-104.73912319,40.81918170,1647.60
-104.73912323,40.81917044,1647.64
-104.73912331,40.81915161,1647.71
-104.73912338,40.81913350,1647.70
-104.73912341,40.81912575,1647.74
-104.73912341,40.81912512,1647.74
-104.73912382,40.81902027,1648.03
-104.73912395,40.81898748,1648.14
-104.73912419,40.81892640,1648.28
-104.73912425,40.81891090,1648.31
-104.73912427,40.81890676,1648.36
-104.73912442,40.81886784,1648.50
-104.73912446,40.81885866,1648.52
-104.73912479,40.81877416,1648.77
-104.73912483,40.81876335,1648.78
-104.73912496,40.81872911,1648.87
-104.73912506,40.81870551,1648.90
-104.73912526,40.81865227,1649.00
-104.73912527,40.81865047,1649.00
-104.73912530,40.81864335,1649.02
-104.73912555,40.81857993,1649.18
-104.73912579,40.81851814,1649.42
-104.73912595,40.81847625,1649.65
-104.73912596,40.81847526,1649.66
-104.73912602,40.81845832,1649.76
-104.73912608,40.81844499,1649.81
-104.73912613,40.81843003,1649.91
-104.73912614,40.81842778,1649.92
-104.73912624,40.81840283,1650.07
-104.73912703,40.81820275,1651.21
-104.73912703,40.81820248,1651.22
-104.73912703,40.81820230,1651.23
-104.73912707,40.81819149,1651.28
-104.73912708,40.81818762,1651.29
-104.73912727,40.81814140,1651.61
-104.73912748,40.81808717,1651.79
-104.73912761,40.81805330,1651.90
-104.73912764,40.81804492,1651.93
-104.73912788,40.81798412,1652.14
-104.73912817,40.81790971,1652.40
-104.73912823,40.81789610,1652.45
-104.73912824,40.81789178,1652.48
-104.73912829,40.81788052,1652.49
-104.73912836,40.81786241,1652.56
-104.73912839,40.81785430,1652.60
-104.73912843,40.81784467,1652.64
-104.73912848,40.81783223,1652.65
-104.73912875,40.81776134,1652.97
-104.73912893,40.81771630,1653.07
-104.73912898,40.81770458,1653.10
-104.73912899,40.81770107,1653.11
-104.73912923,40.81764044,1653.23
-104.73912943,40.81758919,1653.21
-104.73912944,40.81758684,1653.22
-104.73912946,40.81758027,1653.19
-104.73912958,40.81755108,1653.17
-104.73912970,40.81751910,1653.17
-104.73912984,40.81748442,1653.14
-104.73913006,40.81742911,1653.11
-104.73913010,40.81741740,1653.08
-104.73913037,40.81735001,1652.93
-104.73913047,40.81732308,1652.81
-104.73913061,40.81728776,1652.68
-104.73913061,40.81728695,1652.69
-104.73913078,40.81724407,1652.47
-104.73913078,40.81724362,1652.47
-104.73913082,40.81723425,1652.44
-104.73913085,40.81722759,1652.41
-104.73913098,40.81719309,1652.17
-104.73913102,40.81718246,1652.15
-104.73913109,40.81716561,1652.00
-104.73913130,40.81711138,1651.68
-104.73913142,40.81708138,1651.43
-104.73913157,40.81704246,1651.19
-104.73913160,40.81703589,1651.15
-104.73913165,40.81702130,1651.01
-104.73913168,40.81701436,1650.97
-104.73913184,40.81697301,1650.79
-104.73913190,40.81695734,1650.65
-104.73913196,40.81694211,1650.58
-104.73913235,40.81684284,1650.30
-104.73913236,40.81684122,1650.28
-104.73913243,40.81682239,1650.28
-104.73913252,40.81679897,1650.23
-104.73913254,40.81679419,1650.24
-104.73913273,40.81674609,1650.21
-104.73913276,40.81673933,1650.19
-104.73913279,40.81673158,1650.21
-104.73913295,40.81669123,1650.18
-104.73913318,40.81663159,1650.17
-104.73913333,40.81659258,1650.15
-104.73913343,40.81656808,1650.15
-104.73913351,40.81654763,1650.13
-104.73913357,40.81653313,1650.13
-104.73913371,40.81649538,1650.00
-104.73913377,40.81648088,1649.97
-104.73913381,40.81646989,1649.96
-104.73913387,40.81645530,1650.05
-104.73913391,40.81644422,1650.10
-104.73913401,40.81641917,1650.12
-104.73913403,40.81641539,1650.17
-104.73913410,40.81639791,1650.13
-104.73913411,40.81639539,1650.13
-104.73913414,40.81638737,1650.11
-104.73913416,40.81638116,1650.15
-104.73913418,40.81637755,1650.13
-104.73913428,40.81635170,1650.10
-104.73913441,40.81631864,1650.12
-104.73913449,40.81629720,1650.10
-104.73913464,40.81626008,1650.11
-104.73913468,40.81624990,1650.10
-104.73913470,40.81624261,1650.07
-104.73913474,40.81623351,1650.08
-104.73913482,40.81621207,1650.08
-104.73913493,40.81618558,1650.07
-104.73913497,40.81617360,1650.12
-104.73913498,40.81617162,1650.09
-104.73913525,40.81610253,1650.12
-104.73913527,40.81609793,1650.10
-104.73913534,40.81608090,1650.12
-104.73913548,40.81604505,1650.11
-104.73913550,40.81603920,1650.13
-104.73913560,40.81601352,1650.14
-104.73913563,40.81600577,1650.12
-104.73913564,40.81600235,1650.12
-104.73913580,40.81596307,1650.13
-104.73913596,40.81592263,1650.17
-104.73913603,40.81590407,1650.12
-104.73913606,40.81589614,1650.13
-104.73913609,40.81588794,1650.19
-104.73913623,40.81585209,1650.14
-104.73913631,40.81583173,1650.16
-104.73913656,40.81576858,1650.16
-104.73913660,40.81575777,1650.15
-104.73913665,40.81574669,1650.14
-104.73913670,40.81573255,1650.13
-104.73913671,40.81573057,1650.15
-104.73913676,40.81571804,1650.10
-104.73913683,40.81570048,1649.97
-104.73913683,40.81570021,1650.02
-104.73913693,40.81567390,1650.05
-104.73913699,40.81565994,1650.14
-104.73913735,40.81556670,1650.23
-104.73913738,40.81555968,1650.24
-104.73913747,40.81553689,1650.26
-104.73913755,40.81551662,1650.30
-104.73913764,40.81549428,1650.39
-104.73913769,40.81547941,1650.39
-104.73913788,40.81543122,1650.46
-104.73913812,40.81537167,1650.56
-104.73913836,40.81531023,1650.72
-104.73913836,40.81530852,1650.74
-104.73913852,40.81526780,1650.86
-104.73913853,40.81526456,1650.86
-104.73913861,40.81524528,1650.93
-104.73913870,40.81522222,1651.05
-104.73913873,40.81521375,1651.05
-104.73913879,40.81520024,1651.11
-104.73913886,40.81518132,1651.21
-104.73913887,40.81517835,1651.21
-104.73913888,40.81517754,1651.21
-104.73913891,40.81516907,1651.23
-104.73913910,40.81511961,1651.41
-104.73913921,40.81509187,1651.59
-104.73913925,40.81508142,1651.66
-104.73913931,40.81506719,1651.76
-104.73913940,40.81504439,1652.00
-104.73913948,40.81502449,1652.13
-104.73913950,40.81501746,1652.12
-104.73913951,40.81501503,1652.18
-104.73913956,40.81500187,1652.14
-104.73913960,40.81499269,1652.15
-104.73913963,40.81498440,1652.14
-104.73913973,40.81495827,1652.13
-104.73913974,40.81495584,1652.14
-104.73913981,40.81493945,1652.15
-104.73913986,40.81492503,1652.15
-104.73913988,40.81492233,1652.15
-104.73913995,40.81490287,1652.15
-104.73913997,40.81489720,1652.15
-104.73914008,40.81487017,1652.16
-104.73914008,40.81486909,1652.15
-104.73914023,40.81483107,1652.15
-104.73914026,40.81482504,1652.13
-104.73914030,40.81481405,1652.13
-104.73914037,40.81479666,1652.10
-104.73914037,40.81479522,1652.12
-104.73914039,40.81479054,1652.11
-104.73914043,40.81478180,1652.08
-104.73914044,40.81477829,1652.10
-104.73914059,40.81474108,1652.09
-104.73914075,40.81469919,1652.10
-104.73914084,40.81467631,1652.09
-104.73914084,40.81467595,1652.09
-104.73914088,40.81466514,1652.12
-104.73914099,40.81463667,1652.12
-104.73914104,40.81462604,1652.12
-104.73914118,40.81458965,1652.15
-104.73914119,40.81458695,1652.14
-104.73914119,40.81458659,1652.15
-104.73914125,40.81457127,1652.17
-104.73914146,40.81451857,1652.25
-104.73914150,40.81450695,1652.26
-104.73914150,40.81450659,1652.25
-104.73914151,40.81450434,1652.25
-104.73914152,40.81450281,1652.25
-104.73914155,40.81449533,1652.27
-104.73914155,40.81449407,1652.28
-104.73914158,40.81448650,1652.30
-104.73914163,40.81447542,1652.30
-104.73914164,40.81447110,1652.30
-104.73914168,40.81446281,1652.30
-104.73914180,40.81443164,1652.42
-104.73914184,40.81442092,1652.47
-104.73914185,40.81441741,1652.48
-104.73914186,40.81441606,1652.46
-104.73914186,40.81441516,1652.47
-104.73914188,40.81441155,1652.49
-104.73914198,40.81438588,1652.57
-104.73914210,40.81435354,1652.75
-104.73914211,40.81435111,1652.75
-104.73914212,40.81434804,1652.75
-104.73914214,40.81434408,1652.78
-104.73914228,40.81430768,1652.92
-104.73914238,40.81428363,1653.03
-104.73914244,40.81426841,1653.08
-104.73914257,40.81423463,1653.23
-104.73914263,40.81422003,1653.28
-104.73914264,40.81421778,1653.28
-104.73914264,40.81421652,1653.29
-104.73914266,40.81421111,1653.33
-104.73914275,40.81418841,1653.38
-104.73914281,40.81417418,1653.43
-104.73914285,40.81416355,1653.49
-104.73914289,40.81415310,1653.51
-104.73914293,40.81414355,1653.51
-104.73914293,40.81414274,1653.52
-104.73914298,40.81412914,1653.57
-104.73914300,40.81412355,1653.61
-104.73914301,40.81412238,1653.58
-104.73914303,40.81411616,1653.61
-104.73914312,40.81409382,1653.67
-104.73914321,40.81407166,1653.71
-104.73914321,40.81407148,1653.71
-104.73914327,40.81405590,1653.77
-104.73914335,40.81403437,1653.76
-104.73914336,40.81403257,1653.82
-104.73914352,40.81399194,1653.82
-104.73914365,40.81395807,1653.88
-104.73914371,40.81394446,1653.89
-104.73914371,40.81394230,1653.88
-104.73914373,40.81393915,1653.85
-104.73914374,40.81393528,1653.91
-104.73914382,40.81391501,1653.90
-104.73914382,40.81391483,1653.89
-104.73914392,40.81389041,1653.90
-104.73914392,40.81389032,1653.91
-104.73914402,40.81386393,1653.91
-104.73914408,40.81384897,1653.90
-104.73914416,40.81382735,1653.92
-104.73914420,40.81381708,1653.90
-104.73914448,40.81374583,1653.80
-104.73914459,40.81371844,1653.72
-104.73914463,40.81370853,1653.69
-104.73914473,40.81368241,1653.61
-104.73914475,40.81367781,1653.61
-104.73914497,40.81362133,1653.39
-104.73914511,40.81358602,1653.25
-104.73914518,40.81356773,1653.19
-104.73914520,40.81356242,1653.17
-104.73914533,40.81353053,1653.07
-104.73914541,40.81351017,1653.01
-104.73914542,40.81350755,1652.98
-104.73914548,40.81349233,1652.92
-104.73914564,40.81345152,1652.78
-104.73914573,40.81342684,1652.71
-104.73914580,40.81340873,1652.63
-104.73914583,40.81340297,1652.59
-104.73914601,40.81335684,1652.46
-104.73914606,40.81334279,1652.42
-104.73914610,40.81333252,1652.36
-104.73914612,40.81332910,1652.33
-104.73914623,40.81329982,1652.26
-104.73914625,40.81329396,1652.25
-104.73914634,40.81327198,1652.16
-104.73914637,40.81326325,1652.16
-104.73914642,40.81325145,1652.11
-104.73914649,40.81323262,1652.10
-104.73914652,40.81322550,1652.07
-104.73914652,40.81322532,1652.05
-104.73914655,40.81321784,1652.04
-104.73914666,40.81318893,1651.93
-104.73914668,40.81318586,1651.96
-104.73914680,40.81315533,1651.84
-104.73914681,40.81315145,1651.83
-104.73914695,40.81311668,1651.74
-104.73914699,40.81310668,1651.69
-104.73914705,40.81309028,1651.69
-104.73914709,40.81308110,1651.62
-104.73914723,40.81304515,1651.55
-104.73914723,40.81304389,1651.57
-104.73914736,40.81301155,1651.47
-104.73914737,40.81300912,1651.51
-104.73914740,40.81300011,1651.47
-104.73914744,40.81299218,1651.40
-104.73914744,40.81299020,1651.41
-104.73914746,40.81298543,1651.42
-104.73914758,40.81295525,1651.35
-104.73914764,40.81294101,1651.36
-104.73914783,40.81289120,1651.30
-104.73914792,40.81286760,1651.32
-104.73914793,40.81286651,1651.29
-104.73914802,40.81284219,1651.32
-104.73914832,40.81276751,1651.04
-104.73914832,40.81276508,1651.02
-104.73914839,40.81274796,1651.07
-104.73914840,40.81274526,1651.10
-104.73914847,40.81272896,1651.19
-104.73914849,40.81272184,1651.24
-104.73914839,40.81271797,1651.27
-104.73914626,40.81271787,1651.25
-104.73912515,40.81271755,1651.27
-104.73911116,40.81271743,1651.29
-104.73910855,40.81271742,1651.30
-104.73910725,40.81271742,1651.30
-104.73910263,40.81271741,1651.30
-104.73909658,40.81271740,1651.30
-104.73907263,40.81271734,1651.32
-104.73907168,40.81271734,1651.29
-104.73904808,40.81271729,1651.30
-104.73901583,40.81271721,1651.30
-104.73901263,40.81271721,1651.29
-104.73898785,40.81271715,1651.29
-104.73895335,40.81271707,1651.30
-104.73892359,40.81271701,1651.30
-104.73890806,40.81271697,1651.30
-104.73890450,40.81271696,1651.28
-104.73889893,40.81271695,1651.33
-104.73888920,40.81271693,1651.32
-104.73888837,40.81271693,1651.29
-104.73883229,40.81271680,1651.29
-104.73879814,40.81271672,1651.35
-104.73877182,40.81271666,1651.35
-104.73877064,40.81271666,1651.32
-104.73875285,40.81271662,1651.39
-104.73873151,40.81271657,1651.40
-104.73873032,40.81271657,1651.42
-104.73871965,40.81271654,1651.40
-104.73870483,40.81271651,1651.40
-104.73869902,40.81271650,1651.40
-104.73866594,40.81271642,1651.49
-104.73866558,40.81271642,1651.49
-104.73862812,40.81271634,1651.59
-104.73862693,40.81271633,1651.59
-104.73857832,40.81271622,1651.68
-104.73857725,40.81271622,1651.70
-104.73857346,40.81271621,1651.68
-104.73856919,40.81271620,1651.68
-104.73855283,40.81271617,1651.74
-104.73853279,40.81271612,1651.80
-104.73853196,40.81271612,1651.78
-104.73852485,40.81271610,1651.82
-104.73850789,40.81271606,1651.82
-104.73848619,40.81271602,1651.91
-104.73846378,40.81271596,1651.92
-104.73843379,40.81271590,1651.95
-104.73838814,40.81271579,1652.07
-104.73837735,40.81271577,1652.09
-104.73837260,40.81271576,1652.07
-104.73836644,40.81271574,1652.07
-104.73835055,40.81271571,1652.10
-104.73833360,40.81271567,1652.14
-104.73831202,40.81271562,1652.18
-104.73830976,40.81271562,1652.14
-104.73829909,40.81271559,1652.19
-104.73827775,40.81271554,1652.22
-104.73826981,40.81271553,1652.19
-104.73822937,40.81271543,1652.23
-104.73820969,40.81271539,1652.31
-104.73819546,40.81271536,1652.32
-104.73818052,40.81271532,1652.28
-104.73811911,40.81271518,1652.33
-104.73809788,40.81271513,1652.33
-104.73807405,40.81271508,1652.39
-104.73805994,40.81271505,1652.38
-104.73796556,40.81271483,1652.44
-104.73794137,40.81271478,1652.45
-104.73789418,40.81271467,1652.52
-104.73779921,40.81271446,1652.65
-104.73778558,40.81271443,1652.62
-104.73777241,40.81271440,1652.67
-104.73771764,40.81271427,1652.71
-104.73770507,40.81271424,1652.70
-104.73769404,40.81271422,1652.75
-104.73769262,40.81271421,1652.75
-104.73765373,40.81271413,1652.80
-104.73764744,40.81271411,1652.76
-104.73761010,40.81271403,1652.80
-104.73760097,40.81271401,1652.84
-104.73760014,40.81271400,1652.83
-104.73758377,40.81271397,1652.85
-104.73757571,40.81271395,1652.83
-104.73752402,40.81271383,1652.90
-104.73751655,40.81271381,1652.89
-104.73748109,40.81271373,1652.93
-104.73746236,40.81271369,1652.95
-104.73743106,40.81271362,1652.97
-104.73733537,40.81271340,1653.03
-104.73729542,40.81271331,1653.10
-104.73727894,40.81271327,1653.08
-104.73726791,40.81271325,1653.08
-104.73722665,40.81271315,1653.13
-104.73717685,40.81271304,1653.15
-104.73715491,40.81271299,1653.15
-104.73712349,40.81271292,1653.15
-104.73711911,40.81271291,1653.18
-104.73710678,40.81271288,1653.12
-104.73706551,40.81271279,1653.20
-104.73702164,40.81271269,1653.25
-104.73701619,40.81271267,1653.27
-104.73699295,40.81271262,1653.23
-104.73698157,40.81271260,1653.29
-104.73696438,40.81271256,1653.28
-104.73695797,40.81271254,1653.29
-104.73695240,40.81271253,1653.30
-104.73693675,40.81271249,1653.32
-104.73691481,40.81271244,1653.39
-104.73690379,40.81271242,1653.38
-104.73684462,40.81271228,1653.42
-104.73681379,40.81271221,1653.51
-104.73681012,40.81271220,1653.51
-104.73673139,40.81271203,1653.61
-104.73671337,40.81271198,1653.63
-104.73670625,40.81271197,1653.62
-104.73668550,40.81271192,1653.69
-104.73668088,40.81271191,1653.69
-104.73662172,40.81271177,1653.77
-104.73660464,40.81271174,1653.78
-104.73648216,40.81271146,1653.99
-104.73642560,40.81271133,1654.10
-104.73640616,40.81271128,1654.15
-104.73640580,40.81271128,1654.14
-104.73634391,40.81271114,1654.21
-104.73628759,40.81271101,1654.33
-104.73628261,40.81271100,1654.33
-104.73626376,40.81271096,1654.35
-104.73621681,40.81271085,1654.44
-104.73616974,40.81271074,1654.47
-104.73612753,40.81271065,1654.58
-104.73608342,40.81271054,1654.59
-104.73608259,40.81271054,1654.59
-104.73606196,40.81271050,1654.60
-104.73604559,40.81271046,1654.64
-104.73597493,40.81271030,1654.71
-104.73588968,40.81271010,1654.77
-104.73584865,40.81271001,1654.79
-104.73584249,40.81270999,1654.77
-104.73580502,40.81270991,1654.76
-104.73579518,40.81270989,1654.76
-104.73569238,40.81270965,1654.85
-104.73567009,40.81270960,1654.89
-104.73564839,40.81270955,1654.88
-104.73563085,40.81270951,1654.89
-104.73562492,40.81270950,1654.91
-104.73556089,40.81270935,1654.96
-104.73550599,40.81270922,1654.99
-104.73544268,40.81270908,1655.06
-104.73536288,40.81270889,1655.11
-104.73523637,40.81270860,1655.08
-104.73520092,40.81270852,1655.13
-104.73512219,40.81270834,1655.15
-104.73511128,40.81270832,1655.16
-104.73510464,40.81270830,1655.16
-104.73507986,40.81270824,1655.16
-104.73501465,40.81270810,1655.19
-104.73501275,40.81270809,1655.17
-104.73499698,40.81270805,1655.22
-104.73496699,40.81270799,1655.18
-104.73493640,40.81270792,1655.23
-104.73492857,40.81270790,1655.25
-104.73487877,40.81270778,1655.26
-104.73484545,40.81270771,1655.31
-104.73472546,40.81270743,1655.47
-104.73469226,40.81270735,1655.51
-104.73467543,40.81270732,1655.47
-104.73463440,40.81270722,1655.57
-104.73463262,40.81270722,1655.57
-104.73462824,40.81270721,1655.58
-104.73460369,40.81270715,1655.58
-104.73458366,40.81270710,1655.60
-104.73457714,40.81270709,1655.62
-104.73451050,40.81270694,1655.69
-104.73450362,40.81270692,1655.71
-104.73448525,40.81270688,1655.74
-104.73447955,40.81270686,1655.74
-104.73447920,40.81270686,1655.77
-104.73447612,40.81270686,1655.77
-104.73447339,40.81270685,1655.76
-104.73444754,40.81270679,1655.81
-104.73443474,40.81270676,1655.81
-104.73443272,40.81270676,1655.81
-104.73443213,40.81270676,1655.81
-104.73438707,40.81270665,1655.91
-104.73431901,40.81270650,1655.99
-104.73431818,40.81270649,1656.01
-104.73429850,40.81270645,1655.98
-104.73429743,40.81270645,1656.00
-104.73424574,40.81270633,1656.03
-104.73423981,40.81270631,1656.04
-104.73423519,40.81270630,1656.03
-104.73419677,40.81270621,1656.10
-104.73417211,40.81270616,1656.10
-104.73414531,40.81270610,1656.11
-104.73410950,40.81270601,1656.23
-104.73408615,40.81270596,1656.16
-104.73405176,40.81270588,1656.10
-104.73403208,40.81270583,1656.11
-104.73401939,40.81270581,1656.12
-104.73400706,40.81270578,1656.09
-104.73397149,40.81270569,1656.23
-104.73391944,40.81270557,1656.28
-104.73389395,40.81270552,1656.26
-104.73383443,40.81270538,1656.30
-104.73378309,40.81270526,1656.32
-104.73376163,40.81270521,1656.34
-104.73373436,40.81270515,1656.32
-104.73369191,40.81270505,1656.34
-104.73357808,40.81270479,1656.43
-104.73355093,40.81270472,1656.47
-104.73353955,40.81270470,1656.51
-104.73349212,40.81270459,1656.52
-104.73336893,40.81270430,1656.57
-104.73330075,40.81270415,1656.63
-104.73329008,40.81270412,1656.61
-104.73324657,40.81270402,1656.58
-104.73320578,40.81270393,1656.64
-104.73317495,40.81270386,1656.66
-104.73313310,40.81270376,1656.74
-104.73305105,40.81270357,1656.78
-104.73304168,40.81270355,1656.74
-104.73301856,40.81270349,1656.78
-104.73301216,40.81270348,1656.76
-104.73298287,40.81270341,1656.79
-104.73290225,40.81270322,1656.91
-104.73289608,40.81270321,1656.92
-104.73284451,40.81270309,1657.01
-104.73283561,40.81270307,1657.08
-104.73276163,40.81270290,1657.22
-104.73275333,40.81270288,1657.27
-104.73268764,40.81270273,1657.43
-104.73265776,40.81270266,1657.53
-104.73261259,40.81270255,1657.63
-104.73225902,40.81270173,1658.42
-104.73222049,40.81270164,1658.49
-104.73221385,40.81270163,1658.51
-104.73213014,40.81270143,1658.63
-104.73212954,40.81270143,1658.66
-104.73211413,40.81270140,1658.65
-104.73203054,40.81270120,1658.83
-104.73201513,40.81270117,1658.80
-104.73190735,40.81270092,1658.88
-104.73164792,40.81270031,1659.15
-104.73158532,40.81270017,1659.20
-104.73147126,40.81269990,1659.33
-104.73143984,40.81269983,1659.34
-104.73143664,40.81269982,1659.36
-104.73143130,40.81269981,1659.39
-104.73137723,40.81269968,1659.45
-104.73136988,40.81269967,1659.47
-104.73129874,40.81269950,1659.58
-104.73123483,40.81269935,1659.68
-104.73123270,40.81269935,1659.70
-104.73122025,40.81269932,1659.70
-104.73113358,40.81269912,1659.80
-104.73100125,40.81269881,1659.95
-104.73092857,40.81269864,1659.90
-104.73090664,40.81269859,1659.90
-104.73090510,40.81269858,1659.91
-104.73087913,40.81269852,1659.89
-104.73084712,40.81269845,1659.82
-104.73083775,40.81269843,1659.81
-104.73076175,40.81269825,1659.58
-104.73074622,40.81269821,1659.56
-104.73074432,40.81269821,1659.56
-104.73054074,40.81269773,1658.76
-104.73048359,40.81269760,1658.44
-104.73047802,40.81269759,1658.40
-104.73046817,40.81269756,1658.37
-104.73046165,40.81269755,1658.32
-104.73035779,40.81269731,1657.80
-104.73035506,40.81269730,1657.76
-104.73032886,40.81269724,1657.61
-104.73028131,40.81269713,1657.31
-104.73025250,40.81269706,1657.18
-104.73020140,40.81269694,1656.88
-104.73014567,40.81269681,1656.59
-104.73012694,40.81269677,1656.49
-104.73003718,40.81269656,1655.97
-104.73003268,40.81269655,1655.93
-104.72987012,40.81269617,1654.88
-104.72982589,40.81269606,1654.59
-104.72976780,40.81269593,1654.23
-104.72976578,40.81269592,1654.22
-104.72973033,40.81269584,1653.97
-104.72971065,40.81269579,1653.86
-104.72969203,40.81269575,1653.72
-104.72966203,40.81269568,1653.54
-104.72953386,40.81269538,1652.71
-104.72926495,40.81269475,1651.06
-104.72923270,40.81269467,1650.94
-104.72915729,40.81269449,1650.57
-104.72915196,40.81269448,1650.53
-104.72913808,40.81269445,1650.47
-104.72910975,40.81269438,1650.35
-104.72887380,40.81269383,1648.90
-104.72886822,40.81269382,1648.87
-104.72886739,40.81269381,1648.87
-104.72872725,40.81269348,1647.98
-104.72870235,40.81269343,1647.76
-104.72860512,40.81269320,1647.31
-104.72855521,40.81269308,1647.17
-104.72854738,40.81269306,1647.14
-104.72847588,40.81269289,1646.93
-104.72845063,40.81269283,1646.86
-104.72839787,40.81269271,1646.70
-104.72835174,40.81269260,1646.57
-104.72831013,40.81269250,1646.50
-104.72823306,40.81269232,1646.35
-104.72820721,40.81269226,1646.28
-104.72809789,40.81269200,1646.17
-104.72806801,40.81269193,1646.18
-104.72805485,40.81269190,1646.15
-104.72799972,40.81269177,1646.03
-104.72797743,40.81269172,1646.00
-104.72791909,40.81269158,1645.92
-104.72790190,40.81269154,1645.93
-104.72786917,40.81269146,1645.90
-104.72779424,40.81269129,1645.73
-104.72778381,40.81269126,1645.71
-104.72775582,40.81269120,1645.73
-104.72769026,40.81269104,1645.69
-104.72765137,40.81269095,1645.61
-104.72759908,40.81269083,1645.57
-104.72757928,40.81269078,1645.54
-104.72754466,40.81269070,1645.48
-104.72745597,40.81269049,1645.34
-104.72741067,40.81269038,1645.22
-104.72740664,40.81269037,1645.21
-104.72740652,40.81269037,1645.21
-104.72737830,40.81269030,1645.13
-104.72733965,40.81269021,1645.06
-104.72733064,40.81269019,1645.01
-104.72729471,40.81269020,1644.91
-104.72729211,40.81269028,1644.90
-104.72729197,40.81269388,1644.92
-104.72729152,40.81277460,1645.19
-104.72729132,40.81282433,1645.33
-104.72729100,40.81290243,1645.59
-104.72729080,40.81295198,1645.71
-104.72729079,40.81295261,1645.70
-104.72729068,40.81297936,1645.74
-104.72729064,40.81299035,1645.78
-104.72729057,40.81300630,1645.85
-104.72729044,40.81304017,1645.91
-104.72729035,40.81306071,1645.98
-104.72729034,40.81306449,1645.98
-104.72729032,40.81306782,1645.97
-104.72729012,40.81311764,1646.09
-104.72728995,40.81315980,1646.17
-104.72728977,40.81320385,1646.20
-104.72728963,40.81323700,1646.27
-104.72728959,40.81324646,1646.24
-104.72728943,40.81328547,1646.34
-104.72728924,40.81333177,1646.41
-104.72728888,40.81341960,1646.30
-104.72728866,40.81347338,1646.33
-104.72728855,40.81350059,1646.31
-104.72728822,40.81358040,1646.27
-104.72728816,40.81359500,1646.23
-104.72728810,40.81361040,1646.23
-104.72728791,40.81365670,1646.17
-104.72728771,40.81370607,1646.09
-104.72728751,40.81375553,1646.01
-104.72728744,40.81377138,1645.96
-104.72728723,40.81382399,1645.90
-104.72728699,40.81388065,1645.80
-104.72728659,40.81397849,1645.55
-104.72728632,40.81404614,1645.37
-104.72728629,40.81405163,1645.34
-104.72728606,40.81410821,1645.19
-104.72728600,40.81412460,1645.11
-104.72728556,40.81423009,1644.79
-104.72728551,40.81424198,1644.75
-104.72728550,40.81424441,1644.74
-104.72728527,40.81430126,1644.55
-104.72728488,40.81439720,1644.25
-104.72728471,40.81443756,1644.08
-104.72728456,40.81447512,1643.96
-104.72728430,40.81453935,1643.70
-104.72728384,40.81464988,1643.24
-104.72728368,40.81469078,1643.07
-104.72728348,40.81473925,1642.85
-104.72728330,40.81478168,1642.65
-104.72728275,40.81491734,1642.06
-104.72728258,40.81495950,1641.81
-104.72728257,40.81496022,1641.83
-104.72728225,40.81503860,1641.47
-104.72728205,40.81508904,1641.21
-104.72728187,40.81513247,1641.03
-104.72728170,40.81517336,1640.86
-104.72728135,40.81525777,1640.53
-104.72728105,40.81533308,1640.26
-104.72728080,40.81539317,1639.84
-104.72728076,40.81540236,1639.86
-104.72728007,40.81557100,1639.16
-104.72727980,40.81563640,1638.90
-104.72727952,40.81570576,1638.71
-104.72727944,40.81572468,1638.68
-104.72727938,40.81573936,1638.60
-104.72727922,40.81577855,1638.53
-104.72727920,40.81578314,1638.55
-104.72727838,40.81598403,1638.56
-104.72727806,40.81606286,1638.66
-104.72727699,40.81635158,1639.52
-104.72727612,40.81653589,1640.48
-104.72727567,40.81664570,1641.11
-104.72727535,40.81672317,1641.57
-104.72727519,40.81676299,1641.83
-104.72727468,40.81691685,1642.76
-104.72727303,40.81728953,1645.27
-104.72727287,40.81732989,1645.51
-104.72727244,40.81743394,1646.10
-104.72727229,40.81747087,1646.27
-104.72727172,40.81761077,1646.91
-104.72727070,40.81788868,1647.70
-104.72726938,40.81818182,1647.68
-104.72726926,40.81821055,1647.61
-104.72726900,40.81827415,1647.68
-104.72726854,40.81838703,1647.61
-104.72726826,40.81848405,1647.75
-104.72726650,40.81888429,1648.29
-104.72726589,40.81903500,1648.31
-104.72726568,40.81908563,1648.27
-104.72726422,40.81944219,1647.20
-104.72726339,40.81964505,1646.28
-104.72726320,40.81968983,1646.04
-104.72726227,40.81991792,1645.02
-104.72726208,40.81996458,1644.82
-104.72726192,40.82000350,1644.68
-104.72726157,40.82008872,1644.26
-104.72726151,40.82010358,1644.22
-104.72726109,40.82020655,1643.84
-104.72726097,40.82023493,1643.71
-104.72726093,40.82024457,1643.66
-104.72726068,40.82030546,1643.51
     </coordinates>
    </LineString>
   </MultiGeometry>
  </Placemark>
 </Document>
</kml>
