<kml>
 <Document>
  <Style id="yellow">
   <LineStyle>
   <color>ff00ffff</color>
   <width>1</width>
   </LineStyle>
  </Style>
  <Style id="red">
   <LineStyle>
   <color>ffff0000</color>
   <width>2</width>
   </LineStyle>
  </Style>
  <Style id="green">
   <LineStyle>
   <color>ff00ff00</color>
   <width>1</width>
   </LineStyle>
  </Style>
  <Placemark>
  <styleUrl>#yellow</styleUrl>
   <MultiGeometry>
    <LineString>
     <coordinates>
-104.71545074,40.80364911,1627.36
-104.71547019,40.80364735,1627.36
-104.71547187,40.80364213,1627.38
-104.71547251,40.80363096,1627.40
-104.71547360,40.80359863,1627.50
-104.71547400,40.80353386,1627.64
-104.71547559,40.80316019,1628.95
-104.71547563,40.80315136,1628.99
-104.71547744,40.80272733,1630.41
-104.71547865,40.80241663,1631.66
-104.71548038,40.80203810,1633.76
-104.71548056,40.80199612,1634.09
-104.71548121,40.80184414,1634.98
-104.71548198,40.80166361,1636.10
-104.71548203,40.80165244,1636.16
-104.71548342,40.80132580,1638.01
-104.71548466,40.80103564,1637.65
-104.71548597,40.80067332,1634.38
-104.71548771,40.80029352,1630.93
-104.71548865,40.80010137,1629.33
-104.71548876,40.80007705,1629.19
-104.71549035,40.79970302,1626.99
-104.71549101,40.79955005,1626.24
-104.71549152,40.79942970,1625.83
-104.71549156,40.79942006,1625.79
-104.71549173,40.79938034,1625.67
-104.71549305,40.79907261,1624.70
-104.71549314,40.79904928,1624.64
-104.71549345,40.79897703,1624.42
-104.71549387,40.79887929,1624.23
-104.71549432,40.79877299,1623.98
-104.71549483,40.79865462,1623.64
-104.71549617,40.79833977,1622.74
-104.71549718,40.79810312,1622.16
-104.71549727,40.79808321,1622.13
-104.71549751,40.79802709,1622.04
-104.71549760,40.79800664,1622.00
-104.71549845,40.79780755,1621.31
-104.71549934,40.79759810,1620.90
-104.71549995,40.79745469,1620.75
-104.71550025,40.79738587,1620.63
-104.71550067,40.79728740,1620.43
-104.71550093,40.79722525,1620.17
-104.71550199,40.79697760,1619.52
-104.71550228,40.79690914,1619.37
-104.71550252,40.79685428,1619.22
-104.71550365,40.79658835,1618.54
-104.71550504,40.79626305,1617.97
-104.71550547,40.79616234,1617.67
-104.71550596,40.79604658,1617.36
-104.71550691,40.79579714,1616.63
-104.71550836,40.79548472,1615.51
-104.71550892,40.79535428,1615.05
-104.71550894,40.79534987,1615.04
-104.71550959,40.79519699,1614.50
-104.71551151,40.79474774,1613.22
-104.71551154,40.79465730,1613.03
-104.71551122,40.79464802,1613.00
-104.71550958,40.79464504,1613.00
-104.71547580,40.79464451,1613.03
-104.71543289,40.79464440,1613.03
-104.71522474,40.79464389,1613.54
-104.71519736,40.79464382,1613.58
-104.71517638,40.79464377,1613.63
-104.71516061,40.79464373,1613.65
-104.71505025,40.79464346,1613.85
-104.71502370,40.79464339,1613.84
-104.71475297,40.79464272,1614.08
-104.71472239,40.79464265,1614.05
-104.71465980,40.79464249,1614.09
-104.71458251,40.79464230,1614.15
-104.71405882,40.79464100,1614.90
-104.71403298,40.79464094,1614.94
-104.71399742,40.79464085,1615.03
-104.71398118,40.79464081,1615.07
-104.71388790,40.79464058,1615.33
-104.71358551,40.79463983,1615.98
-104.71351901,40.79463966,1616.13
-104.71345690,40.79463951,1616.22
-104.71313769,40.79463872,1616.87
-104.71309691,40.79463862,1616.95
-104.71288509,40.79463818,1617.35
-104.71233556,40.79463672,1618.69
-104.71233070,40.79463716,1618.75
-104.71232937,40.79464256,1618.71
-104.71232659,40.79465526,1618.79
-104.71230200,40.79502464,1620.48
-104.71230149,40.79503346,1620.48
-104.71230094,40.79504905,1620.59
-104.71227233,40.79547084,1622.22
-104.71226727,40.79551849,1622.42
-104.71226588,40.79553875,1622.50
-104.71226282,40.79558847,1622.69
-104.71226060,40.79574549,1623.21
-104.71226098,40.79576657,1623.27
-104.71226167,40.79579837,1623.33
-104.71226269,40.79583666,1623.44
-104.71226449,40.79588657,1623.54
-104.71226820,40.79598955,1623.82
-104.71226365,40.79635726,1625.44
-104.71226298,40.79637330,1625.50
-104.71226217,40.79639816,1625.61
-104.71226256,40.79644509,1625.85
-104.71226316,40.79646924,1625.96
-104.71227012,40.79664267,1626.90
-104.71227149,40.79668132,1627.11
-104.71227480,40.79676673,1627.50
-104.71227003,40.79715769,1629.65
-104.71226653,40.79722623,1630.19
-104.71226439,40.79728352,1630.63
-104.71226422,40.79729550,1630.77
-104.71226443,40.79746622,1632.00
-104.71226442,40.79771458,1633.03
-104.71226384,40.79776773,1633.40
-104.71226326,40.79787367,1634.05
-104.71223132,40.79829816,1636.40
-104.71221999,40.79836921,1636.55
-104.71221840,40.79837930,1636.61
-104.71221546,40.79840343,1636.60
-104.71220822,40.79846017,1636.81
-104.71220391,40.79849718,1636.94
-104.71219696,40.79856860,1637.19
-104.71213313,40.79899329,1639.77
-104.71213130,40.79900409,1639.84
-104.71212960,40.79901481,1639.87
-104.71212032,40.79907631,1640.24
-104.71211983,40.79907974,1640.25
-104.71211809,40.79909955,1640.41
-104.71211397,40.79914665,1640.78
-104.71210948,40.79919844,1640.71
-104.71210756,40.79923195,1640.88
-104.71210544,40.79928266,1641.21
-104.71209817,40.79945759,1642.03
-104.71209623,40.79952272,1642.25
-104.71209576,40.79957460,1642.39
-104.71209170,40.79985656,1641.88
-104.71208472,40.80004473,1640.69
-104.71208002,40.80022714,1639.60
-104.71207846,40.80028732,1639.17
-104.71207741,40.80036578,1638.56
-104.71207607,40.80045667,1637.87
-104.71207496,40.80054910,1637.13
-104.71207501,40.80056396,1637.06
-104.71207521,40.80060000,1636.84
-104.71207566,40.80066062,1636.48
-104.71207886,40.80074351,1635.97
-104.71208552,40.80084803,1635.50
-104.71208740,40.80087938,1635.37
-104.71209337,40.80095200,1635.14
-104.71210283,40.80106770,1634.80
-104.71210881,40.80113780,1634.58
-104.71212048,40.80153600,1634.05
-104.71211966,40.80156267,1633.99
-104.71211993,40.80158141,1633.98
-104.71212052,40.80160879,1633.94
-104.71212104,40.80162600,1633.93
-104.71212162,40.80171239,1633.80
-104.71212286,40.80175456,1633.73
-104.71202576,40.80219510,1632.55
-104.71202215,40.80220707,1632.48
-104.71201392,40.80224543,1632.32
-104.71201102,40.80225894,1632.30
-104.71200708,40.80229154,1632.19
-104.71200482,40.80234991,1631.93
-104.71200318,40.80240026,1631.62
-104.71200301,40.80249467,1631.00
-104.71200525,40.80266151,1630.11
-104.71200621,40.80271377,1629.89
-104.71200837,40.80278935,1629.72
-104.71201136,40.80292097,1629.06
-104.71201345,40.80303998,1628.60
-104.71199192,40.80344018,1627.36
-104.71199154,40.80344648,1627.33
-104.71199115,40.80345558,1627.32
-104.71198952,40.80350395,1627.17
-104.71198936,40.80353899,1627.08
-104.71198956,40.80354836,1627.04
-104.71199065,40.80359908,1626.92
-104.71199231,40.80362611,1626.88
-104.71199473,40.80364216,1626.83
-104.71204795,40.80364409,1626.81
-104.71217041,40.80364458,1626.86
-104.71229714,40.80364507,1626.83
-104.71261604,40.80364587,1626.89
-104.71269464,40.80364606,1626.99
-104.71275653,40.80364622,1627.07
-104.71294123,40.80364668,1627.13
-104.71314526,40.80364718,1626.93
-104.71359955,40.80364822,1626.99
-104.71398721,40.80364918,1626.92
-104.71429793,40.80365004,1627.08
-104.71473159,40.80365112,1627.27
-104.71498861,40.80365175,1627.30
-104.71522856,40.80365225,1627.25
-104.71541149,40.80365253,1627.37
-104.71545074,40.80364911,1627.36
     </coordinates>
    </LineString>
   </MultiGeometry>
  </Placemark>
 </Document>
</kml>
