<kml>
 <Document>
  <Style id="yellow">
   <LineStyle>
   <color>ff00ffff</color>
   <width>1</width>
   </LineStyle>
  </Style>
  <Style id="red">
   <LineStyle>
   <color>ffff0000</color>
   <width>2</width>
   </LineStyle>
  </Style>
  <Style id="green">
   <LineStyle>
   <color>ff00ff00</color>
   <width>1</width>
   </LineStyle>
  </Style>
  <Placemark>
  <styleUrl>#yellow</styleUrl>
   <MultiGeometry>
    <LineString>
     <coordinates>
-104.74249176,40.81272493,1653.93
-104.74252805,40.81272502,1653.94
-104.74277396,40.81272556,1654.00
-104.74312456,40.81272634,1653.88
-104.74326554,40.81272666,1653.80
-104.74337011,40.81272689,1653.70
-104.74348631,40.81272715,1653.61
-104.74383063,40.81272792,1653.54
-104.74389620,40.81272806,1653.52
-104.74417934,40.81272860,1653.09
-104.74460369,40.81272963,1652.31
-104.74470068,40.81272984,1652.16
-104.74483680,40.81273014,1651.98
-104.74498038,40.81273046,1651.79
-104.74529791,40.81273116,1651.37
-104.74546912,40.81273154,1651.16
-104.74593426,40.81273257,1650.82
-104.74644885,40.81273370,1651.08
-104.74682056,40.81273451,1651.02
-104.74699331,40.81273489,1651.03
-104.74714958,40.81273524,1651.05
-104.74755295,40.81273612,1651.18
-104.74770543,40.81273645,1651.24
-104.74771456,40.81273647,1651.27
-104.74779649,40.81273665,1651.30
-104.74781700,40.81273670,1651.28
-104.74808556,40.81273728,1651.41
-104.74819630,40.81273753,1651.52
-104.74834771,40.81273786,1651.65
-104.74835767,40.81273788,1651.64
-104.74879412,40.81273883,1651.81
-104.74899948,40.81273928,1651.75
-104.74911413,40.81273952,1651.72
-104.74919345,40.81273970,1651.63
-104.74934890,40.81274004,1651.33
-104.74967697,40.81274075,1650.88
-104.74981392,40.81274104,1650.86
-104.75003469,40.81274152,1650.79
-104.75013168,40.81274173,1650.72
-104.75024515,40.81274198,1650.71
-104.75035198,40.81274221,1650.64
-104.75078084,40.81274314,1650.36
-104.75098383,40.81274358,1649.99
-104.75098881,40.81274323,1649.99
-104.75100292,40.81274218,1649.93
-104.75100496,40.81273714,1649.95
-104.75100527,40.81271723,1649.94
-104.75100699,40.81228887,1649.36
-104.75100736,40.81218843,1649.19
-104.75100790,40.81201223,1649.07
-104.75100942,40.81163720,1648.54
-104.75100970,40.81156279,1648.48
-104.75100975,40.81155000,1648.44
-104.75100988,40.81151505,1648.41
-104.75101047,40.81135659,1648.51
-104.75101157,40.81103157,1648.53
-104.75101174,40.81095337,1648.40
-104.75101339,40.81057673,1648.09
-104.75101449,40.81028098,1648.12
-104.75101492,40.81016729,1648.12
-104.75101574,40.80994677,1648.47
-104.75101609,40.80985407,1648.79
-104.75101721,40.80955490,1650.56
-104.75101855,40.80919483,1651.80
-104.75101918,40.80902664,1650.64
-104.75102054,40.80866369,1647.81
-104.75102173,40.80834461,1646.58
-104.75102298,40.80798022,1645.83
-104.75102415,40.80763349,1645.30
-104.75102562,40.80727288,1643.10
-104.75102667,40.80702217,1643.06
-104.75102695,40.80694803,1643.07
-104.75102714,40.80689876,1643.16
-104.75102783,40.80671309,1643.75
-104.75102826,40.80659661,1644.16
-104.75102919,40.80634942,1645.20
-104.75102951,40.80623294,1645.62
-104.75102972,40.80614358,1645.79
-104.75103125,40.80573306,1646.39
-104.75103196,40.80557623,1646.20
-104.75103289,40.80535957,1646.35
-104.75103294,40.80534669,1646.40
-104.75103378,40.80505806,1648.08
-104.75103516,40.80471916,1647.48
-104.75103641,40.80441639,1644.67
-104.75103644,40.80440927,1644.67
-104.75103672,40.80433540,1644.08
-104.75103682,40.80430630,1643.97
-104.75103699,40.80426072,1643.80
-104.75103792,40.80401281,1643.62
-104.75103791,40.80382624,1643.66
-104.75103779,40.80376111,1643.87
-104.75103771,40.80375318,1643.96
-104.75103503,40.80374002,1644.00
-104.75100956,40.80373528,1644.01
-104.75087808,40.80373491,1643.85
-104.75054875,40.80373420,1643.91
-104.75048461,40.80373406,1643.96
-104.75022806,40.80373350,1644.15
-104.75011390,40.80373326,1644.28
-104.75010690,40.80373324,1644.28
-104.74998148,40.80373297,1644.36
-104.74992078,40.80373284,1644.41
-104.74987099,40.80373273,1644.46
-104.74981574,40.80373261,1644.49
-104.74975113,40.80373247,1644.59
-104.74942096,40.80373175,1645.13
-104.74936999,40.80373164,1645.22
-104.74916169,40.80373119,1645.80
-104.74905855,40.80373097,1647.06
-104.74904741,40.80373094,1647.12
-104.74894213,40.80373071,1647.26
-104.74859964,40.80372997,1647.63
-104.74815246,40.80372899,1648.12
-104.74803225,40.80372873,1648.35
-104.74800083,40.80372866,1648.39
-104.74791808,40.80372848,1648.53
-104.74761981,40.80372783,1649.05
-104.74755816,40.80372769,1649.11
-104.74754678,40.80372767,1649.13
-104.74731536,40.80372716,1649.56
-104.74715058,40.80372680,1650.08
-104.74694797,40.80372636,1651.01
-104.74678247,40.80372599,1651.92
-104.74651597,40.80372541,1652.89
-104.74642326,40.80372521,1653.00
-104.74633032,40.80372500,1652.95
-104.74623145,40.80372478,1652.91
-104.74598759,40.80372425,1653.04
-104.74582149,40.80372388,1653.25
-104.74568101,40.80372357,1653.03
-104.74551812,40.80372321,1652.43
-104.74540775,40.80372297,1652.11
-104.74514362,40.80372239,1652.09
-104.74507521,40.80372224,1652.23
-104.74496626,40.80372199,1652.58
-104.74485802,40.80372176,1652.95
-104.74442661,40.80372080,1654.56
-104.74417671,40.80372025,1654.37
-104.74362070,40.80371901,1651.98
-104.74350215,40.80371875,1651.46
-104.74330583,40.80371831,1650.81
-104.74316036,40.80371799,1650.33
-104.74280826,40.80371729,1649.25
-104.74254828,40.80371662,1648.61
-104.74243779,40.80371638,1648.35
-104.74240436,40.80371630,1648.29
-104.74213240,40.80371570,1648.06
-104.74200828,40.80371542,1647.99
-104.74160402,40.80371451,1647.90
-104.74143816,40.80371414,1647.99
-104.74133396,40.80371391,1647.96
-104.74115885,40.80371352,1647.80
-104.74111238,40.80371341,1647.68
-104.74107136,40.80371332,1647.58
-104.74091428,40.80371297,1647.21
-104.74043806,40.80371190,1646.61
-104.74016705,40.80371129,1646.24
-104.73981922,40.80371050,1646.17
-104.73958069,40.80370997,1646.43
-104.73952367,40.80370984,1646.54
-104.73935841,40.80370946,1647.04
-104.73934691,40.80370944,1647.06
-104.73921828,40.80370915,1647.37
-104.73919185,40.80370927,1647.39
-104.73918675,40.80370953,1647.46
-104.73918662,40.80371061,1647.45
-104.73918379,40.80373718,1647.52
-104.73918282,40.80398455,1648.19
-104.73918188,40.80422480,1648.63
-104.73918153,40.80431435,1648.70
-104.73918135,40.80436083,1648.70
-104.73918039,40.80460694,1648.84
-104.73917942,40.80488557,1649.14
-104.73917840,40.80511592,1649.51
-104.73917737,40.80540950,1649.74
-104.73917644,40.80561526,1650.08
-104.73917606,40.80571291,1650.30
-104.73917559,40.80583218,1650.61
-104.73917529,40.80590812,1650.80
-104.73917529,40.80591028,1650.79
-104.73917468,40.80606604,1650.79
-104.73917452,40.80610694,1650.66
-104.73917431,40.80616027,1650.51
-104.73917405,40.80622657,1650.33
-104.73917355,40.80635377,1649.93
-104.73917295,40.80650601,1649.57
-104.73917293,40.80651133,1649.54
-104.73917224,40.80671915,1649.24
-104.73917125,40.80697067,1649.22
-104.73917025,40.80719525,1649.30
-104.73916982,40.80730533,1649.37
-104.73916894,40.80753108,1649.64
-104.73916864,40.80760856,1649.73
-104.73916807,40.80775260,1650.20
-104.73916793,40.80778782,1650.35
-104.73916778,40.80782773,1650.55
-104.73916766,40.80785710,1650.76
-104.73916747,40.80790539,1651.00
-104.73916696,40.80803673,1651.76
-104.73916692,40.80804790,1651.81
-104.73916683,40.80807114,1651.94
-104.73916646,40.80816420,1652.43
-104.73916580,40.80833320,1653.16
-104.73916564,40.80837491,1653.36
-104.73916562,40.80837806,1653.40
-104.73916500,40.80853805,1654.26
-104.73916467,40.80862129,1654.74
-104.73916454,40.80865426,1655.00
-104.73916444,40.80867903,1655.13
-104.73916438,40.80869435,1655.20
-104.73916434,40.80870660,1655.27
-104.73916415,40.80875389,1655.52
-104.73916413,40.80875921,1655.53
-104.73916396,40.80880218,1655.79
-104.73916316,40.80900847,1657.16
-104.73916292,40.80906756,1657.48
-104.73916287,40.80908234,1657.57
-104.73916252,40.80917179,1657.82
-104.73916182,40.80934944,1657.29
-104.73916152,40.80942709,1656.85
-104.73916033,40.80973104,1655.53
-104.73916026,40.80974680,1655.49
-104.73916023,40.80975563,1655.49
-104.73916012,40.80978257,1655.45
-104.73915973,40.80988346,1655.09
-104.73915833,40.81024082,1654.60
-104.73915818,40.81027983,1654.55
-104.73915813,40.81029181,1654.52
-104.73915762,40.81042307,1654.18
-104.73915715,40.81054162,1654.00
-104.73915680,40.81063170,1653.92
-104.73915673,40.81065044,1653.92
-104.73915619,40.81078584,1653.75
-104.73915606,40.81082043,1653.70
-104.73915477,40.81114960,1652.73
-104.73915476,40.81115329,1652.73
-104.73915464,40.81118410,1652.63
-104.73915461,40.81119022,1652.60
-104.73915455,40.81120527,1652.52
-104.73915444,40.81123328,1652.44
-104.73915407,40.81132904,1652.17
-104.73915346,40.81148381,1651.77
-104.73915242,40.81175073,1651.51
-104.73915212,40.81182523,1651.52
-104.73915075,40.81217701,1651.41
-104.73915035,40.81227727,1651.37
-104.73915032,40.81228601,1651.37
-104.73915010,40.81234141,1651.48
-104.73914945,40.81250888,1651.30
-104.73914930,40.81254690,1651.31
-104.73914911,40.81259545,1651.33
-104.73914889,40.81265193,1651.31
-104.73914865,40.81271274,1651.33
-104.73915219,40.81271581,1651.32
-104.73919784,40.81271754,1651.27
-104.73920246,40.81271755,1651.27
-104.73933336,40.81271784,1651.33
-104.73940675,40.81271801,1651.35
-104.73946698,40.81271814,1651.33
-104.73972937,40.81271874,1651.50
-104.73996592,40.81271927,1651.72
-104.74003457,40.81271942,1651.82
-104.74024716,40.81271990,1652.06
-104.74025605,40.81271992,1652.08
-104.74035280,40.81272014,1652.19
-104.74052698,40.81272053,1652.44
-104.74059255,40.81272068,1652.54
-104.74074301,40.81272102,1652.80
-104.74085114,40.81272126,1653.05
-104.74090616,40.81272138,1653.10
-104.74100042,40.81272160,1653.14
-104.74109195,40.81272180,1653.23
-104.74111033,40.81272184,1653.25
-104.74118811,40.81272202,1653.33
-104.74124752,40.81272215,1653.41
-104.74152425,40.81272277,1653.76
-104.74154868,40.81272283,1653.79
-104.74158413,40.81272291,1653.81
-104.74183111,40.81272346,1653.91
-104.74192300,40.81272366,1653.90
-104.74197813,40.81272379,1653.93
-104.74225155,40.81272440,1653.83
-104.74229210,40.81272449,1653.87
-104.74249176,40.81272493,1653.93
     </coordinates>
    </LineString>
   </MultiGeometry>
  </Placemark>
 </Document>
</kml>
