<kml>
 <Document>
  <Style id="yellow">
   <LineStyle>
   <color>ff00ffff</color>
   <width>1</width>
   </LineStyle>
  </Style>
  <Style id="red">
   <LineStyle>
   <color>ffff0000</color>
   <width>2</width>
   </LineStyle>
  </Style>
  <Style id="green">
   <LineStyle>
   <color>ff00ff00</color>
   <width>1</width>
   </LineStyle>
  </Style>
  <Placemark>
  <styleUrl>#yellow</styleUrl>
   <MultiGeometry>
    <LineString>
     <coordinates>
-104.77472770,40.81022269,1645.68
-104.77472747,40.81028891,1645.73
-104.77472647,40.81061979,1646.84
-104.77472489,40.81105265,1647.44
-104.77472438,40.81120173,1646.94
-104.77472311,40.81157847,1645.77
-104.77472292,40.81163405,1645.67
-104.77472261,40.81172765,1645.54
-104.77472244,40.81177647,1645.55
-104.77472105,40.81218825,1645.06
-104.77472044,40.81236905,1645.06
-104.77471998,40.81250463,1644.59
-104.77471934,40.81269399,1643.70
-104.77471943,40.81273777,1643.55
-104.77471964,40.81278101,1643.33
-104.77472163,40.81278822,1643.31
-104.77473111,40.81278923,1643.34
-104.77474059,40.81279024,1643.39
-104.77476050,40.81279235,1643.49
-104.77482785,40.81279257,1643.94
-104.77500143,40.81279291,1644.95
-104.77542875,40.81279374,1647.22
-104.77596610,40.81279479,1649.50
-104.77643919,40.81279571,1652.10
-104.77650227,40.81279547,1652.51
-104.77654982,40.81279484,1653.05
-104.77655081,40.81278268,1653.40
-104.77654816,40.81247674,1654.61
-104.77653436,40.81220790,1656.34
-104.77652300,40.81184853,1656.85
-104.77652154,40.81182357,1656.75
-104.77651867,40.81179474,1656.65
-104.77648962,40.81137092,1658.29
-104.77649240,40.81132102,1658.31
-104.77649622,40.81124266,1658.22
-104.77649762,40.81121374,1658.11
-104.77649825,40.81120149,1658.11
-104.77649943,40.81113420,1657.92
-104.77649910,40.81109033,1657.83
-104.77649910,40.81066711,1657.73
-104.77650004,40.81063297,1657.54
-104.77650061,40.81060513,1657.30
-104.77650080,40.81058351,1657.09
-104.77650065,40.81055784,1656.83
-104.77649874,40.81052657,1656.53
-104.77649691,40.81050711,1656.26
-104.77649121,40.81047242,1655.95
-104.77648771,40.81045764,1655.76
-104.77642964,40.81006061,1652.84
-104.77643030,40.81000341,1652.90
-104.77643159,40.80993927,1653.16
-104.77643202,40.80991747,1653.27
-104.77643271,40.80981621,1653.77
-104.77645329,40.80940853,1654.86
-104.77645971,40.80936611,1654.76
-104.77646093,40.80935755,1654.71
-104.77647306,40.80927380,1654.53
-104.77648245,40.80919868,1654.17
-104.77648466,40.80917545,1654.04
-104.77648920,40.80912969,1653.87
-104.77649291,40.80908484,1653.63
-104.77649700,40.80903115,1653.52
-104.77650104,40.80895855,1653.26
-104.77650396,40.80886559,1653.01
-104.77650438,40.80877596,1652.78
-104.77650450,40.80873758,1652.74
-104.77650283,40.80863461,1652.61
-104.77650221,40.80861011,1652.60
-104.77649973,40.80853398,1652.48
-104.77649475,40.80839515,1652.12
-104.77649087,40.80831415,1651.87
-104.77648833,40.80825703,1651.63
-104.77648464,40.80819190,1651.38
-104.77648341,40.80817009,1651.29
-104.77647995,40.80810613,1650.89
-104.77647972,40.80810180,1650.87
-104.77647716,40.80805288,1650.56
-104.77647423,40.80800873,1650.23
-104.77646948,40.80793891,1643.93
-104.77646238,40.80754747,1646.21
-104.77646764,40.80746352,1645.55
-104.77647510,40.80736129,1644.80
-104.77648177,40.80728149,1644.23
-104.77648431,40.80723114,1643.88
-104.77648582,40.80716925,1643.52
-104.77648532,40.80713961,1643.38
-104.77648404,40.80706205,1642.98
-104.77648887,40.80661388,1645.02
-104.77649044,40.80656893,1645.46
-104.77649803,40.80635562,1647.66
-104.77650047,40.80629923,1648.28
-104.77650201,40.80626410,1648.67
-104.77650560,40.80618484,1649.37
-104.77650907,40.80610467,1649.91
-104.77651009,40.80608188,1649.99
-104.77651229,40.80599405,1650.49
-104.77651226,40.80596648,1650.67
-104.77651072,40.80586072,1651.11
-104.77651052,40.80584784,1651.08
-104.77650849,40.80564154,1650.50
-104.77651072,40.80533093,1649.37
-104.77651084,40.80525913,1649.41
-104.77650927,40.80519670,1649.59
-104.77650820,40.80516291,1649.73
-104.77650743,40.80514480,1649.75
-104.77648939,40.80483100,1651.06
-104.77648795,40.80480190,1651.23
-104.77648568,40.80477145,1651.37
-104.77648383,40.80475766,1651.40
-104.77644943,40.80437401,1653.25
-104.77645372,40.80429673,1653.69
-104.77645659,40.80425637,1653.89
-104.77645771,40.80424034,1653.94
-104.77646938,40.80408298,1654.37
-104.77647223,40.80404597,1654.38
-104.77647703,40.80399174,1654.44
-104.77648466,40.80390870,1654.44
-104.77648908,40.80386312,1654.40
-104.77649692,40.80378828,1654.38
-104.77649183,40.80378764,1654.36
-104.77636593,40.80378721,1654.23
-104.77606706,40.80378654,1654.07
-104.77593843,40.80378638,1654.06
-104.77544501,40.80378534,1653.56
-104.77532338,40.80378510,1653.51
-104.77496073,40.80378439,1653.63
-104.77477614,40.80378421,1653.47
-104.77475348,40.80378948,1653.41
-104.77475049,40.80379641,1653.39
-104.77474916,40.80387370,1652.81
-104.77474845,40.80408441,1651.38
-104.77474837,40.80410783,1651.23
-104.77474824,40.80414810,1650.97
-104.77474787,40.80425774,1650.30
-104.77474770,40.80430818,1649.90
-104.77474753,40.80435863,1649.51
-104.77474700,40.80451277,1648.28
-104.77474635,40.80470699,1646.93
-104.77474511,40.80507345,1645.43
-104.77474417,40.80535082,1645.63
-104.77474335,40.80559270,1646.81
-104.77474319,40.80564090,1646.84
-104.77474235,40.80588980,1646.60
-104.77474217,40.80594277,1646.50
-104.77474110,40.80629302,1644.04
-104.77474061,40.80643860,1642.71
-104.77473898,40.80688668,1641.12
-104.77473878,40.80694604,1641.12
-104.77473728,40.80738746,1643.54
-104.77473688,40.80750583,1644.07
-104.77473605,40.80782239,1644.46
-104.77473542,40.80797508,1644.12
-104.77473500,40.80809841,1643.76
-104.77473375,40.80846839,1644.43
-104.77473313,40.80861513,1644.93
-104.77473248,40.80880756,1645.59
-104.77473224,40.80887989,1645.92
-104.77473155,40.80908168,1646.62
-104.77473142,40.80912060,1646.82
-104.77473064,40.80935221,1648.87
-104.77472926,40.80976110,1651.34
-104.77472855,40.80997091,1648.72
-104.77472818,40.81007955,1646.95
-104.77472777,40.81019936,1645.70
-104.77472770,40.81022269,1645.68
     </coordinates>
    </LineString>
   </MultiGeometry>
  </Placemark>
 </Document>
</kml>
