<kml>
 <Document>
  <Style id="yellow">
   <LineStyle>
   <color>ff00ffff</color>
   <width>1</width>
   </LineStyle>
  </Style>
  <Style id="red">
   <LineStyle>
   <color>ffff0000</color>
   <width>2</width>
   </LineStyle>
  </Style>
  <Style id="green">
   <LineStyle>
   <color>ff00ff00</color>
   <width>1</width>
   </LineStyle>
  </Style>
  <Placemark>
  <styleUrl>#yellow</styleUrl>
   <MultiGeometry>
    <LineString>
     <coordinates>
-104.71731014,40.83068299,1634.87
-104.71735379,40.83068310,1634.62
-104.71749919,40.83068345,1633.60
-104.71762040,40.83068375,1633.65
-104.71763214,40.83068378,1633.67
-104.71767389,40.83068388,1633.63
-104.71803585,40.83068477,1633.65
-104.71834457,40.83068552,1633.68
-104.71837730,40.83068560,1633.63
-104.71852946,40.83068597,1633.57
-104.71868234,40.83068635,1633.54
-104.71888170,40.83068683,1633.46
-104.71893235,40.83068695,1633.44
-104.71902651,40.83068718,1633.55
-104.71915792,40.83068750,1633.64
-104.71941789,40.83068814,1633.51
-104.71980073,40.83068898,1633.34
-104.72010707,40.83068981,1634.03
-104.72038922,40.83069049,1633.54
-104.72086493,40.83069156,1633.86
-104.72108279,40.83069217,1633.80
-104.72111529,40.83069225,1633.82
-104.72130185,40.83069270,1633.86
-104.72138000,40.83069289,1633.85
-104.72146966,40.83069311,1633.82
-104.72152446,40.83069324,1633.75
-104.72155399,40.83069331,1633.72
-104.72157996,40.83069337,1633.84
-104.72170734,40.83069368,1633.79
-104.72173924,40.83069376,1633.81
-104.72185926,40.83069405,1633.80
-104.72186923,40.83069407,1633.79
-104.72191417,40.83069418,1633.78
-104.72222514,40.83069493,1633.70
-104.72238537,40.83069531,1633.80
-104.72241502,40.83069539,1633.80
-104.72242830,40.83069542,1633.85
-104.72247207,40.83069552,1633.79
-104.72248061,40.83069554,1633.80
-104.72254477,40.83069570,1633.80
-104.72259755,40.83069582,1633.80
-104.72264000,40.83069593,1633.75
-104.72284459,40.83069642,1633.88
-104.72290140,40.83069656,1633.85
-104.72293389,40.83069663,1634.04
-104.72304893,40.83069691,1633.78
-104.72310906,40.83069705,1633.70
-104.72322885,40.83069734,1633.84
-104.72326075,40.83069742,1633.87
-104.72347838,40.83069794,1634.12
-104.72353413,40.83069807,1634.16
-104.72364763,40.83069835,1634.14
-104.72379635,40.83069870,1634.23
-104.72380477,40.83069872,1634.18
-104.72386917,40.83069888,1634.31
-104.72410091,40.83069943,1634.62
-104.72411645,40.83069947,1634.69
-104.72461350,40.83070065,1636.11
-104.72466035,40.83070077,1636.15
-104.72484785,40.83070121,1635.61
-104.72526082,40.83070220,1634.63
-104.72545722,40.83070267,1631.65
-104.72574897,40.83070336,1632.91
-104.72584279,40.83070358,1632.95
-104.72595901,40.83070386,1632.99
-104.72617142,40.83070436,1634.04
-104.72636783,40.83070483,1633.49
-104.72659411,40.83070537,1633.45
-104.72663930,40.83070547,1633.56
-104.72664760,40.83070549,1633.48
-104.72683511,40.83070594,1633.56
-104.72700743,40.83070634,1633.82
-104.72706211,40.83070647,1634.13
-104.72714323,40.83070667,1634.52
-104.72717502,40.83070656,1634.65
-104.72719186,40.83070606,1634.75
-104.72721357,40.83070386,1634.84
-104.72721740,40.83069585,1634.83
-104.72721806,40.83068000,1634.82
-104.72721837,40.83060397,1634.73
-104.72721867,40.83053055,1634.87
-104.72721916,40.83041155,1635.33
-104.72721945,40.83034047,1635.52
-104.72722008,40.83018643,1635.73
-104.72722074,40.83002509,1635.86
-104.72722117,40.82991933,1635.66
-104.72722132,40.82988456,1635.55
-104.72722159,40.82981726,1635.36
-104.72722188,40.82974790,1635.29
-104.72722225,40.82965718,1635.06
-104.72722228,40.82964962,1635.02
-104.72722235,40.82963223,1635.04
-104.72722251,40.82959431,1634.95
-104.72722431,40.82915460,1632.65
-104.72722451,40.82910659,1632.32
-104.72722479,40.82903777,1631.77
-104.72722503,40.82897840,1631.17
-104.72722541,40.82888642,1630.23
-104.72722562,40.82883418,1630.23
-104.72722566,40.82882598,1630.28
-104.72722642,40.82864022,1631.40
-104.72722682,40.82854077,1631.68
-104.72722697,40.82850465,1631.85
-104.72722724,40.82843826,1632.38
-104.72722779,40.82830493,1633.23
-104.72722833,40.82817269,1634.21
-104.72722856,40.82811729,1634.52
-104.72722881,40.82805621,1634.78
-104.72722885,40.82804738,1634.80
-104.72722889,40.82803567,1634.84
-104.72722915,40.82797414,1635.09
-104.72722985,40.82780343,1636.06
-104.72723030,40.82769281,1636.63
-104.72723088,40.82755192,1636.97
-104.72723114,40.82748778,1637.02
-104.72723124,40.82746409,1637.00
-104.72723189,40.82730401,1636.83
-104.72723191,40.82729878,1636.81
-104.72723218,40.82723401,1636.57
-104.72723232,40.82719924,1636.40
-104.72723233,40.82719789,1636.40
-104.72723238,40.82718456,1636.49
-104.72723306,40.82701889,1635.95
-104.72723308,40.82701421,1635.95
-104.72723311,40.82700637,1635.96
-104.72723346,40.82692232,1635.96
-104.72723356,40.82689620,1635.97
-104.72723359,40.82689043,1636.04
-104.72723425,40.82672855,1636.03
-104.72723454,40.82665657,1635.93
-104.72723512,40.82651550,1635.81
-104.72723564,40.82638830,1635.41
-104.72723592,40.82632173,1635.08
-104.72723623,40.82624516,1634.71
-104.72723724,40.82599914,1633.90
-104.72723854,40.82568249,1633.35
-104.72723871,40.82564079,1633.33
-104.72723990,40.82534882,1633.48
-104.72724065,40.82516568,1633.70
-104.72724082,40.82512577,1633.85
-104.72724088,40.82510929,1633.94
-104.72724093,40.82509794,1634.00
-104.72724139,40.82498497,1634.32
-104.72724172,40.82490552,1634.58
-104.72724232,40.82475814,1634.96
-104.72724263,40.82468400,1635.28
-104.72724264,40.82468085,1635.28
-104.72724266,40.82467679,1635.31
-104.72724353,40.82446230,1636.37
-104.72724405,40.82433709,1636.89
-104.72724439,40.82425439,1637.30
-104.72724455,40.82421412,1637.57
-104.72724505,40.82409269,1638.31
-104.72724523,40.82404918,1638.54
-104.72724588,40.82388937,1639.49
-104.72724629,40.82378938,1640.14
-104.72724665,40.82370181,1640.66
-104.72724675,40.82367848,1640.79
-104.72724715,40.82357921,1641.31
-104.72724722,40.82356200,1641.35
-104.72724892,40.82314897,1642.98
-104.72724939,40.82303375,1642.99
-104.72724990,40.82290781,1642.79
-104.72725049,40.82276431,1642.13
-104.72725118,40.82259621,1641.14
-104.72725153,40.82251090,1640.73
-104.72725154,40.82250811,1640.71
-104.72725168,40.82247307,1640.54
-104.72725193,40.82241199,1640.22
-104.72725197,40.82240424,1640.16
-104.72725324,40.82209318,1639.69
-104.72725330,40.82207832,1639.68
-104.72725422,40.82185428,1639.75
-104.72725461,40.82175933,1639.85
-104.72725477,40.82171924,1639.94
-104.72725469,40.82170987,1639.96
-104.72725317,40.82170456,1639.95
-104.72725176,40.82170104,1639.98
-104.72723043,40.82169892,1639.81
-104.72722106,40.82169880,1639.81
-104.72715655,40.82169838,1639.58
-104.72699468,40.82169791,1638.99
-104.72672218,40.82169726,1638.12
-104.72663965,40.82169707,1637.85
-104.72651928,40.82169678,1637.66
-104.72646390,40.82169665,1637.58
-104.72644493,40.82169661,1637.53
-104.72621274,40.82169606,1637.31
-104.72613495,40.82169587,1637.22
-104.72602028,40.82169560,1637.13
-104.72591427,40.82169535,1636.99
-104.72576094,40.82169498,1636.81
-104.72568884,40.82169481,1636.71
-104.72554595,40.82169447,1636.44
-104.72536582,40.82169404,1636.23
-104.72529028,40.82169386,1636.23
-104.72526206,40.82169380,1636.24
-104.72514846,40.82169352,1636.12
-104.72480302,40.82169270,1635.87
-104.72444964,40.82169186,1635.71
-104.72418082,40.82169122,1635.71
-104.72411346,40.82169105,1635.77
-104.72395515,40.82169068,1635.83
-104.72374846,40.82169018,1635.68
-104.72369723,40.82169006,1635.60
-104.72348805,40.82168956,1635.29
-104.72342224,40.82168940,1635.10
-104.72326013,40.82168901,1634.79
-104.72321590,40.82168890,1634.59
-104.72299605,40.82168838,1633.82
-104.72286229,40.82168806,1633.22
-104.72274430,40.82168777,1632.94
-104.72265998,40.82168757,1632.76
-104.72265263,40.82168755,1632.74
-104.72255456,40.82168732,1632.57
-104.72248400,40.82168715,1632.38
-104.72237645,40.82168689,1631.93
-104.72222573,40.82168652,1631.40
-104.72215707,40.82168636,1631.09
-104.72211118,40.82168625,1630.91
-104.72199224,40.82168596,1630.48
-104.72191516,40.82168578,1630.17
-104.72188196,40.82168570,1630.04
-104.72154850,40.82168489,1628.83
-104.72137217,40.82168447,1628.45
-104.72115872,40.82168395,1628.19
-104.72108508,40.82168377,1628.48
-104.72099886,40.82168356,1628.73
-104.72079466,40.82168307,1628.37
-104.72042089,40.82168217,1628.20
-104.72032069,40.82168192,1628.12
-104.71998628,40.82168111,1626.59
-104.71976726,40.82168058,1626.03
-104.71965377,40.82168030,1625.63
-104.71962235,40.82168023,1625.29
-104.71957622,40.82168012,1625.40
-104.71949606,40.82167992,1624.76
-104.71939917,40.82167969,1623.92
-104.71927822,40.82167939,1624.45
-104.71922841,40.82167927,1624.52
-104.71904070,40.82167881,1624.60
-104.71901722,40.82167876,1624.62
-104.71879274,40.82167821,1625.06
-104.71870012,40.82167798,1625.10
-104.71868246,40.82167794,1625.14
-104.71867925,40.82167793,1625.13
-104.71865328,40.82167787,1625.15
-104.71864178,40.82167784,1625.17
-104.71852047,40.82167754,1625.16
-104.71840651,40.82167727,1625.16
-104.71824204,40.82167687,1624.92
-104.71814456,40.82167663,1625.08
-104.71806677,40.82167644,1625.26
-104.71799337,40.82167626,1626.04
-104.71793218,40.82167611,1625.19
-104.71792257,40.82167608,1625.22
-104.71783209,40.82167586,1625.12
-104.71776569,40.82167570,1625.05
-104.71768351,40.82167550,1625.03
-104.71756730,40.82167522,1624.89
-104.71755093,40.82167518,1624.85
-104.71737922,40.82167475,1624.83
-104.71730819,40.82167458,1624.80
-104.71718451,40.82167428,1624.73
-104.71704351,40.82167393,1623.86
-104.71692967,40.82167365,1623.40
-104.71668290,40.82167305,1623.05
-104.71664448,40.82167295,1623.29
-104.71660084,40.82167285,1623.43
-104.71650550,40.82167261,1623.55
-104.71648380,40.82167256,1623.58
-104.71645546,40.82167249,1623.55
-104.71645131,40.82167248,1623.54
-104.71637897,40.82167230,1623.60
-104.71634055,40.82167221,1623.53
-104.71630533,40.82167212,1623.56
-104.71583586,40.82167096,1622.53
-104.71569332,40.82167061,1622.24
-104.71549470,40.82167021,1624.38
-104.71541430,40.82167011,1624.60
-104.71540955,40.82167063,1624.62
-104.71539970,40.82167178,1624.59
-104.71539660,40.82167646,1624.61
-104.71539576,40.82187374,1625.00
-104.71539563,40.82190392,1625.02
-104.71539546,40.82194275,1624.97
-104.71539491,40.82207229,1624.98
-104.71539473,40.82211436,1625.02
-104.71539366,40.82236389,1625.31
-104.71539359,40.82237992,1625.33
-104.71539271,40.82258694,1625.60
-104.71539100,40.82298718,1626.09
-104.71539088,40.82301511,1626.17
-104.71538946,40.82334572,1626.53
-104.71538945,40.82334905,1626.54
-104.71538889,40.82347904,1626.75
-104.71538762,40.82377659,1627.06
-104.71538760,40.82378118,1627.04
-104.71538736,40.82383694,1627.09
-104.71538673,40.82398486,1627.18
-104.71538636,40.82407197,1627.53
-104.71538579,40.82420467,1627.38
-104.71538475,40.82444762,1627.84
-104.71538361,40.82474265,1628.18
-104.71538254,40.82496624,1629.71
-104.71538219,40.82504785,1630.28
-104.71538176,40.82514884,1630.66
-104.71538131,40.82525315,1630.71
-104.71538029,40.82549224,1631.35
-104.71537986,40.82559223,1631.11
-104.71537885,40.82585537,1630.93
-104.71537724,40.82623309,1631.96
-104.71537533,40.82665153,1634.73
-104.71537518,40.82668765,1634.97
-104.71537454,40.82683638,1635.85
-104.71537393,40.82697988,1635.84
-104.71537391,40.82698484,1635.82
-104.71537371,40.82703123,1635.82
-104.71537342,40.82709871,1635.74
-104.71537221,40.82738247,1635.16
-104.71537178,40.82748255,1635.17
-104.71537116,40.82762696,1635.08
-104.71537114,40.82763290,1635.22
-104.71537062,40.82775371,1635.07
-104.71537024,40.82784217,1635.16
-104.71536922,40.82808197,1635.39
-104.71536748,40.82848672,1635.34
-104.71536650,40.82871634,1635.14
-104.71536644,40.82873103,1635.13
-104.71536541,40.82902821,1634.97
-104.71536412,40.82927252,1635.25
-104.71536364,40.82938585,1635.32
-104.71536273,40.82959809,1635.87
-104.71536093,40.83004787,1636.21
-104.71536067,40.83008094,1636.24
-104.71535981,40.83028074,1636.74
-104.71535823,40.83065189,1636.93
-104.71535883,40.83067792,1636.96
-104.71547446,40.83067848,1637.08
-104.71564607,40.83067890,1636.86
-104.71591838,40.83067957,1636.82
-104.71643002,40.83068083,1636.21
-104.71654138,40.83068110,1636.06
-104.71657637,40.83068119,1636.47
-104.71686065,40.83068189,1636.10
-104.71720566,40.83068274,1635.38
-104.71724847,40.83068284,1635.20
-104.71731014,40.83068299,1634.87
     </coordinates>
    </LineString>
   </MultiGeometry>
  </Placemark>
 </Document>
</kml>
