<kml>
 <Document>
  <Style id="yellow">
   <LineStyle>
   <color>ff00ffff</color>
   <width>1</width>
   </LineStyle>
  </Style>
  <Style id="red">
   <LineStyle>
   <color>ffff0000</color>
   <width>2</width>
   </LineStyle>
  </Style>
  <Style id="green">
   <LineStyle>
   <color>ff00ff00</color>
   <width>1</width>
   </LineStyle>
  </Style>
  <Placemark>
  <styleUrl>#yellow</styleUrl>
   <MultiGeometry>
    <LineString>
     <coordinates>
-104.77471662,40.81360141,1641.27
-104.77470226,40.81774287,1656.23
-104.77470091,40.81814230,1658.86
-104.77470159,40.81822077,1658.94
-104.77474287,40.81821689,1658.90
-104.77478225,40.81821264,1658.82
-104.77483196,40.81820589,1658.65
-104.77483090,40.81820192,1658.63
-104.77482563,40.81818299,1658.60
-104.77481919,40.81816010,1658.39
-104.77480407,40.81810593,1658.38
-104.77480185,40.81809800,1658.35
-104.77479119,40.81805996,1658.19
-104.77478474,40.81803689,1658.16
-104.77477935,40.81801760,1658.05
-104.77477830,40.81801381,1658.06
-104.77477724,40.81801003,1658.06
-104.77477514,40.81800255,1658.00
-104.77477197,40.81799128,1657.95
-104.77476975,40.81798335,1657.94
-104.77476646,40.81797172,1657.85
-104.77476025,40.81794955,1657.66
-104.77475815,40.81794197,1657.60
-104.77475287,40.81792314,1657.47
-104.77475065,40.81791521,1657.47
-104.77474655,40.81790060,1657.32
-104.77474233,40.81788555,1657.22
-104.77473811,40.81787050,1657.10
-104.77473483,40.81785887,1657.06
-104.77473073,40.81784427,1656.94
-104.77472651,40.81782922,1656.83
-104.77472229,40.81781407,1656.74
-104.77472018,40.81780659,1656.71
-104.77471187,40.81777694,1656.46
-104.77470976,40.81776946,1656.45
-104.77470554,40.81775450,1656.32
-104.77470226,40.81774287,1656.23
-104.77471662,40.81360141,1641.27
-104.77471903,40.81359024,1641.28
-104.77472060,40.81358295,1641.28
-104.77472289,40.81357232,1641.34
-104.77472530,40.81356116,1641.37
-104.77472843,40.81354657,1641.41
-104.77473313,40.81352469,1641.48
-104.77474096,40.81348849,1641.52
-104.77474180,40.81348462,1641.53
-104.77475842,40.81340862,1641.53
-104.77475999,40.81340133,1641.54
-104.77476312,40.81338665,1641.63
-104.77477095,40.81335036,1641.70
-104.77477890,40.81331362,1641.75
-104.77478191,40.81329966,1641.77
-104.77478432,40.81328850,1641.78
-104.77478902,40.81326670,1641.83
-104.77480154,40.81320862,1641.97
-104.77481239,40.81315784,1642.19
-104.77481853,40.81312902,1642.35
-104.77482480,40.81309958,1642.53
-104.77482781,40.81308535,1642.63
-104.77483239,40.81306383,1642.76
-104.77484239,40.81301655,1643.10
-104.77485407,40.81296216,1643.44
-104.77485950,40.81293668,1643.58
-104.77486251,40.81292254,1643.67
-104.77487263,40.81287527,1643.86
-104.77488106,40.81283574,1644.02
-104.77488648,40.81281052,1644.14
-104.77488877,40.81279954,1644.19
-104.77488949,40.81279603,1644.22
-104.77488286,40.81279376,1644.17
-104.77484006,40.81279296,1643.91
-104.77473015,40.81279247,1643.27
-104.77472433,40.81279462,1643.24
-104.77472361,40.81279804,1643.19
-104.77472289,40.81280174,1643.20
-104.77472144,40.81280912,1643.18
-104.77472071,40.81281290,1643.17
-104.77471939,40.81282011,1643.12
-104.77471893,40.81285028,1643.01
-104.77471869,40.81288461,1642.85
-104.77471835,40.81298676,1642.50
-104.77471760,40.81320675,1641.71
-104.77471711,40.81335251,1641.53
-104.77471672,40.81346817,1641.47
-104.77471663,40.81349565,1641.45
-104.77471662,40.81360141,1641.27
     </coordinates>
    </LineString>
   </MultiGeometry>
  </Placemark>
 </Document>
</kml>
