<kml>
 <Document>
  <Style id="yellow">
   <LineStyle>
   <color>ff00ffff</color>
   <width>1</width>
   </LineStyle>
  </Style>
  <Style id="red">
   <LineStyle>
   <color>ffff0000</color>
   <width>2</width>
   </LineStyle>
  </Style>
  <Style id="green">
   <LineStyle>
   <color>ff00ff00</color>
   <width>1</width>
   </LineStyle>
  </Style>
  <Placemark>
  <styleUrl>#yellow</styleUrl>
   <MultiGeometry>
    <LineString>
     <coordinates>
-104.76579768,40.82178311,1658.16
-104.76582448,40.82178316,1657.93
-104.76599323,40.82178351,1656.95
-104.76601742,40.82178356,1656.81
-104.76604220,40.82178361,1656.68
-104.76607802,40.82178368,1656.48
-104.76617265,40.82178387,1656.05
-104.76624475,40.82178402,1655.71
-104.76631827,40.82178417,1655.43
-104.76633748,40.82178420,1655.35
-104.76648630,40.82178451,1654.69
-104.76650658,40.82178455,1654.63
-104.76664105,40.82178482,1654.15
-104.76684846,40.82178524,1653.59
-104.76718275,40.82178591,1652.60
-104.76732493,40.82178620,1652.21
-104.76735659,40.82178626,1652.11
-104.76778658,40.82178704,1651.18
-104.76802422,40.82178761,1650.82
-104.76833479,40.82178823,1650.85
-104.76840464,40.82178837,1650.83
-104.76860267,40.82178877,1651.03
-104.76869683,40.82178896,1651.05
-104.76872007,40.82178900,1651.06
-104.76876074,40.82178909,1651.02
-104.76894906,40.82178946,1650.83
-104.76905661,40.82178968,1650.75
-104.76906171,40.82178969,1650.80
-104.76911839,40.82178980,1650.70
-104.76934038,40.82179025,1650.48
-104.76944426,40.82179045,1650.32
-104.76956806,40.82179070,1650.12
-104.76963127,40.82179083,1649.99
-104.76993330,40.82179143,1649.06
-104.77012114,40.82179181,1648.22
-104.77012600,40.82179181,1648.17
-104.77018802,40.82179194,1648.07
-104.77033269,40.82179223,1648.19
-104.77034538,40.82179225,1648.19
-104.77048614,40.82179253,1648.24
-104.77056880,40.82179270,1648.46
-104.77085826,40.82179327,1649.49
-104.77087723,40.82179331,1649.55
-104.77095194,40.82179346,1649.74
-104.77100519,40.82179356,1649.83
-104.77131066,40.82179417,1650.10
-104.77137647,40.82179430,1650.24
-104.77166902,40.82179488,1650.52
-104.77177361,40.82179509,1650.30
-104.77182365,40.82179519,1650.14
-104.77196251,40.82179546,1649.74
-104.77223182,40.82179599,1649.60
-104.77235693,40.82179624,1649.61
-104.77243187,40.82179639,1649.54
-104.77257109,40.82179666,1649.44
-104.77303582,40.82179758,1647.67
-104.77344209,40.82179837,1648.76
-104.77377946,40.82179904,1649.59
-104.77410438,40.82179958,1650.33
-104.77468627,40.82180081,1651.89
-104.77468843,40.82179568,1651.92
-104.77468985,40.82137526,1653.11
-104.77469061,40.82115149,1653.67
-104.77469095,40.82104897,1654.08
-104.77469160,40.82085826,1655.11
-104.77469173,40.82082007,1655.30
-104.77469179,40.82080106,1655.40
-104.77469266,40.82054351,1657.26
-104.77469362,40.82022461,1659.48
-104.77469437,40.82003903,1660.26
-104.77469438,40.82003525,1660.28
-104.77469509,40.81982517,1659.49
-104.77469555,40.81968932,1658.85
-104.77469579,40.81962068,1658.67
-104.77469640,40.81943808,1658.10
-104.77469648,40.81941421,1658.09
-104.77469714,40.81922088,1657.65
-104.77469835,40.81886226,1657.98
-104.77469863,40.81878100,1658.07
-104.77470008,40.81835238,1659.00
-104.77470025,40.81830265,1659.10
-104.77470042,40.81825040,1659.19
-104.77470098,40.81808564,1658.78
-104.77470121,40.81801690,1658.53
-104.77470135,40.81793988,1658.04
-104.77470288,40.81752315,1654.63
-104.77470413,40.81715516,1652.92
-104.77470458,40.81702228,1652.56
-104.77470514,40.81682220,1652.32
-104.77470624,40.81653204,1652.45
-104.77470634,40.81650114,1652.47
-104.77470732,40.81617594,1652.91
-104.77470812,40.81593901,1651.82
-104.77470940,40.81559795,1649.67
-104.77470944,40.81558471,1649.61
-104.77471041,40.81526455,1647.27
-104.77471104,40.81511303,1646.24
-104.77471160,40.81494628,1644.98
-104.77471169,40.81491989,1644.72
-104.77471206,40.81474080,1643.39
-104.77471374,40.81431461,1641.16
-104.77471460,40.81402481,1640.76
-104.77471558,40.81376852,1641.18
-104.77471565,40.81374888,1641.26
-104.77471572,40.81372942,1641.23
-104.77471636,40.81353970,1641.42
-104.77471650,40.81349880,1641.48
-104.77471661,40.81346601,1641.49
-104.77471683,40.81340115,1641.53
-104.77471684,40.81339701,1641.49
-104.77471758,40.81317846,1641.84
-104.77471863,40.81286812,1642.99
-104.77471876,40.81283056,1643.15
-104.77471865,40.81279344,1643.30
-104.77471367,40.81279289,1643.24
-104.77459119,40.81279229,1642.66
-104.77435571,40.81279174,1641.69
-104.77417596,40.81279139,1641.00
-104.77365818,40.81279046,1639.67
-104.77314691,40.81278937,1639.59
-104.77310458,40.81278929,1639.61
-104.77293681,40.81278905,1640.08
-104.77236057,40.81278782,1642.33
-104.77217181,40.81278745,1643.22
-104.77189625,40.81278690,1644.53
-104.77176002,40.81278663,1645.34
-104.77172753,40.81278657,1645.58
-104.77171046,40.81278654,1645.72
-104.77162461,40.81278637,1646.34
-104.77145174,40.81278602,1647.52
-104.77132713,40.81278578,1648.25
-104.77122777,40.81278558,1648.68
-104.77117168,40.81278547,1648.90
-104.77113350,40.81278539,1649.03
-104.77105454,40.81278524,1649.26
-104.77095542,40.81278504,1649.44
-104.77092257,40.81278497,1649.48
-104.77070370,40.81278454,1649.48
-104.77055833,40.81278425,1649.40
-104.77051719,40.81278417,1649.39
-104.77033495,40.81278381,1649.39
-104.77013599,40.81278341,1649.59
-104.77006924,40.81278328,1649.68
-104.76984408,40.81278292,1649.61
-104.76947225,40.81278209,1649.00
-104.76925693,40.81278166,1648.55
-104.76921673,40.81278158,1648.47
-104.76897663,40.81278109,1648.01
-104.76864334,40.81278052,1647.56
-104.76835368,40.81277985,1647.15
-104.76830862,40.81277976,1647.16
-104.76795730,40.81277905,1647.01
-104.76771590,40.81277856,1647.09
-104.76766515,40.81277846,1647.08
-104.76728917,40.81277779,1647.49
-104.76692137,40.81277696,1648.07
-104.76683399,40.81277678,1648.18
-104.76641260,40.81277602,1648.42
-104.76594402,40.81277498,1647.40
-104.76557077,40.81277431,1646.14
-104.76526225,40.81277360,1645.23
-104.76516194,40.81277339,1644.94
-104.76484608,40.81277275,1644.29
-104.76483920,40.81277274,1644.28
-104.76435544,40.81277175,1643.60
-104.76411677,40.81277135,1643.48
-104.76366941,40.81277035,1642.69
-104.76358060,40.81277016,1642.36
-104.76341615,40.81276983,1641.71
-104.76316087,40.81276930,1640.53
-104.76314605,40.81276927,1640.47
-104.76310657,40.81276919,1640.24
-104.76305060,40.81276908,1639.93
-104.76295515,40.81276888,1639.44
-104.76295480,40.81276888,1639.44
-104.76287963,40.81276900,1639.12
-104.76286540,40.81276933,1639.06
-104.76286468,40.81277059,1639.03
-104.76286384,40.81277500,1639.03
-104.76286359,40.81277833,1639.03
-104.76286334,40.81278202,1639.04
-104.76286240,40.81281229,1639.02
-104.76286202,40.81285328,1639.05
-104.76286142,40.81298669,1638.87
-104.76286121,40.81304597,1638.82
-104.76286046,40.81325704,1638.42
-104.76285988,40.81341946,1638.46
-104.76285960,40.81349964,1638.59
-104.76285896,40.81367728,1639.03
-104.76285840,40.81383448,1639.26
-104.76285816,40.81390330,1639.39
-104.76285722,40.81416626,1639.69
-104.76285638,40.81440201,1640.03
-104.76285557,40.81463083,1640.21
-104.76285450,40.81493198,1639.42
-104.76285384,40.81511683,1639.06
-104.76285289,40.81538150,1638.57
-104.76285271,40.81543222,1638.32
-104.76285251,40.81548924,1638.32
-104.76285200,40.81563419,1639.31
-104.76285144,40.81578931,1640.23
-104.76285138,40.81580670,1640.34
-104.76285136,40.81581229,1640.40
-104.76285119,40.81585967,1640.64
-104.76285104,40.81590192,1640.83
-104.76285050,40.81605479,1641.80
-104.76284949,40.81633748,1643.87
-104.76284882,40.81652539,1645.17
-104.76284855,40.81660278,1645.57
-104.76284784,40.81680141,1646.20
-104.76284764,40.81685646,1646.25
-104.76284747,40.81690393,1646.26
-104.76284735,40.81693744,1646.26
-104.76284664,40.81713671,1646.07
-104.76284638,40.81721148,1646.02
-104.76284605,40.81730472,1646.02
-104.76284563,40.81742264,1646.14
-104.76284560,40.81743002,1646.14
-104.76284523,40.81753533,1646.30
-104.76284508,40.81757461,1646.37
-104.76284501,40.81759605,1646.43
-104.76284469,40.81768505,1646.53
-104.76284389,40.81791134,1646.60
-104.76284360,40.81799206,1646.60
-104.76284345,40.81803377,1646.56
-104.76284273,40.81823673,1646.30
-104.76284255,40.81828691,1646.20
-104.76284237,40.81833591,1646.04
-104.76284211,40.81840951,1645.87
-104.76284204,40.81842978,1645.82
-104.76284203,40.81843185,1645.81
-104.76284184,40.81848707,1645.68
-104.76284152,40.81857509,1645.54
-104.76284121,40.81866373,1645.47
-104.76284119,40.81866787,1645.48
-104.76284119,40.81866805,1645.47
-104.76283965,40.81910109,1645.52
-104.76283958,40.81911929,1645.55
-104.76283864,40.81938495,1645.90
-104.76283770,40.81964700,1646.39
-104.76283751,40.81970204,1646.55
-104.76283675,40.81991572,1647.19
-104.76283639,40.82001743,1647.44
-104.76283615,40.82008211,1647.73
-104.76283593,40.82014643,1648.02
-104.76283473,40.82051406,1649.85
-104.76283363,40.82079179,1651.10
-104.76283352,40.82082116,1651.15
-104.76283348,40.82083404,1651.16
-104.76283311,40.82093737,1651.35
-104.76283266,40.82106241,1651.73
-104.76283247,40.82111673,1651.90
-104.76283172,40.82132663,1652.32
-104.76283169,40.82133464,1652.33
-104.76283150,40.82139014,1652.30
-104.76283140,40.82141698,1652.26
-104.76283121,40.82146905,1652.18
-104.76283116,40.82148463,1652.18
-104.76283095,40.82154400,1652.09
-104.76283057,40.82165021,1651.91
-104.76283042,40.82169201,1651.82
-104.76283034,40.82174642,1651.85
-104.76283144,40.82177291,1651.81
-104.76284423,40.82177672,1651.96
-104.76286474,40.82177712,1652.06
-104.76289783,40.82177719,1652.35
-104.76296400,40.82177732,1652.87
-104.76303527,40.82177747,1653.48
-104.76311069,40.82177762,1654.07
-104.76340098,40.82177822,1656.59
-104.76354933,40.82177852,1658.19
-104.76373029,40.82177889,1660.29
-104.76399912,40.82177944,1664.70
-104.76444808,40.82178036,1669.34
-104.76477098,40.82178102,1667.89
-104.76485719,40.82178120,1666.61
-104.76491933,40.82178132,1665.61
-104.76499238,40.82178147,1664.49
-104.76505570,40.82178160,1663.68
-104.76518306,40.82178186,1662.50
-104.76520358,40.82178190,1662.27
-104.76529595,40.82178209,1661.49
-104.76537849,40.82178226,1660.74
-104.76550597,40.82178252,1659.82
-104.76555731,40.82178262,1659.52
-104.76562929,40.82178277,1659.15
-104.76570471,40.82178292,1658.71
-104.76577100,40.82178306,1658.31
-104.76579768,40.82178311,1658.16
     </coordinates>
    </LineString>
   </MultiGeometry>
  </Placemark>
 </Document>
</kml>
