<kml>
 <Document>
  <Style id="yellow">
   <LineStyle>
   <color>ff00ffff</color>
   <width>1</width>
   </LineStyle>
  </Style>
  <Style id="red">
   <LineStyle>
   <color>ffff0000</color>
   <width>2</width>
   </LineStyle>
  </Style>
  <Style id="green">
   <LineStyle>
   <color>ff00ff00</color>
   <width>1</width>
   </LineStyle>
  </Style>
  <Placemark>
  <styleUrl>#yellow</styleUrl>
   <MultiGeometry>
    <LineString>
     <coordinates>
-104.76291033,40.79924680,1624.60
-104.76291017,40.79929058,1624.79
-104.76291011,40.79930788,1624.93
-104.76291002,40.79933157,1624.84
-104.76290990,40.79936670,1624.87
-104.76290986,40.79937761,1624.86
-104.76290969,40.79942535,1624.99
-104.76290968,40.79942706,1625.07
-104.76290964,40.79943949,1625.03
-104.76290907,40.79959885,1625.76
-104.76290889,40.79965092,1626.00
-104.76290887,40.79965669,1626.00
-104.76290857,40.79974074,1626.35
-104.76290840,40.79978839,1626.51
-104.76290836,40.79979911,1626.56
-104.76290828,40.79982100,1626.61
-104.76290786,40.79993991,1626.68
-104.76290781,40.79995289,1626.72
-104.76290776,40.79996739,1626.75
-104.76290776,40.79996865,1626.77
-104.76290772,40.79997883,1626.76
-104.76290758,40.80001829,1626.76
-104.76290740,40.80006910,1626.85
-104.76290738,40.80007558,1626.82
-104.76290721,40.80012216,1626.67
-104.76290708,40.80015801,1626.49
-104.76290694,40.80019891,1626.46
-104.76290681,40.80023521,1626.50
-104.76290678,40.80024440,1626.40
-104.76290647,40.80033169,1625.59
-104.76290643,40.80034070,1625.57
-104.76290622,40.80040178,1625.75
-104.76290614,40.80042439,1625.71
-104.76290608,40.80043925,1625.82
-104.76290608,40.80044033,1625.85
-104.76290596,40.80047376,1626.28
-104.76290595,40.80047538,1626.29
-104.76290590,40.80048997,1626.29
-104.76290529,40.80066293,1627.18
-104.76290527,40.80066807,1627.23
-104.76290516,40.80069780,1627.41
-104.76290461,40.80085364,1627.56
-104.76290438,40.80091706,1627.67
-104.76290416,40.80097895,1627.85
-104.76290415,40.80098247,1627.85
-104.76290409,40.80099931,1627.89
-104.76290408,40.80100291,1627.92
-104.76290369,40.80111156,1628.13
-104.76290368,40.80111309,1628.11
-104.76290351,40.80116137,1628.17
-104.76290298,40.80131145,1628.39
-104.76290271,40.80138803,1628.47
-104.76290238,40.80148108,1628.65
-104.76290209,40.80156135,1628.93
-104.76290209,40.80156234,1628.90
-104.76290184,40.80163144,1628.98
-104.76290158,40.80170576,1628.90
-104.76290111,40.80183764,1629.03
-104.76290091,40.80189322,1629.09
-104.76290084,40.80191142,1629.08
-104.76290072,40.80194736,1629.13
-104.76289926,40.80235581,1629.19
-104.76289892,40.80245265,1629.24
-104.76289790,40.80273777,1629.38
-104.76289772,40.80279056,1629.43
-104.76289680,40.80308108,1629.63
-104.76289556,40.80339529,1630.01
-104.76289537,40.80345025,1630.12
-104.76289530,40.80347025,1630.19
-104.76289517,40.80350502,1630.25
-104.76289494,40.80357033,1630.30
-104.76289472,40.80363105,1630.48
-104.76289444,40.80374302,1630.39
-104.76289593,40.80375861,1630.36
-104.76291833,40.80376019,1630.39
-104.76296267,40.80376028,1630.41
-104.76304103,40.80376044,1630.46
-104.76316124,40.80376069,1630.79
-104.76333101,40.80376103,1631.04
-104.76372200,40.80376175,1631.60
-104.76401482,40.80376243,1631.48
-104.76418506,40.80376278,1631.34
-104.76434404,40.80376311,1631.08
-104.76448049,40.80376339,1630.86
-104.76469460,40.80376382,1630.91
-104.76522476,40.80376490,1630.60
-104.76523543,40.80376492,1630.59
-104.76551225,40.80376549,1630.67
-104.76569837,40.80376587,1630.87
-104.76577828,40.80376567,1630.76
-104.76585724,40.80376448,1630.65
-104.76586566,40.80376386,1630.64
-104.76587208,40.80376018,1630.58
-104.76587635,40.80375749,1630.55
-104.76597027,40.80368390,1630.23
-104.76600344,40.80365757,1630.21
-104.76605374,40.80361443,1630.25
-104.76607098,40.80359942,1630.35
-104.76613400,40.80354424,1630.79
-104.76625162,40.80343971,1631.75
-104.76652302,40.80319441,1634.84
-104.76677347,40.80296926,1637.08
-104.76692321,40.80283083,1638.70
-104.76721400,40.80256656,1639.11
-104.76750003,40.80226752,1645.04
-104.76759069,40.80217671,1645.59
-104.76789247,40.80188418,1645.11
-104.76799439,40.80178926,1644.37
-104.76799406,40.80178439,1644.41
-104.76798968,40.80178168,1644.38
-104.76797773,40.80177427,1644.35
-104.76797383,40.80177183,1644.32
-104.76796531,40.80176650,1644.31
-104.76795715,40.80176135,1644.28
-104.76794863,40.80175601,1644.28
-104.76794473,40.80175357,1644.24
-104.76794071,40.80175104,1644.27
-104.76792805,40.80174309,1644.28
-104.76792024,40.80173821,1644.24
-104.76790794,40.80173053,1644.24
-104.76790380,40.80172791,1644.23
-104.76789942,40.80172520,1644.23
-104.76789564,40.80172285,1644.21
-104.76788712,40.80171751,1644.19
-104.76788310,40.80171498,1644.16
-104.76787931,40.80171263,1644.13
-104.76786677,40.80170477,1644.14
-104.76786275,40.80170224,1644.10
-104.76785495,40.80169736,1644.09
-104.76785092,40.80169483,1644.16
-104.76783838,40.80168697,1644.06
-104.76783010,40.80168182,1644.07
-104.76781792,40.80167422,1644.04
-104.76781378,40.80167160,1644.03
-104.76780976,40.80166907,1644.03
-104.76780562,40.80166645,1644.02
-104.76780160,40.80166392,1644.04
-104.76779012,40.80165678,1643.98
-104.76778172,40.80165154,1643.95
-104.76777356,40.80164639,1643.90
-104.76776930,40.80164368,1643.91
-104.76776493,40.80164097,1643.90
-104.76775712,40.80163609,1643.89
-104.76775298,40.80163346,1643.89
-104.76774091,40.80162596,1643.84
-104.76773311,40.80162108,1643.84
-104.76772506,40.80161602,1643.81
-104.76772092,40.80161340,1643.79
-104.76771264,40.80160825,1643.81
-104.76770424,40.80160301,1643.76
-104.76770046,40.80160066,1643.72
-104.76769655,40.80159822,1643.73
-104.76768413,40.80159045,1643.74
-104.76768023,40.80158801,1643.72
-104.76766840,40.80158059,1643.70
-104.76765598,40.80157282,1643.67
-104.76764782,40.80156776,1643.66
-104.76763977,40.80156270,1643.65
-104.76763575,40.80156017,1643.66
-104.76762357,40.80155258,1643.65
-104.76761198,40.80154526,1643.59
-104.76760807,40.80154282,1643.58
-104.76760381,40.80154020,1643.61
-104.76759541,40.80153495,1643.58
-104.76759151,40.80153251,1643.58
-104.76758749,40.80152998,1643.57
-104.76757945,40.80152492,1643.53
-104.76757554,40.80152248,1643.54
-104.76756738,40.80151742,1643.52
-104.76756336,40.80151489,1643.50
-104.76755945,40.80151245,1643.48
-104.76755555,40.80151001,1643.47
-104.76754786,40.80150513,1643.43
-104.76753958,40.80149998,1643.41
-104.76753556,40.80149745,1643.39
-104.76752326,40.80148977,1643.36
-104.76751557,40.80148489,1643.35
-104.76749960,40.80147494,1643.29
-104.76749570,40.80147250,1643.28
-104.76749191,40.80147015,1643.25
-104.76748813,40.80146780,1643.22
-104.76747973,40.80146256,1643.20
-104.76747192,40.80145759,1643.17
-104.76745974,40.80145000,1643.14
-104.76745595,40.80144765,1643.09
-104.76744377,40.80144006,1643.02
-104.76744022,40.80143780,1642.96
-104.76743631,40.80143536,1642.97
-104.76743253,40.80143301,1642.95
-104.76742863,40.80143057,1642.94
-104.76742058,40.80142560,1642.83
-104.76741254,40.80142054,1642.82
-104.76740840,40.80141792,1642.83
-104.76740035,40.80141295,1642.78
-104.76739255,40.80140807,1642.71
-104.76738107,40.80140084,1642.61
-104.76737350,40.80139614,1642.56
-104.76736960,40.80139370,1642.54
-104.76736132,40.80138854,1642.53
-104.76735718,40.80138592,1642.49
-104.76735339,40.80138357,1642.47
-104.76734523,40.80137851,1642.44
-104.76733766,40.80137372,1642.41
-104.76732193,40.80136387,1642.31
-104.76731802,40.80136143,1642.28
-104.76731057,40.80135682,1642.21
-104.76730619,40.80135411,1642.24
-104.76730217,40.80135158,1642.23
-104.76729815,40.80134905,1642.18
-104.76729034,40.80134417,1642.11
-104.76728254,40.80133929,1642.05
-104.76727875,40.80133694,1642.04
-104.76727094,40.80133206,1642.00
-104.76726680,40.80132944,1641.99
-104.76725533,40.80132230,1641.92
-104.76724752,40.80131742,1641.85
-104.76724362,40.80131498,1641.81
-104.76723936,40.80131236,1641.79
-104.76723155,40.80130748,1641.77
-104.76722375,40.80130251,1641.71
-104.76721594,40.80129762,1641.69
-104.76721204,40.80129518,1641.69
-104.76720044,40.80128795,1641.61
-104.76719299,40.80128326,1641.56
-104.76718057,40.80127557,1641.54
-104.76717678,40.80127322,1641.52
-104.76717253,40.80127060,1641.49
-104.76716862,40.80126816,1641.48
-104.76716472,40.80126572,1641.47
-104.76716093,40.80126337,1641.45
-104.76715691,40.80126084,1641.42
-104.76715301,40.80125840,1641.42
-104.76714910,40.80125596,1641.38
-104.76714520,40.80125352,1641.38
-104.76713763,40.80124873,1641.35
-104.76712994,40.80124394,1641.29
-104.76712166,40.80123879,1641.26
-104.76711397,40.80123391,1641.23
-104.76710617,40.80122903,1641.16
-104.76709457,40.80122180,1641.08
-104.76708665,40.80121692,1641.05
-104.76708298,40.80121466,1641.05
-104.76707553,40.80120996,1641.00
-104.76707139,40.80120734,1640.98
-104.76706737,40.80120481,1640.94
-104.76706323,40.80120228,1640.96
-104.76705944,40.80119993,1640.91
-104.76705554,40.80119749,1640.86
-104.76705140,40.80119487,1640.83
-104.76704406,40.80119026,1640.76
-104.76701563,40.80074446,1638.58
-104.76703001,40.80073350,1638.52
-104.76704499,40.80072218,1638.47
-104.76706508,40.80070654,1638.42
-104.76709813,40.80067994,1638.17
-104.76710823,40.80067276,1638.12
-104.76711881,40.80066530,1638.03
-104.76712903,40.80065802,1637.95
-104.76716826,40.80062648,1637.62
-104.76718347,40.80061498,1637.50
-104.76719928,40.80060357,1637.41
-104.76720902,40.80059675,1637.36
-104.76724005,40.80057330,1637.13
-104.76727511,40.80054661,1636.84
-104.76730007,40.80052720,1636.65
-104.76732480,40.80050734,1636.44
-104.76735499,40.80048398,1636.17
-104.76738613,40.80046071,1635.89
-104.76739481,40.80045353,1635.81
-104.76740991,40.80044139,1635.63
-104.76746114,40.80040321,1635.30
-104.76747517,40.80039117,1635.20
-104.76752509,40.80035199,1635.02
-104.76752878,40.80034894,1635.02
-104.76753425,40.80034444,1635.01
-104.76758311,40.80030526,1635.02
-104.76759202,40.80029816,1635.02
-104.76764588,40.80025449,1635.04
-104.76765075,40.80025081,1635.03
-104.76768963,40.80021927,1635.01
-104.76773349,40.80018359,1635.00
-104.76773777,40.80017982,1635.03
-104.76776607,40.80015546,1635.03
-104.76781458,40.80011619,1635.02
-104.76784429,40.80009319,1635.09
-104.76789280,40.80005302,1635.19
-104.76791087,40.80003729,1635.28
-104.76794476,40.80000907,1635.51
-104.76798756,40.79997267,1635.87
-104.76801574,40.79994823,1636.08
-104.76803940,40.79992827,1636.29
-104.76806710,40.79990509,1636.52
-104.76811407,40.79986428,1637.06
-104.76812774,40.79985260,1637.21
-104.76814201,40.79984038,1637.36
-104.76819754,40.79979292,1637.83
-104.76825699,40.79974142,1638.29
-104.76827589,40.79972570,1638.40
-104.76829409,40.79971042,1638.53
-104.76832238,40.79968615,1638.72
-104.76834069,40.79967060,1638.84
-104.76836828,40.79964706,1639.07
-104.76837731,40.79963924,1639.13
-104.76842773,40.79959637,1639.39
-104.76844532,40.79958154,1639.48
-104.76849633,40.79953912,1639.73
-104.76851428,40.79952420,1639.81
-104.76854222,40.79950030,1639.97
-104.76860975,40.79944305,1640.33
-104.76865922,40.79940027,1640.65
-104.76867693,40.79938499,1640.73
-104.76872734,40.79934266,1641.04
-104.76878049,40.79929664,1641.43
-104.76881331,40.79926878,1641.61
-104.76885789,40.79923058,1641.93
-104.76891128,40.79918484,1642.26
-104.76895444,40.79914826,1642.56
-104.76902066,40.79909119,1643.01
-104.76905324,40.79906287,1643.31
-104.76910140,40.79902054,1643.65
-104.76911936,40.79900472,1643.81
-104.76915015,40.79897776,1644.02
-104.76917417,40.79895655,1644.23
-104.76921722,40.79891781,1644.57
-104.76923054,40.79890567,1644.71
-104.76925028,40.79888742,1644.88
-104.76928310,40.79885713,1645.15
-104.76929607,40.79884508,1645.28
-104.76930998,40.79883160,1645.45
-104.76932854,40.79881200,1645.57
-104.76918215,40.79850145,1645.86
-104.76916418,40.79848709,1645.81
-104.76876189,40.79816558,1646.57
-104.76870728,40.79812187,1647.21
-104.76865727,40.79808186,1647.55
-104.76858682,40.79802551,1647.72
-104.76828821,40.79778681,1648.40
-104.76823986,40.79774825,1648.31
-104.76822626,40.79773741,1648.16
-104.76782458,40.79741671,1647.99
-104.76778048,40.79738140,1648.10
-104.76776015,40.79736514,1648.04
-104.76770932,40.79732459,1647.92
-104.76767184,40.79729470,1647.77
-104.76755789,40.79720420,1646.21
-104.76728623,40.79698826,1642.65
-104.76703019,40.79678433,1640.42
-104.76701647,40.79677340,1640.30
-104.76699992,40.79676022,1640.20
-104.76669281,40.79651555,1638.11
-104.76637826,40.79626466,1636.51
-104.76633062,40.79622664,1636.38
-104.76630674,40.79620758,1636.27
-104.76627979,40.79618609,1636.21
-104.76608924,40.79603409,1635.65
-104.76594219,40.79591677,1635.06
-104.76575365,40.79576630,1634.15
-104.76569502,40.79571952,1633.88
-104.76556014,40.79561195,1633.20
-104.76516427,40.79529621,1631.17
-104.76496249,40.79513527,1630.19
-104.76463471,40.79487371,1628.64
-104.76454358,40.79480101,1628.12
-104.76449937,40.79476578,1627.83
-104.76448826,40.79475702,1627.75
-104.76445792,40.79475498,1627.61
-104.76410705,40.79475417,1626.34
-104.76351746,40.79475296,1625.18
-104.76330089,40.79475252,1624.86
-104.76320831,40.79475242,1624.83
-104.76316635,40.79475260,1624.76
-104.76314856,40.79475500,1624.78
-104.76292645,40.79481571,1624.53
-104.76292612,40.79484021,1624.53
-104.76292591,40.79486490,1624.50
-104.76292558,40.79495823,1624.58
-104.76292533,40.79503056,1624.63
-104.76292521,40.79506281,1624.69
-104.76292501,40.79511957,1624.74
-104.76292462,40.79523019,1624.77
-104.76292407,40.79538253,1624.13
-104.76292339,40.79557360,1622.82
-104.76292325,40.79561359,1622.71
-104.76292315,40.79564188,1622.71
-104.76292216,40.79591997,1623.32
-104.76292114,40.79620806,1623.84
-104.76292100,40.79624761,1623.92
-104.76292080,40.79630274,1624.09
-104.76292061,40.79635652,1624.09
-104.76292039,40.79641886,1624.12
-104.76292004,40.79651723,1623.57
-104.76292001,40.79652426,1623.50
-104.76291990,40.79655597,1623.01
-104.76291985,40.79657092,1622.85
-104.76291951,40.79666488,1621.50
-104.76291949,40.79667029,1621.47
-104.76291922,40.79674623,1622.29
-104.76291892,40.79683055,1622.68
-104.76291856,40.79693252,1622.78
-104.76291842,40.79697171,1622.82
-104.76291802,40.79708531,1622.95
-104.76291799,40.79709206,1622.96
-104.76291780,40.79714594,1622.95
-104.76291747,40.79723854,1623.01
-104.76291745,40.79724557,1623.00
-104.76291690,40.79740024,1622.45
-104.76291672,40.79745060,1622.80
-104.76291653,40.79750429,1622.95
-104.76291635,40.79755249,1622.66
-104.76291614,40.79761339,1623.11
-104.76291539,40.79782220,1623.42
-104.76291509,40.79790814,1623.67
-104.76291489,40.79796318,1623.91
-104.76291390,40.79824236,1623.91
-104.76291381,40.79826857,1623.68
-104.76291376,40.79828037,1623.65
-104.76291336,40.79839514,1622.45
-104.76291326,40.79842154,1623.26
-104.76291321,40.79843667,1623.37
-104.76291318,40.79844379,1623.46
-104.76291304,40.79848423,1623.97
-104.76291244,40.79865350,1624.28
-104.76291239,40.79866675,1624.29
-104.76291236,40.79867404,1624.32
-104.76291216,40.79873242,1623.69
-104.76291204,40.79876638,1623.22
-104.76291182,40.79882692,1623.16
-104.76291167,40.79886899,1623.71
-104.76291151,40.79891304,1624.30
-104.76291149,40.79892006,1624.34
-104.76291143,40.79893682,1624.35
-104.76291110,40.79903024,1624.43
-104.76291068,40.79914744,1624.46
-104.76291033,40.79924680,1624.60
     </coordinates>
    </LineString>
   </MultiGeometry>
  </Placemark>
 </Document>
</kml>
