<kml>
 <Document>
  <Style id="yellow">
   <LineStyle>
   <color>ff00ffff</color>
   <width>1</width>
   </LineStyle>
  </Style>
  <Style id="red">
   <LineStyle>
   <color>ffff0000</color>
   <width>2</width>
   </LineStyle>
  </Style>
  <Style id="green">
   <LineStyle>
   <color>ff00ff00</color>
   <width>1</width>
   </LineStyle>
  </Style>
  <Placemark>
  <styleUrl>#yellow</styleUrl>
   <MultiGeometry>
    <LineString>
     <coordinates>
-104.73217738,40.80369293,1650.78
-104.73232901,40.80369328,1651.40
-104.73255521,40.80369380,1651.97
-104.73277880,40.80369432,1652.03
-104.73281851,40.80369441,1651.92
-104.73315555,40.80369520,1652.04
-104.73327411,40.80369547,1652.34
-104.73334773,40.80369564,1652.57
-104.73357203,40.80369616,1653.22
-104.73394463,40.80369702,1654.90
-104.73409602,40.80369737,1655.55
-104.73416893,40.80369753,1655.94
-104.73422062,40.80369765,1656.21
-104.73443876,40.80369816,1657.59
-104.73454059,40.80369839,1658.25
-104.73484717,40.80369900,1658.87
-104.73515410,40.80369980,1658.34
-104.73530679,40.80370015,1657.78
-104.73540803,40.80370038,1657.39
-104.73546565,40.80370051,1657.18
-104.73579475,40.80370127,1655.89
-104.73597222,40.80370167,1655.28
-104.73615159,40.80370209,1654.94
-104.73621110,40.80370222,1654.82
-104.73639782,40.80370265,1654.57
-104.73648472,40.80370285,1654.45
-104.73660220,40.80370311,1654.35
-104.73671483,40.80370337,1654.28
-104.73708862,40.80370422,1654.25
-104.73735264,40.80370473,1653.68
-104.73771730,40.80370565,1652.44
-104.73820692,40.80370677,1650.23
-104.73824628,40.80370686,1650.06
-104.73842173,40.80370725,1649.33
-104.73852049,40.80370748,1649.00
-104.73862315,40.80370771,1648.59
-104.73889499,40.80370833,1648.02
-104.73903891,40.80370865,1647.75
-104.73904401,40.80370866,1647.75
-104.73913103,40.80370850,1647.57
-104.73917217,40.80370841,1647.47
-104.73917978,40.80370302,1647.43
-104.73918085,40.80370168,1647.44
-104.73918253,40.80369708,1647.39
-104.73918391,40.80367619,1647.36
-104.73918479,40.80345332,1646.77
-104.73918480,40.80344918,1646.72
-104.73918512,40.80336702,1646.63
-104.73918536,40.80330783,1646.50
-104.73918548,40.80327495,1646.40
-104.73918574,40.80321036,1646.29
-104.73918581,40.80319063,1646.26
-104.73918588,40.80317433,1646.25
-104.73918595,40.80315604,1646.23
-104.73918643,40.80303425,1646.25
-104.73918688,40.80291732,1646.62
-104.73918696,40.80289696,1646.68
-104.73918722,40.80279994,1646.92
-104.73918910,40.80235050,1648.60
-104.73918956,40.80223366,1649.03
-104.73919103,40.80185819,1649.23
-104.73919134,40.80177811,1649.23
-104.73919245,40.80149434,1649.54
-104.73919249,40.80148425,1649.57
-104.73919296,40.80136444,1649.90
-104.73919357,40.80120994,1650.26
-104.73919375,40.80116220,1650.24
-104.73919392,40.80111851,1650.22
-104.73919398,40.80110409,1650.22
-104.73919400,40.80109833,1650.22
-104.73919441,40.80099383,1650.21
-104.73919462,40.80094041,1650.21
-104.73919521,40.80079024,1650.17
-104.73919542,40.80073529,1650.21
-104.73919571,40.80066340,1650.18
-104.73919609,40.80056476,1650.22
-104.73919768,40.80015812,1650.39
-104.73919824,40.80001722,1650.27
-104.73919830,40.80000119,1650.18
-104.73919863,40.79991741,1649.82
-104.73919902,40.79981697,1649.27
-104.73919906,40.79980579,1649.23
-104.73919913,40.79978904,1649.11
-104.73919966,40.79965436,1648.47
-104.73920075,40.79937393,1648.38
-104.73920105,40.79929880,1648.37
-104.73920152,40.79917800,1648.35
-104.73920245,40.79894107,1648.77
-104.73920273,40.79886810,1649.05
-104.73920275,40.79886387,1649.09
-104.73920335,40.79870938,1649.97
-104.73920471,40.79836192,1652.28
-104.73920512,40.79825697,1653.04
-104.73920579,40.79808707,1654.19
-104.73920693,40.79779547,1656.05
-104.73920716,40.79773610,1656.20
-104.73920719,40.79772835,1656.19
-104.73920731,40.79769754,1656.30
-104.73920740,40.79767674,1656.35
-104.73920847,40.79740315,1656.95
-104.73920877,40.79732649,1656.93
-104.73920901,40.79726424,1656.83
-104.73920958,40.79711812,1656.53
-104.73920963,40.79710605,1656.51
-104.73920986,40.79704623,1656.46
-104.73920990,40.79703596,1656.43
-104.73921043,40.79690075,1656.45
-104.73921082,40.79680210,1656.57
-104.73921100,40.79675634,1656.66
-104.73921126,40.79669049,1656.82
-104.73921128,40.79668337,1656.82
-104.73921214,40.79646537,1657.14
-104.73921218,40.79645537,1657.13
-104.73921229,40.79642555,1657.10
-104.73921253,40.79636483,1656.97
-104.73921294,40.79626042,1656.64
-104.73921296,40.79625592,1656.63
-104.73921315,40.79620529,1656.44
-104.73921358,40.79609548,1655.86
-104.73921488,40.79576325,1653.82
-104.73921499,40.79573622,1653.63
-104.73921549,40.79560731,1652.69
-104.73921583,40.79552065,1652.16
-104.73921587,40.79551227,1652.14
-104.73921595,40.79549128,1652.01
-104.73921635,40.79538795,1651.49
-104.73921670,40.79529931,1651.10
-104.73921699,40.79522391,1650.91
-104.73921708,40.79520067,1650.81
-104.73921744,40.79510878,1650.61
-104.73921780,40.79501825,1650.22
-104.73921887,40.79474502,1648.73
-104.73921890,40.79470547,1648.48
-104.73921122,40.79470077,1648.46
-104.73902227,40.79470016,1648.51
-104.73894854,40.79470000,1648.65
-104.73889082,40.79469987,1648.73
-104.73884933,40.79469977,1648.78
-104.73882420,40.79469972,1648.86
-104.73879350,40.79469965,1648.91
-104.73868575,40.79469940,1649.21
-104.73867532,40.79469938,1649.21
-104.73848969,40.79469896,1649.75
-104.73835835,40.79469866,1650.40
-104.73819726,40.79469829,1651.15
-104.73802254,40.79469790,1651.87
-104.73785683,40.79469752,1652.55
-104.73780444,40.79469740,1652.73
-104.73775204,40.79469728,1652.94
-104.73742987,40.79469655,1654.26
-104.73737072,40.79469642,1654.47
-104.73723831,40.79469612,1654.93
-104.73719125,40.79469601,1655.08
-104.73690155,40.79469535,1656.07
-104.73682557,40.79469517,1656.36
-104.73664978,40.79469477,1656.94
-104.73661351,40.79469469,1657.06
-104.73640904,40.79469422,1657.63
-104.73634230,40.79469407,1657.85
-104.73623159,40.79469382,1658.16
-104.73584860,40.79469294,1659.68
-104.73577938,40.79469278,1659.64
-104.73534210,40.79469187,1658.87
-104.73500285,40.79469100,1656.88
-104.73500249,40.79469100,1656.88
-104.73485492,40.79469066,1656.19
-104.73478071,40.79469049,1655.80
-104.73455502,40.79468997,1654.59
-104.73447205,40.79468978,1654.21
-104.73393627,40.79468855,1652.96
-104.73384559,40.79468834,1652.86
-104.73376854,40.79468816,1652.83
-104.73328325,40.79468704,1653.43
-104.73284929,40.79468604,1653.40
-104.73270610,40.79468571,1653.39
-104.73264115,40.79468556,1653.41
-104.73256481,40.79468538,1653.36
-104.73249475,40.79468522,1653.22
-104.73234967,40.79468488,1653.11
-104.73228115,40.79468472,1653.03
-104.73221359,40.79468456,1653.00
-104.73214045,40.79468439,1653.09
-104.73197948,40.79468402,1653.03
-104.73183262,40.79468368,1653.03
-104.73151541,40.79468294,1653.08
-104.73140020,40.79468267,1652.92
-104.73138977,40.79468265,1652.87
-104.73127574,40.79468238,1652.56
-104.73125487,40.79468233,1652.48
-104.73122216,40.79468226,1652.34
-104.73118553,40.79468217,1652.27
-104.73115424,40.79468210,1652.04
-104.73089784,40.79468150,1650.48
-104.73087829,40.79468146,1650.40
-104.73086596,40.79468143,1650.29
-104.73072028,40.79468109,1649.59
-104.73067701,40.79468099,1649.47
-104.73033990,40.79468020,1649.67
-104.73006252,40.79467955,1649.75
-104.72997481,40.79467935,1649.38
-104.72973122,40.79467878,1648.51
-104.72970324,40.79467871,1648.31
-104.72956562,40.79467839,1647.46
-104.72917161,40.79467746,1645.23
-104.72901669,40.79467710,1644.38
-104.72872556,40.79467642,1643.06
-104.72865326,40.79467625,1642.60
-104.72860063,40.79467612,1642.27
-104.72836047,40.79467556,1640.85
-104.72827987,40.79467537,1640.34
-104.72824431,40.79467528,1640.16
-104.72805276,40.79467483,1638.84
-104.72789641,40.79467446,1637.79
-104.72789475,40.79467446,1637.78
-104.72785409,40.79467436,1637.58
-104.72781260,40.79467427,1637.36
-104.72771351,40.79467403,1636.87
-104.72756391,40.79467368,1636.18
-104.72738398,40.79467325,1635.29
-104.72736750,40.79467358,1635.19
-104.72736567,40.79468537,1635.17
-104.72736545,40.79471087,1635.08
-104.72736528,40.79475240,1634.95
-104.72736521,40.79476879,1634.91
-104.72736467,40.79490158,1633.55
-104.72736364,40.79515489,1634.76
-104.72736268,40.79538839,1636.23
-104.72736225,40.79549424,1636.94
-104.72736174,40.79561775,1637.71
-104.72736171,40.79562595,1637.72
-104.72736164,40.79564369,1637.83
-104.72736128,40.79573125,1638.23
-104.72736000,40.79604349,1639.58
-104.72735942,40.79618483,1640.07
-104.72735915,40.79625113,1640.55
-104.72735888,40.79631752,1640.91
-104.72735864,40.79637482,1641.11
-104.72735824,40.79647382,1641.62
-104.72735722,40.79672191,1642.27
-104.72735712,40.79674768,1642.28
-104.72735700,40.79677597,1642.26
-104.72735692,40.79679578,1642.18
-104.72735682,40.79682056,1642.15
-104.72735601,40.79701847,1641.51
-104.72735577,40.79707667,1641.48
-104.72735464,40.79735251,1640.37
-104.72735449,40.79739061,1640.27
-104.72735448,40.79739304,1640.27
-104.72735401,40.79750808,1640.11
-104.72735371,40.79760907,1640.09
-104.72735269,40.79788896,1639.08
-104.72735168,40.79807661,1638.52
-104.72735150,40.79812165,1638.38
-104.72735109,40.79822191,1637.73
-104.72735083,40.79828569,1637.29
-104.72735070,40.79831578,1637.11
-104.72735017,40.79844550,1636.19
-104.72735014,40.79845388,1636.07
-104.72734921,40.79868107,1634.51
-104.72734890,40.79875602,1633.92
-104.72734873,40.79879728,1633.62
-104.72734849,40.79885611,1633.13
-104.72734771,40.79904700,1632.03
-104.72734766,40.79906042,1631.95
-104.72734758,40.79907952,1631.84
-104.72734694,40.79923491,1631.04
-104.72734569,40.79954192,1629.83
-104.72734543,40.79960516,1630.05
-104.72734538,40.79961606,1630.04
-104.72734503,40.79970344,1629.82
-104.72734465,40.79979533,1629.63
-104.72734325,40.80013711,1629.33
-104.72734316,40.80015864,1629.32
-104.72734279,40.80025017,1629.37
-104.72734248,40.80032530,1629.42
-104.72734183,40.80048384,1629.69
-104.72734139,40.80059132,1629.94
-104.72734113,40.80065510,1630.08
-104.72734105,40.80067392,1630.13
-104.72734072,40.80075554,1630.32
-104.72734067,40.80076743,1630.35
-104.72734058,40.80078923,1630.37
-104.72734056,40.80079527,1630.40
-104.72733989,40.80095904,1630.54
-104.72733959,40.80103264,1630.58
-104.72733935,40.80108966,1630.66
-104.72733931,40.80110056,1630.70
-104.72733928,40.80110822,1630.65
-104.72733893,40.80119191,1630.69
-104.72733888,40.80120542,1630.69
-104.72733859,40.80127551,1630.70
-104.72733746,40.80155306,1631.45
-104.72733704,40.80165449,1631.92
-104.72733667,40.80174422,1632.30
-104.72733660,40.80176286,1632.39
-104.72733616,40.80187024,1632.87
-104.72733603,40.80190285,1633.01
-104.72733538,40.80206122,1633.73
-104.72733534,40.80207041,1633.74
-104.72733526,40.80209086,1633.87
-104.72733514,40.80211987,1634.00
-104.72733493,40.80217032,1634.32
-104.72733480,40.80220121,1634.45
-104.72733470,40.80222725,1634.59
-104.72733411,40.80237129,1635.40
-104.72733348,40.80252489,1636.28
-104.72733273,40.80270902,1637.40
-104.72733153,40.80300062,1639.00
-104.72733082,40.80317503,1639.68
-104.72733043,40.80327007,1639.88
-104.72733028,40.80330799,1639.97
-104.72733023,40.80331835,1640.03
-104.72732934,40.80353672,1639.83
-104.72732891,40.80367076,1639.69
-104.72732900,40.80367815,1639.69
-104.72733574,40.80368132,1639.73
-104.72743556,40.80368173,1640.03
-104.72752080,40.80368203,1640.34
-104.72777213,40.80368262,1641.19
-104.72777343,40.80368262,1641.22
-104.72787894,40.80368287,1641.65
-104.72797438,40.80368310,1642.06
-104.72802796,40.80368322,1642.23
-104.72807420,40.80368333,1642.44
-104.72828368,40.80368383,1643.53
-104.72831332,40.80368390,1643.69
-104.72845842,40.80368424,1644.57
-104.72850146,40.80368434,1644.85
-104.72855978,40.80368447,1645.32
-104.72865972,40.80368471,1646.61
-104.72889671,40.80368527,1649.88
-104.72908473,40.80368571,1650.95
-104.72960067,40.80368692,1653.68
-104.72979142,40.80368737,1652.56
-104.72989930,40.80368762,1652.13
-104.73002034,40.80368790,1652.59
-104.73002935,40.80368792,1652.66
-104.73013747,40.80368818,1652.70
-104.73024452,40.80368843,1652.26
-104.73047380,40.80368896,1650.93
-104.73058725,40.80368923,1650.10
-104.73064748,40.80368937,1649.65
-104.73087901,40.80368991,1648.55
-104.73115227,40.80369055,1647.00
-104.73129631,40.80369088,1646.62
-104.73144391,40.80369122,1646.52
-104.73186548,40.80369220,1649.05
-104.73191965,40.80369233,1649.37
-104.73193957,40.80369238,1649.50
-104.73217738,40.80369293,1650.78
     </coordinates>
    </LineString>
   </MultiGeometry>
  </Placemark>
 </Document>
</kml>
