<kml>
 <Document>
  <Style id="yellow">
   <LineStyle>
   <color>ff00ffff</color>
   <width>1</width>
   </LineStyle>
  </Style>
  <Style id="red">
   <LineStyle>
   <color>ffff0000</color>
   <width>2</width>
   </LineStyle>
  </Style>
  <Style id="green">
   <LineStyle>
   <color>ff00ff00</color>
   <width>1</width>
   </LineStyle>
  </Style>
  <Placemark>
  <styleUrl>#yellow</styleUrl>
   <MultiGeometry>
    <LineString>
     <coordinates>
-104.76381805,40.79422199,1625.41
-104.76381060,40.79421611,1625.38
-104.76379385,40.79422617,1625.37
-104.76378494,40.79423174,1625.38
-104.76377092,40.79424261,1625.37
-104.76363327,40.79434944,1625.18
-104.76353675,40.79442752,1625.12
-104.76335723,40.79457616,1624.95
-104.76322693,40.79468480,1624.83
-104.76318436,40.79472057,1624.75
-104.76317544,40.79472911,1624.76
-104.76315796,40.79474664,1624.76
-104.76315391,40.79475123,1624.79
-104.76325940,40.79475234,1624.82
-104.76374113,40.79475315,1625.51
-104.76393921,40.79475374,1625.94
-104.76411523,40.79475410,1626.34
-104.76432528,40.79475444,1626.98
-104.76444216,40.79475450,1627.54
-104.76448459,40.79475413,1627.71
-104.76448093,40.79475115,1627.69
-104.76447703,40.79474799,1627.66
-104.76446970,40.79474212,1627.64
-104.76412455,40.79446656,1626.30
-104.76393613,40.79431619,1625.63
-104.76390930,40.79429478,1625.57
-104.76381805,40.79422199,1625.41
     </coordinates>
    </LineString>
   </MultiGeometry>
  </Placemark>
 </Document>
</kml>
