<kml>
 <Document>
  <Style id="yellow">
   <LineStyle>
   <color>ff00ffff</color>
   <width>1</width>
   </LineStyle>
  </Style>
  <Style id="red">
   <LineStyle>
   <color>ffff0000</color>
   <width>2</width>
   </LineStyle>
  </Style>
  <Style id="green">
   <LineStyle>
   <color>ff00ff00</color>
   <width>1</width>
   </LineStyle>
  </Style>
  <Placemark>
  <styleUrl>#yellow</styleUrl>
   <MultiGeometry>
    <LineString>
     <coordinates>
-104.71342632,40.79463935,1616.30
-104.71376426,40.79464018,1615.55
-104.71386194,40.79464043,1615.38
-104.71414144,40.79464112,1614.62
-104.71417309,40.79464120,1614.53
-104.71438622,40.79464172,1614.23
-104.71442830,40.79464183,1614.21
-104.71455679,40.79464215,1614.13
-104.71484519,40.79464286,1614.00
-104.71528744,40.79464395,1613.39
-104.71545434,40.79464436,1613.01
-104.71550247,40.79464448,1613.01
-104.71550721,40.79464395,1613.00
-104.71551162,40.79463811,1612.98
-104.71551193,40.79462189,1612.95
-104.71551232,40.79455703,1612.83
-104.71551393,40.79417976,1612.27
-104.71551506,40.79391563,1612.10
-104.71551550,40.79381203,1612.16
-104.71551581,40.79374069,1612.31
-104.71551618,40.79365403,1612.47
-104.71551661,40.79355250,1612.61
-104.71551682,40.79350404,1612.70
-104.71551686,40.79349323,1612.71
-104.71551694,40.79347611,1612.73
-104.71551753,40.79333630,1612.94
-104.71551757,40.79332810,1612.95
-104.71551760,40.79332116,1612.94
-104.71551768,40.79330270,1613.00
-104.71551771,40.79329414,1613.05
-104.71551812,40.79319910,1613.10
-104.71551830,40.79315694,1613.13
-104.71552001,40.79275534,1613.62
-104.71552127,40.79246158,1613.78
-104.71552132,40.79245005,1613.76
-104.71552266,40.79210637,1616.39
-104.71552347,40.79194593,1618.22
-104.71552466,40.79166559,1619.35
-104.71552575,40.79141047,1619.52
-104.71552627,40.79128832,1619.21
-104.71552660,40.79121283,1619.15
-104.71552722,40.79106752,1619.08
-104.71552727,40.79105428,1619.09
-104.71552828,40.79081826,1619.14
-104.71552941,40.79055341,1619.38
-104.71553045,40.79031072,1619.59
-104.71553087,40.79021036,1619.69
-104.71553135,40.79009929,1619.76
-104.71553267,40.78978904,1620.32
-104.71553270,40.78978363,1620.36
-104.71553360,40.78957103,1620.70
-104.71553390,40.78950176,1620.69
-104.71553396,40.78948627,1620.70
-104.71553426,40.78941771,1620.71
-104.71553531,40.78908800,1621.11
-104.71553686,40.78880865,1621.64
-104.71553768,40.78861524,1622.26
-104.71553867,40.78832922,1623.31
-104.71553958,40.78811473,1624.10
-104.71554104,40.78782943,1625.00
-104.71554193,40.78759197,1625.32
-104.71554366,40.78718640,1625.23
-104.71554488,40.78692750,1625.38
-104.71554497,40.78690813,1625.42
-104.71554654,40.78653834,1625.67
-104.71554800,40.78614250,1626.11
-104.71554889,40.78595990,1626.59
-104.71555019,40.78568307,1627.77
-104.71554998,40.78565028,1627.89
-104.71554893,40.78564478,1627.90
-104.71554765,40.78564127,1627.88
-104.71554032,40.78563629,1627.89
-104.71549173,40.78563599,1627.72
-104.71533564,40.78563561,1627.50
-104.71517492,40.78563521,1627.10
-104.71500378,40.78563479,1627.09
-104.71484935,40.78563441,1626.31
-104.71442007,40.78563344,1625.25
-104.71410920,40.78563258,1624.59
-104.71404804,40.78563243,1624.40
-104.71388330,40.78563220,1624.24
-104.71343968,40.78563092,1624.05
-104.71332792,40.78563064,1623.94
-104.71293598,40.78562966,1623.40
-104.71281651,40.78562937,1623.26
-104.71270475,40.78562909,1622.79
-104.71253858,40.78562868,1622.25
-104.71225828,40.78562798,1620.89
-104.71219594,40.78562818,1620.55
-104.71219037,40.78562871,1620.54
-104.71217424,40.78563038,1620.46
-104.71216333,40.78563152,1620.38
-104.71216189,40.78563774,1620.41
-104.71216243,40.78564891,1620.35
-104.71217031,40.78596558,1619.64
-104.71216913,40.78610160,1618.98
-104.71216851,40.78619007,1618.50
-104.71216703,40.78631321,1617.63
-104.71216564,40.78638699,1617.04
-104.71216457,40.78644230,1616.60
-104.71216354,40.78649031,1616.16
-104.71216302,40.78655544,1615.66
-104.71216450,40.78662535,1615.25
-104.71216669,40.78672121,1614.80
-104.71216755,40.78674229,1614.76
-104.71217308,40.78683347,1614.73
-104.71218007,40.78691646,1614.88
-104.71218775,40.78700386,1615.09
-104.71219810,40.78710451,1615.59
-104.71220879,40.78720958,1616.21
-104.71222868,40.78743430,1616.99
-104.71224547,40.78777198,1615.98
-104.71225389,40.78799199,1615.57
-104.71225694,40.78808019,1615.28
-104.71225866,40.78812281,1615.15
-104.71226351,40.78817867,1615.03
-104.71226464,40.78819174,1615.02
-104.71226872,40.78823607,1614.97
-104.71227166,40.78826797,1614.94
-104.71227681,40.78831113,1614.82
-104.71228195,40.78835511,1614.75
-104.71228606,40.78839205,1614.60
-104.71229546,40.78846640,1614.51
-104.71229751,40.78848442,1614.51
-104.71230083,40.78851127,1614.47
-104.71231031,40.78859471,1614.45
-104.71231660,40.78864725,1614.52
-104.71232196,40.78908121,1615.37
-104.71231215,40.78915694,1615.67
-104.71230650,40.78920296,1615.84
-104.71230287,40.78930259,1616.31
-104.71230201,40.78933700,1616.36
-104.71230173,40.78934754,1616.40
-104.71229939,40.78942230,1616.54
-104.71229476,40.78958940,1616.71
-104.71224664,40.79000106,1616.17
-104.71224491,40.79001727,1616.13
-104.71224400,40.79006411,1615.92
-104.71224555,40.79011691,1615.74
-104.71224738,40.79018709,1615.42
-104.71220847,40.79057823,1612.70
-104.71219679,40.79064694,1612.08
-104.71219107,40.79068215,1611.72
-104.71219008,40.79069161,1611.66
-104.71218242,40.79076374,1611.10
-104.71218043,40.79078500,1610.93
-104.71216349,40.79097477,1609.73
-104.71215993,40.79103034,1609.49
-104.71216004,40.79108836,1609.25
-104.71216179,40.79115016,1608.94
-104.71216351,40.79119016,1608.75
-104.71217794,40.79139019,1608.23
-104.71219821,40.79169211,1607.66
-104.71220336,40.79176122,1607.64
-104.71221849,40.79193666,1608.76
-104.71222198,40.79197883,1608.88
-104.71223184,40.79208308,1609.44
-104.71224242,40.79218508,1609.80
-104.71224961,40.79225122,1609.91
-104.71226287,40.79236314,1610.23
-104.71227514,40.79245984,1610.58
-104.71228846,40.79255869,1611.16
-104.71229133,40.79257996,1611.27
-104.71230578,40.79269287,1611.77
-104.71230716,40.79270396,1611.82
-104.71231700,40.79278425,1612.19
-104.71232399,40.79284048,1612.39
-104.71233140,40.79290806,1612.69
-104.71233733,40.79296240,1613.03
-104.71234604,40.79303269,1613.53
-104.71234911,40.79306161,1613.73
-104.71235624,40.79314081,1614.22
-104.71236337,40.79321903,1614.63
-104.71231853,40.79366529,1616.84
-104.71231636,40.79367510,1616.87
-104.71231056,40.79370040,1617.07
-104.71230712,40.79372706,1617.11
-104.71230639,40.79373282,1617.15
-104.71230467,40.79374759,1617.22
-104.71230417,40.79375182,1617.25
-104.71230318,40.79376227,1617.28
-104.71229871,40.79380910,1617.53
-104.71229806,40.79385009,1617.71
-104.71229891,40.79389973,1617.95
-104.71230018,40.79396279,1618.22
-104.71230107,40.79400406,1618.34
-104.71230196,40.79404541,1618.46
-104.71230321,40.79408460,1618.45
-104.71230395,40.79410568,1618.45
-104.71230459,40.79412271,1618.44
-104.71231193,40.79428857,1618.23
-104.71232360,40.79455138,1618.44
-104.71232621,40.79460571,1618.61
-104.71232803,40.79462391,1618.69
-104.71232941,40.79463355,1618.71
-104.71234054,40.79463619,1618.64
-104.71253577,40.79463713,1618.16
-104.71258282,40.79463725,1618.06
-104.71272862,40.79463761,1617.72
-104.71280211,40.79463779,1617.52
-104.71292136,40.79463809,1617.27
-104.71317420,40.79463872,1616.76
-104.71328266,40.79463899,1616.52
-104.71331869,40.79463908,1616.43
-104.71342632,40.79463935,1616.30
     </coordinates>
    </LineString>
   </MultiGeometry>
  </Placemark>
 </Document>
</kml>
