<kml>
 <Document>
  <Style id="yellow">
   <LineStyle>
   <color>ff00ffff</color>
   <width>1</width>
   </LineStyle>
  </Style>
  <Style id="red">
   <LineStyle>
   <color>ffff0000</color>
   <width>2</width>
   </LineStyle>
  </Style>
  <Style id="green">
   <LineStyle>
   <color>ff00ff00</color>
   <width>1</width>
   </LineStyle>
  </Style>
  <Placemark>
  <styleUrl>#yellow</styleUrl>
   <MultiGeometry>
    <LineString>
     <coordinates>
-104.76722206,40.81277748,1647.70
-104.76724673,40.81277753,1647.59
-104.76730233,40.81277764,1647.50
-104.76737549,40.81277779,1647.36
-104.76746359,40.81277796,1647.26
-104.76752002,40.81277808,1647.19
-104.76755311,40.81277815,1647.16
-104.76757907,40.81277820,1647.12
-104.76762697,40.81277829,1647.08
-104.76768128,40.81277840,1647.09
-104.76769942,40.81277844,1647.07
-104.76775052,40.81277854,1647.08
-104.76784834,40.81277874,1647.04
-104.76786364,40.81277877,1647.02
-104.76798706,40.81277902,1647.02
-104.76805240,40.81277915,1647.06
-104.76814097,40.81277933,1647.05
-104.76814571,40.81277934,1647.07
-104.76816290,40.81277937,1647.03
-104.76832166,40.81277969,1647.12
-104.76856200,40.81278017,1647.43
-104.76864974,40.81278035,1647.51
-104.76869148,40.81278043,1647.56
-104.76870618,40.81278046,1647.62
-104.76873167,40.81278051,1647.62
-104.76875052,40.81278055,1647.62
-104.76878681,40.81278062,1647.71
-104.76882617,40.81278070,1647.77
-104.76885878,40.81278077,1647.79
-104.76893253,40.81278092,1647.98
-104.76902228,40.81278110,1648.04
-104.76905619,40.81278116,1648.13
-104.76907410,40.81278120,1648.15
-104.76908489,40.81278122,1648.20
-104.76914215,40.81278134,1648.30
-104.76918851,40.81278143,1648.34
-104.76919859,40.81278145,1648.44
-104.76924092,40.81278153,1648.51
-104.76941913,40.81278189,1648.84
-104.76949976,40.81278205,1649.00
-104.76953722,40.81278213,1649.15
-104.76966954,40.81278239,1649.38
-104.76969160,40.81278243,1649.39
-104.76980033,40.81278265,1649.53
-104.76980519,40.81278266,1649.53
-104.76980625,40.81278266,1649.55
-104.77002869,40.81278311,1649.65
-104.77021271,40.81278347,1649.50
-104.77022883,40.81278351,1649.48
-104.77038546,40.81278382,1649.35
-104.77041949,40.81278388,1649.35
-104.77048102,40.81278401,1649.37
-104.77054861,40.81278414,1649.40
-104.77059366,40.81278423,1649.39
-104.77069409,40.81278443,1649.45
-104.77070571,40.81278445,1649.45
-104.77074294,40.81278453,1649.46
-104.77082558,40.81278469,1649.51
-104.77085250,40.81278475,1649.49
-104.77097190,40.81278498,1649.44
-104.77100913,40.81278506,1649.41
-104.77106734,40.81278517,1649.21
-104.77113647,40.81278531,1649.01
-104.77122587,40.81278549,1648.72
-104.77123061,40.81278550,1648.68
-104.77140313,40.81278584,1647.76
-104.77151814,40.81278607,1647.10
-104.77160612,40.81278624,1646.49
-104.77167240,40.81278637,1645.96
-104.77174081,40.81278651,1645.49
-104.77175528,40.81278653,1645.38
-104.77175563,40.81278654,1645.40
-104.77185120,40.81278672,1644.78
-104.77196502,40.81278695,1644.10
-104.77199822,40.81278702,1643.97
-104.77200308,40.81278702,1643.98
-104.77206735,40.81278715,1643.70
-104.77228575,40.81278758,1642.79
-104.77230152,40.81278761,1642.71
-104.77240266,40.81278781,1642.24
-104.77241760,40.81278784,1642.18
-104.77242507,40.81278786,1642.15
-104.77252704,40.81278806,1641.54
-104.77254364,40.81278809,1641.46
-104.77260339,40.81278821,1641.53
-104.77261561,40.81278823,1641.43
-104.77288001,40.81278875,1640.33
-104.77299633,40.81278898,1639.95
-104.77300273,40.81278900,1639.94
-104.77309249,40.81278917,1639.71
-104.77328469,40.81278955,1639.43
-104.77340812,40.81278979,1639.42
-104.77352372,40.81279002,1639.39
-104.77357909,40.81279013,1639.45
-104.77365248,40.81279027,1639.71
-104.77382737,40.81279061,1639.84
-104.77391974,40.81279080,1640.05
-104.77395080,40.81279086,1640.06
-104.77437895,40.81279160,1641.73
-104.77468462,40.81279229,1643.07
-104.77470419,40.81279143,1643.18
-104.77471830,40.81279047,1643.25
-104.77471865,40.81275705,1643.37
-104.77471939,40.81260778,1644.09
-104.77472078,40.81223149,1645.33
-104.77472091,40.81219429,1644.90
-104.77472130,40.81207934,1645.04
-104.77472160,40.81199124,1645.46
-104.77472201,40.81186863,1645.48
-104.77472273,40.81165684,1645.59
-104.77472303,40.81156658,1645.79
-104.77472319,40.81151847,1645.89
-104.77472366,40.81138019,1646.32
-104.77472429,40.81119327,1646.97
-104.77472447,40.81114084,1647.13
-104.77472463,40.81109282,1647.30
-104.77472531,40.81089229,1647.48
-104.77472580,40.81074681,1647.16
-104.77472617,40.81063898,1646.94
-104.77472708,40.81033485,1645.78
-104.77472794,40.81011522,1646.28
-104.77472852,40.80987434,1649.76
-104.77472459,40.80984397,1650.02
-104.77445668,40.80944491,1647.36
-104.77445742,40.80943743,1647.39
-104.77445779,40.80943356,1647.42
-104.77445816,40.80942987,1647.37
-104.77445889,40.80942239,1647.33
-104.77445926,40.80941870,1647.34
-104.77445988,40.80941167,1647.34
-104.77446025,40.80940780,1647.38
-104.77446061,40.80940420,1647.36
-104.77446098,40.80940042,1647.39
-104.77446160,40.80939321,1647.38
-104.77446197,40.80938943,1647.41
-104.77446271,40.80938213,1647.42
-104.77446307,40.80937817,1647.39
-104.77446344,40.80937439,1647.44
-104.77446381,40.80937051,1647.47
-104.77446443,40.80936340,1647.50
-104.77446541,40.80935259,1647.65
-104.77446603,40.80934520,1647.76
-104.77446702,40.80933449,1647.90
-104.77446739,40.80933052,1647.95
-104.77446837,40.80931944,1647.99
-104.77446911,40.80931197,1648.05
-104.77446948,40.80930837,1648.03
-104.77447009,40.80930125,1648.06
-104.77447046,40.80929738,1648.09
-104.77447083,40.80929377,1648.04
-104.77447120,40.80928990,1648.07
-104.77447218,40.80927900,1648.07
-104.77447292,40.80927153,1648.06
-104.77447415,40.80925982,1647.97
-104.77447550,40.80924550,1647.88
-104.77447623,40.80923802,1647.85
-104.77447697,40.80923055,1647.84
-104.77447734,40.80922685,1647.82
-104.77447771,40.80922307,1647.82
-104.77447808,40.80921920,1647.78
-104.77447845,40.80921550,1647.75
-104.77447881,40.80921163,1647.74
-104.77447918,40.80920776,1647.72
-104.77447955,40.80920398,1647.74
-104.77447992,40.80920028,1647.73
-104.77448029,40.80919677,1647.74
-104.77448066,40.80919308,1647.68
-104.77448139,40.80918560,1647.68
-104.77448275,40.80917092,1647.62
-104.77448311,40.80916705,1647.62
-104.77448348,40.80916318,1647.58
-104.77448385,40.80915948,1647.59
-104.77448422,40.80915570,1647.56
-104.77448459,40.80915174,1647.57
-104.77448496,40.80914795,1647.57
-104.77448569,40.80914075,1647.52
-104.77448606,40.80913715,1647.52
-104.77448643,40.80913354,1647.51
-104.77448717,40.80912598,1647.47
-104.77448790,40.80911850,1647.44
-104.77448827,40.80911481,1647.41
-104.77448986,40.80909950,1647.32
-104.77449060,40.80909175,1647.28
-104.77449097,40.80908806,1647.24
-104.77449134,40.80908446,1647.21
-104.77449171,40.80908076,1647.19
-104.77449207,40.80907716,1647.12
-104.77449330,40.80906563,1647.04
-104.77449403,40.80905843,1646.96
-104.77449514,40.80904690,1646.90
-104.77449551,40.80904303,1646.84
-104.77449588,40.80903906,1646.83
-104.77449662,40.80903150,1646.76
-104.77449735,40.80902429,1646.75
-104.77449772,40.80902060,1646.70
-104.77449894,40.80900907,1646.61
-104.77449968,40.80900168,1646.52
-104.77450042,40.80899394,1646.47
-104.77450079,40.80899016,1646.43
-104.77450116,40.80898628,1646.41
-104.77450189,40.80897854,1646.35
-104.77450385,40.80895989,1646.20
-104.77450422,40.80895611,1646.10
-104.77450533,40.80894503,1646.10
-104.77450570,40.80894107,1646.09
-104.77450606,40.80893720,1646.08
-104.77450643,40.80893341,1646.07
-104.77450680,40.80892954,1646.02
-104.77450791,40.80891801,1645.96
-104.77450864,40.80891072,1645.89
-104.77451061,40.80889162,1645.73
-104.77451134,40.80888406,1645.70
-104.77451208,40.80887649,1645.67
-104.77451245,40.80887262,1645.70
-104.77451355,40.80886109,1645.62
-104.77451429,40.80885370,1645.56
-104.77451466,40.80885001,1645.53
-104.77451540,40.80884244,1645.49
-104.77451650,40.80883119,1645.43
-104.77451687,40.80882722,1645.40
-104.77451761,40.80881948,1645.34
-104.77451957,40.80880038,1645.29
-104.77452215,40.80877417,1645.23
-104.77452411,40.80875472,1645.14
-104.77452485,40.80874724,1645.11
-104.77452558,40.80873986,1645.08
-104.77452595,40.80873607,1645.06
-104.77452743,40.80872085,1645.01
-104.77452853,40.80870932,1645.00
-104.77452964,40.80869789,1644.96
-104.77453148,40.80867915,1644.90
-104.77453222,40.80867141,1644.86
-104.77453295,40.80866384,1644.85
-104.77453332,40.80866006,1644.84
-104.77453443,40.80864862,1644.78
-104.77453627,40.80862925,1644.73
-104.77453701,40.80862178,1644.70
-104.77453775,40.80861421,1644.65
-104.77453885,40.80860277,1644.64
-104.77454082,40.80858314,1644.56
-104.77454266,40.80856449,1644.50
-104.77454339,40.80855675,1644.48
-104.77454413,40.80854909,1644.44
-104.77454450,40.80854531,1644.43
-104.77454646,40.80852549,1644.33
-104.77454794,40.80851045,1644.27
-104.77454868,40.80850280,1644.26
-104.77454978,40.80849136,1644.19
-104.77455015,40.80848758,1644.20
-104.77455126,40.80847587,1644.16
-104.77455506,40.80843732,1644.03
-104.77455629,40.80842579,1643.96
-104.77455825,40.80840597,1643.87
-104.77456009,40.80838697,1643.80
-104.77456046,40.80838319,1643.80
-104.77456120,40.80837562,1643.80
-104.77456157,40.80837184,1643.77
-104.77456267,40.80836004,1643.73
-104.77456304,40.80835608,1643.73
-104.77456685,40.80831744,1643.60
-104.77456759,40.80830978,1643.59
-104.77456832,40.80830195,1643.57
-104.77456869,40.80829798,1643.51
-104.77457250,40.80825925,1643.45
-104.77457287,40.80825547,1643.43
-104.77457398,40.80824367,1643.42
-104.77457619,40.80822034,1643.41
-104.77457656,40.80821656,1643.41
-104.77457693,40.80821269,1643.41
-104.77457729,40.80820882,1643.39
-104.77457840,40.80819738,1643.36
-104.77458000,40.80818125,1643.35
-104.77458184,40.80816207,1643.29
-104.77458221,40.80815820,1643.29
-104.77458491,40.80813064,1643.24
-104.77458835,40.80809578,1643.19
-104.77458872,40.80809200,1643.23
-104.77458945,40.80808416,1643.26
-104.77459056,40.80807236,1643.29
-104.77459130,40.80806453,1643.28
-104.77459167,40.80806065,1643.30
-104.77459314,40.80804534,1643.31
-104.77459351,40.80804147,1643.31
-104.77459425,40.80803354,1643.31
-104.77459462,40.80802958,1643.35
-104.77459720,40.80800220,1643.41
-104.77459757,40.80799814,1643.42
-104.77459966,40.80797545,1643.51
-104.77460114,40.80795996,1643.59
-104.77460188,40.80795203,1643.57
-104.77460446,40.80792474,1643.66
-104.77460630,40.80790537,1643.72
-104.77460741,40.80789358,1643.75
-104.77460962,40.80786998,1643.87
-104.77460999,40.80786610,1643.85
-104.77461073,40.80785836,1643.88
-104.77461147,40.80785052,1643.91
-104.77461220,40.80784269,1643.89
-104.77461294,40.80783467,1643.93
-104.77461479,40.80781495,1644.01
-104.77461516,40.80781107,1644.02
-104.77461626,40.80779954,1644.04
-104.77461737,40.80778783,1644.07
-104.77462351,40.80772434,1644.17
-104.77462585,40.80770020,1644.13
-104.77462695,40.80768867,1644.13
-104.77463003,40.80765661,1644.12
-104.77463310,40.80762463,1644.09
-104.77463543,40.80760049,1644.02
-104.77463703,40.80758410,1643.98
-104.77463973,40.80755609,1643.90
-104.77464170,40.80753600,1643.87
-104.77464489,40.80750322,1643.71
-104.77464686,40.80748304,1643.65
-104.77464808,40.80747052,1643.61
-104.77464968,40.80745422,1643.53
-104.77465422,40.80740910,1643.32
-104.77465545,40.80739667,1643.26
-104.77465864,40.80736424,1643.08
-104.77466146,40.80733515,1643.00
-104.77466429,40.80730642,1642.85
-104.77466674,40.80728138,1642.73
-104.77466834,40.80726490,1642.69
-104.77449258,40.80724726,1641.94
-104.77434454,40.80723490,1641.71
-104.77420811,40.80722571,1641.94
-104.77414766,40.80722154,1642.03
-104.77402498,40.80721373,1642.16
-104.77380036,40.80719780,1641.97
-104.77369641,40.80719048,1641.54
-104.77358096,40.80718187,1641.08
-104.77355109,40.80717983,1640.99
-104.77338835,40.80716915,1640.29
-104.77333252,40.80716544,1640.04
-104.77328321,40.80716237,1639.87
-104.77322833,40.80715893,1639.66
-104.77309367,40.80715101,1639.05
-104.77302942,40.80714746,1638.77
-104.77296470,40.80714364,1638.61
-104.77291231,40.80714083,1638.49
-104.77274956,40.80713339,1638.12
-104.77262687,40.80712712,1637.81
-104.77256191,40.80712429,1637.66
-104.77248569,40.80712098,1637.54
-104.77240413,40.80711731,1637.36
-104.77237734,40.80711618,1637.28
-104.77230135,40.80711314,1637.17
-104.77221256,40.80710981,1636.97
-104.77212318,40.80710649,1636.73
-104.77203949,40.80710299,1636.52
-104.77200772,40.80710193,1636.46
-104.77187958,40.80709727,1636.14
-104.77186013,40.80709669,1636.08
-104.77176518,40.80709344,1635.88
-104.77165742,40.80709007,1635.61
-104.77158783,40.80708849,1635.51
-104.77148600,40.80708586,1635.29
-104.77140432,40.80708371,1635.13
-104.77130676,40.80708109,1634.92
-104.77125886,40.80707991,1634.84
-104.77119793,40.80707826,1634.72
-104.77103042,40.80707441,1634.39
-104.77097197,40.80707286,1634.21
-104.77093024,40.80707196,1634.10
-104.77074613,40.80706853,1633.77
-104.77073511,40.80706842,1633.74
-104.77070630,40.80706809,1633.73
-104.77067737,40.80706777,1633.73
-104.77052634,40.80706449,1633.19
-104.77038762,40.80706530,1633.80
-104.77025946,40.80706558,1634.00
-104.77023172,40.80706580,1634.04
-104.77013414,40.80706633,1634.25
-104.77009170,40.80706624,1634.34
-104.76998404,40.80706765,1634.74
-104.76989915,40.80706892,1635.00
-104.76985670,40.80706929,1635.09
-104.76975545,40.80707062,1635.28
-104.76974407,40.80707068,1635.28
-104.76972818,40.80707101,1635.34
-104.76966759,40.80707206,1635.49
-104.76965574,40.80707231,1635.57
-104.76957239,40.80707340,1635.66
-104.76953836,40.80707415,1635.65
-104.76949757,40.80707478,1635.73
-104.76939109,40.80707818,1636.48
-104.76936323,40.80707920,1636.58
-104.76931129,40.80708099,1636.88
-104.76919865,40.80708428,1637.41
-104.76914553,40.80708552,1637.66
-104.76909763,40.80708723,1637.90
-104.76904166,40.80708928,1638.22
-104.76903324,40.80708962,1638.27
-104.76892830,40.80709410,1638.80
-104.76888799,40.80709573,1639.05
-104.76886321,40.80709667,1639.14
-104.76875768,40.80710024,1639.68
-104.76874866,40.80710058,1639.73
-104.76872507,40.80710144,1639.82
-104.76865321,40.80710426,1640.21
-104.76858041,40.80710691,1640.49
-104.76853428,40.80710862,1640.70
-104.76839330,40.80711356,1640.96
-104.76828694,40.80711704,1641.07
-104.76825718,40.80711815,1641.06
-104.76819671,40.80712001,1641.08
-104.76816659,40.80712058,1641.04
-104.76811335,40.80712246,1640.97
-104.76808430,40.80712366,1640.99
-104.76799822,40.80712628,1640.92
-104.76796407,40.80712729,1640.92
-104.76795648,40.80712764,1640.92
-104.76792209,40.80712901,1640.90
-104.76785474,40.80713095,1640.92
-104.76775004,40.80713470,1640.84
-104.76773712,40.80713503,1640.85
-104.76768032,40.80713717,1640.89
-104.76760692,40.80714072,1641.04
-104.76758321,40.80714157,1641.03
-104.76748360,40.80714551,1641.20
-104.76738708,40.80714955,1641.41
-104.76736526,40.80715077,1641.46
-104.76734843,40.80715164,1641.48
-104.76732601,40.80715303,1641.56
-104.76722072,40.80715778,1642.00
-104.76721016,40.80715830,1641.96
-104.76719368,40.80715916,1641.97
-104.76713807,40.80716157,1642.13
-104.76706206,40.80716538,1642.40
-104.76703526,40.80716659,1642.45
-104.76697194,40.80717025,1642.70
-104.76691288,40.80717355,1643.08
-104.76687446,40.80717618,1643.41
-104.76678125,40.80718139,1644.08
-104.76670477,40.80718484,1644.16
-104.76668307,40.80718552,1644.19
-104.76666683,40.80718621,1644.20
-104.76657482,40.80718926,1644.24
-104.76654351,40.80719055,1644.24
-104.76649442,40.80719198,1644.19
-104.76647296,40.80719284,1644.19
-104.76639186,40.80719493,1644.11
-104.76632961,40.80719696,1644.03
-104.76626724,40.80719846,1643.92
-104.76623321,40.80719929,1643.85
-104.76622669,40.80719946,1643.85
-104.76596137,40.80719397,1639.20
-104.76570488,40.80720948,1642.02
-104.76568650,40.80720962,1641.92
-104.76562520,40.80721058,1641.72
-104.76559722,40.80721079,1641.60
-104.76556521,40.80721091,1641.46
-104.76554790,40.80721096,1641.35
-104.76552004,40.80721109,1641.26
-104.76548222,40.80721137,1641.07
-104.76543337,40.80721226,1640.82
-104.76538523,40.80721261,1640.67
-104.76530603,40.80721254,1640.24
-104.76528019,40.80721330,1640.17
-104.76519779,40.80721385,1639.87
-104.76513080,40.80721417,1639.66
-104.76512155,40.80721424,1639.67
-104.76509132,40.80721454,1639.55
-104.76507152,40.80721495,1639.51
-104.76502895,40.80721558,1639.36
-104.76496612,40.80721528,1639.19
-104.76494229,40.80721541,1639.13
-104.76488644,40.80721556,1638.98
-104.76484862,40.80721567,1638.91
-104.76480203,40.80721647,1638.78
-104.76476433,40.80721631,1638.67
-104.76473042,40.80721597,1638.52
-104.76465110,40.80721580,1638.24
-104.76461399,40.80721582,1638.00
-104.76458530,40.80721549,1637.89
-104.76456752,40.80721581,1637.81
-104.76442988,40.80721490,1637.00
-104.76439680,40.80721321,1636.83
-104.76435104,40.80721348,1636.61
-104.76430931,40.80721276,1636.43
-104.76425786,40.80721239,1636.22
-104.76423426,40.80721198,1636.13
-104.76417000,40.80721203,1635.94
-104.76412590,40.80721140,1635.85
-104.76409532,40.80721098,1635.70
-104.76403260,40.80721067,1635.52
-104.76401660,40.80721036,1635.47
-104.76397794,40.80721047,1635.40
-104.76394428,40.80720995,1635.29
-104.76392116,40.80720999,1635.22
-104.76384528,40.80720911,1635.05
-104.76378683,40.80720881,1634.96
-104.76375186,40.80720874,1634.91
-104.76368144,40.80720842,1634.82
-104.76366425,40.80720820,1634.77
-104.76365737,40.80720828,1634.74
-104.76362927,40.80720831,1634.65
-104.76356063,40.80720736,1634.61
-104.76349981,40.80720678,1634.52
-104.76347479,40.80720637,1634.48
-104.76345452,40.80720597,1634.48
-104.76341623,40.80720535,1634.40
-104.76338067,40.80720420,1634.37
-104.76335909,40.80720370,1634.31
-104.76333088,40.80720292,1634.32
-104.76330669,40.80720215,1634.18
-104.76329176,40.80720167,1634.24
-104.76328808,40.80720158,1634.19
-104.76327006,40.80720109,1634.26
-104.76323272,40.80719930,1634.17
-104.76320024,40.80719833,1634.17
-104.76313836,40.80719559,1634.09
-104.76311916,40.80719456,1634.02
-104.76307554,40.80719303,1633.90
-104.76304566,40.80719144,1633.83
-104.76304033,40.80719116,1633.80
-104.76301923,40.80719039,1633.77
-104.76299931,40.80718981,1633.77
-104.76296233,40.80718929,1633.71
-104.76292000,40.80718893,1633.64
-104.76290672,40.80718872,1633.60
-104.76288882,40.80718823,1633.58
-104.76288912,40.80597316,1632.85
-104.76289030,40.80597254,1632.81
-104.76289315,40.80597092,1632.82
-104.76290718,40.80596176,1632.86
-104.76292191,40.80595179,1632.84
-104.76292334,40.80595017,1632.86
-104.76308026,40.80579681,1632.67
-104.76311510,40.80576958,1632.73
-104.76314434,40.80574820,1632.62
-104.76315088,40.80574281,1632.63
-104.76316182,40.80573392,1632.59
-104.76323837,40.80567768,1632.62
-104.76327736,40.80564767,1632.96
-104.76332668,40.80561309,1632.63
-104.76336496,40.80558551,1632.62
-104.76341607,40.80554877,1632.62
-104.76344115,40.80553018,1632.63
-104.76346777,40.80551131,1632.65
-104.76349047,40.80549577,1632.64
-104.76353386,40.80546424,1632.61
-104.76358805,40.80542616,1632.58
-104.76360969,40.80541017,1632.61
-104.76364570,40.80538394,1632.57
-104.76367209,40.80536534,1632.55
-104.76370430,40.80534253,1632.58
-104.76371749,40.80533318,1632.56
-104.76373591,40.80532034,1632.57
-104.76377133,40.80529402,1632.60
-104.76380342,40.80527129,1632.60
-104.76384871,40.80523886,1632.62
-104.76390755,40.80519601,1632.67
-104.76393607,40.80517580,1632.70
-104.76394570,40.80516907,1632.71
-104.76396472,40.80515505,1632.73
-104.76400002,40.80512999,1632.75
-104.76404696,40.80509757,1632.67
-104.76406740,40.80508310,1632.72
-104.76410056,40.80505948,1632.81
-104.76415582,40.80502185,1632.85
-104.76419041,40.80499768,1632.82
-104.76420764,40.80498583,1632.85
-104.76421965,40.80497729,1632.84
-104.76424841,40.80495717,1632.83
-104.76428418,40.80493310,1632.89
-104.76433873,40.80489529,1632.95
-104.76435002,40.80488729,1632.98
-104.76438021,40.80486655,1633.01
-104.76440968,40.80484535,1633.02
-104.76445176,40.80481534,1633.07
-104.76447636,40.80479810,1633.08
-104.76455764,40.80474313,1633.00
-104.76459437,40.80471771,1632.93
-104.76463870,40.80468690,1632.72
-104.76473508,40.80461981,1632.43
-104.76476040,40.80460238,1632.29
-104.76485131,40.80453870,1632.03
-104.76489541,40.80450708,1631.85
-104.76493998,40.80447519,1631.75
-104.76495234,40.80446647,1631.73
-104.76498431,40.80444384,1631.68
-104.76500297,40.80442991,1631.62
-104.76506585,40.80438473,1631.50
-104.76509651,40.80436254,1631.41
-104.76516451,40.80431142,1631.28
-104.76521977,40.80427135,1631.23
-104.76522572,40.80426686,1631.17
-104.76523237,40.80426174,1631.19
-104.76534518,40.80417666,1630.95
-104.76535731,40.80416785,1630.95
-104.76539142,40.80414144,1630.92
-104.76542031,40.80411979,1630.93
-104.76544420,40.80410209,1630.94
-104.76548343,40.80407163,1630.89
-104.76550007,40.80405905,1630.91
-104.76552789,40.80403686,1630.89
-104.76557723,40.80399849,1630.92
-104.76559946,40.80398133,1630.91
-104.76563738,40.80395150,1630.89
-104.76568006,40.80391780,1630.88
-104.76575329,40.80385922,1630.95
-104.76577802,40.80383927,1630.91
-104.76584947,40.80378239,1630.69
-104.76585411,40.80377870,1630.70
-104.76586114,40.80376764,1630.66
-104.76584822,40.80376653,1630.69
-104.76559630,40.80376575,1630.83
-104.76513810,40.80376482,1630.55
-104.76481990,40.80376417,1630.77
-104.76478481,40.80376410,1630.78
-104.76421932,40.80376303,1631.30
-104.76396929,40.80376243,1631.49
-104.76381198,40.80376211,1631.59
-104.76359088,40.80376166,1631.47
-104.76343889,40.80376135,1631.18
-104.76320120,40.80376086,1630.84
-104.76310054,40.80376065,1630.54
-104.76303475,40.80376052,1630.48
-104.76293279,40.80376031,1630.37
-104.76289486,40.80376041,1630.40
-104.76289420,40.80377860,1630.38
-104.76289365,40.80393310,1630.43
-104.76289343,40.80399553,1630.48
-104.76289310,40.80408859,1630.55
-104.76289163,40.80450072,1630.90
-104.76289025,40.80488863,1631.16
-104.76288961,40.80506718,1631.34
-104.76288922,40.80517843,1631.45
-104.76288868,40.80532842,1631.62
-104.76288864,40.80534058,1631.62
-104.76288837,40.80541761,1631.73
-104.76288799,40.80552327,1631.85
-104.76288747,40.80566930,1632.12
-104.76288670,40.80588704,1632.69
-104.76288651,40.80593820,1632.76
-104.76288648,40.80594712,1632.83
-104.76288648,40.80594838,1632.79
-104.76288654,40.80596298,1632.82
-104.76288793,40.80597316,1632.86
-104.76288912,40.80597316,1632.85
-104.76288882,40.80718823,1633.58
-104.76288443,40.80718913,1633.58
-104.76288184,40.80725218,1633.72
-104.76288161,40.80731479,1633.88
-104.76288111,40.80745568,1634.15
-104.76288020,40.80771215,1634.68
-104.76287946,40.80792079,1634.97
-104.76287896,40.80805961,1635.09
-104.76287849,40.80819356,1635.07
-104.76287812,40.80829518,1634.98
-104.76287757,40.80845049,1634.95
-104.76287714,40.80857120,1634.97
-104.76287687,40.80864831,1635.08
-104.76287672,40.80868885,1635.20
-104.76287661,40.80872182,1635.30
-104.76287633,40.80880046,1635.49
-104.76287618,40.80884109,1635.64
-104.76287570,40.80897586,1636.00
-104.76287527,40.80909819,1636.40
-104.76287507,40.80915423,1636.62
-104.76287451,40.80930953,1637.20
-104.76287446,40.80932539,1637.22
-104.76287428,40.80937565,1637.35
-104.76287410,40.80942619,1637.62
-104.76287404,40.80944133,1637.67
-104.76287365,40.80955303,1637.93
-104.76287335,40.80963663,1638.01
-104.76287313,40.80969906,1638.10
-104.76287293,40.80975563,1638.24
-104.76287275,40.80980608,1638.26
-104.76287255,40.80986004,1638.25
-104.76287230,40.80993094,1638.24
-104.76287196,40.81002543,1638.14
-104.76287180,40.81007219,1638.04
-104.76287161,40.81012507,1637.97
-104.76287154,40.81014372,1637.98
-104.76287123,40.81023200,1637.93
-104.76287114,40.81025596,1637.87
-104.76287100,40.81029650,1637.86
-104.76287097,40.81030596,1637.88
-104.76287059,40.81041127,1637.90
-104.76287055,40.81042235,1637.89
-104.76287013,40.81054045,1638.04
-104.76287005,40.81056324,1638.00
-104.76286951,40.81071548,1637.96
-104.76286938,40.81075251,1637.95
-104.76286884,40.81090394,1638.05
-104.76286880,40.81091313,1638.07
-104.76286856,40.81098303,1638.11
-104.76286823,40.81107447,1638.17
-104.76286804,40.81112753,1638.24
-104.76286778,40.81120086,1638.17
-104.76286757,40.81125860,1638.30
-104.76286751,40.81127653,1638.28
-104.76286745,40.81129464,1638.31
-104.76286737,40.81131536,1638.34
-104.76286720,40.81136508,1638.52
-104.76286694,40.81143760,1638.60
-104.76286670,40.81150354,1638.61
-104.76286626,40.81162660,1638.97
-104.76286614,40.81166227,1639.14
-104.76286605,40.81168587,1639.20
-104.76286589,40.81173146,1639.41
-104.76286567,40.81179397,1639.75
-104.76286558,40.81181911,1639.80
-104.76286547,40.81184911,1639.98
-104.76286546,40.81185271,1639.99
-104.76286537,40.81187667,1640.06
-104.76286526,40.81190973,1640.16
-104.76286517,40.81193279,1640.23
-104.76286510,40.81195433,1640.35
-104.76286497,40.81199099,1640.49
-104.76286481,40.81203513,1640.57
-104.76286473,40.81205828,1640.57
-104.76286454,40.81211071,1640.45
-104.76286438,40.81215521,1640.29
-104.76286438,40.81215639,1640.32
-104.76286433,40.81216954,1640.23
-104.76286418,40.81221161,1639.57
-104.76286413,40.81222710,1639.37
-104.76286412,40.81222890,1639.40
-104.76286368,40.81235241,1639.77
-104.76286345,40.81241835,1639.29
-104.76286340,40.81243141,1639.27
-104.76286322,40.81248051,1639.17
-104.76286305,40.81252870,1639.10
-104.76286299,40.81254501,1639.12
-104.76286283,40.81259221,1639.11
-104.76286281,40.81259762,1639.10
-104.76286280,40.81259951,1639.08
-104.76286258,40.81266041,1639.08
-104.76286240,40.81271221,1639.05
-104.76286234,40.81273013,1639.04
-104.76286232,40.81276761,1639.07
-104.76286327,40.81276779,1639.05
-104.76288070,40.81276855,1639.14
-104.76297650,40.81276883,1639.53
-104.76301954,40.81276892,1639.72
-104.76307633,40.81276904,1640.08
-104.76309933,40.81276909,1640.17
-104.76311380,40.81276912,1640.28
-104.76316170,40.81276921,1640.56
-104.76323652,40.81276937,1640.93
-104.76324790,40.81276939,1640.97
-104.76325217,40.81276940,1640.97
-104.76327648,40.81276945,1641.09
-104.76338544,40.81276967,1641.58
-104.76340405,40.81276971,1641.65
-104.76344069,40.81276979,1641.77
-104.76345990,40.81276983,1641.88
-104.76357005,40.81277005,1642.33
-104.76358108,40.81277007,1642.38
-104.76363064,40.81277018,1642.53
-104.76364534,40.81277021,1642.58
-104.76365791,40.81277023,1642.66
-104.76369727,40.81277031,1642.75
-104.76377410,40.81277047,1643.00
-104.76398444,40.81277090,1643.42
-104.76401302,40.81277096,1643.40
-104.76404978,40.81277103,1643.45
-104.76405025,40.81277104,1643.46
-104.76405155,40.81277104,1643.45
-104.76405203,40.81277104,1643.41
-104.76424778,40.81277144,1643.53
-104.76425976,40.81277146,1643.55
-104.76428086,40.81277151,1643.52
-104.76430695,40.81277156,1643.59
-104.76443702,40.81277183,1643.68
-104.76445931,40.81277187,1643.74
-104.76449630,40.81277195,1643.73
-104.76456377,40.81277208,1643.87
-104.76461238,40.81277218,1643.99
-104.76462542,40.81277221,1643.98
-104.76463088,40.81277222,1644.00
-104.76469135,40.81277235,1644.11
-104.76475703,40.81277248,1644.24
-104.76478537,40.81277254,1644.25
-104.76478893,40.81277254,1644.22
-104.76479391,40.81277255,1644.23
-104.76491615,40.81277280,1644.48
-104.76491722,40.81277281,1644.48
-104.76496429,40.81277290,1644.59
-104.76497140,40.81277292,1644.57
-104.76499761,40.81277297,1644.63
-104.76501480,40.81277300,1644.72
-104.76503448,40.81277304,1644.71
-104.76507539,40.81277313,1644.79
-104.76517842,40.81277334,1644.99
-104.76539671,40.81277378,1645.64
-104.76540928,40.81277381,1645.68
-104.76543382,40.81277386,1645.76
-104.76545516,40.81277390,1645.82
-104.76550828,40.81277401,1645.98
-104.76565530,40.81277431,1646.44
-104.76571684,40.81277443,1646.66
-104.76571696,40.81277443,1646.67
-104.76578526,40.81277457,1646.84
-104.76585094,40.81277470,1647.07
-104.76587312,40.81277475,1647.16
-104.76590371,40.81277481,1647.29
-104.76596797,40.81277494,1647.52
-104.76611428,40.81277524,1648.02
-104.76618234,40.81277538,1648.22
-104.76621542,40.81277544,1648.27
-104.76622087,40.81277545,1648.31
-104.76627316,40.81277556,1648.39
-104.76636790,40.81277575,1648.46
-104.76645173,40.81277592,1648.47
-104.76653425,40.81277609,1648.48
-104.76670025,40.81277642,1648.37
-104.76670973,40.81277644,1648.35
-104.76672787,40.81277648,1648.37
-104.76673368,40.81277649,1648.37
-104.76679688,40.81277662,1648.27
-104.76682059,40.81277667,1648.26
-104.76684182,40.81277671,1648.23
-104.76694165,40.81277691,1648.08
-104.76696679,40.81277696,1648.03
-104.76701635,40.81277706,1647.99
-104.76705073,40.81277713,1647.94
-104.76706105,40.81277715,1647.92
-104.76707148,40.81277717,1647.89
-104.76707836,40.81277719,1647.89
-104.76709591,40.81277722,1647.88
-104.76710800,40.81277725,1647.83
-104.76718851,40.81277741,1647.69
-104.76722206,40.81277748,1647.70
     </coordinates>
    </LineString>
   </MultiGeometry>
  </Placemark>
 </Document>
</kml>
