<kml>
 <Document>
  <Style id="yellow">
   <LineStyle>
   <color>ff00ffff</color>
   <width>1</width>
   </LineStyle>
  </Style>
  <Style id="red">
   <LineStyle>
   <color>ffff0000</color>
   <width>2</width>
   </LineStyle>
  </Style>
  <Style id="green">
   <LineStyle>
   <color>ff00ff00</color>
   <width>1</width>
   </LineStyle>
  </Style>
  <Placemark>
  <styleUrl>#yellow</styleUrl>
   <MultiGeometry>
    <LineString>
     <coordinates>
-104.75100842,40.81193827,1649.07
-104.75100838,40.81194691,1649.00
-104.75100829,40.81197106,1649.06
-104.75100826,40.81198151,1649.07
-104.75100812,40.81201664,1649.11
-104.75100795,40.81206330,1649.09
-104.75100790,40.81207700,1649.10
-104.75100789,40.81208015,1649.09
-104.75100770,40.81212916,1649.08
-104.75100739,40.81221194,1649.22
-104.75100714,40.81228122,1649.32
-104.75100695,40.81233176,1649.42
-104.75100679,40.81237292,1649.38
-104.75100677,40.81237959,1649.42
-104.75100676,40.81238130,1649.43
-104.75100673,40.81238941,1649.42
-104.75100665,40.81241013,1649.37
-104.75100663,40.81241517,1649.38
-104.75100653,40.81244283,1649.34
-104.75100652,40.81244661,1649.34
-104.75100647,40.81246031,1649.53
-104.75100643,40.81247067,1649.63
-104.75100642,40.81247310,1649.62
-104.75100636,40.81248886,1649.61
-104.75100635,40.81249111,1649.58
-104.75100627,40.81251228,1649.62
-104.75100620,40.81253264,1649.68
-104.75100615,40.81254553,1649.65
-104.75100596,40.81259696,1649.75
-104.75100576,40.81264921,1649.81
-104.75100570,40.81266498,1649.83
-104.75100556,40.81273371,1649.94
-104.75100588,40.81274272,1649.93
-104.75100719,40.81274318,1649.93
-104.75102307,40.81274366,1649.92
-104.75104560,40.81274371,1649.89
-104.75104714,40.81274371,1649.85
-104.75105959,40.81274374,1649.85
-104.75106268,40.81274375,1649.87
-104.75106505,40.81274375,1649.87
-104.75109813,40.81274382,1649.81
-104.75111816,40.81274386,1649.77
-104.75112955,40.81274389,1649.77
-104.75116251,40.81274396,1649.68
-104.75118350,40.81274401,1649.66
-104.75118682,40.81274401,1649.64
-104.75119820,40.81274404,1649.66
-104.75121160,40.81274407,1649.63
-104.75121551,40.81274407,1649.65
-104.75123827,40.81274412,1649.60
-104.75125404,40.81274416,1649.56
-104.75126175,40.81274417,1649.58
-104.75126341,40.81274418,1649.58
-104.75126910,40.81274419,1649.59
-104.75127835,40.81274421,1649.55
-104.75129448,40.81274425,1649.55
-104.75131487,40.81274429,1649.52
-104.75135447,40.81274437,1649.48
-104.75135542,40.81274438,1649.48
-104.75136384,40.81274439,1649.47
-104.75136941,40.81274441,1649.47
-104.75138387,40.81274444,1649.46
-104.75138826,40.81274445,1649.44
-104.75147600,40.81274464,1649.40
-104.75148537,40.81274466,1649.42
-104.75149960,40.81274469,1649.39
-104.75151062,40.81274471,1649.41
-104.75151466,40.81274472,1649.41
-104.75154738,40.81274479,1649.38
-104.75155058,40.81274480,1649.38
-104.75159042,40.81274488,1649.39
-104.75164449,40.81274500,1649.29
-104.75171337,40.81274515,1649.27
-104.75172642,40.81274517,1649.25
-104.75174397,40.81274521,1649.26
-104.75175962,40.81274525,1649.27
-104.75176270,40.81274525,1649.26
-104.75181499,40.81274537,1649.22
-104.75182590,40.81274539,1649.23
-104.75185862,40.81274546,1649.23
-104.75186692,40.81274548,1649.24
-104.75187641,40.81274550,1649.26
-104.75188447,40.81274551,1649.29
-104.75190024,40.81274555,1649.23
-104.75190629,40.81274556,1649.25
-104.75192490,40.81274560,1649.24
-104.75194138,40.81274564,1649.26
-104.75200351,40.81274577,1649.29
-104.75200979,40.81274578,1649.24
-104.75201560,40.81274580,1649.31
-104.75206197,40.81274590,1649.28
-104.75211627,40.81274601,1649.30
-104.75212658,40.81274604,1649.30
-104.75215053,40.81274609,1649.31
-104.75219666,40.81274619,1649.35
-104.75221136,40.81274622,1649.34
-104.75224349,40.81274629,1649.35
-104.75224800,40.81274630,1649.34
-104.75225499,40.81274631,1649.34
-104.75227432,40.81274635,1649.38
-104.75227527,40.81274635,1649.33
-104.75230633,40.81274642,1649.34
-104.75233787,40.81274649,1649.43
-104.75237712,40.81274657,1649.51
-104.75240878,40.81274664,1649.56
-104.75241577,40.81274666,1649.59
-104.75242668,40.81274668,1649.60
-104.75243854,40.81274671,1649.63
-104.75246189,40.81274676,1649.68
-104.75249331,40.81274682,1649.73
-104.75252450,40.81274689,1649.79
-104.75254406,40.81274693,1649.79
-104.75256185,40.81274697,1649.81
-104.75256410,40.81274698,1649.80
-104.75258390,40.81274702,1649.88
-104.75259908,40.81274705,1649.85
-104.75266287,40.81274719,1650.01
-104.75274634,40.81274737,1650.20
-104.75277278,40.81274742,1650.21
-104.75279163,40.81274746,1650.19
-104.75279815,40.81274748,1650.13
-104.75279827,40.81274748,1650.04
-104.75280100,40.81274748,1650.11
-104.75285234,40.81274759,1650.24
-104.75286360,40.81274762,1650.27
-104.75289028,40.81274767,1650.29
-104.75289052,40.81274767,1650.30
-104.75290368,40.81274770,1650.30
-104.75292704,40.81274775,1650.28
-104.75295134,40.81274780,1650.28
-104.75302296,40.81274796,1650.35
-104.75305153,40.81274802,1650.33
-104.75309042,40.81274810,1650.33
-104.75311686,40.81274816,1650.30
-104.75312149,40.81274817,1650.31
-104.75312659,40.81274818,1650.25
-104.75314496,40.81274822,1650.32
-104.75328962,40.81274853,1650.26
-104.75329744,40.81274855,1650.32
-104.75332981,40.81274861,1650.11
-104.75339846,40.81274876,1650.09
-104.75342597,40.81274882,1650.11
-104.75345324,40.81274888,1650.07
-104.75347992,40.81274894,1650.02
-104.75348170,40.81274894,1650.03
-104.75349853,40.81274897,1650.02
-104.75358781,40.81274917,1649.94
-104.75359730,40.81274919,1649.95
-104.75361271,40.81274922,1649.96
-104.75366038,40.81274932,1649.92
-104.75368741,40.81274938,1649.90
-104.75373579,40.81274948,1649.89
-104.75374634,40.81274950,1649.90
-104.75375345,40.81274952,1649.88
-104.75389419,40.81274982,1649.87
-104.75389692,40.81274982,1649.85
-104.75391755,40.81274987,1649.84
-104.75398087,40.81275000,1649.82
-104.75398964,40.81275002,1649.85
-104.75400517,40.81275006,1649.84
-104.75406624,40.81275019,1649.78
-104.75409623,40.81275025,1649.71
-104.75417401,40.81275042,1649.76
-104.75419737,40.81275047,1649.64
-104.75425334,40.81275058,1649.61
-104.75429732,40.81275068,1649.60
-104.75430918,40.81275070,1649.60
-104.75431487,40.81275072,1649.58
-104.75434985,40.81275079,1649.58
-104.75435732,40.81275081,1649.55
-104.75436147,40.81275081,1649.55
-104.75437285,40.81275084,1649.56
-104.75437961,40.81275085,1649.56
-104.75441222,40.81275092,1649.53
-104.75443640,40.81275098,1649.50
-104.75452249,40.81275116,1649.38
-104.75454857,40.81275121,1649.40
-104.75455711,40.81275123,1649.41
-104.75457608,40.81275127,1649.39
-104.75462149,40.81275137,1649.31
-104.75474895,40.81275164,1649.28
-104.75477883,40.81275170,1649.20
-104.75478535,40.81275172,1649.22
-104.75481547,40.81275178,1649.20
-104.75483811,40.81275183,1649.15
-104.75496415,40.81275210,1648.99
-104.75497601,40.81275212,1648.98
-104.75498514,40.81275214,1648.98
-104.75510477,40.81275240,1648.81
-104.75522464,40.81275265,1648.64
-104.75522488,40.81275265,1648.67
-104.75529092,40.81275279,1648.58
-104.75531843,40.81275285,1648.54
-104.75535625,40.81275293,1648.51
-104.75537594,40.81275297,1648.46
-104.75539028,40.81275300,1648.43
-104.75540831,40.81275304,1648.44
-104.75543522,40.81275310,1648.39
-104.75545870,40.81275315,1648.34
-104.75551193,40.81275326,1648.22
-104.75558142,40.81275341,1648.13
-104.75565481,40.81275356,1648.03
-104.75568990,40.81275364,1647.89
-104.75569797,40.81275365,1647.93
-104.75574777,40.81275376,1647.79
-104.75574895,40.81275376,1647.80
-104.75577990,40.81275383,1647.71
-104.75587843,40.81275403,1647.56
-104.75590190,40.81275408,1647.49
-104.75590368,40.81275409,1647.50
-104.75594566,40.81275418,1647.43
-104.75606055,40.81275442,1647.37
-104.75613121,40.81275457,1647.09
-104.75613145,40.81275457,1647.07
-104.75622820,40.81275477,1646.70
-104.75643676,40.81275521,1644.40
-104.75646309,40.81275527,1644.21
-104.75646522,40.81275528,1644.20
-104.75654063,40.81275543,1643.58
-104.75670319,40.81275578,1642.47
-104.75671718,40.81275581,1642.35
-104.75676022,40.81275590,1642.06
-104.75685519,40.81275610,1641.56
-104.75685590,40.81275610,1641.53
-104.75689918,40.81275619,1641.34
-104.75692017,40.81275623,1641.23
-104.75694838,40.81275629,1641.08
-104.75698822,40.81275638,1640.88
-104.75703304,40.81275647,1640.72
-104.75706114,40.81275653,1640.64
-104.75708272,40.81275658,1640.54
-104.75713572,40.81275669,1640.30
-104.75722963,40.81275689,1640.01
-104.75724528,40.81275692,1639.93
-104.75729069,40.81275701,1639.85
-104.75729899,40.81275703,1639.80
-104.75733195,40.81275710,1639.72
-104.75750447,40.81275746,1639.02
-104.75750874,40.81275747,1639.01
-104.75759245,40.81275765,1638.58
-104.75770840,40.81275789,1637.95
-104.75776378,40.81275801,1637.67
-104.75777836,40.81275804,1637.59
-104.75782448,40.81275814,1637.30
-104.75793807,40.81275837,1636.66
-104.75796878,40.81275844,1636.52
-104.75798633,40.81275848,1636.41
-104.75799332,40.81275849,1636.38
-104.75801087,40.81275853,1636.31
-104.75808569,40.81275868,1636.07
-104.75809055,40.81275869,1636.03
-104.75813644,40.81275879,1635.83
-104.75818860,40.81275890,1635.77
-104.75820224,40.81275893,1635.72
-104.75825892,40.81275905,1635.65
-104.75830302,40.81275914,1635.58
-104.75831085,40.81275916,1635.55
-104.75836077,40.81275926,1635.32
-104.75842076,40.81275939,1635.03
-104.75845716,40.81275946,1635.06
-104.75852747,40.81275961,1635.59
-104.75853423,40.81275962,1635.62
-104.75854111,40.81275964,1635.65
-104.75862316,40.81275981,1635.83
-104.75864853,40.81275986,1635.88
-104.75869608,40.81275996,1635.91
-104.75872856,40.81276003,1635.91
-104.75873959,40.81276005,1635.88
-104.75896605,40.81276053,1635.91
-104.75902261,40.81276064,1635.89
-104.75902392,40.81276065,1635.89
-104.75902984,40.81276066,1635.89
-104.75903269,40.81276067,1635.88
-104.75908877,40.81276078,1635.81
-104.75912932,40.81276087,1635.82
-104.75914343,40.81276090,1635.82
-104.75917272,40.81276096,1635.83
-104.75921872,40.81276105,1635.75
-104.75923793,40.81276109,1635.71
-104.75929058,40.81276120,1635.53
-104.75931061,40.81276125,1635.45
-104.75931702,40.81276126,1635.42
-104.75932864,40.81276128,1635.24
-104.75934737,40.81276132,1635.08
-104.75945894,40.81276155,1634.56
-104.75947163,40.81276158,1634.57
-104.75950933,40.81276166,1634.54
-104.75959280,40.81276183,1634.37
-104.75965541,40.81276196,1634.45
-104.75967557,40.81276201,1634.63
-104.75975821,40.81276218,1635.48
-104.75980279,40.81276227,1636.12
-104.75985496,40.81276238,1636.50
-104.75992325,40.81276252,1636.78
-104.75998704,40.81276265,1636.89
-104.76000317,40.81276269,1636.93
-104.76010016,40.81276289,1637.03
-104.76019513,40.81276309,1637.06
-104.76019892,40.81276310,1637.08
-104.76027552,40.81276325,1637.14
-104.76030587,40.81276332,1637.15
-104.76052534,40.81276377,1637.29
-104.76053198,40.81276379,1637.26
-104.76062672,40.81276398,1637.32
-104.76070474,40.81276414,1637.38
-104.76078868,40.81276432,1637.41
-104.76079058,40.81276432,1637.41
-104.76086089,40.81276447,1637.44
-104.76089776,40.81276455,1637.44
-104.76091425,40.81276458,1637.48
-104.76092847,40.81276461,1637.44
-104.76098242,40.81276472,1637.47
-104.76099677,40.81276475,1637.46
-104.76106909,40.81276490,1637.47
-104.76126888,40.81276531,1637.50
-104.76130825,40.81276540,1637.51
-104.76132769,40.81276544,1637.54
-104.76136042,40.81276550,1637.46
-104.76142112,40.81276563,1637.44
-104.76153459,40.81276586,1637.28
-104.76154515,40.81276589,1637.31
-104.76157301,40.81276594,1637.25
-104.76161107,40.81276602,1637.22
-104.76162933,40.81276606,1637.16
-104.76163739,40.81276608,1637.17
-104.76175145,40.81276631,1637.02
-104.76179094,40.81276639,1636.95
-104.76190334,40.81276663,1636.88
-104.76193832,40.81276670,1636.89
-104.76195847,40.81276674,1636.90
-104.76197472,40.81276677,1636.90
-104.76197484,40.81276677,1636.89
-104.76211652,40.81276706,1636.96
-104.76223533,40.81276731,1636.97
-104.76228880,40.81276742,1637.03
-104.76231264,40.81276747,1637.01
-104.76232722,40.81276750,1637.03
-104.76233279,40.81276751,1637.01
-104.76243405,40.81276772,1637.10
-104.76243867,40.81276773,1637.12
-104.76244757,40.81276775,1637.20
-104.76248835,40.81276783,1637.34
-104.76252547,40.81276791,1637.48
-104.76262400,40.81276811,1637.91
-104.76264308,40.81276815,1637.95
-104.76266775,40.81276820,1638.01
-104.76278110,40.81276843,1638.59
-104.76280659,40.81276848,1638.71
-104.76285034,40.81276813,1638.99
-104.76285627,40.81276787,1638.82
-104.76285888,40.81276751,1638.96
-104.76286197,40.81276554,1639.07
-104.76286240,40.81267924,1639.03
-104.76286247,40.81265861,1639.07
-104.76286268,40.81259933,1639.08
-104.76286270,40.81259573,1639.08
-104.76286289,40.81254114,1639.11
-104.76286310,40.81248114,1639.17
-104.76286313,40.81247456,1639.17
-104.76286318,40.81246015,1639.17
-104.76286326,40.81243592,1639.23
-104.76286334,40.81241439,1639.33
-104.76286342,40.81239096,1639.39
-104.76286347,40.81237700,1639.40
-104.76286369,40.81231637,1639.56
-104.76286371,40.81230989,1639.71
-104.76286371,40.81230935,1639.74
-104.76286379,40.81228800,1639.75
-104.76286398,40.81223359,1639.59
-104.76286402,40.81222314,1639.35
-104.76286442,40.81211170,1640.47
-104.76286462,40.81205441,1640.55
-104.76286468,40.81203783,1640.56
-104.76286486,40.81198694,1640.44
-104.76286526,40.81187613,1640.05
-104.76286535,40.81185145,1639.97
-104.76286537,40.81184541,1639.93
-104.76286606,40.81165092,1639.06
-104.76286616,40.81162308,1638.94
-104.76286617,40.81161939,1638.93
-104.76286627,40.81159300,1638.79
-104.76286628,40.81158957,1638.78
-104.76286630,40.81158228,1638.75
-104.76286652,40.81152093,1638.54
-104.76286668,40.81147688,1638.57
-104.76286683,40.81143373,1638.59
-104.76286708,40.81136391,1638.48
-104.76286718,40.81133481,1638.42
-104.76286734,40.81129076,1638.30
-104.76286767,40.81119969,1638.19
-104.76286803,40.81109753,1638.19
-104.76286807,40.81108690,1638.16
-104.76286827,40.81102862,1638.13
-104.76286828,40.81102799,1638.18
-104.76286847,40.81097375,1638.11
-104.76286870,40.81090952,1638.04
-104.76286885,40.81086782,1638.04
-104.76286891,40.81084908,1638.01
-104.76286918,40.81077548,1638.03
-104.76286935,40.81072764,1637.94
-104.76286940,40.81071206,1637.97
-104.76286962,40.81065134,1638.02
-104.76286979,40.81060261,1638.03
-104.76286994,40.81055973,1638.01
-104.76287022,40.81048117,1637.95
-104.76287027,40.81046685,1637.88
-104.76287063,40.81036676,1637.92
-104.76287169,40.81006840,1638.06
-104.76287170,40.81006579,1638.08
-104.76287188,40.81001724,1638.11
-104.76287200,40.80998102,1638.20
-104.76287206,40.80996427,1638.21
-104.76287220,40.80992715,1638.24
-104.76287224,40.80991337,1638.28
-104.76287282,40.80975239,1638.20
-104.76287282,40.80975212,1638.21
-104.76287329,40.80962113,1637.99
-104.76287334,40.80960663,1638.00
-104.76287394,40.80943763,1637.65
-104.76287441,40.80930593,1637.19
-104.76287496,40.80915071,1636.60
-104.76287536,40.80903838,1636.24
-104.76287556,40.80898288,1636.05
-104.76287608,40.80883704,1635.61
-104.76287650,40.80871813,1635.26
-104.76287699,40.80857949,1635.03
-104.76287704,40.80856760,1634.98
-104.76287739,40.80846742,1634.97
-104.76287747,40.80844688,1634.97
-104.76287802,40.80829140,1635.00
-104.76287838,40.80818942,1635.08
-104.76287886,40.80805582,1635.11
-104.76287971,40.80781665,1634.85
-104.76288009,40.80770837,1634.66
-104.76288054,40.80758234,1634.40
-104.76288151,40.80731091,1633.86
-104.76288161,40.80724785,1633.69
-104.76288151,40.80724380,1633.69
-104.76288076,40.80722290,1633.65
-104.76287957,40.80719011,1633.58
-104.76287697,40.80718704,1633.58
-104.76283038,40.80718604,1633.54
-104.76281710,40.80718592,1633.48
-104.76278829,40.80718559,1633.45
-104.76276067,40.80718464,1633.43
-104.76273222,40.80718404,1633.41
-104.76271835,40.80718356,1633.41
-104.76270341,40.80718344,1633.38
-104.76265481,40.80718244,1633.37
-104.76263086,40.80718203,1633.36
-104.76261486,40.80718181,1633.35
-104.76260027,40.80718151,1633.32
-104.76256412,40.80718045,1633.27
-104.76254361,40.80717969,1633.25
-104.76253247,40.80717930,1633.21
-104.76251065,40.80717854,1633.21
-104.76249453,40.80717796,1633.17
-104.76246643,40.80717773,1633.13
-104.76242091,40.80717583,1633.05
-104.76238037,40.80717458,1633.04
-104.76232217,40.80717202,1632.96
-104.76230972,40.80717209,1632.93
-104.76225519,40.80717044,1632.75
-104.76224997,40.80717007,1632.75
-104.76224251,40.80716961,1632.72
-104.76222010,40.80716821,1632.65
-104.76220635,40.80716719,1632.62
-104.76215383,40.80716780,1632.45
-104.76213439,40.80716668,1632.42
-104.76210606,40.80716500,1632.33
-104.76189413,40.80675206,1629.60
-104.76190472,40.80674173,1630.08
-104.76193944,40.80671288,1630.65
-104.76196631,40.80669059,1630.93
-104.76198130,40.80667828,1631.08
-104.76198582,40.80667433,1631.11
-104.76200770,40.80665591,1631.38
-104.76201578,40.80664917,1631.47
-104.76207119,40.80660415,1631.92
-104.76208320,40.80659372,1632.06
-104.76209510,40.80658285,1632.13
-104.76211508,40.80656577,1632.28
-104.76212804,40.80655526,1632.40
-104.76214967,40.80653855,1632.62
-104.76216228,40.80652749,1632.69
-104.76216620,40.80652417,1632.73
-104.76217976,40.80651267,1632.76
-104.76218297,40.80651006,1632.76
-104.76220140,40.80649532,1632.79
-104.76221602,40.80648409,1632.88
-104.76223909,40.80646639,1632.99
-104.76225823,40.80645229,1633.12
-104.76227309,40.80644034,1633.18
-104.76229627,40.80642273,1633.15
-104.76231125,40.80641069,1633.09
-104.76233503,40.80639236,1633.11
-104.76235440,40.80637817,1633.09
-104.76236404,40.80636999,1633.10
-104.76240315,40.80633980,1633.07
-104.76243798,40.80631312,1633.08
-104.76246271,40.80629362,1633.14
-104.76249101,40.80627161,1633.10
-104.76252025,40.80624852,1633.09
-104.76254926,40.80622678,1633.06
-104.76255378,40.80622327,1633.03
-104.76257755,40.80620458,1633.04
-104.76259693,40.80619030,1633.03
-104.76262392,40.80616927,1633.02
-104.76268335,40.80612471,1633.01
-104.76271390,40.80610181,1633.06
-104.76272686,40.80609138,1633.07
-104.76276312,40.80606425,1633.25
-104.76279343,40.80604170,1633.19
-104.76284478,40.80600568,1632.88
-104.76284656,40.80600443,1632.89
-104.76288555,40.80597568,1632.84
-104.76288603,40.80597469,1632.85
-104.76288630,40.80596532,1632.83
-104.76288636,40.80594748,1632.80
-104.76288638,40.80594100,1632.77
-104.76288714,40.80572894,1632.31
-104.76288791,40.80551174,1631.85
-104.76288796,40.80549904,1631.82
-104.76288804,40.80547535,1631.77
-104.76288831,40.80539986,1631.68
-104.76288873,40.80528140,1631.61
-104.76288912,40.80517230,1631.45
-104.76288927,40.80513024,1631.41
-104.76288962,40.80503285,1631.28
-104.76289096,40.80465540,1631.04
-104.76289220,40.80430749,1630.75
-104.76289286,40.80412201,1630.55
-104.76289292,40.80410588,1630.55
-104.76289330,40.80399814,1630.53
-104.76289346,40.80395301,1630.50
-104.76289342,40.80379896,1630.37
-104.76289293,40.80376770,1630.39
-104.76289212,40.80376455,1630.33
-104.76288833,40.80376184,1630.33
-104.76287423,40.80376037,1630.38
-104.76279741,40.80376003,1630.39
-104.76265301,40.80375973,1630.34
-104.76253161,40.80375948,1630.30
-104.76251253,40.80375944,1630.33
-104.76243286,40.80375928,1630.27
-104.76234264,40.80375909,1630.10
-104.76231514,40.80375904,1630.09
-104.76182587,40.80375803,1628.23
-104.76173720,40.80375784,1629.02
-104.76150045,40.80375735,1629.67
-104.76129796,40.80375694,1629.90
-104.76108706,40.80375650,1630.08
-104.76089856,40.80375611,1629.79
-104.76083383,40.80375598,1629.82
-104.76073923,40.80375578,1629.88
-104.76066786,40.80375563,1629.92
-104.76062767,40.80375555,1629.84
-104.76048410,40.80375525,1629.95
-104.76036093,40.80375499,1630.02
-104.76030130,40.80375487,1630.14
-104.76010723,40.80375447,1630.41
-104.76003313,40.80375431,1630.56
-104.76002329,40.80375429,1630.58
-104.76002128,40.80375429,1630.58
-104.75998868,40.80375422,1630.67
-104.75998678,40.80375422,1630.64
-104.75998121,40.80375420,1630.70
-104.75996532,40.80375417,1630.70
-104.75993722,40.80375411,1630.72
-104.75990510,40.80375405,1630.82
-104.75988471,40.80375400,1630.84
-104.75986230,40.80375396,1630.84
-104.75983491,40.80375390,1630.85
-104.75965495,40.80375353,1631.00
-104.75954482,40.80375330,1631.06
-104.75954019,40.80375329,1631.09
-104.75952075,40.80375325,1631.15
-104.75943895,40.80375308,1631.20
-104.75938240,40.80375296,1631.15
-104.75922413,40.80375263,1631.31
-104.75914091,40.80375245,1631.53
-104.75907867,40.80375232,1631.72
-104.75907334,40.80375231,1631.76
-104.75895028,40.80375206,1632.36
-104.75892420,40.80375200,1632.47
-104.75853203,40.80375118,1634.59
-104.75844631,40.80375100,1635.01
-104.75831318,40.80375072,1635.99
-104.75827501,40.80375064,1636.31
-104.75822842,40.80375055,1636.86
-104.75813713,40.80375035,1637.85
-104.75806434,40.80375020,1638.40
-104.75798953,40.80375004,1638.81
-104.75797851,40.80375002,1638.86
-104.75796357,40.80374999,1638.92
-104.75787738,40.80374981,1639.18
-104.75777626,40.80374960,1639.37
-104.75769647,40.80374943,1639.45
-104.75766494,40.80374936,1639.48
-104.75765498,40.80374934,1639.50
-104.75761859,40.80374927,1639.52
-104.75761052,40.80374925,1639.50
-104.75755777,40.80374914,1639.51
-104.75752446,40.80374907,1639.56
-104.75749754,40.80374901,1639.56
-104.75742606,40.80374886,1639.73
-104.75735232,40.80374871,1639.82
-104.75727763,40.80374855,1639.94
-104.75722262,40.80374843,1639.97
-104.75718397,40.80374835,1640.04
-104.75709008,40.80374815,1640.13
-104.75693181,40.80374782,1640.29
-104.75687989,40.80374771,1640.27
-104.75686187,40.80374767,1640.32
-104.75655328,40.80374702,1640.67
-104.75653822,40.80374699,1640.68
-104.75648926,40.80374689,1640.69
-104.75648890,40.80374689,1640.70
-104.75646152,40.80374683,1640.74
-104.75643650,40.80374678,1640.73
-104.75639963,40.80374670,1640.76
-104.75637936,40.80374666,1640.76
-104.75632305,40.80374654,1640.72
-104.75628322,40.80374645,1640.67
-104.75624528,40.80374637,1640.67
-104.75611037,40.80374609,1640.60
-104.75594594,40.80374574,1640.48
-104.75590160,40.80374565,1640.50
-104.75586947,40.80374558,1640.52
-104.75586414,40.80374557,1640.54
-104.75572839,40.80374528,1640.57
-104.75572211,40.80374527,1640.53
-104.75566414,40.80374514,1640.54
-104.75562075,40.80374505,1640.58
-104.75559573,40.80374500,1640.62
-104.75558613,40.80374498,1640.62
-104.75557712,40.80374496,1640.61
-104.75555175,40.80374491,1640.60
-104.75551939,40.80374484,1640.61
-104.75545904,40.80374471,1640.70
-104.75544482,40.80374468,1640.75
-104.75533314,40.80374444,1640.85
-104.75531714,40.80374441,1640.83
-104.75530967,40.80374439,1640.86
-104.75529331,40.80374436,1640.85
-104.75527517,40.80374432,1640.84
-104.75523652,40.80374424,1640.86
-104.75518732,40.80374413,1640.83
-104.75508727,40.80374392,1640.74
-104.75504079,40.80374382,1640.71
-104.75503676,40.80374381,1640.70
-104.75494157,40.80374361,1640.63
-104.75489936,40.80374352,1640.67
-104.75488430,40.80374349,1640.66
-104.75475508,40.80374322,1640.55
-104.75459575,40.80374288,1640.69
-104.75455995,40.80374280,1640.66
-104.75445207,40.80374257,1640.75
-104.75441994,40.80374250,1640.82
-104.75435865,40.80374237,1640.85
-104.75435059,40.80374235,1640.83
-104.75429629,40.80374224,1640.89
-104.75418900,40.80374201,1640.95
-104.75416292,40.80374196,1641.07
-104.75416161,40.80374195,1641.08
-104.75409096,40.80374180,1641.17
-104.75404508,40.80374170,1641.14
-104.75399813,40.80374160,1641.33
-104.75399173,40.80374159,1641.31
-104.75390922,40.80374141,1641.38
-104.75384769,40.80374128,1641.55
-104.75362268,40.80374080,1641.89
-104.75352890,40.80374060,1642.02
-104.75351278,40.80374057,1642.03
-104.75351195,40.80374057,1642.01
-104.75349345,40.80374053,1642.04
-104.75344236,40.80374042,1642.16
-104.75342007,40.80374037,1642.20
-104.75339648,40.80374032,1642.25
-104.75325196,40.80374001,1642.60
-104.75312998,40.80373975,1642.88
-104.75307141,40.80373962,1643.02
-104.75295464,40.80373937,1643.40
-104.75294575,40.80373936,1643.45
-104.75287070,40.80373919,1643.79
-104.75286904,40.80373919,1643.80
-104.75280289,40.80373905,1644.09
-104.75263360,40.80373869,1645.01
-104.75230877,40.80373808,1646.41
-104.75199366,40.80373731,1646.60
-104.75191968,40.80373715,1646.42
-104.75171091,40.80373670,1645.72
-104.75164926,40.80373657,1645.48
-104.75162520,40.80373652,1645.41
-104.75159698,40.80373646,1645.33
-104.75129705,40.80373581,1644.44
-104.75128804,40.80373579,1644.43
-104.75126148,40.80373574,1644.35
-104.75122437,40.80373566,1644.30
-104.75118015,40.80373556,1644.20
-104.75108496,40.80373554,1644.09
-104.75104560,40.80373563,1644.01
-104.75103978,40.80373778,1643.97
-104.75103916,40.80374382,1643.96
-104.75103878,40.80381489,1643.64
-104.75103861,40.80385930,1643.64
-104.75103858,40.80386894,1643.61
-104.75103849,40.80389354,1643.63
-104.75103821,40.80396804,1643.60
-104.75103780,40.80407722,1643.63
-104.75103755,40.80414487,1643.64
-104.75103750,40.80415784,1643.62
-104.75103744,40.80417217,1643.62
-104.75103733,40.80420343,1643.65
-104.75103684,40.80433495,1644.12
-104.75103665,40.80438504,1644.57
-104.75103629,40.80448116,1645.27
-104.75103625,40.80449233,1645.37
-104.75103614,40.80451989,1645.59
-104.75103595,40.80457196,1646.01
-104.75103566,40.80464835,1646.70
-104.75103566,40.80464935,1646.69
-104.75103543,40.80471231,1647.42
-104.75103521,40.80477069,1647.99
-104.75103500,40.80482564,1648.40
-104.75103470,40.80490636,1648.61
-104.75103468,40.80491050,1648.61
-104.75103452,40.80495383,1648.52
-104.75103449,40.80496149,1648.50
-104.75103438,40.80499320,1648.41
-104.75103434,40.80500401,1648.36
-104.75103401,40.80509184,1647.87
-104.75103388,40.80512580,1647.67
-104.75103380,40.80514778,1647.50
-104.75103350,40.80522634,1647.03
-104.75103336,40.80526616,1646.80
-104.75103332,40.80527688,1646.67
-104.75103331,40.80527904,1646.68
-104.75103318,40.80531282,1646.52
-104.75103313,40.80532606,1646.47
-104.75103262,40.80546218,1646.20
-104.75103223,40.80556785,1646.23
-104.75103221,40.80557199,1646.21
-104.75103221,40.80557226,1646.24
-104.75103221,40.80557307,1646.21
-104.75103199,40.80563226,1646.24
-104.75103196,40.80563883,1646.27
-104.75103122,40.80583729,1646.30
-104.75103111,40.80586567,1646.32
-104.75103106,40.80587981,1646.28
-104.75103090,40.80592278,1646.25
-104.75103083,40.80594116,1646.21
-104.75103052,40.80602467,1646.04
-104.75103050,40.80603061,1646.03
-104.75103041,40.80605485,1645.95
-104.75103015,40.80612349,1645.80
-104.75103011,40.80613448,1645.79
-104.75103004,40.80615430,1645.81
-104.75102952,40.80629276,1645.43
-104.75102920,40.80637798,1645.12
-104.75102911,40.80640104,1645.03
-104.75102900,40.80643293,1644.90
-104.75102864,40.80652779,1644.50
-104.75102849,40.80656896,1644.25
-104.75102831,40.80661643,1644.09
-104.75102827,40.80662778,1644.07
-104.75102805,40.80668544,1643.80
-104.75102787,40.80673381,1643.66
-104.75102782,40.80674615,1643.62
-104.75102775,40.80676561,1643.62
-104.75102761,40.80680354,1643.47
-104.75102754,40.80682282,1643.43
-104.75102734,40.80687543,1643.27
-104.75102726,40.80689840,1643.15
-104.75102722,40.80690705,1643.17
-104.75102715,40.80692578,1643.11
-104.75102714,40.80692984,1643.12
-104.75102706,40.80694975,1643.03
-104.75102699,40.80697074,1643.07
-104.75102689,40.80699569,1643.05
-104.75102687,40.80700290,1643.07
-104.75102677,40.80702794,1643.06
-104.75102674,40.80703560,1643.02
-104.75102674,40.80703596,1643.07
-104.75102672,40.80704127,1643.04
-104.75102592,40.80725567,1643.11
-104.75102589,40.80726342,1643.08
-104.75102589,40.80726369,1643.10
-104.75102582,40.80728279,1643.14
-104.75102576,40.80729927,1643.13
-104.75102572,40.80730918,1643.18
-104.75102564,40.80733008,1643.26
-104.75102558,40.80734801,1643.33
-104.75102551,40.80736404,1643.44
-104.75102549,40.80737125,1643.49
-104.75102545,40.80738215,1643.51
-104.75102541,40.80739134,1643.52
-104.75102532,40.80741710,1643.69
-104.75102511,40.80747260,1644.14
-104.75102510,40.80747521,1644.12
-104.75102488,40.80753304,1644.52
-104.75102488,40.80753403,1644.53
-104.75102485,40.80754232,1644.64
-104.75102466,40.80759331,1644.96
-104.75102458,40.80761565,1645.14
-104.75102443,40.80765538,1645.37
-104.75102442,40.80765592,1645.32
-104.75102433,40.80768105,1645.52
-104.75102423,40.80770844,1645.61
-104.75102415,40.80772889,1645.66
-104.75102408,40.80774799,1645.73
-104.75102401,40.80776726,1645.78
-104.75102370,40.80785023,1645.82
-104.75102367,40.80785726,1645.80
-104.75102329,40.80796058,1645.80
-104.75102324,40.80797356,1645.82
-104.75102321,40.80798103,1645.83
-104.75102319,40.80798626,1645.79
-104.75102310,40.80800995,1645.84
-104.75102294,40.80805364,1645.92
-104.75102272,40.80811310,1646.02
-104.75102270,40.80811697,1646.07
-104.75102254,40.80815877,1646.23
-104.75102244,40.80818643,1646.24
-104.75102233,40.80821624,1646.33
-104.75102224,40.80824102,1646.38
-104.75102213,40.80826930,1646.45
-104.75102195,40.80831795,1646.55
-104.75102184,40.80834705,1646.58
-104.75102177,40.80836551,1646.63
-104.75102165,40.80839803,1646.67
-104.75102137,40.80847190,1646.87
-104.75102130,40.80849118,1646.95
-104.75102129,40.80849542,1646.98
-104.75102116,40.80853037,1647.10
-104.75102109,40.80854857,1647.18
-104.75102096,40.80858262,1647.40
-104.75102094,40.80858739,1647.40
-104.75102080,40.80862559,1647.60
-104.75102077,40.80863442,1647.65
-104.75102070,40.80865162,1647.71
-104.75102049,40.80870739,1648.09
-104.75102036,40.80874279,1648.34
-104.75102023,40.80877909,1648.61
-104.75102019,40.80878936,1648.64
-104.75102004,40.80882855,1648.97
-104.75101997,40.80884909,1649.13
-104.75101984,40.80888350,1649.44
-104.75101937,40.80900800,1650.49
-104.75101928,40.80903214,1650.66
-104.75101879,40.80916366,1651.71
-104.75101877,40.80916799,1651.72
-104.75101857,40.80922195,1651.78
-104.75101854,40.80923069,1651.83
-104.75101836,40.80927951,1651.73
-104.75101833,40.80928753,1651.84
-104.75101827,40.80930167,1651.87
-104.75101813,40.80934032,1651.78
-104.75101809,40.80934924,1651.75
-104.75101807,40.80935617,1651.71
-104.75101806,40.80935861,1651.71
-104.75101804,40.80936338,1651.66
-104.75101766,40.80946671,1651.12
-104.75101760,40.80948256,1651.05
-104.75101745,40.80952139,1650.82
-104.75101729,40.80956481,1650.48
-104.75101729,40.80956508,1650.49
-104.75101725,40.80957553,1650.41
-104.75101713,40.80960634,1650.21
-104.75101703,40.80963399,1650.03
-104.75101701,40.80964021,1649.94
-104.75101699,40.80964553,1649.92
-104.75101699,40.80964598,1649.94
-104.75101695,40.80965453,1649.87
-104.75101681,40.80969444,1649.61
-104.75101678,40.80970012,1649.58
-104.75101659,40.80975255,1649.27
-104.75101658,40.80975534,1649.27
-104.75101637,40.80980975,1649.00
-104.75101633,40.80982227,1648.93
-104.75101627,40.80983768,1648.86
-104.75101610,40.80988353,1648.68
-104.75101578,40.80996965,1648.38
-104.75101571,40.80998749,1648.37
-104.75101566,40.81000028,1648.34
-104.75101554,40.81003181,1648.28
-104.75101550,40.81004316,1648.28
-104.75101550,40.81004343,1648.22
-104.75101543,40.81006118,1648.20
-104.75101526,40.81010739,1648.15
-104.75101513,40.81014162,1648.14
-104.75101504,40.81016540,1648.13
-104.75101501,40.81017423,1648.12
-104.75101491,40.81020234,1648.09
-104.75101482,40.81022558,1648.09
-104.75101481,40.81022783,1648.09
-104.75101475,40.81024369,1648.13
-104.75101470,40.81025846,1648.10
-104.75101459,40.81028729,1648.09
-104.75101452,40.81030566,1648.11
-104.75101437,40.81034656,1648.08
-104.75101434,40.81035386,1648.11
-104.75101421,40.81038890,1648.08
-104.75101399,40.81044665,1648.09
-104.75101396,40.81045602,1648.08
-104.75101391,40.81047007,1648.06
-104.75101375,40.81051205,1648.06
-104.75101373,40.81051583,1648.06
-104.75101361,40.81054799,1648.07
-104.75101342,40.81060051,1648.09
-104.75101322,40.81065267,1648.07
-104.75101289,40.81074257,1648.11
-104.75101273,40.81078555,1648.15
-104.75101264,40.81080978,1648.20
-104.75101262,40.81081401,1648.18
-104.75101243,40.81086419,1648.27
-104.75101236,40.81088410,1648.26
-104.75101225,40.81091274,1648.31
-104.75101218,40.81093202,1648.35
-104.75101191,40.81100391,1648.50
-104.75101176,40.81104490,1648.52
-104.75101167,40.81106868,1648.56
-104.75101160,40.81108643,1648.59
-104.75101156,40.81109652,1648.61
-104.75101149,40.81111534,1648.63
-104.75101134,40.81115660,1648.67
-104.75101130,40.81116588,1648.65
-104.75101127,40.81117561,1648.67
-104.75101123,40.81118462,1648.64
-104.75101108,40.81122642,1648.68
-104.75101108,40.81122678,1648.66
-104.75101102,40.81124083,1648.64
-104.75101082,40.81129678,1648.55
-104.75101065,40.81134209,1648.50
-104.75101058,40.81135866,1648.52
-104.75101058,40.81135983,1648.50
-104.75101051,40.81137875,1648.50
-104.75101044,40.81139839,1648.50
-104.75101029,40.81143623,1648.44
-104.75101002,40.81150946,1648.40
-104.75100999,40.81151730,1648.44
-104.75100996,40.81152640,1648.39
-104.75100988,40.81154604,1648.45
-104.75100965,40.81160802,1648.47
-104.75100964,40.81161117,1648.51
-104.75100958,40.81162847,1648.51
-104.75100955,40.81163423,1648.47
-104.75100953,40.81164000,1648.53
-104.75100929,40.81170369,1648.59
-104.75100921,40.81172585,1648.65
-104.75100920,40.81172972,1648.67
-104.75100918,40.81173359,1648.67
-104.75100916,40.81173891,1648.70
-104.75100915,40.81174161,1648.68
-104.75100915,40.81174305,1648.70
-104.75100914,40.81174504,1648.71
-104.75100910,40.81175530,1648.71
-104.75100909,40.81175909,1648.72
-104.75100906,40.81176765,1648.73
-104.75100900,40.81178323,1648.76
-104.75100881,40.81183233,1648.89
-104.75100878,40.81184206,1648.89
-104.75100872,40.81185782,1648.94
-104.75100869,40.81186449,1648.96
-104.75100860,40.81189025,1648.99
-104.75100858,40.81189530,1648.99
-104.75100844,40.81193142,1649.01
-104.75100844,40.81193160,1649.01
-104.75100843,40.81193466,1649.03
-104.75100842,40.81193827,1649.07
     </coordinates>
    </LineString>
   </MultiGeometry>
  </Placemark>
 </Document>
</kml>
