<kml>
 <Document>
  <Style id="yellow">
   <LineStyle>
   <color>ff00ffff</color>
   <width>1</width>
   </LineStyle>
  </Style>
  <Style id="red">
   <LineStyle>
   <color>ffff0000</color>
   <width>2</width>
   </LineStyle>
  </Style>
  <Style id="green">
   <LineStyle>
   <color>ff00ff00</color>
   <width>1</width>
   </LineStyle>
  </Style>
  <Placemark>
  <styleUrl>#yellow</styleUrl>
   <MultiGeometry>
    <LineString>
     <coordinates>
-104.73218533,40.80369295,1650.79
-104.73222137,40.80369303,1650.90
-104.73227543,40.80369316,1651.17
-104.73228207,40.80369317,1651.21
-104.73236576,40.80369337,1651.50
-104.73241816,40.80369349,1651.66
-104.73253138,40.80369375,1651.87
-104.73260986,40.80369393,1652.06
-104.73264673,40.80369402,1652.07
-104.73265088,40.80369403,1652.07
-104.73266748,40.80369407,1652.05
-104.73271454,40.80369417,1652.06
-104.73272201,40.80369419,1652.08
-104.73274039,40.80369423,1652.07
-104.73275556,40.80369427,1652.09
-104.73276196,40.80369428,1652.02
-104.73286641,40.80369453,1651.91
-104.73296196,40.80369475,1651.91
-104.73316006,40.80369521,1652.03
-104.73321957,40.80369534,1652.11
-104.73334026,40.80369562,1652.52
-104.73335152,40.80369565,1652.54
-104.73351145,40.80369602,1652.94
-104.73357191,40.80369616,1653.19
-104.73364932,40.80369634,1653.51
-104.73365359,40.80369635,1653.54
-104.73373326,40.80369653,1653.87
-104.73374464,40.80369656,1653.99
-104.73376977,40.80369661,1653.99
-104.73380937,40.80369670,1654.21
-104.73404505,40.80369725,1655.27
-104.73420817,40.80369762,1656.13
-104.73423615,40.80369769,1656.24
-104.73431511,40.80369787,1656.79
-104.73441113,40.80369809,1657.43
-104.73448973,40.80369827,1657.91
-104.73462263,40.80369858,1658.63
-104.73471320,40.80369879,1658.86
-104.73489210,40.80369920,1658.78
-104.73489565,40.80369921,1658.78
-104.73507751,40.80369962,1658.41
-104.73509328,40.80369966,1658.38
-104.73513098,40.80369975,1658.31
-104.73514378,40.80369978,1658.27
-104.73545545,40.80370049,1657.15
-104.73548320,40.80370055,1657.04
-104.73562368,40.80370088,1656.50
-104.73564253,40.80370092,1656.39
-104.73573761,40.80370114,1655.99
-104.73590548,40.80370152,1655.43
-104.73609883,40.80370196,1654.97
-104.73622343,40.80370225,1654.73
-104.73650061,40.80370288,1654.37
-104.73660209,40.80370311,1654.27
-104.73661074,40.80370313,1654.28
-104.73672336,40.80370339,1654.23
-104.73681572,40.80370360,1654.22
-104.73688234,40.80370375,1654.18
-104.73697754,40.80370397,1654.23
-104.73708258,40.80370421,1654.20
-104.73712324,40.80370430,1654.15
-104.73716615,40.80370440,1654.07
-104.73718844,40.80370445,1654.05
-104.73737303,40.80370487,1653.52
-104.73745755,40.80370506,1653.28
-104.73767261,40.80370555,1652.55
-104.73794895,40.80370618,1651.19
-104.73795393,40.80370619,1651.14
-104.73802814,40.80370636,1650.96
-104.73805375,40.80370642,1650.80
-104.73822328,40.80370680,1650.12
-104.73829939,40.80370698,1649.83
-104.73849986,40.80370743,1648.99
-104.73868255,40.80370784,1648.37
-104.73877051,40.80370804,1648.20
-104.73877217,40.80370805,1648.21
-104.73879505,40.80370810,1648.15
-104.73889784,40.80370833,1647.94
-104.73890780,40.80370835,1647.95
-104.73894170,40.80370843,1647.90
-104.73903073,40.80370863,1647.71
-104.73908539,40.80370867,1647.61
-104.73915569,40.80370846,1647.49
-104.73917964,40.80370807,1647.43
-104.73918333,40.80370519,1647.43
-104.73918345,40.80370357,1647.37
-104.73918375,40.80368682,1647.38
-104.73918414,40.80361871,1647.26
-104.73918419,40.80360646,1647.21
-104.73918430,40.80357746,1647.15
-104.73918474,40.80346557,1646.83
-104.73918493,40.80341584,1646.55
-104.73918509,40.80337639,1646.52
-104.73918552,40.80326693,1646.32
-104.73918561,40.80324378,1646.28
-104.73918573,40.80321126,1646.24
-104.73918647,40.80302226,1646.22
-104.73918683,40.80293065,1646.51
-104.73918701,40.80288543,1646.63
-104.73918746,40.80277057,1646.90
-104.73918753,40.80275336,1646.97
-104.73918783,40.80267616,1647.16
-104.73918795,40.80264499,1647.33
-104.73918836,40.80253959,1647.76
-104.73918867,40.80246014,1648.14
-104.73918877,40.80243590,1648.27
-104.73918882,40.80242230,1648.32
-104.73918896,40.80238618,1648.42
-104.73918948,40.80225510,1648.85
-104.73918949,40.80225078,1648.89
-104.73918951,40.80224592,1648.94
-104.73918968,40.80220331,1649.02
-104.73919070,40.80194152,1649.18
-104.73919118,40.80181891,1649.18
-104.73919149,40.80173973,1649.17
-104.73919172,40.80168181,1649.23
-104.73919172,40.80168064,1649.23
-104.73919184,40.80165154,1649.23
-104.73919224,40.80154974,1649.43
-104.73919228,40.80153866,1649.43
-104.73919229,40.80153605,1649.41
-104.73919298,40.80135912,1649.87
-104.73919328,40.80128327,1650.12
-104.73919332,40.80127426,1650.12
-104.73919343,40.80124598,1650.20
-104.73919433,40.80101473,1650.22
-104.73919494,40.80086014,1650.12
-104.73919550,40.80071673,1650.21
-104.73919582,40.80063349,1650.11
-104.73919605,40.80057503,1650.15
-104.73919675,40.80039774,1650.33
-104.73919754,40.80019433,1650.36
-104.73919823,40.80001875,1650.24
-104.73919829,40.80000326,1650.17
-104.73919888,40.79985255,1649.46
-104.73919890,40.79984813,1649.43
-104.73919905,40.79980985,1649.21
-104.73919996,40.79957752,1648.39
-104.73920029,40.79949176,1648.35
-104.73920064,40.79940159,1648.31
-104.73920143,40.79920016,1648.34
-104.73920162,40.79915241,1648.33
-104.73920163,40.79914899,1648.35
-104.73920205,40.79904296,1648.44
-104.73920316,40.79875919,1649.62
-104.73920337,40.79870406,1649.97
-104.73920370,40.79861992,1650.53
-104.73920410,40.79852002,1651.18
-104.73920425,40.79848056,1651.54
-104.73920459,40.79839363,1652.12
-104.73920478,40.79834399,1652.36
-104.73920502,40.79828436,1652.82
-104.73920503,40.79828003,1652.83
-104.73920505,40.79827499,1652.88
-104.73920533,40.79820364,1653.35
-104.73920593,40.79805077,1654.40
-104.73920644,40.79792204,1655.37
-104.73920661,40.79787663,1655.69
-104.73920716,40.79773664,1656.15
-104.73920776,40.79758341,1656.62
-104.73920782,40.79756863,1656.64
-104.73920784,40.79756350,1656.68
-104.73920793,40.79753927,1656.73
-104.73920796,40.79753179,1656.70
-104.73920856,40.79737847,1656.84
-104.73920955,40.79712506,1656.50
-104.73920964,40.79710398,1656.46
-104.73920978,40.79706767,1656.40
-104.73920989,40.79703894,1656.39
-104.73921017,40.79696876,1656.32
-104.73921047,40.79689174,1656.40
-104.73921072,40.79682643,1656.51
-104.73921099,40.79675913,1656.64
-104.73921104,40.79674508,1656.66
-104.73921136,40.79666445,1656.82
-104.73921153,40.79662103,1656.82
-104.73921204,40.79648915,1657.06
-104.73921271,40.79631970,1656.83
-104.73921344,40.79613241,1655.98
-104.73921367,40.79607323,1655.69
-104.73921398,40.79599368,1655.26
-104.73921425,40.79592558,1654.89
-104.73921434,40.79590315,1654.73
-104.73921462,40.79583162,1654.22
-104.73921493,40.79575091,1653.62
-104.73921540,40.79563253,1652.77
-104.73921593,40.79549696,1651.99
-104.73921651,40.79534823,1651.25
-104.73921657,40.79533255,1651.19
-104.73921670,40.79529985,1651.08
-104.73921698,40.79522634,1650.86
-104.73921761,40.79506689,1650.38
-104.73921818,40.79492005,1649.68
-104.73921859,40.79481718,1649.06
-104.73921861,40.79481186,1649.03
-104.73921857,40.79472989,1648.59
-104.73921838,40.79471835,1648.48
-104.73921772,40.79470637,1648.41
-104.73921702,40.79470214,1648.40
-104.73920718,40.79470157,1648.40
-104.73920221,40.79470129,1648.40
-104.73919201,40.79470073,1648.41
-104.73898671,40.79470008,1648.49
-104.73857622,40.79469915,1649.41
-104.73800180,40.79469884,1651.93
-104.73798212,40.79469871,1652.05
-104.73796256,40.79469857,1652.13
-104.73789808,40.79469816,1652.35
-104.73787769,40.79469802,1652.47
-104.73780835,40.79469759,1652.65
-104.73776307,40.79469731,1652.80
-104.73775809,40.79469730,1652.83
-104.73775347,40.79469729,1652.86
-104.73774849,40.79469728,1652.89
-104.73716289,40.79470351,1655.17
-104.73713717,40.79470336,1655.23
-104.73711145,40.79470321,1655.29
-104.73708608,40.79470307,1655.41
-104.73706522,40.79470293,1655.47
-104.73703962,40.79470278,1655.56
-104.73701461,40.79470263,1655.63
-104.73696814,40.79470235,1655.82
-104.73694799,40.79470221,1655.89
-104.73690117,40.79470192,1656.05
-104.73685494,40.79470164,1656.24
-104.73683384,40.79470150,1656.31
-104.73680800,40.79470135,1656.37
-104.73680291,40.79470134,1656.38
-104.73679793,40.79470133,1656.40
-104.73679295,40.79470132,1656.42
-104.73679018,40.79471158,1656.53
-104.73679160,40.79474365,1656.77
-104.73679338,40.79480275,1657.21
-104.73679497,40.79485086,1657.53
-104.73679772,40.79490492,1657.92
-104.73680205,40.79500718,1658.67
-104.73680382,40.79503925,1658.91
-104.73680503,40.79506322,1659.03
-104.73681035,40.79515764,1659.72
-104.73681178,40.79518530,1659.92
-104.73681256,40.79519899,1660.03
-104.73681525,40.79523837,1660.34
-104.73681820,40.79533098,1660.91
-104.73681902,40.79539377,1661.14
-104.73682015,40.79543729,1661.25
-104.73682047,40.79550701,1661.67
-104.73682031,40.79551683,1661.72
-104.73682025,40.79553116,1661.79
-104.73681985,40.79563349,1662.36
-104.73681711,40.79578654,1663.00
-104.73681532,40.79585068,1663.17
-104.73681493,40.79585905,1663.17
-104.73681302,40.79589211,1663.23
-104.73680827,40.79595453,1663.22
-104.73680616,40.79597786,1663.21
-104.73679710,40.79605207,1662.60
-104.73679156,40.79610223,1662.11
-104.73678752,40.79613609,1661.82
-104.73678715,40.79614069,1661.75
-104.73678341,40.79618626,1661.33
-104.73678092,40.79621563,1661.07
-104.73677654,40.79627534,1660.53
-104.73677450,40.79631029,1660.27
-104.73677223,40.79634605,1659.87
-104.73676830,40.79640982,1659.30
-104.73676728,40.79645729,1658.95
-104.73676626,40.79647774,1658.80
-104.73676594,40.79649729,1658.62
-104.73676480,40.79654485,1658.21
-104.73676381,40.79658782,1657.87
-104.73676266,40.79663844,1657.43
-104.73676174,40.79666069,1657.29
-104.73676158,40.79670006,1656.97
-104.73676024,40.79673988,1656.62
-104.73675934,40.79678897,1656.12
-104.73675888,40.79684374,1655.74
-104.73675847,40.79685914,1655.63
-104.73675850,40.79688058,1655.48
-104.73675813,40.79691518,1655.21
-104.73675678,40.79695481,1654.85
-104.73675523,40.79698832,1654.47
-104.73675456,40.79700697,1654.31
-104.73675395,40.79707138,1653.98
-104.73675101,40.79712578,1653.47
-104.73675070,40.79714407,1653.31
-104.73674889,40.79718199,1653.05
-104.73674710,40.79721514,1652.83
-104.73674621,40.79723180,1652.74
-104.73674174,40.79734124,1652.12
-104.73674148,40.79734836,1652.07
-104.73674054,40.79737511,1651.85
-104.73674023,40.79739520,1651.72
-104.73673986,40.79742880,1651.54
-104.73674029,40.79746970,1651.44
-104.73674055,40.79749276,1651.27
-104.73674046,40.79751727,1651.16
-104.73674103,40.79755186,1650.95
-104.73674305,40.79761015,1650.83
-104.73674340,40.79764195,1650.69
-104.73674401,40.79766880,1650.53
-104.73674421,40.79770637,1650.32
-104.73674622,40.79773880,1650.22
-104.73674729,40.79779727,1649.95
-104.73674959,40.79784637,1649.79
-104.73675069,40.79786799,1649.63
-104.73675120,40.79788943,1649.59
-104.73675233,40.79793241,1649.39
-104.73675260,40.79795358,1649.34
-104.73675337,40.79799979,1649.13
-104.73675464,40.79803727,1648.96
-104.73675681,40.79808845,1648.77
-104.73675701,40.79809917,1648.76
-104.73675817,40.79813421,1648.60
-104.73675861,40.79814385,1648.54
-104.73675953,40.79818034,1648.44
-104.73676046,40.79821538,1648.40
-104.73676370,40.79826539,1648.35
-104.73676478,40.79829062,1648.34
-104.73676573,40.79832116,1648.32
-104.73676662,40.79833530,1648.30
-104.73676838,40.79836999,1648.28
-104.73676967,40.79840404,1648.19
-104.73677137,40.79842270,1648.12
-104.73677204,40.79843378,1648.09
-104.73677266,40.79845864,1648.05
-104.73677262,40.79846837,1648.06
-104.73677290,40.79848738,1647.98
-104.73677442,40.79852234,1647.89
-104.73677527,40.79854783,1647.82
-104.73677546,40.79855837,1647.81
-104.73677714,40.79858342,1647.72
-104.73677870,40.79861009,1647.64
-104.73677948,40.79862045,1647.63
-104.73678052,40.79865874,1647.49
-104.73678213,40.79870054,1647.39
-104.73678438,40.79873127,1647.36
-104.73678469,40.79874352,1647.35
-104.73678729,40.79877515,1647.30
-104.73678968,40.79880029,1647.30
-104.73679026,40.79883290,1647.23
-104.73679140,40.79884560,1647.24
-104.73679508,40.79890480,1647.18
-104.73679633,40.79891777,1647.12
-104.73679722,40.79893111,1647.10
-104.73679835,40.79894516,1647.07
-104.73679941,40.79897778,1646.91
-104.73680019,40.79899111,1646.86
-104.73680198,40.79901724,1646.73
-104.73680458,40.79905067,1646.59
-104.73680462,40.79907031,1646.46
-104.73680650,40.79910301,1646.29
-104.73680569,40.79912976,1646.14
-104.73680647,40.79914184,1646.10
-104.73680815,40.79916707,1645.98
-104.73680921,40.79919815,1645.85
-104.73681004,40.79922896,1645.76
-104.73681046,40.79924094,1645.70
-104.73681220,40.79928184,1645.50
-104.73681369,40.79929338,1645.46
-104.73628563,40.79948991,1644.55
-104.73625725,40.79947075,1644.57
-104.73621931,40.79944427,1644.53
-104.73619507,40.79942772,1644.52
-104.73617520,40.79941543,1644.51
-104.73614778,40.79939573,1644.52
-104.73612543,40.79938000,1644.54
-104.73611527,40.79937358,1644.51
-104.73607885,40.79934809,1644.50
-104.73604150,40.79932269,1644.52
-104.73602790,40.79931284,1644.51
-104.73600970,40.79929983,1644.46
-104.73599598,40.79929052,1644.45
-104.73597246,40.79927443,1644.42
-104.73594468,40.79925482,1644.39
-104.73591347,40.79923313,1644.39
-104.73588178,40.79921125,1644.39
-104.73586275,40.79919887,1644.44
-104.73584478,40.79918685,1644.46
-104.73582634,40.79917338,1644.49
-104.73581747,40.79916750,1644.49
-104.73578649,40.79914626,1644.56
-104.73577242,40.79913677,1644.59
-104.73572348,40.79910306,1644.72
-104.73569735,40.79908507,1644.79
-104.73568387,40.79907630,1644.85
-104.73564061,40.79904620,1644.99
-104.73561400,40.79902876,1645.09
-104.73558492,40.79900824,1645.16
-104.73557535,40.79900191,1645.16
-104.73557050,40.79899893,1645.18
-104.73556222,40.79899387,1645.25
-104.73549483,40.79894705,1645.41
-104.73545748,40.79892093,1645.48
-104.73541941,40.79889499,1645.55
-104.73541610,40.79889273,1645.53
-104.73538725,40.79887266,1645.59
-104.73536385,40.79885693,1645.60
-104.73533181,40.79883542,1645.60
-104.73530012,40.79881345,1645.67
-104.73527967,40.79880007,1645.72
-104.73523640,40.79876998,1645.80
-104.73523262,40.79876736,1645.79
-104.73522848,40.79876464,1645.80
-104.73515577,40.79871556,1645.93
-104.73514738,40.79870978,1645.91
-104.73509784,40.79867624,1646.00
-104.73509465,40.79867416,1645.98
-104.73502229,40.79862607,1646.09
-104.73499357,40.79860501,1646.17
-104.73493386,40.79856470,1646.26
-104.73490750,40.79854725,1646.28
-104.73485915,40.79851399,1646.34
-104.73484650,40.79850513,1646.33
-104.73478916,40.79846536,1646.39
-104.73472851,40.79842441,1646.49
-104.73468512,40.79839477,1646.56
-104.73465580,40.79837533,1646.64
-104.73458842,40.79832950,1646.72
-104.73457505,40.79832118,1646.72
-104.73448686,40.79826215,1646.82
-104.73447066,40.79825032,1646.84
-104.73440634,40.79820936,1646.95
-104.73440185,40.79820638,1646.96
-104.73437241,40.79818631,1647.00
-104.73436023,40.79817772,1647.03
-104.73435160,40.79817194,1647.02
-104.73428126,40.79812358,1647.09
-104.73419826,40.79806952,1647.23
-104.73416634,40.79804827,1647.25
-104.73415842,40.79804321,1647.26
-104.73411077,40.79801238,1647.40
-104.73409078,40.79800009,1647.43
-104.73405673,40.79797821,1647.50
-104.73403036,40.79796094,1647.53
-104.73402351,40.79795642,1647.54
-104.73401156,40.79794873,1647.58
-104.73398519,40.79793219,1647.61
-104.73396651,40.79792034,1647.66
-104.73393447,40.79789982,1647.71
-104.73391236,40.79788563,1647.80
-104.73389758,40.79787631,1647.78
-104.73388303,40.79786709,1647.87
-104.73382521,40.79783065,1647.87
-104.73378927,40.79780778,1647.91
-104.73376325,40.79779141,1647.97
-104.73374563,40.79778047,1648.04
-104.73372660,40.79776863,1648.07
-104.73370082,40.79775262,1648.10
-104.73363673,40.79771185,1648.30
-104.73361805,40.79769982,1648.30
-104.73360327,40.79769033,1648.36
-104.73358400,40.79767821,1648.41
-104.73357737,40.79767405,1648.43
-104.73355774,40.79766212,1648.51
-104.73350501,40.79762857,1648.70
-104.73349756,40.79762396,1648.75
-104.73345215,40.79759548,1648.88
-104.73343678,40.79758580,1648.91
-104.73337920,40.79754937,1649.10
-104.73332469,40.79751528,1649.28
-104.73330127,40.79750081,1649.43
-104.73327407,40.79748399,1649.52
-104.73326958,40.79748119,1649.54
-104.73321377,40.79744575,1649.77
-104.73316908,40.79741718,1649.88
-104.73308643,40.79736339,1650.31
-104.73305179,40.79734051,1650.45
-104.73299599,40.79730336,1650.75
-104.73292766,40.79725699,1651.08
-104.73290756,40.79724271,1651.14
-104.73287541,40.79722128,1651.29
-104.73283285,40.79719263,1651.51
-104.73281700,40.79718187,1651.63
-104.73279608,40.79716822,1651.81
-104.73277432,40.79715438,1652.00
-104.73269168,40.79709915,1652.65
-104.73268565,40.79709517,1652.71
-104.73264463,40.79706805,1653.02
-104.73261365,40.79704789,1653.20
-104.73256423,40.79701535,1653.42
-104.73251127,40.79697973,1653.61
-104.73249590,40.79696933,1653.67
-104.73244377,40.79693390,1653.73
-104.73243005,40.79692468,1653.74
-104.73241965,40.79691772,1653.75
-104.73232637,40.79685444,1653.71
-104.73225746,40.79680681,1653.61
-104.73220213,40.79676920,1653.53
-104.73212919,40.79671868,1653.40
-104.73211536,40.79670928,1653.37
-104.73208817,40.79669093,1653.31
-104.73207493,40.79668189,1653.28
-104.73203084,40.79665098,1653.17
-104.73199892,40.79662883,1653.09
-104.73195081,40.79659557,1652.98
-104.73191570,40.79657125,1652.91
-104.73190223,40.79656221,1652.86
-104.73182492,40.79650861,1652.79
-104.73177479,40.79647471,1652.70
-104.73174205,40.79645176,1652.61
-104.73168944,40.79641614,1652.46
-104.73163743,40.79638043,1652.44
-104.73158222,40.79634265,1652.33
-104.73151910,40.79629953,1652.21
-104.73143493,40.79624240,1652.10
-104.73137901,40.79620354,1651.95
-104.73134119,40.79617732,1651.90
-104.73132523,40.79616621,1651.82
-104.73128764,40.79614026,1651.80
-104.73126660,40.79612544,1651.72
-104.73123315,40.79610176,1651.65
-104.73120371,40.79608106,1651.59
-104.73118728,40.79606958,1651.57
-104.73116955,40.79605720,1651.53
-104.73112629,40.79602656,1651.41
-104.73107570,40.79599014,1651.27
-104.73101885,40.79594911,1651.07
-104.73096673,40.79591106,1650.84
-104.73094510,40.79589515,1650.70
-104.73091272,40.79587184,1650.61
-104.73090385,40.79586542,1650.55
-104.73081970,40.79580361,1650.13
-104.73076534,40.79576321,1649.84
-104.73071984,40.79572905,1649.66
-104.73066075,40.79568540,1649.48
-104.73063391,40.79566597,1649.38
-104.73061063,40.79564898,1649.26
-104.73058759,40.79563208,1649.22
-104.73052046,40.79558211,1649.00
-104.73045014,40.79553005,1648.78
-104.73043702,40.79552047,1648.74
-104.73040700,40.79549842,1648.63
-104.73036351,40.79546643,1648.50
-104.73032108,40.79543525,1648.38
-104.73031233,40.79542875,1648.36
-104.73026600,40.79539522,1648.24
-104.73022783,40.79536684,1648.14
-104.73019450,40.79534271,1648.03
-104.73012193,40.79528939,1647.80
-104.73010657,40.79527782,1647.72
-104.73008199,40.79525912,1647.66
-104.73004547,40.79523264,1647.55
-104.73001356,40.79520914,1647.48
-104.72990589,40.79512997,1647.21
-104.72984491,40.79508533,1647.11
-104.72979681,40.79504981,1646.98
-104.72974126,40.79500878,1646.85
-104.72969328,40.79497327,1646.70
-104.72962284,40.79492184,1646.54
-104.72952191,40.79484711,1646.36
-104.72950596,40.79483545,1646.34
-104.72943977,40.79478647,1646.12
-104.72941200,40.79476541,1646.07
-104.72933223,40.79470559,1645.88
-104.72930907,40.79468806,1645.79
-104.72929607,40.79467956,1645.77
-104.72924309,40.79467790,1645.48
-104.72922543,40.79467777,1645.40
-104.72903731,40.79467715,1644.43
-104.72894651,40.79467694,1643.96
-104.72873576,40.79467644,1642.96
-104.72817710,40.79467513,1639.59
-104.72800534,40.79467472,1638.45
-104.72793529,40.79467456,1637.97
-104.72783098,40.79467431,1637.39
-104.72760291,40.79467377,1636.31
-104.72740840,40.79467331,1635.40
-104.72737355,40.79467377,1635.23
-104.72736974,40.79467592,1635.22
-104.72736558,40.79467835,1635.19
-104.72736542,40.79471897,1635.07
-104.72736513,40.79479005,1634.83
-104.72736396,40.79507661,1634.40
-104.72736271,40.79538164,1636.10
-104.72736246,40.79544316,1636.52
-104.72736239,40.79545848,1636.57
-104.72736235,40.79546857,1636.68
-104.72736233,40.79547424,1636.72
-104.72736125,40.79573828,1638.16
-104.72736100,40.79579774,1638.37
-104.72736033,40.79596187,1639.11
-104.72736022,40.79598962,1639.24
-104.72735997,40.79605033,1639.49
-104.72735899,40.79629113,1640.67
-104.72735872,40.79635734,1640.89
-104.72735816,40.79649319,1641.65
-104.72735795,40.79654472,1641.85
-104.72735769,40.79660751,1642.00
-104.72735729,40.79670669,1642.12
-104.72735722,40.79672345,1642.16
-104.72735686,40.79681119,1642.06
-104.72735645,40.79691010,1641.85
-104.72735635,40.79693496,1641.71
-104.72735624,40.79696199,1641.54
-104.72735612,40.79699172,1641.41
-104.72735595,40.79703289,1641.39
-104.72735512,40.79723738,1640.84
-104.72735494,40.79728017,1640.58
-104.72735475,40.79732647,1640.32
-104.72735460,40.79736260,1640.21
-104.72735445,40.79739944,1640.17
-104.72735418,40.79746592,1639.96
-104.72735397,40.79751781,1640.05
-104.72735373,40.79757709,1639.98
-104.72735360,40.79760745,1639.98
-104.72735360,40.79760754,1640.00
-104.72735358,40.79761303,1640.00
-104.72735348,40.79763654,1639.99
-104.72735342,40.79765267,1639.95
-104.72735254,40.79786797,1639.05
-104.72735240,40.79790130,1638.94
-104.72735217,40.79795616,1638.64
-104.72735205,40.79798562,1638.60
-104.72735158,40.79810102,1638.34
-104.72735147,40.79812849,1638.25
-104.72735144,40.79813606,1638.23
-104.72735121,40.79819290,1637.83
-104.72735106,40.79822948,1637.57
-104.72735094,40.79825677,1637.38
-104.72735056,40.79835019,1636.77
-104.72735037,40.79839785,1636.44
-104.72734974,40.79855216,1635.38
-104.72734967,40.79856874,1635.26
-104.72734963,40.79857802,1635.18
-104.72734961,40.79858171,1635.15
-104.72734949,40.79861108,1634.95
-104.72734932,40.79865360,1634.57
-104.72734924,40.79867423,1634.47
-104.72734915,40.79869558,1634.30
-104.72734903,40.79872449,1634.06
-104.72734902,40.79872756,1634.04
-104.72734876,40.79878953,1633.60
-104.72734872,40.79879935,1633.55
-104.72734831,40.79890061,1632.78
-104.72734829,40.79890592,1632.79
-104.72734827,40.79891133,1632.72
-104.72734823,40.79892034,1632.68
-104.72734821,40.79892520,1632.67
-104.72734783,40.79901799,1632.09
-104.72734735,40.79913627,1631.49
-104.72734699,40.79922428,1631.07
-104.72734687,40.79925221,1630.95
-104.72734666,40.79930500,1630.68
-104.72734657,40.79932554,1630.53
-104.72734605,40.79945409,1630.03
-104.72734594,40.79947976,1629.82
-104.72734572,40.79953399,1629.77
-104.72734546,40.79959831,1630.02
-104.72734541,40.79960948,1630.01
-104.72734526,40.79964714,1629.95
-104.72734520,40.79966182,1629.89
-104.72734496,40.79971912,1629.75
-104.72734490,40.79973353,1629.71
-104.72734425,40.79989325,1629.34
-104.72734417,40.79991361,1629.32
-104.72734408,40.79993424,1629.32
-104.72734406,40.79993955,1629.28
-104.72734391,40.79997622,1629.22
-104.72734358,40.80005711,1629.21
-104.72734344,40.80009135,1629.27
-104.72734332,40.80012098,1629.30
-104.72734326,40.80013540,1629.31
-104.72734292,40.80021855,1629.31
-104.72734261,40.80029350,1629.35
-104.72734226,40.80037953,1629.47
-104.72734214,40.80040745,1629.54
-104.72734197,40.80045006,1629.63
-104.72734191,40.80046448,1629.64
-104.72734190,40.80046835,1629.63
-104.72734184,40.80048096,1629.68
-104.72734165,40.80052790,1629.74
-104.72734143,40.80058177,1629.89
-104.72734139,40.80059168,1629.92
-104.72734109,40.80066609,1630.09
-104.72734077,40.80074257,1630.28
-104.72734074,40.80074986,1630.29
-104.72733972,40.80099967,1630.53
-104.72733948,40.80105849,1630.55
-104.72733923,40.80112011,1630.64
-104.72733874,40.80124055,1630.65
-104.72733864,40.80126425,1630.66
-104.72733852,40.80129289,1630.69
-104.72733837,40.80132992,1630.77
-104.72733825,40.80135865,1630.82
-104.72733816,40.80138082,1630.85
-104.72733798,40.80142424,1630.93
-104.72733785,40.80145658,1631.00
-104.72733740,40.80156621,1631.47
-104.72733737,40.80157369,1631.49
-104.72733723,40.80160801,1631.63
-104.72733711,40.80163891,1631.77
-104.72733684,40.80170359,1632.06
-104.72733681,40.80171079,1632.09
-104.72733528,40.80208483,1633.72
-104.72733506,40.80213780,1634.03
-104.72733502,40.80214788,1634.12
-104.72733497,40.80216005,1634.20
-104.72733495,40.80216653,1634.23
-104.72733483,40.80219455,1634.35
-104.72733443,40.80229319,1634.88
-104.72733441,40.80229734,1634.88
-104.72733422,40.80234490,1635.15
-104.72733421,40.80234697,1635.14
-104.72733414,40.80236382,1635.25
-104.72733393,40.80241508,1635.61
-104.72733340,40.80254426,1636.32
-104.72733326,40.80257759,1636.59
-104.72733303,40.80263371,1636.88
-104.72733299,40.80264533,1636.97
-104.72733290,40.80266713,1637.09
-104.72733269,40.80271758,1637.39
-104.72733268,40.80272118,1637.42
-104.72733261,40.80273839,1637.51
-104.72733243,40.80278244,1637.77
-104.72733197,40.80289414,1638.44
-104.72733197,40.80289478,1638.44
-104.72733191,40.80290946,1638.52
-104.72733177,40.80294387,1638.66
-104.72733147,40.80301648,1639.00
-104.72733044,40.80326845,1639.82
-104.72733034,40.80329178,1639.83
-104.72733028,40.80330583,1639.86
-104.72733022,40.80332160,1639.91
-104.72733015,40.80333817,1639.93
-104.72733003,40.80336871,1639.92
-104.72732990,40.80340087,1639.91
-104.72732987,40.80340754,1639.94
-104.72732976,40.80343447,1639.92
-104.72732955,40.80348573,1639.78
-104.72732927,40.80355266,1639.74
-104.72732919,40.80357365,1639.75
-104.72732890,40.80364428,1639.69
-104.72732875,40.80368139,1639.59
-104.72741031,40.80368177,1639.84
-104.72746496,40.80368189,1639.96
-104.72746959,40.80368191,1640.05
-104.72752187,40.80368203,1640.22
-104.72785132,40.80368281,1641.44
-104.72788926,40.80368290,1641.60
-104.72791297,40.80368295,1641.69
-104.72796916,40.80368308,1641.93
-104.72797616,40.80368310,1641.98
-104.72803294,40.80368323,1642.18
-104.72808617,40.80368336,1642.45
-104.72810312,40.80368340,1642.55
-104.72810988,40.80368342,1642.58
-104.72821599,40.80368367,1643.13
-104.72836382,40.80368401,1643.89
-104.72842179,40.80368415,1644.30
-104.72844277,40.80368420,1644.40
-104.72848510,40.80368430,1644.69
-104.72860400,40.80368458,1645.78
-104.72865783,40.80368471,1646.53
-104.72869090,40.80368478,1647.08
-104.72869683,40.80368480,1647.21
-104.72880341,40.80368505,1649.30
-104.72885486,40.80368517,1649.56
-104.72892433,40.80368533,1649.94
-104.72903518,40.80368559,1650.54
-104.72907039,40.80368568,1650.77
-104.72918040,40.80368593,1651.62
-104.72926718,40.80368614,1652.39
-104.72935444,40.80368634,1653.33
-104.72941561,40.80368649,1653.69
-104.72947678,40.80368663,1653.75
-104.72950867,40.80368670,1653.74
-104.72956048,40.80368682,1653.70
-104.72957968,40.80368687,1653.67
-104.72960173,40.80368692,1653.63
-104.72964892,40.80368703,1653.52
-104.72970001,40.80368715,1653.26
-104.72975443,40.80368728,1652.77
-104.72986895,40.80368755,1652.14
-104.72990985,40.80368764,1652.13
-104.72994281,40.80368772,1652.21
-104.73011423,40.80368812,1652.65
-104.73012466,40.80368815,1652.65
-104.73015229,40.80368821,1652.65
-104.73022093,40.80368837,1652.29
-104.73027938,40.80368851,1652.04
-104.73032976,40.80368863,1651.84
-104.73035335,40.80368868,1651.67
-104.73041618,40.80368883,1651.30
-104.73045720,40.80368892,1650.99
-104.73050154,40.80368903,1650.65
-104.73062448,40.80368931,1649.78
-104.73065803,40.80368939,1649.47
-104.73067735,40.80368944,1649.42
-104.73072264,40.80368954,1649.31
-104.73074754,40.80368960,1649.27
-104.73075346,40.80368961,1649.21
-104.73078950,40.80368970,1649.09
-104.73092026,40.80369000,1648.29
-104.73092501,40.80369002,1648.21
-104.73097456,40.80369013,1647.97
-104.73100550,40.80369020,1647.79
-104.73100811,40.80369021,1647.75
-104.73101819,40.80369023,1647.70
-104.73104486,40.80369029,1647.57
-104.73109774,40.80369042,1647.23
-104.73117112,40.80369059,1646.90
-104.73119969,40.80369066,1646.80
-104.73120384,40.80369067,1646.74
-104.73121890,40.80369070,1646.67
-104.73124201,40.80369075,1646.62
-104.73128481,40.80369085,1646.57
-104.73129287,40.80369087,1646.53
-104.73131101,40.80369091,1646.59
-104.73134574,40.80369100,1646.62
-104.73136116,40.80369103,1646.56
-104.73156092,40.80369150,1646.91
-104.73159376,40.80369157,1647.09
-104.73169251,40.80369180,1647.76
-104.73171432,40.80369185,1647.90
-104.73172784,40.80369188,1647.99
-104.73199588,40.80369251,1649.77
-104.73206334,40.80369266,1650.09
-104.73218533,40.80369295,1650.79
     </coordinates>
    </LineString>
   </MultiGeometry>
  </Placemark>
 </Document>
</kml>
