<kml>
 <Document>
  <Style id="yellow">
   <LineStyle>
   <color>ff00ffff</color>
   <width>1</width>
   </LineStyle>
  </Style>
  <Style id="red">
   <LineStyle>
   <color>ffff0000</color>
   <width>2</width>
   </LineStyle>
  </Style>
  <Style id="green">
   <LineStyle>
   <color>ff00ff00</color>
   <width>1</width>
   </LineStyle>
  </Style>
  <Placemark>
  <styleUrl>#yellow</styleUrl>
   <MultiGeometry>
    <LineString>
     <coordinates>
-104.77469983,40.81845985,1658.63
-104.77469873,40.81878641,1658.06
-104.77469794,40.81902045,1657.88
-104.77469720,40.81923890,1657.67
-104.77469683,40.81934763,1657.92
-104.77469639,40.81947772,1658.21
-104.77469619,40.81953735,1658.39
-104.77469525,40.81981319,1659.49
-104.77469493,40.81990805,1660.00
-104.77469492,40.81991192,1659.98
-104.77469469,40.81997958,1660.19
-104.77469399,40.82018731,1659.67
-104.77469287,40.82051702,1657.48
-104.77469282,40.82053098,1657.38
-104.77469218,40.82072169,1655.88
-104.77469154,40.82090943,1654.78
-104.77469091,40.82113221,1653.74
-104.77468966,40.82146516,1652.91
-104.77468913,40.82162380,1652.63
-104.77468870,40.82175028,1652.08
-104.77468882,40.82178433,1651.94
-104.77469317,40.82179614,1651.93
-104.77474260,40.82180065,1652.07
-104.77480936,40.82180105,1652.34
-104.77494609,40.82180132,1653.05
-104.77518931,40.82180179,1654.03
-104.77543454,40.82180227,1654.82
-104.77573764,40.82180286,1656.21
-104.77592631,40.82180323,1657.29
-104.77598453,40.82180334,1657.61
-104.77616953,40.82180370,1658.85
-104.77639816,40.82180378,1660.07
-104.77642591,40.82180122,1660.24
-104.77642609,40.82178465,1660.32
-104.77642499,40.82175852,1660.43
-104.77641495,40.82135708,1661.83
-104.77641500,40.82130717,1661.91
-104.77641553,40.82122033,1661.94
-104.77641689,40.82109764,1662.05
-104.77642011,40.82095153,1662.10
-104.77642411,40.82082064,1662.16
-104.77643092,40.82062823,1662.06
-104.77643595,40.82047357,1661.83
-104.77643722,40.82041285,1661.76
-104.77643769,40.82037673,1661.74
-104.77643803,40.82034772,1661.68
-104.77643745,40.82027205,1661.51
-104.77643696,40.82024259,1661.47
-104.77643400,40.82016962,1661.30
-104.77643137,40.82010583,1661.19
-104.77642951,40.82005808,1661.08
-104.77642689,40.81999078,1660.95
-104.77641905,40.81978312,1660.52
-104.77641719,40.81973799,1660.47
-104.77641132,40.81936836,1659.93
-104.77641303,40.81924755,1659.85
-104.77641334,40.81922413,1659.77
-104.77641621,40.81907622,1659.72
-104.77641784,40.81901487,1659.75
-104.77641939,40.81894092,1659.70
-104.77641981,40.81892308,1659.70
-104.77641998,40.81890551,1659.70
-104.77641716,40.81882894,1659.61
-104.77641580,40.81881047,1659.58
-104.77640114,40.81840929,1659.58
-104.77640195,40.81830813,1659.41
-104.77640791,40.81808635,1658.20
-104.77640996,40.81804185,1657.82
-104.77641801,40.81790575,1656.69
-104.77642732,40.81778010,1655.54
-104.77644358,40.81756329,1653.50
-104.77644618,40.81753105,1653.21
-104.77645105,40.81745935,1652.70
-104.77645822,40.81733631,1651.94
-104.77646266,40.81724839,1651.53
-104.77646682,40.81714156,1651.31
-104.77646916,40.81707823,1651.12
-104.77647303,40.81694978,1651.17
-104.77648530,40.81654649,1651.00
-104.77650275,40.81629294,1648.14
-104.77653211,40.81588121,1644.64
-104.77654074,40.81578259,1643.95
-104.77654136,40.81577520,1643.93
-104.77655052,40.81566135,1643.35
-104.77655472,40.81561046,1643.09
-104.77657731,40.81534394,1641.57
-104.77658207,40.81526765,1641.19
-104.77658373,40.81523324,1641.35
-104.77660228,40.81479312,1642.29
-104.77660629,40.81469439,1642.67
-104.77660720,40.81460062,1643.27
-104.77660691,40.81454341,1643.62
-104.77660425,40.81441756,1644.59
-104.77659923,40.81411198,1647.02
-104.77659996,40.81375479,1646.88
-104.77659941,40.81374074,1646.81
-104.77659862,40.81372741,1646.76
-104.77658130,40.81344910,1647.52
-104.77657617,40.81338711,1648.09
-104.77655661,40.81296331,1651.29
-104.77655520,40.81288755,1652.04
-104.77655414,40.81284971,1652.33
-104.77655250,40.81280755,1652.74
-104.77654921,40.81280042,1652.90
-104.77651329,40.81279666,1652.56
-104.77650772,40.81279611,1652.55
-104.77626525,40.81279546,1651.08
-104.77603392,40.81279510,1649.96
-104.77548116,40.81279403,1647.44
-104.77518569,40.81279345,1645.99
-104.77512486,40.81279333,1645.69
-104.77476572,40.81279290,1643.49
-104.77472398,40.81279399,1643.31
-104.77472194,40.81279957,1643.25
-104.77472095,40.81281218,1643.20
-104.77471905,40.81284947,1643.08
-104.77471879,40.81289163,1642.89
-104.77471763,40.81319864,1641.78
-104.77471760,40.81320684,1641.76
-104.77471630,40.81359222,1641.31
-104.77471620,40.81362096,1641.27
-104.77471608,40.81365717,1641.28
-104.77471483,40.81406210,1640.98
-104.77471414,40.81423155,1641.17
-104.77471300,40.81460117,1642.38
-104.77471168,40.81495844,1645.02
-104.77471150,40.81501114,1645.48
-104.77471090,40.81522275,1646.98
-104.77471010,40.81549589,1648.92
-104.77470877,40.81581668,1651.07
-104.77470834,40.81594505,1651.84
-104.77470799,40.81604811,1652.43
-104.77470789,40.81607829,1652.57
-104.77470749,40.81623260,1652.97
-104.77470633,40.81653916,1652.44
-104.77470608,40.81661384,1652.42
-104.77470584,40.81668347,1652.42
-104.77470556,40.81676581,1652.38
-104.77470450,40.81714894,1652.93
-104.77470383,40.81727830,1653.42
-104.77470326,40.81744712,1654.17
-104.77470302,40.81751658,1654.60
-104.77470214,40.81781232,1656.95
-104.77470092,40.81813807,1658.97
-104.77469983,40.81845985,1658.63
     </coordinates>
    </LineString>
   </MultiGeometry>
  </Placemark>
 </Document>
</kml>
