<kml>
 <Document>
  <Style id="yellow">
   <LineStyle>
   <color>ff00ffff</color>
   <width>1</width>
   </LineStyle>
  </Style>
  <Style id="red">
   <LineStyle>
   <color>ffff0000</color>
   <width>2</width>
   </LineStyle>
  </Style>
  <Style id="green">
   <LineStyle>
   <color>ff00ff00</color>
   <width>1</width>
   </LineStyle>
  </Style>
  <Placemark>
  <styleUrl>#yellow</styleUrl>
   <MultiGeometry>
    <LineString>
     <coordinates>
-89.52307012,46.25072856,514.08
-89.52318119,46.25072610,529.05
-89.52346659,46.25071980,519.97
-89.52357883,46.25071732,509.20
-89.52367655,46.25071516,524.80
-89.52375250,46.25071349,519.49
-89.52380149,46.25071240,511.08
-89.52387511,46.25071078,507.92
-89.52388288,46.25071061,518.85
-89.52396000,46.25070890,512.25
-89.52403465,46.25070725,515.10
-89.52403621,46.25070722,513.84
-89.52406394,46.25070661,508.66
-89.52407859,46.25070628,511.45
-89.52408299,46.25070619,507.68
-89.52428129,46.25070180,516.99
-89.52428220,46.25070178,519.59
-89.52434907,46.25070031,510.85
-89.52438666,46.25069948,508.95
-89.52442386,46.25069866,507.06
-89.52447557,46.25069751,509.28
-89.52453001,46.25069631,514.25
-89.52457329,46.25069535,508.59
-89.52457718,46.25069527,517.95
-89.52461101,46.25069452,510.61
-89.52463473,46.25069400,520.07
-89.52467918,46.25069301,506.91
-89.52468618,46.25069286,520.32
-89.52470614,46.25069242,520.97
-89.52478248,46.25069073,509.92
-89.52478896,46.25069059,514.73
-89.52487346,46.25068872,511.86
-89.52488111,46.25068855,523.71
-89.52488279,46.25068851,525.61
-89.52495356,46.25068695,523.72
-89.52501045,46.25068569,509.69
-89.52503171,46.25068522,525.56
-89.52504169,46.25068500,516.42
-89.52508239,46.25068410,517.90
-89.52508679,46.25068401,523.06
-89.52517531,46.25068205,522.01
-89.52517622,46.25068203,508.10
-89.52517998,46.25068195,513.47
-89.52524193,46.25068058,526.93
-89.52524893,46.25068042,520.49
-89.52547859,46.25067535,507.39
-89.52568778,46.25067072,524.08
-89.52588944,46.25066626,521.06
-89.52595723,46.25066477,520.87
-89.52599611,46.25066391,519.28
-89.52608968,46.25066184,530.72
-89.52609616,46.25066169,524.69
-89.52610550,46.25066149,534.02
-89.52621696,46.25065902,511.89
-89.52623769,46.25065857,517.93
-89.52650844,46.25065258,522.66
-89.52650935,46.25065256,524.08
-89.52661161,46.25065030,513.09
-89.52661886,46.25065014,527.04
-89.52672540,46.25064778,524.90
-89.52701235,46.25064144,527.20
-89.52712523,46.25063894,519.73
-89.52717060,46.25063794,510.67
-89.52722931,46.25063664,522.13
-89.52726521,46.25063584,523.26
-89.52730474,46.25063497,522.86
-89.52736811,46.25063357,526.29
-89.52744640,46.25063183,523.38
-89.52754878,46.25062957,526.90
-89.52769952,46.25062624,523.58
-89.52774293,46.25062528,514.40
-89.52783794,46.25062317,523.58
-89.52791103,46.25062156,526.36
-89.52799670,46.25061966,508.84
-89.52804997,46.25061848,526.49
-89.52808328,46.25061774,527.88
-89.52813071,46.25061670,516.98
-89.52820381,46.25061508,515.77
-89.52827172,46.25061358,515.00
-89.52840950,46.25061053,519.36
-89.52860403,46.25060622,504.05
-89.52864045,46.25060542,508.40
-89.52866819,46.25060480,508.99
-89.52879909,46.25060190,520.90
-89.52880039,46.25060188,519.30
-89.52884341,46.25060092,515.98
-89.52889254,46.25059984,506.19
-89.52889383,46.25059981,504.77
-89.52889474,46.25059979,503.86
-89.52889539,46.25059977,509.43
-89.52899972,46.25059746,507.92
-89.52909563,46.25059534,519.62
-89.52910198,46.25059520,514.28
-89.52910975,46.25059503,507.64
-89.52912803,46.25059462,516.33
-89.52928809,46.25059108,508.36
-89.52929639,46.25059090,507.25
-89.52930364,46.25059074,519.23
-89.52932619,46.25059024,519.07
-89.52941394,46.25058829,505.82
-89.52952838,46.25058576,510.51
-89.52953473,46.25058562,520.58
-89.52956052,46.25058505,515.35
-89.52967211,46.25058258,505.73
-89.52975039,46.25058076,518.77
-89.52978537,46.25057980,521.65
-89.52980483,46.25057685,521.15
-89.52980598,46.25057656,519.52
-89.52980664,46.25057105,521.22
-89.52980678,46.25056844,506.17
-89.52980154,46.25045182,521.69
-89.52979850,46.25038573,521.37
-89.52979767,46.25036766,505.85
-89.52979680,46.25034869,504.04
-89.52979475,46.25030418,519.82
-89.52979462,46.25030131,520.15
-89.52979258,46.25025698,521.01
-89.52979223,46.25024934,511.08
-89.52979195,46.25024331,518.79
-89.52979015,46.25020420,507.55
-89.52978947,46.25018937,521.24
-89.52978380,46.25006628,509.97
-89.52978039,46.24999210,519.21
-89.52978006,46.24998491,503.49
-89.52977983,46.24997987,510.44
-89.52977865,46.24995425,506.77
-89.52977154,46.24979960,525.17
-89.52977042,46.24977541,509.14
-89.52976904,46.24974538,518.44
-89.52976793,46.24972111,506.72
-89.52976750,46.24971185,517.31
-89.52976553,46.24966914,507.70
-89.52976517,46.24966123,519.75
-89.52976305,46.24961510,523.23
-89.52976088,46.24956799,521.30
-89.52976067,46.24956349,505.78
-89.52975344,46.24940624,517.35
-89.52975295,46.24939563,517.08
-89.52975186,46.24937180,510.74
-89.52975165,46.24936739,511.25
-89.52975142,46.24936236,517.50
-89.52975140,46.24936182,513.84
-89.52975088,46.24935058,503.47
-89.52974990,46.24932927,504.48
-89.52974947,46.24932001,513.55
-89.52974808,46.24928980,517.76
-89.52974729,46.24927254,510.04
-89.52974539,46.24923118,507.30
-89.52974146,46.24914585,519.22
-89.52974041,46.24912292,512.83
-89.52973664,46.24904111,506.29
-89.52973558,46.24901800,504.22
-89.52973293,46.24896036,510.15
-89.52973159,46.24893123,519.59
-89.52973106,46.24891981,515.24
-89.52973080,46.24891406,504.71
-89.52973027,46.24890264,505.29
-89.52972916,46.24887854,507.86
-89.52972510,46.24879025,503.27
-89.52972220,46.24872704,503.33
-89.52971730,46.24862068,515.40
-89.52971621,46.24859685,509.97
-89.52971546,46.24858067,510.52
-89.52971497,46.24856997,505.19
-89.52971233,46.24851251,505.32
-89.52970905,46.24844130,504.16
-89.52970776,46.24841316,515.05
-89.52970569,46.24836830,509.81
-89.52970440,46.24834015,506.57
-89.52970190,46.24828594,508.07
-89.52970166,46.24828072,505.92
-89.52970008,46.24824629,511.61
-89.52969083,46.24804515,502.89
-89.52968249,46.24786389,502.78
-89.52967443,46.24768874,502.78
-89.52965739,46.24736052,502.68
-89.52965319,46.24723263,502.67
-89.52964861,46.24712734,507.80
-89.52964803,46.24711475,507.14
-89.52964779,46.24710953,503.16
-89.52964720,46.24709668,503.85
-89.52964596,46.24706979,507.20
-89.52964551,46.24705990,503.63
-89.52964505,46.24705001,514.36
-89.52964341,46.24701423,508.63
-89.52964088,46.24695929,507.76
-89.52964001,46.24694032,506.89
-89.52963461,46.24682307,517.15
-89.52963410,46.24681183,519.60
-89.52963387,46.24680680,520.08
-89.52963304,46.24678882,521.95
-89.52962908,46.24670286,526.51
-89.52962858,46.24669198,523.20
-89.52962828,46.24668533,514.39
-89.52962778,46.24667454,513.21
-89.52962280,46.24656629,512.70
-89.52962251,46.24655981,520.98
-89.52962023,46.24651027,523.07
-89.52961952,46.24649499,523.99
-89.52961939,46.24649202,524.55
-89.52961778,46.24645713,511.76
-89.52961774,46.24645614,521.37
-89.52961734,46.24644742,518.24
-89.52961612,46.24642090,527.03
-89.52961607,46.24641991,526.97
-89.52961368,46.24636803,521.95
-89.52961229,46.24633764,524.99
-89.52960998,46.24628747,526.70
-89.52960989,46.24628558,512.11
-89.52960034,46.24607789,524.10
-89.52959844,46.24603671,521.89
-89.52959553,46.24597341,522.18
-89.52959343,46.24592764,511.02
-89.52959170,46.24589015,518.54
-89.52958270,46.24569432,523.47
-89.52958227,46.24568515,508.65
-89.52957893,46.24561241,507.89
-89.52957693,46.24556899,516.04
-89.52957692,46.24556872,517.21
-89.52957690,46.24556827,508.70
-89.52957672,46.24556431,516.14
-89.52957629,46.24555505,516.27
-89.52957602,46.24554911,516.38
-89.52956920,46.24540094,510.64
-89.52956761,46.24536632,511.87
-89.52956494,46.24530833,519.80
-89.52956332,46.24527300,520.29
-89.52956129,46.24522885,513.53
-89.52955869,46.24517238,511.88
-89.52955734,46.24514307,515.29
-89.52955714,46.24513858,516.91
-89.52955688,46.24513291,514.54
-89.52955514,46.24509515,508.72
-89.52955445,46.24508023,509.82
-89.52955140,46.24501396,513.23
-89.52954922,46.24496640,510.46
-89.52954879,46.24495705,510.57
-89.52954836,46.24494770,508.03
-89.52954813,46.24494284,507.54
-89.52954391,46.24485095,515.28
-89.52953827,46.24472840,518.00
-89.52953809,46.24472453,519.17
-89.52953565,46.24467131,516.38
-89.52953254,46.24460378,507.84
-89.52952850,46.24451585,518.70
-89.52952794,46.24450380,510.60
-89.52952694,46.24448204,519.31
-89.52952409,46.24442000,509.29
-89.52952264,46.24438844,516.04
-89.52952142,46.24436201,517.83
-89.52951846,46.24429772,506.43
-89.52951779,46.24428298,506.06
-89.52951506,46.24422382,506.50
-89.52951063,46.24412734,510.47
-89.52950648,46.24403716,505.49
-89.52950451,46.24399427,508.63
-89.52949950,46.24388548,512.63
-89.52949797,46.24385212,506.23
-89.52949300,46.24374414,504.11
-89.52949140,46.24370916,505.97
-89.52949027,46.24368462,506.58
-89.52948901,46.24365719,506.31
-89.52948530,46.24357672,505.28
-89.52948326,46.24353221,511.75
-89.52948171,46.24349859,505.38
-89.52948101,46.24348330,507.28
-89.52947605,46.24337550,504.79
-89.52947464,46.24334475,505.61
-89.52946925,46.24322759,513.98
-89.52946885,46.24321887,518.24
-89.52946580,46.24315261,507.76
-89.52946559,46.24314793,509.91
-89.52946459,46.24312626,516.56
-89.52946325,46.24309704,519.76
-89.52946228,46.24307609,510.20
-89.52946103,46.24304885,513.44
-89.52945361,46.24288746,511.87
-89.52945076,46.24282551,509.41
-89.52944981,46.24280492,508.31
-89.52944894,46.24278604,507.22
-89.52944874,46.24278163,507.71
-89.52944734,46.24275115,509.00
-89.52944541,46.24270925,506.69
-89.52944270,46.24265027,509.53
-89.52944063,46.24260531,506.32
-89.52943991,46.24258958,504.56
-89.52943875,46.24256449,507.68
-89.52943730,46.24253276,505.53
-89.52943462,46.24247458,510.28
-89.52943390,46.24245903,508.96
-89.52943385,46.24245786,505.18
-89.52943340,46.24244806,506.73
-89.52943218,46.24242162,503.77
-89.52942217,46.24220386,509.40
-89.52941807,46.24211476,514.10
-89.52941683,46.24208769,505.08
-89.52941496,46.24204705,516.10
-89.52941207,46.24198420,513.33
-89.52941073,46.24195516,505.50
-89.52941026,46.24194491,505.75
-89.52940817,46.24189942,512.13
-89.52940735,46.24188152,516.65
-89.52940700,46.24187388,513.82
-89.52940648,46.24186273,511.26
-89.52940509,46.24183252,505.35
-89.52940237,46.24177336,516.00
-89.52939852,46.24168965,509.10
-89.52939801,46.24167850,513.06
-89.52939713,46.24165935,504.66
-89.52939544,46.24162267,512.95
-89.52939371,46.24159337,510.94
-89.52939314,46.24159230,507.27
-89.52938896,46.24158879,511.53
-89.52937405,46.24158894,503.94
-89.52931949,46.24159015,516.70
-89.52927504,46.24159113,504.84
-89.52922360,46.24159227,508.26
-89.52916477,46.24159357,510.73
-89.52916295,46.24159361,512.05
-89.52912745,46.24159440,516.06
-89.52910451,46.24159491,516.18
-89.52905410,46.24159602,508.82
-89.52904555,46.24159621,516.80
-89.52904361,46.24159626,518.01
-89.52899786,46.24159727,504.10
-89.52899527,46.24159733,518.16
-89.52881839,46.24160124,509.75
-89.52873157,46.24160316,520.60
-89.52860367,46.24160599,518.53
-89.52849028,46.24160850,511.26
-89.52845270,46.24160933,514.16
-89.52840592,46.24161037,503.73
-89.52836990,46.24161117,503.62
-89.52831120,46.24161246,503.41
-89.52824563,46.24161392,503.44
-89.52820973,46.24161471,506.56
-89.52816049,46.24161580,514.64
-89.52805371,46.24161816,503.11
-89.52799320,46.24161950,516.59
-89.52794240,46.24162062,510.11
-89.52752475,46.24162986,503.89
-89.52726895,46.24163552,502.87
-89.52690274,46.24164362,507.76
-89.52678508,46.24164623,504.39
-89.52652306,46.24165202,504.28
-89.52649481,46.24165264,505.86
-89.52639581,46.24165483,518.97
-89.52639555,46.24165484,522.19
-89.52639542,46.24165484,520.65
-89.52639464,46.24165486,527.30
-89.52635823,46.24165566,507.74
-89.52634372,46.24165599,508.48
-89.52628450,46.24165729,504.71
-89.52628139,46.24165736,517.37
-89.52623499,46.24165839,508.52
-89.52621854,46.24165875,507.92
-89.52614804,46.24166031,507.59
-89.52614467,46.24166039,509.41
-89.52610878,46.24166118,508.27
-89.52603828,46.24166274,513.12
-89.52598606,46.24166389,519.77
-89.52589406,46.24166593,519.48
-89.52587177,46.24166642,524.19
-89.52581022,46.24166778,523.00
-89.52576408,46.24166880,521.60
-89.52574231,46.24166928,521.84
-89.52563022,46.24167176,522.12
-89.52553070,46.24167396,510.03
-89.52544375,46.24167588,520.22
-89.52534734,46.24167801,508.72
-89.52519560,46.24168137,510.04
-89.52515724,46.24168221,523.53
-89.52506808,46.24168418,515.81
-89.52506731,46.24168420,520.77
-89.52502765,46.24168508,509.25
-89.52473933,46.24169145,519.20
-89.52473790,46.24169148,525.34
-89.52468451,46.24169266,520.87
-89.52468218,46.24169271,526.23
-89.52463734,46.24169370,526.94
-89.52458046,46.24169496,511.00
-89.52446901,46.24169742,505.16
-89.52446020,46.24169762,522.54
-89.52445256,46.24169779,525.28
-89.52439981,46.24169895,526.27
-89.52433399,46.24170040,525.08
-89.52424224,46.24170243,505.41
-89.52417952,46.24170382,507.35
-89.52417874,46.24170383,507.26
-89.52407559,46.24170611,513.69
-89.52401223,46.24170751,506.18
-89.52401093,46.24170754,510.49
-89.52395702,46.24170873,507.98
-89.52392152,46.24170952,525.73
-89.52391491,46.24170966,529.00
-89.52391452,46.24170967,509.65
-89.52390869,46.24170980,528.07
-89.52373712,46.24171359,520.01
-89.52369682,46.24171448,531.50
-89.52363591,46.24171583,518.52
-89.52351281,46.24171854,535.23
-89.52335199,46.24172210,538.32
-89.52335095,46.24172212,539.18
-89.52308556,46.24172798,516.01
-89.52303295,46.24172914,540.92
-89.52298643,46.24173017,519.42
-89.52286838,46.24173278,536.12
-89.52276238,46.24173512,522.41
-89.52276173,46.24173513,523.58
-89.52276134,46.24173514,524.33
-89.52250178,46.24174087,524.62
-89.52218598,46.24174784,518.60
-89.52200638,46.24175181,532.55
-89.52196232,46.24175278,532.17
-89.52190141,46.24175412,538.38
-89.52184349,46.24175540,532.98
-89.52179412,46.24175649,520.03
-89.52152043,46.24176253,516.55
-89.52151007,46.24176276,535.42
-89.52145797,46.24176391,533.56
-89.52140134,46.24176516,518.63
-89.52123068,46.24176893,541.42
-89.52116446,46.24177039,538.50
-89.52110952,46.24177160,534.64
-89.52109773,46.24177186,535.58
-89.52104667,46.24177299,539.22
-89.52102905,46.24177338,521.61
-89.52099004,46.24177424,534.35
-89.52083091,46.24177775,523.36
-89.52076275,46.24177925,520.85
-89.52069459,46.24178075,526.07
-89.52069109,46.24178083,531.72
-89.52068746,46.24178091,537.57
-89.52066841,46.24178133,530.62
-89.52058599,46.24178315,521.99
-89.52057394,46.24178342,540.22
-89.52057239,46.24178345,543.10
-89.52052146,46.24178457,521.69
-89.52045407,46.24178606,544.11
-89.52045278,46.24178609,539.82
-89.52045058,46.24178614,541.80
-89.52043606,46.24178646,540.38
-89.52038099,46.24178767,537.88
-89.52032838,46.24178883,536.73
-89.52027486,46.24179001,535.61
-89.52021940,46.24179124,519.42
-89.52019192,46.24179184,532.67
-89.52014916,46.24179279,535.59
-89.52004251,46.24179514,540.85
-89.51972697,46.24180210,535.09
-89.51971881,46.24180228,533.62
-89.51958922,46.24180514,521.97
-89.51950551,46.24180698,526.28
-89.51948685,46.24180739,518.74
-89.51942348,46.24180879,529.81
-89.51916794,46.24181442,518.22
-89.51912064,46.24181547,518.32
-89.51910159,46.24181589,518.27
-89.51898004,46.24181857,522.11
-89.51890073,46.24182032,518.16
-89.51889594,46.24182042,517.22
-89.51879097,46.24182274,518.17
-89.51874549,46.24182374,520.68
-89.51873564,46.24182396,521.66
-89.51854372,46.24182819,525.93
-89.51853750,46.24182832,533.14
-89.51853025,46.24182848,532.11
-89.51850757,46.24182898,527.22
-89.51839366,46.24183149,523.70
-89.51829608,46.24183364,521.33
-89.51827989,46.24183400,538.99
-89.51827548,46.24183410,537.92
-89.51819125,46.24183595,535.34
-89.51818632,46.24183606,534.31
-89.51817661,46.24183628,532.41
-89.51817207,46.24183638,531.34
-89.51815380,46.24183678,531.57
-89.51812905,46.24183733,521.84
-89.51802914,46.24183953,523.45
-89.51802603,46.24183960,527.46
-89.51795709,46.24184112,535.22
-89.51791679,46.24184200,535.19
-89.51783670,46.24184377,534.05
-89.51774366,46.24184582,534.71
-89.51769221,46.24184695,523.18
-89.51753930,46.24185032,524.47
-89.51744639,46.24185237,521.82
-89.51727287,46.24185619,519.28
-89.51715482,46.24185879,527.05
-89.51700385,46.24186212,529.95
-89.51687660,46.24186492,533.99
-89.51658892,46.24187126,526.04
-89.51649639,46.24187330,534.89
-89.51648966,46.24187353,533.26
-89.51644503,46.24187632,535.22
-89.51643754,46.24187702,531.63
-89.51643703,46.24187721,530.66
-89.51643617,46.24188659,533.02
-89.51644014,46.24197633,536.13
-89.51644929,46.24217638,535.12
-89.51644975,46.24218628,537.13
-89.51646169,46.24244729,530.52
-89.51646351,46.24248703,534.59
-89.51646495,46.24251859,536.46
-89.51646516,46.24252327,533.17
-89.51646683,46.24255977,519.27
-89.51646685,46.24256022,528.48
-89.51646747,46.24257362,530.16
-89.51646898,46.24260662,532.24
-89.51647000,46.24262910,540.21
-89.51647142,46.24266011,520.55
-89.51647530,46.24274481,521.84
-89.51647842,46.24281306,526.39
-89.51648046,46.24285756,532.50
-89.51648123,46.24287447,533.29
-89.51649163,46.24310177,523.35
-89.51649588,46.24319456,523.16
-89.51649846,46.24325111,514.68
-89.51650131,46.24331342,524.84
-89.51651420,46.24359503,517.49
-89.51651502,46.24361310,514.90
-89.51652049,46.24373250,514.70
-89.51652182,46.24376164,529.54
-89.51652197,46.24376487,514.78
-89.51652397,46.24380857,533.60
-89.51652905,46.24391961,518.33
-89.51653852,46.24412668,534.59
-89.51654189,46.24420032,521.94
-89.51655476,46.24448157,534.56
-89.51655534,46.24449433,534.41
-89.51656164,46.24463199,536.11
-89.51656386,46.24468036,518.44
-89.51656448,46.24469403,538.14
-89.51656794,46.24476956,516.77
-89.51657072,46.24483043,529.01
-89.51657098,46.24483600,525.33
-89.51657205,46.24485947,520.11
-89.51657231,46.24486513,525.81
-89.51657287,46.24487727,526.78
-89.51657447,46.24491234,529.12
-89.51657647,46.24495612,529.64
-89.51658440,46.24512930,521.99
-89.51658726,46.24519179,526.36
-89.51658899,46.24522955,520.90
-89.51659147,46.24528386,516.23
-89.51659664,46.24539679,526.01
-89.51660122,46.24549704,516.23
-89.51660331,46.24554271,524.30
-89.51660832,46.24565205,528.01
-89.51662225,46.24595658,516.07
-89.51662904,46.24610494,522.17
-89.51662988,46.24612328,522.38
-89.51663081,46.24614369,518.82
-89.51663387,46.24621050,538.62
-89.51663448,46.24622371,527.74
-89.51663557,46.24624754,528.83
-89.51664961,46.24655450,519.69
-89.51665233,46.24661384,543.21
-89.51665734,46.24672336,539.87
-89.51665828,46.24674395,539.50
-89.51666375,46.24686335,536.82
-89.51666753,46.24694598,523.47
-89.51667746,46.24716294,533.66
-89.51669001,46.24743726,518.75
-89.51669249,46.24749148,516.85
-89.51669567,46.24756107,524.06
-89.51670561,46.24777821,522.92
-89.51670748,46.24781894,524.33
-89.51671203,46.24791857,521.19
-89.51672498,46.24820152,525.61
-89.51672517,46.24820548,524.70
-89.51674001,46.24852412,513.92
-89.51674778,46.24869964,515.03
-89.51676106,46.24898987,514.92
-89.51676179,46.24900570,514.05
-89.51676219,46.24901442,519.34
-89.51676294,46.24903087,517.20
-89.51676572,46.24909165,514.52
-89.51677157,46.24921942,513.92
-89.51677673,46.24933217,514.01
-89.51678672,46.24954760,514.07
-89.51679999,46.24984036,524.47
-89.51680122,46.24986724,529.99
-89.51680163,46.24987623,526.99
-89.51680186,46.24988127,525.93
-89.51680252,46.24989565,522.10
-89.51680862,46.25002899,518.02
-89.51681268,46.25011774,525.24
-89.51682333,46.25035034,538.63
-89.51683310,46.25056379,541.38
-89.51683518,46.25060938,541.63
-89.51683984,46.25071116,519.02
-89.51684047,46.25072483,529.56
-89.51684058,46.25072734,535.89
-89.51684084,46.25073292,535.11
-89.51684264,46.25077221,534.75
-89.51684265,46.25077239,533.82
-89.51684421,46.25080665,537.57
-89.51684590,46.25084351,520.77
-89.51684671,46.25084979,535.93
-89.51685072,46.25086375,519.84
-89.51685672,46.25086442,519.46
-89.51686920,46.25086496,539.05
-89.51689798,46.25086450,540.07
-89.51718170,46.25085843,546.99
-89.51724300,46.25085708,539.74
-89.51727864,46.25085630,537.61
-89.51735809,46.25085455,541.47
-89.51748653,46.25085172,523.63
-89.51754537,46.25085042,534.38
-89.51781379,46.25084451,519.52
-89.51792875,46.25084197,536.24
-89.51793212,46.25084190,538.45
-89.51802985,46.25083975,528.43
-89.51814338,46.25083724,527.16
-89.51825134,46.25083486,537.12
-89.51825368,46.25083481,521.71
-89.51828401,46.25083414,539.07
-89.51836281,46.25083241,536.91
-89.51846468,46.25083016,541.20
-89.51846558,46.25083014,543.04
-89.51866064,46.25082584,522.80
-89.51876873,46.25082346,523.50
-89.51877223,46.25082338,523.27
-89.51885104,46.25082165,522.67
-89.51907953,46.25081661,535.58
-89.51915121,46.25081503,542.83
-89.51918309,46.25081432,537.91
-89.51918516,46.25081428,540.59
-89.51923312,46.25081322,533.24
-89.51930142,46.25081172,539.98
-89.51938035,46.25080998,527.89
-89.51957709,46.25080564,525.09
-89.51959122,46.25080533,533.44
-89.51975388,46.25080174,536.34
-89.51979120,46.25080092,543.12
-89.51979496,46.25080083,547.02
-89.51985562,46.25079949,529.00
-89.51992924,46.25079787,541.23
-89.51999119,46.25079650,541.51
-89.52006908,46.25079479,526.81
-89.52013207,46.25079340,531.75
-89.52013894,46.25079325,535.39
-89.52017756,46.25079239,522.50
-89.52018041,46.25079233,526.83
-89.52027347,46.25079028,523.75
-89.52027541,46.25079024,524.66
-89.52028060,46.25079012,530.32
-89.52029563,46.25078979,529.98
-89.52034346,46.25078873,526.71
-89.52035240,46.25078854,531.47
-89.52039219,46.25078766,530.13
-89.52039543,46.25078759,529.97
-89.52056859,46.25078377,529.02
-89.52057429,46.25078364,535.81
-89.52065594,46.25078184,513.98
-89.52079268,46.25077882,534.87
-89.52079397,46.25077880,535.74
-89.52080032,46.25077866,526.75
-89.52099214,46.25077442,537.99
-89.52108261,46.25077243,538.48
-89.52116011,46.25077072,537.53
-89.52127261,46.25076824,529.78
-89.52127416,46.25076820,531.36
-89.52188254,46.25075477,536.36
-89.52208317,46.25075035,542.22
-89.52208343,46.25075034,543.05
-89.52237297,46.25074395,521.54
-89.52248482,46.25074148,547.42
-89.52258047,46.25073937,543.70
-89.52268441,46.25073707,538.21
-89.52279004,46.25073474,543.10
-89.52285718,46.25073326,518.87
-89.52286418,46.25073310,528.24
-89.52287506,46.25073286,541.03
-89.52307012,46.25072856,514.08
     </coordinates>
    </LineString>
   </MultiGeometry>
  </Placemark>
 </Document>
</kml>
