<kml>
 <Document>
  <Style id="yellow">
   <LineStyle>
   <color>ff00ffff</color>
   <width>1</width>
   </LineStyle>
  </Style>
  <Style id="red">
   <LineStyle>
   <color>ffff0000</color>
   <width>2</width>
   </LineStyle>
  </Style>
  <Style id="green">
   <LineStyle>
   <color>ff00ff00</color>
   <width>1</width>
   </LineStyle>
  </Style>
  <Placemark>
  <styleUrl>#yellow</styleUrl>
   <MultiGeometry>
    <LineString>
     <coordinates>
-89.53522254,46.24145923,514.72
-89.53541666,46.24145492,510.47
-89.53543351,46.24145455,510.49
-89.53548443,46.24145342,510.94
-89.53554119,46.24145216,509.57
-89.53563501,46.24145008,519.19
-89.53574632,46.24144760,511.87
-89.53587798,46.24144468,533.32
-89.53588757,46.24144447,512.03
-89.53591996,46.24144375,512.95
-89.53592229,46.24144370,511.41
-89.53594199,46.24144326,533.66
-89.53594873,46.24144311,534.14
-89.53606639,46.24144050,517.98
-89.53609995,46.24143976,522.39
-89.53612846,46.24143912,519.89
-89.53614064,46.24143885,530.85
-89.53614414,46.24143877,525.37
-89.53615503,46.24143853,510.90
-89.53625208,46.24143638,518.29
-89.53626141,46.24143617,517.37
-89.53626828,46.24143602,509.47
-89.53630573,46.24143519,510.05
-89.53636547,46.24143386,511.27
-89.53643881,46.24143223,521.59
-89.53651060,46.24143064,519.35
-89.53654144,46.24142995,518.18
-89.53655129,46.24142974,529.47
-89.53656516,46.24142943,521.84
-89.53657643,46.24142918,515.87
-89.53661582,46.24142830,516.13
-89.53662736,46.24142805,522.05
-89.53663941,46.24142778,515.73
-89.53670809,46.24142626,512.49
-89.53680579,46.24142409,529.64
-89.53680890,46.24142402,527.93
-89.53687784,46.24142249,512.46
-89.53689482,46.24142211,514.35
-89.53692630,46.24142141,530.68
-89.53698462,46.24142012,511.33
-89.53718068,46.24141576,510.68
-89.53722007,46.24141489,517.74
-89.53722136,46.24141486,515.72
-89.53727177,46.24141374,530.84
-89.53727372,46.24141370,516.22
-89.53730754,46.24141295,528.16
-89.53734240,46.24141217,509.35
-89.53744191,46.24140996,525.93
-89.53756657,46.24140719,508.31
-89.53777598,46.24140254,512.88
-89.53811069,46.24139511,506.60
-89.53823600,46.24139232,506.57
-89.53842428,46.24138814,507.96
-89.53865222,46.24138307,506.50
-89.53871649,46.24138165,506.49
-89.53905781,46.24137406,508.34
-89.53920541,46.24137078,513.56
-89.53933045,46.24136800,513.57
-89.53933940,46.24136781,508.56
-89.53955774,46.24136295,526.69
-89.53958275,46.24136240,529.90
-89.54021874,46.24134826,510.20
-89.54031282,46.24134617,518.24
-89.54032332,46.24134593,514.30
-89.54036724,46.24134496,515.26
-89.54037087,46.24134487,507.12
-89.54040042,46.24134422,507.01
-89.54060127,46.24133975,506.08
-89.54069911,46.24133758,506.14
-89.54080173,46.24133529,506.14
-89.54096112,46.24133175,506.09
-89.54117856,46.24132691,506.20
-89.54123052,46.24132576,506.13
-89.54132590,46.24132364,506.14
-89.54135414,46.24132301,506.06
-89.54155772,46.24131848,513.88
-89.54160618,46.24131740,516.28
-89.54173758,46.24131448,515.54
-89.54174769,46.24131425,509.67
-89.54177788,46.24131358,514.26
-89.54180483,46.24131298,514.85
-89.54181274,46.24131281,525.98
-89.54187377,46.24131145,518.33
-89.54189321,46.24131102,526.81
-89.54193079,46.24131018,525.71
-89.54195631,46.24130961,509.60
-89.54198780,46.24130891,525.67
-89.54201372,46.24130834,509.62
-89.54203043,46.24130796,524.94
-89.54203277,46.24130791,524.37
-89.54221198,46.24130392,525.50
-89.54221250,46.24130391,518.24
-89.54230398,46.24130188,505.68
-89.54234531,46.24130078,506.95
-89.54234915,46.24129682,510.11
-89.54235178,46.24129199,509.83
-89.54235118,46.24127905,522.31
-89.54235067,46.24126790,522.97
-89.54234423,46.24112863,515.34
-89.54234358,46.24111469,506.45
-89.54234283,46.24109842,511.22
-89.54234262,46.24109374,512.32
-89.54234003,46.24103773,507.32
-89.54233712,46.24097479,510.19
-89.54233484,46.24092543,526.20
-89.54233416,46.24091068,526.59
-89.54233385,46.24090412,526.63
-89.54233050,46.24083156,520.64
-89.54232415,46.24069427,517.27
-89.54231496,46.24049538,505.59
-89.54231295,46.24045187,505.75
-89.54231189,46.24042903,510.07
-89.54231061,46.24040125,505.55
-89.54230694,46.24032186,505.88
-89.54230569,46.24029488,506.85
-89.54230531,46.24028661,505.90
-89.54230346,46.24024642,506.75
-89.54230325,46.24024201,505.71
-89.54230018,46.24017566,505.75
-89.54229707,46.24010823,508.73
-89.54229566,46.24007775,505.70
-89.54229350,46.24003099,505.29
-89.54229265,46.24001256,509.16
-89.54229141,46.23998577,505.61
-89.54228634,46.23987608,515.19
-89.54228441,46.23983427,519.71
-89.54228215,46.23978536,511.80
-89.54228203,46.23978275,519.61
-89.54227858,46.23970821,517.76
-89.54227738,46.23968232,507.61
-89.54227684,46.23967045,520.12
-89.54227666,46.23966658,521.64
-89.54227614,46.23965535,507.83
-89.54227608,46.23965409,518.28
-89.54227414,46.23961201,515.45
-89.54226824,46.23948442,527.58
-89.54226707,46.23945907,509.68
-89.54226512,46.23941690,532.45
-89.54226485,46.23941115,528.54
-89.54226275,46.23936574,532.17
-89.54226262,46.23936287,528.83
-89.54225871,46.23927817,510.24
-89.54225573,46.23921379,527.98
-89.54225394,46.23917504,518.02
-89.54225178,46.23912829,519.13
-89.54225124,46.23911651,518.96
-89.54224954,46.23907974,522.05
-89.54224858,46.23905906,521.17
-89.54224747,46.23903505,519.67
-89.54224618,46.23900709,534.68
-89.54224569,46.23899657,533.96
-89.54224376,46.23895485,530.66
-89.54223485,46.23876190,511.24
-89.54223460,46.23875651,512.21
-89.54223440,46.23875210,512.29
-89.54222991,46.23865500,523.11
-89.54222788,46.23861103,530.99
-89.54222739,46.23860051,509.71
-89.54222642,46.23857947,507.79
-89.54222305,46.23850655,526.91
-89.54222041,46.23844946,528.85
-89.54222014,46.23844362,529.50
-89.54221697,46.23837510,527.63
-89.54221669,46.23836890,528.19
-89.54221026,46.23822990,525.41
-89.54221000,46.23822423,527.89
-89.54220711,46.23816165,526.07
-89.54220683,46.23815572,521.56
-89.54220074,46.23802373,527.26
-89.54219909,46.23798822,516.73
-89.54219561,46.23791287,518.10
-89.54219518,46.23790352,518.57
-89.54219508,46.23790127,510.35
-89.54219400,46.23787808,522.55
-89.54219199,46.23783447,520.36
-89.54219174,46.23782916,521.02
-89.54218448,46.23767200,510.26
-89.54218422,46.23766625,518.50
-89.54218144,46.23760628,527.90
-89.54218026,46.23758065,529.96
-89.54217921,46.23755790,512.48
-89.54217612,46.23749101,514.13
-89.54217566,46.23748112,532.86
-89.54216903,46.23733771,528.69
-89.54216790,46.23731325,535.76
-89.54216768,46.23730840,535.43
-89.54216590,46.23726983,537.71
-89.54216296,46.23720626,516.32
-89.54216259,46.23719817,515.96
-89.54216216,46.23718900,519.88
-89.54216028,46.23714818,516.73
-89.54215978,46.23713748,518.35
-89.54215960,46.23713352,513.65
-89.54215826,46.23710466,527.12
-89.54215395,46.23701133,532.52
-89.54215377,46.23700729,516.23
-89.54214991,46.23692394,526.88
-89.54214741,46.23686972,525.43
-89.54214727,46.23686676,523.25
-89.54214527,46.23682342,514.41
-89.54214415,46.23679923,520.78
-89.54214319,46.23677837,522.48
-89.54214079,46.23672650,516.94
-89.54213707,46.23664594,511.39
-89.54213549,46.23661186,514.02
-89.54213241,46.23654515,511.40
-89.54212583,46.23640273,511.44
-89.54212556,46.23639679,511.44
-89.54212184,46.23631632,514.15
-89.54211891,46.23625302,511.44
-89.54211812,46.23623594,511.44
-89.54211212,46.23610593,534.12
-89.54211009,46.23606214,529.53
-89.54210948,46.23604893,521.90
-89.54210930,46.23604497,512.75
-89.54210858,46.23602933,520.01
-89.54210825,46.23602231,517.50
-89.54210745,46.23600496,531.76
-89.54210636,46.23598131,526.86
-89.54210635,46.23598113,530.09
-89.54210576,46.23596828,513.16
-89.54210547,46.23596216,525.99
-89.54210416,46.23593366,527.22
-89.54210377,46.23592521,515.66
-89.54210373,46.23592449,525.29
-89.54210313,46.23591136,515.90
-89.54209984,46.23584024,521.84
-89.54209678,46.23577407,529.12
-89.54209551,46.23574665,531.06
-89.54209246,46.23568056,527.18
-89.54209181,46.23566654,520.08
-89.54208983,46.23562356,516.53
-89.54208942,46.23561466,519.50
-89.54208819,46.23558822,521.28
-89.54208086,46.23542953,512.98
-89.54207914,46.23539231,511.49
-89.54207817,46.23537127,514.55
-89.54207738,46.23535427,520.55
-89.54207288,46.23525672,512.35
-89.54206646,46.23511790,530.86
-89.54206289,46.23504057,529.06
-89.54206287,46.23504004,532.43
-89.54206171,46.23501495,523.23
-89.54205902,46.23495678,518.73
-89.54205865,46.23494878,527.82
-89.54205801,46.23493484,519.83
-89.54205700,46.23491299,529.84
-89.54205638,46.23489977,525.95
-89.54205611,46.23489384,526.22
-89.54205599,46.23489114,523.19
-89.54205564,46.23488368,533.45
-89.54205244,46.23481445,535.65
-89.54204980,46.23475718,537.43
-89.54204896,46.23473910,530.91
-89.54204606,46.23467626,525.06
-89.54204478,46.23464856,543.34
-89.54204433,46.23463876,540.48
-89.54204409,46.23463364,543.11
-89.54204267,46.23460298,542.22
-89.54204077,46.23456171,545.15
-89.54203545,46.23444671,537.97
-89.54203214,46.23437505,539.06
-89.54203157,46.23436274,536.51
-89.54203086,46.23434736,525.08
-89.54203068,46.23434349,540.83
-89.54202910,46.23430933,527.51
-89.54202791,46.23428352,533.57
-89.54202674,46.23425826,517.36
-89.54202535,46.23422814,534.77
-89.54202327,46.23418300,516.28
-89.54202287,46.23417428,516.42
-89.54201999,46.23411206,527.28
-89.54201906,46.23409201,517.12
-89.54201237,46.23394717,531.95
-89.54200823,46.23385753,527.14
-89.54200430,46.23377238,517.31
-89.54200394,46.23376474,539.52
-89.54200335,46.23375188,518.07
-89.54200155,46.23371304,541.62
-89.54200127,46.23370692,541.51
-89.54199519,46.23357520,521.50
-89.54199380,46.23354517,525.74
-89.54199359,46.23354068,535.28
-89.54198896,46.23344043,538.82
-89.54198871,46.23343494,544.13
-89.54198770,46.23341318,541.89
-89.54198750,46.23340878,544.24
-89.54198636,46.23338414,543.50
-89.54198615,46.23337965,540.49
-89.54198602,46.23337677,538.88
-89.54198591,46.23337434,543.23
-89.54198290,46.23330934,539.04
-89.54198259,46.23330259,530.09
-89.54198239,46.23329819,538.30
-89.54198205,46.23329082,517.43
-89.54198198,46.23328938,538.23
-89.54197539,46.23314660,529.81
-89.54197351,46.23310605,532.83
-89.54196930,46.23301497,533.89
-89.54196843,46.23299609,523.40
-89.54196599,46.23294322,529.32
-89.54196533,46.23292901,522.33
-89.54196527,46.23292775,525.43
-89.54196406,46.23290141,527.71
-89.54196246,46.23286689,520.59
-89.54196172,46.23285088,529.54
-89.54196163,46.23284890,520.93
-89.54195078,46.23261397,527.55
-89.54195024,46.23260237,522.25
-89.54194932,46.23258232,517.40
-89.54194862,46.23256730,525.92
-89.54194807,46.23255543,521.65
-89.54194490,46.23248683,522.16
-89.54194478,46.23248422,522.31
-89.54194412,46.23246993,526.10
-89.54194239,46.23243243,518.20
-89.54193707,46.23232284,531.80
-89.54193622,46.23231287,533.02
-89.54193523,46.23231109,525.27
-89.54192080,46.23231042,530.44
-89.54191250,46.23231034,532.33
-89.54188192,46.23231102,522.12
-89.54184862,46.23231176,529.66
-89.54182116,46.23231237,532.51
-89.54178864,46.23231309,528.46
-89.54178138,46.23231325,533.21
-89.54170170,46.23231502,520.06
-89.54169548,46.23231516,538.05
-89.54169199,46.23231524,530.99
-89.54157732,46.23231779,529.39
-89.54148922,46.23231975,530.52
-89.54146512,46.23232029,528.67
-89.54136471,46.23232252,537.42
-89.54125485,46.23232496,533.01
-89.54110728,46.23232825,535.11
-89.54107087,46.23232906,529.96
-89.54105247,46.23232947,526.65
-89.54102345,46.23233011,520.43
-89.54102177,46.23233015,526.98
-89.54095996,46.23233152,533.55
-89.54093431,46.23233209,528.53
-89.54084841,46.23233400,523.59
-89.54062699,46.23233893,531.90
-89.54058592,46.23233984,533.76
-89.54045545,46.23234274,525.32
-89.54039443,46.23234410,521.34
-89.54027238,46.23234681,521.96
-89.54023041,46.23234775,537.95
-89.54021019,46.23234820,531.49
-89.54020981,46.23234820,531.51
-89.54020320,46.23234835,536.72
-89.54015656,46.23234939,539.65
-89.54014010,46.23234975,523.40
-89.54013518,46.23234986,527.39
-89.53999305,46.23235302,543.24
-89.53994978,46.23235398,541.29
-89.53994770,46.23235403,543.20
-89.53992542,46.23235453,540.94
-89.53977759,46.23235781,523.11
-89.53975543,46.23235831,522.94
-89.53967083,46.23236019,543.22
-89.53962730,46.23236115,541.77
-89.53944487,46.23236521,532.93
-89.53924418,46.23236967,533.17
-89.53921439,46.23237033,522.53
-89.53915867,46.23237157,535.74
-89.53915077,46.23237174,541.61
-89.53911864,46.23237246,539.88
-89.53903624,46.23237429,538.32
-89.53896407,46.23237589,533.03
-89.53886301,46.23237814,546.62
-89.53871272,46.23238148,537.77
-89.53870728,46.23238160,541.88
-89.53862941,46.23238333,540.26
-89.53847290,46.23238681,538.26
-89.53837923,46.23238889,544.07
-89.53834425,46.23238967,541.16
-89.53830992,46.23239043,538.79
-89.53826496,46.23239143,538.63
-89.53814732,46.23239404,538.21
-89.53794067,46.23239863,540.45
-89.53782238,46.23240126,540.16
-89.53770577,46.23240385,534.89
-89.53770266,46.23240392,537.28
-89.53769657,46.23240405,542.71
-89.53730063,46.23241285,541.03
-89.53712831,46.23241667,536.86
-89.53711730,46.23241692,513.86
-89.53706949,46.23241798,512.77
-89.53688072,46.23242217,534.32
-89.53676126,46.23242482,525.40
-89.53664194,46.23242747,532.35
-89.53663688,46.23242758,530.07
-89.53663144,46.23242771,527.90
-89.53662885,46.23242776,526.81
-89.53658493,46.23242874,525.81
-89.53632166,46.23243458,516.84
-89.53625092,46.23243615,514.42
-89.53621335,46.23243699,512.79
-89.53611967,46.23243907,519.10
-89.53611656,46.23243914,512.72
-89.53603857,46.23244087,520.25
-89.53600812,46.23244154,520.93
-89.53598895,46.23244197,518.75
-89.53592404,46.23244341,523.04
-89.53587856,46.23244442,515.29
-89.53579020,46.23244638,519.91
-89.53578605,46.23244647,514.49
-89.53561801,46.23245020,520.39
-89.53558912,46.23245084,516.00
-89.53558445,46.23245095,520.55
-89.53556204,46.23245144,523.25
-89.53552991,46.23245216,510.17
-89.53552330,46.23245230,507.44
-89.53547666,46.23245334,510.36
-89.53544297,46.23245409,506.89
-89.53540190,46.23245500,515.84
-89.53539840,46.23245507,512.10
-89.53535513,46.23245603,516.30
-89.53528840,46.23245752,513.06
-89.53523839,46.23245863,525.58
-89.53523813,46.23245863,507.22
-89.53521468,46.23245915,517.14
-89.53519952,46.23245949,521.30
-89.53514394,46.23246072,510.75
-89.53513746,46.23246086,525.88
-89.53509212,46.23246187,507.29
-89.53498199,46.23246431,517.06
-89.53486163,46.23246698,527.73
-89.53485826,46.23246706,526.01
-89.53484414,46.23246737,520.31
-89.53472882,46.23246993,517.21
-89.53470291,46.23247051,520.09
-89.53468503,46.23247090,518.75
-89.53464072,46.23247189,524.86
-89.53460548,46.23247267,520.12
-89.53453254,46.23247429,521.94
-89.53434869,46.23247836,529.67
-89.53429609,46.23247953,525.53
-89.53422120,46.23248119,514.37
-89.53420863,46.23248147,509.12
-89.53414761,46.23248282,522.78
-89.53399848,46.23248613,519.40
-89.53391258,46.23248804,523.67
-89.53390779,46.23248814,521.62
-89.53385894,46.23248923,519.51
-89.53364037,46.23249407,506.18
-89.53362975,46.23249431,522.73
-89.53361990,46.23249453,518.19
-89.53353517,46.23249641,523.48
-89.53352999,46.23249652,521.31
-89.53345406,46.23249820,506.18
-89.53303234,46.23250756,525.75
-89.53291223,46.23251022,508.63
-89.53253793,46.23251852,510.45
-89.53250450,46.23251926,508.08
-89.53250074,46.23251934,508.94
-89.53249737,46.23251941,517.49
-89.53243596,46.23252078,508.40
-89.53242443,46.23252103,522.29
-89.53240720,46.23252141,522.26
-89.53240253,46.23252152,523.37
-89.53238115,46.23252199,523.76
-89.53234553,46.23252278,506.91
-89.53228722,46.23252407,522.47
-89.53224045,46.23252511,517.71
-89.53223566,46.23252522,518.89
-89.53223112,46.23252532,519.98
-89.53220327,46.23252593,516.22
-89.53206152,46.23252907,517.06
-89.53183855,46.23253402,522.75
-89.53177636,46.23253539,526.15
-89.53176586,46.23253563,524.57
-89.53176483,46.23253565,523.81
-89.53174863,46.23253601,515.96
-89.53173334,46.23253635,524.39
-89.53168566,46.23253740,521.56
-89.53165716,46.23253803,518.19
-89.53164006,46.23253841,524.01
-89.53156763,46.23254002,520.99
-89.53151360,46.23254122,514.16
-89.53144727,46.23254269,504.24
-89.53138002,46.23254418,511.34
-89.53121341,46.23254787,505.26
-89.53112440,46.23254984,506.92
-89.53108073,46.23255081,510.01
-89.53107322,46.23255097,506.05
-89.53107115,46.23255102,504.96
-89.53103578,46.23255180,517.35
-89.53096581,46.23255335,519.60
-89.53090919,46.23255461,519.53
-89.53090712,46.23255465,518.53
-89.53090440,46.23255471,517.23
-89.53075864,46.23255794,516.68
-89.53074931,46.23255815,506.92
-89.53064074,46.23256055,504.75
-89.53063802,46.23256061,516.08
-89.53057907,46.23256192,503.58
-89.53050846,46.23256348,503.73
-89.53044316,46.23256493,524.03
-89.53035039,46.23256698,504.41
-89.53031748,46.23256771,508.30
-89.53029455,46.23256822,519.07
-89.53026579,46.23256886,503.35
-89.53023961,46.23256944,516.58
-89.53020243,46.23257026,520.16
-89.53012987,46.23257187,503.72
-89.53001884,46.23257433,521.68
-89.52987308,46.23257755,522.82
-89.52979340,46.23257932,503.39
-89.52972331,46.23258087,519.00
-89.52967381,46.23258196,523.62
-89.52955423,46.23258461,503.69
-89.52948426,46.23258616,520.08
-89.52947752,46.23258631,516.28
-89.52945887,46.23258672,504.85
-89.52944617,46.23258700,520.57
-89.52944047,46.23258713,520.75
-89.52928046,46.23259067,502.87
-89.52922151,46.23259198,502.77
-89.52921257,46.23259218,502.79
-89.52916942,46.23259313,502.75
-89.52916320,46.23259327,502.76
-89.52901719,46.23259659,502.77
-89.52898106,46.23259766,502.77
-89.52898158,46.23261466,502.75
-89.52898216,46.23263022,502.76
-89.52898738,46.23274378,502.72
-89.52899793,46.23297332,502.75
-89.52900410,46.23310756,502.76
-89.52900421,46.23310981,509.25
-89.52900807,46.23319379,502.77
-89.52901011,46.23323829,503.13
-89.52901119,46.23326185,512.30
-89.52901305,46.23330222,514.75
-89.52901333,46.23330833,503.23
-89.52901354,46.23331292,513.07
-89.52901961,46.23344500,513.52
-89.52902022,46.23345822,519.11
-89.52902346,46.23352880,519.30
-89.52902421,46.23354507,516.88
-89.52902498,46.23356171,512.42
-89.52902674,46.23360001,504.23
-89.52903235,46.23372211,510.20
-89.52903392,46.23375619,505.22
-89.52903752,46.23383450,524.62
-89.52903937,46.23387487,525.65
-89.52904061,46.23390175,518.08
-89.52904454,46.23398726,517.67
-89.52904598,46.23401873,506.30
-89.52904823,46.23406755,509.10
-89.52904919,46.23408850,512.60
-89.52904946,46.23409425,506.63
-89.52905224,46.23415476,517.38
-89.52905376,46.23418794,530.85
-89.52905392,46.23419145,524.31
-89.52905442,46.23420224,506.34
-89.52905488,46.23421231,509.12
-89.52905546,46.23422490,516.77
-89.52905664,46.23425061,506.25
-89.52906083,46.23434160,525.10
-89.52906241,46.23437613,522.82
-89.52906781,46.23449346,521.02
-89.52906884,46.23451603,524.61
-89.52907067,46.23455568,524.46
-89.52907080,46.23455856,517.54
-89.52907277,46.23460145,507.65
-89.52907346,46.23461637,509.24
-89.52907414,46.23463130,506.50
-89.52908010,46.23476095,505.77
-89.52908785,46.23492954,520.60
-89.52908940,46.23496325,521.29
-89.52909032,46.23498321,513.63
-89.52909106,46.23499940,512.00
-89.52909560,46.23509812,523.08
-89.52909830,46.23515674,515.90
-89.52910056,46.23520611,514.63
-89.52910369,46.23527408,516.51
-89.52910421,46.23528550,515.00
-89.52910707,46.23534763,513.82
-89.52910786,46.23536471,516.51
-89.52910814,46.23537091,516.01
-89.52910972,46.23540517,515.46
-89.52911341,46.23548555,517.59
-89.52912078,46.23564595,512.48
-89.52912206,46.23567383,517.54
-89.52912417,46.23571950,514.36
-89.52912627,46.23576527,504.88
-89.52912652,46.23577066,515.87
-89.52913318,46.23591560,516.09
-89.52913690,46.23599652,516.20
-89.52913959,46.23605496,512.42
-89.52914076,46.23608059,525.84
-89.52914289,46.23612689,519.98
-89.52914648,46.23620494,512.50
-89.52914856,46.23625025,517.52
-89.52915148,46.23631364,514.34
-89.52915427,46.23637442,506.68
-89.52915780,46.23645112,516.73
-89.52915853,46.23646712,516.73
-89.52916138,46.23652907,513.00
-89.52916175,46.23653716,510.77
-89.52916364,46.23657825,515.12
-89.52916859,46.23668579,509.88
-89.52916976,46.23671132,508.55
-89.52917051,46.23672759,507.47
-89.52917305,46.23678289,505.67
-89.52917404,46.23680447,515.30
-89.52917465,46.23681778,512.48
-89.52917538,46.23683360,512.55
-89.52917875,46.23690697,509.04
-89.52917992,46.23693241,511.65
-89.52918342,46.23700848,518.98
-89.52918400,46.23702098,508.28
-89.52918660,46.23707762,518.45
-89.52918978,46.23714676,507.33
-89.52919078,46.23716861,525.09
-89.52919152,46.23718462,530.31
-89.52919303,46.23721743,518.09
-89.52919304,46.23721761,521.67
-89.52919439,46.23724711,522.47
-89.52919479,46.23725574,521.75
-89.52919501,46.23726059,515.71
-89.52919506,46.23726167,520.73
-89.52919945,46.23735707,517.08
-89.52919984,46.23736561,530.02
-89.52920122,46.23739564,529.18
-89.52920144,46.23740041,530.17
-89.52920269,46.23742756,525.25
-89.52920483,46.23747422,528.68
-89.52920491,46.23747593,527.74
-89.52921007,46.23758823,508.54
-89.52921036,46.23759435,508.41
-89.52921463,46.23768731,530.28
-89.52921535,46.23770305,531.46
-89.52921546,46.23770539,527.01
-89.52921646,46.23772723,530.24
-89.52922178,46.23784277,532.45
-89.52922744,46.23796586,522.34
-89.52922955,46.23801190,532.69
-89.52923159,46.23805613,530.62
-89.52923270,46.23808041,530.35
-89.52923339,46.23809533,530.28
-89.52923479,46.23812581,534.59
-89.52923480,46.23812599,535.53
-89.52923722,46.23817859,532.94
-89.52923777,46.23819073,533.36
-89.52924102,46.23826122,522.22
-89.52924230,46.23828918,532.97
-89.52924862,46.23842666,528.04
-89.52925003,46.23845732,527.70
-89.52925161,46.23849167,527.65
-89.52925369,46.23853689,527.66
-89.52925460,46.23855676,528.04
-89.52925511,46.23856782,528.52
-89.52925784,46.23862707,515.42
-89.52925881,46.23864829,515.92
-89.52926325,46.23874477,510.47
-89.52926530,46.23878945,514.46
-89.52926621,46.23880923,530.26
-89.52926888,46.23886723,508.36
-89.52926961,46.23888305,508.71
-89.52927163,46.23892720,529.85
-89.52927292,46.23895525,508.64
-89.52927457,46.23899095,510.60
-89.52927530,46.23900686,509.42
-89.52927633,46.23902925,513.48
-89.52927722,46.23904876,528.12
-89.52927903,46.23908814,526.22
-89.52928136,46.23913876,530.86
-89.52928203,46.23915333,530.59
-89.52928868,46.23929790,525.75
-89.52929075,46.23934295,509.79
-89.52929310,46.23939402,518.91
-89.52929319,46.23939591,527.11
-89.52929422,46.23941848,516.90
-89.52929523,46.23944033,509.88
-89.52929692,46.23947719,511.66
-89.52929712,46.23948150,530.48
-89.52929743,46.23948825,515.72
-89.52929793,46.23949913,514.66
-89.52929910,46.23952457,523.61
-89.52929917,46.23952610,512.18
-89.52929966,46.23953671,512.33
-89.52930014,46.23954723,518.44
-89.52930867,46.23973281,522.88
-89.52930938,46.23974809,524.62
-89.52931047,46.23977183,523.07
-89.52931353,46.23983836,519.34
-89.52931490,46.23986822,525.22
-89.52931584,46.23988863,510.14
-89.52932065,46.23999319,508.08
-89.52932128,46.24000695,520.36
-89.52932140,46.24000965,516.64
-89.52932354,46.24005604,520.88
-89.52932406,46.24006737,523.27
-89.52932450,46.24007699,523.17
-89.52932735,46.24013894,515.59
-89.52932766,46.24014577,504.44
-89.52932771,46.24014685,508.94
-89.52933000,46.24019657,507.56
-89.52933033,46.24020386,519.17
-89.52933069,46.24021150,519.46
-89.52933488,46.24030276,519.02
-89.52933670,46.24034232,513.78
-89.52934412,46.24050371,521.20
-89.52934603,46.24054516,511.37
-89.52934715,46.24056962,521.37
-89.52934725,46.24057178,511.16
-89.52934747,46.24057654,523.19
-89.52935251,46.24068623,523.33
-89.52935273,46.24069100,521.06
-89.52935438,46.24072678,511.40
-89.52935507,46.24074171,504.08
-89.52935760,46.24079692,519.84
-89.52936061,46.24086237,513.22
-89.52936518,46.24096172,519.53
-89.52936719,46.24100533,516.00
-89.52936900,46.24104480,509.47
-89.52936957,46.24105712,518.89
-89.52937027,46.24107231,519.22
-89.52937033,46.24107366,517.60
-89.52937076,46.24108310,517.29
-89.52937095,46.24108724,510.90
-89.52937276,46.24112644,510.85
-89.52937358,46.24114433,510.57
-89.52937565,46.24118929,507.06
-89.52937586,46.24119388,504.39
-89.52937887,46.24125942,506.09
-89.52937897,46.24126158,514.27
-89.52937933,46.24126949,507.64
-89.52938681,46.24143214,513.47
-89.52938798,46.24145750,507.20
-89.52938907,46.24148123,513.84
-89.52939078,46.24151837,506.03
-89.52939119,46.24152727,513.88
-89.52939408,46.24158733,507.44
-89.52939879,46.24158821,508.47
-89.52944972,46.24158718,515.29
-89.52945115,46.24158714,514.43
-89.52949883,46.24158609,518.79
-89.52951322,46.24158577,506.13
-89.52967559,46.24158217,509.13
-89.52978975,46.24157965,506.75
-89.52983938,46.24157855,510.05
-89.52984521,46.24157842,509.51
-89.52984677,46.24157838,506.13
-89.52990365,46.24157712,508.74
-89.52990586,46.24157708,507.61
-89.53001354,46.24157469,509.10
-89.53010231,46.24157273,504.26
-89.53041849,46.24156572,516.90
-89.53046579,46.24156468,504.68
-89.53057684,46.24156222,516.90
-89.53063788,46.24156087,514.16
-89.53064073,46.24156080,508.66
-89.53064500,46.24156071,505.19
-89.53070163,46.24155945,504.22
-89.53085428,46.24155607,513.71
-89.53087489,46.24155562,505.16
-89.53091972,46.24155462,507.60
-89.53092192,46.24155457,508.79
-89.53099475,46.24155296,506.41
-89.53108468,46.24155097,507.52
-89.53108598,46.24155094,509.45
-89.53124316,46.24154746,508.50
-89.53125055,46.24154729,504.22
-89.53136134,46.24154484,509.26
-89.53136899,46.24154467,506.39
-89.53152734,46.24154116,504.58
-89.53169787,46.24153738,508.17
-89.53174595,46.24153632,508.70
-89.53175657,46.24153608,504.42
-89.53178560,46.24153544,504.36
-89.53180957,46.24153491,505.48
-89.53181372,46.24153482,506.56
-89.53187592,46.24153344,508.96
-89.53198075,46.24153111,510.75
-89.53201108,46.24153044,506.26
-89.53204127,46.24152977,504.50
-89.53212356,46.24152795,526.30
-89.53212939,46.24152782,519.98
-89.53258099,46.24151781,510.65
-89.53267791,46.24151566,514.02
-89.53273973,46.24151429,513.43
-89.53279039,46.24151317,509.91
-89.53283821,46.24151211,521.19
-89.53304554,46.24150751,527.33
-89.53305086,46.24150739,522.16
-89.53308299,46.24150668,530.09
-89.53319962,46.24150410,532.61
-89.53321932,46.24150366,511.17
-89.53324964,46.24150299,531.62
-89.53334812,46.24150080,532.57
-89.53341421,46.24149934,515.86
-89.53341447,46.24149933,515.01
-89.53346669,46.24149818,530.15
-89.53362478,46.24149467,521.98
-89.53362556,46.24149465,520.41
-89.53373156,46.24149230,511.17
-89.53377912,46.24149125,524.88
-89.53423655,46.24148110,530.63
-89.53423745,46.24148108,529.83
-89.53448547,46.24147558,525.37
-89.53454871,46.24147418,515.97
-89.53473233,46.24147010,530.64
-89.53474710,46.24146978,522.67
-89.53480334,46.24146853,530.42
-89.53496584,46.24146492,510.42
-89.53496623,46.24146491,510.48
-89.53504152,46.24146324,521.56
-89.53512212,46.24146146,529.47
-89.53516009,46.24146061,520.25
-89.53522254,46.24145923,514.72
     </coordinates>
    </LineString>
   </MultiGeometry>
  </Placemark>
 </Document>
</kml>
