<kml>
 <Document>
  <Style id="yellow">
   <LineStyle>
   <color>ff00ffff</color>
   <width>1</width>
   </LineStyle>
  </Style>
  <Style id="red">
   <LineStyle>
   <color>ffff0000</color>
   <width>2</width>
   </LineStyle>
  </Style>
  <Style id="green">
   <LineStyle>
   <color>ff00ff00</color>
   <width>1</width>
   </LineStyle>
  </Style>
  <Placemark>
  <styleUrl>#yellow</styleUrl>
   <MultiGeometry>
    <LineString>
     <coordinates>
-89.46974295,46.22489272,522.89
-89.46976743,46.22489219,523.37
-89.47005257,46.22488602,521.26
-89.47030714,46.22488052,517.86
-89.47031660,46.22488031,517.88
-89.47095113,46.22486641,517.91
-89.47099557,46.22486554,517.87
-89.47117837,46.22486168,522.68
-89.47126556,46.22485979,525.19
-89.47131815,46.22485866,527.45
-89.47156313,46.22485336,532.16
-89.47157324,46.22485314,530.77
-89.47159487,46.22485267,533.54
-89.47162182,46.22485209,532.02
-89.47167312,46.22485098,532.73
-89.47186732,46.22484678,536.00
-89.47192432,46.22484554,532.16
-89.47203418,46.22484317,533.45
-89.47204079,46.22484302,534.03
-89.47205452,46.22484273,530.31
-89.47207965,46.22484218,541.81
-89.47208846,46.22484199,528.59
-89.47235093,46.22483631,523.58
-89.47237619,46.22483577,526.46
-89.47255860,46.22483182,531.25
-89.47260848,46.22483074,534.97
-89.47266664,46.22482948,532.26
-89.47271561,46.22482842,538.82
-89.47294181,46.22482353,521.79
-89.47298378,46.22482262,541.49
-89.47305970,46.22482097,542.49
-89.47313665,46.22481931,521.65
-89.47327501,46.22481631,536.74
-89.47331491,46.22481545,540.14
-89.47361521,46.22480895,523.03
-89.47368854,46.22480736,546.14
-89.47378751,46.22480522,544.13
-89.47386045,46.22480364,547.80
-89.47399091,46.22480081,543.77
-89.47400088,46.22480060,552.75
-89.47406358,46.22479924,548.48
-89.47410154,46.22479842,550.72
-89.47410919,46.22479825,548.73
-89.47417720,46.22479678,550.20
-89.47430260,46.22479406,551.18
-89.47435831,46.22479286,529.50
-89.47447296,46.22479037,549.56
-89.47460005,46.22478762,551.27
-89.47463101,46.22478695,530.48
-89.47463581,46.22478685,549.51
-89.47467545,46.22478599,547.24
-89.47477831,46.22478376,548.14
-89.47491758,46.22478074,536.88
-89.47504894,46.22477790,545.36
-89.47505037,46.22477787,544.04
-89.47511061,46.22477656,547.99
-89.47512680,46.22477621,544.61
-89.47514546,46.22477581,549.16
-89.47515440,46.22477562,548.40
-89.47516774,46.22477533,544.79
-89.47520129,46.22477460,546.03
-89.47521256,46.22477436,546.44
-89.47521386,46.22477433,544.90
-89.47528239,46.22477284,542.07
-89.47530156,46.22477243,543.64
-89.47531517,46.22477213,526.64
-89.47542295,46.22476980,537.35
-89.47545910,46.22476901,545.31
-89.47555626,46.22476691,542.60
-89.47560484,46.22476586,545.89
-89.47560782,46.22476579,542.85
-89.47589115,46.22475965,536.55
-89.47591770,46.22475908,542.64
-89.47591900,46.22475905,540.74
-89.47594361,46.22475852,537.46
-89.47599504,46.22475740,524.71
-89.47601746,46.22475692,530.76
-89.47604492,46.22475632,533.78
-89.47607057,46.22475576,537.50
-89.47614286,46.22475420,533.91
-89.47619274,46.22475312,527.40
-89.47622422,46.22475243,540.62
-89.47622810,46.22475235,540.07
-89.47630052,46.22475078,542.59
-89.47641919,46.22474821,542.32
-89.47642126,46.22474816,541.67
-89.47647904,46.22474691,539.21
-89.47648811,46.22474671,536.54
-89.47651039,46.22474623,538.90
-89.47655055,46.22474536,540.97
-89.47655405,46.22474529,536.54
-89.47657491,46.22474483,532.89
-89.47664629,46.22474329,543.75
-89.47673657,46.22474097,541.40
-89.47674315,46.22474011,537.75
-89.47674851,46.22473837,544.33
-89.47674865,46.22473270,538.90
-89.47674862,46.22473207,537.21
-89.47674618,46.22467794,540.18
-89.47674585,46.22467057,533.92
-89.47674567,46.22466643,542.31
-89.47674541,46.22466067,523.82
-89.47674349,46.22461814,540.45
-89.47674315,46.22461059,540.01
-89.47674051,46.22455179,523.80
-89.47673877,46.22451312,537.74
-89.47673837,46.22450440,540.89
-89.47673811,46.22449856,539.36
-89.47673803,46.22449667,535.90
-89.47673592,46.22444982,536.75
-89.47673542,46.22443876,536.07
-89.47673371,46.22440082,540.63
-89.47673369,46.22440037,539.55
-89.47673252,46.22437420,536.62
-89.47673017,46.22432214,538.91
-89.47672957,46.22430883,539.28
-89.47672912,46.22429876,539.35
-89.47672803,46.22427440,538.85
-89.47672741,46.22426073,540.71
-89.47672588,46.22422665,541.88
-89.47672405,46.22418610,538.50
-89.47672321,46.22416731,542.84
-89.47672289,46.22416020,533.87
-89.47672220,46.22414501,539.86
-89.47671848,46.22406238,540.91
-89.47671758,46.22404223,541.40
-89.47671671,46.22402290,543.21
-89.47671668,46.22402218,541.36
-89.47671598,46.22400672,538.25
-89.47671357,46.22395313,537.33
-89.47671340,46.22394935,539.06
-89.47671279,46.22393577,539.30
-89.47670916,46.22385512,540.28
-89.47670818,46.22383345,540.46
-89.47670743,46.22381682,541.70
-89.47670706,46.22380845,542.54
-89.47670520,46.22376718,537.78
-89.47670320,46.22372276,534.75
-89.47670043,46.22366108,540.51
-89.47669962,46.22364319,534.76
-89.47669849,46.22361792,544.27
-89.47669442,46.22352765,541.57
-89.47669120,46.22345607,544.63
-89.47669087,46.22344870,538.02
-89.47668982,46.22342523,540.34
-89.47668534,46.22332579,533.63
-89.47668354,46.22328577,522.01
-89.47667657,46.22313076,538.80
-89.47667635,46.22312608,538.79
-89.47667519,46.22310010,534.80
-89.47667466,46.22308832,538.64
-89.47667277,46.22304651,542.89
-89.47667198,46.22302888,539.99
-89.47667113,46.22300991,537.12
-89.47666891,46.22296064,541.73
-89.47666821,46.22294499,539.23
-89.47666813,46.22294328,541.41
-89.47666746,46.22292836,539.00
-89.47666227,46.22281300,538.38
-89.47665870,46.22273378,532.14
-89.47665824,46.22272344,537.34
-89.47665729,46.22270231,534.57
-89.47665521,46.22265618,535.94
-89.47665480,46.22264710,533.88
-89.47665178,46.22258003,530.30
-89.47664861,46.22250953,531.22
-89.47664708,46.22247554,529.73
-89.47664475,46.22242366,508.76
-89.47664381,46.22240289,508.24
-89.47664367,46.22239974,523.25
-89.47664092,46.22233851,521.29
-89.47664091,46.22233824,524.10
-89.47663875,46.22229023,517.29
-89.47663389,46.22218233,520.03
-89.47663385,46.22218152,520.15
-89.47663240,46.22214924,519.93
-89.47663159,46.22213108,509.89
-89.47662976,46.22209043,516.11
-89.47662970,46.22208926,511.40
-89.47662920,46.22207812,522.85
-89.47662917,46.22207740,520.96
-89.47662718,46.22203307,518.21
-89.47662620,46.22201149,517.58
-89.47662508,46.22198658,513.23
-89.47662449,46.22197336,519.21
-89.47662318,46.22194423,512.36
-89.47662229,46.22192454,506.32
-89.47661690,46.22180477,515.31
-89.47661578,46.22177969,522.37
-89.47661404,46.22174111,506.19
-89.47661393,46.22173859,514.66
-89.47661302,46.22171836,512.81
-89.47661226,46.22170155,507.06
-89.47661196,46.22169490,515.47
-89.47661120,46.22167808,514.87
-89.47661086,46.22167044,515.40
-89.47660924,46.22163438,507.44
-89.47660887,46.22162620,506.42
-89.47660862,46.22162062,523.93
-89.47660561,46.22155373,517.33
-89.47660475,46.22153457,507.09
-89.47660429,46.22152441,517.07
-89.47659972,46.22142290,508.49
-89.47659924,46.22141211,510.27
-89.47659740,46.22137120,519.57
-89.47659581,46.22133604,514.04
-89.47659578,46.22133532,512.06
-89.47659559,46.22133101,506.02
-89.47659257,46.22126384,517.67
-89.47659250,46.22126231,513.02
-89.47659150,46.22124010,519.73
-89.47659114,46.22123219,518.60
-89.47659046,46.22121708,518.80
-89.47658825,46.22116790,514.84
-89.47658751,46.22115144,517.13
-89.47658571,46.22111143,512.22
-89.47658232,46.22103608,520.40
-89.47658188,46.22102628,517.16
-89.47657927,46.22096829,510.70
-89.47657910,46.22096451,505.91
-89.47657899,46.22096208,506.17
-89.47657646,46.22090588,517.60
-89.47657300,46.22082901,513.88
-89.47657082,46.22078045,517.98
-89.47657011,46.22076481,506.41
-89.47656896,46.22073918,506.06
-89.47656807,46.22071940,519.82
-89.47656793,46.22071616,518.03
-89.47656757,46.22070816,517.89
-89.47656691,46.22069368,513.00
-89.47656683,46.22069170,516.17
-89.47656542,46.22066041,516.93
-89.47656492,46.22064926,513.84
-89.47656322,46.22061150,512.37
-89.47656313,46.22060961,505.59
-89.47656022,46.22054487,505.54
-89.47655992,46.22053831,517.78
-89.47655815,46.22049884,514.57
-89.47655026,46.22032350,505.28
-89.47654931,46.22030246,518.00
-89.47654826,46.22027899,517.81
-89.47654787,46.22027045,515.74
-89.47654665,46.22024320,517.32
-89.47654663,46.22024275,518.19
-89.47654649,46.22023979,514.29
-89.47654547,46.22021695,513.97
-89.47654509,46.22020850,512.34
-89.47654453,46.22019609,519.75
-89.47654075,46.22011220,519.79
-89.47654043,46.22010500,512.42
-89.47653724,46.22003397,514.87
-89.47653516,46.21998775,513.33
-89.47653356,46.21995233,517.64
-89.47653220,46.21992212,514.47
-89.47653126,46.21990116,510.57
-89.47652720,46.21981089,510.08
-89.47652416,46.21974336,505.55
-89.47652195,46.21969418,517.06
-89.47652171,46.21968878,516.11
-89.47652122,46.21967799,510.70
-89.47652053,46.21966253,505.80
-89.47651870,46.21962189,510.42
-89.47651779,46.21960175,505.59
-89.47651531,46.21954663,511.98
-89.47651469,46.21953278,514.30
-89.47651337,46.21950338,512.73
-89.47651306,46.21949654,507.09
-89.47651292,46.21949358,513.92
-89.47651094,46.21944943,509.16
-89.47651075,46.21944529,507.42
-89.47651073,46.21944475,515.12
-89.47651008,46.21943028,515.20
-89.47650987,46.21942578,512.71
-89.47650841,46.21939332,504.38
-89.47650752,46.21937345,505.19
-89.47650747,46.21937228,516.02
-89.47650368,46.21928812,508.47
-89.47650248,46.21926150,504.61
-89.47650055,46.21921843,509.53
-89.47649806,46.21916323,506.18
-89.47649421,46.21907763,504.57
-89.47649314,46.21905389,504.52
-89.47649091,46.21900417,504.98
-89.47647837,46.21872552,503.93
-89.47647390,46.21862616,507.70
-89.47647386,46.21862526,507.19
-89.47646769,46.21849084,503.97
-89.47645446,46.21823138,503.96
-89.47643370,46.21780458,504.04
-89.47636819,46.21739153,503.91
-89.47639725,46.21709794,503.94
-89.47638559,46.21667437,503.97
-89.47636866,46.21651714,504.02
-89.47633496,46.21610223,503.95
-89.47633563,46.21601329,503.98
-89.47631076,46.21576308,504.02
-89.47609537,46.21575650,503.90
-89.47597393,46.21575760,503.98
-89.47537991,46.21577047,503.89
-89.47486530,46.21578171,503.94
-89.47456362,46.21578816,503.98
-89.47437593,46.21579222,503.97
-89.47419666,46.21579610,503.95
-89.47404550,46.21579938,503.97
-89.47352039,46.21581075,503.94
-89.47334190,46.21581461,503.96
-89.47322831,46.21581707,503.96
-89.47297935,46.21582246,503.95
-89.47240683,46.21583485,503.96
-89.47216759,46.21584003,503.96
-89.47183717,46.21584726,504.01
-89.47141062,46.21585640,503.97
-89.47127928,46.21585924,503.99
-89.47089626,46.21586753,503.93
-89.47070106,46.21587175,505.98
-89.47054705,46.21587508,521.44
-89.47053759,46.21587528,506.81
-89.47046493,46.21587685,523.29
-89.47043475,46.21587751,520.76
-89.47040224,46.21587821,508.93
-89.47039680,46.21587833,524.16
-89.47035483,46.21587923,523.95
-89.47027633,46.21588093,509.33
-89.47027361,46.21588099,526.51
-89.47025431,46.21588141,521.15
-89.47020250,46.21588253,525.97
-89.47017672,46.21588309,522.58
-89.47017595,46.21588310,521.81
-89.47017362,46.21588315,525.84
-89.47016688,46.21588330,525.64
-89.47009642,46.21588482,511.96
-89.46998295,46.21588727,514.07
-89.46996378,46.21588769,531.02
-89.46996222,46.21588772,526.14
-89.46996093,46.21588775,532.05
-89.46995769,46.21588782,533.08
-89.46985666,46.21589001,515.80
-89.46982661,46.21589065,515.69
-89.46969747,46.21589345,529.22
-89.46960731,46.21589539,529.32
-89.46958581,46.21589586,532.77
-89.46956016,46.21589641,528.81
-89.46955563,46.21589651,535.28
-89.46955058,46.21589662,532.68
-89.46952299,46.21589722,537.38
-89.46947558,46.21589824,533.46
-89.46946962,46.21589837,523.69
-89.46944113,46.21589899,516.39
-89.46939683,46.21589994,521.53
-89.46939035,46.21590008,530.39
-89.46938919,46.21590011,531.18
-89.46938724,46.21590015,515.98
-89.46908324,46.21590672,527.53
-89.46904295,46.21590759,536.36
-89.46901135,46.21590828,514.88
-89.46898816,46.21590878,535.83
-89.46898026,46.21590895,525.19
-89.46896031,46.21590938,530.78
-89.46895889,46.21590941,532.11
-89.46892560,46.21591013,531.64
-89.46891381,46.21591038,535.81
-89.46891303,46.21591040,536.57
-89.46874866,46.21591395,526.67
-89.46870838,46.21591482,515.27
-89.46848390,46.21591967,534.64
-89.46834414,46.21592269,537.64
-89.46813443,46.21592722,536.64
-89.46808676,46.21592825,538.66
-89.46800360,46.21593005,533.35
-89.46778794,46.21593471,535.96
-89.46769843,46.21593664,530.52
-89.46735285,46.21594410,524.49
-89.46730803,46.21594507,530.33
-89.46727241,46.21594584,520.93
-89.46717992,46.21594784,526.67
-89.46712371,46.21594905,531.90
-89.46695364,46.21595272,529.85
-89.46691750,46.21595350,522.98
-89.46677747,46.21595653,523.45
-89.46673836,46.21595737,521.16
-89.46668810,46.21595846,530.11
-89.46658797,46.21596062,533.61
-89.46650261,46.21596246,533.27
-89.46645792,46.21596343,532.04
-89.46642010,46.21596424,522.73
-89.46641000,46.21596446,533.66
-89.46633824,46.21596601,533.75
-89.46632036,46.21596639,534.26
-89.46631816,46.21596644,536.79
-89.46627153,46.21596745,534.68
-89.46622050,46.21596855,533.87
-89.46612931,46.21597052,540.35
-89.46612736,46.21597056,542.97
-89.46600871,46.21597312,536.39
-89.46598903,46.21597355,540.37
-89.46597335,46.21597388,540.85
-89.46593009,46.21597482,522.22
-89.46586144,46.21597630,539.51
-89.46584615,46.21597663,539.07
-89.46580859,46.21597744,521.32
-89.46576921,46.21597829,521.97
-89.46571921,46.21597937,521.47
-89.46566015,46.21598064,540.60
-89.46558722,46.21598222,541.36
-89.46553191,46.21598341,534.29
-89.46546676,46.21598482,533.71
-89.46546546,46.21598485,535.81
-89.46538593,46.21598656,533.23
-89.46536845,46.21598694,528.86
-89.46536093,46.21598710,537.97
-89.46529384,46.21598855,523.38
-89.46527907,46.21598887,535.82
-89.46515679,46.21599151,533.26
-89.46498801,46.21599515,543.87
-89.46489955,46.21599706,541.52
-89.46488167,46.21599744,540.41
-89.46483918,46.21599836,540.63
-89.46482027,46.21599877,543.08
-89.46479631,46.21599928,537.34
-89.46449735,46.21600573,538.93
-89.46447585,46.21600620,540.22
-89.46446044,46.21600653,535.04
-89.46445863,46.21600657,533.11
-89.46434373,46.21600905,535.74
-89.46429270,46.21601015,538.49
-89.46427288,46.21601057,535.25
-89.46414905,46.21601324,542.45
-89.46414115,46.21601341,543.58
-89.46409361,46.21601444,540.13
-89.46404335,46.21601552,539.28
-89.46403959,46.21601560,541.47
-89.46399646,46.21601653,538.98
-89.46399206,46.21601663,531.78
-89.46394426,46.21601766,537.70
-89.46389711,46.21601868,531.09
-89.46382665,46.21602020,536.06
-89.46370074,46.21602291,521.59
-89.46344725,46.21602838,538.86
-89.46341966,46.21602906,534.22
-89.46339485,46.21603086,535.86
-89.46339357,46.21603710,535.58
-89.46339355,46.21606257,533.78
-89.46340532,46.21633448,542.30
-89.46341066,46.21645371,539.95
-89.46341604,46.21657402,537.84
-89.46341826,46.21662357,543.21
-89.46341911,46.21664263,548.27
-89.46342069,46.21667779,533.65
-89.46342517,46.21677795,546.39
-89.46343105,46.21690932,541.12
-89.46343262,46.21694448,545.78
-89.46344989,46.21733049,544.36
-89.46345009,46.21733490,539.38
-89.46345599,46.21746689,538.49
-89.46345922,46.21753910,542.25
-89.46346322,46.21762838,525.17
-89.46346324,46.21762874,547.41
-89.46346699,46.21771264,543.22
-89.46347220,46.21782908,542.49
-89.46347328,46.21785318,546.29
-89.46348551,46.21812652,545.46
-89.46348667,46.21815233,541.83
-89.46348706,46.21816114,542.50
-89.46349068,46.21824207,542.08
-89.46349165,46.21826365,543.16
-89.46349377,46.21831103,544.85
-89.46349588,46.21835824,542.37
-89.46350266,46.21850975,522.98
-89.46350311,46.21851982,544.51
-89.46350520,46.21856658,542.69
-89.46351727,46.21883633,543.45
-89.46352124,46.21892498,543.26
-89.46352141,46.21892876,538.88
-89.46352316,46.21896787,523.34
-89.46352366,46.21897911,541.64
-89.46352465,46.21900114,540.09
-89.46352637,46.21903963,545.11
-89.46352697,46.21905302,545.67
-89.46352720,46.21905815,545.26
-89.46354318,46.21941530,543.14
-89.46354333,46.21941863,524.01
-89.46354381,46.21942942,544.02
-89.46355164,46.21960430,544.40
-89.46355189,46.21960988,541.05
-89.46355228,46.21961851,544.59
-89.46356054,46.21980311,522.91
-89.46356085,46.21981003,535.96
-89.46356211,46.21983818,542.08
-89.46356522,46.21990777,542.12
-89.46356717,46.21995129,536.02
-89.46356784,46.21996622,535.14
-89.46357022,46.22001954,539.77
-89.46357132,46.22004400,542.46
-89.46357158,46.22004993,542.43
-89.46357191,46.22005721,543.45
-89.46357350,46.22009273,533.58
-89.46357380,46.22009938,531.88
-89.46357481,46.22012195,534.00
-89.46357582,46.22014461,532.23
-89.46357605,46.22014974,529.96
-89.46357802,46.22019371,531.32
-89.46358279,46.22030035,533.90
-89.46358483,46.22034585,518.38
-89.46358490,46.22034755,534.32
-89.46358494,46.22034845,536.69
-89.46358572,46.22036581,533.34
-89.46359288,46.22052586,537.63
-89.46359479,46.22056848,538.29
-89.46359761,46.22063142,529.12
-89.46359797,46.22063960,537.63
-89.46360316,46.22075551,537.74
-89.46360592,46.22081719,543.46
-89.46360808,46.22086539,542.26
-89.46361086,46.22092761,542.69
-89.46361363,46.22098956,543.94
-89.46361506,46.22102139,545.79
-89.46361527,46.22102616,545.43
-89.46362127,46.22116022,543.13
-89.46362555,46.22125580,542.71
-89.46362778,46.22130562,545.51
-89.46362839,46.22131937,541.07
-89.46363819,46.22153832,545.74
-89.46363847,46.22154453,534.54
-89.46363999,46.22157851,545.28
-89.46364197,46.22162275,539.64
-89.46364493,46.22168893,549.33
-89.46364583,46.22170889,526.21
-89.46364652,46.22172427,548.40
-89.46364673,46.22172903,546.92
-89.46364701,46.22173533,546.89
-89.46364963,46.22179377,544.04
-89.46365027,46.22180816,546.30
-89.46365576,46.22193081,545.55
-89.46365830,46.22198745,546.19
-89.46365900,46.22200319,546.53
-89.46365973,46.22201955,547.71
-89.46366401,46.22211514,547.44
-89.46366418,46.22211891,545.66
-89.46366568,46.22215236,540.64
-89.46366812,46.22220703,546.86
-89.46366989,46.22224650,525.76
-89.46367292,46.22231421,545.44
-89.46367860,46.22244117,542.32
-89.46367919,46.22245439,552.16
-89.46368821,46.22265589,549.44
-89.46369518,46.22281163,546.59
-89.46369588,46.22282710,546.85
-89.46369589,46.22282746,548.45
-89.46370421,46.22301322,549.37
-89.46370467,46.22302356,543.71
-89.46370646,46.22306367,543.41
-89.46370827,46.22310395,548.46
-89.46371216,46.22319081,538.40
-89.46371355,46.22322192,546.33
-89.46371884,46.22334025,536.94
-89.46372036,46.22337406,542.16
-89.46372880,46.22356270,521.43
-89.46372977,46.22358437,536.18
-89.46373166,46.22362645,533.82
-89.46373420,46.22368337,532.19
-89.46373788,46.22376547,526.75
-89.46373791,46.22376609,529.97
-89.46374598,46.22394656,515.30
-89.46374818,46.22399556,516.71
-89.46374849,46.22400266,515.32
-89.46375385,46.22412234,515.12
-89.46375482,46.22414392,515.24
-89.46376228,46.22431072,515.19
-89.46376854,46.22445054,515.31
-89.46376991,46.22448102,520.61
-89.46377400,46.22457256,524.90
-89.46378422,46.22480085,515.28
-89.46378640,46.22484950,515.30
-89.46379123,46.22495443,525.72
-89.46379339,46.22499983,519.77
-89.46379422,46.22501557,530.35
-89.46380535,46.22502073,531.71
-89.46383683,46.22502014,529.62
-89.46391522,46.22501854,531.22
-89.46399282,46.22501686,531.18
-89.46404399,46.22501576,522.49
-89.46411071,46.22501432,518.29
-89.46411395,46.22501425,524.72
-89.46412703,46.22501397,523.93
-89.46423961,46.22501154,515.12
-89.46426371,46.22501102,515.12
-89.46449483,46.22500604,515.04
-89.46480821,46.22499928,515.36
-89.46497482,46.22499568,515.17
-89.46514894,46.22499193,515.43
-89.46542047,46.22498607,515.28
-89.46549497,46.22498446,515.15
-89.46554096,46.22498347,516.29
-89.46574928,46.22497897,515.04
-89.46630453,46.22496699,514.91
-89.46641698,46.22496456,515.20
-89.46647671,46.22496327,515.11
-89.46674721,46.22495743,514.93
-89.46688194,46.22495452,514.15
-89.46728239,46.22494588,527.35
-89.46728666,46.22494578,523.62
-89.46749887,46.22494120,537.78
-89.46754732,46.22494016,536.14
-89.46763839,46.22493819,535.48
-89.46772286,46.22493636,539.14
-89.46779502,46.22493481,523.83
-89.46786744,46.22493324,540.48
-89.46790993,46.22493232,541.11
-89.46797898,46.22493083,524.11
-89.46800671,46.22493023,541.78
-89.46806708,46.22492893,537.79
-89.46811035,46.22492799,532.88
-89.46824728,46.22492504,537.91
-89.46839290,46.22492189,537.63
-89.46853074,46.22491891,538.92
-89.46868555,46.22491557,532.59
-89.46882767,46.22491250,535.80
-89.46883337,46.22491237,534.06
-89.46888377,46.22491128,533.92
-89.46904156,46.22490788,528.52
-89.46904247,46.22490786,527.80
-89.46904363,46.22490783,526.81
-89.46909377,46.22490675,534.19
-89.46913587,46.22490584,537.02
-89.46922099,46.22490400,526.19
-89.46929911,46.22490231,530.28
-89.46931465,46.22490197,525.96
-89.46950159,46.22489793,535.56
-89.46951442,46.22489766,531.98
-89.46952802,46.22489736,533.35
-89.46965174,46.22489469,518.03
-89.46969696,46.22489371,518.04
-89.46973090,46.22489298,521.21
-89.46974295,46.22489272,522.89
     </coordinates>
    </LineString>
   </MultiGeometry>
  </Placemark>
 </Document>
</kml>
