<kml>
 <Document>
  <Style id="yellow">
   <LineStyle>
   <color>ff00ffff</color>
   <width>1</width>
   </LineStyle>
  </Style>
  <Style id="red">
   <LineStyle>
   <color>ffff0000</color>
   <width>2</width>
   </LineStyle>
  </Style>
  <Style id="green">
   <LineStyle>
   <color>ff00ff00</color>
   <width>1</width>
   </LineStyle>
  </Style>
  <Placemark>
  <styleUrl>#yellow</styleUrl>
   <MultiGeometry>
    <LineString>
     <coordinates>
-89.47139232,46.25185801,536.67
-89.47141851,46.25185745,525.23
-89.47155590,46.25185448,533.18
-89.47172336,46.25185085,521.65
-89.47182018,46.25184876,543.66
-89.47183509,46.25184844,544.56
-89.47185764,46.25184795,543.77
-89.47195070,46.25184593,544.93
-89.47205556,46.25184367,545.58
-89.47218932,46.25184077,528.38
-89.47224791,46.25183950,544.98
-89.47232153,46.25183791,547.52
-89.47241835,46.25183582,548.72
-89.47254628,46.25183305,546.55
-89.47258775,46.25183215,546.46
-89.47264595,46.25183089,543.72
-89.47268237,46.25183010,545.13
-89.47285333,46.25182640,531.33
-89.47305462,46.25182205,536.86
-89.47305488,46.25182204,539.64
-89.47305501,46.25182204,540.36
-89.47308871,46.25182131,540.85
-89.47312410,46.25182054,546.14
-89.47318761,46.25181917,548.02
-89.47322338,46.25181839,522.65
-89.47326771,46.25181743,546.61
-89.47326784,46.25181743,544.90
-89.47333174,46.25181605,546.95
-89.47336583,46.25181531,548.74
-89.47342986,46.25181392,522.82
-89.47364009,46.25180937,542.58
-89.47370282,46.25180802,524.05
-89.47374300,46.25180715,548.12
-89.47384255,46.25180499,546.40
-89.47397670,46.25180209,547.85
-89.47405356,46.25180042,548.10
-89.47415854,46.25179815,549.30
-89.47459612,46.25178867,552.75
-89.47463902,46.25178774,544.24
-89.47467752,46.25178691,546.06
-89.47470759,46.25178626,550.70
-89.47493493,46.25178133,554.76
-89.47496007,46.25178079,548.62
-89.47498379,46.25178028,549.72
-89.47501140,46.25177968,545.38
-89.47503357,46.25177920,545.63
-89.47505664,46.25177870,541.51
-89.47505690,46.25177869,538.48
-89.47524458,46.25177463,547.33
-89.47534580,46.25177243,535.91
-89.47535112,46.25177232,542.25
-89.47536525,46.25177201,544.17
-89.47566323,46.25176556,545.89
-89.47570574,46.25176464,546.63
-89.47572609,46.25176419,546.07
-89.47573102,46.25176409,545.62
-89.47577729,46.25176309,541.83
-89.47585544,46.25176139,543.62
-89.47592803,46.25175982,534.17
-89.47592842,46.25175981,529.66
-89.47600256,46.25175820,547.91
-89.47600567,46.25175814,534.37
-89.47607190,46.25175670,550.43
-89.47608888,46.25175633,549.72
-89.47616704,46.25175464,542.36
-89.47618622,46.25175422,544.99
-89.47633475,46.25175100,552.65
-89.47644557,46.25174860,552.86
-89.47648744,46.25174770,553.22
-89.47658167,46.25174565,554.73
-89.47662405,46.25174473,552.15
-89.47662561,46.25174470,535.98
-89.47687654,46.25173926,552.54
-89.47696325,46.25173738,554.21
-89.47698373,46.25173694,546.36
-89.47702326,46.25173608,549.80
-89.47702391,46.25173607,543.38
-89.47705346,46.25173543,551.98
-89.47705877,46.25173531,551.50
-89.47709273,46.25173457,551.20
-89.47709286,46.25173457,549.58
-89.47709377,46.25173455,546.13
-89.47709429,46.25173454,536.71
-89.47713408,46.25173368,552.87
-89.47713525,46.25173365,541.55
-89.47717219,46.25173285,553.53
-89.47720109,46.25173223,553.32
-89.47738851,46.25172816,550.30
-89.47741456,46.25172760,551.67
-89.47772939,46.25172077,536.05
-89.47774845,46.25172036,553.46
-89.47792952,46.25171643,545.29
-89.47795362,46.25171591,546.34
-89.47796157,46.25171376,552.91
-89.47796307,46.25170967,552.88
-89.47796163,46.25167199,551.01
-89.47795931,46.25161750,543.14
-89.47795886,46.25160743,550.87
-89.47795770,46.25158172,542.81
-89.47794973,46.25140485,552.65
-89.47794867,46.25138147,538.83
-89.47794082,46.25120731,549.02
-89.47793822,46.25114940,553.12
-89.47793707,46.25112396,555.94
-89.47793635,46.25110804,554.82
-89.47793567,46.25109303,548.57
-89.47793259,46.25102451,554.57
-89.47792922,46.25094988,555.26
-89.47792884,46.25094125,547.39
-89.47792699,46.25090025,551.96
-89.47792567,46.25087094,554.80
-89.47792471,46.25084963,547.47
-89.47792328,46.25081789,552.13
-89.47791999,46.25074505,554.46
-89.47791586,46.25065334,555.34
-89.47791510,46.25063653,555.56
-89.47791451,46.25062331,556.57
-89.47791399,46.25061171,556.54
-89.47791230,46.25057440,548.60
-89.47790702,46.25045706,553.99
-89.47790347,46.25037829,543.64
-89.47790331,46.25037469,556.30
-89.47790152,46.25033504,550.94
-89.47789724,46.25024009,555.45
-89.47789139,46.25011034,548.88
-89.47788186,46.24989868,548.82
-89.47788131,46.24988663,538.57
-89.47787855,46.24982540,543.56
-89.47787755,46.24980310,547.22
-89.47787528,46.24975284,530.44
-89.47787291,46.24970024,549.88
-89.47787097,46.24965699,549.97
-89.47787059,46.24964872,548.84
-89.47786932,46.24962040,543.98
-89.47786868,46.24960628,542.14
-89.47786592,46.24954505,546.65
-89.47786461,46.24951600,547.64
-89.47785989,46.24941125,527.50
-89.47784870,46.24916273,547.10
-89.47784303,46.24903703,545.79
-89.47784204,46.24901509,538.83
-89.47784138,46.24900043,537.01
-89.47784110,46.24899423,543.98
-89.47783640,46.24888974,539.86
-89.47782322,46.24859743,540.03
-89.47782108,46.24854977,538.64
-89.47781994,46.24852451,541.58
-89.47781948,46.24851426,544.75
-89.47781579,46.24843252,545.71
-89.47780429,46.24817708,541.83
-89.47780349,46.24815936,545.60
-89.47780166,46.24811881,537.37
-89.47780133,46.24811153,533.17
-89.47779014,46.24786309,540.93
-89.47778680,46.24778909,525.79
-89.47778445,46.24773694,541.78
-89.47777937,46.24762410,540.11
-89.47777709,46.24757356,540.69
-89.47777672,46.24756520,547.31
-89.47777591,46.24754731,548.33
-89.47777387,46.24750190,545.91
-89.47777242,46.24746980,544.47
-89.47777116,46.24744175,543.81
-89.47777054,46.24742808,543.90
-89.47776902,46.24739445,546.24
-89.47776870,46.24738717,545.73
-89.47776387,46.24727999,544.41
-89.47776176,46.24723315,530.17
-89.47776035,46.24720194,526.77
-89.47776028,46.24720042,535.37
-89.47775978,46.24718918,533.28
-89.47775932,46.24717911,545.09
-89.47775617,46.24710915,539.67
-89.47775598,46.24710484,539.77
-89.47775511,46.24708568,534.37
-89.47775445,46.24707094,531.41
-89.47774932,46.24695720,529.09
-89.47774898,46.24694946,527.21
-89.47774834,46.24693526,533.26
-89.47774631,46.24689021,546.15
-89.47773885,46.24672476,540.17
-89.47773843,46.24671541,527.30
-89.47773667,46.24667621,533.85
-89.47773614,46.24666452,541.71
-89.47773120,46.24655491,542.08
-89.47773068,46.24654332,538.48
-89.47772442,46.24640449,543.58
-89.47772194,46.24634946,544.61
-89.47772085,46.24632509,540.09
-89.47772061,46.24631979,530.07
-89.47771951,46.24629551,541.54
-89.47771215,46.24613195,541.48
-89.47770907,46.24606362,546.67
-89.47770518,46.24597730,546.15
-89.47770320,46.24593333,538.42
-89.47770054,46.24587444,538.83
-89.47769963,46.24585402,539.71
-89.47769850,46.24582912,542.69
-89.47769373,46.24572311,545.41
-89.47768762,46.24558743,542.04
-89.47768644,46.24556144,541.66
-89.47767956,46.24540867,541.28
-89.47767666,46.24534421,533.04
-89.47767628,46.24533575,525.22
-89.47767231,46.24524773,539.37
-89.47767169,46.24523388,538.56
-89.47766384,46.24505962,519.56
-89.47766209,46.24502087,533.91
-89.47765972,46.24496827,533.84
-89.47765723,46.24491288,528.73
-89.47765194,46.24479545,527.56
-89.47764658,46.24467640,516.58
-89.47764438,46.24462767,519.44
-89.47763971,46.24452409,521.55
-89.47763838,46.24449442,519.45
-89.47763683,46.24446016,515.70
-89.47763101,46.24433095,523.12
-89.47762876,46.24428087,520.94
-89.47762464,46.24418951,526.06
-89.47762386,46.24417207,526.48
-89.47762207,46.24413242,528.10
-89.47761871,46.24405779,517.62
-89.47761749,46.24403072,528.72
-89.47761701,46.24402002,528.93
-89.47761637,46.24400582,527.18
-89.47761070,46.24387993,524.48
-89.47760982,46.24386051,519.53
-89.47760961,46.24385584,520.56
-89.47760869,46.24383543,519.33
-89.47760481,46.24374929,521.05
-89.47758764,46.24336805,515.47
-89.47758518,46.24331347,515.42
-89.47757595,46.24310846,515.47
-89.47756104,46.24278045,515.44
-89.47755878,46.24273307,515.45
-89.47755751,46.24272500,515.45
-89.47753533,46.24272503,521.00
-89.47751847,46.24272512,522.16
-89.47751367,46.24272523,526.39
-89.47751212,46.24272526,518.51
-89.47749618,46.24272561,526.32
-89.47748983,46.24272574,517.79
-89.47748633,46.24272582,518.60
-89.47745963,46.24272640,521.17
-89.47741544,46.24272736,527.41
-89.47736931,46.24272836,529.80
-89.47734093,46.24272897,531.26
-89.47710118,46.24273417,527.38
-89.47707436,46.24273475,517.93
-89.47651128,46.24274705,515.43
-89.47610373,46.24275615,515.45
-89.47574850,46.24276349,528.59
-89.47573360,46.24276381,531.93
-89.47566426,46.24276531,531.49
-89.47546469,46.24276964,529.12
-89.47530555,46.24277309,518.44
-89.47521717,46.24277500,518.41
-89.47510287,46.24277748,518.58
-89.47495941,46.24278058,518.46
-89.47466031,46.24278706,518.36
-89.47457802,46.24278884,518.36
-89.47451193,46.24279028,518.82
-89.47448718,46.24279081,519.05
-89.47443599,46.24279192,523.26
-89.47437625,46.24279321,524.65
-89.47427296,46.24279545,518.53
-89.47415205,46.24279807,520.79
-89.47410073,46.24279918,518.49
-89.47362811,46.24280950,519.22
-89.47339808,46.24281439,518.58
-89.47331385,46.24281622,523.01
-89.47308291,46.24282121,523.91
-89.47280740,46.24282718,534.88
-89.47279651,46.24282741,537.76
-89.47272731,46.24282891,541.20
-89.47269582,46.24282959,535.21
-89.47263089,46.24283100,535.92
-89.47262830,46.24283105,521.17
-89.47257711,46.24283216,534.91
-89.47200431,46.24284456,533.40
-89.47192539,46.24284626,537.56
-89.47183312,46.24284826,533.05
-89.47179917,46.24284899,525.70
-89.47179528,46.24284908,531.07
-89.47135234,46.24285884,520.38
-89.47130259,46.24286019,520.45
-89.47125104,46.24286202,520.36
-89.47121901,46.24286505,520.39
-89.47060255,46.24291349,520.33
-89.47045819,46.24289654,520.36
-89.47037637,46.24288552,520.42
-89.47020286,46.24288406,520.46
-89.47015463,46.24288456,520.39
-89.46958159,46.24289740,520.43
-89.46949333,46.24289912,520.39
-89.46944680,46.24290004,520.35
-89.46918476,46.24290561,520.39
-89.46865498,46.24291697,536.55
-89.46864526,46.24291718,540.95
-89.46854858,46.24291927,543.44
-89.46837143,46.24292309,542.68
-89.46832620,46.24292407,542.53
-89.46818805,46.24292706,541.27
-89.46761123,46.24293952,551.42
-89.46748358,46.24294227,547.84
-89.46729295,46.24294639,550.99
-89.46718733,46.24294867,552.41
-89.46702832,46.24295210,542.03
-89.46695718,46.24295364,551.76
-89.46691687,46.24295451,548.87
-89.46680905,46.24295684,553.01
-89.46672417,46.24295867,530.75
-89.46665483,46.24296017,536.89
-89.46657190,46.24296196,548.36
-89.46653976,46.24296265,548.17
-89.46653677,46.24296271,546.65
-89.46649816,46.24296355,549.44
-89.46647263,46.24296410,548.99
-89.46644865,46.24296462,540.82
-89.46642675,46.24296509,544.58
-89.46631802,46.24296744,545.86
-89.46629729,46.24296788,549.44
-89.46625880,46.24296871,545.17
-89.46625167,46.24296887,548.31
-89.46622808,46.24296938,540.08
-89.46622497,46.24296944,546.64
-89.46616808,46.24297067,543.65
-89.46616484,46.24297074,545.07
-89.46597239,46.24297490,524.98
-89.46595581,46.24297525,547.14
-89.46594051,46.24297558,549.61
-89.46590915,46.24297626,540.79
-89.46587002,46.24297711,540.06
-89.46584773,46.24297759,540.99
-89.46584423,46.24297766,537.52
-89.46579148,46.24297880,539.10
-89.46571411,46.24298047,544.09
-89.46567549,46.24298130,532.45
-89.46563040,46.24298228,536.12
-89.46559022,46.24298314,535.72
-89.46554953,46.24298402,526.50
-89.46548460,46.24298542,537.07
-89.46543497,46.24298649,535.24
-89.46540840,46.24298707,542.47
-89.46535216,46.24298828,543.59
-89.46529293,46.24298956,540.08
-89.46525354,46.24299041,538.47
-89.46521803,46.24299117,544.39
-89.46520675,46.24299142,546.16
-89.46507781,46.24299420,543.14
-89.46503077,46.24299521,530.09
-89.46498463,46.24299621,530.10
-89.46493862,46.24299720,530.06
-89.46490415,46.24299795,530.01
-89.46486424,46.24299881,529.93
-89.46481719,46.24299982,529.83
-89.46477702,46.24300069,529.79
-89.46475823,46.24300109,537.79
-89.46474540,46.24300137,546.29
-89.46474462,46.24300139,543.61
-89.46460583,46.24300438,542.70
-89.46460064,46.24300449,545.03
-89.46460019,46.24300594,545.00
-89.46459987,46.24301324,539.26
-89.46460008,46.24301792,544.35
-89.46460344,46.24309291,536.05
-89.46460384,46.24310190,540.62
-89.46460629,46.24315666,545.52
-89.46460706,46.24317383,544.36
-89.46460997,46.24323875,545.60
-89.46461022,46.24324415,545.16
-89.46461065,46.24325386,542.55
-89.46461191,46.24328209,537.16
-89.46461447,46.24333919,526.24
-89.46461588,46.24337048,538.23
-89.46461601,46.24337344,538.31
-89.46461749,46.24340644,534.39
-89.46461797,46.24341732,538.16
-89.46461805,46.24341894,537.90
-89.46462031,46.24346939,534.94
-89.46462137,46.24349312,538.86
-89.46462216,46.24351084,536.97
-89.46462372,46.24354554,523.13
-89.46462428,46.24355795,533.65
-89.46462473,46.24356802,528.21
-89.46462513,46.24357711,528.82
-89.46462846,46.24365138,533.77
-89.46462932,46.24367044,534.63
-89.46462949,46.24367439,529.53
-89.46462975,46.24368006,537.17
-89.46462985,46.24368240,534.38
-89.46463021,46.24369040,524.60
-89.46463085,46.24370461,532.36
-89.46463331,46.24375964,540.01
-89.46463656,46.24383202,531.48
-89.46464040,46.24391780,523.04
-89.46464343,46.24398532,534.06
-89.46464775,46.24408180,537.96
-89.46464911,46.24411211,538.24
-89.46465105,46.24415545,540.20
-89.46465363,46.24421299,525.74
-89.46465456,46.24423385,541.17
-89.46465743,46.24429787,538.85
-89.46465745,46.24429832,540.85
-89.46466121,46.24438230,548.78
-89.46466249,46.24441081,527.14
-89.46466268,46.24441512,546.33
-89.46466286,46.24441899,547.81
-89.46466351,46.24443347,547.78
-89.46466667,46.24450414,525.60
-89.46467285,46.24464189,544.47
-89.46467340,46.24465421,523.57
-89.46467500,46.24469000,542.48
-89.46467751,46.24474593,535.90
-89.46467802,46.24475743,529.04
-89.46467979,46.24479691,541.81
-89.46468023,46.24480662,540.87
-89.46468057,46.24481417,530.85
-89.46468142,46.24483323,539.98
-89.46468482,46.24490912,524.42
-89.46468718,46.24496172,536.35
-89.46469122,46.24505200,522.19
-89.46469277,46.24508644,539.57
-89.46469293,46.24509003,538.32
-89.46469427,46.24512007,521.89
-89.46469525,46.24514183,535.89
-89.46469605,46.24515972,525.18
-89.46469732,46.24518804,540.17
-89.46469855,46.24521556,539.72
-89.46470444,46.24534693,542.71
-89.46470980,46.24546651,540.07
-89.46472081,46.24571217,541.33
-89.46472345,46.24577115,537.42
-89.46472512,46.24580541,528.65
-89.46472625,46.24582491,520.64
-89.46472811,46.24584332,519.87
-89.46492083,46.24604176,398.72
-89.46490140,46.24627691,520.05
-89.46489918,46.24632007,519.98
-89.46491551,46.24634285,519.98
-89.46496134,46.24632638,519.96
-89.46497378,46.24629992,519.97
-89.46499324,46.24626521,519.99
-89.46499857,46.24621631,520.00
-89.46500119,46.24618502,520.02
-89.46557851,46.24600642,520.09
-89.46579183,46.24615221,520.00
-89.46608732,46.24631945,520.10
-89.46616166,46.24660298,519.94
-89.46613962,46.24669589,519.97
-89.46617847,46.24688540,519.99
-89.46618516,46.24698246,519.96
-89.46619354,46.24702458,520.01
-89.46611723,46.24735105,519.93
-89.46595479,46.24744609,519.93
-89.46535529,46.24735003,519.98
-89.46531371,46.24732834,520.01
-89.46503029,46.24704266,519.84
-89.46493905,46.24691719,520.02
-89.46488557,46.24693391,519.97
-89.46485062,46.24695303,520.01
-89.46478251,46.24700805,519.96
-89.46478350,46.24706185,520.02
-89.46478403,46.24709406,520.05
-89.46478505,46.24714273,519.94
-89.46479351,46.24728817,519.96
-89.46479682,46.24734759,520.02
-89.46481665,46.24778989,520.06
-89.46482138,46.24795629,519.97
-89.46483170,46.24818666,519.97
-89.46484702,46.24845310,519.98
-89.46486157,46.24884439,519.99
-89.46487550,46.24916387,520.55
-89.46487861,46.24923310,520.76
-89.46488266,46.24932356,521.89
-89.46488271,46.24932455,521.98
-89.46488363,46.24934514,523.11
-89.46488465,46.24936789,522.27
-89.46488603,46.24939873,520.99
-89.46488623,46.24940322,527.11
-89.46488680,46.24941599,531.40
-89.46488697,46.24941977,524.78
-89.46488703,46.24942094,524.91
-89.46489136,46.24951760,537.52
-89.46489294,46.24955284,537.49
-89.46489378,46.24957155,533.34
-89.46489417,46.24958036,537.36
-89.46489934,46.24969572,537.79
-89.46490115,46.24973609,521.21
-89.46490118,46.24973681,533.99
-89.46490201,46.24975524,538.95
-89.46490334,46.24978483,535.19
-89.46490385,46.24979625,540.55
-89.46490534,46.24982943,535.95
-89.46490717,46.24987034,533.05
-89.46490813,46.24989174,527.02
-89.46491257,46.24999082,540.55
-89.46491384,46.25001924,538.57
-89.46492164,46.25019323,543.54
-89.46492171,46.25019475,543.80
-89.46492327,46.25022946,531.63
-89.46492471,46.25026165,536.09
-89.46492513,46.25027109,533.95
-89.46492833,46.25034231,527.32
-89.46492914,46.25036047,536.80
-89.46492933,46.25036479,532.92
-89.46492958,46.25037027,538.28
-89.46493026,46.25038538,529.81
-89.46493027,46.25038565,531.87
-89.46493107,46.25040354,535.94
-89.46493234,46.25043177,520.11
-89.46493491,46.25048923,544.13
-89.46493547,46.25050173,525.70
-89.46493620,46.25051791,542.96
-89.46493689,46.25053329,544.25
-89.46493960,46.25059389,533.65
-89.46494115,46.25062842,536.12
-89.46494268,46.25066250,539.11
-89.46494348,46.25068048,538.48
-89.46494456,46.25070449,539.96
-89.46494457,46.25070476,538.60
-89.46495092,46.25084638,539.21
-89.46495263,46.25088450,543.94
-89.46495776,46.25099887,543.99
-89.46496148,46.25108205,536.38
-89.46496179,46.25108888,544.25
-89.46496223,46.25109868,535.41
-89.46496261,46.25110722,538.15
-89.46496412,46.25114085,539.62
-89.46496442,46.25114759,525.58
-89.46496516,46.25116396,541.53
-89.46496646,46.25119309,538.44
-89.46496897,46.25124893,540.40
-89.46496909,46.25125172,523.83
-89.46496979,46.25126736,523.55
-89.46496981,46.25126781,535.11
-89.46497060,46.25128544,541.65
-89.46497308,46.25134082,540.14
-89.46497340,46.25134784,537.67
-89.46497474,46.25137778,543.97
-89.46497499,46.25138335,544.44
-89.46497551,46.25139486,534.62
-89.46497567,46.25139846,542.89
-89.46497655,46.25141824,540.81
-89.46497877,46.25146770,533.26
-89.46498048,46.25150573,524.77
-89.46498189,46.25153729,542.61
-89.46498254,46.25155168,534.99
-89.46498269,46.25155500,543.51
-89.46498275,46.25155635,543.38
-89.46498400,46.25158441,539.27
-89.46498455,46.25159655,544.14
-89.46498485,46.25160320,542.58
-89.46498617,46.25163278,542.15
-89.46498753,46.25166308,538.12
-89.46498924,46.25170130,542.27
-89.46499008,46.25172000,523.93
-89.46499089,46.25173807,539.24
-89.46499319,46.25178933,541.79
-89.46499390,46.25180515,539.24
-89.46499625,46.25185766,543.46
-89.46499719,46.25187852,539.15
-89.46499739,46.25188311,540.50
-89.46499750,46.25188554,522.74
-89.46499987,46.25193841,525.41
-89.46500091,46.25196160,538.76
-89.46500179,46.25197833,538.51
-89.46500241,46.25198344,541.25
-89.46500422,46.25199483,529.25
-89.46501152,46.25199558,526.57
-89.46501581,46.25199575,536.23
-89.46507193,46.25199454,532.76
-89.46508178,46.25199433,539.29
-89.46511755,46.25199356,538.24
-89.46518366,46.25199213,531.11
-89.46527063,46.25199026,532.07
-89.46533064,46.25198896,537.89
-89.46534205,46.25198872,535.21
-89.46534814,46.25198858,533.94
-89.46534969,46.25198855,533.44
-89.46536629,46.25198819,537.98
-89.46538910,46.25198770,534.48
-89.46545015,46.25198638,532.91
-89.46546220,46.25198612,530.99
-89.46548735,46.25198558,534.51
-89.46551132,46.25198506,538.18
-89.46552338,46.25198480,536.36
-89.46558482,46.25198348,542.37
-89.46558935,46.25198338,533.36
-89.46563614,46.25198237,530.40
-89.46564768,46.25198212,532.84
-89.46571715,46.25198062,527.88
-89.46583018,46.25197818,531.41
-89.46585066,46.25197774,533.67
-89.46592907,46.25197605,529.64
-89.46595227,46.25197555,533.72
-89.46595461,46.25197550,520.80
-89.46598740,46.25197479,539.58
-89.46611079,46.25197213,539.66
-89.46614683,46.25197135,537.97
-89.46616057,46.25197105,540.87
-89.46618014,46.25197063,538.26
-89.46621371,46.25196991,535.51
-89.46627268,46.25196863,538.00
-89.46629627,46.25196812,539.63
-89.46631779,46.25196766,540.23
-89.46636963,46.25196654,536.62
-89.46642006,46.25196545,538.33
-89.46644170,46.25196498,539.27
-89.46651234,46.25196346,537.63
-89.46662783,46.25196097,531.02
-89.46665945,46.25196028,522.63
-89.46670080,46.25195939,527.70
-89.46677377,46.25195782,530.38
-89.46681862,46.25195685,533.07
-89.46691933,46.25195467,537.82
-89.46694772,46.25195406,539.05
-89.46696949,46.25195359,540.04
-89.46702186,46.25195246,535.18
-89.46714693,46.25194976,538.07
-89.46723222,46.25194792,531.36
-89.46731543,46.25194612,540.10
-89.46741951,46.25194387,543.23
-89.46753915,46.25194129,533.08
-89.46757142,46.25194059,530.97
-89.46764854,46.25193893,533.89
-89.46774912,46.25193675,545.59
-89.46778749,46.25193593,544.02
-89.46783039,46.25193500,546.89
-89.46786254,46.25193431,547.78
-89.46789520,46.25193360,547.52
-89.46791892,46.25193309,540.59
-89.46800045,46.25193133,539.90
-89.46800770,46.25193117,547.28
-89.46804750,46.25193031,543.72
-89.46822766,46.25192642,544.01
-89.46831735,46.25192448,542.74
-89.46845552,46.25192150,536.88
-89.46853666,46.25191974,538.99
-89.46887483,46.25191244,539.42
-89.46888429,46.25191223,536.24
-89.46896283,46.25191054,528.80
-89.46899213,46.25190990,519.04
-89.46902233,46.25190925,530.95
-89.46904929,46.25190867,540.86
-89.46908389,46.25190792,540.62
-89.46914352,46.25190663,538.51
-89.46914365,46.25190663,540.17
-89.46917696,46.25190591,538.05
-89.46920405,46.25190532,538.30
-89.46928519,46.25190357,534.82
-89.46932874,46.25190263,516.68
-89.46934442,46.25190229,521.55
-89.46938628,46.25190138,534.94
-89.46939652,46.25190116,533.78
-89.46945835,46.25189983,534.45
-89.46947274,46.25189952,529.43
-89.46960793,46.25189659,519.68
-89.46974350,46.25189366,529.94
-89.46978498,46.25189277,526.29
-89.46989048,46.25189049,514.46
-89.47005743,46.25188688,514.68
-89.47015516,46.25188477,522.44
-89.47015866,46.25188469,520.91
-89.47016825,46.25188448,514.65
-89.47019663,46.25188387,514.58
-89.47026792,46.25188233,514.71
-89.47038328,46.25187983,519.07
-89.47038587,46.25187978,518.04
-89.47038924,46.25187970,516.75
-89.47039105,46.25187967,516.06
-89.47050706,46.25187716,514.62
-89.47053959,46.25187645,514.68
-89.47054180,46.25187641,514.65
-89.47057563,46.25187567,514.63
-89.47060881,46.25187496,523.52
-89.47060907,46.25187495,515.29
-89.47061075,46.25187491,514.69
-89.47072857,46.25187237,514.59
-89.47075099,46.25187188,521.45
-89.47084782,46.25186979,514.88
-89.47091651,46.25186830,514.64
-89.47094762,46.25186763,514.72
-89.47110121,46.25186431,529.20
-89.47119531,46.25186227,527.38
-89.47119726,46.25186223,526.80
-89.47122123,46.25186171,529.99
-89.47127191,46.25186062,533.94
-89.47128760,46.25186028,534.55
-89.47135824,46.25185875,536.08
-89.47139232,46.25185801,536.67
     </coordinates>
    </LineString>
   </MultiGeometry>
  </Placemark>
 </Document>
</kml>
