<kml>
 <Document>
  <Style id="yellow">
   <LineStyle>
   <color>ff00ffff</color>
   <width>1</width>
   </LineStyle>
  </Style>
  <Style id="red">
   <LineStyle>
   <color>ffff0000</color>
   <width>2</width>
   </LineStyle>
  </Style>
  <Style id="green">
   <LineStyle>
   <color>ff00ff00</color>
   <width>1</width>
   </LineStyle>
  </Style>
  <Placemark>
  <styleUrl>#yellow</styleUrl>
   <MultiGeometry>
    <LineString>
     <coordinates>
-89.48266082,46.21561241,527.03
-89.48276263,46.21561020,527.76
-89.48285524,46.21560818,526.56
-89.48285615,46.21560816,527.84
-89.48286910,46.21560788,512.60
-89.48287039,46.21560785,524.71
-89.48290200,46.21560717,525.75
-89.48291327,46.21560692,526.03
-89.48291987,46.21560678,513.75
-89.48292182,46.21560674,527.01
-89.48294604,46.21560621,513.99
-89.48295303,46.21560606,533.39
-89.48297285,46.21560563,534.14
-89.48312194,46.21560239,535.50
-89.48319901,46.21560071,514.76
-89.48320237,46.21560064,526.77
-89.48326558,46.21559927,532.93
-89.48326623,46.21559925,533.82
-89.48333786,46.21559769,529.44
-89.48335120,46.21559740,524.40
-89.48335211,46.21559738,525.75
-89.48337141,46.21559697,530.61
-89.48338125,46.21559675,521.30
-89.48339252,46.21559651,513.94
-89.48341324,46.21559606,520.95
-89.48358746,46.21559227,526.40
-89.48358785,46.21559226,527.38
-89.48367826,46.21559029,528.63
-89.48367878,46.21559028,529.90
-89.48370235,46.21558977,525.73
-89.48379496,46.21558776,516.96
-89.48396115,46.21558415,525.77
-89.48401723,46.21558293,519.15
-89.48404184,46.21558239,521.50
-89.48407098,46.21558176,520.16
-89.48408640,46.21558142,521.69
-89.48416321,46.21557975,526.03
-89.48419261,46.21557911,524.11
-89.48422888,46.21557832,529.82
-89.48432317,46.21557627,531.09
-89.48436825,46.21557529,532.85
-89.48440426,46.21557451,535.81
-89.48441980,46.21557417,535.89
-89.48456656,46.21557098,534.75
-89.48469038,46.21556829,530.99
-89.48470722,46.21556792,529.07
-89.48471111,46.21556784,532.06
-89.48477794,46.21556638,521.89
-89.48479828,46.21556594,516.78
-89.48502172,46.21556108,528.67
-89.48536250,46.21555367,505.39
-89.48541651,46.21555250,522.63
-89.48552234,46.21555019,505.89
-89.48557855,46.21554897,516.45
-89.48562324,46.21554800,517.49
-89.48573956,46.21554547,519.36
-89.48581818,46.21554376,511.28
-89.48582012,46.21554371,506.46
-89.48582919,46.21554352,505.51
-89.48586079,46.21554283,506.94
-89.48594732,46.21554095,507.87
-89.48598656,46.21554009,507.87
-89.48601558,46.21553946,507.43
-89.48611026,46.21553740,504.25
-89.48620521,46.21553534,504.10
-89.48671075,46.21552433,505.40
-89.48676748,46.21552310,504.30
-89.48700180,46.21551800,504.19
-89.48709286,46.21551602,504.11
-89.48713469,46.21551511,504.13
-89.48716358,46.21551448,504.15
-89.48735631,46.21551028,504.14
-89.48741719,46.21550896,505.20
-89.48744102,46.21550844,505.21
-89.48750177,46.21550711,505.32
-89.48759542,46.21550508,506.85
-89.48761848,46.21550457,503.88
-89.48786354,46.21549924,505.48
-89.48786717,46.21549916,508.33
-89.48794644,46.21549743,506.97
-89.48798348,46.21549663,520.67
-89.48798724,46.21549654,511.81
-89.48799074,46.21549647,515.71
-89.48804022,46.21549539,517.51
-89.48810083,46.21549407,524.86
-89.48810601,46.21549396,505.65
-89.48828748,46.21549001,525.30
-89.48831973,46.21548930,525.26
-89.48836779,46.21548826,523.15
-89.48838372,46.21548791,525.04
-89.48840470,46.21548745,522.62
-89.48845444,46.21548637,525.19
-89.48847711,46.21548588,526.84
-89.48883642,46.21547805,518.91
-89.48918640,46.21547042,507.17
-89.48920155,46.21547009,509.01
-89.48926334,46.21546875,509.74
-89.48927473,46.21546841,508.50
-89.48929670,46.21546685,509.93
-89.48929709,46.21546396,512.37
-89.48929477,46.21541262,512.58
-89.48928969,46.21530023,508.09
-89.48927352,46.21494255,510.21
-89.48927141,46.21489606,513.49
-89.48926952,46.21485425,515.84
-89.48926874,46.21483690,513.55
-89.48926565,46.21476847,517.78
-89.48925875,46.21461606,508.44
-89.48925537,46.21454117,504.68
-89.48925158,46.21445737,511.94
-89.48924725,46.21436152,507.19
-89.48924578,46.21432915,504.72
-89.48923132,46.21401202,509.97
-89.48922075,46.21377545,504.07
-89.48921506,46.21364957,505.22
-89.48921129,46.21356613,506.01
-89.48920921,46.21352027,505.32
-89.48920879,46.21351083,504.14
-89.48920716,46.21347477,504.21
-89.48920499,46.21342685,504.13
-89.48920337,46.21339088,504.09
-89.48919446,46.21319397,504.24
-89.48919154,46.21312923,506.57
-89.48918368,46.21295533,503.99
-89.48917472,46.21275725,504.20
-89.48916586,46.21256115,505.08
-89.48915847,46.21239777,506.37
-89.48915255,46.21226677,507.08
-89.48914514,46.21210294,511.64
-89.48914061,46.21200277,504.00
-89.48913879,46.21196249,519.33
-89.48913800,46.21194505,506.64
-89.48913618,46.21190468,504.85
-89.48913511,46.21188112,504.06
-89.48913481,46.21187429,517.26
-89.48912729,46.21171082,530.27
-89.48911079,46.21134307,531.31
-89.48910875,46.21129784,507.51
-89.48910542,46.21122411,532.82
-89.48909944,46.21109185,533.82
-89.48909667,46.21103061,533.83
-89.48909336,46.21095742,528.92
-89.48909061,46.21089646,535.60
-89.48908049,46.21067266,534.67
-89.48907868,46.21063256,537.64
-89.48907812,46.21062024,533.67
-89.48907791,46.21061557,534.14
-89.48907770,46.21061098,536.37
-89.48907481,46.21054705,525.53
-89.48907095,46.21046172,539.21
-89.48906928,46.21042477,535.21
-89.48906739,46.21038296,533.13
-89.48906172,46.21025752,526.56
-89.48906133,46.21024889,527.91
-89.48905929,46.21020357,527.57
-89.48905817,46.21017894,527.00
-89.48905475,46.21010323,513.60
-89.48905431,46.21009343,504.23
-89.48905078,46.21001529,505.98
-89.48904157,46.20981154,503.79
-89.48903709,46.20971246,507.13
-89.48902416,46.20942635,504.82
-89.48902226,46.20938445,505.21
-89.48901845,46.20930011,503.62
-89.48901513,46.20922674,505.13
-89.48900879,46.20908629,505.35
-89.48900775,46.20906336,503.94
-89.48899475,46.20877563,503.61
-89.48898921,46.20865308,503.61
-89.48898534,46.20856757,503.86
-89.48898364,46.20852998,509.24
-89.48898313,46.20851866,507.84
-89.48897248,46.20828299,520.04
-89.48896968,46.20822104,507.95
-89.48896964,46.20822014,518.10
-89.48896675,46.20815630,515.38
-89.48896609,46.20814155,515.34
-89.48896582,46.20813571,516.71
-89.48896231,46.20805802,516.25
-89.48895809,46.20796460,519.84
-89.48895597,46.20791775,521.83
-89.48895572,46.20791218,519.37
-89.48895330,46.20785868,521.35
-89.48895203,46.20783045,525.57
-89.48895082,46.20780383,521.03
-89.48894791,46.20773936,505.05
-89.48894699,46.20771904,507.83
-89.48894625,46.20770259,505.03
-89.48894561,46.20768847,514.00
-89.48894534,46.20768244,523.29
-89.48894450,46.20766392,518.03
-89.48894278,46.20762589,509.28
-89.48894190,46.20760647,505.03
-89.48894021,46.20756897,518.27
-89.48893752,46.20750954,525.09
-89.48893570,46.20746917,513.57
-89.48893395,46.20743041,511.25
-89.48893293,46.20740784,515.57
-89.48893186,46.20738429,513.09
-89.48893167,46.20738006,512.93
-89.48892980,46.20733861,506.36
-89.48892168,46.20715905,515.76
-89.48892100,46.20714394,523.79
-89.48891957,46.20711229,517.30
-89.48891810,46.20707974,521.23
-89.48890872,46.20687222,515.18
-89.48890777,46.20685118,521.15
-89.48890664,46.20682618,515.74
-89.48889724,46.20661821,517.83
-89.48889155,46.20649224,514.70
-89.48888824,46.20647926,514.36
-89.48888352,46.20647810,511.95
-89.48887871,46.20647767,513.13
-89.48883852,46.20647773,503.58
-89.48882350,46.20647806,510.90
-89.48881288,46.20647829,512.17
-89.48877817,46.20647905,510.96
-89.48875085,46.20647964,514.19
-89.48872624,46.20648018,522.74
-89.48862808,46.20648232,512.28
-89.48850207,46.20648506,505.57
-89.48846322,46.20648591,525.98
-89.48839419,46.20648741,524.47
-89.48837010,46.20648794,521.60
-89.48836414,46.20648807,523.13
-89.48835780,46.20648820,524.59
-89.48835495,46.20648827,523.36
-89.48835236,46.20648832,525.89
-89.48825665,46.20649041,519.17
-89.48825238,46.20649050,503.77
-89.48822415,46.20649111,512.79
-89.48820135,46.20649161,504.77
-89.48816859,46.20649232,503.90
-89.48809684,46.20649389,507.09
-89.48798663,46.20649629,503.91
-89.48783304,46.20649963,526.51
-89.48780546,46.20650023,520.79
-89.48779043,46.20650056,522.58
-89.48776311,46.20650115,513.16
-89.48774977,46.20650144,515.96
-89.48766637,46.20650326,513.56
-89.48760679,46.20650456,522.75
-89.48757092,46.20650534,524.50
-89.48756367,46.20650550,526.03
-89.48754295,46.20650595,517.91
-89.48751886,46.20650647,515.87
-89.48751459,46.20650657,526.89
-89.48748389,46.20650723,525.12
-89.48742574,46.20650850,525.08
-89.48739661,46.20650913,519.01
-89.48734364,46.20651029,525.37
-89.48733276,46.20651052,525.62
-89.48721232,46.20651315,524.18
-89.48718124,46.20651382,522.35
-89.48716673,46.20651414,524.07
-89.48714627,46.20651458,528.99
-89.48709771,46.20651564,526.66
-89.48709304,46.20651574,527.20
-89.48709007,46.20651581,522.01
-89.48703787,46.20651694,510.31
-89.48695292,46.20651879,508.58
-89.48659924,46.20652649,518.87
-89.48658538,46.20652679,515.02
-89.48657178,46.20652709,516.62
-89.48649835,46.20652869,513.11
-89.48629231,46.20653317,510.29
-89.48622523,46.20653463,509.81
-89.48617433,46.20653574,507.49
-89.48615464,46.20653617,520.84
-89.48607707,46.20653785,510.87
-89.48599082,46.20653973,505.34
-89.48593487,46.20654095,506.39
-89.48584759,46.20654285,505.05
-89.48583904,46.20654303,505.26
-89.48576755,46.20654459,504.08
-89.48571303,46.20654577,509.41
-89.48571212,46.20654579,503.72
-89.48568026,46.20654649,507.50
-89.48527646,46.20655527,504.63
-89.48488769,46.20656373,503.73
-89.48480869,46.20656545,503.83
-89.48476815,46.20656633,503.82
-89.48476038,46.20656650,505.91
-89.48472023,46.20656737,507.20
-89.48450059,46.20657215,522.34
-89.48446291,46.20657297,510.86
-89.48446148,46.20657300,522.95
-89.48431889,46.20657610,504.39
-89.48423886,46.20657784,504.21
-89.48411130,46.20658061,516.49
-89.48390163,46.20658517,528.36
-89.48381032,46.20658715,505.71
-89.48368457,46.20658989,504.81
-89.48361192,46.20659147,511.89
-89.48350158,46.20659387,506.27
-89.48317678,46.20660093,521.08
-89.48312498,46.20660205,526.50
-89.48309700,46.20660266,519.52
-89.48306799,46.20660329,521.46
-89.48297850,46.20660524,527.86
-89.48295830,46.20660567,505.30
-89.48293641,46.20660615,524.22
-89.48293214,46.20660624,525.27
-89.48288746,46.20660721,527.91
-89.48288630,46.20660724,514.59
-89.48283967,46.20660825,526.89
-89.48276831,46.20660980,518.24
-89.48276404,46.20660990,519.32
-89.48272467,46.20661075,505.30
-89.48271276,46.20661101,525.00
-89.48254246,46.20661471,520.17
-89.48251979,46.20661520,527.43
-89.48251202,46.20661537,526.48
-89.48246877,46.20661631,511.44
-89.48230352,46.20661990,521.43
-89.48226389,46.20662076,518.15
-89.48222996,46.20662150,521.61
-89.48216222,46.20662297,519.77
-89.48214824,46.20662328,507.73
-89.48211858,46.20662392,520.21
-89.48209514,46.20662443,525.38
-89.48200047,46.20662649,526.79
-89.48198830,46.20662675,526.47
-89.48197742,46.20662699,507.50
-89.48184895,46.20662978,511.44
-89.48179326,46.20663099,523.56
-89.48164899,46.20663412,513.85
-89.48161156,46.20663493,506.99
-89.48156779,46.20663588,505.84
-89.48156649,46.20663591,523.93
-89.48150485,46.20663725,519.53
-89.48148931,46.20663759,522.99
-89.48147739,46.20663785,518.87
-89.48141497,46.20663920,525.04
-89.48138480,46.20663986,524.13
-89.48133856,46.20664086,513.21
-89.48131434,46.20664139,522.83
-89.48117020,46.20664452,527.38
-89.48106193,46.20664687,520.06
-89.48096481,46.20664898,526.98
-89.48094732,46.20664936,524.04
-89.48088011,46.20665082,520.25
-89.48083323,46.20665184,524.48
-89.48077560,46.20665309,525.59
-89.48068028,46.20665516,523.27
-89.48067031,46.20665537,525.46
-89.48066189,46.20665556,527.35
-89.48065917,46.20665562,528.04
-89.48054741,46.20665804,528.44
-89.48049858,46.20665910,526.20
-89.48047048,46.20665971,523.52
-89.48036597,46.20666198,530.71
-89.48010721,46.20666760,510.27
-89.47997965,46.20667037,518.88
-89.47988342,46.20667246,534.62
-89.47977904,46.20667472,527.39
-89.47942562,46.20668239,527.11
-89.47932745,46.20668452,528.29
-89.47929883,46.20668514,535.19
-89.47929171,46.20668530,536.81
-89.47918396,46.20668764,537.33
-89.47898503,46.20669195,536.99
-89.47888324,46.20669416,536.33
-89.47884996,46.20669488,517.90
-89.47876889,46.20669664,537.59
-89.47876396,46.20669675,518.02
-89.47868445,46.20669847,537.46
-89.47846662,46.20670320,537.41
-89.47846118,46.20670332,538.58
-89.47837622,46.20670516,535.98
-89.47821978,46.20670855,524.08
-89.47819219,46.20670915,530.93
-89.47781520,46.20671733,524.69
-89.47777142,46.20671828,535.95
-89.47776624,46.20671839,537.30
-89.47756758,46.20672270,533.19
-89.47735803,46.20672724,532.69
-89.47724394,46.20672972,535.02
-89.47722620,46.20673010,539.99
-89.47721545,46.20673034,517.51
-89.47710757,46.20673267,538.59
-89.47710407,46.20673275,536.07
-89.47707105,46.20673347,540.88
-89.47706599,46.20673358,537.17
-89.47703737,46.20673420,535.31
-89.47703142,46.20673432,541.22
-89.47692768,46.20673657,536.61
-89.47690592,46.20673705,534.41
-89.47684402,46.20673839,536.45
-89.47673018,46.20674086,516.53
-89.47668770,46.20674178,530.30
-89.47664807,46.20674264,533.74
-89.47664043,46.20674280,535.98
-89.47661039,46.20674345,534.36
-89.47653217,46.20674515,517.64
-89.47649539,46.20674595,517.80
-89.47647415,46.20674641,515.31
-89.47642713,46.20674742,511.40
-89.47615671,46.20675590,511.30
-89.47613075,46.20675808,511.28
-89.47595170,46.20699966,511.31
-89.47596091,46.20716696,511.29
-89.47597260,46.20747316,511.32
-89.47598368,46.20772259,511.28
-89.47598565,46.20776341,511.36
-89.47600593,46.20818293,511.35
-89.47602528,46.20856134,511.32
-89.47602565,46.20864449,511.33
-89.47603626,46.20886891,511.35
-89.47604803,46.20910474,511.32
-89.47606539,46.20951685,511.30
-89.47607015,46.20963141,511.33
-89.47608031,46.20984279,511.28
-89.47609245,46.21012162,511.27
-89.47610242,46.21035488,511.31
-89.47611294,46.21059748,511.33
-89.47612651,46.21088195,511.39
-89.47614562,46.21132139,511.28
-89.47615470,46.21152604,515.89
-89.47616347,46.21172107,528.05
-89.47616384,46.21172943,523.57
-89.47616387,46.21173006,531.44
-89.47616470,46.21174849,532.26
-89.47616477,46.21174993,518.97
-89.47616496,46.21175434,533.87
-89.47616518,46.21175919,515.72
-89.47616608,46.21177906,532.66
-89.47617179,46.21190620,520.39
-89.47617597,46.21199909,515.99
-89.47618270,46.21214871,512.20
-89.47618355,46.21216759,512.02
-89.47618677,46.21223916,527.73
-89.47618883,46.21228502,527.27
-89.47618949,46.21229977,528.97
-89.47619356,46.21239031,524.94
-89.47619361,46.21239139,528.84
-89.47619386,46.21239688,524.74
-89.47619750,46.21247789,524.17
-89.47619916,46.21251476,528.63
-89.47620010,46.21253562,521.53
-89.47620062,46.21254721,527.27
-89.47620232,46.21258498,509.35
-89.47620711,46.21269162,524.37
-89.47620713,46.21269207,522.35
-89.47620781,46.21270709,526.20
-89.47621233,46.21280770,519.78
-89.47621705,46.21291254,531.19
-89.47621763,46.21292558,525.45
-89.47622120,46.21300498,532.62
-89.47622222,46.21302764,535.72
-89.47622252,46.21303429,534.75
-89.47622354,46.21305686,537.50
-89.47622376,46.21306189,538.03
-89.47622543,46.21309903,537.62
-89.47623058,46.21321340,532.45
-89.47623127,46.21322878,535.20
-89.47623199,46.21324478,538.11
-89.47623407,46.21329100,538.72
-89.47623795,46.21337741,539.64
-89.47623931,46.21340762,539.92
-89.47624023,46.21342794,539.67
-89.47624097,46.21344440,540.59
-89.47624512,46.21353674,542.13
-89.47624539,46.21354276,541.79
-89.47624599,46.21355607,541.44
-89.47625082,46.21366343,537.05
-89.47625143,46.21367710,542.45
-89.47625341,46.21372116,537.96
-89.47625356,46.21372439,543.17
-89.47625389,46.21373186,543.45
-89.47625563,46.21377052,541.57
-89.47625776,46.21381782,540.37
-89.47625798,46.21382267,542.79
-89.47625910,46.21384758,519.73
-89.47626177,46.21390692,518.86
-89.47626605,46.21400205,539.81
-89.47626827,46.21405160,537.37
-89.47627157,46.21412497,527.63
-89.47627759,46.21425876,526.18
-89.47627830,46.21427450,523.08
-89.47627891,46.21428817,528.51
-89.47628390,46.21439894,506.35
-89.47628400,46.21440128,506.39
-89.47628819,46.21449443,521.66
-89.47628852,46.21450181,516.90
-89.47629422,46.21462850,521.07
-89.47629717,46.21469423,519.18
-89.47629730,46.21469692,505.35
-89.47630202,46.21480186,519.76
-89.47630215,46.21480482,516.61
-89.47630575,46.21488485,507.78
-89.47630846,46.21494509,511.09
-89.47630885,46.21495381,504.69
-89.47630893,46.21495561,507.84
-89.47631532,46.21509768,504.92
-89.47631541,46.21509975,505.05
-89.47631685,46.21513167,503.94
-89.47631854,46.21516628,505.14
-89.47631973,46.21518993,504.18
-89.47632350,46.21525645,503.97
-89.47632955,46.21536207,503.95
-89.47634617,46.21574891,503.98
-89.47662623,46.21574329,503.95
-89.47671107,46.21574154,504.67
-89.47675615,46.21574056,514.59
-89.47681120,46.21573937,519.39
-89.47688995,46.21573766,511.22
-89.47694682,46.21573643,515.05
-89.47701132,46.21573503,528.86
-89.47704370,46.21573433,525.77
-89.47718372,46.21573129,530.15
-89.47723644,46.21573015,532.79
-89.47726196,46.21572959,532.62
-89.47732102,46.21572831,532.69
-89.47740794,46.21572643,529.24
-89.47747698,46.21572493,534.99
-89.47750275,46.21572437,527.98
-89.47756130,46.21572310,535.97
-89.47764277,46.21572134,530.05
-89.47792048,46.21571531,524.73
-89.47797398,46.21571415,534.05
-89.47805921,46.21571230,539.87
-89.47805959,46.21571230,540.70
-89.47815881,46.21571014,520.25
-89.47829002,46.21570730,520.34
-89.47830116,46.21570706,540.91
-89.47830155,46.21570705,542.11
-89.47854209,46.21570183,538.98
-89.47862978,46.21569993,538.05
-89.47886617,46.21569480,538.13
-89.47910787,46.21568956,518.32
-89.47911732,46.21568935,535.10
-89.47935397,46.21568422,535.85
-89.47940202,46.21568317,534.53
-89.47968971,46.21567693,525.83
-89.47970395,46.21567662,511.80
-89.47973219,46.21567601,533.60
-89.47973763,46.21567589,526.36
-89.47975175,46.21567558,533.39
-89.47977183,46.21567515,531.66
-89.47988219,46.21567275,527.05
-89.47989190,46.21567254,528.03
-89.47989345,46.21567251,512.00
-89.47994669,46.21567135,511.82
-89.47995524,46.21567117,522.28
-89.47997260,46.21567079,523.53
-89.47997389,46.21567076,526.84
-89.48005252,46.21566905,525.35
-89.48006948,46.21566869,522.88
-89.48007946,46.21566847,526.18
-89.48008930,46.21566826,526.21
-89.48010847,46.21566784,514.29
-89.48012609,46.21566746,527.79
-89.48016559,46.21566660,509.61
-89.48026494,46.21566444,526.51
-89.48027103,46.21566431,525.20
-89.48029266,46.21566384,507.38
-89.48030613,46.21566355,524.26
-89.48032556,46.21566313,519.27
-89.48033022,46.21566303,524.36
-89.48034279,46.21566275,524.34
-89.48037789,46.21566199,522.20
-89.48042582,46.21566095,522.71
-89.48049123,46.21565953,517.08
-89.48050301,46.21565928,519.97
-89.48057736,46.21565766,518.62
-89.48065275,46.21565602,516.98
-89.48066920,46.21565567,506.88
-89.48072645,46.21565442,521.29
-89.48075728,46.21565375,521.07
-89.48085326,46.21565167,509.87
-89.48094729,46.21564963,507.64
-89.48101245,46.21564821,520.12
-89.48102307,46.21564798,512.12
-89.48105221,46.21564735,519.48
-89.48112125,46.21564585,523.67
-89.48116477,46.21564491,524.82
-89.48118355,46.21564450,508.02
-89.48125997,46.21564284,508.12
-89.48126749,46.21564268,522.07
-89.48127746,46.21564246,521.92
-89.48132033,46.21564153,507.16
-89.48135414,46.21564079,506.76
-89.48135621,46.21564075,510.84
-89.48135867,46.21564070,514.42
-89.48136256,46.21564061,522.08
-89.48136424,46.21564057,523.86
-89.48146916,46.21563830,509.56
-89.48155387,46.21563646,512.55
-89.48157576,46.21563598,521.45
-89.48171747,46.21563290,525.00
-89.48172938,46.21563264,526.21
-89.48177433,46.21563167,526.31
-89.48199362,46.21562690,526.97
-89.48202885,46.21562614,528.22
-89.48221939,46.21562200,530.41
-89.48223467,46.21562167,509.69
-89.48225734,46.21562117,530.61
-89.48231032,46.21562002,525.50
-89.48234594,46.21561925,509.39
-89.48234723,46.21561922,526.36
-89.48234943,46.21561917,509.49
-89.48237093,46.21561871,524.75
-89.48237961,46.21561852,528.53
-89.48240319,46.21561801,526.10
-89.48243751,46.21561726,530.57
-89.48245539,46.21561687,532.44
-89.48251562,46.21561556,524.21
-89.48255357,46.21561474,528.63
-89.48255409,46.21561473,530.21
-89.48258440,46.21561407,529.19
-89.48266082,46.21561241,527.03
     </coordinates>
    </LineString>
   </MultiGeometry>
  </Placemark>
 </Document>
</kml>
