<kml>
 <Document>
  <Style id="yellow">
   <LineStyle>
   <color>ff00ffff</color>
   <width>1</width>
   </LineStyle>
  </Style>
  <Style id="red">
   <LineStyle>
   <color>ffff0000</color>
   <width>2</width>
   </LineStyle>
  </Style>
  <Style id="green">
   <LineStyle>
   <color>ff00ff00</color>
   <width>1</width>
   </LineStyle>
  </Style>
  <Placemark>
  <styleUrl>#yellow</styleUrl>
   <MultiGeometry>
    <LineString>
     <coordinates>
-89.53618009,46.25043831,524.24
-89.53618462,46.25043821,525.86
-89.53619473,46.25043798,518.12
-89.53619862,46.25043790,514.63
-89.53620277,46.25043780,511.42
-89.53633393,46.25043489,511.34
-89.53647196,46.25043183,511.35
-89.53664822,46.25042791,511.19
-89.53666520,46.25042754,513.19
-89.53666662,46.25042751,514.66
-89.53666779,46.25042748,516.23
-89.53668529,46.25042709,514.27
-89.53668775,46.25042704,512.66
-89.53676162,46.25042540,522.14
-89.53680297,46.25042448,527.57
-89.53681087,46.25042430,515.99
-89.53681981,46.25042411,527.43
-89.53682526,46.25042398,511.25
-89.53691287,46.25042204,527.35
-89.53691741,46.25042194,532.84
-89.53695745,46.25042105,523.81
-89.53701422,46.25041979,531.44
-89.53702174,46.25041962,534.49
-89.53709704,46.25041795,521.38
-89.53710507,46.25041777,530.68
-89.53712011,46.25041744,519.55
-89.53720383,46.25041558,527.74
-89.53723766,46.25041483,512.79
-89.53728963,46.25041367,518.63
-89.53733823,46.25041259,514.38
-89.53741483,46.25041089,527.19
-89.53760962,46.25040657,534.46
-89.53769879,46.25040459,534.47
-89.53797368,46.25039848,514.93
-89.53816977,46.25039412,526.75
-89.53826503,46.25039201,517.72
-89.53832115,46.25039076,533.78
-89.53836806,46.25038972,532.04
-89.53843313,46.25038827,517.03
-89.53870309,46.25038228,524.23
-89.53875027,46.25038123,524.01
-89.53876763,46.25038084,532.66
-89.53889853,46.25037793,530.47
-89.53909190,46.25037364,513.74
-89.53911381,46.25037315,520.22
-89.53932623,46.25036843,516.87
-89.53933556,46.25036822,510.51
-89.53944313,46.25036583,521.59
-89.53948862,46.25036482,517.57
-89.53949977,46.25036457,510.28
-89.53956198,46.25036319,523.94
-89.53958893,46.25036259,527.41
-89.53960176,46.25036230,518.89
-89.53983998,46.25035701,529.13
-89.54001455,46.25035313,520.11
-89.54003192,46.25035274,514.95
-89.54025626,46.25034775,532.15
-89.54029800,46.25034683,536.00
-89.54032210,46.25034629,513.41
-89.54042812,46.25034393,531.88
-89.54042851,46.25034392,530.38
-89.54043589,46.25034376,518.72
-89.54047478,46.25034290,525.43
-89.54051949,46.25034190,524.07
-89.54052260,46.25034183,522.29
-89.54052364,46.25034181,521.72
-89.54056291,46.25034094,527.42
-89.54056433,46.25034091,524.40
-89.54069679,46.25033796,520.70
-89.54070353,46.25033781,509.97
-89.54073230,46.25033717,527.63
-89.54087266,46.25033405,516.75
-89.54092411,46.25033290,508.99
-89.54102429,46.25033068,528.47
-89.54107575,46.25032953,524.97
-89.54114871,46.25032791,528.81
-89.54119006,46.25032699,511.55
-89.54127819,46.25032503,529.13
-89.54130657,46.25032440,510.50
-89.54130877,46.25032435,530.50
-89.54131655,46.25032418,516.24
-89.54132433,46.25032400,528.19
-89.54145445,46.25032111,526.33
-89.54148050,46.25032053,509.62
-89.54150525,46.25031998,509.58
-89.54154815,46.25031902,520.79
-89.54173854,46.25031479,513.48
-89.54177288,46.25031403,523.86
-89.54177470,46.25031399,521.94
-89.54181514,46.25031309,522.09
-89.54181825,46.25031302,529.02
-89.54185907,46.25031211,514.74
-89.54196120,46.25030984,516.52
-89.54204726,46.25030792,527.61
-89.54206268,46.25030758,534.56
-89.54206812,46.25030746,531.10
-89.54212891,46.25030610,533.62
-89.54215509,46.25030552,529.93
-89.54219021,46.25030474,521.37
-89.54227938,46.25030276,525.23
-89.54228611,46.25030261,513.22
-89.54233485,46.25030152,526.90
-89.54241066,46.25029984,539.92
-89.54245952,46.25029875,538.63
-89.54250592,46.25029772,534.07
-89.54256606,46.25029638,526.10
-89.54262879,46.25029498,542.47
-89.54264188,46.25029469,534.22
-89.54269786,46.25029345,538.92
-89.54270823,46.25029321,518.80
-89.54275139,46.25029225,517.43
-89.54275954,46.25029180,523.03
-89.54276213,46.25029166,539.24
-89.54276433,46.25029152,518.43
-89.54276627,46.25029138,515.80
-89.54276662,46.25029056,531.91
-89.54276759,46.25028622,517.96
-89.54276652,46.25026312,522.57
-89.54276593,46.25025044,516.09
-89.54276476,46.25022499,525.61
-89.54276462,46.25022212,525.50
-89.54276451,46.25021969,524.50
-89.54276245,46.25017500,542.51
-89.54276194,46.25016403,516.17
-89.54276079,46.25013922,538.01
-89.54275908,46.25010218,537.49
-89.54275843,46.25008815,521.93
-89.54275830,46.25008536,520.86
-89.54275655,46.25004742,532.41
-89.54275583,46.25003187,537.56
-89.54275513,46.25001685,534.26
-89.54275274,46.24996506,525.72
-89.54274927,46.24988999,524.70
-89.54274879,46.24987974,525.53
-89.54274345,46.24976420,530.86
-89.54274224,46.24973813,518.69
-89.54274058,46.24970225,530.97
-89.54273804,46.24964723,527.12
-89.54273756,46.24963689,530.07
-89.54273274,46.24953259,518.54
-89.54273247,46.24952684,519.92
-89.54272737,46.24941652,509.67
-89.54272467,46.24935816,520.05
-89.54272040,46.24926583,517.41
-89.54271869,46.24922878,518.00
-89.54271846,46.24922384,521.40
-89.54271650,46.24918149,530.29
-89.54271483,46.24914517,522.87
-89.54271458,46.24913986,522.82
-89.54271353,46.24911720,525.88
-89.54271307,46.24910722,523.95
-89.54270871,46.24901291,532.45
-89.54270667,46.24896885,527.85
-89.54270665,46.24896840,531.64
-89.54270604,46.24895509,519.68
-89.54270468,46.24892569,516.12
-89.54270174,46.24886222,527.39
-89.54269990,46.24882248,537.77
-89.54269916,46.24880638,531.45
-89.54269733,46.24876682,537.90
-89.54269716,46.24876314,537.25
-89.54269349,46.24868374,532.00
-89.54268817,46.24856866,541.10
-89.54268609,46.24852361,536.23
-89.54268126,46.24841923,539.47
-89.54267648,46.24831583,536.51
-89.54267467,46.24827672,529.22
-89.54267340,46.24824930,527.84
-89.54266807,46.24813403,531.70
-89.54266784,46.24812890,532.74
-89.54266782,46.24812845,531.10
-89.54266707,46.24811227,528.31
-89.54266606,46.24809051,525.33
-89.54266599,46.24808907,530.98
-89.54266552,46.24807882,534.30
-89.54266471,46.24806129,531.75
-89.54266261,46.24801589,536.61
-89.54265706,46.24789595,538.23
-89.54265467,46.24784416,532.39
-89.54265456,46.24784182,538.75
-89.54265408,46.24783139,535.65
-89.54265348,46.24781835,533.55
-89.54265330,46.24781449,526.19
-89.54265262,46.24779974,530.37
-89.54265131,46.24777151,526.60
-89.54265050,46.24775389,538.10
-89.54265027,46.24774903,538.24
-89.54264809,46.24770192,524.91
-89.54264710,46.24768043,528.32
-89.54264686,46.24767512,525.10
-89.54264621,46.24766128,528.76
-89.54264563,46.24764860,535.29
-89.54264470,46.24762846,530.78
-89.54264454,46.24762504,535.36
-89.54264308,46.24759340,516.04
-89.54264049,46.24753738,526.57
-89.54264012,46.24752947,528.41
-89.54263967,46.24751976,530.62
-89.54263413,46.24739982,530.11
-89.54263345,46.24738516,527.48
-89.54262846,46.24727727,533.05
-89.54262841,46.24727628,528.08
-89.54262730,46.24725218,530.18
-89.54262688,46.24724301,530.91
-89.54262674,46.24724014,524.14
-89.54262512,46.24720498,522.70
-89.54262502,46.24720291,526.87
-89.54262376,46.24717558,525.94
-89.54262352,46.24717046,529.99
-89.54262029,46.24710059,525.59
-89.54261941,46.24708162,516.54
-89.54261815,46.24705420,534.33
-89.54261567,46.24700070,520.75
-89.54261283,46.24693929,515.76
-89.54260879,46.24685181,527.87
-89.54260771,46.24682843,530.54
-89.54260691,46.24681108,529.27
-89.54260664,46.24680542,513.30
-89.54260390,46.24674608,514.81
-89.54260081,46.24667918,517.69
-89.54260052,46.24667289,521.04
-89.54259980,46.24665742,522.38
-89.54259964,46.24665401,522.33
-89.54259929,46.24664637,523.98
-89.54259893,46.24663863,518.84
-89.54259795,46.24661741,532.71
-89.54259779,46.24661391,513.34
-89.54259727,46.24660258,532.83
-89.54259713,46.24659970,532.80
-89.54259708,46.24659862,513.99
-89.54259634,46.24658262,536.63
-89.54259616,46.24657866,515.06
-89.54259530,46.24655996,535.22
-89.54259494,46.24655223,530.69
-89.54259304,46.24651114,522.35
-89.54258929,46.24643004,532.37
-89.54258774,46.24639641,531.85
-89.54258750,46.24639129,532.48
-89.54258633,46.24636602,531.75
-89.54258554,46.24634885,530.71
-89.54258277,46.24628897,519.57
-89.54258214,46.24627548,534.10
-89.54257724,46.24616948,528.50
-89.54257706,46.24616543,511.54
-89.54257615,46.24614574,523.71
-89.54257565,46.24613495,525.38
-89.54257320,46.24608209,512.09
-89.54257306,46.24607903,512.06
-89.54257282,46.24607381,516.81
-89.54256916,46.24599469,517.32
-89.54256638,46.24593445,532.08
-89.54256544,46.24591413,512.80
-89.54256435,46.24589067,514.20
-89.54256286,46.24585839,531.58
-89.54256200,46.24583969,524.01
-89.54256026,46.24580201,515.52
-89.54255934,46.24578223,532.56
-89.54255890,46.24577279,531.93
-89.54255875,46.24576947,510.20
-89.54255866,46.24576749,531.07
-89.54255596,46.24570914,510.03
-89.54255375,46.24566121,518.10
-89.54254813,46.24553974,519.00
-89.54254800,46.24553687,517.74
-89.54254636,46.24550144,513.58
-89.54254548,46.24548238,516.19
-89.54254427,46.24545622,510.27
-89.54254163,46.24539912,510.76
-89.54253850,46.24533142,512.34
-89.54253849,46.24533115,510.66
-89.54253801,46.24532090,519.10
-89.54253603,46.24527801,510.45
-89.54253467,46.24524861,509.37
-89.54253101,46.24516949,520.91
-89.54252653,46.24507257,505.68
-89.54252387,46.24501484,509.26
-89.54252357,46.24500846,512.02
-89.54252059,46.24494390,505.53
-89.54251990,46.24492898,505.29
-89.54251886,46.24490659,508.35
-89.54251842,46.24489706,508.38
-89.54251767,46.24488079,508.46
-89.54251701,46.24486658,507.86
-89.54251678,46.24486155,508.23
-89.54251653,46.24485615,510.29
-89.54251624,46.24484986,508.28
-89.54251532,46.24482990,513.29
-89.54251414,46.24480445,507.77
-89.54251192,46.24475644,510.40
-89.54251180,46.24475383,509.68
-89.54251105,46.24473774,508.79
-89.54250861,46.24468487,511.87
-89.54250548,46.24461717,520.48
-89.54250535,46.24461429,520.31
-89.54250487,46.24460386,513.58
-89.54250462,46.24459847,516.84
-89.54250453,46.24459658,508.34
-89.54250386,46.24458210,515.53
-89.54249843,46.24446468,512.12
-89.54249822,46.24446018,514.41
-89.54249701,46.24443402,507.95
-89.54249612,46.24441460,505.46
-89.54249560,46.24440345,510.73
-89.54249248,46.24433584,505.40
-89.54249151,46.24431489,514.31
-89.54249082,46.24430005,511.94
-89.54248862,46.24425249,505.52
-89.54248747,46.24422758,505.75
-89.54248661,46.24420897,505.37
-89.54248366,46.24414523,505.44
-89.54248357,46.24414316,505.38
-89.54248295,46.24412985,505.36
-89.54248144,46.24409712,505.37
-89.54247976,46.24406080,507.42
-89.54247900,46.24404426,508.94
-89.54247869,46.24403751,507.24
-89.54247278,46.24390984,506.12
-89.54247247,46.24390310,517.26
-89.54246873,46.24382209,513.11
-89.54246759,46.24379754,511.50
-89.54246351,46.24370925,512.47
-89.54246052,46.24364451,505.70
-89.54245758,46.24358086,511.64
-89.54245704,46.24356926,506.33
-89.54245108,46.24344041,505.28
-89.54244655,46.24334223,513.57
-89.54244629,46.24333666,511.97
-89.54244482,46.24330492,509.88
-89.54244175,46.24323838,505.65
-89.54243678,46.24313094,505.44
-89.54243204,46.24302835,520.40
-89.54243199,46.24302727,505.51
-89.54243156,46.24301801,519.81
-89.54243122,46.24301073,517.97
-89.54242936,46.24297045,518.23
-89.54242668,46.24291246,507.94
-89.54242572,46.24289178,505.57
-89.54242184,46.24280780,507.62
-89.54241944,46.24275592,518.83
-89.54241720,46.24270728,511.84
-89.54241270,46.24260991,506.75
-89.54241246,46.24260487,505.35
-89.54241061,46.24256486,508.10
-89.54240790,46.24250615,516.02
-89.54240645,46.24247486,509.43
-89.54240196,46.24237776,505.77
-89.54240127,46.24236274,505.24
-89.54240035,46.24234287,512.28
-89.54239960,46.24232669,516.50
-89.54239854,46.24230358,507.08
-89.54239810,46.24229414,508.99
-89.54239731,46.24227715,505.67
-89.54239440,46.24221412,512.67
-89.54238788,46.24207296,511.16
-89.54238600,46.24203241,505.33
-89.54238561,46.24202396,506.61
-89.54238315,46.24197064,505.45
-89.54238210,46.24194789,511.01
-89.54237956,46.24189314,511.66
-89.54237933,46.24188801,505.56
-89.54237789,46.24185699,514.56
-89.54237646,46.24182606,507.99
-89.54237626,46.24182157,511.23
-89.54237477,46.24178938,515.87
-89.54237021,46.24169084,506.36
-89.54236408,46.24155822,513.17
-89.54236285,46.24153161,522.09
-89.54236175,46.24150778,509.66
-89.54236008,46.24147155,508.29
-89.54235978,46.24146507,505.74
-89.54235929,46.24145455,506.64
-89.54235806,46.24142785,508.27
-89.54235453,46.24135152,509.39
-89.54235259,46.24131223,506.63
-89.54235198,46.24130756,508.19
-89.54234963,46.24130158,506.87
-89.54234934,46.24130105,505.74
-89.54229453,46.24130218,510.42
-89.54223181,46.24130357,530.34
-89.54218088,46.24130471,521.52
-89.54216818,46.24130499,516.46
-89.54215963,46.24130518,521.32
-89.54206283,46.24130733,527.38
-89.54205882,46.24130742,509.87
-89.54192509,46.24131040,528.35
-89.54192003,46.24131051,528.63
-89.54188349,46.24131132,516.64
-89.54186768,46.24131168,525.66
-89.54177685,46.24131370,515.46
-89.54171167,46.24131515,515.95
-89.54169845,46.24131544,520.39
-89.54164986,46.24131652,524.54
-89.54160269,46.24131757,516.12
-89.54156433,46.24131842,509.11
-89.54156213,46.24131847,510.73
-89.54107218,46.24132937,506.11
-89.54092225,46.24133270,506.34
-89.54079008,46.24133564,506.10
-89.54053052,46.24134142,510.37
-89.54045303,46.24134314,526.49
-89.54036919,46.24134500,508.29
-89.54032034,46.24134609,516.29
-89.54026812,46.24134725,518.70
-89.54026358,46.24134735,514.88
-89.54026255,46.24134737,515.53
-89.54025814,46.24134747,524.69
-89.54021590,46.24134841,508.32
-89.54010044,46.24135098,520.25
-89.54006662,46.24135173,519.27
-89.53996723,46.24135394,508.70
-89.53996166,46.24135406,510.62
-89.53992563,46.24135486,511.37
-89.53958936,46.24136234,509.23
-89.53949140,46.24136452,510.96
-89.53940147,46.24136652,525.37
-89.53936752,46.24136727,508.90
-89.53935819,46.24136748,514.23
-89.53928705,46.24136906,518.69
-89.53915513,46.24137199,508.97
-89.53912209,46.24137272,506.46
-89.53877196,46.24138050,510.58
-89.53820257,46.24139316,507.44
-89.53768865,46.24140457,510.16
-89.53763137,46.24140584,510.49
-89.53759146,46.24140673,511.23
-89.53747030,46.24140942,526.46
-89.53734305,46.24141225,529.08
-89.53726322,46.24141402,528.64
-89.53722228,46.24141493,513.84
-89.53720958,46.24141521,530.35
-89.53700600,46.24141973,530.56
-89.53698916,46.24142010,531.08
-89.53691542,46.24142174,529.33
-89.53687512,46.24142264,515.09
-89.53680372,46.24142422,511.44
-89.53673180,46.24142582,533.11
-89.53671198,46.24142626,531.10
-89.53670887,46.24142633,531.21
-89.53668580,46.24142684,509.15
-89.53667155,46.24142716,517.37
-89.53666948,46.24142720,519.83
-89.53656283,46.24142957,529.26
-89.53651410,46.24143065,514.21
-89.53650594,46.24143083,518.03
-89.53641368,46.24143288,512.00
-89.53639903,46.24143321,530.72
-89.53631934,46.24143498,509.62
-89.53631727,46.24143502,512.37
-89.53619663,46.24143770,518.71
-89.53609503,46.24143995,523.02
-89.53604048,46.24144117,529.03
-89.53591245,46.24144401,517.21
-89.53590999,46.24144406,518.54
-89.53587980,46.24144473,534.51
-89.53584559,46.24144549,511.69
-89.53583250,46.24144578,528.79
-89.53582939,46.24144585,532.21
-89.53582835,46.24144587,532.32
-89.53572870,46.24144809,533.36
-89.53564460,46.24144995,526.99
-89.53563320,46.24145021,519.89
-89.53560184,46.24145090,515.99
-89.53548081,46.24145359,511.90
-89.53541278,46.24145510,513.07
-89.53525909,46.24145851,531.03
-89.53515063,46.24146091,531.29
-89.53514713,46.24146099,531.63
-89.53513158,46.24146134,524.76
-89.53511953,46.24146160,524.31
-89.53501742,46.24146387,510.39
-89.53500407,46.24146417,527.77
-89.53492464,46.24146593,514.60
-89.53491259,46.24146620,518.52
-89.53486283,46.24146730,513.13
-89.53484805,46.24146763,526.16
-89.53474361,46.24146994,532.78
-89.53474115,46.24147000,526.16
-89.53467350,46.24147150,530.02
-89.53460366,46.24147305,513.19
-89.53439814,46.24147761,519.03
-89.53428942,46.24148002,527.60
-89.53408882,46.24148447,528.53
-89.53405086,46.24148531,507.71
-89.53362608,46.24149473,519.17
-89.53350298,46.24149746,532.79
-89.53308831,46.24150665,522.67
-89.53308287,46.24150678,528.58
-89.53289808,46.24151087,511.48
-89.53279014,46.24151326,509.26
-89.53258475,46.24151782,505.78
-89.53250622,46.24151956,521.67
-89.53250246,46.24151964,525.73
-89.53241409,46.24152160,514.75
-89.53221012,46.24152612,527.21
-89.53218770,46.24152662,519.50
-89.53217474,46.24152690,526.85
-89.53215388,46.24152737,521.93
-89.53213872,46.24152770,510.22
-89.53211462,46.24152824,525.85
-89.53211190,46.24152830,505.09
-89.53207665,46.24152908,511.57
-89.53202482,46.24153023,504.43
-89.53186478,46.24153377,504.35
-89.53184314,46.24153425,506.49
-89.53164721,46.24153860,504.34
-89.53164553,46.24153863,507.07
-89.53153253,46.24154114,512.42
-89.53147720,46.24154236,509.84
-89.53140282,46.24154401,518.24
-89.53138014,46.24154451,514.93
-89.53120714,46.24154835,509.18
-89.53120066,46.24154849,509.39
-89.53114844,46.24154965,504.39
-89.53114196,46.24154979,505.38
-89.53114067,46.24154982,508.79
-89.53113963,46.24154984,507.50
-89.53105086,46.24155181,507.82
-89.53103791,46.24155209,505.71
-89.53097804,46.24155342,504.98
-89.53095899,46.24155384,505.07
-89.53084094,46.24155646,505.08
-89.53080802,46.24155719,504.47
-89.53080764,46.24155720,505.38
-89.53061313,46.24156150,511.34
-89.53046100,46.24156487,507.76
-89.53029850,46.24156847,516.66
-89.53028580,46.24156875,518.17
-89.53023267,46.24156993,517.55
-89.53015142,46.24157173,511.11
-89.53013496,46.24157209,506.91
-89.53008313,46.24157324,503.98
-89.52998180,46.24157548,504.36
-89.52996119,46.24157594,509.73
-89.52990871,46.24157710,506.17
-89.52984871,46.24157843,505.12
-89.52974168,46.24158080,508.58
-89.52972457,46.24158118,504.03
-89.52972250,46.24158123,505.21
-89.52971563,46.24158138,509.05
-89.52969334,46.24158187,504.32
-89.52968155,46.24158213,511.10
-89.52967805,46.24158221,506.12
-89.52967779,46.24158222,513.21
-89.52951063,46.24158592,515.40
-89.52950946,46.24158594,516.10
-89.52950221,46.24158610,514.24
-89.52950117,46.24158613,515.78
-89.52949288,46.24158631,510.84
-89.52944674,46.24158733,517.26
-89.52941126,46.24158866,503.96
-89.52940453,46.24158899,508.53
-89.52940182,46.24158914,510.33
-89.52939625,46.24159214,505.16
-89.52939539,46.24159333,509.79
-89.52939460,46.24159857,509.53
-89.52939600,46.24163184,509.33
-89.52939696,46.24165279,516.38
-89.52939769,46.24166870,505.08
-89.52939789,46.24167302,517.46
-89.52940246,46.24177237,518.10
-89.52940247,46.24177255,516.30
-89.52940684,46.24186767,512.66
-89.52940737,46.24187909,509.49
-89.52940785,46.24188952,508.47
-89.52941019,46.24194050,504.77
-89.52941040,46.24194500,506.94
-89.52941077,46.24195318,518.45
-89.52941120,46.24196244,519.94
-89.52941170,46.24197341,510.95
-89.52941186,46.24197692,504.03
-89.52941229,46.24198627,505.95
-89.52941330,46.24200812,514.48
-89.52941437,46.24203149,516.27
-89.52941439,46.24203194,510.87
-89.52941536,46.24205298,513.79
-89.52941657,46.24207924,505.65
-89.52941707,46.24209003,512.80
-89.52942211,46.24219972,509.45
-89.52942268,46.24221204,504.15
-89.52942615,46.24228756,506.14
-89.52942726,46.24231175,503.84
-89.52942935,46.24235706,508.71
-89.52943722,46.24252835,504.01
-89.52943769,46.24253851,506.85
-89.52943976,46.24258346,505.45
-89.52944373,46.24266987,506.02
-89.52944495,46.24269639,503.94
-89.52944619,46.24272337,503.90
-89.52944724,46.24274611,504.12
-89.52944918,46.24278837,504.13
-89.52945108,46.24282973,506.00
-89.52945685,46.24295516,504.41
-89.52945772,46.24297404,504.78
-89.52945867,46.24299472,506.22
-89.52946080,46.24304102,504.75
-89.52946185,46.24306395,515.72
-89.52946214,46.24307025,505.56
-89.52946252,46.24307852,517.72
-89.52946258,46.24307978,507.35
-89.52946663,46.24316780,510.77
-89.52946960,46.24323236,514.99
-89.52947650,46.24338242,507.67
-89.52947725,46.24339869,504.46
-89.52947754,46.24340499,507.65
-89.52947929,46.24344302,503.94
-89.52948042,46.24346774,504.01
-89.52948426,46.24355118,504.01
-89.52948543,46.24357672,508.97
-89.52948739,46.24361925,508.57
-89.52948758,46.24362329,508.29
-89.52948771,46.24362626,509.91
-89.52948784,46.24362905,505.13
-89.52949228,46.24372552,508.91
-89.52949238,46.24372768,504.63
-89.52949480,46.24378028,505.06
-89.52949709,46.24383018,506.12
-89.52950378,46.24397566,511.41
-89.52950380,46.24397602,508.88
-89.52950996,46.24410989,505.43
-89.52951433,46.24420502,506.18
-89.52951495,46.24421860,508.43
-89.52951616,46.24424485,506.64
-89.52951724,46.24426832,504.84
-89.52951927,46.24431238,505.20
-89.52951948,46.24431705,505.11
-89.52952220,46.24437621,507.09
-89.52952488,46.24443448,512.16
-89.52952690,46.24447826,520.22
-89.52952701,46.24448069,515.49
-89.52952866,46.24451657,514.96
-89.52953511,46.24465692,505.46
-89.52953512,46.24465710,517.70
-89.52953922,46.24474620,518.14
-89.52953930,46.24474800,518.03
-89.52953994,46.24476193,516.16
-89.52954114,46.24478801,503.78
-89.52954210,46.24480887,510.24
-89.52954534,46.24487927,507.77
-89.52954671,46.24490912,507.42
-89.52954711,46.24491784,503.59
-89.52955032,46.24498761,511.07
-89.52955212,46.24502664,503.69
-89.52955435,46.24507510,508.69
-89.52955464,46.24508148,513.48
-89.52955580,46.24510675,504.06
-89.52955665,46.24512527,509.13
-89.52956272,46.24525717,520.11
-89.52956414,46.24528801,521.06
-89.52956509,46.24530869,523.59
-89.52956600,46.24532838,527.22
-89.52956601,46.24532874,514.34
-89.52957341,46.24548959,510.93
-89.52957641,46.24555487,514.56
-89.52957816,46.24559281,508.05
-89.52957994,46.24563147,509.35
-89.52958085,46.24565125,508.96
-89.52958407,46.24572138,523.78
-89.52958694,46.24578369,513.91
-89.52958886,46.24582541,516.59
-89.52958935,46.24583611,516.99
-89.52958965,46.24584276,521.40
-89.52959333,46.24592270,507.91
-89.52959355,46.24592746,509.11
-89.52959400,46.24593735,513.31
-89.52959614,46.24598384,509.82
-89.52959776,46.24601899,515.08
-89.52960073,46.24608364,525.29
-89.52960113,46.24609227,531.33
-89.52960174,46.24610549,525.64
-89.52960548,46.24618686,512.85
-89.52960587,46.24619540,511.79
-89.52960988,46.24628252,525.34
-89.52961291,46.24634834,510.20
-89.52961346,46.24636030,522.34
-89.52961383,46.24636830,523.87
-89.52961493,46.24639239,523.07
-89.52961559,46.24640669,519.60
-89.52961771,46.24645272,511.46
-89.52961823,46.24646414,518.74
-89.52961841,46.24646801,522.64
-89.52962005,46.24650361,522.52
-89.52962059,46.24651530,522.52
-89.52962209,46.24654803,512.54
-89.52962298,46.24656736,520.20
-89.52962596,46.24663201,513.35
-89.52962842,46.24668560,524.79
-89.52962964,46.24671203,520.15
-89.52963009,46.24672183,519.95
-89.52963103,46.24674224,513.17
-89.52963126,46.24674737,512.85
-89.52963591,46.24684852,519.45
-89.52964305,46.24700361,505.19
-89.52964349,46.24701314,502.36
-89.52964552,46.24705729,510.26
-89.52964595,46.24706673,514.61
-89.52964951,46.24714415,503.68
-89.52964973,46.24714882,503.68
-89.52965045,46.24716456,503.83
-89.52965942,46.24735669,502.64
-89.52967365,46.24766617,502.83
-89.52968908,46.24800442,503.12
-89.52969240,46.24807662,504.78
-89.52969552,46.24814423,504.33
-89.52970012,46.24824440,509.93
-89.52970445,46.24833844,508.12
-89.52970686,46.24839077,509.73
-89.52970689,46.24839140,510.12
-89.52970778,46.24841082,507.02
-89.52970823,46.24842062,503.48
-89.52970945,46.24844715,504.83
-89.52971032,46.24846612,518.52
-89.52971209,46.24850460,504.85
-89.52971353,46.24853589,504.43
-89.52972105,46.24869926,518.43
-89.52972115,46.24870151,503.16
-89.52972384,46.24875986,506.99
-89.52972398,46.24876292,519.86
-89.52972463,46.24877712,513.38
-89.52972482,46.24878135,511.69
-89.52972689,46.24882630,518.37
-89.52972700,46.24882855,519.14
-89.52972849,46.24886110,507.33
-89.52972970,46.24888744,504.47
-89.52973042,46.24890300,503.39
-89.52973373,46.24897493,519.64
-89.52973458,46.24899354,517.31
-89.52973507,46.24900415,512.74
-89.52973675,46.24904065,517.80
-89.52973871,46.24908327,507.71
-89.52974188,46.24915205,517.02
-89.52974251,46.24916572,504.49
-89.52974449,46.24920888,506.53
-89.52974641,46.24925060,503.76
-89.52974769,46.24927847,512.08
-89.52975010,46.24933071,514.03
-89.52975033,46.24933574,514.16
-89.52975163,46.24936398,512.53
-89.52975460,46.24942871,503.41
-89.52975597,46.24945847,518.59
-89.52975774,46.24949695,518.48
-89.52975810,46.24950478,508.76
-89.52975859,46.24951530,507.66
-89.52975886,46.24952123,519.59
-89.52976001,46.24954614,521.77
-89.52976029,46.24955234,519.39
-89.52976245,46.24959936,521.64
-89.52976273,46.24960539,505.06
-89.52976443,46.24964234,508.82
-89.52976538,46.24966293,515.57
-89.52976640,46.24968505,508.79
-89.52976980,46.24975905,514.25
-89.52976999,46.24976318,507.25
-89.52977108,46.24978683,525.97
-89.52977127,46.24979097,508.04
-89.52977190,46.24980463,519.10
-89.52977473,46.24986613,504.47
-89.52977935,46.24996665,517.14
-89.52977952,46.24997034,504.68
-89.52977964,46.24997295,517.46
-89.52978800,46.25015466,503.60
-89.52978978,46.25019332,510.12
-89.52979061,46.25021148,521.48
-89.52979130,46.25022641,511.75
-89.52979282,46.25025932,505.99
-89.52979307,46.25026489,515.44
-89.52979677,46.25034527,503.67
-89.52979684,46.25034680,522.42
-89.52980190,46.25045676,506.40
-89.52980424,46.25050774,521.93
-89.52980550,46.25053498,515.32
-89.52980601,46.25054604,506.38
-89.52980708,46.25056942,506.10
-89.52980780,46.25057652,520.06
-89.52980871,46.25057667,521.24
-89.52982032,46.25057804,521.17
-89.52982853,46.25057876,519.85
-89.52991888,46.25057703,516.88
-89.52995271,46.25057637,515.86
-89.52999107,46.25057552,519.91
-89.53006819,46.25057381,519.49
-89.53007246,46.25057371,522.88
-89.53011147,46.25057285,521.52
-89.53015398,46.25057191,517.70
-89.53027815,46.25056916,511.82
-89.53029474,46.25056879,510.89
-89.53035759,46.25056740,515.78
-89.53045661,46.25056521,519.01
-89.53046322,46.25056506,523.92
-89.53047968,46.25056470,521.01
-89.53062043,46.25056158,519.30
-89.53066113,46.25056068,509.73
-89.53089247,46.25055555,503.41
-89.53096207,46.25055401,502.51
-89.53100393,46.25055308,502.54
-89.53117605,46.25054927,505.34
-89.53120728,46.25054858,515.47
-89.53123787,46.25054790,518.01
-89.53141258,46.25054403,516.29
-89.53150978,46.25054188,522.29
-89.53151069,46.25054186,522.87
-89.53151199,46.25054183,523.69
-89.53156253,46.25054071,528.41
-89.53161360,46.25053958,525.85
-89.53165455,46.25053867,524.94
-89.53176640,46.25053619,537.89
-89.53179803,46.25053549,526.36
-89.53179919,46.25053547,527.23
-89.53180165,46.25053541,529.04
-89.53180554,46.25053532,531.96
-89.53180852,46.25053526,534.14
-89.53180982,46.25053523,535.09
-89.53181228,46.25053518,536.98
-89.53191260,46.25053295,523.70
-89.53206488,46.25052958,539.08
-89.53209547,46.25052890,532.00
-89.53211413,46.25052849,535.99
-89.53215159,46.25052766,530.94
-89.53215353,46.25052761,532.91
-89.53215483,46.25052758,534.17
-89.53237243,46.25052276,541.15
-89.53285042,46.25051217,544.28
-89.53311092,46.25050639,541.39
-89.53316795,46.25050513,532.63
-89.53329781,46.25050225,539.51
-89.53335147,46.25050106,528.14
-89.53367587,46.25049387,537.49
-89.53384993,46.25049001,532.61
-89.53390825,46.25048871,524.03
-89.53396255,46.25048751,528.31
-89.53407751,46.25048496,515.60
-89.53408063,46.25048489,518.51
-89.53409631,46.25048454,532.71
-89.53414724,46.25048341,528.82
-89.53431663,46.25047965,531.26
-89.53442719,46.25047720,522.02
-89.53443561,46.25047702,529.41
-89.53443820,46.25047696,531.83
-89.53448655,46.25047589,529.78
-89.53455083,46.25047446,521.72
-89.53465089,46.25047224,528.42
-89.53471634,46.25047079,533.19
-89.53471958,46.25047072,529.31
-89.53480330,46.25046886,513.52
-89.53486564,46.25046748,522.36
-89.53487005,46.25046738,526.49
-89.53489597,46.25046680,534.71
-89.53498863,46.25046475,530.54
-89.53504436,46.25046351,526.67
-89.53512666,46.25046168,528.24
-89.53513898,46.25046141,529.52
-89.53531200,46.25045757,535.02
-89.53531303,46.25045755,532.14
-89.53541218,46.25045535,532.23
-89.53544251,46.25045468,536.56
-89.53547984,46.25045385,538.17
-89.53552235,46.25045290,538.84
-89.53577611,46.25044727,528.03
-89.53581940,46.25044631,520.65
-89.53586917,46.25044521,516.04
-89.53592425,46.25044399,520.32
-89.53592891,46.25044388,525.06
-89.53597778,46.25044280,527.00
-89.53602184,46.25044182,519.82
-89.53602301,46.25044179,521.56
-89.53618009,46.25043831,524.24
     </coordinates>
    </LineString>
   </MultiGeometry>
  </Placemark>
 </Document>
</kml>
