<kml>
 <Document>
  <Style id="yellow">
   <LineStyle>
   <color>ff00ffff</color>
   <width>1</width>
   </LineStyle>
  </Style>
  <Style id="red">
   <LineStyle>
   <color>ffff0000</color>
   <width>2</width>
   </LineStyle>
  </Style>
  <Style id="green">
   <LineStyle>
   <color>ff00ff00</color>
   <width>1</width>
   </LineStyle>
  </Style>
  <Placemark>
  <styleUrl>#yellow</styleUrl>
   <MultiGeometry>
    <LineString>
     <coordinates>
-89.53382118,46.21448926,502.77
-89.53400859,46.21448510,502.79
-89.53424017,46.21447988,502.82
-89.53442240,46.21447565,502.81
-89.53489243,46.21446541,502.84
-89.53503206,46.21446240,502.77
-89.53541349,46.21445375,502.77
-89.53565012,46.21444841,502.82
-89.53586950,46.21444309,502.83
-89.53645301,46.21443059,502.79
-89.53659316,46.21442775,502.73
-89.53669133,46.21442539,502.82
-89.53717559,46.21441446,502.78
-89.53741949,46.21440940,502.82
-89.53764978,46.21440428,502.87
-89.53809831,46.21439432,502.79
-89.53847028,46.21438597,502.81
-89.53886933,46.21437719,502.81
-89.53909962,46.21437207,502.81
-89.53934221,46.21436668,502.81
-89.53943870,46.21436454,502.79
-89.53947341,46.21436376,502.81
-89.53957482,46.21436151,502.83
-89.53967611,46.21435926,502.80
-89.53985472,46.21435529,526.42
-89.54005521,46.21435083,513.87
-89.54006104,46.21435070,523.43
-89.54006195,46.21435068,525.29
-89.54008047,46.21435027,521.58
-89.54028122,46.21434581,520.49
-89.54031088,46.21434515,521.63
-89.54031257,46.21434511,524.31
-89.54033497,46.21434461,521.53
-89.54033653,46.21434458,524.29
-89.54045206,46.21434201,527.37
-89.54046734,46.21434167,524.77
-89.54048664,46.21434124,528.18
-89.54062341,46.21433820,520.15
-89.54063727,46.21433789,529.43
-89.54075941,46.21433517,505.56
-89.54076109,46.21433514,530.24
-89.54077119,46.21433491,533.05
-89.54087520,46.21433260,514.75
-89.54092933,46.21433139,525.74
-89.54100161,46.21432979,523.45
-89.54110626,46.21432746,529.27
-89.54110332,46.21426101,532.37
-89.54110205,46.21423350,525.19
-89.54110203,46.21423296,530.35
-89.54110184,46.21422891,529.53
-89.54110056,46.21420113,529.52
-89.54110025,46.21419448,534.70
-89.54109705,46.21412516,531.71
-89.54109632,46.21410924,533.80
-89.54109369,46.21405233,539.41
-89.54108983,46.21396880,528.40
-89.54108847,46.21393922,537.70
-89.54108819,46.21393328,537.49
-89.54108548,46.21387439,534.84
-89.54108522,46.21386891,534.60
-89.54108520,46.21386837,536.37
-89.54108429,46.21384868,536.33
-89.54108371,46.21383609,531.21
-89.54108221,46.21380363,530.08
-89.54108116,46.21378079,533.40
-89.54108071,46.21377108,531.67
-89.54107769,46.21370572,531.11
-89.54107738,46.21369898,536.62
-89.54107507,46.21364899,536.55
-89.54107452,46.21363703,517.41
-89.54107112,46.21356321,537.73
-89.54107034,46.21354649,537.00
-89.54106945,46.21352715,535.57
-89.54106809,46.21349757,513.61
-89.54106798,46.21349533,519.46
-89.54105733,46.21326461,535.86
-89.54105679,46.21325283,537.56
-89.54105561,46.21322721,538.60
-89.54105496,46.21321309,538.65
-89.54105188,46.21314647,540.37
-89.54105146,46.21313730,537.96
-89.54105032,46.21311257,539.12
-89.54104801,46.21306267,538.28
-89.54104543,46.21300675,539.10
-89.54104541,46.21300630,541.62
-89.54104533,46.21300441,536.27
-89.54104418,46.21297959,538.32
-89.54104368,46.21296871,538.23
-89.54104345,46.21296377,537.44
-89.54104032,46.21289598,534.32
-89.54103661,46.21281551,528.55
-89.54103522,46.21278539,537.67
-89.54103455,46.21277082,536.04
-89.54103099,46.21269377,529.64
-89.54103074,46.21268828,529.19
-89.54103055,46.21268415,526.79
-89.54102163,46.21249102,516.70
-89.54102130,46.21248382,533.10
-89.54102019,46.21245982,530.39
-89.54101667,46.21238348,530.50
-89.54101368,46.21231866,506.78
-89.54101343,46.21231335,506.80
-89.54101109,46.21226264,506.87
-89.54100961,46.21223045,507.04
-89.54100834,46.21220294,508.62
-89.54100375,46.21210359,531.30
-89.54100310,46.21208947,530.84
-89.54100178,46.21206079,507.16
-89.54099473,46.21190812,530.99
-89.54099246,46.21185885,531.64
-89.54099134,46.21183448,530.01
-89.54098986,46.21180256,532.17
-89.54098817,46.21176597,525.81
-89.54098531,46.21170393,527.10
-89.54098481,46.21169305,530.63
-89.54098368,46.21166860,526.44
-89.54098299,46.21165358,525.25
-89.54098263,46.21164585,529.47
-89.54097953,46.21157859,529.81
-89.54097767,46.21153840,511.47
-89.54097581,46.21149794,529.18
-89.54097289,46.21143483,531.81
-89.54097212,46.21141801,528.98
-89.54097042,46.21138115,527.09
-89.54096896,46.21134959,526.64
-89.54096575,46.21128009,505.34
-89.54096440,46.21125078,521.73
-89.54096376,46.21123693,506.68
-89.54096097,46.21117642,528.35
-89.54096043,46.21116473,528.70
-89.54095840,46.21112077,530.26
-89.54095467,46.21103993,512.53
-89.54095209,46.21098392,534.37
-89.54094828,46.21090138,532.88
-89.54094787,46.21089257,529.23
-89.54094624,46.21085723,522.98
-89.54094307,46.21078845,516.59
-89.54094134,46.21075096,516.83
-89.54093717,46.21066069,516.99
-89.54093452,46.21060332,521.98
-89.54093184,46.21054515,538.14
-89.54092420,46.21037962,516.70
-89.54091650,46.21021284,516.86
-89.54090753,46.21001836,517.53
-89.54090449,46.20995246,538.27
-89.54090422,46.20994670,538.08
-89.54090384,46.20993834,530.45
-89.54089177,46.20967679,537.46
-89.54089131,46.20966681,536.69
-89.54088587,46.20954893,532.77
-89.54088486,46.20952699,529.21
-89.54088334,46.20949409,531.31
-89.54088252,46.20947628,532.81
-89.54088180,46.20946064,530.90
-89.54087015,46.20920817,535.38
-89.54086840,46.20917022,531.68
-89.54086763,46.20915359,535.67
-89.54086536,46.20910450,527.57
-89.54085452,46.20886956,517.34
-89.54085188,46.20881229,534.25
-89.54085186,46.20881175,537.19
-89.54084970,46.20876508,540.14
-89.54084658,46.20869729,538.79
-89.54084643,46.20869405,528.94
-89.54084582,46.20868084,540.03
-89.54084501,46.20866330,536.28
-89.54084375,46.20863615,535.59
-89.54084183,46.20859434,520.70
-89.54083629,46.20847431,530.63
-89.54083059,46.20835086,536.93
-89.54082949,46.20832703,535.50
-89.54082479,46.20822516,525.97
-89.54082358,46.20819882,523.20
-89.54081932,46.20810666,539.13
-89.54081797,46.20807735,519.46
-89.54081604,46.20803554,531.19
-89.54081453,46.20800263,530.24
-89.54081306,46.20797089,528.73
-89.54081205,46.20794896,524.84
-89.54081123,46.20793124,524.17
-89.54080927,46.20788872,533.13
-89.54080859,46.20787406,537.28
-89.54080443,46.20778379,524.54
-89.54080215,46.20773443,522.63
-89.54080181,46.20772714,539.72
-89.54080101,46.20770970,539.68
-89.54079945,46.20767590,543.32
-89.54079647,46.20761134,514.23
-89.54079388,46.20755514,536.54
-89.54078650,46.20739510,541.58
-89.54078581,46.20738027,534.12
-89.54078572,46.20737838,540.43
-89.54078468,46.20735572,530.83
-89.54078231,46.20730447,529.32
-89.54078183,46.20729404,534.98
-89.54077710,46.20719154,518.43
-89.54077314,46.20710568,541.57
-89.54077068,46.20705227,540.78
-89.54076625,46.20695633,535.36
-89.54076624,46.20695606,537.24
-89.54076264,46.20687811,533.20
-89.54076177,46.20685923,532.36
-89.54076174,46.20685842,539.86
-89.54075986,46.20681778,539.19
-89.54075888,46.20679656,528.42
-89.54075594,46.20673281,533.65
-89.54075484,46.20670890,533.75
-89.54075284,46.20666556,530.84
-89.54075148,46.20663616,538.43
-89.54075017,46.20660766,536.49
-89.54075008,46.20660577,515.03
-89.54074996,46.20660307,536.86
-89.54074890,46.20658023,535.10
-89.54074768,46.20655371,520.56
-89.54074732,46.20654589,532.12
-89.54074529,46.20650201,521.79
-89.54074526,46.20650120,513.66
-89.54074413,46.20647683,531.95
-89.54074226,46.20643637,510.31
-89.54074135,46.20641650,532.81
-89.54073791,46.20634188,534.54
-89.54073408,46.20625907,528.66
-89.54073361,46.20624873,528.46
-89.54073310,46.20623767,532.91
-89.54073146,46.20620215,531.20
-89.54072869,46.20614209,526.15
-89.54072821,46.20613175,528.14
-89.54072361,46.20603204,526.99
-89.54072201,46.20599734,510.37
-89.54071590,46.20586499,524.09
-89.54071529,46.20585159,516.85
-89.54071514,46.20584835,524.08
-89.54071349,46.20581257,510.26
-89.54071276,46.20579692,516.69
-89.54071145,46.20576851,527.31
-89.54071058,46.20574963,520.38
-89.54070668,46.20566493,512.63
-89.54070531,46.20563526,518.56
-89.54070189,46.20556126,524.04
-89.54070136,46.20554976,529.53
-89.54070084,46.20553852,529.30
-89.54069741,46.20546398,530.54
-89.54069656,46.20544555,528.02
-89.54069182,46.20534575,523.18
-89.54069062,46.20533651,515.81
-89.54047267,46.20534126,527.25
-89.54038565,46.20534320,524.33
-89.54037218,46.20534350,529.21
-89.54021795,46.20534693,519.86
-89.54015579,46.20534831,521.47
-89.54014996,46.20534844,521.35
-89.54010347,46.20534947,506.30
-89.54006734,46.20535028,519.91
-89.54005633,46.20535052,523.85
-89.54004170,46.20535085,506.22
-89.54000583,46.20535164,522.63
-89.54000207,46.20535173,522.60
-89.53996322,46.20535259,520.15
-89.53996271,46.20535260,506.24
-89.53986545,46.20535476,520.37
-89.53984797,46.20535515,526.30
-89.53982078,46.20535576,519.45
-89.53975124,46.20535730,507.48
-89.53965450,46.20535945,506.35
-89.53933140,46.20536663,528.68
-89.53917950,46.20537001,506.86
-89.53917083,46.20537020,532.21
-89.53914596,46.20537076,519.06
-89.53897697,46.20537451,521.95
-89.53885459,46.20537723,532.56
-89.53880370,46.20537836,528.80
-89.53863665,46.20538207,532.53
-89.53854937,46.20538401,525.85
-89.53838179,46.20538774,529.00
-89.53828817,46.20538982,527.35
-89.53823132,46.20539108,529.83
-89.53792739,46.20539783,529.63
-89.53787468,46.20539900,530.55
-89.53784723,46.20539961,521.02
-89.53781718,46.20540028,532.53
-89.53746339,46.20540814,510.88
-89.53743024,46.20540887,511.10
-89.53738155,46.20540996,511.33
-89.53728378,46.20541213,530.16
-89.53726578,46.20541253,534.38
-89.53719339,46.20541413,534.95
-89.53714224,46.20541527,511.77
-89.53712981,46.20541555,531.49
-89.53703203,46.20541772,534.30
-89.53696236,46.20541927,531.74
-89.53687456,46.20542121,529.48
-89.53676384,46.20542367,516.91
-89.53673445,46.20542433,528.90
-89.53673147,46.20542439,530.20
-89.53670453,46.20542499,514.63
-89.53660145,46.20542728,527.17
-89.53658734,46.20542759,527.09
-89.53653230,46.20542881,523.52
-89.53649591,46.20542962,524.71
-89.53648944,46.20542977,523.09
-89.53648037,46.20542997,526.91
-89.53644515,46.20543075,528.54
-89.53625699,46.20543493,522.37
-89.53624054,46.20543529,519.87
-89.53623782,46.20543535,504.10
-89.53621529,46.20543585,521.83
-89.53617644,46.20543671,520.04
-89.53616168,46.20543704,507.31
-89.53614937,46.20543732,508.01
-89.53608152,46.20543882,507.77
-89.53604306,46.20543968,505.39
-89.53599022,46.20544085,510.42
-89.53590915,46.20544265,508.33
-89.53575453,46.20544608,507.44
-89.53567217,46.20544791,510.41
-89.53549683,46.20545180,510.05
-89.53545267,46.20545278,507.37
-89.53541641,46.20545358,508.25
-89.53541136,46.20545370,510.52
-89.53539634,46.20545403,517.36
-89.53536927,46.20545463,508.44
-89.53536138,46.20545480,514.89
-89.53528264,46.20545655,517.02
-89.53528044,46.20545660,518.16
-89.53526969,46.20545684,517.44
-89.53526788,46.20545688,518.25
-89.53507544,46.20546115,512.47
-89.53506560,46.20546137,516.86
-89.53506314,46.20546142,517.94
-89.53496291,46.20546365,515.19
-89.53495384,46.20546385,519.56
-89.53487796,46.20546553,518.20
-89.53483082,46.20546658,524.17
-89.53482616,46.20546668,526.22
-89.53477902,46.20546773,522.45
-89.53477164,46.20546789,521.76
-89.53466765,46.20547020,520.08
-89.53460096,46.20547168,522.37
-89.53440062,46.20547612,509.06
-89.53412933,46.20548214,515.06
-89.53399737,46.20548507,514.71
-89.53399659,46.20548508,515.63
-89.53375352,46.20549047,522.49
-89.53372257,46.20549116,516.67
-89.53367854,46.20549214,510.65
-89.53365251,46.20549271,504.05
-89.53355655,46.20549484,504.36
-89.53347290,46.20549670,504.32
-89.53341048,46.20549808,510.99
-89.53319214,46.20550292,504.39
-89.53313918,46.20550410,506.01
-89.53291942,46.20550897,504.28
-89.53276570,46.20551238,510.13
-89.53275573,46.20551260,516.29
-89.53255294,46.20551709,506.60
-89.53242771,46.20551987,504.23
-89.53221676,46.20552455,507.02
-89.53213737,46.20552630,504.32
-89.53196358,46.20553016,505.19
-89.53190907,46.20553136,509.42
-89.53186892,46.20553225,504.62
-89.53165408,46.20553701,505.15
-89.53160565,46.20553809,504.47
-89.53147822,46.20554091,504.71
-89.53143639,46.20554184,504.38
-89.53116445,46.20554786,504.49
-89.53085688,46.20555468,504.46
-89.53081765,46.20555555,504.46
-89.53073036,46.20555748,504.38
-89.53069009,46.20555837,504.72
-89.53067766,46.20555865,510.00
-89.53051034,46.20556235,507.50
-89.53047564,46.20556312,504.45
-89.53043277,46.20556407,507.94
-89.53042941,46.20556415,509.25
-89.53038810,46.20556506,506.13
-89.53035482,46.20556580,504.36
-89.53025225,46.20556807,504.44
-89.53008067,46.20557187,505.34
-89.52999520,46.20557376,505.29
-89.52998108,46.20557407,504.86
-89.52994884,46.20557479,504.48
-89.52968595,46.20558061,504.51
-89.52963907,46.20558165,504.62
-89.52949157,46.20558491,505.99
-89.52934110,46.20558825,504.59
-89.52921354,46.20559107,505.61
-89.52917430,46.20559194,504.48
-89.52913325,46.20559285,504.56
-89.52901191,46.20559553,507.31
-89.52897202,46.20559642,504.64
-89.52889173,46.20559819,504.52
-89.52888150,46.20559842,504.67
-89.52884524,46.20559922,504.49
-89.52881779,46.20559983,504.53
-89.52841427,46.20560876,506.13
-89.52831196,46.20561102,504.79
-89.52777363,46.20562294,507.54
-89.52776705,46.20562353,504.63
-89.52775866,46.20562435,510.33
-89.52774359,46.20562648,511.43
-89.52774336,46.20562703,510.22
-89.52774268,46.20564063,504.75
-89.52774588,46.20571310,504.43
-89.52774995,46.20580167,504.47
-89.52775902,46.20599939,506.16
-89.52776352,46.20609748,507.15
-89.52777898,46.20643420,506.39
-89.52778633,46.20659434,504.69
-89.52779322,46.20674458,504.77
-89.52779886,46.20686731,504.73
-89.52780265,46.20695003,504.74
-89.52780373,46.20697341,507.59
-89.52780694,46.20704345,504.76
-89.52780935,46.20709605,506.61
-89.52781316,46.20717904,506.26
-89.52782450,46.20742594,504.46
-89.52783153,46.20757924,518.47
-89.52783321,46.20761583,519.75
-89.52783656,46.20768884,520.74
-89.52783916,46.20774549,522.09
-89.52784852,46.20794932,527.33
-89.52785460,46.20808185,517.11
-89.52785858,46.20816843,524.37
-89.52786464,46.20830042,530.98
-89.52787788,46.20858886,526.81
-89.52787789,46.20858904,526.13
-89.52788088,46.20865432,530.73
-89.52788224,46.20868390,531.68
-89.52788734,46.20879503,532.63
-89.52789046,46.20886301,532.95
-89.52789109,46.20887667,512.92
-89.52789485,46.20895849,536.42
-89.52789486,46.20895885,534.77
-89.52789697,46.20900489,528.63
-89.52789942,46.20905812,534.36
-89.52789954,46.20906081,536.36
-89.52791335,46.20935878,528.07
-89.52792435,46.20960119,539.15
-89.52792436,46.20960137,536.43
-89.52793659,46.20986778,531.51
-89.52794005,46.20994312,511.31
-89.52794005,46.20994330,530.18
-89.52794006,46.20994339,535.52
-89.52794198,46.20998520,534.54
-89.52795128,46.21018787,531.22
-89.52795128,46.21018796,533.32
-89.52795543,46.21027832,530.82
-89.52795561,46.21028218,531.69
-89.52795561,46.21028227,533.16
-89.52796495,46.21048557,527.99
-89.52797424,46.21068805,525.33
-89.52797602,46.21072680,524.03
-89.52797933,46.21079891,515.27
-89.52798291,46.21087686,522.15
-89.52798514,46.21092551,530.34
-89.52798914,46.21101263,527.73
-89.52799341,46.21110560,520.80
-89.52800156,46.21128318,523.33
-89.52800200,46.21129271,523.73
-89.52800201,46.21129298,524.66
-89.52800668,46.21139467,523.31
-89.52801892,46.21166126,502.82
-89.52802093,46.21170496,502.81
-89.52802755,46.21184918,502.80
-89.52803649,46.21204393,502.81
-89.52804218,46.21216774,502.80
-89.52805546,46.21245698,502.78
-89.52807501,46.21288002,502.78
-89.52808401,46.21307612,502.82
-89.52809713,46.21336474,502.81
-89.52811061,46.21365254,502.80
-89.52812850,46.21404510,502.82
-89.52814490,46.21440502,502.80
-89.52815064,46.21453009,502.86
-89.52815201,46.21455994,502.80
-89.52815327,46.21457882,502.80
-89.52815545,46.21460928,502.82
-89.52818637,46.21461355,502.83
-89.52834220,46.21461055,502.79
-89.52849465,46.21460726,502.76
-89.52908618,46.21459417,502.78
-89.52958781,46.21458307,502.83
-89.52983170,46.21457767,502.86
-89.53004553,46.21457284,502.81
-89.53050816,46.21456233,502.76
-89.53077097,46.21455668,502.83
-89.53108170,46.21454998,502.79
-89.53114386,46.21454554,502.79
-89.53177927,46.21453399,502.77
-89.53182215,46.21453321,502.77
-89.53186489,46.21453236,502.74
-89.53203690,46.21452864,502.78
-89.53253038,46.21451788,502.79
-89.53267881,46.21451450,502.79
-89.53309949,46.21450508,502.79
-89.53343443,46.21449783,503.41
-89.53352717,46.21449578,502.76
-89.53357108,46.21449480,502.77
-89.53371989,46.21449150,502.79
-89.53382118,46.21448926,502.77
     </coordinates>
    </LineString>
   </MultiGeometry>
  </Placemark>
 </Document>
</kml>
