<kml>
 <Document>
  <Style id="yellow">
   <LineStyle>
   <color>ff00ffff</color>
   <width>1</width>
   </LineStyle>
  </Style>
  <Style id="red">
   <LineStyle>
   <color>ffff0000</color>
   <width>2</width>
   </LineStyle>
  </Style>
  <Style id="green">
   <LineStyle>
   <color>ff00ff00</color>
   <width>1</width>
   </LineStyle>
  </Style>
  <Placemark>
  <styleUrl>#yellow</styleUrl>
   <MultiGeometry>
    <LineString>
     <coordinates>
-89.49530366,46.21533699,526.42
-89.49575143,46.21532721,524.24
-89.49582734,46.21532555,528.54
-89.49608807,46.21531985,526.94
-89.49614973,46.21531851,525.68
-89.49617783,46.21531789,521.98
-89.49618560,46.21531772,526.45
-89.49625477,46.21531621,527.69
-89.49638171,46.21531344,522.53
-89.49638909,46.21531328,526.79
-89.49661576,46.21530832,525.83
-89.49673311,46.21530576,510.54
-89.49677015,46.21530495,505.65
-89.49689191,46.21530229,527.80
-89.49689605,46.21530220,527.37
-89.49690071,46.21530210,528.02
-89.49691535,46.21530178,519.36
-89.49695926,46.21530082,526.03
-89.49716495,46.21529632,530.18
-89.49719811,46.21529560,532.28
-89.49726196,46.21529420,530.54
-89.49733022,46.21529271,529.94
-89.49733268,46.21529265,530.19
-89.49749174,46.21528918,535.57
-89.49759847,46.21528685,530.62
-89.49770870,46.21528444,533.52
-89.49779781,46.21528249,530.75
-89.49790311,46.21528019,533.96
-89.49792863,46.21527963,525.22
-89.49793303,46.21527953,524.69
-89.49797798,46.21527855,532.50
-89.49799391,46.21527820,531.25
-89.49809883,46.21527591,533.83
-89.49810621,46.21527574,526.09
-89.49818107,46.21527411,528.39
-89.49822071,46.21527324,513.81
-89.49835179,46.21527037,520.20
-89.49845657,46.21526808,523.23
-89.49847808,46.21526761,524.46
-89.49849634,46.21526721,522.12
-89.49860656,46.21526480,531.15
-89.49870682,46.21526261,518.40
-89.49888556,46.21525870,524.23
-89.49892390,46.21525786,526.29
-89.49896185,46.21525703,532.47
-89.49896872,46.21525688,533.42
-89.49898957,46.21525643,528.76
-89.49904566,46.21525520,527.02
-89.49910498,46.21525390,526.20
-89.49913257,46.21525330,524.75
-89.49933398,46.21524889,532.58
-89.49933864,46.21524879,532.04
-89.49935820,46.21524836,529.51
-89.49937115,46.21524808,513.40
-89.49944187,46.21524653,533.62
-89.49945780,46.21524618,531.37
-89.49948747,46.21524554,524.63
-89.49961660,46.21524271,529.99
-89.49966155,46.21524173,524.20
-89.49987034,46.21523716,523.41
-89.49992280,46.21523601,526.92
-89.50010167,46.21523210,528.64
-89.50045308,46.21522441,531.86
-89.50060345,46.21522112,526.53
-89.50060876,46.21522100,525.87
-89.50091626,46.21521427,523.01
-89.50098827,46.21521269,527.13
-89.50118528,46.21520838,514.01
-89.50119124,46.21520825,513.27
-89.50134175,46.21520495,508.36
-89.50146454,46.21520227,517.40
-89.50178174,46.21519532,530.10
-89.50178874,46.21519517,530.61
-89.50186490,46.21519350,530.39
-89.50189119,46.21519292,527.22
-89.50193588,46.21519195,511.47
-89.50194844,46.21519167,511.61
-89.50202499,46.21518999,525.34
-89.50207317,46.21518894,532.81
-89.50216475,46.21518693,521.26
-89.50224388,46.21518511,524.73
-89.50224957,46.21518193,529.68
-89.50224791,46.21514254,513.89
-89.50224383,46.21505263,527.21
-89.50224239,46.21502098,526.56
-89.50224108,46.21499229,531.31
-89.50223954,46.21495840,533.29
-89.50223929,46.21495273,529.84
-89.50223714,46.21490562,532.43
-89.50222786,46.21470133,536.29
-89.50222589,46.21465790,531.86
-89.50222333,46.21460171,524.50
-89.50222284,46.21459083,527.68
-89.50221694,46.21446099,528.32
-89.50221397,46.21439571,529.01
-89.50220893,46.21428476,525.49
-89.50220834,46.21427190,522.34
-89.50220709,46.21424430,524.49
-89.50220593,46.21421885,518.46
-89.50220591,46.21421831,521.77
-89.50220324,46.21415960,525.30
-89.50220200,46.21413227,528.15
-89.50220136,46.21411824,529.46
-89.50220125,46.21411572,527.47
-89.50219836,46.21405215,514.23
-89.50219394,46.21395505,529.09
-89.50219320,46.21393859,526.50
-89.50219224,46.21391746,526.33
-89.50218979,46.21386369,517.20
-89.50218422,46.21374105,535.12
-89.50218243,46.21370158,527.31
-89.50218068,46.21366309,534.10
-89.50218027,46.21365410,536.55
-89.50217389,46.21351375,535.29
-89.50217275,46.21348857,532.24
-89.50217214,46.21347517,533.15
-89.50217137,46.21345827,536.55
-89.50216966,46.21342060,534.33
-89.50216750,46.21337303,534.23
-89.50216533,46.21332547,535.48
-89.50216465,46.21331036,534.83
-89.50216341,46.21328303,536.39
-89.50215985,46.21320489,536.03
-89.50215966,46.21320058,537.45
-89.50215823,46.21316911,517.63
-89.50215662,46.21313368,535.92
-89.50215340,46.21306292,528.62
-89.50215160,46.21302327,534.16
-89.50215103,46.21301068,529.94
-89.50214932,46.21297309,541.55
-89.50214671,46.21291573,534.97
-89.50214499,46.21287778,533.68
-89.50214389,46.21285369,533.82
-89.50214286,46.21283103,527.64
-89.50214280,46.21282959,534.71
-89.50214239,46.21282051,533.94
-89.50213979,46.21276341,513.03
-89.50213654,46.21269184,532.16
-89.50213446,46.21264608,533.08
-89.50213215,46.21259518,534.69
-89.50212948,46.21253638,535.30
-89.50212213,46.21237480,528.90
-89.50211810,46.21228615,534.63
-89.50211734,46.21226942,517.93
-89.50211091,46.21212781,537.93
-89.50211033,46.21211495,534.00
-89.50211015,46.21211100,529.49
-89.50210543,46.21200724,512.94
-89.50210382,46.21197172,529.75
-89.50210314,46.21195688,531.84
-89.50210301,46.21195401,526.45
-89.50210206,46.21193315,532.32
-89.50210045,46.21189754,527.73
-89.50210036,46.21189556,530.66
-89.50209199,46.21171142,522.91
-89.50209165,46.21170404,526.49
-89.50209153,46.21170135,525.45
-89.50209106,46.21169092,521.04
-89.50208830,46.21163023,505.37
-89.50208807,46.21162519,526.44
-89.50208686,46.21159858,520.35
-89.50208280,46.21150920,503.59
-89.50208209,46.21149347,518.01
-89.50208204,46.21149248,518.00
-89.50208023,46.21145273,520.79
-89.50207842,46.21141290,513.11
-89.50207828,46.21140967,513.29
-89.50207778,46.21139870,518.05
-89.50207708,46.21138323,519.51
-89.50207690,46.21137945,517.30
-89.50207498,46.21133719,503.17
-89.50207481,46.21133342,516.61
-89.50207116,46.21125304,518.70
-89.50207024,46.21123271,520.14
-89.50206872,46.21119927,515.06
-89.50206781,46.21117931,504.09
-89.50206538,46.21112581,512.87
-89.50206475,46.21111205,510.77
-89.50206469,46.21111061,515.43
-89.50206447,46.21110585,516.01
-89.50206398,46.21109506,518.68
-89.50206147,46.21103976,520.10
-89.50205798,46.21096288,518.60
-89.50205631,46.21092620,513.99
-89.50205345,46.21086326,514.02
-89.50205191,46.21082945,520.59
-89.50205130,46.21081587,519.20
-89.50205049,46.21079816,510.19
-89.50204963,46.21077910,512.17
-89.50204862,46.21075707,503.75
-89.50204729,46.21072776,510.70
-89.50204565,46.21069152,505.93
-89.50204331,46.21064018,504.02
-89.50204196,46.21061042,502.96
-89.50203954,46.21055710,505.07
-89.50203941,46.21055431,514.02
-89.50203797,46.21052248,511.53
-89.50203738,46.21050963,505.39
-89.50202736,46.21028898,502.83
-89.50202487,46.21023431,502.85
-89.50201138,46.20993741,502.85
-89.50200863,46.20987690,502.82
-89.50200583,46.20981531,502.78
-89.50199896,46.20966389,502.83
-89.50199384,46.20955132,502.86
-89.50197870,46.20921810,502.84
-89.50196835,46.20899872,502.82
-89.50195626,46.20872411,502.90
-89.50194152,46.20839979,502.84
-89.50192491,46.20803411,502.81
-89.50191601,46.20783809,502.81
-89.50191382,46.20778990,502.82
-89.50190215,46.20753301,502.84
-89.50189024,46.20727091,502.83
-89.50188941,46.20725257,502.80
-89.50188673,46.20719377,502.96
-89.50188392,46.20713173,503.03
-89.50188165,46.20708192,502.85
-89.50186388,46.20669358,502.98
-89.50185589,46.20651483,502.83
-89.50184214,46.20621775,502.87
-89.50184035,46.20620114,502.82
-89.50183795,46.20619688,502.87
-89.50181269,46.20619446,502.83
-89.50172669,46.20619625,502.81
-89.50152065,46.20620076,502.79
-89.50137444,46.20620396,502.83
-89.50093452,46.20621360,502.83
-89.50053655,46.20622231,502.78
-89.50048670,46.20622340,502.81
-89.50042479,46.20622475,502.88
-89.50033310,46.20622676,502.82
-89.50007241,46.20623246,502.82
-89.49992245,46.20623574,502.83
-89.49944769,46.20624613,502.82
-89.49895480,46.20625700,502.83
-89.49851422,46.20626655,502.83
-89.49811237,46.20627543,502.81
-89.49781879,46.20628185,502.81
-89.49724469,46.20629430,502.90
-89.49697752,46.20630014,502.78
-89.49633920,46.20631418,502.82
-89.49608213,46.20631980,502.83
-89.49560880,46.20633023,502.84
-89.49542140,46.20633423,502.84
-89.49483539,46.20634694,502.83
-89.49449790,46.20635431,502.81
-89.49438342,46.20635681,502.77
-89.49412117,46.20636253,502.80
-89.49367128,46.20637253,502.86
-89.49339439,46.20637840,502.81
-89.49280825,46.20639119,502.84
-89.49225682,46.20640331,502.76
-89.49191299,46.20641099,502.79
-89.49180707,46.20641348,502.85
-89.49125381,46.20642527,502.81
-89.49112598,46.20642788,502.81
-89.49079082,46.20643519,502.87
-89.49075585,46.20643595,502.88
-89.49057804,46.20643983,502.85
-89.49014536,46.20644926,502.93
-89.49004746,46.20645139,502.92
-89.49002829,46.20645181,505.19
-89.48988778,46.20645487,512.64
-89.48982393,46.20645626,514.14
-89.48982147,46.20645632,509.02
-89.48977329,46.20645737,514.96
-89.48973768,46.20645814,508.15
-89.48960481,46.20646104,513.51
-89.48960209,46.20646110,507.69
-89.48947077,46.20646396,512.10
-89.48945251,46.20646436,514.48
-89.48932404,46.20646716,520.26
-89.48924116,46.20646896,519.31
-89.48922393,46.20646934,521.42
-89.48918547,46.20647017,513.49
-89.48912913,46.20647140,520.29
-89.48899121,46.20647441,527.60
-89.48895845,46.20647521,525.97
-89.48889515,46.20647722,511.27
-89.48889343,46.20647942,508.78
-89.48889133,46.20648441,513.46
-89.48889208,46.20650105,514.50
-89.48889347,46.20653189,503.71
-89.48889899,46.20665399,527.24
-89.48890726,46.20683697,518.41
-89.48891052,46.20690917,521.56
-89.48891086,46.20691663,523.17
-89.48891281,46.20695988,525.37
-89.48891520,46.20701266,521.80
-89.48891726,46.20705825,523.35
-89.48891802,46.20707507,522.26
-89.48892051,46.20713018,515.04
-89.48892080,46.20713666,506.20
-89.48892220,46.20716768,525.90
-89.48892666,46.20726622,513.64
-89.48892756,46.20728619,520.11
-89.48893208,46.20738626,514.53
-89.48894090,46.20758138,520.90
-89.48894164,46.20759783,507.22
-89.48894600,46.20769413,505.13
-89.48894895,46.20775950,514.35
-89.48895202,46.20782739,524.11
-89.48895331,46.20785598,521.25
-89.48895672,46.20793151,518.53
-89.48895692,46.20793573,523.04
-89.48895878,46.20797691,518.76
-89.48896544,46.20812437,517.00
-89.48896758,46.20817167,518.01
-89.48896963,46.20821708,508.04
-89.48896994,46.20822391,518.32
-89.48897449,46.20832462,509.75
-89.48897591,46.20835609,516.84
-89.48897735,46.20838783,508.49
-89.48897800,46.20840230,503.64
-89.48898245,46.20850067,503.80
-89.48898628,46.20858537,505.87
-89.48899142,46.20869929,505.51
-89.48899380,46.20875189,503.69
-89.48900082,46.20890709,503.76
-89.48900662,46.20903539,505.03
-89.48901143,46.20914185,503.84
-89.48901693,46.20926351,505.21
-89.48902091,46.20935172,503.69
-89.48903004,46.20955376,503.61
-89.48903037,46.20956086,507.03
-89.48903226,46.20960267,505.06
-89.48903432,46.20964826,503.82
-89.48904089,46.20979374,509.04
-89.48904573,46.20990074,505.41
-89.48904591,46.20990478,504.06
-89.48904701,46.20992915,503.56
-89.48905148,46.21002806,512.85
-89.48905320,46.21006600,516.99
-89.48905406,46.21008497,504.05
-89.48905959,46.21020744,526.91
-89.48906327,46.21028881,534.08
-89.48906540,46.21033602,534.50
-89.48906573,46.21034321,535.30
-89.48907338,46.21051243,523.75
-89.48907559,46.21056143,537.32
-89.48908430,46.21075403,536.30
-89.48908682,46.21080978,533.94
-89.48908956,46.21087038,525.61
-89.48909137,46.21091039,535.56
-89.48909329,46.21095292,528.98
-89.48909557,46.21100337,530.85
-89.48909981,46.21109715,534.84
-89.48910106,46.21112493,528.31
-89.48910129,46.21112988,529.31
-89.48910145,46.21113356,532.03
-89.48910671,46.21124982,534.54
-89.48912607,46.21167827,529.82
-89.48913443,46.21186313,506.35
-89.48913709,46.21192185,504.20
-89.48914508,46.21209862,504.01
-89.48915038,46.21221596,515.36
-89.48915179,46.21224707,514.25
-89.48915510,46.21232026,515.93
-89.48915642,46.21234948,514.74
-89.48916337,46.21250333,504.27
-89.48917526,46.21276336,504.25
-89.48918953,46.21308202,504.25
-89.48919677,46.21324207,505.27
-89.48919989,46.21331104,504.12
-89.48920427,46.21340805,504.97
-89.48921495,46.21364417,504.63
-89.48922582,46.21388460,504.19
-89.48922988,46.21397443,505.19
-89.48923231,46.21402820,504.14
-89.48923836,46.21416217,512.57
-89.48924281,46.21426045,507.16
-89.48925220,46.21446815,515.94
-89.48925482,46.21452606,504.75
-89.48925707,46.21457596,504.47
-89.48926195,46.21468386,509.82
-89.48926260,46.21469833,514.60
-89.48926555,46.21476352,512.54
-89.48926616,46.21477692,518.43
-89.48927738,46.21502229,506.69
-89.48929308,46.21537234,506.43
-89.48929472,46.21540875,504.80
-89.48929661,46.21544768,504.73
-89.48929800,46.21545539,504.72
-89.48929934,46.21545923,512.93
-89.48930245,46.21546493,510.79
-89.48930968,46.21546720,504.72
-89.48931165,46.21546770,510.63
-89.48967458,46.21545979,506.66
-89.48974543,46.21545824,512.51
-89.49026976,46.21544682,518.25
-89.49046664,46.21544253,506.95
-89.49053205,46.21544110,513.05
-89.49056935,46.21544029,505.15
-89.49058295,46.21543999,504.92
-89.49067906,46.21543790,508.30
-89.49068139,46.21543784,505.31
-89.49090793,46.21543291,510.28
-89.49093773,46.21543226,510.08
-89.49093812,46.21543225,510.02
-89.49106583,46.21542946,510.51
-89.49108824,46.21542897,505.00
-89.49112295,46.21542822,506.96
-89.49125196,46.21542540,511.07
-89.49126737,46.21542507,509.01
-89.49145674,46.21542094,507.06
-89.49162966,46.21541717,514.50
-89.49163173,46.21541712,514.48
-89.49166359,46.21541643,513.98
-89.49170116,46.21541561,514.89
-89.49173302,46.21541491,512.91
-89.49174014,46.21541476,517.15
-89.49178768,46.21541372,507.75
-89.49184869,46.21541239,508.81
-89.49187304,46.21541186,516.52
-89.49187977,46.21541171,504.89
-89.49189195,46.21541145,511.98
-89.49198585,46.21540940,512.52
-89.49204518,46.21540811,504.89
-89.49213921,46.21540606,504.87
-89.49214310,46.21540597,514.70
-89.49228454,46.21540289,513.67
-89.49232871,46.21540192,504.94
-89.49234697,46.21540152,510.54
-89.49238790,46.21540063,521.86
-89.49245344,46.21539920,518.96
-89.49250590,46.21539806,528.16
-89.49258608,46.21539631,517.68
-89.49262157,46.21539553,524.38
-89.49263439,46.21539525,526.00
-89.49270019,46.21539382,527.52
-89.49272221,46.21539334,521.84
-89.49273581,46.21539304,527.00
-89.49276353,46.21539244,527.50
-89.49279850,46.21539167,524.45
-89.49296468,46.21538805,525.49
-89.49299435,46.21538740,527.42
-89.49307115,46.21538572,519.35
-89.49310988,46.21538488,526.35
-89.49311312,46.21538481,528.03
-89.49319796,46.21538296,527.89
-89.49322736,46.21538232,526.55
-89.49329718,46.21538079,519.53
-89.49330119,46.21538070,525.96
-89.49331285,46.21538045,526.02
-89.49333111,46.21538005,526.24
-89.49333396,46.21537999,529.21
-89.49334523,46.21537974,524.25
-89.49335041,46.21537963,529.88
-89.49337036,46.21537919,529.65
-89.49347890,46.21537683,520.83
-89.49354911,46.21537529,524.56
-89.49362294,46.21537368,530.25
-89.49374443,46.21537103,528.90
-89.49383834,46.21536898,529.92
-89.49385362,46.21536865,508.56
-89.49387344,46.21536821,508.69
-89.49391048,46.21536741,523.24
-89.49394079,46.21536674,527.58
-89.49395400,46.21536646,528.97
-89.49397149,46.21536607,532.82
-89.49404713,46.21536442,521.52
-89.49409130,46.21536346,531.96
-89.49410542,46.21536315,525.89
-89.49412899,46.21536264,532.58
-89.49413379,46.21536253,516.20
-89.49431344,46.21535861,530.24
-89.49444581,46.21535572,533.78
-89.49446602,46.21535528,529.00
-89.49454114,46.21535364,536.06
-89.49459891,46.21535238,532.90
-89.49469334,46.21535031,531.20
-89.49495511,46.21534460,531.26
-89.49517608,46.21533977,528.82
-89.49527258,46.21533767,530.27
-89.49530366,46.21533699,526.42
     </coordinates>
    </LineString>
   </MultiGeometry>
  </Placemark>
 </Document>
</kml>
