<kml>
 <Document>
  <Style id="yellow">
   <LineStyle>
   <color>ff00ffff</color>
   <width>1</width>
   </LineStyle>
  </Style>
  <Style id="red">
   <LineStyle>
   <color>ffff0000</color>
   <width>2</width>
   </LineStyle>
  </Style>
  <Style id="green">
   <LineStyle>
   <color>ff00ff00</color>
   <width>1</width>
   </LineStyle>
  </Style>
  <Placemark>
  <styleUrl>#yellow</styleUrl>
   <MultiGeometry>
    <LineString>
     <coordinates>
-89.53485336,46.22346673,505.37
-89.53503666,46.22346266,504.53
-89.53513939,46.22346038,524.30
-89.53514586,46.22346024,527.39
-89.53516866,46.22345973,527.37
-89.53519302,46.22345919,527.51
-89.53519457,46.22345916,522.44
-89.53520882,46.22345884,527.87
-89.53522916,46.22345839,527.04
-89.53522994,46.22345837,523.69
-89.53523045,46.22345836,521.98
-89.53526711,46.22345755,527.80
-89.53530339,46.22345674,511.18
-89.53532968,46.22345616,525.18
-89.53539989,46.22345460,525.96
-89.53555625,46.22345113,516.52
-89.53558384,46.22345052,515.49
-89.53568203,46.22344834,514.40
-89.53583852,46.22344486,525.26
-89.53584940,46.22344462,536.48
-89.53586831,46.22344420,531.66
-89.53589176,46.22344368,531.49
-89.53589448,46.22344362,520.30
-89.53590433,46.22344340,525.94
-89.53592920,46.22344285,539.91
-89.53602791,46.22344066,532.80
-89.53603788,46.22344044,538.32
-89.53613569,46.22343827,527.13
-89.53616729,46.22343757,536.34
-89.53626458,46.22343541,519.85
-89.53632844,46.22343399,524.58
-89.53646278,46.22343101,529.73
-89.53652560,46.22342961,528.77
-89.53652716,46.22342958,530.19
-89.53653661,46.22342937,535.10
-89.53657638,46.22342849,533.33
-89.53663040,46.22342729,525.59
-89.53666654,46.22342648,530.22
-89.53678170,46.22342393,515.11
-89.53687821,46.22342178,533.01
-89.53689557,46.22342140,518.89
-89.53690775,46.22342113,523.45
-89.53696902,46.22341977,522.50
-89.53705957,46.22341776,536.83
-89.53711177,46.22341660,533.97
-89.53711566,46.22341651,536.32
-89.53722512,46.22341408,540.51
-89.53725543,46.22341341,536.31
-89.53734676,46.22341138,535.04
-89.53737720,46.22341070,531.10
-89.53744275,46.22340925,532.62
-89.53747462,46.22340854,533.86
-89.53754949,46.22340688,526.88
-89.53757449,46.22340632,522.53
-89.53757644,46.22340628,529.35
-89.53760014,46.22340575,518.86
-89.53772476,46.22340298,527.98
-89.53781686,46.22340094,510.89
-89.53781971,46.22340087,520.87
-89.53782049,46.22340086,521.64
-89.53787736,46.22339959,531.03
-89.53809447,46.22339477,520.39
-89.53814071,46.22339374,526.44
-89.53818709,46.22339271,525.42
-89.53821365,46.22339212,531.37
-89.53821429,46.22339211,532.65
-89.53821520,46.22339209,534.47
-89.53826080,46.22339108,529.80
-89.53826171,46.22339106,531.60
-89.53828943,46.22339044,527.94
-89.53829020,46.22339042,529.75
-89.53830743,46.22339004,530.11
-89.53840031,46.22338798,528.23
-89.53850123,46.22338573,533.54
-89.53854799,46.22338470,528.18
-89.53876329,46.22337991,522.64
-89.53878725,46.22337938,536.93
-89.53884153,46.22337817,536.11
-89.53888363,46.22337724,531.65
-89.53893208,46.22337616,531.30
-89.53896213,46.22337549,532.15
-89.53897975,46.22337510,532.23
-89.53900073,46.22337463,523.82
-89.53903506,46.22337387,532.25
-89.53907224,46.22337305,525.68
-89.53923222,46.22336949,533.50
-89.53950646,46.22336340,525.31
-89.53962097,46.22336085,535.57
-89.53967408,46.22335967,538.10
-89.53970038,46.22335909,542.13
-89.53982474,46.22335632,534.53
-89.53984028,46.22335597,518.86
-89.53986645,46.22335539,518.10
-89.53996089,46.22335329,537.14
-89.53998226,46.22335282,515.99
-89.54006931,46.22335088,533.65
-89.54021841,46.22334757,538.90
-89.54042412,46.22334299,526.86
-89.54056118,46.22333995,533.07
-89.54058890,46.22333933,534.44
-89.54061921,46.22333866,534.42
-89.54077401,46.22333521,535.99
-89.54079979,46.22333464,535.05
-89.54084759,46.22333358,532.21
-89.54087155,46.22333304,536.37
-89.54093399,46.22333166,534.38
-89.54103659,46.22332937,526.06
-89.54105226,46.22332903,528.08
-89.54109384,46.22332810,534.76
-89.54109799,46.22332801,538.32
-89.54117779,46.22332623,537.68
-89.54124709,46.22332469,523.78
-89.54127935,46.22332398,539.17
-89.54128932,46.22332375,528.88
-89.54133595,46.22332272,530.18
-89.54136756,46.22332201,534.48
-89.54142417,46.22332075,534.98
-89.54142845,46.22332066,531.93
-89.54145617,46.22332004,535.74
-89.54150915,46.22331886,538.10
-89.54152123,46.22331652,534.03
-89.54152113,46.22331158,533.97
-89.54152077,46.22330367,530.52
-89.54152057,46.22329935,530.44
-89.54152028,46.22329324,532.79
-89.54151938,46.22327363,520.88
-89.54151649,46.22321106,530.47
-89.54151578,46.22319577,526.68
-89.54151483,46.22317509,513.41
-89.54150761,46.22301883,538.06
-89.54150544,46.22297180,534.94
-89.54150477,46.22295724,533.75
-89.54150193,46.22289583,535.73
-89.54150172,46.22289124,533.10
-89.54150124,46.22288081,536.70
-89.54149967,46.22284674,528.06
-89.54149436,46.22273174,538.99
-89.54149063,46.22265091,536.65
-89.54149054,46.22264911,535.05
-89.54148990,46.22263508,536.23
-89.54148740,46.22258114,515.34
-89.54148281,46.22248161,541.36
-89.54148206,46.22246533,541.04
-89.54148155,46.22245436,535.82
-89.54147924,46.22240437,534.31
-89.54147758,46.22236832,527.25
-89.54147727,46.22236157,524.02
-89.54147598,46.22233370,515.20
-89.54147500,46.22231257,531.84
-89.54147269,46.22226249,531.47
-89.54147236,46.22225539,534.33
-89.54146781,46.22215676,529.28
-89.54146663,46.22213122,530.18
-89.54146634,46.22212493,532.30
-89.54146619,46.22212169,529.71
-89.54146589,46.22211522,510.05
-89.54146581,46.22211342,529.62
-89.54146568,46.22211072,529.43
-89.54146499,46.22209562,511.57
-89.54146496,46.22209508,527.60
-89.54146343,46.22206190,524.64
-89.54146247,46.22204122,522.93
-89.54146148,46.22201964,529.28
-89.54146126,46.22201488,524.53
-89.54145587,46.22189817,525.65
-89.54145562,46.22189278,523.70
-89.54145460,46.22187057,519.78
-89.54145306,46.22183739,525.18
-89.54145276,46.22183083,523.70
-89.54145208,46.22181617,507.83
-89.54145136,46.22180053,522.97
-89.54145009,46.22177293,515.77
-89.54143948,46.22154320,508.05
-89.54143571,46.22146147,520.22
-89.54143511,46.22144862,508.42
-89.54143227,46.22138712,512.96
-89.54142816,46.22129810,511.62
-89.54141818,46.22108178,511.49
-89.54141580,46.22103026,514.34
-89.54141561,46.22102630,515.32
-89.54141261,46.22096121,514.95
-89.54141246,46.22095797,512.29
-89.54141222,46.22095266,517.30
-89.54141153,46.22093792,514.20
-89.54141108,46.22092803,516.66
-89.54140095,46.22070865,507.63
-89.54139996,46.22068716,516.09
-89.54139698,46.22062269,507.91
-89.54139413,46.22056101,514.38
-89.54139318,46.22054042,516.72
-89.54139261,46.22052810,518.13
-89.54139186,46.22051183,510.40
-89.54139161,46.22050643,509.98
-89.54138896,46.22044898,522.97
-89.54137960,46.22024632,525.41
-89.54137479,46.22014211,527.33
-89.54137345,46.22011298,512.71
-89.54137208,46.22008331,512.89
-89.54137068,46.22005301,509.72
-89.54136850,46.22000581,522.00
-89.54136549,46.21994062,524.64
-89.54135863,46.21979191,521.52
-89.54135611,46.21973751,525.50
-89.54135437,46.21969966,505.88
-89.54135274,46.21966442,521.03
-89.54135125,46.21963223,513.72
-89.54134976,46.21959986,508.35
-89.54134042,46.21939747,505.87
-89.54133966,46.21938119,505.94
-89.54133761,46.21933669,509.39
-89.54133021,46.21917647,510.40
-89.54132882,46.21914626,505.95
-89.54132802,46.21912899,506.23
-89.54132752,46.21911820,512.44
-89.54132642,46.21909438,517.24
-89.54132074,46.21897129,518.67
-89.54132049,46.21896589,518.43
-89.54131931,46.21894027,515.40
-89.54131646,46.21887859,516.90
-89.54131602,46.21886897,517.39
-89.54131464,46.21883903,506.14
-89.54131232,46.21878886,517.30
-89.54131082,46.21875640,505.91
-89.54131038,46.21874696,515.86
-89.54131027,46.21874453,505.98
-89.54130990,46.21873653,514.93
-89.54130829,46.21870156,512.79
-89.54130772,46.21868924,505.98
-89.54130632,46.21865894,506.06
-89.54130498,46.21862981,520.85
-89.54130379,46.21860409,506.03
-89.54130326,46.21859267,519.96
-89.54130196,46.21856453,520.46
-89.54130160,46.21855671,512.55
-89.54129968,46.21851517,515.89
-89.54129873,46.21849440,516.75
-89.54129443,46.21840143,520.34
-89.54129438,46.21840026,505.99
-89.54129233,46.21835594,517.97
-89.54129137,46.21833508,517.34
-89.54128849,46.21827277,505.85
-89.54128803,46.21826261,520.86
-89.54128323,46.21815876,506.80
-89.54128222,46.21813682,515.61
-89.54128157,46.21812280,522.18
-89.54128125,46.21811578,523.97
-89.54128093,46.21810895,520.70
-89.54128014,46.21809178,525.49
-89.54127581,46.21799809,505.97
-89.54126932,46.21785738,524.61
-89.54126419,46.21774616,533.02
-89.54126368,46.21773528,533.59
-89.54126306,46.21772179,531.39
-89.54126303,46.21772116,533.66
-89.54126062,46.21766901,534.17
-89.54125723,46.21759556,526.97
-89.54125524,46.21755231,531.49
-89.54125470,46.21754071,528.51
-89.54125451,46.21753657,534.54
-89.54125298,46.21750349,534.45
-89.54124758,46.21738642,524.97
-89.54124312,46.21728977,531.98
-89.54124007,46.21722368,531.22
-89.54123982,46.21721829,519.43
-89.54123969,46.21721550,530.76
-89.54123949,46.21721127,524.40
-89.54123908,46.21720219,526.30
-89.54123895,46.21719941,509.88
-89.54123197,46.21704836,533.17
-89.54123048,46.21701599,536.08
-89.54122909,46.21698596,509.03
-89.54122737,46.21694864,525.28
-89.54122708,46.21694244,526.59
-89.54122574,46.21691340,523.76
-89.54122474,46.21689155,528.21
-89.54122412,46.21687815,529.45
-89.54122044,46.21679849,532.32
-89.54121940,46.21677592,509.19
-89.54121794,46.21674428,524.82
-89.54121765,46.21673798,529.93
-89.54121751,46.21673492,530.29
-89.54121413,46.21666174,520.47
-89.54121228,46.21662164,528.74
-89.54121062,46.21658576,528.79
-89.54120799,46.21652867,524.80
-89.54119897,46.21633329,541.18
-89.54119672,46.21628456,531.13
-89.54119469,46.21624068,522.64
-89.54119450,46.21623646,526.83
-89.54118152,46.21595539,537.89
-89.54118102,46.21594451,533.30
-89.54118090,46.21594182,538.13
-89.54117897,46.21590001,514.92
-89.54117852,46.21589021,513.44
-89.54117598,46.21583527,537.17
-89.54116725,46.21564610,540.68
-89.54116683,46.21563693,537.21
-89.54116390,46.21557354,540.21
-89.54116162,46.21552418,539.33
-89.54116157,46.21552301,543.49
-89.54116146,46.21552067,543.54
-89.54116061,46.21550224,541.62
-89.54116018,46.21549289,535.54
-89.54115871,46.21546115,540.49
-89.54115533,46.21538778,540.98
-89.54115489,46.21537843,538.42
-89.54115233,46.21532296,544.97
-89.54114990,46.21527027,546.47
-89.54114736,46.21521515,534.31
-89.54114714,46.21521048,534.00
-89.54114552,46.21517541,534.50
-89.54114508,46.21516579,535.56
-89.54114336,46.21512857,526.22
-89.54114259,46.21511175,525.84
-89.54114158,46.21509000,521.14
-89.54113495,46.21494623,528.54
-89.54112631,46.21475903,540.42
-89.54112609,46.21475427,538.88
-89.54112583,46.21474869,541.06
-89.54112481,46.21472657,538.97
-89.54112213,46.21466858,534.53
-89.54111860,46.21459216,536.56
-89.54111360,46.21448372,510.13
-89.54111233,46.21445621,527.28
-89.54110664,46.21433303,514.29
-89.54110619,46.21432872,525.68
-89.54110526,46.21432838,528.66
-89.54110121,46.21432775,529.74
-89.54110069,46.21432767,530.65
-89.54106093,46.21432856,523.26
-89.54105238,46.21432875,522.22
-89.54102389,46.21432938,521.59
-89.54093659,46.21433132,524.00
-89.54091250,46.21433186,525.63
-89.54082857,46.21433373,506.90
-89.54072133,46.21433611,505.71
-89.54069776,46.21433663,505.35
-89.54059479,46.21433892,524.69
-89.54055063,46.21433991,522.72
-89.54033666,46.21434466,524.31
-89.54017295,46.21434830,525.24
-89.54012969,46.21434927,517.18
-89.54004343,46.21435118,516.06
-89.54003514,46.21435137,525.28
-89.54000134,46.21435212,524.12
-89.53999745,46.21435221,517.44
-89.53997323,46.21435274,517.33
-89.53996287,46.21435297,505.30
-89.53992906,46.21435373,526.07
-89.53978996,46.21435682,520.46
-89.53963907,46.21436017,502.81
-89.53923536,46.21436915,502.80
-89.53877440,46.21437939,502.82
-89.53836810,46.21438842,502.81
-89.53799677,46.21439667,502.79
-89.53768540,46.21440358,502.80
-89.53758826,46.21440574,502.80
-89.53747960,46.21440815,502.78
-89.53710995,46.21441645,502.80
-89.53679962,46.21442334,502.84
-89.53673383,46.21442481,502.81
-89.53624219,46.21443608,502.77
-89.53587914,46.21444405,502.75
-89.53558188,46.21445047,502.85
-89.53535561,46.21445540,502.77
-89.53493739,46.21446459,502.74
-89.53465322,46.21447089,502.80
-89.53437838,46.21447699,502.83
-89.53395836,46.21448658,502.78
-89.53362185,46.21449377,502.78
-89.53328471,46.21450124,502.78
-89.53314807,46.21450427,502.80
-89.53276547,46.21451276,502.78
-89.53272182,46.21451372,502.79
-89.53258608,46.21451673,502.78
-89.53212965,46.21452685,502.77
-89.53181622,46.21453407,502.81
-89.53134400,46.21454471,502.85
-89.53098652,46.21455245,502.74
-89.53081451,46.21455608,502.69
-89.53036675,46.21456600,502.78
-89.53000254,46.21457406,502.83
-89.52994076,46.21457543,502.83
-89.52930118,46.21458950,502.82
-89.52871510,46.21460248,502.81
-89.52860410,46.21460493,502.80
-89.52830180,46.21461162,502.81
-89.52826800,46.21461237,502.79
-89.52822695,46.21461346,502.82
-89.52819276,46.21461440,502.79
-89.52815859,46.21461569,502.79
-89.52815591,46.21462214,502.79
-89.52815764,46.21468249,502.82
-89.52817101,46.21497372,502.79
-89.52817503,46.21506112,502.78
-89.52817685,46.21510086,502.80
-89.52818960,46.21537851,502.79
-89.52819094,46.21540773,502.80
-89.52819444,46.21548388,502.81
-89.52819698,46.21553918,502.78
-89.52821667,46.21596797,502.87
-89.52821907,46.21602021,502.78
-89.52823142,46.21628626,502.82
-89.52824856,46.21665966,502.82
-89.52825466,46.21679525,502.81
-89.52827437,46.21721595,502.79
-89.52828996,46.21756112,502.79
-89.52829287,46.21762433,502.81
-89.52829344,46.21763692,502.80
-89.52830338,46.21785334,502.79
-89.52832079,46.21822944,502.78
-89.52833958,46.21864439,502.80
-89.52835218,46.21891592,502.79
-89.52836425,46.21918144,502.76
-89.52837812,46.21948066,502.79
-89.52839571,46.21986630,502.80
-89.52839992,46.21995531,502.80
-89.52842004,46.22038769,502.82
-89.52842559,46.22051699,502.81
-89.52843368,46.22069034,502.81
-89.52845130,46.22107660,502.75
-89.52845939,46.22125283,502.80
-89.52846172,46.22130354,502.78
-89.52846668,46.22141144,502.79
-89.52848203,46.22173718,502.80
-89.52849104,46.22194174,502.80
-89.52849214,46.22196566,502.78
-89.52850961,46.22234599,502.80
-89.52852299,46.22263730,502.77
-89.52852966,46.22278251,502.77
-89.52854042,46.22301673,502.74
-89.52854106,46.22303058,502.73
-89.52855520,46.22333574,502.75
-89.52856376,46.22352473,502.79
-89.52856483,46.22354811,502.83
-89.52856748,46.22360016,502.80
-89.52857276,46.22360491,502.81
-89.52862721,46.22360460,502.75
-89.52885559,46.22359964,502.79
-89.52914512,46.22359323,512.60
-89.52919434,46.22359214,514.82
-89.52932855,46.22358917,519.18
-89.52933386,46.22358905,515.61
-89.52943063,46.22358691,505.96
-89.52953245,46.22358465,505.37
-89.52968401,46.22358130,510.16
-89.52974904,46.22357986,508.54
-89.52975034,46.22357983,507.80
-89.52983791,46.22357789,512.68
-89.53006020,46.22357297,502.78
-89.53012484,46.22357154,502.74
-89.53071165,46.22355827,502.78
-89.53127595,46.22354604,502.75
-89.53148011,46.22354152,502.75
-89.53189036,46.22353243,502.77
-89.53223857,46.22352471,502.85
-89.53255919,46.22351760,502.80
-89.53277047,46.22351292,502.79
-89.53302826,46.22350720,502.80
-89.53318124,46.22350381,511.60
-89.53323889,46.22350253,512.43
-89.53324446,46.22350241,515.02
-89.53336649,46.22349970,509.29
-89.53351585,46.22349639,515.02
-89.53363127,46.22349383,516.04
-89.53370614,46.22349217,515.77
-89.53388647,46.22348817,506.05
-89.53400953,46.22348544,505.23
-89.53408130,46.22348385,503.93
-89.53413842,46.22348259,506.14
-89.53433520,46.22347822,504.07
-89.53435722,46.22347773,504.75
-89.53440955,46.22347657,511.15
-89.53446461,46.22347535,503.96
-89.53459661,46.22347242,503.03
-89.53471320,46.22346984,502.94
-89.53485336,46.22346673,505.37
     </coordinates>
    </LineString>
   </MultiGeometry>
  </Placemark>
 </Document>
</kml>
