<kml>
 <Document>
  <Style id="yellow">
   <LineStyle>
   <color>ff00ffff</color>
   <width>1</width>
   </LineStyle>
  </Style>
  <Style id="red">
   <LineStyle>
   <color>ffff0000</color>
   <width>2</width>
   </LineStyle>
  </Style>
  <Style id="green">
   <LineStyle>
   <color>ff00ff00</color>
   <width>1</width>
   </LineStyle>
  </Style>
  <Placemark>
  <styleUrl>#yellow</styleUrl>
   <MultiGeometry>
    <LineString>
     <coordinates>
-89.50760264,46.20606735,503.18
-89.50801226,46.20605835,503.23
-89.50859101,46.20604565,503.23
-89.50888661,46.20603808,503.14
-89.50949726,46.20602566,503.23
-89.51008365,46.20601287,506.96
-89.51008676,46.20601280,505.27
-89.51014944,46.20601142,503.92
-89.51016355,46.20601111,503.49
-89.51028270,46.20600849,503.35
-89.51029837,46.20600815,506.61
-89.51032841,46.20600749,512.35
-89.51068571,46.20599964,504.05
-89.51076432,46.20599791,518.78
-89.51076924,46.20599780,518.26
-89.51088307,46.20599530,521.18
-89.51090366,46.20599485,519.03
-89.51092684,46.20599434,510.39
-89.51093021,46.20599426,516.24
-89.51103148,46.20599204,505.36
-89.51109895,46.20599056,522.36
-89.51110957,46.20599032,521.17
-89.51130628,46.20598600,515.58
-89.51133969,46.20598526,519.24
-89.51139486,46.20598405,506.17
-89.51146065,46.20598260,523.38
-89.51153719,46.20598092,523.22
-89.51166798,46.20597805,525.60
-89.51171033,46.20597712,527.72
-89.51184242,46.20597421,523.46
-89.51187363,46.20597353,528.35
-89.51193799,46.20597211,530.08
-89.51200728,46.20597059,531.04
-89.51214313,46.20596760,516.47
-89.51215517,46.20596734,515.21
-89.51217019,46.20596701,529.91
-89.51226330,46.20596496,511.18
-89.51232870,46.20596352,528.84
-89.51247789,46.20596024,531.32
-89.51252917,46.20595911,534.26
-89.51269299,46.20595551,524.92
-89.51273301,46.20595463,533.23
-89.51289022,46.20595117,534.20
-89.51297013,46.20594941,524.34
-89.51302633,46.20594818,513.14
-89.51310468,46.20594645,522.09
-89.51313913,46.20594570,529.37
-89.51328158,46.20594256,527.92
-89.51329388,46.20594229,520.69
-89.51343361,46.20593922,531.25
-89.51345692,46.20593871,528.39
-89.51351429,46.20593744,522.12
-89.51364807,46.20593450,525.99
-89.51368174,46.20593376,528.29
-89.51373976,46.20593248,525.70
-89.51376799,46.20593186,525.52
-89.51379194,46.20593133,531.63
-89.51383623,46.20593036,530.54
-89.51385954,46.20592985,530.72
-89.51386343,46.20592976,528.66
-89.51389684,46.20592903,528.88
-89.51389891,46.20592898,526.43
-89.51393284,46.20592823,530.01
-89.51398154,46.20592716,526.53
-89.51413409,46.20592381,525.77
-89.51418200,46.20592275,528.66
-89.51422461,46.20592181,525.70
-89.51434194,46.20591923,524.50
-89.51435023,46.20591905,508.85
-89.51437431,46.20591852,527.57
-89.51441174,46.20591770,519.69
-89.51445396,46.20591677,524.38
-89.51449695,46.20591582,526.49
-89.51451690,46.20591538,525.58
-89.51462464,46.20591301,527.68
-89.51470739,46.20591119,527.56
-89.51473524,46.20591058,524.38
-89.51473679,46.20591054,527.41
-89.51475168,46.20591021,529.22
-89.51478095,46.20590957,523.20
-89.51478846,46.20590931,525.30
-89.51479139,46.20590538,509.60
-89.51479052,46.20588641,528.37
-89.51479050,46.20588587,525.40
-89.51479032,46.20588191,522.49
-89.51479021,46.20587966,526.90
-89.51478913,46.20585593,532.91
-89.51478645,46.20579712,534.43
-89.51478555,46.20577761,529.61
-89.51477973,46.20565003,530.93
-89.51477788,46.20560948,529.28
-89.51477774,46.20560642,527.60
-89.51477732,46.20559734,528.87
-89.51477681,46.20558610,530.10
-89.51477435,46.20553233,527.91
-89.51477366,46.20551722,529.14
-89.51477300,46.20550257,527.61
-89.51477010,46.20543918,524.51
-89.51476807,46.20539476,525.37
-89.51476404,46.20530647,507.33
-89.51476397,46.20530494,507.58
-89.51476330,46.20529028,521.36
-89.51476132,46.20524676,521.94
-89.51475608,46.20513203,518.27
-89.51475584,46.20512691,516.81
-89.51475547,46.20511882,522.14
-89.51475469,46.20510173,513.49
-89.51475457,46.20509895,515.41
-89.51475446,46.20509670,522.18
-89.51475395,46.20508537,521.94
-89.51475093,46.20501928,514.51
-89.51475007,46.20500040,521.27
-89.51474962,46.20499060,520.97
-89.51474376,46.20486221,508.23
-89.51474347,46.20485591,510.01
-89.51474317,46.20484935,504.12
-89.51474179,46.20481923,504.01
-89.51474075,46.20479639,503.91
-89.51473971,46.20477355,506.31
-89.51473694,46.20471286,504.02
-89.51473594,46.20469092,505.65
-89.51473323,46.20463158,504.16
-89.51473301,46.20462681,504.09
-89.51472618,46.20447720,504.25
-89.51471431,46.20421726,507.19
-89.51470819,46.20408329,505.89
-89.51470689,46.20405478,507.54
-89.51470571,46.20402898,509.92
-89.51470560,46.20402646,509.77
-89.51469521,46.20379898,504.22
-89.51469136,46.20371464,504.29
-89.51468688,46.20361636,506.85
-89.51468616,46.20360072,504.49
-89.51468039,46.20347421,504.33
-89.51467310,46.20331453,510.84
-89.51466649,46.20316994,504.45
-89.51465326,46.20288006,504.65
-89.51465280,46.20286999,504.70
-89.51465116,46.20283412,504.36
-89.51464591,46.20271903,504.30
-89.51463952,46.20257912,505.56
-89.51463933,46.20257490,506.82
-89.51463358,46.20244893,504.57
-89.51462639,46.20229158,504.45
-89.51461628,46.20207003,508.04
-89.51461341,46.20200709,504.71
-89.51461319,46.20200242,504.99
-89.51460421,46.20180560,504.60
-89.51459911,46.20169401,505.08
-89.51459762,46.20166138,504.76
-89.51459363,46.20157380,507.43
-89.51459289,46.20155762,508.00
-89.51459108,46.20151805,504.56
-89.51459010,46.20149648,504.69
-89.51458784,46.20144711,505.05
-89.51458565,46.20139910,504.56
-89.51458539,46.20139343,505.13
-89.51458496,46.20138399,504.71
-89.51457959,46.20126639,504.55
-89.51457853,46.20124301,504.70
-89.51457832,46.20123860,504.65
-89.51457758,46.20122224,504.55
-89.51457534,46.20117324,504.63
-89.51457368,46.20113682,510.58
-89.51457138,46.20108656,515.25
-89.51456614,46.20097165,524.57
-89.51456565,46.20096086,518.85
-89.51456508,46.20094836,517.07
-89.51456423,46.20092984,517.66
-89.51456321,46.20090754,522.65
-89.51456128,46.20086519,525.02
-89.51456022,46.20084199,520.67
-89.51455834,46.20080072,509.04
-89.51455588,46.20074696,517.64
-89.51455426,46.20071135,504.72
-89.51455359,46.20069669,504.72
-89.51455304,46.20068465,515.50
-89.51455177,46.20065695,513.88
-89.51455146,46.20065021,504.62
-89.51455083,46.20063627,508.14
-89.51455000,46.20061802,504.65
-89.51454814,46.20057738,504.42
-89.51454761,46.20056587,504.49
-89.51454717,46.20055616,510.06
-89.51454709,46.20055427,510.30
-89.51454688,46.20054987,511.05
-89.51454679,46.20054789,504.63
-89.51454303,46.20046553,509.66
-89.51454303,46.20046535,507.06
-89.51454225,46.20044835,508.97
-89.51454075,46.20041554,509.87
-89.51452592,46.20009050,511.43
-89.51452502,46.20007099,505.15
-89.51452422,46.20005327,511.88
-89.51451826,46.19992290,509.98
-89.51450541,46.19964138,508.79
-89.51450478,46.19962753,504.41
-89.51450180,46.19956217,508.34
-89.51450117,46.19954832,511.66
-89.51449971,46.19951640,508.43
-89.51449944,46.19951056,507.37
-89.51449872,46.19949482,506.46
-89.51449537,46.19942127,514.23
-89.51449383,46.19938764,516.23
-89.51449361,46.19938270,515.93
-89.51449203,46.19934808,511.02
-89.51449129,46.19933199,517.46
-89.51449099,46.19932533,515.44
-89.51449018,46.19930762,510.92
-89.51448842,46.19926914,506.74
-89.51448717,46.19924162,511.86
-89.51448469,46.19918741,512.37
-89.51448465,46.19918651,514.53
-89.51448180,46.19912402,504.85
-89.51448164,46.19912042,511.07
-89.51447942,46.19907187,520.81
-89.51447909,46.19906468,518.86
-89.51447906,46.19906405,522.67
-89.51447827,46.19904669,514.22
-89.51447675,46.19901342,521.10
-89.51447536,46.19898294,518.76
-89.51447457,46.19896559,522.92
-89.51447369,46.19894626,519.47
-89.51447300,46.19893124,517.73
-89.51446792,46.19881984,521.35
-89.51446705,46.19880096,510.24
-89.51446491,46.19875402,521.19
-89.51446457,46.19874656,523.34
-89.51446272,46.19870592,528.66
-89.51446114,46.19867148,523.68
-89.51446072,46.19866222,520.17
-89.51446062,46.19866006,525.82
-89.51446059,46.19865925,519.32
-89.51445863,46.19861637,528.03
-89.51445781,46.19859838,506.15
-89.51445757,46.19859326,516.63
-89.51445683,46.19857689,521.43
-89.51445621,46.19856332,526.07
-89.51445127,46.19845515,513.98
-89.51445055,46.19843942,519.52
-89.51445054,46.19843906,525.33
-89.51445003,46.19842800,526.42
-89.51444891,46.19840354,523.09
-89.51444838,46.19839194,523.26
-89.51444691,46.19835957,523.19
-89.51444523,46.19832289,523.24
-89.51443559,46.19811159,530.14
-89.51443541,46.19810764,529.51
-89.51443064,46.19800307,529.88
-89.51442844,46.19795496,530.68
-89.51442636,46.19790929,527.95
-89.51442444,46.19786739,525.42
-89.51442395,46.19785660,522.57
-89.51442393,46.19785615,525.54
-89.51442387,46.19785489,524.60
-89.51442280,46.19783142,524.72
-89.51441851,46.19773746,506.82
-89.51441755,46.19771642,527.45
-89.51441718,46.19770815,527.31
-89.51441577,46.19767731,527.35
-89.51441555,46.19767263,528.26
-89.51441554,46.19767227,525.89
-89.51441465,46.19765285,525.12
-89.51441416,46.19764206,519.67
-89.51441289,46.19761428,528.49
-89.51441288,46.19761410,529.97
-89.51441131,46.19757957,513.95
-89.51441097,46.19757229,527.93
-89.51441093,46.19757130,528.80
-89.51441027,46.19755683,530.01
-89.51440781,46.19750297,523.39
-89.51440582,46.19745936,524.98
-89.51440483,46.19743760,524.53
-89.51440442,46.19742870,520.71
-89.51440248,46.19738608,525.68
-89.51440044,46.19734148,516.24
-89.51439977,46.19732683,519.34
-89.51439790,46.19728583,520.08
-89.51439773,46.19728205,519.97
-89.51439648,46.19725463,519.03
-89.51439578,46.19723943,516.60
-89.51439480,46.19721794,503.48
-89.51439397,46.19719978,518.55
-89.51439377,46.19719528,517.74
-89.51439313,46.19718135,519.51
-89.51439207,46.19715806,515.71
-89.51438925,46.19709638,516.46
-89.51438459,46.19699415,508.92
-89.51438433,46.19698839,514.93
-89.51438190,46.19693813,509.85
-89.51438094,46.19692564,518.13
-89.51437946,46.19692145,503.33
-89.51437863,46.19692047,516.64
-89.51437542,46.19691829,514.87
-89.51434499,46.19691887,517.32
-89.51429773,46.19691991,518.78
-89.51429734,46.19691992,516.19
-89.51420386,46.19692198,521.38
-89.51413976,46.19692339,521.74
-89.51406518,46.19692503,520.85
-89.51402906,46.19692583,523.65
-89.51396768,46.19692718,521.08
-89.51393480,46.19692790,512.71
-89.51393247,46.19692795,523.47
-89.51390385,46.19692858,510.68
-89.51375689,46.19693182,521.54
-89.51372530,46.19693251,510.74
-89.51370872,46.19693288,512.30
-89.51357419,46.19693584,504.36
-89.51356202,46.19693610,518.17
-89.51350414,46.19693738,514.26
-89.51348291,46.19693784,513.31
-89.51346336,46.19693827,517.35
-89.51342231,46.19693918,520.87
-89.51340095,46.19693965,513.87
-89.51333193,46.19694116,522.20
-89.51330811,46.19694169,519.16
-89.51328584,46.19694218,518.74
-89.51328493,46.19694220,521.96
-89.51327522,46.19694241,521.66
-89.51326201,46.19694270,522.60
-89.51319015,46.19694428,520.77
-89.51306818,46.19694697,528.37
-89.51306197,46.19694710,528.78
-89.51295450,46.19694947,523.34
-89.51287733,46.19695116,524.14
-89.51281479,46.19695254,525.46
-89.51280093,46.19695285,525.24
-89.51273075,46.19695439,522.06
-89.51269761,46.19695512,513.74
-89.51267987,46.19695551,520.72
-89.51267676,46.19695558,506.24
-89.51256800,46.19695797,523.42
-89.51251193,46.19695920,522.90
-89.51243088,46.19696098,524.60
-89.51241625,46.19696131,521.03
-89.51240045,46.19696165,518.12
-89.51236186,46.19696250,525.05
-89.51198818,46.19697072,524.09
-89.51196643,46.19697120,521.69
-89.51177143,46.19697548,525.54
-89.51153759,46.19698062,523.72
-89.51128976,46.19698607,521.67
-89.51127358,46.19698643,522.95
-89.51127112,46.19698648,518.39
-89.51120262,46.19698799,518.55
-89.51118734,46.19698832,514.41
-89.51117659,46.19698856,515.16
-89.51085536,46.19699571,502.85
-89.51048918,46.19700367,502.78
-89.51020833,46.19700984,502.85
-89.51012326,46.19701171,502.77
-89.51004079,46.19701352,502.84
-89.50996349,46.19701522,502.88
-89.50983232,46.19701810,502.83
-89.50974388,46.19702004,502.77
-89.50929990,46.19702988,502.82
-89.50875542,46.19704175,502.84
-89.50811320,46.19705594,502.90
-89.50797866,46.19705880,502.86
-89.50795057,46.19705942,502.85
-89.50794772,46.19705948,502.84
-89.50781073,46.19706249,502.85
-89.50771621,46.19706457,502.85
-89.50755021,46.19706821,502.84
-89.50727402,46.19707427,502.85
-89.50664682,46.19708803,502.81
-89.50643239,46.19709274,502.83
-89.50608642,46.19710033,502.85
-89.50575274,46.19710765,502.81
-89.50539123,46.19711557,502.82
-89.50495902,46.19712505,502.84
-89.50492665,46.19712576,502.82
-89.50441145,46.19713733,502.84
-89.50402070,46.19714652,502.81
-89.50363171,46.19715451,502.80
-89.50308180,46.19716646,502.93
-89.50283656,46.19717175,502.81
-89.50241430,46.19718082,502.87
-89.50193651,46.19719128,502.82
-89.50169658,46.19719653,502.83
-89.50149848,46.19720096,502.86
-89.50145796,46.19720212,502.86
-89.50143503,46.19720514,502.83
-89.50143576,46.19724986,502.83
-89.50143867,46.19732252,502.77
-89.50145673,46.19772309,502.79
-89.50146180,46.19783467,502.85
-89.50146374,46.19787738,502.80
-89.50146881,46.19798897,502.83
-89.50147226,46.19806503,502.85
-89.50148694,46.19838846,502.80
-89.50149307,46.19852333,502.82
-89.50150401,46.19876142,502.83
-89.50151943,46.19909526,502.88
-89.50152672,46.19926449,502.83
-89.50153113,46.19936160,502.85
-89.50153645,46.19947876,502.78
-89.50154666,46.19970363,502.86
-89.50156129,46.20002292,502.82
-89.50157229,46.20026803,502.84
-89.50158211,46.20048409,502.84
-89.50159077,46.20067480,502.90
-89.50159337,46.20073216,502.84
-89.50160424,46.20097143,502.86
-89.50160475,46.20098276,502.84
-89.50161060,46.20111142,502.79
-89.50161923,46.20129871,502.86
-89.50163209,46.20158464,502.84
-89.50163902,46.20173723,502.86
-89.50165534,46.20209661,502.85
-89.50167342,46.20249196,502.87
-89.50168100,46.20266164,502.85
-89.50168643,46.20277843,502.81
-89.50169208,46.20289990,502.80
-89.50170781,46.20325192,502.76
-89.50171967,46.20351303,502.81
-89.50172286,46.20358335,502.85
-89.50172945,46.20372847,502.79
-89.50174689,46.20410943,502.79
-89.50175464,46.20428297,502.81
-89.50176367,46.20448168,502.77
-89.50177089,46.20463777,502.79
-89.50178524,46.20495661,502.83
-89.50179377,46.20514453,502.82
-89.50180209,46.20532751,502.84
-89.50181718,46.20565695,502.82
-89.50183134,46.20597156,502.80
-89.50183341,46.20601706,502.82
-89.50183735,46.20610392,502.81
-89.50184145,46.20619131,502.82
-89.50187948,46.20619228,502.84
-89.50192819,46.20619157,502.83
-89.50206871,46.20618858,502.86
-89.50236035,46.20618229,502.89
-89.50296254,46.20616900,502.87
-89.50308298,46.20616646,502.77
-89.50332994,46.20616095,502.72
-89.50354556,46.20615605,502.92
-89.50404479,46.20614502,502.87
-89.50426729,46.20614050,502.77
-89.50462032,46.20613276,502.86
-89.50466176,46.20613186,502.82
-89.50476924,46.20612950,502.84
-89.50494861,46.20612557,502.82
-89.50551388,46.20611308,512.61
-89.50560933,46.20611108,522.43
-89.50567654,46.20610960,504.41
-89.50572835,46.20610847,514.97
-89.50573327,46.20610836,511.51
-89.50588232,46.20610509,512.77
-89.50601364,46.20610221,518.21
-89.50604433,46.20610154,526.69
-89.50607878,46.20610078,528.86
-89.50614858,46.20609925,530.66
-89.50626526,46.20609669,527.94
-89.50651274,46.20609126,527.36
-89.50685386,46.20608378,519.96
-89.50711519,46.20607804,509.61
-89.50734791,46.20607294,514.59
-89.50735115,46.20607287,512.17
-89.50735995,46.20607267,505.39
-89.50760264,46.20606735,503.18
     </coordinates>
    </LineString>
   </MultiGeometry>
  </Placemark>
 </Document>
</kml>
