<kml>
 <Document>
  <Style id="yellow">
   <LineStyle>
   <color>ff00ffff</color>
   <width>1</width>
   </LineStyle>
  </Style>
  <Style id="red">
   <LineStyle>
   <color>ffff0000</color>
   <width>2</width>
   </LineStyle>
  </Style>
  <Style id="green">
   <LineStyle>
   <color>ff00ff00</color>
   <width>1</width>
   </LineStyle>
  </Style>
  <Placemark>
  <styleUrl>#yellow</styleUrl>
   <MultiGeometry>
    <LineString>
     <coordinates>
-89.47058317,46.23387488,530.80
-89.47059276,46.23387468,537.90
-89.47062995,46.23387387,535.97
-89.47067297,46.23387294,541.62
-89.47067698,46.23387285,540.17
-89.47068165,46.23387275,538.42
-89.47069771,46.23387241,529.88
-89.47070186,46.23387232,537.24
-89.47073866,46.23387152,534.26
-89.47078388,46.23387054,539.57
-89.47079658,46.23387027,535.06
-89.47083817,46.23386937,539.10
-89.47084206,46.23386928,539.60
-89.47086292,46.23386883,532.31
-89.47097487,46.23386641,543.74
-89.47105922,46.23386459,539.99
-89.47110716,46.23386355,544.91
-89.47111390,46.23386341,542.51
-89.47127599,46.23385990,537.66
-89.47132652,46.23385881,530.45
-89.47132964,46.23385874,543.28
-89.47139533,46.23385732,542.89
-89.47148486,46.23385538,542.01
-89.47153151,46.23385437,545.88
-89.47157180,46.23385350,541.67
-89.47168699,46.23385101,548.84
-89.47170293,46.23385066,543.50
-89.47173740,46.23384992,544.63
-89.47182512,46.23384802,547.87
-89.47185699,46.23384733,547.17
-89.47186930,46.23384707,543.26
-89.47190506,46.23384629,544.58
-89.47194860,46.23384535,534.84
-89.47205562,46.23384303,545.84
-89.47230881,46.23383756,544.63
-89.47235714,46.23383651,541.71
-89.47238059,46.23383600,545.04
-89.47242218,46.23383510,541.34
-89.47253465,46.23383267,547.24
-89.47256536,46.23383200,544.40
-89.47260825,46.23383108,541.52
-89.47266228,46.23382991,544.06
-89.47272849,46.23382847,542.75
-89.47284264,46.23382600,544.42
-89.47287542,46.23382529,545.65
-89.47288566,46.23382507,541.94
-89.47291170,46.23382451,542.84
-89.47296638,46.23382333,545.88
-89.47324742,46.23381724,545.49
-89.47327191,46.23381671,535.96
-89.47327943,46.23381655,544.59
-89.47330651,46.23381596,545.32
-89.47335186,46.23381498,539.16
-89.47337751,46.23381443,539.76
-89.47346109,46.23381262,531.69
-89.47353080,46.23381111,543.93
-89.47354401,46.23381082,548.36
-89.47365752,46.23380837,527.50
-89.47371064,46.23380721,545.41
-89.47394257,46.23380219,542.72
-89.47404286,46.23380002,545.99
-89.47410195,46.23379874,544.59
-89.47413188,46.23379809,546.31
-89.47429773,46.23379450,548.61
-89.47436342,46.23379308,546.56
-89.47444959,46.23379121,540.94
-89.47449545,46.23379022,545.51
-89.47449947,46.23379013,547.45
-89.47450271,46.23379006,528.90
-89.47450776,46.23378995,542.35
-89.47459276,46.23378811,537.44
-89.47460559,46.23378784,527.53
-89.47463241,46.23378725,546.25
-89.47473464,46.23378504,538.33
-89.47474112,46.23378490,541.19
-89.47480824,46.23378345,530.55
-89.47503266,46.23377859,527.29
-89.47510690,46.23377698,546.09
-89.47519125,46.23377515,541.60
-89.47519631,46.23377504,539.05
-89.47524399,46.23377401,542.74
-89.47524412,46.23377400,526.25
-89.47526290,46.23377360,540.50
-89.47526783,46.23377349,538.05
-89.47529245,46.23377296,543.33
-89.47540479,46.23377052,539.24
-89.47546931,46.23376913,536.00
-89.47547281,46.23376905,535.09
-89.47547890,46.23376892,537.12
-89.47548460,46.23376880,534.58
-89.47563659,46.23376550,523.15
-89.47626164,46.23375196,543.84
-89.47634340,46.23375018,544.61
-89.47636711,46.23374967,538.79
-89.47643928,46.23374811,544.92
-89.47652843,46.23374617,549.22
-89.47654708,46.23374577,547.86
-89.47655913,46.23374551,544.89
-89.47660176,46.23374459,547.03
-89.47663934,46.23374377,547.40
-89.47664193,46.23374371,550.69
-89.47673392,46.23374172,548.30
-89.47693385,46.23373739,547.91
-89.47697130,46.23373657,546.12
-89.47699877,46.23373598,550.87
-89.47705876,46.23373468,548.66
-89.47707198,46.23373439,545.52
-89.47709750,46.23373384,550.97
-89.47709802,46.23373383,549.05
-89.47712497,46.23373324,552.20
-89.47713622,46.23373246,529.39
-89.47714909,46.23373038,549.72
-89.47715273,46.23372760,549.26
-89.47715318,46.23372318,529.53
-89.47715221,46.23369881,551.52
-89.47714881,46.23362319,541.07
-89.47714635,46.23356870,551.89
-89.47714554,46.23355063,529.22
-89.47714524,46.23354398,550.32
-89.47714470,46.23353202,546.09
-89.47714393,46.23351484,544.36
-89.47714276,46.23348895,552.34
-89.47714199,46.23347186,550.39
-89.47714199,46.23347168,528.83
-89.47714012,46.23343032,548.09
-89.47713825,46.23338869,546.33
-89.47713802,46.23338348,543.42
-89.47713738,46.23336936,548.77
-89.47713428,46.23330040,548.19
-89.47713353,46.23328385,550.42
-89.47712675,46.23313315,547.40
-89.47712508,46.23309620,548.54
-89.47712335,46.23305780,544.33
-89.47712174,46.23302202,550.26
-89.47711900,46.23296114,547.73
-89.47711704,46.23291754,548.83
-89.47711395,46.23284884,547.99
-89.47711105,46.23278446,548.85
-89.47710511,46.23265264,542.63
-89.47710205,46.23258458,544.30
-89.47710060,46.23255239,544.61
-89.47710036,46.23254708,541.89
-89.47709963,46.23253081,545.48
-89.47709202,46.23236168,542.56
-89.47709164,46.23235323,541.04
-89.47708852,46.23228399,541.12
-89.47708724,46.23225567,541.36
-89.47708505,46.23220693,536.50
-89.47708308,46.23216314,534.45
-89.47707925,46.23207817,523.45
-89.47707694,46.23202683,536.79
-89.47707476,46.23197837,539.97
-89.47707101,46.23189511,536.56
-89.47707089,46.23189232,536.60
-89.47706954,46.23186247,539.71
-89.47706866,46.23184295,538.47
-89.47706620,46.23178811,535.35
-89.47706591,46.23178181,530.43
-89.47706461,46.23175286,536.14
-89.47706305,46.23171833,536.83
-89.47706263,46.23170880,524.04
-89.47706186,46.23169172,537.63
-89.47706164,46.23168686,538.72
-89.47705816,46.23160953,539.12
-89.47705620,46.23156610,533.74
-89.47705464,46.23153140,524.36
-89.47705444,46.23152690,528.43
-89.47705294,46.23149354,535.91
-89.47705235,46.23148060,535.73
-89.47705090,46.23144823,540.58
-89.47704991,46.23142638,532.33
-89.47704834,46.23139149,531.20
-89.47704619,46.23134365,536.22
-89.47704547,46.23132774,530.09
-89.47704071,46.23122200,521.37
-89.47703916,46.23118756,532.08
-89.47703712,46.23114215,532.49
-89.47702883,46.23095810,528.04
-89.47702279,46.23082376,521.61
-89.47701872,46.23073349,521.56
-89.47701461,46.23064204,532.28
-89.47701056,46.23055213,534.25
-89.47700750,46.23048415,521.43
-89.47700418,46.23041033,523.20
-89.47700378,46.23040152,537.20
-89.47700286,46.23038102,525.82
-89.47700224,46.23036744,535.83
-89.47699940,46.23030432,530.74
-89.47699438,46.23019273,521.67
-89.47699298,46.23016162,530.97
-89.47699042,46.23010480,530.35
-89.47698697,46.23002810,543.18
-89.47698667,46.23002144,534.31
-89.47698482,46.22998035,521.55
-89.47698052,46.22988477,536.96
-89.47697758,46.22981958,532.48
-89.47697724,46.22981203,538.80
-89.47697551,46.22977346,534.70
-89.47697545,46.22977211,539.85
-89.47697529,46.22976851,539.91
-89.47697439,46.22974864,540.34
-89.47697256,46.22970791,541.62
-89.47696939,46.22963751,540.67
-89.47696903,46.22962950,543.15
-89.47696536,46.22954804,531.78
-89.47696025,46.22943439,545.80
-89.47696004,46.22942980,523.22
-89.47695965,46.22942117,546.24
-89.47695860,46.22939788,544.22
-89.47695630,46.22934672,536.12
-89.47695401,46.22929583,538.99
-89.47695379,46.22929088,535.62
-89.47695194,46.22924979,537.10
-89.47695187,46.22924826,539.98
-89.47695108,46.22923082,533.93
-89.47694998,46.22920627,542.86
-89.47694901,46.22918478,538.06
-89.47694595,46.22911671,536.75
-89.47694573,46.22911195,536.74
-89.47694542,46.22910502,538.78
-89.47694169,46.22902212,538.06
-89.47693999,46.22898436,535.46
-89.47693965,46.22897672,537.23
-89.47692681,46.22869150,520.94
-89.47692669,46.22868890,536.29
-89.47692595,46.22867235,540.24
-89.47692412,46.22863180,540.39
-89.47692393,46.22862748,531.89
-89.47692274,46.22860114,536.10
-89.47692253,46.22859646,542.02
-89.47692160,46.22857578,543.29
-89.47692073,46.22855636,544.94
-89.47692071,46.22855600,541.50
-89.47691953,46.22852966,537.02
-89.47691713,46.22847643,541.87
-89.47691466,46.22842149,545.29
-89.47691418,46.22841097,541.73
-89.47691230,46.22836916,528.37
-89.47690872,46.22828967,545.25
-89.47690809,46.22827555,541.85
-89.47690509,46.22820902,534.22
-89.47689975,46.22809033,532.21
-89.47689944,46.22808349,529.22
-89.47689939,46.22808223,535.17
-89.47689890,46.22807145,531.43
-89.47689859,46.22806461,524.15
-89.47689700,46.22802910,538.17
-89.47689536,46.22799268,535.03
-89.47689072,46.22788973,522.53
-89.47689048,46.22788433,534.39
-89.47689030,46.22788028,522.42
-89.47689019,46.22787786,529.42
-89.47688556,46.22777499,537.44
-89.47688467,46.22775512,535.55
-89.47688448,46.22775090,537.37
-89.47688269,46.22771133,535.79
-89.47688085,46.22767042,532.77
-89.47687854,46.22761908,531.25
-89.47687837,46.22761530,532.75
-89.47687327,46.22750192,525.95
-89.47687152,46.22746596,521.71
-89.47686076,46.22724694,519.84
-89.47684883,46.22696171,520.10
-89.47684197,46.22680651,519.95
-89.47684061,46.22677621,519.94
-89.47683401,46.22663244,519.94
-89.47681888,46.22629921,519.95
-89.47680351,46.22595177,519.85
-89.47679063,46.22566566,519.88
-89.47677305,46.22527507,531.19
-89.47677242,46.22526095,529.54
-89.47677164,46.22524360,533.33
-89.47677089,46.22522696,538.28
-89.47677027,46.22521321,537.45
-89.47676668,46.22513345,537.00
-89.47676325,46.22505711,537.16
-89.47676308,46.22505352,538.04
-89.47676090,46.22500505,536.48
-89.47675861,46.22495416,523.47
-89.47675782,46.22493654,537.73
-89.47675647,46.22490641,540.08
-89.47675463,46.22486568,534.82
-89.47675301,46.22482963,538.49
-89.47675153,46.22479681,538.57
-89.47675073,46.22477891,543.78
-89.47674918,46.22475312,542.17
-89.47674874,46.22474620,541.84
-89.47674815,46.22474189,545.31
-89.47674528,46.22474141,540.66
-89.47671133,46.22474206,539.86
-89.47656287,46.22474518,536.42
-89.47656079,46.22474523,537.02
-89.47654900,46.22474548,540.44
-89.47637839,46.22474918,536.17
-89.47636725,46.22474942,535.07
-89.47628822,46.22475114,541.57
-89.47625480,46.22475186,536.45
-89.47622344,46.22475254,541.55
-89.47607977,46.22475565,534.55
-89.47604855,46.22475633,537.55
-89.47585526,46.22476052,542.89
-89.47578142,46.22476212,539.36
-89.47577209,46.22476232,534.81
-89.47573608,46.22476310,538.22
-89.47570408,46.22476380,537.31
-89.47569799,46.22476393,543.82
-89.47558917,46.22476629,543.92
-89.47556598,46.22476679,546.42
-89.47555704,46.22476698,526.11
-89.47542969,46.22476974,542.95
-89.47541505,46.22477006,544.85
-89.47537204,46.22477099,546.97
-89.47524742,46.22477369,545.96
-89.47521490,46.22477439,543.40
-89.47521438,46.22477441,542.60
-89.47504635,46.22477805,543.11
-89.47499143,46.22477924,531.70
-89.47496966,46.22477971,552.10
-89.47496176,46.22477988,553.14
-89.47490268,46.22478116,550.04
-89.47489957,46.22478123,552.64
-89.47487755,46.22478170,547.87
-89.47471743,46.22478517,536.96
-89.47466936,46.22478621,552.31
-89.47456002,46.22478858,550.24
-89.47431090,46.22479397,549.10
-89.47396047,46.22480156,552.35
-89.47362623,46.22480889,544.37
-89.47311139,46.22481994,541.58
-89.47293806,46.22482370,543.57
-89.47276770,46.22482738,536.68
-89.47270163,46.22482881,533.75
-89.47266768,46.22482955,519.39
-89.47258296,46.22483138,532.29
-89.47250730,46.22483302,534.16
-89.47247686,46.22483368,532.46
-89.47247167,46.22483379,533.96
-89.47241713,46.22483497,525.33
-89.47238125,46.22483575,525.24
-89.47230352,46.22483743,525.40
-89.47229885,46.22483753,527.51
-89.47229471,46.22483762,530.07
-89.47223110,46.22483900,538.22
-89.47216866,46.22484035,529.05
-89.47216386,46.22484045,542.87
-89.47211671,46.22484147,543.10
-89.47211204,46.22484157,544.17
-89.47211165,46.22484158,544.17
-89.47201864,46.22484359,530.27
-89.47200490,46.22484389,533.96
-89.47200050,46.22484399,535.30
-89.47191500,46.22484583,535.68
-89.47183001,46.22484767,534.80
-89.47182535,46.22484777,533.34
-89.47177210,46.22484893,519.96
-89.47176692,46.22484904,537.93
-89.47172715,46.22484990,530.80
-89.47167934,46.22485093,529.18
-89.47152531,46.22485427,531.31
-89.47152090,46.22485436,532.30
-89.47150018,46.22485481,527.55
-89.47136920,46.22485764,526.18
-89.47136402,46.22485775,529.73
-89.47136246,46.22485779,529.81
-89.47135806,46.22485788,530.96
-89.47132567,46.22485858,523.31
-89.47131492,46.22485882,531.27
-89.47128551,46.22485945,519.39
-89.47128085,46.22485955,522.88
-89.47124509,46.22486033,518.03
-89.47117462,46.22486185,523.90
-89.47097368,46.22486620,517.92
-89.47095699,46.22486692,517.93
-89.47032284,46.22488081,517.96
-89.47027050,46.22488176,518.15
-89.47017500,46.22488347,517.97
-89.46976135,46.22489241,525.38
-89.46974567,46.22489275,521.42
-89.46964656,46.22489489,517.99
-89.46959112,46.22489609,528.61
-89.46943475,46.22489947,530.81
-89.46943332,46.22489950,531.75
-89.46934834,46.22490134,518.33
-89.46934627,46.22490138,519.72
-89.46934380,46.22490143,521.47
-89.46933707,46.22490158,526.19
-89.46932463,46.22490185,523.24
-89.46931802,46.22490199,525.07
-89.46926465,46.22490314,525.95
-89.46903949,46.22490801,530.41
-89.46896008,46.22490973,523.87
-89.46893391,46.22491029,532.75
-89.46859461,46.22491762,533.25
-89.46854240,46.22491875,530.46
-89.46839212,46.22492200,538.97
-89.46824677,46.22492514,539.32
-89.46819948,46.22492616,540.03
-89.46808211,46.22492869,526.14
-89.46800658,46.22493033,542.42
-89.46777805,46.22493526,538.68
-89.46768581,46.22493725,538.39
-89.46758567,46.22493942,539.93
-89.46743111,46.22494275,517.14
-89.46732087,46.22494514,532.43
-89.46722590,46.22494719,532.38
-89.46697471,46.22495261,515.68
-89.46693260,46.22495352,515.50
-89.46652374,46.22496235,515.20
-89.46596822,46.22497434,515.12
-89.46584450,46.22497701,515.00
-89.46559796,46.22498233,515.19
-89.46553928,46.22498359,518.24
-89.46538278,46.22498697,515.19
-89.46534223,46.22498785,513.85
-89.46528289,46.22498913,515.07
-89.46517602,46.22499143,515.03
-89.46513948,46.22499222,515.41
-89.46492754,46.22499679,515.42
-89.46470147,46.22500167,515.13
-89.46461350,46.22500357,515.33
-89.46438199,46.22500856,515.17
-89.46427835,46.22501080,515.04
-89.46419518,46.22501259,515.46
-89.46415269,46.22501351,515.45
-89.46411460,46.22501433,527.37
-89.46403415,46.22501606,524.80
-89.46402365,46.22501629,523.61
-89.46393737,46.22501815,529.09
-89.46392105,46.22501850,525.82
-89.46388529,46.22501927,526.29
-89.46387169,46.22501957,527.13
-89.46381236,46.22502085,530.85
-89.46379941,46.22502131,531.49
-89.46379450,46.22502177,531.27
-89.46379549,46.22505262,536.29
-89.46379594,46.22506251,537.37
-89.46380266,46.22521267,537.64
-89.46380411,46.22524522,537.81
-89.46380446,46.22525305,523.06
-89.46380521,46.22526959,539.28
-89.46380686,46.22530655,542.39
-89.46380971,46.22537030,541.24
-89.46381008,46.22537848,543.18
-89.46381245,46.22543135,543.90
-89.46381301,46.22544385,546.06
-89.46381413,46.22546902,529.50
-89.46381541,46.22549753,543.02
-89.46381586,46.22550751,530.33
-89.46381707,46.22553457,550.14
-89.46381790,46.22555319,550.76
-89.46381937,46.22558601,548.13
-89.46381986,46.22559689,541.73
-89.46382011,46.22560246,549.05
-89.46382138,46.22563087,549.49
-89.46382300,46.22566720,531.85
-89.46382346,46.22567727,531.85
-89.46382778,46.22577393,551.41
-89.46382849,46.22578976,546.70
-89.46383003,46.22582402,549.39
-89.46383015,46.22582689,545.45
-89.46383073,46.22583984,551.54
-89.46383796,46.22600124,548.46
-89.46383919,46.22602876,555.33
-89.46384139,46.22607785,552.08
-89.46384142,46.22607848,530.61
-89.46384339,46.22612254,548.33
-89.46384358,46.22612685,548.49
-89.46384716,46.22620688,543.51
-89.46384889,46.22624536,548.24
-89.46385152,46.22630408,541.32
-89.46385311,46.22633978,552.41
-89.46385426,46.22636540,551.21
-89.46385452,46.22637116,530.25
-89.46385558,46.22639481,538.09
-89.46385657,46.22641692,548.32
-89.46385709,46.22642870,549.35
-89.46385922,46.22647609,543.47
-89.46386142,46.22652536,542.43
-89.46386575,46.22662211,548.55
-89.46386587,46.22662481,530.28
-89.46386733,46.22665736,547.70
-89.46386838,46.22668083,547.13
-89.46386967,46.22670960,539.74
-89.46387120,46.22674368,542.18
-89.46387459,46.22681948,543.51
-89.46388163,46.22697675,536.39
-89.46388584,46.22707071,546.25
-89.46388823,46.22712421,548.79
-89.46389245,46.22721853,548.12
-89.46389288,46.22722806,547.88
-89.46389310,46.22723292,545.85
-89.46389606,46.22729910,525.77
-89.46389768,46.22733524,546.07
-89.46390034,46.22739477,543.35
-89.46390135,46.22741716,546.04
-89.46390226,46.22743748,543.76
-89.46390466,46.22749107,531.23
-89.46390480,46.22749421,542.36
-89.46390543,46.22750833,535.42
-89.46390679,46.22753881,547.99
-89.46390829,46.22757235,544.95
-89.46390874,46.22758233,544.97
-89.46391173,46.22764905,526.81
-89.46391561,46.22773582,543.90
-89.46391711,46.22776936,546.94
-89.46392841,46.22802158,552.45
-89.46392850,46.22802364,547.71
-89.46392879,46.22803012,545.41
-89.46393062,46.22807094,541.38
-89.46393928,46.22826444,548.73
-89.46394645,46.22842458,550.33
-89.46394736,46.22844490,551.62
-89.46395147,46.22853680,548.35
-89.46395471,46.22860900,548.57
-89.46395969,46.22872023,549.19
-89.46395995,46.22872607,549.89
-89.46396307,46.22879576,535.54
-89.46396569,46.22885420,538.77
-89.46396662,46.22887506,547.59
-89.46397117,46.22897676,541.87
-89.46397165,46.22898737,540.47
-89.46397223,46.22900032,543.99
-89.46397527,46.22906838,535.33
-89.46397752,46.22911856,541.66
-89.46397990,46.22917179,528.22
-89.46398181,46.22921441,545.50
-89.46398859,46.22936574,538.33
-89.46399421,46.22949126,537.16
-89.46399536,46.22951698,544.95
-89.46399935,46.22960599,550.18
-89.46399953,46.22961013,549.80
-89.46400032,46.22962784,541.98
-89.46400058,46.22963360,543.22
-89.46400319,46.22969195,545.78
-89.46400342,46.22969690,548.80
-89.46400472,46.22972594,550.66
-89.46400561,46.22974590,550.06
-89.46400681,46.22977270,551.01
-89.46400872,46.22981541,548.27
-89.46400956,46.22983402,543.36
-89.46401051,46.22985524,546.84
-89.46401092,46.22986459,547.07
-89.46401801,46.23002285,538.54
-89.46402409,46.23015862,529.13
-89.46402536,46.23018415,532.01
-89.46403834,46.23043048,528.97
-89.46405138,46.23075943,528.94
-89.46405266,46.23079667,528.96
-89.46406258,46.23101813,549.83
-89.46406290,46.23102533,548.27
-89.46406434,46.23105752,548.45
-89.46406665,46.23110904,548.42
-89.46407200,46.23122863,540.95
-89.46407219,46.23123276,540.57
-89.46407341,46.23126001,539.69
-89.46407372,46.23126702,548.82
-89.46407395,46.23127215,548.80
-89.46407488,46.23129301,529.47
-89.46407821,46.23136719,545.09
-89.46408059,46.23142033,535.26
-89.46408106,46.23143085,531.94
-89.46410118,46.23187161,528.98
-89.46410816,46.23203311,528.98
-89.46411914,46.23228128,529.22
-89.46412017,46.23230430,529.18
-89.46412458,46.23240275,537.42
-89.46412824,46.23248440,540.07
-89.46413065,46.23253835,544.14
-89.46413201,46.23256874,542.32
-89.46413304,46.23259167,533.08
-89.46413501,46.23263564,545.84
-89.46413793,46.23270092,547.95
-89.46414036,46.23275514,552.48
-89.46414132,46.23277663,530.88
-89.46414332,46.23282123,552.85
-89.46414465,46.23285099,547.38
-89.46414580,46.23287652,546.27
-89.46414610,46.23288327,549.28
-89.46414649,46.23289199,550.60
-89.46414933,46.23295538,549.83
-89.46415004,46.23297121,551.60
-89.46415387,46.23305681,547.29
-89.46415469,46.23307515,542.36
-89.46415500,46.23308207,545.10
-89.46415596,46.23310356,548.02
-89.46415645,46.23311453,545.86
-89.46415885,46.23316794,545.43
-89.46416110,46.23321830,542.84
-89.46416146,46.23322630,545.00
-89.46416174,46.23323250,542.18
-89.46416546,46.23331568,523.74
-89.46416832,46.23337952,538.88
-89.46416890,46.23339237,538.25
-89.46416910,46.23339678,538.61
-89.46417432,46.23351349,541.05
-89.46417506,46.23353004,535.45
-89.46417604,46.23355198,536.63
-89.46417699,46.23357311,537.44
-89.46417746,46.23358354,538.85
-89.46417876,46.23361267,537.01
-89.46417901,46.23361815,539.35
-89.46417962,46.23363173,536.01
-89.46418212,46.23368766,543.29
-89.46418279,46.23370268,542.75
-89.46418396,46.23372875,544.20
-89.46418596,46.23377335,527.58
-89.46418666,46.23378900,541.84
-89.46418712,46.23379934,544.98
-89.46418765,46.23381103,536.84
-89.46418950,46.23385230,546.91
-89.46419255,46.23392045,545.70
-89.46419549,46.23398618,543.60
-89.46419583,46.23399077,537.23
-89.46419743,46.23401206,541.68
-89.46423206,46.23401204,542.60
-89.46427507,46.23401111,544.98
-89.46429153,46.23401075,542.59
-89.46431770,46.23401019,538.64
-89.46433701,46.23400977,541.81
-89.46435243,46.23400944,524.73
-89.46435917,46.23400929,544.23
-89.46437187,46.23400902,532.60
-89.46440789,46.23400824,541.73
-89.46441359,46.23400812,549.05
-89.46443730,46.23400761,537.30
-89.46452230,46.23400577,542.53
-89.46455897,46.23400498,537.08
-89.46463892,46.23400326,538.62
-89.46467494,46.23400248,540.29
-89.46468504,46.23400226,535.51
-89.46478481,46.23400011,530.89
-89.46486774,46.23399832,534.23
-89.46487344,46.23399820,523.87
-89.46497671,46.23399597,523.74
-89.46500962,46.23399526,535.08
-89.46511989,46.23399288,536.11
-89.46520230,46.23399111,523.84
-89.46520748,46.23399099,539.38
-89.46530168,46.23398896,536.69
-89.46543605,46.23398606,531.37
-89.46555888,46.23398341,534.97
-89.46564531,46.23398155,530.99
-89.46569117,46.23398056,536.12
-89.46571864,46.23397996,532.78
-89.46577566,46.23397873,534.11
-89.46580714,46.23397805,531.00
-89.46587698,46.23397655,537.59
-89.46597261,46.23397448,537.35
-89.46604996,46.23397281,541.14
-89.46609078,46.23397193,540.92
-89.46609777,46.23397178,533.56
-89.46610671,46.23397159,538.41
-89.46612693,46.23397115,539.91
-89.46621672,46.23396921,537.53
-89.46622773,46.23396898,542.18
-89.46637052,46.23396589,545.66
-89.46638231,46.23396564,545.70
-89.46641069,46.23396503,544.83
-89.46646317,46.23396389,546.57
-89.46649465,46.23396322,544.81
-89.46650450,46.23396300,529.16
-89.46659546,46.23396104,545.17
-89.46659961,46.23396095,527.89
-89.46659974,46.23396095,543.59
-89.46687184,46.23395507,540.70
-89.46714277,46.23394922,527.15
-89.46727908,46.23394628,527.15
-89.46729489,46.23394594,539.21
-89.46747279,46.23394210,546.72
-89.46782095,46.23393458,538.86
-89.46791425,46.23393256,542.97
-89.46837527,46.23392260,537.91
-89.46840416,46.23392198,526.82
-89.46848268,46.23392028,535.35
-89.46863298,46.23391703,535.00
-89.46873224,46.23391489,537.91
-89.46888993,46.23391148,536.46
-89.46889887,46.23391129,533.14
-89.46915270,46.23390580,526.88
-89.46916177,46.23390561,528.85
-89.46925752,46.23390354,527.05
-89.46931505,46.23390230,531.14
-89.46936235,46.23390127,535.50
-89.46938632,46.23390076,526.82
-89.46943763,46.23389965,527.89
-89.46944346,46.23389952,536.79
-89.46948207,46.23389869,527.03
-89.46960102,46.23389612,532.97
-89.46960750,46.23389598,544.43
-89.46964468,46.23389517,544.47
-89.46968900,46.23389421,526.86
-89.46970480,46.23389387,546.90
-89.46970740,46.23389382,545.91
-89.46971051,46.23389375,545.02
-89.46975961,46.23389269,543.33
-89.46979810,46.23389186,540.64
-89.46986599,46.23389039,543.09
-89.46990499,46.23388954,526.77
-89.46990538,46.23388954,546.93
-89.47000528,46.23388738,533.72
-89.47003884,46.23388665,537.28
-89.47004027,46.23388662,537.44
-89.47008277,46.23388570,536.11
-89.47008626,46.23388563,539.02
-89.47024343,46.23388223,531.65
-89.47028891,46.23388124,540.23
-89.47028969,46.23388123,540.21
-89.47040216,46.23387880,541.41
-89.47044362,46.23387790,526.96
-89.47044764,46.23387781,543.80
-89.47045036,46.23387775,542.70
-89.47048029,46.23387711,539.27
-89.47051346,46.23387639,541.12
-89.47058317,46.23387488,530.80
     </coordinates>
    </LineString>
   </MultiGeometry>
  </Placemark>
 </Document>
</kml>
