<kml>
 <Document>
  <Style id="yellow">
   <LineStyle>
   <color>ff00ffff</color>
   <width>1</width>
   </LineStyle>
  </Style>
  <Style id="red">
   <LineStyle>
   <color>ffff0000</color>
   <width>2</width>
   </LineStyle>
  </Style>
  <Style id="green">
   <LineStyle>
   <color>ff00ff00</color>
   <width>1</width>
   </LineStyle>
  </Style>
  <Placemark>
  <styleUrl>#yellow</styleUrl>
   <MultiGeometry>
    <LineString>
     <coordinates>
-89.45758582,46.24315550,532.53
-89.45784074,46.24315001,528.89
-89.45787547,46.24314927,528.15
-89.45825713,46.24314106,518.14
-89.45825855,46.24314103,519.44
-89.45828408,46.24314048,522.54
-89.45831959,46.24313971,518.13
-89.45833942,46.24313929,517.15
-89.45835290,46.24313900,524.13
-89.45841432,46.24313768,530.06
-89.45841666,46.24313763,517.11
-89.45842443,46.24313746,526.69
-89.45848949,46.24313606,529.91
-89.45861740,46.24313331,526.93
-89.45862751,46.24313309,522.05
-89.45864578,46.24313269,517.06
-89.45867377,46.24313209,518.05
-89.45868297,46.24313189,523.40
-89.45872315,46.24313103,527.58
-89.45884782,46.24312835,517.13
-89.45894281,46.24312630,527.79
-89.45898441,46.24312541,528.30
-89.45902912,46.24312445,522.66
-89.45903845,46.24312424,521.47
-89.45912904,46.24312230,531.14
-89.45916597,46.24312150,527.70
-89.45917025,46.24312141,532.28
-89.45917466,46.24312131,531.72
-89.45925708,46.24311954,528.21
-89.45927017,46.24311926,528.95
-89.45934157,46.24311772,532.27
-89.45934170,46.24311772,531.55
-89.45944992,46.24311539,531.12
-89.45945199,46.24311534,530.34
-89.45950849,46.24311413,531.32
-89.45963420,46.24311142,533.47
-89.45972349,46.24310950,525.30
-89.45981213,46.24310759,520.96
-89.45989183,46.24310588,517.16
-89.45992903,46.24310507,526.38
-89.45999162,46.24310373,525.35
-89.46000082,46.24310353,524.15
-89.46016048,46.24310009,523.69
-89.46017318,46.24309982,517.22
-89.46018679,46.24309952,535.05
-89.46028230,46.24309747,533.39
-89.46032170,46.24309662,517.47
-89.46033777,46.24309627,540.07
-89.46034554,46.24309611,535.46
-89.46035889,46.24309582,540.46
-89.46036809,46.24309562,539.84
-89.46038287,46.24309530,537.37
-89.46045013,46.24309385,528.44
-89.46050922,46.24309258,520.78
-89.46051285,46.24309250,517.32
-89.46054991,46.24309171,528.86
-89.46058892,46.24309087,531.55
-89.46062119,46.24309017,517.68
-89.46064905,46.24308957,533.52
-89.46070608,46.24308834,537.02
-89.46080146,46.24308629,531.25
-89.46081351,46.24308603,536.33
-89.46082375,46.24308581,534.98
-89.46083723,46.24308552,531.19
-89.46089282,46.24308432,519.27
-89.46095256,46.24308303,531.88
-89.46095866,46.24308290,538.68
-89.46109058,46.24308006,520.12
-89.46119413,46.24307783,526.90
-89.46122471,46.24307717,537.41
-89.46123288,46.24307700,535.62
-89.46126087,46.24307639,532.54
-89.46129612,46.24307563,536.47
-89.46131556,46.24307522,538.55
-89.46148494,46.24307157,537.85
-89.46155699,46.24307001,540.64
-89.46157565,46.24306961,525.41
-89.46173000,46.24306629,538.04
-89.46177976,46.24306521,537.77
-89.46191999,46.24306219,539.51
-89.46204725,46.24305945,542.88
-89.46205282,46.24305933,542.08
-89.46208651,46.24305861,537.34
-89.46228142,46.24305441,539.34
-89.46231032,46.24305378,535.29
-89.46241866,46.24305145,539.33
-89.46245741,46.24305061,541.78
-89.46250731,46.24304954,539.64
-89.46290192,46.24304103,537.63
-89.46297398,46.24303948,542.27
-89.46298033,46.24303934,541.32
-89.46310098,46.24303674,536.79
-89.46318807,46.24303486,537.74
-89.46324522,46.24303363,523.41
-89.46325442,46.24303343,541.61
-89.46339036,46.24303050,543.22
-89.46341460,46.24302998,544.98
-89.46349300,46.24302829,533.30
-89.46358760,46.24302625,538.62
-89.46364566,46.24302500,538.93
-89.46367365,46.24302439,537.80
-89.46368169,46.24302422,540.33
-89.46371175,46.24302357,543.41
-89.46373923,46.24302298,539.13
-89.46383202,46.24302098,544.67
-89.46402978,46.24301672,543.84
-89.46406645,46.24301592,545.01
-89.46413864,46.24301437,537.78
-89.46415484,46.24301402,545.37
-89.46417985,46.24301348,541.51
-89.46441986,46.24300830,547.22
-89.46449619,46.24300666,536.07
-89.46456422,46.24300510,539.32
-89.46458495,46.24300456,536.92
-89.46459906,46.24300399,529.81
-89.46459824,46.24297988,545.82
-89.46459659,46.24294302,529.85
-89.46459519,46.24291173,544.67
-89.46459462,46.24289896,544.23
-89.46459439,46.24289392,545.66
-89.46459368,46.24287792,546.38
-89.46459323,46.24286803,548.22
-89.46458896,46.24277272,547.10
-89.46458754,46.24274098,527.97
-89.46458728,46.24273513,544.88
-89.46458701,46.24272911,547.54
-89.46458683,46.24272515,527.81
-89.46458682,46.24272497,541.36
-89.46458316,46.24264324,528.15
-89.46458118,46.24259909,542.12
-89.46457186,46.24239102,550.06
-89.46457164,46.24238608,542.18
-89.46457029,46.24235605,545.71
-89.46456848,46.24231558,548.80
-89.46456386,46.24221254,549.63
-89.46456335,46.24220112,543.39
-89.46456243,46.24218062,545.48
-89.46456067,46.24214133,527.85
-89.46455919,46.24210815,526.67
-89.46455589,46.24203451,545.56
-89.46455522,46.24201976,546.00
-89.46455463,46.24200645,544.09
-89.46454867,46.24187338,543.04
-89.46454699,46.24183597,545.04
-89.46454667,46.24182887,546.26
-89.46454618,46.24181781,533.22
-89.46454594,46.24181250,532.29
-89.46454447,46.24177968,541.01
-89.46454247,46.24173499,539.77
-89.46454145,46.24171234,542.02
-89.46453748,46.24162368,538.10
-89.46453742,46.24162233,541.36
-89.46453514,46.24157153,534.84
-89.46453471,46.24156182,542.44
-89.46453214,46.24150445,526.88
-89.46452593,46.24136598,540.64
-89.46452514,46.24134835,546.22
-89.46452473,46.24133909,543.14
-89.46452429,46.24132920,535.50
-89.46452139,46.24126464,541.90
-89.46451974,46.24122769,545.46
-89.46451891,46.24120925,536.41
-89.46451452,46.24111116,545.35
-89.46451345,46.24108742,528.97
-89.46451235,46.24106269,542.50
-89.46451218,46.24105891,546.47
-89.46451196,46.24105406,546.71
-89.46450957,46.24100065,533.64
-89.46450878,46.24098302,543.06
-89.46450780,46.24096126,545.77
-89.46450642,46.24093042,543.23
-89.46450562,46.24091262,544.34
-89.46450541,46.24090785,527.00
-89.46450476,46.24089347,543.46
-89.46450208,46.24083349,535.50
-89.46450136,46.24081758,543.84
-89.46450094,46.24080814,531.28
-89.46450054,46.24079915,539.62
-89.46450024,46.24079240,543.33
-89.46450001,46.24078746,535.63
-89.46449987,46.24078422,541.16
-89.46449911,46.24076723,540.41
-89.46449707,46.24072173,546.57
-89.46449651,46.24070932,546.10
-89.46449589,46.24069538,535.62
-89.46449356,46.24064332,547.93
-89.46449240,46.24061752,546.41
-89.46449227,46.24061464,544.29
-89.46449102,46.24058667,544.63
-89.46448836,46.24052724,544.33
-89.46448799,46.24051915,527.06
-89.46448583,46.24047077,547.92
-89.46448508,46.24045423,548.82
-89.46447956,46.24033086,530.38
-89.46447405,46.24020795,531.51
-89.46447335,46.24019221,550.41
-89.46447259,46.24017522,553.18
-89.46447024,46.24012298,538.79
-89.46446804,46.24007370,552.95
-89.46446269,46.23995429,545.81
-89.46446238,46.23994746,542.34
-89.46445736,46.23983533,548.19
-89.46445024,46.23967645,543.96
-89.46445013,46.23967393,544.08
-89.46444981,46.23966683,540.70
-89.46444853,46.23963824,539.27
-89.46444759,46.23961720,545.17
-89.46444223,46.23949770,527.27
-89.46444086,46.23946695,538.79
-89.46443868,46.23941848,537.78
-89.46443636,46.23936660,537.95
-89.46443424,46.23931921,534.66
-89.46443319,46.23929593,537.14
-89.46443276,46.23928621,536.89
-89.46443223,46.23927435,529.83
-89.46442938,46.23921086,540.45
-89.46442504,46.23911393,540.03
-89.46442438,46.23909919,537.63
-89.46442135,46.23903148,537.39
-89.46441902,46.23897960,536.97
-89.46441833,46.23896413,538.70
-89.46441667,46.23892709,538.19
-89.46441599,46.23891198,517.06
-89.46441470,46.23888312,535.85
-89.46441447,46.23887790,534.62
-89.46441172,46.23881658,535.04
-89.46441066,46.23879284,529.53
-89.46441015,46.23878151,532.67
-89.46440966,46.23877063,532.24
-89.46440781,46.23872936,530.16
-89.46440719,46.23871552,531.36
-89.46440705,46.23871237,530.76
-89.46440666,46.23870356,534.07
-89.46440455,46.23865653,534.45
-89.46440167,46.23859224,527.00
-89.46440148,46.23858801,530.60
-89.46440146,46.23858756,526.52
-89.46439901,46.23853281,530.91
-89.46439857,46.23852300,532.72
-89.46439608,46.23846753,527.81
-89.46439594,46.23846429,533.55
-89.46439591,46.23846375,533.58
-89.46439571,46.23845907,530.06
-89.46439488,46.23844064,535.34
-89.46439482,46.23843929,536.17
-89.46439427,46.23842706,535.90
-89.46439348,46.23840944,527.97
-89.46439330,46.23840539,534.00
-89.46439223,46.23838157,534.21
-89.46438969,46.23832474,532.17
-89.46438959,46.23832249,518.03
-89.46438750,46.23827591,535.29
-89.46438649,46.23825326,537.33
-89.46438515,46.23822349,534.68
-89.46438504,46.23822107,521.87
-89.46438399,46.23819760,536.62
-89.46438321,46.23818015,532.71
-89.46438170,46.23814653,518.01
-89.46438040,46.23811730,537.86
-89.46437934,46.23809365,532.23
-89.46437897,46.23808538,525.26
-89.46437792,46.23806200,532.61
-89.46437627,46.23802532,531.44
-89.46437458,46.23798755,531.79
-89.46437328,46.23795842,530.44
-89.46437157,46.23792030,532.40
-89.46436979,46.23788064,528.94
-89.46436723,46.23782337,517.74
-89.46435633,46.23757996,514.82
-89.46435501,46.23755065,514.77
-89.46434265,46.23727461,515.10
-89.46433549,46.23711492,527.73
-89.46433379,46.23707688,531.23
-89.46433359,46.23707239,534.18
-89.46433269,46.23705224,530.47
-89.46432992,46.23699038,533.85
-89.46432739,46.23693409,532.89
-89.46432516,46.23688428,537.38
-89.46432412,46.23686108,523.81
-89.46431969,46.23676208,517.13
-89.46431795,46.23672315,524.45
-89.46430938,46.23653199,536.93
-89.46430614,46.23645960,536.83
-89.46430580,46.23645187,539.39
-89.46430272,46.23638318,536.73
-89.46429932,46.23630738,538.58
-89.46429845,46.23628777,521.46
-89.46429322,46.23617106,535.51
-89.46428984,46.23609562,534.01
-89.46428959,46.23608996,532.80
-89.46428814,46.23605777,533.16
-89.46428620,46.23601443,532.86
-89.46428398,46.23596480,531.86
-89.46427906,46.23585492,534.68
-89.46427726,46.23581472,529.06
-89.46427300,46.23571959,533.32
-89.46427205,46.23569855,539.10
-89.46427104,46.23567598,537.79
-89.46427059,46.23566582,536.50
-89.46426836,46.23561619,521.86
-89.46426558,46.23555406,539.64
-89.46426033,46.23543690,541.13
-89.46425565,46.23533223,542.88
-89.46425525,46.23532342,543.31
-89.46425340,46.23528206,544.66
-89.46424980,46.23520159,539.60
-89.46424855,46.23517371,544.05
-89.46424473,46.23508847,544.92
-89.46424426,46.23507804,542.71
-89.46424400,46.23507220,545.93
-89.46424159,46.23501843,540.28
-89.46423830,46.23494487,537.05
-89.46423504,46.23487213,542.01
-89.46423399,46.23484875,540.94
-89.46423318,46.23483050,544.33
-89.46423250,46.23481548,536.84
-89.46423196,46.23480326,526.38
-89.46423185,46.23480101,543.03
-89.46423097,46.23478132,545.23
-89.46423095,46.23478078,545.17
-89.46423044,46.23476936,541.58
-89.46423022,46.23476459,542.97
-89.46423000,46.23475965,542.12
-89.46422878,46.23473231,545.78
-89.46422796,46.23471397,543.05
-89.46422681,46.23468843,536.68
-89.46422550,46.23465921,547.05
-89.46422350,46.23461443,536.25
-89.46422203,46.23458170,542.65
-89.46422203,46.23458161,526.13
-89.46422115,46.23456210,543.59
-89.46422024,46.23454178,546.53
-89.46422022,46.23454124,545.83
-89.46421662,46.23446085,545.91
-89.46421365,46.23439450,538.96
-89.46421309,46.23438200,533.19
-89.46421282,46.23437606,542.24
-89.46421106,46.23433677,544.24
-89.46421084,46.23433182,540.90
-89.46420977,46.23430782,541.40
-89.46420898,46.23429037,544.30
-89.46420522,46.23420621,540.36
-89.46420313,46.23415954,541.98
-89.46420264,46.23414875,541.22
-89.46420232,46.23414165,535.03
-89.46420180,46.23412987,543.15
-89.46419815,46.23404850,536.75
-89.46419680,46.23401838,543.00
-89.46419451,46.23401347,539.23
-89.46418840,46.23401325,540.94
-89.46418075,46.23401332,544.17
-89.46414317,46.23401404,536.35
-89.46410819,46.23401480,544.67
-89.46405416,46.23401596,544.56
-89.46403291,46.23401642,542.68
-89.46384101,46.23402056,541.47
-89.46381367,46.23402115,535.68
-89.46371999,46.23402317,538.86
-89.46352382,46.23402740,539.95
-89.46345579,46.23402886,544.13
-89.46343143,46.23402939,541.56
-89.46325573,46.23403318,539.29
-89.46324899,46.23403332,540.30
-89.46318615,46.23403468,533.27
-89.46303494,46.23403794,538.58
-89.46284602,46.23404201,522.43
-89.46283980,46.23404214,528.30
-89.46276957,46.23404366,538.11
-89.46255267,46.23404833,530.51
-89.46248905,46.23404970,534.45
-89.46246222,46.23405028,533.71
-89.46224091,46.23405505,531.57
-89.46220256,46.23405588,526.89
-89.46220165,46.23405590,530.92
-89.46218507,46.23405625,529.34
-89.46217341,46.23405651,530.92
-89.46216226,46.23405675,521.16
-89.46213272,46.23405738,530.19
-89.46189171,46.23406258,536.69
-89.46187526,46.23406293,538.91
-89.46186282,46.23406320,534.43
-89.46178495,46.23406488,541.37
-89.46175540,46.23406551,539.52
-89.46167533,46.23406724,524.16
-89.46166639,46.23406743,545.45
-89.46158216,46.23406925,536.72
-89.46152321,46.23407052,544.59
-89.46147747,46.23407150,544.43
-89.46145415,46.23407200,543.12
-89.46126082,46.23407617,543.68
-89.46125201,46.23407636,525.07
-89.46115392,46.23407847,541.55
-89.46112373,46.23407912,540.46
-89.46107942,46.23408008,539.76
-89.46095671,46.23408272,520.98
-89.46092743,46.23408335,531.28
-89.46084360,46.23408515,535.64
-89.46082429,46.23408557,524.43
-89.46068409,46.23408859,536.05
-89.46057357,46.23409097,529.79
-89.46051979,46.23409213,526.16
-89.46048014,46.23409298,531.21
-89.46043959,46.23409385,532.21
-89.46037934,46.23409515,535.35
-89.46034681,46.23409585,532.07
-89.46032349,46.23409635,521.64
-89.46020312,46.23409895,533.04
-89.46009972,46.23410117,537.67
-89.46000966,46.23410311,522.02
-89.45999891,46.23410334,529.68
-89.45988488,46.23410580,532.25
-89.45982100,46.23410717,531.34
-89.45977695,46.23410812,521.05
-89.45959671,46.23411200,536.69
-89.45956510,46.23411268,533.47
-89.45942295,46.23411574,536.01
-89.45939523,46.23411634,539.45
-89.45932862,46.23411777,534.11
-89.45931023,46.23411817,535.19
-89.45929830,46.23411843,532.65
-89.45878118,46.23412956,525.72
-89.45876563,46.23412989,541.89
-89.45860249,46.23413340,523.42
-89.45836745,46.23413846,521.53
-89.45823774,46.23414125,519.79
-89.45819771,46.23414211,533.38
-89.45788790,46.23414877,528.23
-89.45775495,46.23415163,526.92
-89.45752198,46.23415665,529.61
-89.45724897,46.23416252,527.97
-89.45723679,46.23416278,530.41
-89.45688409,46.23417036,516.84
-89.45667716,46.23417481,516.69
-89.45664839,46.23417543,522.45
-89.45646323,46.23417941,518.87
-89.45596464,46.23419022,513.43
-89.45564277,46.23419705,513.27
-89.45544413,46.23420132,513.22
-89.45502768,46.23421027,513.30
-89.45501563,46.23421053,516.23
-89.45462963,46.23421882,513.32
-89.45456458,46.23422022,513.26
-89.45430803,46.23422573,513.28
-89.45416770,46.23422874,513.33
-89.45407751,46.23423068,513.55
-89.45407661,46.23423070,515.69
-89.45406818,46.23423088,514.73
-89.45368892,46.23423902,513.25
-89.45351490,46.23424276,520.76
-89.45347538,46.23424361,519.42
-89.45346774,46.23424377,522.63
-89.45342601,46.23424467,525.68
-89.45334969,46.23424631,528.29
-89.45325200,46.23424841,531.27
-89.45317360,46.23425009,528.23
-89.45311568,46.23425133,514.55
-89.45307344,46.23425224,529.66
-89.45280056,46.23425810,523.88
-89.45268420,46.23426060,524.45
-89.45259700,46.23426247,519.92
-89.45254076,46.23426367,527.25
-89.45252728,46.23426396,528.86
-89.45248310,46.23426491,524.25
-89.45240860,46.23426651,513.07
-89.45203892,46.23427445,518.78
-89.45165733,46.23428272,515.57
-89.45135541,46.23428911,523.68
-89.45124372,46.23429151,516.70
-89.45124056,46.23429338,523.18
-89.45124046,46.23429401,522.12
-89.45124049,46.23431210,518.48
-89.45124344,46.23438134,520.68
-89.45125424,46.23462078,513.06
-89.45126917,46.23495879,512.97
-89.45127560,46.23510319,512.99
-89.45129153,46.23545773,513.00
-89.45129751,46.23559198,513.02
-89.45131451,46.23597935,512.99
-89.45132269,46.23615999,512.99
-89.45133312,46.23639116,512.98
-89.45135007,46.23677754,513.00
-89.45136467,46.23710520,513.00
-89.45136541,46.23712184,513.00
-89.45137704,46.23737981,513.00
-89.45139269,46.23773408,513.00
-89.45140672,46.23804888,513.03
-89.45141405,46.23821343,513.01
-89.45141636,46.23826522,512.99
-89.45142410,46.23843894,513.01
-89.45143778,46.23874601,512.99
-89.45145202,46.23906261,512.98
-89.45146802,46.23942453,512.98
-89.45146890,46.23944422,512.97
-89.45147502,46.23958161,512.97
-89.45147937,46.23967917,512.99
-89.45149727,46.24008101,512.99
-89.45149762,46.24008892,513.01
-89.45149784,46.24009369,513.00
-89.45150046,46.24015259,512.98
-89.45150756,46.24030904,512.99
-89.45151929,46.24056926,513.00
-89.45152881,46.24078875,512.98
-89.45153077,46.24082984,513.01
-89.45153482,46.24091472,513.00
-89.45155135,46.24128859,513.00
-89.45155389,46.24134857,513.00
-89.45155969,46.24148165,512.98
-89.45156546,46.24161104,512.98
-89.45156919,46.24169484,512.98
-89.45157676,46.24186173,512.98
-89.45159249,46.24221762,513.00
-89.45159810,46.24234351,513.00
-89.45159877,46.24235843,512.99
-89.45161372,46.24269085,512.98
-89.45163180,46.24309953,512.97
-89.45163277,46.24312129,513.02
-89.45163802,46.24323611,512.98
-89.45164142,46.24327744,512.97
-89.45164503,46.24328285,513.00
-89.45214917,46.24327230,531.18
-89.45220178,46.24327117,524.39
-89.45240084,46.24326690,530.96
-89.45240745,46.24326676,530.26
-89.45266677,46.24326119,530.15
-89.45300204,46.24325400,531.55
-89.45303625,46.24325326,515.98
-89.45317453,46.24325029,532.16
-89.45320861,46.24324956,515.34
-89.45322093,46.24324930,534.41
-89.45323350,46.24324903,526.34
-89.45326577,46.24324833,532.89
-89.45330892,46.24324741,536.63
-89.45354867,46.24324226,528.82
-89.45357330,46.24324173,525.82
-89.45363602,46.24324038,519.46
-89.45366686,46.24323972,525.16
-89.45370082,46.24323899,529.85
-89.45371689,46.24323865,529.39
-89.45372518,46.24323847,528.38
-89.45378817,46.24323712,534.37
-89.45380359,46.24323679,527.22
-89.45384441,46.24323591,528.61
-89.45390467,46.24323461,526.07
-89.45390752,46.24323455,524.89
-89.45408986,46.24323064,525.41
-89.45412226,46.24322994,533.03
-89.45418188,46.24322866,535.27
-89.45423475,46.24322753,537.47
-89.45427039,46.24322676,543.40
-89.45430421,46.24322603,536.27
-89.45435890,46.24322486,532.45
-89.45439091,46.24322417,518.59
-89.45444223,46.24322307,522.63
-89.45446077,46.24322267,530.42
-89.45462794,46.24321908,535.29
-89.45462807,46.24321908,541.94
-89.45467071,46.24321816,538.93
-89.45471814,46.24321714,531.30
-89.45472916,46.24321690,534.03
-89.45480381,46.24321530,531.23
-89.45483750,46.24321458,527.12
-89.45486990,46.24321388,541.67
-89.45490139,46.24321320,537.94
-89.45490178,46.24321320,538.19
-89.45495167,46.24321212,534.44
-89.45507531,46.24320947,538.81
-89.45508632,46.24320923,537.50
-89.45516123,46.24320762,538.95
-89.45516240,46.24320760,542.61
-89.45519026,46.24320700,531.55
-89.45527657,46.24320514,534.57
-89.45549144,46.24320053,529.03
-89.45550401,46.24320026,527.61
-89.45551632,46.24319999,526.15
-89.45552915,46.24319972,524.67
-89.45557917,46.24319864,529.40
-89.45596005,46.24319045,540.95
-89.45609561,46.24318754,537.08
-89.45626810,46.24318383,537.64
-89.45631216,46.24318289,536.93
-89.45632668,46.24318257,531.51
-89.45645757,46.24317976,532.54
-89.45671728,46.24317418,529.54
-89.45684273,46.24317148,516.04
-89.45692191,46.24316978,531.93
-89.45692813,46.24316964,529.81
-89.45699772,46.24316815,520.77
-89.45717591,46.24316431,517.36
-89.45758582,46.24315550,532.53
     </coordinates>
    </LineString>
   </MultiGeometry>
  </Placemark>
 </Document>
</kml>
