<kml>
 <Document>
  <Style id="yellow">
   <LineStyle>
   <color>ff00ffff</color>
   <width>1</width>
   </LineStyle>
  </Style>
  <Style id="red">
   <LineStyle>
   <color>ffff0000</color>
   <width>2</width>
   </LineStyle>
  </Style>
  <Style id="green">
   <LineStyle>
   <color>ff00ff00</color>
   <width>1</width>
   </LineStyle>
  </Style>
  <Placemark>
  <styleUrl>#yellow</styleUrl>
   <MultiGeometry>
    <LineString>
     <coordinates>
-89.49490299,46.20634537,502.82
-89.49519580,46.20633898,502.84
-89.49567871,46.20632834,502.85
-89.49586261,46.20632442,502.80
-89.49593112,46.20632292,502.84
-89.49655754,46.20630923,502.72
-89.49667383,46.20630669,502.82
-89.49674441,46.20630515,502.79
-89.49696715,46.20630019,502.77
-89.49761209,46.20628618,502.84
-89.49799995,46.20627752,502.81
-89.49841527,46.20626853,502.79
-89.49879407,46.20626025,502.79
-89.49901850,46.20625534,502.86
-89.49954351,46.20624395,502.79
-89.49996104,46.20623481,502.81
-89.50012240,46.20623128,502.84
-89.50067758,46.20621913,502.82
-89.50097155,46.20621269,502.82
-89.50113033,46.20620922,502.82
-89.50127692,46.20620601,502.82
-89.50133805,46.20620467,502.82
-89.50147701,46.20620163,502.82
-89.50176981,46.20619513,502.83
-89.50181836,46.20619379,502.83
-89.50182391,46.20619322,502.84
-89.50183539,46.20619198,502.87
-89.50184037,46.20618746,502.85
-89.50184053,46.20617945,502.81
-89.50183870,46.20613647,502.83
-89.50182798,46.20590323,502.85
-89.50181247,46.20555895,502.85
-89.50180535,46.20540214,502.86
-89.50178535,46.20496183,502.82
-89.50178147,46.20487641,502.83
-89.50178119,46.20487029,502.88
-89.50177778,46.20479531,502.85
-89.50177262,46.20468165,502.80
-89.50177163,46.20465980,502.82
-89.50175578,46.20431094,502.83
-89.50175378,46.20426697,502.85
-89.50174319,46.20403382,502.88
-89.50173751,46.20390866,502.82
-89.50173039,46.20375185,502.77
-89.50172853,46.20371103,502.83
-89.50171074,46.20331918,502.81
-89.50171047,46.20331325,502.81
-89.50169684,46.20301320,502.85
-89.50168859,46.20283167,502.82
-89.50168269,46.20270165,502.77
-89.50166766,46.20237068,502.85
-89.50165429,46.20207927,502.85
-89.50163984,46.20176115,502.88
-89.50163958,46.20175540,502.82
-89.50163624,46.20168185,502.89
-89.50163488,46.20165181,502.86
-89.50162758,46.20149393,502.87
-89.50161100,46.20112311,502.85
-89.50160916,46.20108265,502.80
-89.50159775,46.20083134,502.84
-89.50159401,46.20074916,502.92
-89.50157822,46.20040425,502.85
-89.50156597,46.20013154,502.86
-89.50156025,46.20000566,502.81
-89.50154743,46.19972612,502.81
-89.50152988,46.19933679,502.82
-89.50152836,46.19930334,502.81
-89.50152031,46.19912621,502.83
-89.50151385,46.19898387,502.90
-89.50151236,46.19895105,502.84
-89.50149217,46.19850634,502.87
-89.50147583,46.19814659,502.83
-89.50146799,46.19797386,502.87
-89.50146034,46.19780815,502.79
-89.50144693,46.19751296,502.82
-89.50144450,46.19745947,502.80
-89.50143855,46.19732828,502.86
-89.50143618,46.19727613,502.86
-89.50143410,46.19723027,502.79
-89.50143224,46.19720943,502.86
-89.50142884,46.19720591,502.91
-89.50141095,46.19720297,502.85
-89.50131267,46.19720494,502.81
-89.50112207,46.19720911,502.82
-89.50107688,46.19721010,502.80
-89.50083514,46.19721539,502.82
-89.50044825,46.19722404,502.85
-89.50005578,46.19723245,502.82
-89.49990234,46.19723581,502.83
-89.49984511,46.19723706,502.83
-89.49979966,46.19723806,502.85
-89.49974942,46.19723915,502.84
-89.49917853,46.19725164,502.82
-89.49911638,46.19725300,502.83
-89.49903714,46.19725474,502.86
-89.49859353,46.19726453,502.84
-89.49838273,46.19726905,509.29
-89.49837121,46.19726930,508.90
-89.49833016,46.19727020,511.32
-89.49831255,46.19727058,520.29
-89.49825208,46.19727191,516.03
-89.49823136,46.19727236,518.45
-89.49822735,46.19727245,516.44
-89.49822528,46.19727249,515.04
-89.49814409,46.19727427,511.66
-89.49811638,46.19727487,515.24
-89.49807016,46.19727588,520.28
-89.49802782,46.19727681,525.58
-89.49802471,46.19727688,522.57
-89.49797214,46.19727803,527.29
-89.49791310,46.19727932,529.04
-89.49775409,46.19728279,524.32
-89.49775008,46.19728288,520.31
-89.49771084,46.19728374,525.24
-89.49770903,46.19728378,523.51
-89.49769893,46.19728400,515.66
-89.49767757,46.19728447,521.88
-89.49727720,46.19729322,533.60
-89.49722735,46.19729431,528.89
-89.49717388,46.19729548,527.77
-89.49712649,46.19729651,534.40
-89.49711872,46.19729668,534.78
-89.49709528,46.19729720,527.29
-89.49704905,46.19729821,534.87
-89.49692397,46.19730094,525.31
-89.49677572,46.19730418,514.47
-89.49671706,46.19730546,515.37
-89.49654472,46.19730923,511.24
-89.49649292,46.19731036,511.29
-89.49639452,46.19731251,532.25
-89.49639089,46.19731259,529.97
-89.49621272,46.19731648,516.18
-89.49620159,46.19731673,519.33
-89.49618734,46.19731704,528.43
-89.49607586,46.19731947,531.64
-89.49582129,46.19732503,520.08
-89.49578931,46.19732573,525.27
-89.49553267,46.19733134,507.08
-89.49537665,46.19733475,506.56
-89.49534570,46.19733542,515.81
-89.49528821,46.19733668,521.94
-89.49523681,46.19733780,504.66
-89.49512804,46.19734018,527.51
-89.49505294,46.19734182,520.21
-89.49502601,46.19734240,522.12
-89.49495751,46.19734390,525.45
-89.49492838,46.19734454,520.45
-89.49487917,46.19734561,506.94
-89.49485677,46.19734610,524.28
-89.49481857,46.19734693,511.75
-89.49475124,46.19734840,511.10
-89.49467252,46.19735012,503.29
-89.49455559,46.19735268,525.19
-89.49455456,46.19735270,523.49
-89.49445343,46.19735491,522.92
-89.49430530,46.19735814,521.77
-89.49392475,46.19736645,522.23
-89.49391905,46.19736657,513.36
-89.49385547,46.19736796,525.18
-89.49378762,46.19736944,528.50
-89.49378685,46.19736946,527.70
-89.49378309,46.19736954,521.25
-89.49367756,46.19737184,525.61
-89.49353267,46.19737501,526.11
-89.49350211,46.19737567,529.34
-89.49336085,46.19737876,531.61
-89.49321453,46.19738195,530.58
-89.49296670,46.19738736,528.40
-89.49292772,46.19738821,528.41
-89.49287981,46.19738925,529.36
-89.49282478,46.19739045,535.31
-89.49281999,46.19739056,532.89
-89.49278283,46.19739137,512.87
-89.49261178,46.19739510,531.46
-89.49256465,46.19739613,533.78
-89.49253629,46.19739675,535.72
-89.49249110,46.19739773,529.27
-89.49248644,46.19739784,532.00
-89.49241963,46.19739929,532.00
-89.49238557,46.19740004,515.36
-89.49216196,46.19740491,529.47
-89.49210602,46.19740613,531.61
-89.49208634,46.19740656,518.41
-89.49177726,46.19741330,526.20
-89.49177389,46.19741338,516.10
-89.49173025,46.19741433,509.74
-89.49165658,46.19741594,524.83
-89.49158964,46.19741740,517.89
-89.49149472,46.19741947,511.19
-89.49132665,46.19742313,511.71
-89.49129092,46.19742391,511.47
-89.49118798,46.19742616,520.94
-89.49099997,46.19743025,523.40
-89.49095193,46.19743130,532.80
-89.49084083,46.19743372,530.23
-89.49045290,46.19744227,530.76
-89.48998222,46.19745244,527.04
-89.48995930,46.19745294,511.67
-89.48994674,46.19745321,531.23
-89.48979291,46.19745657,531.84
-89.48946817,46.19746364,526.60
-89.48945185,46.19746400,528.60
-89.48904203,46.19747293,530.18
-89.48884276,46.19747727,523.02
-89.48865164,46.19748143,515.57
-89.48863066,46.19748189,518.40
-89.48855168,46.19748370,509.94
-89.48848596,46.19748639,519.18
-89.48848542,46.19749171,526.84
-89.48848524,46.19749640,528.28
-89.48848600,46.19751303,507.84
-89.48848905,46.19758056,522.18
-89.48849105,46.19762489,517.79
-89.48849282,46.19766409,518.82
-89.48849374,46.19768450,520.40
-89.48849548,46.19772289,528.67
-89.48849597,46.19773395,525.34
-89.48849943,46.19781038,508.03
-89.48850555,46.19794588,508.97
-89.48850889,46.19801988,509.02
-89.48850944,46.19803202,521.58
-89.48851031,46.19805135,525.50
-89.48851149,46.19807752,523.94
-89.48851332,46.19811807,526.00
-89.48851518,46.19815916,508.25
-89.48851674,46.19819360,518.87
-89.48851767,46.19821419,516.29
-89.48851856,46.19823406,507.84
-89.48851906,46.19824503,525.86
-89.48851997,46.19826517,529.04
-89.48852061,46.19827938,523.48
-89.48852185,46.19830689,523.29
-89.48852268,46.19832524,522.14
-89.48852351,46.19834349,517.06
-89.48852468,46.19836947,516.79
-89.48852515,46.19837990,520.84
-89.48852780,46.19843853,514.05
-89.48852946,46.19847521,509.22
-89.48853159,46.19852251,524.40
-89.48853181,46.19852737,526.53
-89.48853685,46.19863886,526.46
-89.48853900,46.19868643,516.75
-89.48853963,46.19870036,506.83
-89.48854069,46.19872383,515.39
-89.48854093,46.19872922,520.68
-89.48854117,46.19873453,517.76
-89.48854153,46.19874253,524.01
-89.48854280,46.19877059,517.83
-89.48854292,46.19877319,522.22
-89.48854435,46.19880484,516.99
-89.48854518,46.19882319,506.15
-89.48855544,46.19905049,526.44
-89.48855545,46.19905058,516.73
-89.48855722,46.19908979,505.51
-89.48855958,46.19914203,524.75
-89.48855973,46.19914544,529.26
-89.48856136,46.19918132,516.08
-89.48856179,46.19919085,525.15
-89.48856232,46.19920272,504.76
-89.48856350,46.19922870,504.67
-89.48856441,46.19924894,520.55
-89.48856556,46.19927447,525.85
-89.48856664,46.19929830,521.99
-89.48856693,46.19930477,524.88
-89.48857113,46.19939766,522.23
-89.48857176,46.19941159,519.30
-89.48857207,46.19941852,510.70
-89.48857444,46.19947103,520.10
-89.48857542,46.19949279,509.45
-89.48857553,46.19949503,510.77
-89.48857869,46.19956508,520.94
-89.48857886,46.19956894,521.24
-89.48857987,46.19959115,521.01
-89.48858007,46.19959565,515.81
-89.48858104,46.19961705,502.96
-89.48859382,46.19989722,502.81
-89.48860843,46.20022047,502.78
-89.48861559,46.20038196,502.88
-89.48862920,46.20068317,502.86
-89.48864329,46.20099491,502.85
-89.48866222,46.20141392,502.85
-89.48867796,46.20176234,502.85
-89.48868891,46.20200196,502.88
-89.48869834,46.20221344,502.83
-89.48870966,46.20246413,502.83
-89.48871159,46.20250665,502.83
-89.48872079,46.20270455,502.84
-89.48874013,46.20313552,502.85
-89.48874765,46.20330195,502.82
-89.48875562,46.20347828,502.86
-89.48875626,46.20349257,502.82
-89.48876651,46.20371934,502.82
-89.48877346,46.20387318,502.81
-89.48878968,46.20423510,502.78
-89.48879464,46.20434470,502.85
-89.48880149,46.20449351,502.80
-89.48881835,46.20486675,502.87
-89.48882156,46.20493760,502.88
-89.48883931,46.20533341,502.79
-89.48884501,46.20545947,502.82
-89.48885144,46.20560181,505.83
-89.48885414,46.20566151,508.80
-89.48885923,46.20577417,507.30
-89.48886252,46.20584691,510.32
-89.48886301,46.20585788,508.02
-89.48886606,46.20592532,511.12
-89.48887141,46.20604374,507.58
-89.48887365,46.20609328,520.28
-89.48887852,46.20620100,521.26
-89.48887883,46.20620783,518.85
-89.48888164,46.20627005,520.72
-89.48888230,46.20628471,520.97
-89.48888382,46.20631825,517.91
-89.48888717,46.20639252,515.80
-89.48889065,46.20646940,511.73
-89.48889131,46.20647550,514.01
-89.48889613,46.20647594,512.71
-89.48894782,46.20647517,527.68
-89.48904184,46.20647321,510.93
-89.48911229,46.20647168,522.46
-89.48931821,46.20646719,521.08
-89.48952736,46.20646263,512.19
-89.48958085,46.20646147,505.67
-89.48961983,46.20646062,517.95
-89.48963783,46.20646023,515.79
-89.48965311,46.20645989,518.58
-89.48972188,46.20645840,514.66
-89.48974946,46.20645780,506.85
-89.49005445,46.20645115,508.27
-89.49040734,46.20644337,502.85
-89.49084313,46.20643396,502.86
-89.49087655,46.20643323,502.85
-89.49130119,46.20642388,502.82
-89.49161110,46.20641712,502.85
-89.49217923,46.20640473,502.88
-89.49253485,46.20639679,502.83
-89.49290886,46.20638872,502.82
-89.49309380,46.20638478,502.80
-89.49328897,46.20638061,502.84
-89.49346445,46.20637678,502.80
-89.49374094,46.20637074,502.90
-89.49423616,46.20635984,502.82
-89.49453739,46.20635336,502.82
-89.49475626,46.20634858,502.81
-89.49490299,46.20634537,502.82
     </coordinates>
    </LineString>
   </MultiGeometry>
  </Placemark>
 </Document>
</kml>
