<kml>
 <Document>
  <Style id="yellow">
   <LineStyle>
   <color>ff00ffff</color>
   <width>1</width>
   </LineStyle>
  </Style>
  <Style id="red">
   <LineStyle>
   <color>ffff0000</color>
   <width>2</width>
   </LineStyle>
  </Style>
  <Style id="green">
   <LineStyle>
   <color>ff00ff00</color>
   <width>1</width>
   </LineStyle>
  </Style>
  <Placemark>
  <styleUrl>#yellow</styleUrl>
   <MultiGeometry>
    <LineString>
     <coordinates>
-89.53352564,46.19649505,527.73
-89.53366069,46.19649206,530.89
-89.53383820,46.19648812,535.44
-89.53397156,46.19648516,536.40
-89.53402232,46.19648404,531.21
-89.53411153,46.19648206,535.53
-89.53420967,46.19647988,533.27
-89.53427843,46.19647836,514.69
-89.53443199,46.19647495,532.86
-89.53444895,46.19647457,514.04
-89.53445723,46.19647439,514.01
-89.53452935,46.19647279,522.69
-89.53456587,46.19647198,528.37
-89.53456936,46.19647190,528.71
-89.53457402,46.19647180,532.88
-89.53460587,46.19647109,531.04
-89.53461118,46.19647097,529.63
-89.53472279,46.19646850,528.19
-89.53475439,46.19646780,525.03
-89.53486845,46.19646527,531.63
-89.53505956,46.19646103,510.05
-89.53511550,46.19645978,529.68
-89.53512482,46.19645958,526.10
-89.53516522,46.19645868,525.93
-89.53519888,46.19645793,526.24
-89.53524044,46.19645701,527.77
-89.53528291,46.19645607,527.85
-89.53528434,46.19645604,527.00
-89.53535374,46.19645450,527.35
-89.53535697,46.19645443,527.80
-89.53538313,46.19645385,524.90
-89.53551079,46.19645101,510.82
-89.53557268,46.19644964,523.84
-89.53563470,46.19644826,506.48
-89.53568805,46.19644708,527.69
-89.53575874,46.19644551,520.39
-89.53586919,46.19644306,522.62
-89.53588796,46.19644264,526.85
-89.53591127,46.19644212,529.11
-89.53597355,46.19644074,523.88
-89.53604398,46.19643918,524.80
-89.53610458,46.19643783,508.12
-89.53612931,46.19643728,527.30
-89.53615727,46.19643666,509.07
-89.53615740,46.19643666,530.66
-89.53624040,46.19643482,531.46
-89.53645093,46.19643014,530.98
-89.53649288,46.19642921,526.58
-89.53652305,46.19642854,524.94
-89.53653043,46.19642838,528.55
-89.53656176,46.19642768,531.94
-89.53663362,46.19642609,529.60
-89.53669823,46.19642465,529.59
-89.53673953,46.19642374,528.17
-89.53705222,46.19641679,517.46
-89.53708601,46.19641604,507.49
-89.53715023,46.19641462,506.97
-89.53719011,46.19641373,508.21
-89.53731480,46.19641096,510.50
-89.53738485,46.19640941,512.13
-89.53739805,46.19640911,509.90
-89.53749037,46.19640706,503.96
-89.53752248,46.19640635,508.77
-89.53755122,46.19640571,519.46
-89.53762024,46.19640418,503.37
-89.53763513,46.19640385,505.91
-89.53763681,46.19640381,507.42
-89.53766788,46.19640312,505.97
-89.53773728,46.19640158,510.68
-89.53778532,46.19640051,503.29
-89.53782559,46.19639962,503.28
-89.53789537,46.19639807,503.30
-89.53833637,46.19638827,503.29
-89.53859093,46.19638261,503.34
-89.53892640,46.19637516,504.15
-89.53907271,46.19637191,510.61
-89.53907711,46.19637181,515.31
-89.53911181,46.19637104,513.77
-89.53916088,46.19636995,522.41
-89.53937879,46.19636510,526.74
-89.53967257,46.19635857,527.47
-89.53980684,46.19635559,521.58
-89.54016420,46.19634764,509.96
-89.54026208,46.19634538,524.76
-89.54027475,46.19634474,522.19
-89.54027634,46.19634263,509.20
-89.54027579,46.19632221,523.60
-89.54027571,46.19632059,509.21
-89.54027542,46.19631439,515.42
-89.54026978,46.19619193,507.81
-89.54026870,46.19616855,507.40
-89.54026577,46.19610489,507.01
-89.54026406,46.19606785,506.33
-89.54026336,46.19605266,507.37
-89.54026216,46.19602676,505.66
-89.54026038,46.19598819,505.79
-89.54025718,46.19591860,508.77
-89.54025637,46.19590106,507.55
-89.54025276,46.19582293,506.89
-89.54024864,46.19573356,505.13
-89.54024498,46.19565399,505.74
-89.54024425,46.19563834,504.83
-89.54024209,46.19559141,504.16
-89.54023879,46.19551993,503.99
-89.54023617,46.19546292,503.85
-89.54023586,46.19545636,505.60
-89.54023413,46.19541887,503.73
-89.54023020,46.19533345,504.67
-89.54022425,46.19520443,511.26
-89.54021914,46.19509366,506.57
-89.54021680,46.19504295,505.76
-89.54021574,46.19502002,504.40
-89.54021111,46.19491950,505.71
-89.54021059,46.19490826,504.53
-89.54021033,46.19490259,504.30
-89.54020492,46.19478526,504.89
-89.54020265,46.19473608,506.78
-89.54019867,46.19464967,519.19
-89.54019742,46.19462261,506.33
-89.54019177,46.19449997,522.21
-89.54019153,46.19449475,505.57
-89.54019086,46.19448037,517.19
-89.54019061,46.19447488,523.03
-89.54019007,46.19446311,524.90
-89.54018831,46.19442489,505.67
-89.54018559,46.19436600,528.08
-89.54018443,46.19434074,527.71
-89.54018413,46.19433435,514.54
-89.54018344,46.19431943,526.33
-89.54018248,46.19429857,525.14
-89.54018221,46.19429272,525.00
-89.54018174,46.19428256,527.39
-89.54017824,46.19420659,530.31
-89.54017638,46.19416631,523.65
-89.54017495,46.19413520,531.49
-89.54017170,46.19406462,526.66
-89.54016946,46.19401606,511.82
-89.54016666,46.19395546,533.58
-89.54016431,46.19390448,532.35
-89.54016313,46.19387886,529.59
-89.54016263,46.19386798,528.84
-89.54016081,46.19382842,531.91
-89.54015932,46.19379614,530.66
-89.54015848,46.19377789,533.43
-89.54015832,46.19377438,512.09
-89.54015677,46.19374075,531.97
-89.54015401,46.19368105,511.39
-89.54015334,46.19366640,532.87
-89.54015015,46.19359716,529.81
-89.54014989,46.19359159,510.85
-89.54014507,46.19348711,522.16
-89.54013922,46.19336025,526.75
-89.54013897,46.19335485,526.92
-89.54013888,46.19335269,527.41
-89.54013841,46.19334262,528.39
-89.54013735,46.19331952,529.68
-89.54013690,46.19330981,528.55
-89.54013627,46.19329614,529.48
-89.54013553,46.19328005,529.11
-89.54013373,46.19324111,524.78
-89.54013240,46.19321225,530.17
-89.54013116,46.19318537,530.53
-89.54012872,46.19313241,524.28
-89.54012591,46.19307154,529.16
-89.54011194,46.19276836,524.67
-89.54011132,46.19275496,525.33
-89.54010735,46.19266882,527.80
-89.54010613,46.19264248,526.23
-89.54010445,46.19260607,529.53
-89.54010405,46.19259726,527.92
-89.54010390,46.19259402,519.53
-89.54009796,46.19246526,508.27
-89.54009380,46.19237499,518.71
-89.54009355,46.19236960,508.69
-89.54008687,46.19222466,522.41
-89.54008566,46.19219841,508.67
-89.54008538,46.19219238,507.58
-89.54008533,46.19219121,520.58
-89.54008148,46.19210760,507.26
-89.54007504,46.19196805,509.65
-89.54007106,46.19188156,511.87
-89.54007009,46.19186052,507.45
-89.54006759,46.19180639,518.19
-89.54006687,46.19179075,507.07
-89.54006562,46.19176368,513.44
-89.54006553,46.19176170,515.18
-89.54006514,46.19175325,510.79
-89.54006462,46.19174201,509.42
-89.54006413,46.19173122,515.51
-89.54006294,46.19170560,524.90
-89.54006097,46.19166271,519.39
-89.54005869,46.19161335,518.81
-89.54005859,46.19161119,518.71
-89.54005790,46.19159609,506.71
-89.54005541,46.19154205,516.89
-89.54005537,46.19154124,520.09
-89.54005479,46.19152874,507.20
-89.54005381,46.19150743,520.43
-89.54005226,46.19147372,519.57
-89.54004930,46.19140961,509.02
-89.54004809,46.19138345,510.08
-89.54004756,46.19137194,512.87
-89.54004208,46.19125307,506.17
-89.54004031,46.19121450,506.10
-89.54003982,46.19120398,506.11
-89.54003569,46.19111443,509.03
-89.54003131,46.19101930,514.75
-89.54003057,46.19100339,510.79
-89.54002580,46.19089972,510.25
-89.54002551,46.19089343,508.27
-89.54002473,46.19087661,506.01
-89.54002423,46.19086573,516.27
-89.54002407,46.19086232,519.13
-89.54002370,46.19085422,521.62
-89.54001873,46.19074642,526.28
-89.54001646,46.19069715,517.52
-89.54001601,46.19068735,522.24
-89.54001195,46.19059941,525.55
-89.54001154,46.19059051,524.58
-89.54000839,46.19052209,525.00
-89.54000764,46.19050591,528.51
-89.54000619,46.19047444,528.50
-89.54000559,46.19046131,519.19
-89.54000252,46.19039468,511.35
-89.54000074,46.19035611,517.15
-89.53999948,46.19032878,525.65
-89.53999872,46.19031233,527.32
-89.53999695,46.19027402,527.51
-89.53999674,46.19026926,529.80
-89.53999658,46.19026584,527.24
-89.53999594,46.19025208,510.49
-89.53999586,46.19025038,531.30
-89.53999531,46.19023824,527.50
-89.53999252,46.19017782,520.00
-89.53999005,46.19012423,506.64
-89.53998889,46.19009896,519.70
-89.53998039,46.18991456,510.51
-89.53997990,46.18990413,510.86
-89.53997962,46.18989792,512.48
-89.53997817,46.18986645,509.58
-89.53997671,46.18983471,507.40
-89.53997566,46.18981197,506.19
-89.53997227,46.18973851,506.05
-89.53996896,46.18966676,511.92
-89.53995959,46.18946338,507.62
-89.53995190,46.18929650,510.88
-89.53994793,46.18921046,511.17
-89.53994734,46.18919760,512.07
-89.53994424,46.18913043,509.83
-89.53994399,46.18912495,510.60
-89.53994361,46.18911677,508.56
-89.53994097,46.18905940,520.74
-89.53993872,46.18901049,508.11
-89.53993355,46.18889837,508.09
-89.53993138,46.18885126,508.82
-89.53993010,46.18882356,511.38
-89.53992547,46.18872313,513.82
-89.53992516,46.18871639,513.93
-89.53992428,46.18869724,520.01
-89.53991864,46.18857496,519.70
-89.53991839,46.18856956,519.00
-89.53991791,46.18855913,511.53
-89.53991764,46.18855329,510.33
-89.53991671,46.18853315,509.80
-89.53991335,46.18846005,505.80
-89.53991265,46.18844495,518.06
-89.53991251,46.18844198,510.84
-89.53991072,46.18840305,518.43
-89.53990636,46.18830855,514.31
-89.53990458,46.18826980,512.81
-89.53990231,46.18822053,513.79
-89.53990166,46.18820659,514.54
-89.53990042,46.18817971,509.83
-89.53989498,46.18806165,516.38
-89.53989405,46.18804133,505.94
-89.53988690,46.18788623,506.01
-89.53988671,46.18788210,513.59
-89.53988625,46.18787212,512.31
-89.53988092,46.18775658,512.84
-89.53987915,46.18771810,505.74
-89.53987842,46.18770236,511.10
-89.53987026,46.18752515,512.58
-89.53986908,46.18749952,505.82
-89.53986844,46.18748576,506.71
-89.53986322,46.18737248,507.62
-89.53986236,46.18735665,505.85
-89.53986123,46.18735461,505.80
-89.53971557,46.18735740,510.48
-89.53961964,46.18735944,505.73
-89.53933186,46.18736584,513.80
-89.53905185,46.18737206,518.12
-89.53885883,46.18737635,525.01
-89.53854814,46.18738325,520.46
-89.53851771,46.18738393,513.19
-89.53851383,46.18738402,523.53
-89.53842114,46.18738608,525.38
-89.53828806,46.18738903,528.13
-89.53813414,46.18739245,522.89
-89.53779587,46.18739997,515.84
-89.53770486,46.18740199,507.23
-89.53756906,46.18740500,517.16
-89.53751896,46.18740612,507.28
-89.53750472,46.18740643,507.29
-89.53738278,46.18740914,507.25
-89.53736141,46.18740962,507.44
-89.53726458,46.18741177,516.70
-89.53726160,46.18741183,522.82
-89.53712788,46.18741480,529.97
-89.53710470,46.18741532,533.85
-89.53704891,46.18741656,527.17
-89.53703324,46.18741690,527.88
-89.53700321,46.18741757,526.22
-89.53697965,46.18741810,525.74
-89.53679996,46.18742209,525.70
-89.53679647,46.18742216,528.48
-89.53667879,46.18742478,530.93
-89.53664695,46.18742548,527.06
-89.53662067,46.18742607,522.36
-89.53655335,46.18742756,532.25
-89.53649043,46.18742896,529.21
-89.53638739,46.18743125,521.37
-89.53631023,46.18743296,530.89
-89.53628020,46.18743363,528.25
-89.53620006,46.18743540,531.71
-89.53614984,46.18743652,530.23
-89.53591772,46.18744167,531.17
-89.53591681,46.18744169,533.20
-89.53588678,46.18744236,530.85
-89.53579991,46.18744429,511.01
-89.53575228,46.18744534,531.10
-89.53573570,46.18744571,520.60
-89.53567227,46.18744712,518.79
-89.53561453,46.18744840,517.82
-89.53556741,46.18744945,513.90
-89.53556353,46.18744953,521.08
-89.53554566,46.18744993,529.95
-89.53539653,46.18745324,528.88
-89.53537154,46.18745379,509.12
-89.53530500,46.18745527,527.90
-89.53526617,46.18745613,527.71
-89.53504635,46.18746101,510.89
-89.53503548,46.18746125,533.05
-89.53461811,46.18747051,529.09
-89.53436127,46.18747621,512.72
-89.53435816,46.18747628,515.74
-89.53416449,46.18748057,528.54
-89.53416255,46.18748062,530.83
-89.53399400,46.18748436,529.54
-89.53389289,46.18748660,524.87
-89.53367191,46.18749150,513.27
-89.53353171,46.18749461,531.20
-89.53306942,46.18750486,532.13
-89.53291097,46.18750837,512.48
-89.53288960,46.18750885,531.86
-89.53278177,46.18751124,524.48
-89.53274008,46.18751216,511.45
-89.53246952,46.18751816,535.65
-89.53236530,46.18752047,513.84
-89.53217565,46.18752467,534.21
-89.53203907,46.18752770,534.52
-89.53203856,46.18752771,533.81
-89.53194094,46.18752988,530.14
-89.53179375,46.18753314,524.83
-89.53177420,46.18753357,508.15
-89.53172967,46.18753456,508.44
-89.53169770,46.18753527,509.27
-89.53156306,46.18753825,511.61
-89.53146662,46.18754039,513.74
-89.53123631,46.18754549,527.44
-89.53116731,46.18754702,532.21
-89.53104795,46.18754966,524.70
-89.53099164,46.18755091,525.91
-89.53091435,46.18755262,535.17
-89.53080457,46.18755505,515.68
-89.53079706,46.18755522,529.72
-89.53062463,46.18755904,538.55
-89.53059848,46.18755962,535.92
-89.53052300,46.18756129,517.24
-89.53050087,46.18756178,516.43
-89.53037995,46.18756446,532.22
-89.53029710,46.18756629,515.06
-89.53029568,46.18756633,515.68
-89.53028856,46.18756648,536.39
-89.53028040,46.18756666,536.23
-89.52992452,46.18757455,517.85
-89.52988659,46.18757539,529.84
-89.52988387,46.18757545,531.22
-89.52984957,46.18757621,527.24
-89.52984607,46.18757628,531.70
-89.52954185,46.18758302,516.65
-89.52944268,46.18758521,506.23
-89.52933601,46.18758758,520.00
-89.52905755,46.18759374,506.30
-89.52905677,46.18759376,507.64
-89.52882789,46.18759882,505.24
-89.52862853,46.18760324,508.91
-89.52848146,46.18760649,505.38
-89.52809840,46.18761506,505.13
-89.52779314,46.18762172,505.20
-89.52744904,46.18762943,506.71
-89.52709316,46.18763721,515.08
-89.52708048,46.18763749,521.59
-89.52694144,46.18764057,512.78
-89.52691752,46.18764172,511.33
-89.52691722,46.18764650,508.84
-89.52692068,46.18772482,515.99
-89.52692397,46.18779657,519.13
-89.52692547,46.18782930,514.70
-89.52692763,46.18787641,524.12
-89.52693064,46.18794205,519.61
-89.52693682,46.18807683,518.92
-89.52694041,46.18815505,519.01
-89.52694142,46.18817717,517.75
-89.52694174,46.18818418,523.23
-89.52694881,46.18833829,516.18
-89.52695315,46.18843306,526.20
-89.52695360,46.18844268,511.10
-89.52695595,46.18849393,519.59
-89.52695887,46.18855777,518.93
-89.52696366,46.18866207,527.94
-89.52697902,46.18899717,522.48
-89.52698207,46.18906362,523.63
-89.52698637,46.18915740,520.30
-89.52699540,46.18935440,524.87
-89.52699740,46.18939792,521.50
-89.52700564,46.18957774,524.09
-89.52701240,46.18972502,507.56
-89.52701641,46.18981259,522.12
-89.52702910,46.19008926,522.59
-89.52703918,46.19030900,509.23
-89.52704294,46.19039109,527.95
-89.52704516,46.19043938,508.68
-89.52704777,46.19049629,509.34
-89.52705500,46.19065409,524.62
-89.52706013,46.19076594,529.43
-89.52706425,46.19085567,508.73
-89.52707725,46.19113917,510.37
-89.52707898,46.19117684,523.00
-89.52708143,46.19123043,524.65
-89.52708938,46.19140369,525.89
-89.52709959,46.19162352,514.90
-89.52711035,46.19186081,520.23
-89.52711140,46.19188382,520.43
-89.52711407,46.19194200,509.99
-89.52711729,46.19201231,525.95
-89.52712313,46.19213963,513.36
-89.52712556,46.19219249,512.66
-89.52712675,46.19221848,514.64
-89.52712730,46.19223053,507.94
-89.52713159,46.19232413,507.04
-89.52713270,46.19234831,524.20
-89.52713298,46.19235443,521.23
-89.52714313,46.19257561,522.00
-89.52716158,46.19297788,512.86
-89.52716205,46.19298822,511.34
-89.52716691,46.19309405,516.79
-89.52717601,46.19329258,506.61
-89.52719201,46.19364144,522.79
-89.52720136,46.19384518,524.30
-89.52720617,46.19395011,525.05
-89.52720799,46.19398985,522.81
-89.52721678,46.19418136,523.39
-89.52722016,46.19425518,522.98
-89.52722393,46.19433718,508.20
-89.52722465,46.19435301,525.33
-89.52723047,46.19447987,524.77
-89.52723174,46.19450757,514.51
-89.52723278,46.19453032,523.10
-89.52723317,46.19453868,525.85
-89.52723617,46.19460413,507.08
-89.52723821,46.19464864,513.58
-89.52724369,46.19476813,507.16
-89.52724791,46.19486003,520.13
-89.52725091,46.19492548,527.38
-89.52726125,46.19515080,513.19
-89.52726150,46.19515638,513.18
-89.52726409,46.19521284,532.17
-89.52727149,46.19537406,514.14
-89.52727200,46.19538529,536.92
-89.52728122,46.19558625,537.99
-89.52728967,46.19577048,539.81
-89.52730208,46.19604103,535.02
-89.52730517,46.19610828,521.47
-89.52730614,46.19612959,509.57
-89.52730662,46.19614002,509.19
-89.52730919,46.19619604,511.07
-89.52731095,46.19623443,518.78
-89.52731657,46.19635680,504.72
-89.52731792,46.19638629,504.88
-89.52732295,46.19649599,514.26
-89.52732675,46.19657601,513.19
-89.52732915,46.19662536,504.76
-89.52733279,46.19663140,504.98
-89.52737114,46.19663092,504.76
-89.52742825,46.19663001,504.57
-89.52781708,46.19662150,504.58
-89.52791807,46.19661927,504.56
-89.52797569,46.19661799,504.56
-89.52846020,46.19660718,504.59
-89.52884307,46.19659880,504.50
-89.52937341,46.19658705,504.56
-89.52948282,46.19658463,504.56
-89.52954134,46.19658334,504.54
-89.52960518,46.19658192,504.57
-89.52980108,46.19657759,504.60
-89.52986591,46.19657543,504.55
-89.52988631,46.19657354,504.47
-89.53048892,46.19642528,505.79
-89.53054233,46.19643399,504.73
-89.53054859,46.19643485,504.66
-89.53056763,46.19643730,504.68
-89.53117169,46.19640799,504.72
-89.53134611,46.19641574,511.44
-89.53151017,46.19642353,504.57
-89.53170974,46.19642010,504.53
-89.53185406,46.19641042,504.55
-89.53212761,46.19641750,504.60
-89.53257676,46.19651456,504.54
-89.53261618,46.19651495,511.00
-89.53272080,46.19651281,509.59
-89.53277364,46.19651172,512.03
-89.53277752,46.19651164,509.28
-89.53305137,46.19650557,525.89
-89.53320946,46.19650206,518.73
-89.53333104,46.19649937,533.71
-89.53343320,46.19649710,526.77
-89.53352564,46.19649505,527.73
     </coordinates>
    </LineString>
   </MultiGeometry>
  </Placemark>
 </Document>
</kml>
