<kml>
 <Document>
  <Style id="yellow">
   <LineStyle>
   <color>ff00ffff</color>
   <width>1</width>
   </LineStyle>
  </Style>
  <Style id="red">
   <LineStyle>
   <color>ffff0000</color>
   <width>2</width>
   </LineStyle>
  </Style>
  <Style id="green">
   <LineStyle>
   <color>ff00ff00</color>
   <width>1</width>
   </LineStyle>
  </Style>
  <Placemark>
  <styleUrl>#yellow</styleUrl>
   <MultiGeometry>
    <LineString>
     <coordinates>
-89.53394945,46.20548604,514.84
-89.53409500,46.20548281,506.40
-89.53412803,46.20548208,516.42
-89.53439855,46.20547608,510.71
-89.53443028,46.20547537,522.85
-89.53443287,46.20547532,520.89
-89.53450616,46.20547369,529.27
-89.53450746,46.20547366,528.34
-89.53451005,46.20547360,526.52
-89.53459370,46.20547175,525.16
-89.53472139,46.20546892,521.35
-89.53478174,46.20546758,520.82
-89.53489064,46.20546516,520.75
-89.53503219,46.20546202,503.97
-89.53505744,46.20546146,516.42
-89.53510691,46.20546036,509.62
-89.53522449,46.20545775,516.00
-89.53524016,46.20545740,514.04
-89.53545500,46.20545264,506.32
-89.53570817,46.20544702,510.37
-89.53573161,46.20544650,510.19
-89.53579182,46.20544516,505.02
-89.53583236,46.20544426,513.22
-89.53622564,46.20543553,514.37
-89.53633261,46.20543316,520.31
-89.53633688,46.20543306,516.94
-89.53637120,46.20543230,524.21
-89.53637172,46.20543229,528.64
-89.53638998,46.20543188,508.66
-89.53639852,46.20543169,529.29
-89.53653696,46.20542862,524.26
-89.53656143,46.20542808,526.15
-89.53664108,46.20542631,526.82
-89.53676086,46.20542365,528.93
-89.53684050,46.20542188,532.02
-89.53687378,46.20542114,533.92
-89.53698761,46.20541861,511.51
-89.53703540,46.20541755,534.24
-89.53706959,46.20541679,535.17
-89.53707308,46.20541672,533.67
-89.53731939,46.20541125,532.60
-89.53763834,46.20540416,527.00
-89.53773624,46.20540199,527.41
-89.53777781,46.20540106,510.95
-89.53817926,46.20539215,529.91
-89.53859611,46.20538289,529.38
-89.53869893,46.20538060,526.18
-89.53875216,46.20537942,527.51
-89.53887880,46.20537660,523.19
-89.53896803,46.20537462,507.46
-89.53897114,46.20537455,523.80
-89.53908691,46.20537198,522.52
-89.53922858,46.20536883,528.79
-89.53938229,46.20536541,510.11
-89.53939110,46.20536522,525.37
-89.53949858,46.20536283,527.16
-89.53953769,46.20536196,527.70
-89.53987659,46.20535443,518.67
-89.53999676,46.20535175,525.50
-89.54000725,46.20535152,520.65
-89.54007161,46.20535009,519.94
-89.54009997,46.20534946,524.80
-89.54014542,46.20534845,524.66
-89.54018764,46.20534751,528.06
-89.54020059,46.20534722,527.10
-89.54021639,46.20534687,521.06
-89.54027207,46.20534563,528.39
-89.54033954,46.20534413,524.65
-89.54039082,46.20534299,529.99
-89.54042475,46.20534224,528.37
-89.54047603,46.20534110,526.46
-89.54048121,46.20534098,524.34
-89.54059646,46.20533842,508.72
-89.54066432,46.20533691,508.97
-89.54067727,46.20533662,519.94
-89.54068218,46.20533624,517.25
-89.54068644,46.20533588,514.92
-89.54068980,46.20533554,513.10
-89.54069000,46.20533148,514.93
-89.54069019,46.20532715,524.64
-89.54069041,46.20531797,516.57
-89.54068955,46.20529378,519.82
-89.54068887,46.20527894,526.53
-89.54068804,46.20526087,524.36
-89.54068230,46.20513643,507.23
-89.54068193,46.20512852,524.11
-89.54068146,46.20511836,507.08
-89.54067956,46.20507709,525.80
-89.54067539,46.20498682,523.98
-89.54067018,46.20487389,505.89
-89.54066708,46.20480664,506.34
-89.54066607,46.20478470,507.53
-89.54066031,46.20465990,517.24
-89.54065957,46.20464381,518.12
-89.54065956,46.20464354,514.72
-89.54065892,46.20462969,521.06
-89.54065765,46.20460227,523.56
-89.54065734,46.20459544,523.96
-89.54065554,46.20455650,525.98
-89.54065465,46.20453717,523.94
-89.54065268,46.20449446,504.77
-89.54065098,46.20445760,525.38
-89.54064857,46.20440527,507.51
-89.54064772,46.20438693,513.60
-89.54064724,46.20437650,516.14
-89.54064685,46.20436805,505.14
-89.54064527,46.20433388,512.44
-89.54064450,46.20431716,514.84
-89.54064328,46.20429072,520.36
-89.54064101,46.20424145,518.09
-89.54063422,46.20409427,505.82
-89.54063151,46.20403555,525.27
-89.54063137,46.20403241,523.76
-89.54062977,46.20399779,525.64
-89.54062757,46.20395014,530.83
-89.54062610,46.20391822,520.07
-89.54062531,46.20390114,526.70
-89.54062359,46.20386373,506.28
-89.54062335,46.20385870,512.05
-89.54061864,46.20375656,519.17
-89.54061777,46.20373759,517.61
-89.54061667,46.20371376,520.72
-89.54061662,46.20371259,520.74
-89.54061570,46.20369272,522.36
-89.54061506,46.20367888,524.39
-89.54061438,46.20366413,524.73
-89.54061401,46.20365604,522.56
-89.54061345,46.20364390,515.32
-89.54060862,46.20353915,517.31
-89.54060790,46.20352360,522.03
-89.54060573,46.20347666,518.39
-89.54060427,46.20344502,503.81
-89.54059590,46.20326348,518.12
-89.54059461,46.20323552,514.34
-89.54059013,46.20313842,518.60
-89.54058649,46.20305947,518.78
-89.54057855,46.20288738,502.91
-89.54057738,46.20286203,511.18
-89.54057692,46.20285196,514.09
-89.54057601,46.20283227,519.80
-89.54057157,46.20273606,518.05
-89.54057061,46.20271529,516.39
-89.54056632,46.20262214,518.84
-89.54056626,46.20262089,516.24
-89.54056563,46.20260722,514.12
-89.54056130,46.20251344,511.77
-89.54056012,46.20248782,502.23
-89.54054565,46.20217403,501.42
-89.54054511,46.20216243,501.60
-89.54054308,46.20211828,501.37
-89.54053932,46.20203691,501.36
-89.54053730,46.20199303,501.37
-89.54053583,46.20196120,502.70
-89.54053062,46.20184818,501.34
-89.54052210,46.20166351,502.51
-89.54052075,46.20163410,501.41
-89.54051098,46.20142227,501.82
-89.54049792,46.20114193,501.09
-89.54049254,46.20102811,501.14
-89.54047573,46.20065802,501.14
-89.54046890,46.20051552,501.16
-89.54045278,46.20016315,501.20
-89.54044019,46.19988748,501.15
-89.54042415,46.19954240,501.10
-89.54040635,46.19915920,501.14
-89.54039738,46.19895905,501.07
-89.54039606,46.19893055,501.23
-89.54039544,46.19891697,501.16
-89.54038999,46.19879892,506.02
-89.54038883,46.19877365,503.24
-89.54038786,46.19875280,511.55
-89.54038750,46.19874497,509.48
-89.54038742,46.19874317,502.72
-89.54038655,46.19872420,511.29
-89.54038182,46.19862179,515.38
-89.54038153,46.19861550,520.10
-89.54038091,46.19860201,506.50
-89.54038071,46.19859761,511.22
-89.54038067,46.19859689,511.58
-89.54037868,46.19855364,504.91
-89.54037824,46.19854411,502.61
-89.54037701,46.19851732,522.29
-89.54037521,46.19847829,516.69
-89.54036934,46.19835116,519.92
-89.54036801,46.19832221,513.87
-89.54036729,46.19830665,506.52
-89.54036698,46.19830000,516.55
-89.54036683,46.19829676,504.29
-89.54036553,46.19826844,515.71
-89.54036290,46.19821153,515.93
-89.54036011,46.19815102,514.68
-89.54035928,46.19813303,513.85
-89.54035848,46.19811550,518.97
-89.54035825,46.19811056,518.66
-89.54035776,46.19810004,520.16
-89.54035710,46.19808574,519.99
-89.54035701,46.19808367,509.24
-89.54035688,46.19808097,504.00
-89.54035639,46.19807037,519.32
-89.54035550,46.19805085,505.01
-89.54035125,46.19795869,520.33
-89.54035045,46.19794143,520.64
-89.54035025,46.19793721,514.18
-89.54034977,46.19792669,519.53
-89.54034961,46.19792327,505.07
-89.54034319,46.19778400,513.69
-89.54034248,46.19776862,509.37
-89.54034195,46.19775702,520.08
-89.54034153,46.19774794,512.94
-89.54034118,46.19774048,518.36
-89.54034044,46.19772429,519.52
-89.54034013,46.19771755,514.65
-89.54033970,46.19770829,503.31
-89.54033895,46.19769202,504.58
-89.54033350,46.19757378,517.81
-89.54033258,46.19755382,514.00
-89.54032826,46.19746022,517.96
-89.54032032,46.19728795,504.16
-89.54032029,46.19728732,508.10
-89.54031794,46.19723643,507.31
-89.54031053,46.19707576,517.91
-89.54030774,46.19701525,516.66
-89.54030603,46.19697803,514.81
-89.54030434,46.19694143,504.69
-89.54029729,46.19678858,522.48
-89.54029457,46.19672960,521.76
-89.54029445,46.19672690,515.63
-89.54029415,46.19672052,512.49
-89.54029396,46.19671647,512.51
-89.54029227,46.19667979,521.52
-89.54029137,46.19666028,503.79
-89.54029075,46.19664679,515.98
-89.54028933,46.19661586,520.75
-89.54028662,46.19655715,520.67
-89.54028541,46.19653099,522.96
-89.54028215,46.19646014,527.30
-89.54027934,46.19639936,527.47
-89.54027756,46.19636060,524.53
-89.54027713,46.19635143,518.27
-89.54027556,46.19634544,518.19
-89.54024539,46.19634602,512.89
-89.54020602,46.19634680,510.12
-89.54017340,46.19634753,523.27
-89.54012160,46.19634868,527.01
-89.54011824,46.19634876,512.43
-89.54011655,46.19634879,529.04
-89.54004845,46.19635031,507.34
-89.53958389,46.19636063,508.35
-89.53936494,46.19636550,509.86
-89.53933141,46.19636625,518.00
-89.53929036,46.19636716,508.38
-89.53925644,46.19636791,509.27
-89.53906857,46.19637209,505.04
-89.53899917,46.19637363,510.15
-89.53896564,46.19637438,509.52
-89.53888523,46.19637616,504.89
-89.53867328,46.19638087,510.02
-89.53837082,46.19638759,503.29
-89.53785395,46.19639908,503.29
-89.53773185,46.19640179,513.69
-89.53769689,46.19640256,508.11
-89.53763914,46.19640385,509.55
-89.53760393,46.19640463,514.08
-89.53752974,46.19640628,503.62
-89.53744454,46.19640817,503.63
-89.53740544,46.19640904,504.49
-89.53734924,46.19641029,509.49
-89.53733850,46.19641052,507.93
-89.53727492,46.19641194,505.41
-89.53723764,46.19641276,515.78
-89.53721291,46.19641331,517.58
-89.53701442,46.19641772,510.04
-89.53697609,46.19641857,509.28
-89.53691342,46.19641996,523.06
-89.53684467,46.19642149,527.18
-89.53681386,46.19642218,510.37
-89.53678162,46.19642289,530.60
-89.53652940,46.19642849,530.50
-89.53649897,46.19642917,531.98
-89.53648744,46.19642942,526.70
-89.53640549,46.19643124,531.72
-89.53632702,46.19643298,526.93
-89.53621541,46.19643546,522.41
-89.53620687,46.19643565,528.07
-89.53612750,46.19643741,528.02
-89.53609746,46.19643808,529.01
-89.53593665,46.19644165,514.27
-89.53592525,46.19644190,526.17
-89.53581274,46.19644440,523.42
-89.53544645,46.19645253,507.73
-89.53535452,46.19645457,529.17
-89.53527243,46.19645639,525.48
-89.53516820,46.19645870,529.64
-89.53516134,46.19645886,528.31
-89.53493346,46.19646391,510.53
-89.53456704,46.19647204,527.23
-89.53453078,46.19647285,521.27
-89.53448805,46.19647380,527.62
-89.53437826,46.19647623,534.31
-89.53433928,46.19647710,530.63
-89.53432168,46.19647749,514.48
-89.53424528,46.19647918,535.79
-89.53421045,46.19647995,532.17
-89.53378939,46.19648929,533.45
-89.53375327,46.19649009,530.15
-89.53361188,46.19649323,529.03
-89.53339073,46.19649813,525.41
-89.53333091,46.19649946,532.96
-89.53329220,46.19650032,525.88
-89.53314433,46.19650360,526.60
-89.53305603,46.19650555,522.73
-89.53286648,46.19650976,509.11
-89.53271615,46.19651309,511.68
-89.53266410,46.19651424,509.24
-89.53266035,46.19651433,511.81
-89.53261089,46.19651542,512.29
-89.53252844,46.19652076,504.48
-89.53235745,46.19660177,504.56
-89.53232926,46.19672435,504.59
-89.53223936,46.19706665,504.45
-89.53174940,46.19702657,504.57
-89.53152771,46.19687874,504.55
-89.53098656,46.19676806,504.56
-89.53089441,46.19684714,504.54
-89.53026269,46.19684440,504.54
-89.52987817,46.19657705,504.58
-89.52987178,46.19657620,504.59
-89.52984006,46.19657681,504.59
-89.52944450,46.19658557,504.58
-89.52928291,46.19658915,504.56
-89.52914657,46.19659217,504.52
-89.52881731,46.19659946,504.57
-89.52872214,46.19660156,504.56
-89.52869003,46.19660227,504.58
-89.52849232,46.19660665,504.56
-89.52839624,46.19660877,504.55
-89.52778549,46.19662229,504.56
-89.52733879,46.19663226,504.79
-89.52732977,46.19663624,504.81
-89.52733490,46.19675646,504.67
-89.52733816,46.19682749,504.82
-89.52734074,46.19688369,504.56
-89.52734405,46.19695589,504.56
-89.52735534,46.19720189,507.29
-89.52735624,46.19722167,505.05
-89.52735730,46.19724478,513.57
-89.52736200,46.19734719,512.16
-89.52736292,46.19736724,513.61
-89.52736404,46.19739161,511.27
-89.52736607,46.19743593,512.68
-89.52737098,46.19754302,510.77
-89.52737365,46.19760101,504.77
-89.52737653,46.19766386,517.92
-89.52738164,46.19777517,522.59
-89.52738350,46.19781581,524.17
-89.52738534,46.19785600,528.96
-89.52739555,46.19807854,526.27
-89.52739561,46.19807980,512.57
-89.52740094,46.19819596,512.63
-89.52740167,46.19821188,512.20
-89.52741444,46.19849025,522.54
-89.52741450,46.19849160,508.75
-89.52741974,46.19860570,521.42
-89.52742363,46.19869057,510.68
-89.52742802,46.19878615,511.78
-89.52742963,46.19882131,525.20
-89.52743033,46.19883659,528.90
-89.52743449,46.19892713,530.80
-89.52743880,46.19902109,513.14
-89.52744588,46.19917547,510.32
-89.52744758,46.19921261,528.51
-89.52744914,46.19924659,528.64
-89.52745021,46.19926979,525.93
-89.52745044,46.19927483,529.23
-89.52745205,46.19930989,516.13
-89.52745830,46.19944611,516.32
-89.52746749,46.19964652,527.62
-89.52747350,46.19977744,512.87
-89.52747596,46.19983112,530.45
-89.52747712,46.19985647,511.61
-89.52747786,46.19987256,526.02
-89.52748079,46.19993640,526.68
-89.52748162,46.19995448,529.38
-89.52748540,46.20003684,532.79
-89.52748549,46.20003881,519.37
-89.52748631,46.20005671,523.54
-89.52748653,46.20006156,526.97
-89.52748822,46.20009834,526.66
-89.52749344,46.20021208,514.58
-89.52749644,46.20027735,508.97
-89.52750318,46.20042436,520.72
-89.52750581,46.20048172,521.56
-89.52750692,46.20050582,521.43
-89.52750928,46.20055725,522.07
-89.52751304,46.20063925,505.05
-89.52751392,46.20065849,519.95
-89.52751715,46.20072871,512.14
-89.52751917,46.20077295,520.02
-89.52752245,46.20084425,511.30
-89.52753069,46.20102390,521.01
-89.52753371,46.20108962,507.96
-89.52753639,46.20114807,507.24
-89.52755003,46.20144532,517.48
-89.52755115,46.20146968,514.16
-89.52755436,46.20153972,518.17
-89.52756039,46.20167109,512.92
-89.52756064,46.20167666,515.47
-89.52756684,46.20181180,519.70
-89.52756740,46.20182394,517.10
-89.52756886,46.20185586,526.26
-89.52757731,46.20204000,505.61
-89.52757916,46.20208028,509.10
-89.52758036,46.20210644,517.22
-89.52758462,46.20219923,516.70
-89.52758759,46.20226397,518.51
-89.52758779,46.20226829,505.07
-89.52758993,46.20231495,506.07
-89.52760998,46.20275193,522.18
-89.52761215,46.20279904,520.26
-89.52761293,46.20281603,521.34
-89.52763151,46.20322100,521.61
-89.52763179,46.20322720,505.92
-89.52763615,46.20332215,518.60
-89.52763987,46.20340325,506.80
-89.52764507,46.20351654,516.11
-89.52764787,46.20357741,524.32
-89.52764973,46.20361796,524.61
-89.52765292,46.20368755,526.04
-89.52765479,46.20372820,526.13
-89.52765691,46.20377459,527.04
-89.52767042,46.20406878,517.38
-89.52767074,46.20407580,514.01
-89.52768597,46.20440775,504.58
-89.52768699,46.20442987,505.88
-89.52769558,46.20461716,507.16
-89.52770618,46.20484815,504.58
-89.52770978,46.20492664,505.04
-89.52771841,46.20511456,504.60
-89.52772165,46.20518505,504.54
-89.52773017,46.20537072,506.76
-89.52773509,46.20547789,504.52
-89.52774091,46.20560206,509.22
-89.52774370,46.20561748,510.71
-89.52774703,46.20562226,511.42
-89.52775290,46.20562312,511.26
-89.52784213,46.20562124,505.95
-89.52810800,46.20561545,504.57
-89.52861719,46.20560418,504.67
-89.52868492,46.20560268,504.57
-89.52902408,46.20559517,504.72
-89.52909090,46.20559369,504.48
-89.52913104,46.20559281,505.69
-89.52925834,46.20558999,504.85
-89.52929823,46.20558910,504.52
-89.52945868,46.20558555,504.53
-89.52952679,46.20558404,506.00
-89.52976779,46.20557871,504.69
-89.53003288,46.20557284,504.57
-89.53004660,46.20557253,505.03
-89.53007380,46.20557193,504.63
-89.53012107,46.20557088,504.47
-89.53018879,46.20556938,506.99
-89.53028501,46.20556725,504.45
-89.53031065,46.20556669,505.20
-89.53042746,46.20556410,505.20
-89.53052497,46.20556194,504.48
-89.53056810,46.20556098,504.26
-89.53067545,46.20555861,509.12
-89.53075872,46.20555676,504.57
-89.53083331,46.20555511,504.42
-89.53095206,46.20555248,504.66
-89.53103727,46.20555059,504.48
-89.53107185,46.20554982,504.47
-89.53108454,46.20554954,504.58
-89.53120951,46.20554678,504.32
-89.53144947,46.20554146,504.42
-89.53163802,46.20553728,509.21
-89.53169293,46.20553606,507.92
-89.53170005,46.20553591,504.35
-89.53183447,46.20553293,504.47
-89.53191152,46.20553122,508.20
-89.53209722,46.20552710,504.37
-89.53232747,46.20552200,504.19
-89.53249867,46.20551821,505.36
-89.53255798,46.20551689,504.18
-89.53277632,46.20551205,504.23
-89.53290879,46.20550911,511.21
-89.53295515,46.20550809,509.28
-89.53319214,46.20550283,505.08
-89.53346512,46.20549678,509.64
-89.53394945,46.20548604,514.84
     </coordinates>
    </LineString>
   </MultiGeometry>
  </Placemark>
 </Document>
</kml>
