<kml>
 <Document>
  <Style id="yellow">
   <LineStyle>
   <color>ff00ffff</color>
   <width>1</width>
   </LineStyle>
  </Style>
  <Style id="red">
   <LineStyle>
   <color>ffff0000</color>
   <width>2</width>
   </LineStyle>
  </Style>
  <Style id="green">
   <LineStyle>
   <color>ff00ff00</color>
   <width>1</width>
   </LineStyle>
  </Style>
  <Placemark>
  <styleUrl>#yellow</styleUrl>
   <MultiGeometry>
    <LineString>
     <coordinates>
-104.71208801,40.80359068,1626.96
-104.71208790,40.80361662,1626.92
-104.71208862,40.80364257,1626.85
-104.71210936,40.80364271,1626.86
-104.71220906,40.80364332,1626.85
-104.71246976,40.80364487,1626.86
-104.71249607,40.80364503,1626.88
-104.71257858,40.80364550,1626.90
-104.71263584,40.80364583,1626.96
-104.71266631,40.80364599,1626.99
-104.71267129,40.80364600,1626.98
-104.71267674,40.80364602,1626.97
-104.71268148,40.80364603,1626.98
-104.71268658,40.80364604,1627.00
-104.71327272,40.80364381,1627.00
-104.71335297,40.80364428,1627.02
-104.71338273,40.80364444,1627.00
-104.71343288,40.80364475,1627.03
-104.71345742,40.80364490,1627.00
-104.71350768,40.80364520,1626.97
-104.71356672,40.80364553,1627.05
-104.71359173,40.80364568,1627.01
-104.71361627,40.80364583,1627.02
-104.71367057,40.80364615,1627.02
-104.71369523,40.80364630,1627.00
-104.71374952,40.80364661,1627.03
-104.71382848,40.80364708,1627.03
-104.71385278,40.80364723,1627.02
-104.71387803,40.80364738,1627.00
-104.71395141,40.80364783,1626.93
-104.71398010,40.80364799,1626.96
-104.71405870,40.80364846,1626.96
-104.71408798,40.80364862,1626.98
-104.71411691,40.80364878,1627.00
-104.71417132,40.80364910,1627.05
-104.71422455,40.80364941,1627.04
-104.71425371,40.80364957,1627.06
-104.71428252,40.80364974,1627.10
-104.71436527,40.80365021,1627.16
-104.71437025,40.80365022,1627.19
-104.71437499,40.80365023,1627.19
-104.71438009,40.80365025,1627.19
-104.71438519,40.80365026,1627.18
-104.71439005,40.80365027,1627.18
-104.71497475,40.80364874,1627.16
-104.71499431,40.80364888,1627.20
-104.71514262,40.80364979,1627.10
-104.71523770,40.80365029,1627.30
-104.71529045,40.80365061,1627.31
-104.71531878,40.80365076,1627.32
-104.71537118,40.80365107,1627.35
-104.71542382,40.80365138,1627.36
-104.71545215,40.80365154,1627.36
-104.71545678,40.80365156,1627.36
-104.71546176,40.80365157,1627.35
-104.71546626,40.80365158,1627.37
-104.71547077,40.80365159,1627.37
-104.71547228,40.80363051,1627.42
-104.71547291,40.80362088,1627.44
-104.71547463,40.80338585,1628.12
-104.71547544,40.80316775,1628.92
-104.71547710,40.80280751,1630.09
-104.71547854,40.80246861,1631.46
-104.71548008,40.80210926,1633.40
-104.71548160,40.80175190,1635.54
-104.71548177,40.80171325,1635.81
-104.71548270,40.80149570,1637.09
-104.71548365,40.80127202,1638.22
-104.71548454,40.80106473,1637.89
-104.71548477,40.80100996,1637.47
-104.71548544,40.80079898,1635.59
-104.71548692,40.80050603,1632.92
-104.71548742,40.80036198,1631.53
-104.71548889,40.80004498,1629.06
-104.71548894,40.80003516,1629.02
-104.71548926,40.79995976,1628.43
-104.71548934,40.79993976,1628.21
-104.71549021,40.79973761,1627.14
-104.71549088,40.79955204,1626.24
-104.71549272,40.79914927,1624.96
-104.71549278,40.79913395,1624.90
-104.71549405,40.79883695,1624.16
-104.71549424,40.79879163,1624.04
-104.71549500,40.79861588,1623.56
-104.71549513,40.79858516,1623.50
-104.71549526,40.79855408,1623.40
-104.71549626,40.79832076,1622.70
-104.71549697,40.79812636,1622.21
-104.71549829,40.79784313,1621.52
-104.71549839,40.79782079,1621.41
-104.71549910,40.79765405,1620.95
-104.71550040,40.79734875,1620.60
-104.71550086,40.79724308,1620.28
-104.71550138,40.79712030,1619.87
-104.71550211,40.79694977,1619.46
-104.71550374,40.79653934,1618.48
-104.71550465,40.79632548,1618.16
-104.71550621,40.79598992,1617.22
-104.71550691,40.79579696,1616.64
-104.71550814,40.79553679,1615.66
-104.71550819,40.79552607,1615.62
-104.71550849,40.79545409,1615.41
-104.71550930,40.79526483,1614.78
-104.71551088,40.79486647,1613.56
-104.71551174,40.79469423,1613.12
-104.71551133,40.79465063,1613.06
-104.71549699,40.79465023,1613.05
-104.71527334,40.79464446,1613.46
-104.71525461,40.79464405,1613.51
-104.71504207,40.79464344,1613.91
-104.71480097,40.79464284,1614.08
-104.71433928,40.79464170,1614.32
-104.71407589,40.79464105,1614.88
-104.71384131,40.79464046,1615.51
-104.71363838,40.79463996,1615.90
-104.71337902,40.79463932,1616.42
-104.71316424,40.79463878,1616.85
-104.71289291,40.79463811,1617.34
-104.71269887,40.79463763,1617.82
-104.71245208,40.79463701,1618.42
-104.71219818,40.79463638,1619.10
-104.71197343,40.79463591,1619.66
-104.71195480,40.79464073,1619.70
-104.71195321,40.79465225,1619.79
-104.71195305,40.79466279,1619.84
-104.71195272,40.79479342,1620.45
-104.71195326,40.79507962,1621.75
-104.71195427,40.79525790,1622.59
-104.71195638,40.79564698,1623.95
-104.71195854,40.79591418,1624.78
-104.71195879,40.79594013,1624.87
-104.71196026,40.79601121,1625.04
-104.71196046,40.79602031,1625.04
-104.71196136,40.79605923,1625.22
-104.71196282,40.79610337,1625.42
-104.71196380,40.79612473,1625.51
-104.71197589,40.79639789,1626.63
-104.71198581,40.79665340,1627.92
-104.71198987,40.79675647,1628.49
-104.71199568,40.79686621,1629.04
-104.71199911,40.79692270,1629.34
-104.71200034,40.79694081,1629.39
-104.71202249,40.79727229,1631.51
-104.71203296,40.79745609,1632.93
-104.71203615,40.79751312,1633.34
-104.71204341,40.79761719,1634.00
-104.71204622,40.79765251,1634.22
-104.71205949,40.79781938,1634.83
-104.71209146,40.79826718,1637.35
-104.71209554,40.79833638,1637.49
-104.71210018,40.79841630,1637.66
-104.71210360,40.79847531,1637.77
-104.71210657,40.79852784,1637.96
-104.71211097,40.79860622,1638.11
-104.71211899,40.79875308,1638.72
-104.71212031,40.79877687,1638.87
-104.71213791,40.79906582,1640.05
-104.71213846,40.79907519,1640.08
-104.71214777,40.79922610,1640.66
-104.71215022,40.79926277,1640.80
-104.71216117,40.79941802,1641.58
-104.71216937,40.79954920,1642.06
-104.71218855,40.79993914,1641.43
-104.71219135,40.80005959,1640.66
-104.71219577,40.80027139,1639.46
-104.71219306,40.80065281,1636.82
-104.71218765,40.80086152,1635.64
-104.71218278,40.80102898,1635.04
-104.71217748,40.80118535,1634.60
-104.71217640,40.80121589,1634.55
-104.71217171,40.80133948,1634.35
-104.71216667,40.80146405,1634.18
-104.71215944,40.80165546,1633.97
-104.71215728,40.80171654,1633.87
-104.71215108,40.80189075,1633.52
-104.71214893,40.80194876,1633.40
-104.71214365,40.80209982,1633.23
-104.71212701,40.80249390,1631.44
-104.71212100,40.80262261,1630.75
-104.71211656,40.80271864,1630.23
-104.71211233,40.80281970,1629.67
-104.71210438,40.80301309,1628.65
-104.71210290,40.80305471,1628.51
-104.71209639,40.80327171,1627.80
-104.71209625,40.80327612,1627.78
-104.71209554,40.80330224,1627.69
-104.71209213,40.80343385,1627.36
-104.71208801,40.80359068,1626.96
     </coordinates>
    </LineString>
   </MultiGeometry>
  </Placemark>
 </Document>
</kml>
