<kml>
 <Document>
  <Style id="yellow">
   <LineStyle>
   <color>ff00ffff</color>
   <width>1</width>
   </LineStyle>
  </Style>
  <Style id="red">
   <LineStyle>
   <color>ffff0000</color>
   <width>2</width>
   </LineStyle>
  </Style>
  <Style id="green">
   <LineStyle>
   <color>ff00ff00</color>
   <width>1</width>
   </LineStyle>
  </Style>
  <Placemark>
  <styleUrl>#yellow</styleUrl>
   <MultiGeometry>
    <LineString>
     <coordinates>
-104.77461059,40.84481952,1679.73
-104.77461011,40.84496185,1679.93
-104.77460938,40.84517535,1680.05
-104.77460935,40.84518562,1680.05
-104.77460808,40.84559541,1680.28
-104.77460744,40.84574738,1680.17
-104.77460631,40.84608250,1680.29
-104.77460610,40.84614357,1680.40
-104.77460518,40.84641545,1680.41
-104.77460401,40.84676002,1680.96
-104.77460384,40.84681047,1680.95
-104.77460316,40.84701189,1681.19
-104.77460299,40.84706207,1681.27
-104.77460267,40.84715801,1681.35
-104.77460220,40.84729431,1681.60
-104.77460213,40.84731458,1681.65
-104.77460145,40.84751682,1682.03
-104.77460100,40.84764852,1682.51
-104.77460035,40.84784139,1683.48
-104.77460019,40.84788868,1683.59
-104.77460011,40.84791219,1683.58
-104.77459887,40.84831442,1685.02
-104.77459803,40.84852495,1686.18
-104.77459732,40.84880637,1688.42
-104.77460129,40.84882556,1688.56
-104.77478125,40.84882646,1688.16
-104.77508993,40.84882706,1687.10
-104.77541119,40.84882769,1686.25
-104.77571595,40.84882828,1685.80
-104.77604267,40.84882891,1686.03
-104.77634886,40.84882951,1686.33
-104.77636843,40.84882928,1686.35
-104.77651756,40.84882749,1686.52
-104.77655446,40.84882702,1686.52
-104.77658008,40.84882662,1686.54
-104.77658209,40.84875996,1686.43
-104.77658414,40.84867817,1686.22
-104.77658722,40.84857323,1685.97
-104.77660697,40.84820248,1685.37
-104.77661221,40.84812772,1685.12
-104.77661761,40.84803638,1684.76
-104.77661926,40.84800531,1684.65
-104.77662122,40.84791748,1684.49
-104.77662221,40.84786883,1684.41
-104.77662281,40.84783217,1684.36
-104.77662277,40.84777398,1684.30
-104.77662260,40.84768164,1684.14
-104.77662194,40.84763164,1683.98
-104.77662105,40.84757714,1683.84
-104.77662076,40.84755957,1683.84
-104.77661844,40.84747317,1683.65
-104.77660979,40.84722191,1683.41
-104.77660871,40.84719173,1683.34
-104.77659746,40.84686578,1682.34
-104.77659249,40.84675569,1682.09
-104.77658564,40.84664199,1681.90
-104.77657841,40.84653532,1681.67
-104.77657075,40.84644909,1681.59
-104.77656377,40.84637178,1681.46
-104.77655484,40.84627547,1681.38
-104.77654542,40.84618392,1681.38
-104.77654266,40.84615887,1681.33
-104.77652924,40.84602129,1681.22
-104.77652090,40.84592758,1681.11
-104.77651735,40.84588722,1681.06
-104.77650695,40.84545182,1680.65
-104.77650728,40.84542668,1680.67
-104.77650624,40.84538335,1680.59
-104.77650501,40.84532579,1680.59
-104.77650280,40.84527614,1680.53
-104.77649821,40.84484256,1680.43
-104.77649901,40.84481562,1680.47
-104.77649968,40.84479365,1680.46
-104.77650047,40.84476986,1680.47
-104.77650088,40.84475176,1680.41
-104.77650130,40.84473509,1680.36
-104.77650212,40.84470293,1680.29
-104.77650267,40.84467960,1680.30
-104.77650322,40.84462177,1680.31
-104.77650408,40.84450673,1680.24
-104.77650315,40.84432287,1680.09
-104.77650317,40.84417639,1679.93
-104.77650066,40.84397027,1680.08
-104.77650067,40.84375686,1679.89
-104.77650211,40.84364381,1679.60
-104.77650314,40.84358679,1679.40
-104.77650338,40.84355021,1679.32
-104.77650458,40.84347499,1679.22
-104.77650476,40.84342148,1679.16
-104.77653652,40.84300526,1679.15
-104.77653665,40.84300301,1679.19
-104.77653830,40.84297104,1679.30
-104.77653816,40.84294356,1679.40
-104.77653698,40.84290500,1679.52
-104.77653630,40.84289509,1679.55
-104.77653358,40.84285923,1679.65
-104.77653207,40.84284707,1679.67
-104.77652954,40.84282571,1679.74
-104.77651064,40.84241174,1680.84
-104.77651364,40.84233247,1680.92
-104.77651509,40.84228806,1680.99
-104.77651524,40.84228022,1680.99
-104.77651624,40.84219176,1681.12
-104.77651921,40.84201565,1681.18
-104.77652008,40.84196701,1681.20
-104.77652152,40.84189386,1681.10
-104.77652382,40.84177171,1680.91
-104.77653020,40.84156849,1679.79
-104.77654363,40.84131313,1676.88
-104.77654942,40.84121557,1675.76
-104.77655876,40.84108263,1674.33
-104.77656055,40.84104362,1674.06
-104.77656476,40.84095535,1673.30
-104.77661081,40.84059366,1669.70
-104.77661131,40.84058843,1669.68
-104.77661417,40.84054691,1669.36
-104.77661756,40.84045692,1668.86
-104.77662152,40.84033757,1668.02
-104.77662696,40.83995418,1665.82
-104.77662790,40.83988499,1665.39
-104.77662753,40.83985491,1665.15
-104.77662711,40.83983707,1665.06
-104.77662573,40.83982508,1664.96
-104.77637344,40.83982117,1665.85
-104.77636763,40.83982116,1665.91
-104.77631200,40.83982141,1666.28
-104.77621355,40.83982203,1666.78
-104.77619184,40.83982217,1666.91
-104.77618057,40.83982224,1666.95
-104.77559746,40.83981966,1671.22
-104.77559212,40.83981965,1671.30
-104.77558678,40.83981964,1671.31
-104.77557670,40.83981971,1671.33
-104.77553435,40.83982008,1671.38
-104.77494186,40.83981839,1672.70
-104.77493688,40.83981838,1672.70
-104.77470107,40.83981990,1673.79
-104.77469063,40.83981997,1673.89
-104.77464959,40.83982025,1674.02
-104.77463974,40.83982032,1674.07
-104.77462989,40.83982039,1674.14
-104.77462853,40.83983805,1674.32
-104.77462803,40.83984453,1674.35
-104.77462781,40.83987507,1674.62
-104.77462757,40.83991146,1674.95
-104.77462686,40.84005154,1676.43
-104.77462636,40.84016370,1676.96
-104.77462628,40.84018874,1677.08
-104.77462539,40.84045044,1679.10
-104.77462535,40.84046107,1679.19
-104.77462508,40.84054097,1679.50
-104.77462493,40.84058700,1679.74
-104.77462487,40.84060385,1679.82
-104.77462480,40.84062304,1679.82
-104.77462473,40.84064457,1679.86
-104.77462433,40.84076330,1679.91
-104.77462307,40.84117120,1680.24
-104.77462146,40.84160937,1678.68
-104.77462085,40.84179080,1678.10
-104.77461994,40.84205808,1677.60
-104.77461900,40.84233725,1677.63
-104.77461864,40.84247760,1677.60
-104.77461737,40.84281848,1677.82
-104.77461734,40.84282568,1677.89
-104.77461723,40.84285893,1677.93
-104.77461676,40.84299838,1678.05
-104.77461663,40.84303513,1677.99
-104.77461662,40.84303927,1677.98
-104.77461546,40.84341520,1678.60
-104.77461409,40.84378634,1678.78
-104.77461394,40.84383120,1678.81
-104.77461352,40.84395372,1678.82
-104.77461350,40.84395876,1678.84
-104.77461330,40.84401822,1678.88
-104.77461234,40.84430108,1679.09
-104.77461193,40.84445963,1679.38
-104.77461081,40.84475331,1679.66
-104.77461073,40.84477664,1679.67
-104.77461059,40.84481952,1679.73
     </coordinates>
    </LineString>
   </MultiGeometry>
  </Placemark>
 </Document>
</kml>
