<kml>
 <Document>
  <Style id="yellow">
   <LineStyle>
   <color>ff00ffff</color>
   <width>1</width>
   </LineStyle>
  </Style>
  <Style id="red">
   <LineStyle>
   <color>ffff0000</color>
   <width>2</width>
   </LineStyle>
  </Style>
  <Style id="green">
   <LineStyle>
   <color>ff00ff00</color>
   <width>1</width>
   </LineStyle>
  </Style>
  <Placemark>
  <styleUrl>#yellow</styleUrl>
   <MultiGeometry>
    <LineString>
     <coordinates>
-104.75108613,40.79113889,1638.31
-104.75108523,40.79138059,1638.52
-104.75108505,40.79142933,1638.51
-104.75108443,40.79159526,1638.25
-104.75108418,40.79166030,1638.20
-104.75108414,40.79167228,1638.21
-104.75108382,40.79175678,1638.22
-104.75108380,40.79176201,1638.18
-104.75108371,40.79178759,1638.20
-104.75108335,40.79188362,1638.18
-104.75108272,40.79205244,1638.18
-104.75108186,40.79228378,1638.20
-104.75108169,40.79232810,1638.20
-104.75108125,40.79244557,1638.23
-104.75108124,40.79244854,1638.24
-104.75108085,40.79255259,1638.32
-104.75108052,40.79264178,1638.55
-104.75108045,40.79266087,1638.65
-104.75107952,40.79291032,1639.98
-104.75107876,40.79311319,1639.64
-104.75107788,40.79334840,1639.06
-104.75107782,40.79336561,1639.02
-104.75107632,40.79376540,1638.82
-104.75107622,40.79379324,1638.82
-104.75107599,40.79385423,1638.97
-104.75107555,40.79397179,1639.44
-104.75107526,40.79405025,1640.03
-104.75107435,40.79429375,1641.98
-104.75107392,40.79440915,1642.59
-104.75107375,40.79445365,1642.84
-104.75107281,40.79470562,1643.07
-104.75107287,40.79472138,1643.03
-104.75107594,40.79472535,1643.00
-104.75108068,40.79472563,1642.98
-104.75109502,40.79472648,1642.96
-104.75119139,40.79472695,1642.84
-104.75119257,40.79472696,1642.84
-104.75119636,40.79472697,1642.85
-104.75120158,40.79472698,1642.84
-104.75120668,40.79472699,1642.82
-104.75139894,40.79472731,1642.62
-104.75191931,40.79472843,1641.34
-104.75215200,40.79472902,1640.39
-104.75216125,40.79472904,1640.32
-104.75216646,40.79472905,1640.29
-104.75217144,40.79472906,1640.25
-104.75217677,40.79472907,1640.24
-104.75246766,40.79472961,1638.98
-104.75289866,40.79473053,1637.52
-104.75321538,40.79473130,1636.82
-104.75322036,40.79473131,1636.81
-104.75322499,40.79473132,1636.78
-104.75341642,40.79473173,1636.17
-104.75361615,40.79473216,1635.94
-104.75400780,40.79473299,1635.48
-104.75401266,40.79473300,1635.47
-104.75401740,40.79473301,1635.47
-104.75403542,40.79473305,1635.38
-104.75414269,40.79473328,1635.14
-104.75443630,40.79473391,1634.86
-104.75454583,40.79473414,1634.69
-104.75490831,40.79473491,1634.14
-104.75491341,40.79473492,1634.14
-104.75491839,40.79473493,1634.13
-104.75549127,40.79473606,1633.54
-104.75555789,40.79473629,1633.61
-104.75567773,40.79473654,1633.51
-104.75576497,40.79473673,1633.22
-104.75594681,40.79473711,1632.76
-104.75597158,40.79473716,1632.65
-104.75597668,40.79473717,1632.66
-104.75598201,40.79473718,1632.66
-104.75601757,40.79473726,1632.63
-104.75608739,40.79473741,1632.42
-104.75622987,40.79473771,1632.21
-104.75657019,40.79473843,1632.08
-104.75668576,40.79473867,1632.10
-104.75679066,40.79473889,1632.15
-104.75685159,40.79473902,1632.21
-104.75685657,40.79473903,1632.23
-104.75686178,40.79473904,1632.20
-104.75690019,40.79473912,1632.18
-104.75700367,40.79473934,1632.23
-104.75722036,40.79473980,1632.27
-104.75728282,40.79473993,1632.26
-104.75742530,40.79474023,1632.32
-104.75753234,40.79474045,1632.31
-104.75753779,40.79474046,1632.31
-104.75754254,40.79474047,1632.28
-104.75756731,40.79474053,1632.31
-104.75767447,40.79474075,1632.41
-104.75777570,40.79474096,1632.34
-104.75789103,40.79474121,1632.12
-104.75803695,40.79474151,1631.62
-104.75823573,40.79474193,1630.67
-104.75832049,40.79474211,1630.28
-104.75839398,40.79474226,1629.89
-104.75839919,40.79474227,1629.86
-104.75840453,40.79474228,1629.83
-104.75850777,40.79474250,1629.42
-104.75864717,40.79474279,1628.98
-104.75880684,40.79474312,1628.37
-104.75897457,40.79474347,1627.56
-104.75913779,40.79474381,1626.89
-104.75934072,40.79474424,1626.03
-104.75953939,40.79474465,1624.54
-104.75966373,40.79474491,1623.66
-104.75989073,40.79474538,1623.03
-104.76002077,40.79474566,1622.91
-104.76002610,40.79474567,1622.92
-104.76006545,40.79474575,1622.84
-104.76026981,40.79474617,1622.75
-104.76041976,40.79474648,1622.72
-104.76058986,40.79474684,1622.67
-104.76065078,40.79474696,1622.60
-104.76065576,40.79474697,1622.62
-104.76081614,40.79474731,1622.36
-104.76082159,40.79474732,1622.19
-104.76082669,40.79474733,1621.96
-104.76083191,40.79474734,1621.82
-104.76083736,40.79474735,1621.69
-104.76114626,40.79474799,1621.26
-104.76115160,40.79474800,1621.27
-104.76120624,40.79474811,1621.36
-104.76146939,40.79474866,1621.27
-104.76162799,40.79474899,1621.63
-104.76163297,40.79474900,1621.64
-104.76204607,40.79474985,1623.12
-104.76225114,40.79475027,1623.74
-104.76226749,40.79475031,1623.85
-104.76227259,40.79475032,1623.86
-104.76252152,40.79475083,1624.13
-104.76275397,40.79475131,1624.44
-104.76283623,40.79475148,1624.46
-104.76284121,40.79475149,1624.45
-104.76289929,40.79475107,1624.50
-104.76291838,40.79475092,1624.54
-104.76292336,40.79475084,1624.53
-104.76292528,40.79474472,1624.54
-104.76292603,40.79473274,1624.57
-104.76292674,40.79459951,1624.52
-104.76292687,40.79456266,1624.45
-104.76292701,40.79452239,1624.46
-104.76292713,40.79448915,1624.43
-104.76292780,40.79430250,1624.30
-104.76292931,40.79387595,1624.20
-104.76292948,40.79382955,1624.19
-104.76293010,40.79365488,1624.25
-104.76293115,40.79335985,1624.22
-104.76293144,40.79327688,1624.18
-104.76293156,40.79324472,1624.17
-104.76293170,40.79320626,1624.17
-104.76293181,40.79317346,1624.13
-104.76293186,40.79315887,1624.11
-104.76293210,40.79309329,1624.03
-104.76293271,40.79292114,1624.12
-104.76293273,40.79291591,1624.13
-104.76293317,40.79279186,1624.06
-104.76293386,40.79256386,1623.89
-104.76293487,40.79231468,1623.60
-104.76293509,40.79225108,1623.57
-104.76293535,40.79217830,1623.57
-104.76293543,40.79215704,1623.54
-104.76293553,40.79212722,1623.53
-104.76293618,40.79194579,1623.37
-104.76293632,40.79190678,1623.34
-104.76293633,40.79190228,1623.32
-104.76293645,40.79186859,1623.31
-104.76293658,40.79183309,1623.26
-104.76293660,40.79182877,1623.29
-104.76293672,40.79179300,1623.26
-104.76293718,40.79166526,1623.20
-104.76293755,40.79156013,1623.06
-104.76293791,40.79145960,1623.01
-104.76293812,40.79140122,1622.99
-104.76293828,40.79135411,1622.98
-104.76293832,40.79134465,1622.97
-104.76293836,40.79133141,1622.98
-104.76293855,40.79127826,1622.97
-104.76293881,40.79120745,1622.96
-104.76293918,40.79110313,1622.96
-104.76293952,40.79100665,1622.85
-104.76293954,40.79100116,1622.85
-104.76293976,40.79094017,1622.77
-104.76293979,40.79093161,1622.75
-104.76293984,40.79091693,1622.77
-104.76294023,40.79080675,1622.77
-104.76294027,40.79079495,1622.77
-104.76294033,40.79077757,1622.76
-104.76294046,40.79074297,1622.71
-104.76294053,40.79072207,1622.70
-104.76294108,40.79056749,1622.74
-104.76294113,40.79055353,1622.73
-104.76294120,40.79053506,1622.71
-104.76294200,40.79030840,1622.76
-104.76294217,40.79026165,1622.78
-104.76294270,40.79011265,1622.70
-104.76294281,40.79008076,1622.69
-104.76294378,40.78980735,1622.83
-104.76294416,40.78970132,1623.25
-104.76294499,40.78946728,1624.58
-104.76294539,40.78935594,1625.32
-104.76294561,40.78929387,1625.80
-104.76294589,40.78921522,1626.37
-104.76294674,40.78897506,1628.12
-104.76294686,40.78894209,1628.24
-104.76294785,40.78866390,1628.26
-104.76294815,40.78857841,1627.66
-104.76294890,40.78836969,1625.78
-104.76294918,40.78829095,1625.04
-104.76294941,40.78822510,1624.52
-104.76294963,40.78816492,1623.95
-104.76294974,40.78813276,1623.57
-104.76295006,40.78804403,1622.09
-104.76295119,40.78772630,1623.88
-104.76295167,40.78759072,1624.03
-104.76295240,40.78738506,1624.85
-104.76295264,40.78731795,1625.45
-104.76295304,40.78720498,1626.27
-104.76295320,40.78716048,1626.53
-104.76295340,40.78710201,1626.85
-104.76295363,40.78703868,1627.02
-104.76295430,40.78685095,1627.43
-104.76295431,40.78684824,1627.42
-104.76295433,40.78684113,1627.44
-104.76295449,40.78679635,1627.39
-104.76295455,40.78678032,1627.39
-104.76295523,40.78658790,1627.28
-104.76295528,40.78657375,1627.33
-104.76295553,40.78650403,1627.23
-104.76295588,40.78640475,1627.17
-104.76295630,40.78628909,1627.08
-104.76295631,40.78628638,1627.05
-104.76295740,40.78597784,1626.93
-104.76295746,40.78596037,1626.96
-104.76295775,40.78587929,1627.01
-104.76295797,40.78581938,1626.93
-104.76295800,40.78577686,1626.85
-104.76295760,40.78575587,1626.80
-104.76295679,40.78575046,1626.80
-104.76295574,40.78574632,1626.83
-104.76295515,40.78574470,1626.82
-104.76286863,40.78574317,1626.75
-104.76267379,40.78574268,1626.74
-104.76232653,40.78574196,1626.02
-104.76216593,40.78574163,1625.81
-104.76204599,40.78574138,1625.61
-104.76203105,40.78574135,1625.54
-104.76192190,40.78574113,1625.31
-104.76162607,40.78574052,1624.02
-104.76152332,40.78574030,1623.08
-104.76141108,40.78574007,1622.27
-104.76122986,40.78573970,1621.18
-104.76116610,40.78573957,1620.74
-104.76080343,40.78573881,1619.04
-104.76079786,40.78573880,1618.94
-104.76047086,40.78573812,1616.92
-104.76045130,40.78573808,1616.77
-104.76013971,40.78573744,1615.16
-104.76010534,40.78573736,1615.13
-104.76002771,40.78573720,1615.03
-104.75979814,40.78573673,1614.87
-104.75934030,40.78573577,1614.91
-104.75917461,40.78573543,1614.81
-104.75914190,40.78573536,1614.81
-104.75905395,40.78573517,1614.71
-104.75904376,40.78573515,1614.67
-104.75881454,40.78573467,1614.43
-104.75876939,40.78573458,1614.35
-104.75874260,40.78573452,1614.37
-104.75866675,40.78573437,1614.37
-104.75862444,40.78573428,1614.37
-104.75853484,40.78573409,1615.16
-104.75846989,40.78573395,1615.77
-104.75842011,40.78573385,1615.65
-104.75824849,40.78573349,1615.53
-104.75824328,40.78573348,1615.53
-104.75813945,40.78573326,1615.30
-104.75813246,40.78573325,1615.30
-104.75803314,40.78573304,1615.26
-104.75792434,40.78573281,1615.16
-104.75780973,40.78573257,1615.19
-104.75764286,40.78573222,1615.19
-104.75739930,40.78573171,1615.09
-104.75736315,40.78573163,1615.11
-104.75732961,40.78573156,1615.11
-104.75723491,40.78573136,1615.26
-104.75717553,40.78573124,1615.45
-104.75715930,40.78573120,1615.50
-104.75708724,40.78573105,1615.84
-104.75702786,40.78573093,1615.84
-104.75692569,40.78573071,1616.06
-104.75681464,40.78573048,1616.04
-104.75671485,40.78573027,1616.10
-104.75661553,40.78573006,1615.93
-104.75659526,40.78573001,1615.95
-104.75652901,40.78572987,1615.91
-104.75648930,40.78572979,1615.90
-104.75637624,40.78572955,1616.02
-104.75628794,40.78572937,1616.02
-104.75627988,40.78572935,1616.01
-104.75621908,40.78572922,1616.03
-104.75616468,40.78572911,1616.08
-104.75616278,40.78572910,1616.08
-104.75582998,40.78572840,1616.84
-104.75582381,40.78572838,1616.84
-104.75582168,40.78572838,1616.84
-104.75582156,40.78572838,1616.86
-104.75582144,40.78572838,1616.84
-104.75580047,40.78572834,1616.90
-104.75579217,40.78572832,1616.91
-104.75578506,40.78572830,1616.93
-104.75576230,40.78572825,1616.96
-104.75575187,40.78572823,1616.97
-104.75573706,40.78572820,1617.01
-104.75572046,40.78572817,1617.02
-104.75569036,40.78572810,1617.13
-104.75563726,40.78572799,1617.29
-104.75561972,40.78572795,1617.34
-104.75555786,40.78572782,1617.36
-104.75543021,40.78572755,1617.42
-104.75530292,40.78572728,1617.33
-104.75520076,40.78572706,1617.27
-104.75490019,40.78572643,1616.96
-104.75478285,40.78572618,1616.67
-104.75446641,40.78572559,1616.09
-104.75416525,40.78572486,1616.00
-104.75405811,40.78572463,1616.01
-104.75384287,40.78572418,1616.46
-104.75375541,40.78572399,1616.54
-104.75340305,40.78572333,1617.29
-104.75300980,40.78572240,1619.09
-104.75289709,40.78572215,1619.74
-104.75268233,40.78572169,1621.15
-104.75250123,40.78572131,1622.22
-104.75214057,40.78572053,1624.79
-104.75204813,40.78572033,1625.45
-104.75171864,40.78571963,1626.85
-104.75140374,40.78571895,1627.49
-104.75127763,40.78571868,1627.17
-104.75119573,40.78571859,1627.05
-104.75110945,40.78571966,1627.07
-104.75110640,40.78574173,1627.04
-104.75110625,40.78575011,1627.02
-104.75110583,40.78586424,1626.85
-104.75110567,40.78590541,1626.88
-104.75110539,40.78598234,1626.93
-104.75110513,40.78604973,1627.09
-104.75110501,40.78608288,1627.17
-104.75110479,40.78614225,1627.45
-104.75110459,40.78619612,1627.73
-104.75110453,40.78621152,1627.79
-104.75110420,40.78629854,1628.19
-104.75110398,40.78635746,1628.50
-104.75110288,40.78665456,1629.77
-104.75110244,40.78677185,1630.07
-104.75110210,40.78686157,1629.92
-104.75110178,40.78694697,1629.35
-104.75110178,40.78694896,1629.33
-104.75110162,40.78699057,1629.03
-104.75110070,40.78723651,1626.98
-104.75110022,40.78736686,1626.11
-104.75110017,40.78738028,1626.03
-104.75110013,40.78738938,1626.01
-104.75109954,40.78754856,1625.76
-104.75109900,40.78769207,1625.93
-104.75109895,40.78770486,1626.03
-104.75109870,40.78777359,1626.30
-104.75109859,40.78780206,1626.43
-104.75109803,40.78795331,1627.16
-104.75109780,40.78801457,1627.46
-104.75109706,40.78821222,1628.56
-104.75109639,40.78839266,1629.59
-104.75109598,40.78850211,1630.00
-104.75109593,40.78851328,1630.01
-104.75109515,40.78872426,1630.72
-104.75109451,40.78889380,1631.46
-104.75109386,40.78906874,1632.16
-104.75109384,40.78907388,1632.19
-104.75109313,40.78926477,1632.58
-104.75109287,40.78933557,1632.59
-104.75109199,40.78957024,1633.23
-104.75109194,40.78958421,1633.28
-104.75109166,40.78965862,1633.41
-104.75109156,40.78968546,1633.46
-104.75109155,40.78968817,1633.47
-104.75109110,40.78980816,1633.96
-104.75109103,40.78982708,1634.03
-104.75109097,40.78984185,1634.12
-104.75109083,40.78987960,1634.34
-104.75109074,40.78990500,1634.54
-104.75109059,40.78994401,1634.77
-104.75109051,40.78996734,1634.93
-104.75109049,40.78997148,1634.95
-104.75109047,40.78997734,1634.96
-104.75109040,40.78999581,1635.05
-104.75109035,40.79000878,1635.11
-104.75109029,40.79002526,1635.22
-104.75108972,40.79017760,1635.86
-104.75108949,40.79024003,1635.99
-104.75108933,40.79028192,1636.11
-104.75108908,40.79034993,1636.27
-104.75108747,40.79078072,1637.45
-104.75108613,40.79113889,1638.31
     </coordinates>
    </LineString>
   </MultiGeometry>
  </Placemark>
 </Document>
</kml>
