<kml>
 <Document>
  <Style id="yellow">
   <LineStyle>
   <color>ff00ffff</color>
   <width>1</width>
   </LineStyle>
  </Style>
  <Style id="red">
   <LineStyle>
   <color>ffff0000</color>
   <width>2</width>
   </LineStyle>
  </Style>
  <Style id="green">
   <LineStyle>
   <color>ff00ff00</color>
   <width>1</width>
   </LineStyle>
  </Style>
  <Placemark>
  <styleUrl>#yellow</styleUrl>
   <MultiGeometry>
    <LineString>
     <coordinates>
-104.72734679,40.79927311,1630.85
-104.72734587,40.79949670,1629.77
-104.72734533,40.79962804,1630.02
-104.72734533,40.79962894,1630.01
-104.72734503,40.79970254,1629.85
-104.72734360,40.80005153,1629.25
-104.72734264,40.80028629,1629.39
-104.72734260,40.80029665,1629.40
-104.72734245,40.80033160,1629.46
-104.72734235,40.80035665,1629.51
-104.72734219,40.80039574,1629.55
-104.72734187,40.80047484,1629.70
-104.72734167,40.80052303,1629.74
-104.72734034,40.80084923,1630.49
-104.72734007,40.80091553,1630.53
-104.72733996,40.80094129,1630.52
-104.72733967,40.80101165,1630.61
-104.72733920,40.80112822,1649.19
-104.72733897,40.80118326,1630.68
-104.72733861,40.80127163,1630.72
-104.72733846,40.80130704,1630.78
-104.72733690,40.80168981,1632.10
-104.72733665,40.80175052,1632.33
-104.72733644,40.80180133,1632.53
-104.72733554,40.80202177,1633.52
-104.72733501,40.80215104,1634.18
-104.72733493,40.80217158,1634.32
-104.72733479,40.80220509,1634.51
-104.72733448,40.80227977,1634.89
-104.72733409,40.80237499,1635.40
-104.72733351,40.80251777,1636.26
-104.72733339,40.80254642,1636.42
-104.72733335,40.80255597,1636.45
-104.72733248,40.80277001,1637.76
-104.72733187,40.80291865,1638.63
-104.72733143,40.80302477,1639.11
-104.72733064,40.80321971,1639.79
-104.72733040,40.80327673,1639.91
-104.72733023,40.80331790,1640.01
-104.72733021,40.80332376,1640.02
-104.72733011,40.80334835,1640.00
-104.72732959,40.80347591,1639.93
-104.72732934,40.80353519,1639.80
-104.72732890,40.80367256,1639.70
-104.72732935,40.80367797,1639.69
-104.72733029,40.80368004,1639.67
-104.72738909,40.80368172,1639.90
-104.72745287,40.80368187,1640.07
-104.72751001,40.80368200,1640.30
-104.72764480,40.80368232,1640.81
-104.72771570,40.80368249,1641.02
-104.72783721,40.80368277,1641.46
-104.72799441,40.80368314,1642.10
-104.72836050,40.80368401,1643.94
-104.72836607,40.80368402,1643.95
-104.72889766,40.80368527,1649.85
-104.72909350,40.80368573,1650.99
-104.72925651,40.80368611,1652.32
-104.72947192,40.80368662,1653.80
-104.72964927,40.80368703,1653.54
-104.72974494,40.80368726,1652.87
-104.72988543,40.80368759,1652.11
-104.72998655,40.80368782,1652.40
-104.73025400,40.80368845,1652.17
-104.73051043,40.80368905,1650.65
-104.73054600,40.80368913,1650.32
-104.73075275,40.80368961,1649.26
-104.73097646,40.80369014,1648.01
-104.73120716,40.80369067,1646.79
-104.73127580,40.80369083,1646.60
-104.73144296,40.80369122,1646.49
-104.73157609,40.80369153,1647.03
-104.73170104,40.80369182,1647.85
-104.73188670,40.80369225,1649.18
-104.73188907,40.80369226,1649.19
-104.73220856,40.80369300,1650.84
-104.73237560,40.80369339,1651.53
-104.73255248,40.80369380,1651.94
-104.73263926,40.80369400,1652.03
-104.73287447,40.80369454,1651.92
-104.73315484,40.80369519,1652.01
-104.73349995,40.80369590,1652.86
-104.73384955,40.80369680,1654.44
-104.73412756,40.80369744,1655.72
-104.73417937,40.80369756,1655.94
-104.73438138,40.80369802,1657.20
-104.73493525,40.80369930,1658.70
-104.73519168,40.80369989,1658.13
-104.73520875,40.80369993,1658.13
-104.73550667,40.80370061,1657.00
-104.73572682,40.80370111,1656.08
-104.73600802,40.80370176,1655.15
-104.73611223,40.80370199,1654.97
-104.73627974,40.80370238,1654.67
-104.73653925,40.80370297,1654.35
-104.73678975,40.80370354,1654.27
-104.73680090,40.80370357,1654.26
-104.73703504,40.80370410,1654.25
-104.73710842,40.80370427,1654.20
-104.73727344,40.80370464,1653.88
-104.73743894,40.80370502,1653.39
-104.73774623,40.80370563,1652.31
-104.73804782,40.80370641,1650.81
-104.73826560,40.80370690,1649.99
-104.73843229,40.80370728,1649.29
-104.73854693,40.80370754,1648.87
-104.73865659,40.80370779,1648.46
-104.73873424,40.80370796,1648.31
-104.73875036,40.80370800,1648.28
-104.73890045,40.80370834,1648.00
-104.73911289,40.80370864,1647.60
-104.73918367,40.80370736,1647.42
-104.73918387,40.80368817,1647.37
-104.73918406,40.80363790,1647.29
-104.73918427,40.80358583,1647.18
-104.73918566,40.80323009,1646.32
-104.73918603,40.80313622,1646.20
-104.73918611,40.80311460,1646.20
-104.73918630,40.80306550,1646.24
-104.73918675,40.80295191,1646.49
-104.73918707,40.80286921,1646.67
-104.73918724,40.80282561,1646.82
-104.73918726,40.80282192,1646.83
-104.73918773,40.80270192,1647.25
-104.73918792,40.80265139,1647.35
-104.73918837,40.80253716,1647.82
-104.73918841,40.80252635,1647.86
-104.73918898,40.80238077,1648.43
-104.73918945,40.80226078,1648.88
-104.73919008,40.80210070,1649.25
-104.73919041,40.80201575,1649.19
-104.73919051,40.80199053,1649.20
-104.73919054,40.80198206,1649.23
-104.73919092,40.80188621,1649.21
-104.73919122,40.80181072,1649.20
-104.73919161,40.80171117,1649.21
-104.73919173,40.80167901,1649.27
-104.73919180,40.80166118,1649.28
-104.73919190,40.80163532,1649.32
-104.73919201,40.80160839,1649.35
-104.73919302,40.80134885,1649.96
-104.73919308,40.80133327,1649.99
-104.73919327,40.80128543,1650.14
-104.73919338,40.80125670,1650.17
-104.73919357,40.80120814,1650.25
-104.73919382,40.80114409,1650.23
-104.73919438,40.80100284,1650.22
-104.73919496,40.80085384,1650.14
-104.73919526,40.80077682,1650.16
-104.73919531,40.80076447,1650.20
-104.73919538,40.80074790,1650.19
-104.73919606,40.80057305,1650.18
-104.73919667,40.80041693,1650.30
-104.73919792,40.80009695,1650.33
-104.73919897,40.79982994,1649.35
-104.73919982,40.79961238,1648.41
-104.73920036,40.79947320,1648.37
-104.73920136,40.79921943,1648.37
-104.73920139,40.79921034,1648.38
-104.73920195,40.79906755,1648.43
-104.73920223,40.79899539,1648.58
-104.73920226,40.79898900,1648.59
-104.73920315,40.79876117,1649.61
-104.73920333,40.79871433,1649.93
-104.73920348,40.79867740,1650.17
-104.73920392,40.79856596,1651.02
-104.73920402,40.79853903,1651.14
-104.73920422,40.79848813,1651.44
-104.73920480,40.79834057,1652.46
-104.73920494,40.79830444,1652.72
-104.73920573,40.79810139,1654.09
-104.73920578,40.79808950,1654.14
-104.73920598,40.79803951,1654.51
-104.73920675,40.79784285,1655.94
-104.73920683,40.79782240,1655.96
-104.73920688,40.79780736,1656.06
-104.73920691,40.79779997,1656.04
-104.73920716,40.79773745,1656.18
-104.73920743,40.79766899,1656.38
-104.73920853,40.79738567,1656.94
-104.73920868,40.79734784,1656.92
-104.73920877,40.79732586,1656.94
-104.73920962,40.79707785,1656.47
-104.73921073,40.79682435,1656.55
-104.73921141,40.79665184,1656.86
-104.73921199,40.79650329,1657.06
-104.73921238,40.79640276,1657.08
-104.73921269,40.79632267,1656.87
-104.73921283,40.79628853,1656.78
-104.73921284,40.79628430,1656.76
-104.73921291,40.79626781,1656.71
-104.73921321,40.79618989,1656.37
-104.73921364,40.79608224,1655.83
-104.73921461,40.79583369,1654.36
-104.73921494,40.79574910,1653.73
-104.73921541,40.79562839,1652.81
-104.73921544,40.79562181,1652.80
-104.73921598,40.79548254,1651.97
-104.73921612,40.79544660,1651.78
-104.73921636,40.79538705,1651.48
-104.73921649,40.79535372,1651.32
-104.73921684,40.79526292,1651.01
-104.73921705,40.79521067,1650.86
-104.73921749,40.79509689,1650.57
-104.73921827,40.79489861,1649.63
-104.73921841,40.79486078,1649.38
-104.73921842,40.79485988,1649.37
-104.73921889,40.79473898,1648.69
-104.73921878,40.79470809,1648.48
-104.73921572,40.79470222,1648.45
-104.73921074,40.79470203,1648.46
-104.73920564,40.79470184,1648.46
-104.73918218,40.79470098,1648.45
-104.73916795,40.79470049,1648.48
-104.73881673,40.79469970,1648.87
-104.73880832,40.79469968,1648.86
-104.73862897,40.79469927,1649.36
-104.73847962,40.79469894,1649.77
-104.73847250,40.79469892,1649.81
-104.73831461,40.79469856,1650.64
-104.73827467,40.79469847,1650.82
-104.73810101,40.79469808,1651.56
-104.73773201,40.79469724,1653.03
-104.73755931,40.79469685,1653.73
-104.73735388,40.79469638,1654.52
-104.73702744,40.79469563,1655.61
-104.73696295,40.79469549,1655.86
-104.73666270,40.79469480,1656.93
-104.73657416,40.79469460,1657.16
-104.73656906,40.79469459,1657.17
-104.73648466,40.79469440,1657.40
-104.73612811,40.79469358,1658.52
-104.73602546,40.79469335,1659.03
-104.73602012,40.79469333,1659.05
-104.73593892,40.79469315,1659.50
-104.73581162,40.79469286,1659.67
-104.73553768,40.79469223,1659.46
-104.73553282,40.79469222,1659.43
-104.73513347,40.79469130,1657.75
-104.73512127,40.79469127,1657.68
-104.73511652,40.79469126,1657.64
-104.73482967,40.79469061,1656.06
-104.73469774,40.79469030,1655.42
-104.73469288,40.79469029,1655.41
-104.73466905,40.79469024,1655.30
-104.73452586,40.79468991,1654.44
-104.73428938,40.79468936,1653.55
-104.73420060,40.79468916,1653.40
-104.73382674,40.79468830,1652.85
-104.73324710,40.79468696,1653.48
-104.73284017,40.79468602,1653.38
-104.73257168,40.79468539,1653.38
-104.73241735,40.79468504,1653.19
-104.73232691,40.79468483,1653.07
-104.73195649,40.79468397,1653.03
-104.73181104,40.79468363,1653.08
-104.73180618,40.79468362,1653.08
-104.73175746,40.79468350,1653.11
-104.73157693,40.79468308,1653.18
-104.73139806,40.79468267,1652.92
-104.73133915,40.79468253,1652.74
-104.73118589,40.79468217,1652.26
-104.73098959,40.79468172,1651.10
-104.73089287,40.79468149,1650.48
-104.73084308,40.79468138,1650.20
-104.73062830,40.79468087,1649.37
-104.73047123,40.79468051,1649.32
-104.73037392,40.79468028,1649.66
-104.73036882,40.79468027,1649.67
-104.73027897,40.79468006,1649.88
-104.72985035,40.79467906,1648.96
-104.72975967,40.79467884,1648.64
-104.72960486,40.79467848,1647.70
-104.72935084,40.79467788,1646.16
-104.72927557,40.79467771,1645.78
-104.72914056,40.79467739,1645.10
-104.72894497,40.79467693,1644.10
-104.72882359,40.79467665,1643.49
-104.72864342,40.79467622,1642.54
-104.72852050,40.79467593,1641.84
-104.72848102,40.79467584,1641.58
-104.72833878,40.79467551,1640.75
-104.72826920,40.79467534,1640.32
-104.72807255,40.79467488,1639.00
-104.72801115,40.79467473,1638.61
-104.72790376,40.79467448,1637.87
-104.72771410,40.79467403,1636.89
-104.72752978,40.79467360,1635.98
-104.72747940,40.79467348,1635.74
-104.72736857,40.79467349,1635.22
-104.72736611,40.79469546,1635.13
-104.72736598,40.79469690,1635.14
-104.72736585,40.79469997,1635.14
-104.72736447,40.79495058,1633.32
-104.72736445,40.79495599,1633.30
-104.72736423,40.79500860,1633.95
-104.72736413,40.79503481,1634.32
-104.72736411,40.79503841,1634.34
-104.72736368,40.79514426,1634.70
-104.72736270,40.79538344,1636.19
-104.72736230,40.79548028,1636.85
-104.72736197,40.79556298,1637.43
-104.72736168,40.79563324,1637.78
-104.72736144,40.79569072,1638.06
-104.72736109,40.79577756,1638.42
-104.72736044,40.79593476,1639.14
-104.72735976,40.79610285,1639.81
-104.72735934,40.79620420,1640.20
-104.72735839,40.79643653,1641.39
-104.72735784,40.79657201,1642.13
-104.72735709,40.79678389,1642.21
-104.72735574,40.79708514,1641.53
-104.72735571,40.79709153,1641.48
-104.72735553,40.79713693,1641.20
-104.72735514,40.79723215,1640.98
-104.72735499,40.79726909,1640.82
-104.72735463,40.79735557,1640.39
-104.72735435,40.79742538,1640.19
-104.72735378,40.79756348,1640.10
-104.72735354,40.79762267,1640.10
-104.72735340,40.79765555,1640.03
-104.72735261,40.79785022,1639.23
-104.72735175,40.79808985,1638.46
-104.72735076,40.79830272,1637.18
-104.72735024,40.79842920,1636.32
-104.72734959,40.79858793,1635.17
-104.72734941,40.79863243,1634.83
-104.72734931,40.79865702,1634.62
-104.72734924,40.79867333,1634.53
-104.72734819,40.79893034,1632.67
-104.72734785,40.79901348,1632.16
-104.72734763,40.79906663,1631.91
-104.72734755,40.79908708,1631.84
-104.72734747,40.79910573,1631.73
-104.72734706,40.79920672,1631.16
-104.72734679,40.79927311,1630.85
     </coordinates>
    </LineString>
   </MultiGeometry>
  </Placemark>
 </Document>
</kml>
