<kml>
 <Document>
  <Style id="yellow">
   <LineStyle>
   <color>ff00ffff</color>
   <width>1</width>
   </LineStyle>
  </Style>
  <Style id="red">
   <LineStyle>
   <color>ffff0000</color>
   <width>2</width>
   </LineStyle>
  </Style>
  <Style id="green">
   <LineStyle>
   <color>ff00ff00</color>
   <width>1</width>
   </LineStyle>
  </Style>
  <Placemark>
  <styleUrl>#yellow</styleUrl>
   <MultiGeometry>
    <LineString>
     <coordinates>
-104.72038070,40.82168000,1628.25
-104.72086558,40.82168315,1628.42
-104.72144023,40.82168454,1628.60
-104.72144889,40.82168456,1628.62
-104.72145351,40.82168457,1628.62
-104.72145826,40.82168458,1628.69
-104.72146300,40.82168460,1628.72
-104.72146774,40.82168461,1628.71
-104.72147308,40.82168462,1628.69
-104.72147806,40.82168463,1628.69
-104.72148328,40.82168464,1628.69
-104.72186773,40.82168557,1630.03
-104.72200457,40.82168590,1630.52
-104.72214023,40.82168623,1631.05
-104.72225976,40.82168652,1631.49
-104.72267374,40.82168742,1632.79
-104.72307111,40.82168847,1634.03
-104.72307633,40.82168848,1634.05
-104.72308155,40.82168849,1634.08
-104.72308677,40.82168850,1634.14
-104.72309696,40.82168853,1634.12
-104.72317274,40.82168871,1634.37
-104.72328788,40.82168899,1634.89
-104.72341631,40.82168929,1635.14
-104.72368822,40.82168995,1635.60
-104.72377775,40.82169016,1635.90
-104.72391898,40.82169050,1635.85
-104.72402725,40.82169076,1635.81
-104.72428505,40.82169137,1635.66
-104.72476780,40.82169253,1635.83
-104.72489825,40.82169284,1635.94
-104.72514277,40.82169342,1636.14
-104.72522720,40.82169362,1636.23
-104.72535325,40.82169392,1636.23
-104.72559777,40.82169450,1636.63
-104.72581336,40.82169502,1636.89
-104.72605918,40.82169560,1637.17
-104.72638979,40.82169639,1637.43
-104.72660300,40.82169689,1637.80
-104.72696492,40.82169775,1638.89
-104.72716462,40.82169822,1639.60
-104.72725486,40.82169825,1639.99
-104.72725496,40.82167276,1639.99
-104.72725520,40.82161375,1640.09
-104.72725522,40.82161033,1640.10
-104.72725534,40.82158051,1640.18
-104.72725538,40.82157015,1640.16
-104.72725542,40.82155988,1640.16
-104.72725557,40.82152376,1640.21
-104.72725576,40.82147755,1640.42
-104.72725624,40.82136188,1640.59
-104.72725750,40.82105352,1641.47
-104.72725768,40.82100992,1641.55
-104.72725838,40.82083813,1642.05
-104.72725846,40.82081858,1642.08
-104.72725853,40.82080228,1642.10
-104.72725968,40.82052130,1642.84
-104.72725977,40.82049842,1642.92
-104.72725983,40.82048365,1642.97
-104.72725986,40.82047626,1642.99
-104.72726115,40.82016268,1644.00
-104.72726137,40.82010818,1644.20
-104.72726191,40.81997747,1644.81
-104.72726277,40.81976739,1645.68
-104.72726360,40.81956434,1646.64
-104.72726398,40.81947182,1647.04
-104.72726410,40.81944128,1647.24
-104.72726470,40.81929580,1647.81
-104.72726487,40.81925364,1647.96
-104.72726515,40.81918590,1648.06
-104.72726598,40.81898249,1648.32
-104.72726654,40.81884547,1648.30
-104.72726682,40.81877709,1648.25
-104.72726738,40.81864134,1648.02
-104.72726742,40.81863071,1648.01
-104.72726769,40.81856540,1647.92
-104.72726793,40.81850711,1647.82
-104.72726810,40.81846603,1647.73
-104.72726861,40.81834009,1647.66
-104.72726907,40.81822911,1647.69
-104.72726936,40.81815830,1647.68
-104.72727119,40.81771113,1647.25
-104.72727137,40.81766789,1647.10
-104.72727250,40.81736214,1645.73
-104.72727360,40.81712171,1644.12
-104.72727422,40.81696991,1643.05
-104.72727436,40.81693577,1642.82
-104.72727450,40.81690316,1642.67
-104.72727504,40.81677164,1641.88
-104.72727561,40.81663057,1641.06
-104.72727575,40.81659741,1640.89
-104.72727646,40.81642346,1639.79
-104.72727667,40.81637184,1639.65
-104.72727742,40.81618870,1638.82
-104.72727747,40.81617861,1638.79
-104.72727749,40.81617276,1638.78
-104.72727777,40.81610357,1638.73
-104.72727832,40.81596980,1638.57
-104.72727930,40.81573108,1638.66
-104.72727948,40.81568558,1638.73
-104.72727964,40.81564721,1638.88
-104.72728000,40.81555928,1639.20
-104.72728013,40.81552848,1639.39
-104.72728071,40.81538749,1639.91
-104.72728125,40.81525399,1640.55
-104.72728137,40.81522516,1640.68
-104.72728148,40.81519715,1640.77
-104.72728200,40.81507238,1641.31
-104.72728246,40.81495896,1641.85
-104.72728284,40.81486708,1642.29
-104.72728327,40.81476186,1642.74
-104.72728399,40.81458637,1643.54
-104.72728417,40.81454061,1643.72
-104.72728471,40.81441008,1644.23
-104.72728473,40.81440558,1644.24
-104.72728550,40.81421703,1644.84
-104.72728563,40.81418379,1644.96
-104.72728584,40.81413406,1645.11
-104.72728587,40.81412703,1645.15
-104.72728610,40.81406902,1645.34
-104.72728691,40.81387156,1645.83
-104.72728720,40.81380255,1645.94
-104.72728726,40.81378625,1645.98
-104.72728784,40.81364526,1646.20
-104.72728825,40.81354383,1646.36
-104.72728830,40.81353185,1646.34
-104.72728858,40.81346419,1646.39
-104.72728892,40.81338024,1646.34
-104.72728953,40.81323232,1646.30
-104.72728964,40.81320457,1646.24
-104.72728968,40.81319682,1646.25
-104.72728999,40.81312016,1646.13
-104.72729025,40.81305593,1645.98
-104.72729056,40.81298188,1645.79
-104.72729061,40.81296981,1645.73
-104.72729071,40.81294477,1645.71
-104.72729084,40.81291351,1645.64
-104.72729114,40.81283838,1645.43
-104.72729167,40.81271001,1645.03
-104.72729102,40.81269451,1644.96
-104.72728866,40.81269090,1644.94
-104.72728724,40.81269081,1644.91
-104.72685281,40.81268906,1643.50
-104.72684795,40.81268905,1643.48
-104.72684321,40.81268904,1643.48
-104.72682886,40.81268910,1643.41
-104.72625002,40.81268763,1640.43
-104.72624492,40.81268762,1640.41
-104.72624006,40.81268761,1640.39
-104.72622559,40.81268767,1640.39
-104.72621136,40.81268772,1640.29
-104.72618255,40.81268783,1640.16
-104.72560643,40.81268610,1637.09
-104.72560193,40.81268609,1637.08
-104.72559695,40.81268608,1637.07
-104.72554916,40.81268624,1636.80
-104.72553493,40.81268629,1636.73
-104.72552082,40.81268635,1636.66
-104.72494068,40.81268452,1634.40
-104.72493570,40.81268451,1634.35
-104.72493072,40.81268450,1634.33
-104.72491186,40.81268454,1634.27
-104.72432507,40.81268314,1632.30
-104.72419180,40.81268273,1631.96
-104.72418682,40.81268272,1631.93
-104.72418172,40.81268271,1631.92
-104.72415386,40.81268264,1631.85
-104.72398324,40.81268223,1631.49
-104.72381393,40.81268183,1631.18
-104.72364924,40.81268143,1630.96
-104.72364450,40.81268142,1630.96
-104.72363952,40.81268141,1630.96
-104.72343522,40.81268092,1630.65
-104.72329567,40.81268059,1630.47
-104.72308426,40.81268008,1630.24
-104.72292005,40.81267968,1629.94
-104.72282982,40.81267947,1629.79
-104.72282496,40.81267946,1629.80
-104.72281986,40.81267944,1629.78
-104.72281500,40.81267943,1629.78
-104.72271540,40.81267919,1629.52
-104.72255356,40.81267880,1629.24
-104.72237665,40.81267838,1629.05
-104.72217094,40.81267788,1628.75
-104.72208616,40.81267768,1628.64
-104.72208106,40.81267767,1628.64
-104.72207632,40.81267766,1628.63
-104.72180018,40.81267699,1628.32
-104.72159186,40.81267649,1628.01
-104.72141282,40.81267606,1627.78
-104.72132887,40.81267585,1627.64
-104.72132377,40.81267584,1627.62
-104.72131832,40.81267583,1627.62
-104.72120390,40.81267555,1627.50
-104.72105048,40.81267518,1627.34
-104.72083812,40.81267467,1627.20
-104.72060597,40.81267410,1627.19
-104.72040796,40.81267362,1627.05
-104.72022560,40.81267318,1626.75
-104.72004313,40.81267274,1626.54
-104.71983575,40.81267224,1626.43
-104.71972750,40.81267197,1626.40
-104.71959814,40.81267166,1626.39
-104.71932781,40.81267100,1625.99
-104.71918138,40.81267065,1625.78
-104.71910775,40.81267047,1625.86
-104.71898740,40.81267017,1625.93
-104.71887417,40.81266990,1625.98
-104.71866751,40.81266939,1626.15
-104.71857503,40.81266917,1626.17
-104.71835912,40.81266864,1626.34
-104.71826687,40.81266842,1626.37
-104.71790512,40.81266753,1626.44
-104.71783540,40.81266736,1626.39
-104.71766893,40.81266695,1626.36
-104.71747081,40.81266647,1626.27
-104.71742172,40.81266635,1626.22
-104.71700330,40.81266532,1625.99
-104.71682628,40.81266489,1625.97
-104.71682545,40.81266489,1625.99
-104.71663882,40.81266443,1626.04
-104.71635177,40.81266372,1625.76
-104.71619656,40.81266334,1625.60
-104.71578549,40.81266233,1625.05
-104.71560468,40.81266189,1624.51
-104.71543737,40.81266300,1624.03
-104.71543546,40.81266714,1624.00
-104.71543525,40.81268867,1623.86
-104.71543481,40.81273516,1623.63
-104.71543457,40.81279191,1623.42
-104.71543390,40.81294811,1623.12
-104.71543315,40.81312387,1623.17
-104.71543177,40.81344709,1623.34
-104.71543037,40.81377365,1624.02
-104.71543014,40.81382869,1624.13
-104.71543003,40.81385391,1624.20
-104.71542813,40.81429911,1624.97
-104.71542795,40.81434091,1625.01
-104.71542683,40.81460296,1625.56
-104.71542561,40.81488943,1626.04
-104.71542485,40.81506690,1626.12
-104.71542397,40.81530039,1626.08
-104.71542254,40.81560713,1625.52
-104.71542165,40.81581468,1625.04
-104.71542097,40.81597485,1624.60
-104.71542028,40.81613457,1624.17
-104.71541940,40.81634114,1623.71
-104.71541811,40.81664301,1623.13
-104.71541757,40.81677021,1623.13
-104.71541678,40.81698308,1623.18
-104.71541552,40.81724954,1623.10
-104.71541543,40.81726963,1623.08
-104.71541467,40.81744953,1623.27
-104.71541463,40.81745881,1623.29
-104.71541391,40.81762619,1623.44
-104.71541226,40.81801265,1623.87
-104.71541217,40.81803364,1623.91
-104.71541171,40.81814165,1623.79
-104.71541131,40.81823461,1624.19
-104.71541104,40.81829704,1624.11
-104.71541067,40.81838352,1624.12
-104.71540894,40.81879007,1624.39
-104.71540821,40.81895997,1624.63
-104.71540781,40.81905474,1624.56
-104.71540764,40.81909438,1624.64
-104.71540645,40.81942742,1624.79
-104.71540528,40.81964533,1625.16
-104.71540411,40.81994675,1625.83
-104.71540228,40.82034709,1625.23
-104.71540127,40.82061076,1625.10
-104.71540004,40.82087048,1624.31
-104.71540002,40.82087624,1624.36
-104.71539943,40.82101380,1624.12
-104.71539921,40.82106650,1624.10
-104.71539914,40.82108226,1624.13
-104.71539887,40.82114640,1624.19
-104.71539884,40.82115181,1624.11
-104.71539879,40.82116379,1624.06
-104.71539833,40.82127216,1623.44
-104.71539673,40.82164673,1624.53
-104.71539694,40.82165205,1624.56
-104.71539728,40.82165601,1624.56
-104.71539830,40.82166700,1624.61
-104.71591899,40.82167108,1623.12
-104.71592373,40.82167109,1623.15
-104.71592871,40.82167110,1623.14
-104.71651926,40.82167156,1623.68
-104.71678228,40.82167320,1622.80
-104.71678678,40.82167321,1622.82
-104.71679176,40.82167322,1622.84
-104.71703972,40.82167383,1623.84
-104.71704541,40.82167385,1623.89
-104.71705110,40.82167386,1623.99
-104.71751986,40.82167501,1624.84
-104.71752449,40.82167502,1624.83
-104.71752911,40.82167503,1624.86
-104.71754868,40.82167508,1624.87
-104.71762042,40.82167480,1625.02
-104.71813200,40.82167497,1625.25
-104.71849189,40.82167739,1625.17
-104.71849664,40.82167740,1625.18
-104.71850162,40.82167741,1625.19
-104.71890871,40.82167831,1625.53
-104.71910224,40.82167887,1624.50
-104.71910698,40.82167888,1624.55
-104.71911232,40.82167890,1624.54
-104.71911695,40.82167891,1624.55
-104.71912216,40.82167892,1624.53
-104.71912691,40.82167893,1624.53
-104.71913189,40.82167894,1624.52
-104.71913675,40.82167896,1624.52
-104.71914137,40.82167897,1624.53
-104.71914671,40.82167898,1624.52
-104.71950863,40.82167986,1625.13
-104.71951313,40.82167987,1625.29
-104.71961049,40.82167957,1625.26
-104.71969410,40.82167932,1625.12
-104.72025287,40.82167942,1628.03
-104.72029188,40.82167960,1628.11
-104.72033647,40.82167980,1628.16
-104.72038070,40.82168000,1628.25
     </coordinates>
    </LineString>
   </MultiGeometry>
  </Placemark>
 </Document>
</kml>
