<kml>
 <Document>
  <Style id="yellow">
   <LineStyle>
   <color>ff00ffff</color>
   <width>1</width>
   </LineStyle>
  </Style>
  <Style id="red">
   <LineStyle>
   <color>ffff0000</color>
   <width>2</width>
   </LineStyle>
  </Style>
  <Style id="green">
   <LineStyle>
   <color>ff00ff00</color>
   <width>1</width>
   </LineStyle>
  </Style>
  <Placemark>
  <styleUrl>#yellow</styleUrl>
   <MultiGeometry>
    <LineString>
     <coordinates>
-104.75131365,40.83976978,1648.84
-104.75133061,40.83976982,1649.04
-104.75156156,40.83977032,1650.16
-104.75157496,40.83977035,1650.20
-104.75173817,40.83977070,1650.96
-104.75181255,40.83977086,1651.20
-104.75200020,40.83977126,1651.55
-104.75220279,40.83977170,1652.02
-104.75221228,40.83977172,1652.06
-104.75262388,40.83977260,1652.26
-104.75266563,40.83977269,1652.22
-104.75281592,40.83977301,1652.32
-104.75288306,40.83977316,1652.46
-104.75302302,40.83977345,1652.70
-104.75324555,40.83977393,1653.90
-104.75338409,40.83977423,1654.92
-104.75344743,40.83977436,1655.31
-104.75361183,40.83977471,1656.25
-104.75385820,40.83977524,1658.29
-104.75386899,40.83977526,1658.38
-104.75404455,40.83977564,1659.20
-104.75408891,40.83977573,1659.31
-104.75426339,40.83977610,1659.80
-104.75436422,40.83977632,1660.00
-104.75457606,40.83977677,1660.10
-104.75460536,40.83977683,1660.12
-104.75482563,40.83977730,1660.17
-104.75511861,40.83977792,1660.46
-104.75537138,40.83977846,1660.92
-104.75544955,40.83977862,1661.16
-104.75559106,40.83977892,1661.69
-104.75563222,40.83977901,1661.85
-104.75586850,40.83977951,1662.79
-104.75591690,40.83977961,1663.04
-104.75611689,40.83978004,1663.78
-104.75614701,40.83978010,1663.95
-104.75639801,40.83978063,1664.36
-104.75642303,40.83978068,1664.33
-104.75662978,40.83978112,1664.22
-104.75684981,40.83978158,1664.33
-104.75685444,40.83978159,1664.32
-104.75692205,40.83978174,1664.41
-104.75713271,40.83978218,1664.48
-104.75721017,40.83978234,1664.53
-104.75739877,40.83978274,1664.77
-104.75745926,40.83978287,1664.79
-104.75762378,40.83978321,1664.69
-104.75772734,40.83978343,1664.53
-104.75792151,40.83978384,1663.87
-104.75801474,40.83978403,1663.68
-104.75816301,40.83978434,1663.65
-104.75816764,40.83978435,1663.66
-104.75829337,40.83978462,1663.68
-104.75848043,40.83978501,1663.90
-104.75872430,40.83978552,1664.10
-104.75872881,40.83978553,1664.12
-104.75884102,40.83978576,1664.12
-104.75900104,40.83978610,1664.17
-104.75900554,40.83978611,1664.16
-104.75914421,40.83978640,1664.20
-104.75933375,40.83978679,1664.32
-104.75933826,40.83978680,1664.32
-104.75964322,40.83978744,1665.04
-104.75992470,40.83978802,1666.25
-104.76023571,40.83978867,1667.82
-104.76031756,40.83978884,1668.32
-104.76032218,40.83978885,1668.36
-104.76046986,40.83978916,1669.32
-104.76056523,40.83978936,1669.97
-104.76067767,40.83978959,1670.75
-104.76068206,40.83978960,1670.84
-104.76071575,40.83978967,1671.02
-104.76080424,40.83978985,1671.68
-104.76092463,40.83979010,1672.82
-104.76106958,40.83979040,1674.03
-104.76111430,40.83979049,1674.21
-104.76118037,40.83979063,1674.39
-104.76129021,40.83979086,1674.72
-104.76139850,40.83979108,1674.85
-104.76143563,40.83979116,1674.89
-104.76158331,40.83979146,1674.89
-104.76172565,40.83979176,1674.99
-104.76173087,40.83979177,1674.99
-104.76178258,40.83979188,1674.89
-104.76187487,40.83979207,1674.85
-104.76204473,40.83979242,1674.67
-104.76212325,40.83979258,1674.55
-104.76221802,40.83979277,1674.36
-104.76237151,40.83979309,1674.02
-104.76245288,40.83979326,1673.80
-104.76245775,40.83979327,1673.81
-104.76252358,40.83979340,1673.48
-104.76252868,40.83979341,1673.43
-104.76271396,40.83979380,1672.41
-104.76272345,40.83979372,1672.32
-104.76276556,40.83979318,1672.05
-104.76276592,40.83975904,1671.94
-104.76276608,40.83971247,1671.83
-104.76276671,40.83953518,1671.20
-104.76276748,40.83928790,1670.36
-104.76276850,40.83903422,1669.54
-104.76276873,40.83897017,1669.38
-104.76276892,40.83891666,1669.20
-104.76276897,40.83890387,1669.19
-104.76276915,40.83885234,1669.01
-104.76276924,40.83882649,1668.95
-104.76276926,40.83882171,1668.94
-104.76276962,40.83872154,1668.89
-104.76277030,40.83852903,1668.41
-104.76277049,40.83847732,1668.38
-104.76277059,40.83844696,1668.31
-104.76277104,40.83832220,1668.14
-104.76277118,40.83828382,1668.15
-104.76277156,40.83817689,1668.13
-104.76277187,40.83808843,1668.05
-104.76277227,40.83797826,1668.04
-104.76277269,40.83785844,1668.23
-104.76277321,40.83771359,1668.27
-104.76277371,40.83757171,1667.98
-104.76277398,40.83749847,1667.86
-104.76277455,40.83733704,1667.45
-104.76277510,40.83718272,1667.11
-104.76277538,40.83710552,1667.06
-104.76277547,40.83707913,1667.04
-104.76277556,40.83705444,1667.03
-104.76277587,40.83696580,1667.09
-104.76277611,40.83689878,1667.22
-104.76277613,40.83689283,1667.20
-104.76277627,40.83685581,1667.36
-104.76277752,40.83650385,1667.78
-104.76277783,40.83641665,1667.86
-104.76277814,40.83633026,1667.90
-104.76277831,40.83628341,1667.90
-104.76277923,40.83599217,1668.01
-104.76278039,40.83569859,1667.95
-104.76278043,40.83568760,1667.96
-104.76278051,40.83566453,1667.98
-104.76278165,40.83534699,1667.92
-104.76278181,40.83530086,1667.92
-104.76278204,40.83523627,1667.88
-104.76278243,40.83512664,1667.94
-104.76278339,40.83485774,1667.85
-104.76278370,40.83477144,1667.80
-104.76278372,40.83476549,1667.82
-104.76278381,40.83474036,1667.80
-104.76278386,40.83472432,1667.77
-104.76278410,40.83465946,1667.67
-104.76278474,40.83447885,1667.69
-104.76278536,40.83430561,1667.51
-104.76278568,40.83421544,1667.52
-104.76278639,40.83401545,1667.11
-104.76278671,40.83392501,1666.88
-104.76278764,40.83366430,1665.40
-104.76278822,40.83350350,1664.49
-104.76278828,40.83348576,1664.34
-104.76278828,40.83348558,1664.34
-104.76278866,40.83337973,1663.71
-104.76278884,40.83332703,1663.18
-104.76278914,40.83324478,1662.85
-104.76278968,40.83309308,1661.45
-104.76279028,40.83292516,1660.76
-104.76279104,40.83271175,1659.40
-104.76279108,40.83269968,1659.31
-104.76279118,40.83267058,1659.16
-104.76279121,40.83266374,1659.08
-104.76279222,40.83237889,1657.17
-104.76279304,40.83214873,1655.52
-104.76279312,40.83212792,1655.38
-104.76279335,40.83206333,1654.91
-104.76279380,40.83193784,1654.31
-104.76279402,40.83187541,1654.08
-104.76279425,40.83180947,1653.83
-104.76279447,40.83174830,1653.49
-104.76279536,40.83149940,1652.36
-104.76279647,40.83118843,1649.81
-104.76279693,40.83105898,1649.29
-104.76279719,40.83098637,1649.12
-104.76279735,40.83094007,1648.99
-104.76279740,40.83092655,1648.98
-104.76279761,40.83083458,1648.88
-104.76279720,40.83081728,1648.86
-104.76279688,40.83080503,1648.85
-104.76279514,40.83079557,1648.85
-104.76279303,40.83078871,1648.84
-104.76278852,40.83078862,1648.84
-104.76278378,40.83078852,1648.85
-104.76277856,40.83078841,1648.84
-104.76275377,40.83078800,1648.83
-104.76273515,40.83078769,1648.84
-104.76269116,40.83078697,1648.82
-104.76258928,40.83078532,1648.76
-104.76258241,40.83078522,1648.79
-104.76257458,40.83078511,1648.79
-104.76217063,40.83078428,1650.99
-104.76213683,40.83078421,1651.32
-104.76188184,40.83078368,1652.67
-104.76187721,40.83078368,1652.67
-104.76168365,40.83078328,1653.16
-104.76148749,40.83078287,1653.69
-104.76147492,40.83078284,1653.76
-104.76112102,40.83078211,1655.33
-104.76078158,40.83078141,1657.60
-104.76047061,40.83078076,1660.03
-104.76015229,40.83078010,1662.25
-104.75965808,40.83077907,1663.32
-104.75927157,40.83077836,1663.00
-104.75887355,40.83077744,1662.05
-104.75875198,40.83077718,1661.77
-104.75846983,40.83077659,1661.35
-104.75806837,40.83077575,1659.72
-104.75786687,40.83077533,1658.76
-104.75781812,40.83077523,1658.51
-104.75769253,40.83077496,1657.87
-104.75764900,40.83077487,1657.68
-104.75719061,40.83077391,1657.17
-104.75702125,40.83077355,1657.32
-104.75694048,40.83077338,1657.40
-104.75681678,40.83077312,1657.72
-104.75645150,40.83077244,1658.05
-104.75619354,40.83077180,1658.23
-104.75597733,40.83077135,1658.44
-104.75593523,40.83077126,1658.53
-104.75559841,40.83077054,1659.32
-104.75538955,40.83077010,1660.02
-104.75527842,40.83076987,1660.49
-104.75491669,40.83076919,1662.16
-104.75447645,40.83076816,1663.85
-104.75427020,40.83076772,1664.71
-104.75404997,40.83076725,1665.38
-104.75391144,40.83076696,1665.80
-104.75357141,40.83076623,1666.00
-104.75325202,40.83076555,1665.41
-104.75310247,40.83076523,1665.18
-104.75301233,40.83076504,1665.15
-104.75292753,40.83076486,1665.10
-104.75273184,40.83076444,1664.82
-104.75254837,40.83076404,1664.24
-104.75226349,40.83076343,1662.59
-104.75208666,40.83076305,1661.82
-104.75170892,40.83076224,1660.93
-104.75140993,40.83076160,1661.08
-104.75105899,40.83076093,1661.87
-104.75094085,40.83076509,1661.91
-104.75093829,40.83081490,1662.22
-104.75093784,40.83083949,1662.37
-104.75093708,40.83101290,1663.52
-104.75093572,40.83140621,1665.68
-104.75093405,40.83182249,1668.27
-104.75093322,40.83207473,1669.84
-104.75093160,40.83247740,1672.68
-104.75093051,40.83283035,1674.93
-104.75092975,40.83300151,1676.80
-104.75092912,40.83317177,1679.29
-104.75092778,40.83349815,1681.06
-104.75092723,40.83364444,1681.78
-104.75092707,40.83368750,1682.48
-104.75092655,40.83382704,1681.24
-104.75092528,40.83419738,1674.21
-104.75092367,40.83459519,1669.65
-104.75092260,40.83488031,1667.20
-104.75092221,40.83498516,1666.51
-104.75092185,40.83508146,1666.03
-104.75092154,40.83516569,1665.65
-104.75092137,40.83521056,1665.53
-104.75092110,40.83528136,1665.25
-104.75092083,40.83535487,1664.74
-104.75092027,40.83550297,1662.86
-104.75092022,40.83551648,1662.69
-104.75092018,40.83552711,1662.53
-104.75092003,40.83556711,1662.10
-104.75091972,40.83565035,1661.24
-104.75091913,40.83580889,1659.99
-104.75091851,40.83597429,1658.85
-104.75091817,40.83606419,1658.28
-104.75091790,40.83613626,1657.76
-104.75091755,40.83622986,1657.10
-104.75091751,40.83624220,1657.01
-104.75091631,40.83659353,1654.61
-104.75091501,40.83690954,1652.80
-104.75091468,40.83699620,1652.39
-104.75091403,40.83717178,1651.59
-104.75091273,40.83751824,1650.41
-104.75091250,40.83758022,1650.33
-104.75091133,40.83789245,1649.55
-104.75091095,40.83799433,1649.15
-104.75091059,40.83809000,1648.83
-104.75091047,40.83812189,1648.77
-104.75091028,40.83817306,1648.80
-104.75090969,40.83832945,1648.27
-104.75090908,40.83849331,1647.59
-104.75090896,40.83852457,1647.43
-104.75090818,40.83873455,1646.85
-104.75090730,40.83899949,1646.60
-104.75090647,40.83918993,1646.79
-104.75090494,40.83963134,1646.76
-104.75090488,40.83964810,1646.82
-104.75090451,40.83974485,1646.91
-104.75090502,40.83976791,1646.98
-104.75108104,40.83976928,1647.74
-104.75131365,40.83976978,1648.84
     </coordinates>
    </LineString>
   </MultiGeometry>
  </Placemark>
 </Document>
</kml>
