<kml>
 <Document>
  <Style id="yellow">
   <LineStyle>
   <color>ff00ffff</color>
   <width>1</width>
   </LineStyle>
  </Style>
  <Style id="red">
   <LineStyle>
   <color>ffff0000</color>
   <width>2</width>
   </LineStyle>
  </Style>
  <Style id="green">
   <LineStyle>
   <color>ff00ff00</color>
   <width>1</width>
   </LineStyle>
  </Style>
  <Placemark>
  <styleUrl>#yellow</styleUrl>
   <MultiGeometry>
    <LineString>
     <coordinates>
-104.77478867,40.79218618,1639.40
-104.77478784,40.79243104,1638.54
-104.77478713,40.79264129,1638.19
-104.77478697,40.79268931,1638.20
-104.77478649,40.79283137,1638.45
-104.77478522,40.79320631,1639.04
-104.77478504,40.79326027,1639.20
-104.77478494,40.79328810,1639.30
-104.77478482,40.79332522,1639.56
-104.77478469,40.79336269,1639.70
-104.77478402,40.79359511,1641.27
-104.77478274,40.79394005,1643.55
-104.77478245,40.79402563,1644.14
-104.77478218,40.79410499,1644.71
-104.77478151,40.79433921,1646.28
-104.77478034,40.79464947,1647.93
-104.77478134,40.79474100,1648.36
-104.77478268,40.79476469,1648.38
-104.77478395,40.79477541,1648.44
-104.77478869,40.79477542,1648.45
-104.77479343,40.79477543,1648.46
-104.77537664,40.79477441,1648.09
-104.77542737,40.79477478,1648.12
-104.77544266,40.79477490,1648.12
-104.77545819,40.79477502,1648.13
-104.77547372,40.79477514,1648.17
-104.77548901,40.79477526,1648.16
-104.77550406,40.79477538,1648.18
-104.77551911,40.79477549,1648.22
-104.77553476,40.79477561,1648.26
-104.77555052,40.79477574,1648.27
-104.77556558,40.79477586,1648.30
-104.77558075,40.79477598,1648.34
-104.77563753,40.79477645,1648.43
-104.77570450,40.79477694,1648.50
-104.77571967,40.79477706,1648.54
-104.77573520,40.79477718,1648.55
-104.77575049,40.79477730,1648.56
-104.77575594,40.79477731,1648.57
-104.77576128,40.79477732,1648.54
-104.77633121,40.79477608,1647.37
-104.77636949,40.79477634,1647.27
-104.77639130,40.79477647,1647.19
-104.77641205,40.79477660,1647.13
-104.77643410,40.79477673,1647.06
-104.77645614,40.79477686,1646.97
-104.77652146,40.79477726,1646.76
-104.77654327,40.79477739,1646.71
-104.77656460,40.79477752,1646.63
-104.77658641,40.79477766,1646.57
-104.77660882,40.79477779,1646.52
-104.77661415,40.79477780,1646.48
-104.77661936,40.79477781,1646.48
-104.77662317,40.79473818,1646.27
-104.77664135,40.79440616,1644.27
-104.77665234,40.79420547,1643.05
-104.77666313,40.79399235,1642.12
-104.77667026,40.79384651,1641.84
-104.77667645,40.79369662,1641.75
-104.77667905,40.79362834,1641.69
-104.77668337,40.79350656,1641.68
-104.77668561,40.79343711,1641.64
-104.77668628,40.79341648,1641.63
-104.77668885,40.79332018,1641.73
-104.77668895,40.79329063,1641.83
-104.77668885,40.79310920,1642.68
-104.77668785,40.79301830,1643.33
-104.77668653,40.79288011,1644.14
-104.77668564,40.79275831,1644.82
-104.77668479,40.79269264,1645.14
-104.77668325,40.79258543,1645.71
-104.77668011,40.79246273,1646.35
-104.77667660,40.79234201,1647.06
-104.77667403,40.79226147,1647.43
-104.77667007,40.79216993,1648.22
-104.77666942,40.79215128,1648.32
-104.77666800,40.79211335,1648.52
-104.77666507,40.79199849,1649.14
-104.77666445,40.79193453,1649.39
-104.77666424,40.79189291,1649.46
-104.77666428,40.79187949,1649.51
-104.77666431,40.79186994,1649.55
-104.77666423,40.79178931,1649.67
-104.77670702,40.79139878,1649.94
-104.77670970,40.79137798,1649.89
-104.77672235,40.79128035,1649.70
-104.77672381,40.79126981,1649.67
-104.77672419,40.79126423,1649.66
-104.77672569,40.79124099,1649.62
-104.77672592,40.79120558,1649.53
-104.77672593,40.79113325,1649.37
-104.77672553,40.79107649,1649.27
-104.77672494,40.79100397,1649.08
-104.77672344,40.79084911,1648.90
-104.77672255,40.79076245,1648.83
-104.77671640,40.79050938,1649.01
-104.77671620,40.79050002,1649.03
-104.77670849,40.79032469,1649.75
-104.77670070,40.78988830,1649.66
-104.77670037,40.78977489,1649.21
-104.77669993,40.78969372,1648.97
-104.77669892,40.78964300,1648.92
-104.77669823,40.78960210,1648.90
-104.77669476,40.78947030,1648.94
-104.77669273,40.78940390,1649.04
-104.77668978,40.78925877,1648.96
-104.77668846,40.78915552,1648.77
-104.77668843,40.78909463,1648.52
-104.77668844,40.78905598,1648.30
-104.77668848,40.78904481,1648.24
-104.77668946,40.78896482,1647.71
-104.77668963,40.78894851,1647.57
-104.77669091,40.78885032,1646.98
-104.77669143,40.78880068,1646.75
-104.77673898,40.78836981,1645.93
-104.77674019,40.78836206,1645.95
-104.77674213,40.78834945,1645.94
-104.77674312,40.78833648,1645.95
-104.77674627,40.78824649,1645.94
-104.77674685,40.78817875,1645.98
-104.77674775,40.78805110,1645.92
-104.77674746,40.78799660,1645.88
-104.77674639,40.78782057,1645.75
-104.77674608,40.78777057,1645.74
-104.77674351,40.78765372,1645.83
-104.77674136,40.78758805,1646.03
-104.77674007,40.78754904,1646.18
-104.77673675,40.78744210,1646.66
-104.77673383,40.78732489,1647.20
-104.77673307,40.78694905,1647.90
-104.77674023,40.78665061,1647.29
-104.77674464,40.78653919,1646.64
-104.77675126,40.78640047,1645.65
-104.77675329,40.78636219,1645.37
-104.77677169,40.78606944,1643.23
-104.77678227,40.78591830,1642.16
-104.77679133,40.78579634,1641.32
-104.77679199,40.78577760,1641.20
-104.77678797,40.78577327,1641.20
-104.77672327,40.78577080,1641.33
-104.77652202,40.78577033,1641.85
-104.77634341,40.78576998,1642.37
-104.77596818,40.78576925,1643.62
-104.77579537,40.78576892,1644.12
-104.77543472,40.78576821,1645.17
-104.77528064,40.78576791,1645.51
-104.77508733,40.78576754,1645.84
-104.77493006,40.78576723,1645.92
-104.77492034,40.78576739,1645.90
-104.77489486,40.78576797,1645.91
-104.77485859,40.78576880,1645.92
-104.77483369,40.78576939,1645.90
-104.77482350,40.78576964,1645.91
-104.77481378,40.78576989,1645.92
-104.77481140,40.78577385,1645.94
-104.77481024,40.78579925,1646.04
-104.77480952,40.78601239,1646.74
-104.77480834,40.78636390,1646.96
-104.77480792,40.78652245,1647.05
-104.77480742,40.78670496,1646.59
-104.77480614,40.78708368,1644.56
-104.77480528,40.78726799,1644.16
-104.77480412,40.78764599,1644.24
-104.77480250,40.78809272,1646.08
-104.77480248,40.78809867,1646.13
-104.77480223,40.78817254,1646.47
-104.77480153,40.78837820,1647.84
-104.77480132,40.78843991,1648.15
-104.77480113,40.78849603,1648.50
-104.77480098,40.78854288,1648.68
-104.77480054,40.78867071,1648.60
-104.77479949,40.78898177,1647.23
-104.77479924,40.78905609,1647.00
-104.77479909,40.78910068,1646.92
-104.77479865,40.78923014,1646.89
-104.77479795,40.78943913,1647.13
-104.77479744,40.78958858,1647.67
-104.77479727,40.78963930,1647.89
-104.77479690,40.78975011,1648.42
-104.77479660,40.78983848,1648.77
-104.77479542,40.79018891,1647.68
-104.77479429,40.79055565,1644.78
-104.77479325,40.79086446,1643.14
-104.77479190,40.79123083,1642.60
-104.77479180,40.79126011,1642.57
-104.77479158,40.79132335,1642.62
-104.77479157,40.79132650,1642.64
-104.77479103,40.79148595,1642.73
-104.77479097,40.79150595,1642.70
-104.77479021,40.79172846,1641.65
-104.77479016,40.79174333,1641.60
-104.77478998,40.79179765,1641.33
-104.77478989,40.79182296,1641.18
-104.77478985,40.79183729,1641.10
-104.77478905,40.79207169,1639.93
-104.77478867,40.79218618,1639.40
     </coordinates>
    </LineString>
   </MultiGeometry>
  </Placemark>
 </Document>
</kml>
