<kml>
 <Document>
  <Style id="yellow">
   <LineStyle>
   <color>ff00ffff</color>
   <width>1</width>
   </LineStyle>
  </Style>
  <Style id="red">
   <LineStyle>
   <color>ffff0000</color>
   <width>2</width>
   </LineStyle>
  </Style>
  <Style id="green">
   <LineStyle>
   <color>ff00ff00</color>
   <width>1</width>
   </LineStyle>
  </Style>
  <Placemark>
  <styleUrl>#yellow</styleUrl>
   <MultiGeometry>
    <LineString>
     <coordinates>
-104.74395442,40.80371966,1653.31
-104.74402828,40.80371983,1653.62
-104.74415276,40.80372010,1654.19
-104.74421346,40.80372024,1654.57
-104.74423053,40.80372028,1654.65
-104.74432371,40.80372048,1654.75
-104.74437647,40.80372060,1654.62
-104.74448802,40.80372085,1654.36
-104.74450083,40.80372088,1654.31
-104.74470746,40.80372133,1653.59
-104.74478215,40.80372150,1653.27
-104.74482222,40.80372159,1653.07
-104.74501522,40.80372201,1652.37
-104.74505636,40.80372210,1652.27
-104.74512085,40.80372225,1652.09
-104.74525209,40.80372254,1651.94
-104.74532583,40.80372270,1651.96
-104.74536697,40.80372279,1652.02
-104.74543158,40.80372293,1652.14
-104.74556305,40.80372322,1652.61
-104.74580869,40.80372376,1653.22
-104.74588053,40.80372392,1653.21
-104.74588528,40.80372393,1653.20
-104.74602991,40.80372425,1652.99
-104.74615854,40.80372453,1652.87
-104.74649013,40.80372526,1652.88
-104.74686819,40.80372609,1651.45
-104.74687850,40.80372611,1651.41
-104.74705491,40.80372650,1650.49
-104.74723096,40.80372689,1649.88
-104.74723546,40.80372690,1649.84
-104.74725194,40.80372693,1649.76
-104.74739977,40.80372726,1649.30
-104.74758922,40.80372767,1649.03
-104.74780475,40.80372814,1648.62
-104.74798435,40.80372854,1648.39
-104.74801909,40.80372861,1648.34
-104.74838802,40.80372942,1647.49
-104.74840426,40.80372945,1647.46
-104.74865144,40.80372999,1647.57
-104.74885962,40.80373044,1647.19
-104.74886993,40.80373047,1647.25
-104.74903721,40.80373083,1647.07
-104.74922654,40.80373124,1645.44
-104.74930514,40.80373141,1645.30
-104.74951106,40.80373186,1644.97
-104.74974615,40.80373237,1644.58
-104.74978089,40.80373245,1644.48
-104.74998053,40.80373288,1644.32
-104.75021858,40.80373339,1644.14
-104.75022806,40.80373341,1644.12
-104.75053476,40.80373408,1643.92
-104.75079261,40.80373464,1643.85
-104.75102568,40.80373514,1643.99
-104.75103078,40.80373515,1643.99
-104.75103588,40.80373507,1644.00
-104.75103862,40.80373111,1644.04
-104.75103955,40.80357617,1645.29
-104.75104057,40.80330303,1647.55
-104.75104096,40.80320043,1647.73
-104.75104127,40.80311755,1647.53
-104.75104152,40.80304845,1647.09
-104.75104171,40.80299855,1646.73
-104.75104218,40.80287198,1645.99
-104.75104249,40.80278928,1645.61
-104.75104309,40.80262983,1645.23
-104.75104369,40.80246984,1645.12
-104.75104430,40.80227354,1645.28
-104.75104538,40.80195176,1646.15
-104.75104622,40.80172853,1645.11
-104.75104785,40.80135666,1643.81
-104.75104809,40.80129153,1643.71
-104.75104908,40.80102533,1643.03
-104.75105016,40.80073715,1642.64
-104.75105080,40.80056572,1642.39
-104.75105141,40.80040267,1642.96
-104.75105275,40.80004494,1644.13
-104.75105294,40.79999350,1644.41
-104.75105380,40.79973108,1645.73
-104.75105471,40.79951921,1646.78
-104.75105564,40.79927084,1647.46
-104.75105681,40.79892420,1646.79
-104.75105793,40.79865637,1645.81
-104.75105797,40.79864547,1645.85
-104.75105812,40.79860737,1645.95
-104.75105866,40.79846098,1645.89
-104.75105907,40.79835216,1645.87
-104.75105926,40.79830027,1645.81
-104.75106077,40.79789696,1645.05
-104.75106136,40.79774021,1644.53
-104.75106160,40.79767409,1644.25
-104.75106229,40.79749059,1643.57
-104.75106236,40.79747248,1643.45
-104.75106277,40.79736141,1643.21
-104.75106321,40.79724358,1642.77
-104.75106343,40.79718628,1642.53
-104.75106372,40.79710629,1642.10
-104.75106389,40.79706224,1641.86
-104.75106480,40.79681748,1640.68
-104.75106482,40.79681369,1640.69
-104.75106507,40.79674595,1640.61
-104.75106521,40.79670928,1640.64
-104.75106594,40.79651236,1641.20
-104.75106662,40.79633183,1642.43
-104.75106697,40.79623625,1642.99
-104.75106758,40.79607410,1643.51
-104.75106834,40.79586996,1643.81
-104.75106886,40.79573177,1643.55
-104.75106901,40.79569079,1643.47
-104.75106930,40.79561250,1643.31
-104.75106983,40.79547269,1642.98
-104.75107087,40.79519217,1642.37
-104.75107102,40.79515415,1642.38
-104.75107154,40.79501515,1642.36
-104.75107215,40.79485156,1642.66
-104.75107220,40.79483822,1642.69
-104.75107129,40.79473246,1643.01
-104.75107046,40.79473093,1643.01
-104.75106704,40.79472741,1643.00
-104.75100303,40.79472673,1643.11
-104.75088521,40.79472638,1643.26
-104.75077853,40.79472615,1643.48
-104.75048539,40.79472552,1644.01
-104.75016747,40.79472483,1644.64
-104.75016261,40.79472482,1644.63
-104.75015740,40.79472481,1644.65
-104.75015183,40.79472480,1644.67
-104.75007170,40.79472462,1644.77
-104.74975544,40.79472394,1645.09
-104.74962861,40.79472366,1645.09
-104.74932172,40.79472300,1645.36
-104.74909994,40.79472252,1645.82
-104.74909508,40.79472251,1645.86
-104.74909022,40.79472249,1645.84
-104.74908536,40.79472248,1645.87
-104.74908038,40.79472247,1645.89
-104.74896991,40.79472223,1646.15
-104.74873995,40.79472173,1646.93
-104.74849908,40.79472121,1647.58
-104.74840034,40.79472099,1647.78
-104.74828086,40.79472073,1647.90
-104.74825632,40.79472068,1647.92
-104.74825158,40.79472067,1647.91
-104.74824696,40.79472066,1647.92
-104.74824222,40.79472065,1647.95
-104.74816647,40.79472048,1647.97
-104.74805161,40.79472023,1648.06
-104.74768996,40.79471944,1648.94
-104.74712324,40.79471820,1649.93
-104.74711873,40.79471819,1649.94
-104.74711364,40.79471818,1649.93
-104.74710925,40.79471817,1649.93
-104.74710451,40.79471816,1649.93
-104.74698526,40.79471799,1649.95
-104.74689138,40.79471886,1649.89
-104.74637812,40.79471666,1649.97
-104.74584175,40.79471539,1651.09
-104.74583701,40.79471538,1651.11
-104.74583227,40.79471536,1651.15
-104.74582764,40.79471535,1651.17
-104.74582314,40.79471534,1651.17
-104.74579161,40.79471528,1651.38
-104.74556900,40.79471478,1652.40
-104.74538788,40.79471439,1653.07
-104.74499220,40.79471351,1654.30
-104.74463494,40.79471272,1654.97
-104.74462996,40.79471271,1654.94
-104.74462522,40.79471270,1654.95
-104.74462047,40.79471269,1654.94
-104.74461550,40.79471268,1654.96
-104.74457413,40.79471259,1655.02
-104.74438589,40.79471217,1655.11
-104.74419849,40.79471175,1655.24
-104.74382119,40.79471092,1655.28
-104.74354085,40.79471029,1655.09
-104.74353552,40.79471028,1655.09
-104.74353030,40.79471027,1655.07
-104.74352497,40.79471026,1655.09
-104.74304383,40.79470928,1655.73
-104.74249134,40.79470796,1655.76
-104.74230950,40.79470755,1655.22
-104.74209768,40.79470708,1654.64
-104.74195935,40.79470677,1654.20
-104.74175108,40.79470630,1653.54
-104.74156759,40.79470589,1652.80
-104.74152740,40.79470580,1652.61
-104.74138445,40.79470548,1651.99
-104.74137177,40.79470545,1651.93
-104.74121423,40.79470510,1651.19
-104.74070631,40.79470396,1651.28
-104.74052507,40.79470355,1651.55
-104.74032225,40.79470310,1651.31
-104.74017574,40.79470277,1651.11
-104.74014919,40.79470271,1651.08
-104.73996036,40.79470228,1650.65
-104.73980591,40.79470193,1650.27
-104.73967126,40.79470163,1649.78
-104.73964423,40.79470157,1649.68
-104.73948930,40.79470122,1649.05
-104.73929799,40.79470088,1648.49
-104.73929289,40.79470096,1648.48
-104.73922081,40.79470241,1648.46
-104.73921915,40.79470304,1648.45
-104.73921876,40.79480285,1649.04
-104.73921824,40.79493537,1649.81
-104.73921739,40.79515428,1650.72
-104.73921734,40.79516581,1650.74
-104.73921722,40.79519770,1650.80
-104.73921709,40.79522841,1650.91
-104.73921667,40.79533751,1651.22
-104.73921642,40.79540102,1651.53
-104.73921640,40.79540570,1651.57
-104.73921585,40.79554786,1652.34
-104.73921556,40.79562001,1652.81
-104.73921520,40.79571307,1653.46
-104.73921487,40.79579748,1654.12
-104.73921485,40.79580126,1654.13
-104.73921411,40.79599143,1655.34
-104.73921404,40.79600846,1655.46
-104.73921383,40.79606269,1655.71
-104.73921374,40.79608575,1655.84
-104.73921309,40.79625151,1656.63
-104.73921268,40.79635763,1657.01
-104.73921266,40.79636267,1657.01
-104.73921261,40.79637528,1657.02
-104.73921259,40.79638015,1657.00
-104.73921227,40.79646239,1657.12
-104.73921087,40.79684904,1656.49
-104.73921042,40.79693507,1656.45
-104.73921041,40.79693669,1656.43
-104.73921036,40.79694858,1656.43
-104.73921026,40.79697417,1656.38
-104.73921000,40.79704218,1656.45
-104.73920958,40.79714938,1656.60
-104.73920949,40.79717235,1656.60
-104.73920943,40.79718776,1656.66
-104.73920929,40.79722253,1656.73
-104.73920876,40.79735847,1656.91
-104.73920840,40.79745053,1656.87
-104.73920706,40.79779312,1656.05
-104.73920677,40.79786627,1655.79
-104.73920662,40.79790600,1655.57
-104.73920633,40.79798050,1654.95
-104.73920630,40.79798582,1654.92
-104.73920603,40.79805617,1654.41
-104.73920572,40.79813536,1653.90
-104.73920511,40.79829219,1652.79
-104.73920385,40.79861317,1650.60
-104.73920362,40.79867244,1650.19
-104.73920358,40.79868109,1650.14
-104.73920344,40.79871865,1649.89
-104.73920324,40.79876946,1649.57
-104.73920294,40.79884504,1649.15
-104.73920276,40.79889279,1648.95
-104.73920275,40.79889450,1648.93
-104.73920255,40.79894585,1648.74
-104.73920203,40.79907764,1648.40
-104.73920167,40.79917016,1648.38
-104.73920109,40.79931745,1648.36
-104.73920082,40.79938762,1648.36
-104.73920069,40.79942077,1648.34
-104.73920022,40.79954041,1648.40
-104.73919998,40.79960085,1648.42
-104.73919960,40.79969823,1648.64
-104.73919890,40.79987714,1649.62
-104.73919870,40.79992768,1649.87
-104.73919819,40.80005785,1650.34
-104.73919765,40.80019820,1650.38
-104.73919759,40.80021199,1650.35
-104.73919728,40.80029081,1650.34
-104.73919726,40.80029595,1650.32
-104.73919709,40.80033973,1650.32
-104.73919695,40.80037639,1650.30
-104.73919677,40.80042161,1650.28
-104.73919668,40.80044522,1650.28
-104.73919621,40.80056512,1650.22
-104.73919569,40.80069763,1650.22
-104.73919456,40.80098707,1650.20
-104.73919434,40.80104329,1650.24
-104.73919376,40.80119022,1650.25
-104.73919302,40.80138038,1649.90
-104.73919220,40.80158875,1649.37
-104.73919190,40.80166640,1649.28
-104.73919155,40.80175477,1649.21
-104.73919138,40.80179811,1649.20
-104.73919097,40.80190405,1649.22
-104.73919095,40.80190819,1649.21
-104.73919093,40.80191287,1649.20
-104.73919038,40.80205512,1649.20
-104.73919016,40.80211106,1649.17
-104.73918952,40.80227303,1648.84
-104.73918949,40.80228231,1648.80
-104.73918943,40.80229645,1648.78
-104.73918921,40.80235393,1648.60
-104.73918902,40.80240176,1648.39
-104.73918851,40.80253139,1647.86
-104.73918797,40.80267003,1647.29
-104.73918682,40.80296506,1646.43
-104.73918628,40.80310055,1646.19
-104.73918580,40.80322486,1646.28
-104.73918526,40.80336260,1646.56
-104.73918419,40.80366574,1647.32
-104.73918547,40.80370124,1647.39
-104.73918841,40.80370746,1647.38
-104.73919552,40.80370882,1647.39
-104.73925171,40.80370913,1647.25
-104.73925824,40.80370915,1647.24
-104.73949629,40.80370968,1646.62
-104.73962326,40.80370997,1646.27
-104.73989711,40.80371059,1646.09
-104.73995188,40.80371071,1646.08
-104.73997298,40.80371076,1646.08
-104.74031702,40.80371153,1646.38
-104.74037665,40.80371167,1646.46
-104.74055792,40.80371208,1646.71
-104.74076989,40.80371255,1646.89
-104.74080273,40.80371263,1646.94
-104.74083568,40.80371270,1647.00
-104.74096135,40.80371298,1647.31
-104.74120272,40.80371352,1647.81
-104.74121671,40.80371356,1647.86
-104.74132862,40.80371381,1647.97
-104.74140461,40.80371398,1647.98
-104.74145452,40.80371409,1647.96
-104.74163034,40.80371448,1647.88
-104.74169009,40.80371462,1647.82
-104.74181172,40.80371489,1647.87
-104.74187183,40.80371502,1647.92
-104.74218279,40.80371572,1648.05
-104.74243874,40.80371629,1648.34
-104.74267027,40.80371681,1648.87
-104.74285841,40.80371723,1649.32
-104.74298384,40.80371751,1649.74
-104.74305094,40.80371765,1649.96
-104.74318135,40.80371795,1650.33
-104.74358881,40.80371885,1651.79
-104.74362746,40.80371894,1651.99
-104.74383054,40.80371939,1652.78
-104.74395442,40.80371966,1653.31
     </coordinates>
    </LineString>
   </MultiGeometry>
  </Placemark>
 </Document>
</kml>
