<kml>
 <Document>
  <Style id="yellow">
   <LineStyle>
   <color>ff00ffff</color>
   <width>1</width>
   </LineStyle>
  </Style>
  <Style id="red">
   <LineStyle>
   <color>ffff0000</color>
   <width>2</width>
   </LineStyle>
  </Style>
  <Style id="green">
   <LineStyle>
   <color>ff00ff00</color>
   <width>1</width>
   </LineStyle>
  </Style>
  <Placemark>
  <styleUrl>#yellow</styleUrl>
   <MultiGeometry>
    <LineString>
     <coordinates>
-104.76538030,40.80376522,1630.56
-104.76569636,40.80376586,1630.81
-104.76600412,40.80376640,1630.29
-104.76629422,40.80376707,1630.73
-104.76675882,40.80376801,1632.65
-104.76694080,40.80376838,1633.30
-104.76724512,40.80376900,1634.29
-104.76738134,40.80376927,1634.63
-104.76753676,40.80376958,1635.04
-104.76771684,40.80376995,1635.51
-104.76797351,40.80377046,1636.04
-104.76827712,40.80377098,1637.05
-104.76861179,40.80377174,1638.14
-104.76879294,40.80377211,1638.56
-104.76886585,40.80377225,1638.71
-104.76899744,40.80377252,1639.17
-104.76900550,40.80377253,1639.23
-104.76912797,40.80377278,1639.94
-104.76919566,40.80377291,1640.41
-104.76929643,40.80377312,1640.98
-104.76935760,40.80377324,1641.20
-104.76956910,40.80377366,1641.53
-104.76959399,40.80377371,1641.51
-104.76968694,40.80377390,1641.27
-104.76996708,40.80377445,1640.86
-104.77010069,40.80377472,1641.03
-104.77010649,40.80377473,1641.04
-104.77024402,40.80377501,1641.33
-104.77029250,40.80377510,1641.48
-104.77038213,40.80377528,1641.59
-104.77051171,40.80377554,1641.81
-104.77075296,40.80377602,1642.43
-104.77082184,40.80377616,1642.49
-104.77101354,40.80377654,1642.65
-104.77118876,40.80377688,1643.13
-104.77130103,40.80377711,1643.59
-104.77136943,40.80377724,1643.90
-104.77142847,40.80377736,1644.19
-104.77149438,40.80377749,1644.58
-104.77157630,40.80377765,1644.93
-104.77168371,40.80377786,1645.62
-104.77174038,40.80377798,1646.08
-104.77184233,40.80377818,1646.68
-104.77184328,40.80377818,1646.66
-104.77217724,40.80377884,1647.21
-104.77233112,40.80377914,1647.56
-104.77266592,40.80377980,1647.80
-104.77279443,40.80378006,1648.32
-104.77311025,40.80378059,1650.02
-104.77340414,40.80378126,1652.14
-104.77355351,40.80378155,1652.22
-104.77387029,40.80378217,1652.25
-104.77401492,40.80378245,1652.35
-104.77417034,40.80378276,1652.51
-104.77459203,40.80378358,1653.18
-104.77474520,40.80378388,1653.44
-104.77474830,40.80377866,1653.48
-104.77474893,40.80376821,1653.55
-104.77474946,40.80375164,1653.66
-104.77475053,40.80343427,1654.03
-104.77475071,40.80338148,1653.91
-104.77475189,40.80303222,1652.80
-104.77475224,40.80292934,1652.53
-104.77475269,40.80276017,1652.23
-104.77475390,40.80243739,1652.01
-104.77475497,40.80212038,1651.76
-104.77475581,40.80187364,1651.37
-104.77475582,40.80186905,1651.38
-104.77475605,40.80180175,1651.27
-104.77475683,40.80157213,1650.98
-104.77475719,40.80146484,1650.62
-104.77475772,40.80130854,1650.23
-104.77475812,40.80119008,1650.26
-104.77475877,40.80099631,1650.16
-104.77475914,40.80088919,1650.33
-104.77475940,40.80081073,1650.14
-104.77475955,40.80076803,1650.36
-104.77476052,40.80048075,1651.00
-104.77476088,40.80037337,1651.05
-104.77476133,40.80023869,1651.06
-104.77476153,40.80014617,1651.02
-104.77476284,40.79972269,1651.12
-104.77476370,40.79953945,1651.65
-104.77476375,40.79952432,1651.74
-104.77476473,40.79923524,1653.14
-104.77476503,40.79914686,1653.41
-104.77476636,40.79875202,1654.06
-104.77476763,40.79837556,1653.27
-104.77476887,40.79797477,1652.75
-104.77476908,40.79787667,1652.69
-104.77477068,40.79743967,1652.47
-104.77477226,40.79700699,1652.51
-104.77477273,40.79686646,1652.71
-104.77477349,40.79664260,1653.07
-104.77477458,40.79632099,1653.04
-104.77477506,40.79617722,1652.66
-104.77477528,40.79611371,1652.39
-104.77477536,40.79608884,1652.32
-104.77477643,40.79577238,1651.16
-104.77477720,40.79554446,1650.48
-104.77477739,40.79548933,1650.33
-104.77477739,40.79548708,1650.33
-104.77477868,40.79510548,1649.47
-104.77477870,40.79510214,1649.47
-104.77477907,40.79499179,1649.25
-104.77477915,40.79496738,1649.09
-104.77477924,40.79493963,1649.13
-104.77477964,40.79478829,1648.50
-104.77477942,40.79478387,1648.51
-104.77477884,40.79477874,1648.45
-104.77422422,40.79477441,1647.02
-104.77421948,40.79477440,1647.02
-104.77421438,40.79477439,1646.98
-104.77362478,40.79477549,1646.75
-104.77360059,40.79477535,1646.79
-104.77357594,40.79477521,1646.85
-104.77354642,40.79477506,1646.94
-104.77349249,40.79477478,1647.12
-104.77346831,40.79477464,1647.14
-104.77344401,40.79477450,1647.20
-104.77341912,40.79477436,1647.27
-104.77339494,40.79477423,1647.32
-104.77334598,40.79477395,1647.43
-104.77331694,40.79477380,1647.52
-104.77328754,40.79477365,1647.64
-104.77322413,40.79477335,1647.89
-104.77319449,40.79477320,1648.01
-104.77316545,40.79477305,1648.10
-104.77313143,40.79477290,1648.25
-104.77306814,40.79477259,1648.50
-104.77300033,40.79477228,1648.84
-104.77295624,40.79477210,1649.08
-104.77290752,40.79477192,1649.41
-104.77285454,40.79477172,1649.78
-104.77284956,40.79477171,1649.80
-104.77284446,40.79477170,1649.85
-104.77283984,40.79477169,1649.89
-104.77283474,40.79477168,1649.93
-104.77282976,40.79477167,1649.93
-104.77282467,40.79477166,1649.99
-104.77282004,40.79477165,1650.01
-104.77281530,40.79477164,1650.03
-104.77281068,40.79477164,1650.05
-104.77280594,40.79477163,1650.10
-104.77229290,40.79477341,1650.99
-104.77209412,40.79477148,1651.34
-104.77197085,40.79476998,1651.49
-104.77196540,40.79476997,1651.49
-104.77170865,40.79476946,1652.10
-104.77157790,40.79476920,1652.30
-104.77157269,40.79476919,1652.30
-104.77155669,40.79476916,1652.29
-104.77155206,40.79476915,1652.29
-104.77154732,40.79476914,1652.28
-104.77154258,40.79476913,1652.27
-104.77153772,40.79476912,1652.31
-104.77129081,40.79476863,1652.33
-104.77128583,40.79476862,1652.35
-104.77111289,40.79476828,1652.43
-104.77110755,40.79476827,1652.43
-104.77085270,40.79476776,1652.34
-104.77084820,40.79476775,1652.33
-104.77062867,40.79476732,1652.32
-104.77062381,40.79476731,1652.33
-104.77038270,40.79476683,1651.96
-104.77037820,40.79476682,1651.96
-104.77013722,40.79476634,1650.78
-104.77013188,40.79476633,1650.77
-104.77011671,40.79476630,1650.65
-104.77011173,40.79476629,1650.59
-104.76992030,40.79476591,1649.25
-104.76991544,40.79476590,1649.20
-104.76975221,40.79476557,1648.09
-104.76943086,40.79476493,1646.71
-104.76942588,40.79476492,1646.70
-104.76933757,40.79476475,1646.48
-104.76933212,40.79476473,1646.44
-104.76932679,40.79476472,1646.42
-104.76917707,40.79476442,1646.02
-104.76917210,40.79476441,1646.02
-104.76881957,40.79476371,1645.09
-104.76857242,40.79476321,1644.76
-104.76856744,40.79476320,1644.76
-104.76832895,40.79476272,1643.35
-104.76832421,40.79476271,1643.31
-104.76803782,40.79476214,1641.16
-104.76774160,40.79476154,1639.60
-104.76773663,40.79476153,1639.59
-104.76763741,40.79476133,1639.25
-104.76763208,40.79476132,1639.27
-104.76742547,40.79476091,1639.30
-104.76742037,40.79476090,1639.29
-104.76714821,40.79476035,1640.18
-104.76689348,40.79475983,1641.07
-104.76688874,40.79475982,1641.07
-104.76654640,40.79475913,1642.13
-104.76654119,40.79475912,1642.11
-104.76650788,40.79475905,1642.03
-104.76650326,40.79475904,1642.02
-104.76611920,40.79475827,1640.40
-104.76596013,40.79475794,1638.39
-104.76595550,40.79475793,1638.37
-104.76595100,40.79475793,1638.31
-104.76587525,40.79475777,1637.56
-104.76587039,40.79475776,1637.50
-104.76554809,40.79475711,1634.73
-104.76554276,40.79475710,1634.67
-104.76530581,40.79475662,1632.80
-104.76530118,40.79475661,1632.73
-104.76529621,40.79475660,1632.68
-104.76515396,40.79475631,1631.73
-104.76482183,40.79475563,1629.46
-104.76458819,40.79475515,1628.17
-104.76458321,40.79475514,1628.12
-104.76457859,40.79475513,1628.09
-104.76448518,40.79475494,1627.64
-104.76447997,40.79475493,1627.63
-104.76400891,40.79475397,1626.04
-104.76400393,40.79475396,1626.03
-104.76348853,40.79475290,1625.14
-104.76348557,40.79475290,1625.14
-104.76348107,40.79475289,1625.17
-104.76326640,40.79475245,1624.86
-104.76297824,40.79475186,1624.61
-104.76297255,40.79475194,1624.62
-104.76296164,40.79475209,1624.58
-104.76294552,40.79475233,1624.56
-104.76292987,40.79475257,1624.54
-104.76292784,40.79475689,1624.55
-104.76292747,40.79476103,1624.57
-104.76292651,40.79479598,1624.58
-104.76292623,40.79484247,1624.58
-104.76292587,40.79491111,1624.61
-104.76292475,40.79519146,1624.84
-104.76292474,40.79519398,1624.84
-104.76292443,40.79528190,1624.84
-104.76292372,40.79548180,1623.43
-104.76292358,40.79552234,1623.15
-104.76292333,40.79559242,1622.91
-104.76292310,40.79565539,1622.83
-104.76292275,40.79575485,1622.83
-104.76292212,40.79593222,1623.54
-104.76292206,40.79594808,1623.61
-104.76292201,40.79596249,1623.69
-104.76292153,40.79609807,1623.98
-104.76292097,40.79625401,1624.14
-104.76292089,40.79627734,1624.22
-104.76292086,40.79628527,1624.23
-104.76291996,40.79653822,1623.49
-104.76291982,40.79657840,1622.96
-104.76291974,40.79660083,1622.61
-104.76291968,40.79661759,1622.18
-104.76291954,40.79665659,1621.73
-104.76291948,40.79667389,1621.62
-104.76291939,40.79669975,1621.74
-104.76291913,40.79677289,1622.48
-104.76291881,40.79686082,1622.81
-104.76291879,40.79686847,1622.81
-104.76291853,40.79694009,1622.89
-104.76291839,40.79697919,1622.90
-104.76291763,40.79719449,1623.03
-104.76291732,40.79728124,1622.94
-104.76291667,40.79746321,1622.87
-104.76291644,40.79752744,1622.84
-104.76291637,40.79754753,1622.66
-104.76291637,40.79754852,1622.64
-104.76291628,40.79757204,1622.75
-104.76291591,40.79767726,1623.32
-104.76291562,40.79775932,1623.39
-104.76291539,40.79782256,1623.38
-104.76291508,40.79791003,1623.64
-104.76291458,40.79805030,1624.04
-104.76291377,40.79827857,1623.61
-104.76291355,40.79834199,1623.23
-104.76291347,40.79836271,1622.59
-104.76291333,40.79840118,1622.50
-104.76291253,40.79862675,1624.18
-104.76291249,40.79863864,1624.19
-104.76291246,40.79864639,1624.23
-104.76291241,40.79866071,1624.25
-104.76291223,40.79871197,1624.08
-104.76291123,40.79899402,1624.31
-104.76291073,40.79913375,1624.46
-104.76291043,40.79921789,1624.43
-104.76291002,40.79933229,1624.84
-104.76290996,40.79935058,1624.85
-104.76290992,40.79935959,1624.85
-104.76290966,40.79943274,1624.99
-104.76290954,40.79946652,1625.07
-104.76290953,40.79946931,1625.08
-104.76290950,40.79947877,1625.11
-104.76290935,40.79952048,1625.41
-104.76290910,40.79958985,1625.73
-104.76290874,40.79969281,1626.03
-104.76290868,40.79971002,1626.07
-104.76290867,40.79971236,1626.08
-104.76290837,40.79979686,1626.54
-104.76290816,40.79985406,1626.56
-104.76290808,40.79987866,1626.57
-104.76290787,40.79993811,1626.64
-104.76290781,40.79995415,1626.70
-104.76290750,40.80004189,1626.80
-104.76290623,40.80039764,1625.73
-104.76290549,40.80060645,1626.75
-104.76290460,40.80088896,1627.55
-104.76290372,40.80110255,1628.03
-104.76290344,40.80118191,1628.13
-104.76290324,40.80123894,1628.13
-104.76290239,40.80147748,1628.57
-104.76290122,40.80180494,1628.81
-104.76290032,40.80205799,1629.09
-104.76289956,40.80227113,1629.11
-104.76289916,40.80238364,1629.14
-104.76289889,40.80245940,1629.18
-104.76289875,40.80249895,1629.19
-104.76289871,40.80250976,1629.21
-104.76289812,40.80267660,1629.26
-104.76289775,40.80278209,1629.38
-104.76289756,40.80283461,1629.45
-104.76289753,40.80284190,1629.43
-104.76289747,40.80286010,1629.46
-104.76289726,40.80291830,1629.51
-104.76289716,40.80294766,1629.53
-104.76289637,40.80316981,1629.70
-104.76289628,40.80319296,1629.72
-104.76289619,40.80322071,1629.74
-104.76289617,40.80322368,1629.73
-104.76289583,40.80331989,1629.92
-104.76289553,40.80340511,1630.02
-104.76289540,40.80344034,1630.07
-104.76289469,40.80370888,1630.31
-104.76289569,40.80375960,1630.30
-104.76302147,40.80375995,1630.39
-104.76358116,40.80376155,1631.46
-104.76358661,40.80376156,1631.44
-104.76413894,40.80376269,1631.36
-104.76414357,40.80376270,1631.35
-104.76414866,40.80376271,1631.34
-104.76415329,40.80376272,1631.31
-104.76415838,40.80376273,1631.33
-104.76416289,40.80376274,1631.31
-104.76416763,40.80376275,1631.33
-104.76417226,40.80376276,1631.31
-104.76417700,40.80376277,1631.30
-104.76418198,40.80376278,1631.30
-104.76418696,40.80376279,1631.28
-104.76419205,40.80376280,1631.29
-104.76419680,40.80376281,1631.28
-104.76420177,40.80376282,1631.26
-104.76420675,40.80376283,1631.24
-104.76421150,40.80376284,1631.25
-104.76421612,40.80376285,1631.26
-104.76422122,40.80376286,1631.25
-104.76422572,40.80376287,1631.22
-104.76423082,40.80376288,1631.23
-104.76423544,40.80376289,1631.22
-104.76424030,40.80376290,1631.22
-104.76424481,40.80376290,1631.22
-104.76424943,40.80376291,1631.21
-104.76425453,40.80376292,1631.18
-104.76425583,40.80376293,1631.19
-104.76425963,40.80376294,1631.19
-104.76426461,40.80376295,1631.19
-104.76426923,40.80376295,1631.19
-104.76427445,40.80376297,1631.15
-104.76427943,40.80376298,1631.17
-104.76428417,40.80376298,1631.14
-104.76428867,40.80376299,1631.15
-104.76429377,40.80376300,1631.14
-104.76429839,40.80376301,1631.11
-104.76475340,40.80376394,1630.73
-104.76490989,40.80376426,1630.69
-104.76520579,40.80376486,1630.50
-104.76538030,40.80376522,1630.56
     </coordinates>
    </LineString>
   </MultiGeometry>
  </Placemark>
 </Document>
</kml>
