<kml>
 <Document>
  <Style id="yellow">
   <LineStyle>
   <color>ff00ffff</color>
   <width>1</width>
   </LineStyle>
  </Style>
  <Style id="red">
   <LineStyle>
   <color>ffff0000</color>
   <width>2</width>
   </LineStyle>
  </Style>
  <Style id="green">
   <LineStyle>
   <color>ff00ff00</color>
   <width>1</width>
   </LineStyle>
  </Style>
  <Placemark>
  <styleUrl>#yellow</styleUrl>
   <MultiGeometry>
    <LineString>
     <coordinates>
-104.75471639,40.84878554,1659.98
-104.75485424,40.84878583,1660.01
-104.75485934,40.84878584,1660.02
-104.75524074,40.84878665,1660.32
-104.75524549,40.84878666,1660.33
-104.75553792,40.84878728,1660.69
-104.75586487,40.84878798,1660.86
-104.75594577,40.84878815,1660.76
-104.75626027,40.84878881,1660.34
-104.75640144,40.84878911,1660.21
-104.75663159,40.84878960,1659.16
-104.75689008,40.84879014,1657.98
-104.75695213,40.84879027,1657.91
-104.75722641,40.84879085,1657.69
-104.75745964,40.84879134,1657.39
-104.75760330,40.84879164,1656.98
-104.75792064,40.84879231,1656.10
-104.75802717,40.84879253,1655.67
-104.75822209,40.84879294,1655.09
-104.75822707,40.84879295,1655.07
-104.75849375,40.84879351,1654.82
-104.75857929,40.84879369,1654.69
-104.75858498,40.84879370,1654.67
-104.75892569,40.84879441,1654.38
-104.75904373,40.84879466,1654.21
-104.75955433,40.84879572,1653.97
-104.76002233,40.84879670,1654.11
-104.76010134,40.84879686,1654.20
-104.76040848,40.84879750,1653.98
-104.76050125,40.84879769,1653.76
-104.76065784,40.84879802,1653.40
-104.76092097,40.84879857,1652.84
-104.76099428,40.84879872,1652.62
-104.76122490,40.84879919,1652.36
-104.76147723,40.84879972,1652.13
-104.76149396,40.84879975,1652.10
-104.76182162,40.84880043,1651.97
-104.76198142,40.84880076,1652.08
-104.76203623,40.84880087,1652.14
-104.76234123,40.84880150,1652.32
-104.76236591,40.84880155,1652.33
-104.76264303,40.84880212,1652.49
-104.76272965,40.84879852,1652.54
-104.76273345,40.84879546,1652.51
-104.76273372,40.84878843,1652.48
-104.76273430,40.84862511,1651.81
-104.76273453,40.84855998,1652.44
-104.76273468,40.84851755,1652.56
-104.76273470,40.84851170,1652.57
-104.76273480,40.84848485,1652.67
-104.76273499,40.84843242,1652.62
-104.76273503,40.84841972,1652.64
-104.76273518,40.84837828,1652.65
-104.76273535,40.84833198,1652.74
-104.76273563,40.84825180,1652.96
-104.76273606,40.84813208,1653.29
-104.76273625,40.84807920,1653.56
-104.76273649,40.84801083,1653.65
-104.76273668,40.84795840,1653.97
-104.76273670,40.84795128,1654.04
-104.76273693,40.84788813,1654.20
-104.76273701,40.84786561,1654.29
-104.76273730,40.84778427,1654.55
-104.76273783,40.84763563,1655.46
-104.76273784,40.84763122,1655.53
-104.76273811,40.84755753,1656.11
-104.76273880,40.84736430,1657.49
-104.76273913,40.84727097,1658.36
-104.76273930,40.84722449,1658.82
-104.76273962,40.84713314,1659.55
-104.76273981,40.84708143,1659.88
-104.76274053,40.84687721,1661.18
-104.76274120,40.84669065,1662.06
-104.76274145,40.84662047,1662.27
-104.76274149,40.84660948,1662.32
-104.76274155,40.84659246,1662.32
-104.76274157,40.84658570,1662.36
-104.76274159,40.84657993,1662.37
-104.76274160,40.84657876,1662.37
-104.76274161,40.84657633,1662.39
-104.76274167,40.84655750,1662.42
-104.76274170,40.84655012,1662.45
-104.76274177,40.84653012,1662.47
-104.76274192,40.84648787,1662.56
-104.76274252,40.84632094,1662.71
-104.76274290,40.84621239,1662.24
-104.76274293,40.84620591,1662.23
-104.76274300,40.84618474,1662.09
-104.76274352,40.84600700,1660.78
-104.76274465,40.84572387,1659.56
-104.76274538,40.84551866,1659.52
-104.76274576,40.84541281,1659.31
-104.76274606,40.84532669,1659.21
-104.76274633,40.84525084,1659.16
-104.76274655,40.84518922,1659.13
-104.76274710,40.84503644,1659.38
-104.76274839,40.84467430,1660.58
-104.76274932,40.84441359,1660.88
-104.76274945,40.84437711,1661.17
-104.76274984,40.84426685,1661.63
-104.76275078,40.84397074,1663.59
-104.76275159,40.84377589,1664.57
-104.76275206,40.84364563,1665.27
-104.76275210,40.84363527,1665.35
-104.76275224,40.84359545,1665.69
-104.76275241,40.84354635,1666.13
-104.76275267,40.84347528,1666.65
-104.76275267,40.84347447,1666.66
-104.76275307,40.84336114,1667.65
-104.76275338,40.84327538,1668.15
-104.76275345,40.84325583,1668.24
-104.76275353,40.84323322,1668.36
-104.76275405,40.84308738,1668.62
-104.76275408,40.84307783,1668.65
-104.76275439,40.84299315,1668.81
-104.76275468,40.84291018,1668.90
-104.76275513,40.84278334,1669.63
-104.76275525,40.84275199,1669.86
-104.76275545,40.84269398,1670.30
-104.76275585,40.84258273,1671.25
-104.76275638,40.84243373,1672.36
-104.76275708,40.84223653,1673.51
-104.76275711,40.84222833,1673.52
-104.76275754,40.84210969,1673.92
-104.76275831,40.84189223,1674.41
-104.76275884,40.84174494,1674.67
-104.76275892,40.84172206,1674.67
-104.76276045,40.84129209,1676.25
-104.76276085,40.84118021,1674.98
-104.76276111,40.84110823,1675.04
-104.76276131,40.84105049,1675.11
-104.76276156,40.84097986,1675.16
-104.76276197,40.84086554,1675.22
-104.76276199,40.84086059,1675.21
-104.76276259,40.84069312,1675.26
-104.76276383,40.84034486,1674.07
-104.76276421,40.84023838,1673.70
-104.76276448,40.84016334,1673.46
-104.76276452,40.84014982,1673.44
-104.76276454,40.84014577,1673.47
-104.76276486,40.84005677,1673.08
-104.76276538,40.83990912,1672.53
-104.76276566,40.83982967,1672.27
-104.76276548,40.83981390,1672.16
-104.76276411,40.83979993,1672.11
-104.76276069,40.83979407,1672.09
-104.76270921,40.83979388,1672.42
-104.76251871,40.83979348,1673.51
-104.76244766,40.83979334,1673.85
-104.76236665,40.83979317,1674.04
-104.76221304,40.83979285,1674.36
-104.76211791,40.83979266,1674.56
-104.76211305,40.83979265,1674.54
-104.76203998,40.83979250,1674.67
-104.76187036,40.83979215,1674.84
-104.76177796,40.83979196,1674.91
-104.76172114,40.83979184,1674.99
-104.76157809,40.83979154,1674.86
-104.76157370,40.83979153,1674.94
-104.76143065,40.83979124,1674.90
-104.76139376,40.83979116,1674.84
-104.76128558,40.83979094,1674.72
-104.76117515,40.83979071,1674.37
-104.76110967,40.83979057,1674.21
-104.76110481,40.83979056,1674.17
-104.76106484,40.83979048,1674.02
-104.76071089,40.83978975,1671.01
-104.76067317,40.83978967,1670.70
-104.76055965,40.83978943,1669.92
-104.76046440,40.83978924,1669.28
-104.76032147,40.83978894,1668.38
-104.76031317,40.83978892,1668.28
-104.76010808,40.83978850,1667.14
-104.75995756,40.83978818,1666.41
-104.75992019,40.83978811,1666.20
-104.75991568,40.83978810,1666.15
-104.75963860,40.83978752,1665.04
-104.75932925,40.83978687,1664.30
-104.75913910,40.83978648,1664.21
-104.75899617,40.83978618,1664.17
-104.75883580,40.83978584,1664.14
-104.75871932,40.83978560,1664.10
-104.75860901,40.83978537,1664.02
-104.75847533,40.83978509,1663.87
-104.75828803,40.83978470,1663.68
-104.75815851,40.83978443,1663.66
-104.75800964,40.83978411,1663.70
-104.75791688,40.83978392,1663.91
-104.75791202,40.83978391,1663.92
-104.75772200,40.83978351,1664.53
-104.75761880,40.83978329,1664.72
-104.75745452,40.83978295,1664.78
-104.75739402,40.83978282,1664.76
-104.75720495,40.83978242,1664.51
-104.75712809,40.83978226,1664.46
-104.75691719,40.83978182,1664.38
-104.75684495,40.83978166,1664.31
-104.75664010,40.83978123,1664.20
-104.75662456,40.83978120,1664.19
-104.75641829,40.83978076,1664.38
-104.75639326,40.83978071,1664.38
-104.75614156,40.83978018,1663.91
-104.75613634,40.83978017,1663.86
-104.75611238,40.83978012,1663.73
-104.75591168,40.83977969,1662.99
-104.75562712,40.83977909,1661.81
-104.75544410,40.83977870,1661.17
-104.75536688,40.83977854,1660.90
-104.75511399,40.83977800,1660.47
-104.75482065,40.83977738,1660.16
-104.75480511,40.83977735,1660.17
-104.75441902,40.83977653,1660.05
-104.75435923,40.83977640,1660.01
-104.75408381,40.83977581,1659.32
-104.75403933,40.83977572,1659.18
-104.75386425,40.83977534,1658.35
-104.75362654,40.83977484,1656.36
-104.75360685,40.83977479,1656.24
-104.75337923,40.83977431,1654.88
-104.75313369,40.83977378,1653.09
-104.75301852,40.83977354,1652.65
-104.75261902,40.83977268,1652.26
-104.75245331,40.83977232,1652.19
-104.75240314,40.83977222,1652.13
-104.75219793,40.83977178,1652.03
-104.75199533,40.83977134,1651.53
-104.75197802,40.83977130,1651.53
-104.75180768,40.83977094,1651.17
-104.75155622,40.83977040,1650.13
-104.75130902,40.83976986,1648.84
-104.75107582,40.83976936,1647.73
-104.75091307,40.83977324,1647.04
-104.75090844,40.83977341,1647.02
-104.75090521,40.83977953,1646.99
-104.75090467,40.83979791,1647.06
-104.75090302,40.84014473,1647.89
-104.75090163,40.84048309,1648.06
-104.75090155,40.84050453,1648.07
-104.75090147,40.84052606,1648.05
-104.75089982,40.84096756,1647.41
-104.75089977,40.84098026,1647.40
-104.75089872,40.84129303,1646.20
-104.75089696,40.84173075,1645.52
-104.75089623,40.84192443,1645.47
-104.75089564,40.84208415,1645.30
-104.75089495,40.84226702,1644.98
-104.75089451,40.84241602,1643.44
-104.75089323,40.84272708,1645.04
-104.75089242,40.84294373,1645.43
-104.75089142,40.84321056,1645.70
-104.75089016,40.84354756,1646.09
-104.75088972,40.84366503,1645.87
-104.75088958,40.84370089,1646.01
-104.75088904,40.84384619,1646.13
-104.75088764,40.84421905,1646.26
-104.75088744,40.84427355,1646.36
-104.75088656,40.84450750,1647.18
-104.75088598,40.84466253,1648.08
-104.75088512,40.84492414,1650.28
-104.75088403,40.84518457,1652.45
-104.75088324,40.84539564,1654.40
-104.75088313,40.84542365,1654.61
-104.75088262,40.84559247,1656.01
-104.75088135,40.84589912,1659.16
-104.75088131,40.84590993,1659.25
-104.75088114,40.84595722,1659.75
-104.75088110,40.84596758,1659.91
-104.75087951,40.84639134,1662.61
-104.75087828,40.84675041,1661.96
-104.75087726,40.84699274,1662.45
-104.75087711,40.84703264,1662.52
-104.75087684,40.84710444,1662.60
-104.75087542,40.84748342,1663.99
-104.75087530,40.84751549,1664.11
-104.75087481,40.84764747,1664.96
-104.75087341,40.84801996,1663.92
-104.75087325,40.84806275,1664.04
-104.75087303,40.84812212,1664.27
-104.75087254,40.84825265,1665.49
-104.75087136,40.84856794,1667.40
-104.75087083,40.84874009,1668.76
-104.75087144,40.84876775,1669.05
-104.75087403,40.84877352,1669.07
-104.75093523,40.84877663,1669.00
-104.75094460,40.84877710,1668.99
-104.75094958,40.84877729,1669.02
-104.75105481,40.84877770,1669.03
-104.75117973,40.84877797,1668.87
-104.75127333,40.84877817,1668.76
-104.75127867,40.84877818,1668.76
-104.75141415,40.84877847,1668.61
-104.75154844,40.84877876,1668.49
-104.75155449,40.84877877,1668.48
-104.75180622,40.84877931,1667.89
-104.75189603,40.84877951,1667.57
-104.75201846,40.84877977,1667.15
-104.75210221,40.84877995,1666.84
-104.75236830,40.84878052,1665.80
-104.75250010,40.84878081,1665.31
-104.75271969,40.84878128,1664.45
-104.75272800,40.84878129,1664.44
-104.75295150,40.84878177,1663.61
-104.75297867,40.84878183,1663.55
-104.75308947,40.84878207,1663.21
-104.75319991,40.84878231,1662.92
-104.75328486,40.84878249,1662.75
-104.75329007,40.84878250,1662.75
-104.75360101,40.84878316,1662.21
-104.75390032,40.84878380,1661.46
-104.75401646,40.84878405,1661.07
-104.75420829,40.84878446,1660.70
-104.75437769,40.84878482,1660.39
-104.75450190,40.84878508,1660.13
-104.75460298,40.84878530,1660.05
-104.75471639,40.84878554,1659.98
     </coordinates>
    </LineString>
   </MultiGeometry>
  </Placemark>
 </Document>
</kml>
