<kml>
 <Document>
  <Style id="yellow">
   <LineStyle>
   <color>ff00ffff</color>
   <width>1</width>
   </LineStyle>
  </Style>
  <Style id="red">
   <LineStyle>
   <color>ffff0000</color>
   <width>2</width>
   </LineStyle>
  </Style>
  <Style id="green">
   <LineStyle>
   <color>ff00ff00</color>
   <width>1</width>
   </LineStyle>
  </Style>
  <Placemark>
  <styleUrl>#yellow</styleUrl>
   <MultiGeometry>
    <LineString>
     <coordinates>
-104.72727012,40.81800138,1647.78
-104.72726954,40.81814317,1647.74
-104.72726912,40.81824641,1647.66
-104.72726906,40.81826055,1647.67
-104.72726898,40.81827821,1647.69
-104.72726824,40.81846063,1647.76
-104.72726730,40.81869070,1648.12
-104.72726636,40.81891862,1648.35
-104.72726615,40.81897050,1648.35
-104.72726606,40.81899339,1648.35
-104.72726592,40.81902555,1648.34
-104.72726587,40.81903825,1648.33
-104.72726565,40.81909266,1648.25
-104.72726563,40.81909752,1648.25
-104.72726559,40.81910725,1648.25
-104.72726539,40.81915482,1648.11
-104.72726533,40.81917175,1648.14
-104.72726500,40.81925085,1647.96
-104.72726500,40.81925211,1647.97
-104.72726475,40.81931336,1647.77
-104.72726434,40.81941165,1647.50
-104.72726400,40.81949461,1646.90
-104.72726384,40.81953371,1646.77
-104.72726366,40.81957812,1646.59
-104.72726344,40.81963325,1646.33
-104.72726286,40.81977297,1645.66
-104.72726241,40.81988297,1645.17
-104.72726236,40.81989693,1645.13
-104.72726232,40.81990603,1645.09
-104.72726086,40.82026114,1643.63
-104.72726023,40.82041591,1643.27
-104.72725992,40.82049104,1642.93
-104.72725825,40.82089939,1641.97
-104.72725823,40.82090452,1641.95
-104.72725815,40.82092335,1641.94
-104.72725770,40.82103253,1641.48
-104.72725676,40.82126279,1640.69
-104.72725658,40.82130684,1640.54
-104.72725593,40.82146629,1640.48
-104.72725571,40.82152007,1640.20
-104.72725552,40.82156583,1640.17
-104.72725515,40.82165645,1640.01
-104.72725512,40.82166222,1640.01
-104.72725500,40.82169240,1639.99
-104.72725594,40.82169510,1639.97
-104.72726019,40.82169827,1640.01
-104.72727502,40.82169839,1640.04
-104.72749772,40.82169901,1640.88
-104.72755096,40.82169913,1641.05
-104.72755570,40.82169914,1641.06
-104.72756104,40.82169916,1641.07
-104.72756638,40.82169917,1641.09
-104.72757136,40.82169918,1641.11
-104.72757622,40.82169919,1641.15
-104.72758144,40.82169920,1641.16
-104.72758677,40.82169922,1641.18
-104.72759140,40.82169923,1641.20
-104.72759626,40.82169924,1641.23
-104.72759816,40.82169924,1641.24
-104.72760148,40.82169925,1641.24
-104.72760634,40.82169926,1641.27
-104.72761156,40.82169928,1641.28
-104.72761630,40.82169929,1641.33
-104.72762104,40.82169930,1641.35
-104.72762591,40.82169931,1641.36
-104.72763089,40.82169932,1641.39
-104.72763587,40.82169933,1641.40
-104.72764120,40.82169935,1641.45
-104.72764630,40.82169936,1641.47
-104.72765116,40.82169937,1641.49
-104.72765614,40.82169938,1641.51
-104.72805091,40.82170031,1643.42
-104.72828381,40.82170086,1644.47
-104.72848576,40.82170125,1645.42
-104.72907857,40.82169787,1647.37
-104.72908332,40.82169788,1647.41
-104.72908830,40.82169789,1647.40
-104.72909328,40.82169790,1647.40
-104.72909802,40.82169791,1647.42
-104.72910265,40.82169792,1647.43
-104.72910786,40.82169793,1647.42
-104.72911225,40.82169794,1647.46
-104.72911747,40.82169796,1647.48
-104.72912209,40.82169797,1647.46
-104.72912684,40.82169798,1647.47
-104.72913134,40.82169799,1647.49
-104.72913609,40.82169800,1647.52
-104.72914119,40.82169801,1647.53
-104.72914629,40.82169802,1647.55
-104.72915150,40.82169804,1647.57
-104.72915589,40.82169805,1647.59
-104.72916111,40.82169806,1647.59
-104.72916609,40.82169807,1647.59
-104.72917083,40.82169808,1647.60
-104.72917534,40.82169809,1647.61
-104.72951733,40.82170007,1648.47
-104.72955516,40.82170042,1648.60
-104.72960437,40.82170090,1648.79
-104.72964196,40.82170126,1648.90
-104.72968049,40.82170162,1649.02
-104.72970694,40.82170186,1649.09
-104.72974453,40.82170222,1649.22
-104.72982018,40.82170294,1649.47
-104.72986833,40.82170341,1649.66
-104.72993260,40.82170401,1649.85
-104.72996959,40.82170437,1649.97
-104.73000742,40.82170473,1650.10
-104.73003363,40.82170497,1650.21
-104.73003920,40.82170498,1650.19
-104.73060817,40.82170541,1652.23
-104.73064422,40.82170577,1652.35
-104.73067030,40.82170601,1652.45
-104.73069592,40.82170625,1652.52
-104.73072165,40.82170649,1652.62
-104.73073754,40.82170661,1652.67
-104.73074264,40.82170663,1652.70
-104.73129868,40.82170675,1654.47
-104.73133829,40.82170711,1654.58
-104.73136343,40.82170735,1654.65
-104.73138833,40.82170759,1654.72
-104.73142853,40.82170795,1654.85
-104.73147809,40.82170834,1654.98
-104.73148331,40.82170835,1654.95
-104.73148817,40.82170836,1654.96
-104.73207446,40.82170792,1656.56
-104.73208857,40.82170805,1656.58
-104.73211798,40.82170830,1656.62
-104.73213280,40.82170842,1656.65
-104.73216185,40.82170867,1656.70
-104.73220110,40.82170903,1656.76
-104.73223039,40.82170928,1656.79
-104.73224498,40.82170940,1656.79
-104.73225944,40.82170952,1656.82
-104.73227415,40.82170965,1656.83
-104.73230344,40.82170990,1656.88
-104.73231802,40.82171002,1656.85
-104.73233237,40.82171014,1656.89
-104.73234719,40.82171027,1656.89
-104.73236249,40.82171039,1656.91
-104.73236700,40.82171040,1656.91
-104.73237186,40.82171042,1656.89
-104.73293585,40.82170965,1657.28
-104.73297486,40.82171001,1657.37
-104.73298886,40.82171013,1657.40
-104.73304257,40.82171062,1657.49
-104.73305668,40.82171074,1657.54
-104.73307091,40.82171086,1657.59
-104.73310981,40.82171123,1657.67
-104.73312427,40.82171135,1657.67
-104.73313850,40.82171147,1657.71
-104.73315273,40.82171159,1657.75
-104.73316732,40.82171172,1657.74
-104.73319637,40.82171197,1657.77
-104.73324926,40.82171245,1657.86
-104.73325424,40.82171246,1657.89
-104.73325934,40.82171247,1657.87
-104.73384787,40.82171311,1658.17
-104.73394404,40.82171405,1658.25
-104.73398258,40.82171414,1657.97
-104.73398768,40.82171415,1657.97
-104.73410247,40.82171442,1658.25
-104.73433821,40.82171496,1658.06
-104.73454004,40.82171543,1657.89
-104.73480057,40.82171602,1657.68
-104.73499374,40.82171647,1657.37
-104.73506987,40.82171664,1657.33
-104.73507509,40.82171665,1657.33
-104.73507972,40.82171667,1657.34
-104.73548634,40.82171751,1656.88
-104.73569445,40.82171808,1656.49
-104.73590245,40.82171855,1656.09
-104.73601036,40.82171880,1655.85
-104.73601534,40.82171881,1655.85
-104.73602044,40.82171882,1655.82
-104.73602590,40.82171883,1655.79
-104.73636291,40.82171961,1655.28
-104.73661087,40.82172017,1654.93
-104.73678198,40.82172056,1654.83
-104.73704394,40.82172116,1654.80
-104.73715612,40.82172141,1654.82
-104.73716110,40.82172143,1654.86
-104.73716643,40.82172144,1654.81
-104.73726201,40.82172166,1654.82
-104.73748436,40.82172216,1654.93
-104.73769235,40.82172263,1655.00
-104.73814665,40.82172367,1654.52
-104.73816064,40.82172370,1654.47
-104.73816586,40.82172371,1654.45
-104.73817107,40.82172372,1654.45
-104.73835974,40.82172415,1653.96
-104.73853074,40.82172454,1653.40
-104.73878451,40.82172511,1652.35
-104.73892029,40.82172542,1651.72
-104.73892527,40.82172543,1651.71
-104.73897080,40.82172554,1651.45
-104.73911027,40.82172369,1650.76
-104.73911170,40.82171991,1650.74
-104.73911221,40.82171063,1650.66
-104.73911299,40.82169370,1650.58
-104.73911423,40.82146768,1649.50
-104.73911425,40.82146407,1649.50
-104.73911438,40.82142993,1649.38
-104.73911488,40.82130156,1648.84
-104.73911515,40.82123274,1648.53
-104.73911517,40.82122877,1648.52
-104.73911527,40.82120391,1648.42
-104.73911550,40.82114481,1648.12
-104.73911554,40.82113553,1648.07
-104.73911582,40.82106320,1647.78
-104.73911615,40.82097798,1647.36
-104.73911617,40.82097329,1647.32
-104.73911633,40.82093185,1647.15
-104.73911692,40.82078123,1646.59
-104.73911797,40.82048323,1646.05
-104.73911875,40.82031550,1646.13
-104.73911923,40.82019334,1646.21
-104.73911940,40.82014839,1646.21
-104.73911983,40.82003813,1646.28
-104.73912024,40.81993561,1646.38
-104.73912034,40.81991039,1646.41
-104.73912053,40.81986183,1646.41
-104.73912071,40.81981427,1646.46
-104.73912132,40.81966004,1646.63
-104.73912135,40.81965068,1646.63
-104.73912147,40.81961996,1646.70
-104.73912162,40.81958347,1646.78
-104.73912171,40.81955915,1646.83
-104.73912196,40.81949618,1646.99
-104.73912223,40.81942601,1647.14
-104.73912230,40.81940979,1647.18
-104.73912334,40.81914314,1647.74
-104.73912347,40.81910963,1647.81
-104.73912373,40.81904495,1647.98
-104.73912382,40.81902189,1648.07
-104.73912474,40.81878713,1648.75
-104.73912477,40.81877767,1648.78
-104.73912490,40.81874578,1648.84
-104.73912574,40.81852976,1649.40
-104.73912581,40.81851354,1649.49
-104.73912595,40.81847634,1649.67
-104.73912597,40.81847201,1649.69
-104.73912631,40.81838616,1650.17
-104.73912650,40.81833572,1650.46
-104.73912661,40.81830914,1650.62
-104.73912684,40.81825095,1650.95
-104.73912743,40.81809933,1651.81
-104.73912781,40.81800357,1652.12
-104.73912805,40.81794079,1652.35
-104.73912816,40.81791385,1652.41
-104.73912870,40.81777467,1652.89
-104.73912896,40.81770774,1653.10
-104.73912910,40.81767197,1653.18
-104.73912932,40.81761810,1653.23
-104.73912952,40.81756594,1653.22
-104.73912973,40.81751270,1653.18
-104.73912993,40.81746127,1653.20
-104.73913020,40.81739361,1653.03
-104.73913045,40.81732776,1652.87
-104.73913063,40.81728182,1652.71
-104.73913143,40.81707832,1651.43
-104.73913150,40.81706057,1651.31
-104.73913257,40.81678672,1650.27
-104.73913268,40.81675807,1650.24
-104.73913414,40.81638665,1650.13
-104.73913430,40.81634584,1650.14
-104.73913509,40.81614459,1650.12
-104.73913525,40.81610271,1650.15
-104.73913590,40.81593659,1650.14
-104.73913600,40.81591047,1650.14
-104.73913619,40.81586344,1650.18
-104.73913625,40.81584822,1650.17
-104.73913658,40.81576255,1650.16
-104.73913735,40.81556589,1650.28
-104.73913834,40.81531429,1650.73
-104.73913940,40.81504475,1652.02
-104.73913969,40.81496953,1652.19
-104.73913991,40.81491422,1652.19
-104.73914041,40.81478513,1652.11
-104.73914069,40.81471514,1652.14
-104.73914092,40.81465568,1652.11
-104.73914114,40.81459911,1652.16
-104.73914202,40.81437471,1652.63
-104.73914216,40.81433849,1652.79
-104.73914227,40.81431039,1652.94
-104.73914342,40.81401743,1653.83
-104.73914372,40.81394050,1653.94
-104.73914390,40.81389411,1653.95
-104.73914391,40.81389158,1653.94
-104.73914531,40.81353584,1653.07
-104.73914536,40.81352089,1653.07
-104.73914585,40.81339603,1652.63
-104.73914596,40.81336810,1652.50
-104.73914703,40.81309497,1651.72
-104.73914748,40.81298029,1651.44
-104.73914809,40.81282436,1651.31
-104.73914802,40.81272193,1651.27
-104.73914590,40.81271796,1651.30
-104.73914140,40.81271777,1651.32
-104.73913191,40.81271748,1651.29
-104.73888956,40.81271693,1651.32
-104.73888944,40.81271693,1651.33
-104.73888422,40.81271692,1651.34
-104.73873566,40.81271658,1651.43
-104.73862100,40.81271632,1651.61
-104.73848169,40.81271601,1651.91
-104.73847659,40.81271599,1651.91
-104.73844872,40.81271593,1651.96
-104.73832435,40.81271565,1652.17
-104.73818195,40.81271533,1652.34
-104.73791529,40.81271472,1652.53
-104.73778214,40.81271442,1652.70
-104.73763061,40.81271407,1652.85
-104.73748358,40.81271374,1652.95
-104.73718882,40.81271307,1653.14
-104.73717400,40.81271303,1653.16
-104.73708093,40.81271282,1653.21
-104.73702319,40.81271269,1653.27
-104.73688067,40.81271237,1653.46
-104.73639893,40.81271127,1654.14
-104.73637426,40.81271121,1654.22
-104.73627858,40.81271099,1654.38
-104.73606445,40.81271050,1654.62
-104.73604453,40.81271046,1654.64
-104.73585114,40.81271001,1654.80
-104.73575321,40.81270979,1654.88
-104.73571965,40.81270971,1654.86
-104.73552686,40.81270927,1654.99
-104.73535826,40.81270888,1655.10
-104.73522617,40.81270858,1655.12
-104.73503647,40.81270815,1655.20
-104.73466108,40.81270728,1655.55
-104.73454216,40.81270701,1655.70
-104.73447872,40.81270686,1655.77
-104.73431842,40.81270649,1656.03
-104.73428581,40.81270642,1656.04
-104.73417887,40.81270617,1656.14
-104.73410559,40.81270600,1656.21
-104.73394695,40.81270564,1656.35
-104.73389774,40.81270552,1656.31
-104.73372428,40.81270512,1656.38
-104.73322025,40.81270405,1656.66
-104.73311152,40.81270380,1656.75
-104.73297908,40.81270349,1656.83
-104.73285091,40.81270320,1657.05
-104.73273187,40.81270292,1657.36
-104.73259433,40.81270260,1657.70
-104.73247161,40.81270232,1658.04
-104.73236680,40.81270207,1658.26
-104.73185945,40.81270081,1658.99
-104.73173898,40.81270053,1659.11
-104.73145904,40.81269987,1659.38
-104.73133799,40.81269959,1659.53
-104.73107951,40.81269899,1659.91
-104.73067211,40.81269804,1659.31
-104.73039348,40.81269739,1657.96
-104.73027052,40.81269710,1657.29
-104.73012089,40.81269675,1656.51
-104.72954963,40.81269541,1652.86
-104.72940379,40.81269507,1651.94
-104.72901073,40.81269820,1649.75
-104.72862172,40.81269324,1647.41
-104.72819275,40.81269223,1646.28
-104.72818800,40.81269221,1646.27
-104.72818338,40.81269220,1646.26
-104.72817816,40.81269219,1646.26
-104.72817342,40.81269218,1646.24
-104.72816820,40.81269217,1646.23
-104.72816334,40.81269216,1646.24
-104.72815883,40.81269215,1646.21
-104.72815350,40.81269213,1646.21
-104.72814840,40.81269212,1646.23
-104.72814366,40.81269211,1646.22
-104.72813868,40.81269210,1646.21
-104.72813346,40.81269209,1646.23
-104.72812824,40.81269207,1646.22
-104.72812350,40.81269206,1646.22
-104.72811876,40.81269205,1646.20
-104.72811414,40.81269204,1646.22
-104.72810927,40.81269203,1646.21
-104.72810418,40.81269202,1646.21
-104.72809931,40.81269201,1646.20
-104.72809433,40.81269199,1646.20
-104.72808947,40.81269198,1646.20
-104.72797434,40.81269171,1646.04
-104.72796913,40.81269170,1646.04
-104.72742644,40.81269042,1645.30
-104.72742146,40.81269041,1645.30
-104.72741660,40.81269040,1645.28
-104.72729210,40.81269082,1644.93
-104.72729176,40.81274478,1645.17
-104.72729137,40.81281271,1645.31
-104.72729133,40.81282162,1645.35
-104.72729125,40.81284171,1645.43
-104.72729108,40.81288378,1645.56
-104.72729053,40.81301756,1645.89
-104.72728946,40.81327934,1646.35
-104.72728894,40.81340447,1646.34
-104.72728728,40.81381129,1645.96
-104.72728718,40.81383597,1645.88
-104.72728671,40.81395110,1645.67
-104.72728649,40.81400344,1645.51
-104.72728585,40.81416019,1644.97
-104.72728563,40.81421298,1644.86
-104.72728526,40.81430468,1644.55
-104.72728427,40.81454593,1643.66
-104.72728417,40.81457124,1643.58
-104.72728403,40.81460403,1643.45
-104.72728398,40.81461583,1643.41
-104.72728396,40.81462142,1643.37
-104.72728388,40.81464160,1643.29
-104.72728334,40.81477357,1642.69
-104.72728308,40.81483681,1642.45
-104.72728293,40.81487212,1642.26
-104.72728232,40.81502319,1641.55
-104.72728180,40.81514814,1640.92
-104.72728127,40.81527759,1640.48
-104.72728026,40.81552469,1639.44
-104.72727997,40.81559568,1639.05
-104.72727989,40.81561586,1638.98
-104.72727950,40.81570964,1638.71
-104.72727910,40.81580864,1638.52
-104.72727903,40.81582530,1638.53
-104.72727846,40.81596511,1638.57
-104.72727787,40.81610988,1638.74
-104.72727781,40.81612438,1638.74
-104.72727772,40.81614609,1638.75
-104.72727738,40.81622816,1638.97
-104.72727655,40.81646094,1639.93
-104.72727517,40.81676713,1641.85
-104.72727495,40.81682073,1642.21
-104.72727491,40.81683254,1642.28
-104.72727456,40.81691830,1642.76
-104.72727441,40.81695352,1642.94
-104.72727425,40.81699316,1643.21
-104.72727354,40.81716585,1644.38
-104.72727334,40.81721539,1644.72
-104.72727288,40.81732611,1645.49
-104.72727280,40.81734692,1645.57
-104.72727165,40.81762834,1646.98
-104.72727121,40.81773491,1647.34
-104.72727095,40.81779923,1647.54
-104.72727053,40.81790202,1647.74
-104.72727012,40.81800138,1647.78
     </coordinates>
    </LineString>
   </MultiGeometry>
  </Placemark>
 </Document>
</kml>
