<kml>
 <Document>
  <Style id="yellow">
   <LineStyle>
   <color>ff00ffff</color>
   <width>1</width>
   </LineStyle>
  </Style>
  <Style id="red">
   <LineStyle>
   <color>ffff0000</color>
   <width>2</width>
   </LineStyle>
  </Style>
  <Style id="green">
   <LineStyle>
   <color>ff00ff00</color>
   <width>1</width>
   </LineStyle>
  </Style>
  <Placemark>
  <styleUrl>#yellow</styleUrl>
   <MultiGeometry>
    <LineString>
     <coordinates>
-104.77467354,40.82623045,1660.19
-104.77467250,40.82653710,1660.67
-104.77467141,40.82685879,1660.60
-104.77467043,40.82714913,1660.79
-104.77466991,40.82730101,1660.85
-104.77466969,40.82736650,1660.94
-104.77466860,40.82768837,1662.10
-104.77466818,40.82781359,1662.53
-104.77466788,40.82790079,1662.82
-104.77466742,40.82803664,1663.03
-104.77466741,40.82804078,1663.02
-104.77466640,40.82833797,1662.70
-104.77466587,40.82849670,1662.14
-104.77466475,40.82886127,1661.52
-104.77466333,40.82924431,1661.19
-104.77466326,40.82926656,1661.15
-104.77466281,40.82940034,1661.16
-104.77466194,40.82965690,1661.29
-104.77466085,40.82997931,1661.52
-104.77465995,40.83024425,1661.90
-104.77465958,40.83035343,1662.19
-104.77465831,40.83072881,1663.08
-104.77465834,40.83078908,1663.19
-104.77466054,40.83080476,1663.19
-104.77466148,40.83080854,1663.22
-104.77472184,40.83080938,1663.31
-104.77477735,40.83080949,1663.44
-104.77522234,40.83081036,1663.73
-104.77555892,40.83081101,1663.64
-104.77604080,40.83081195,1663.72
-104.77620494,40.83081227,1663.88
-104.77673461,40.83081329,1665.45
-104.77673947,40.83081294,1665.48
-104.77674505,40.83081250,1665.51
-104.77676569,40.83081083,1665.61
-104.77679226,40.83080863,1665.79
-104.77679713,40.83080819,1665.83
-104.77679954,40.83079711,1665.85
-104.77679991,40.83079099,1665.87
-104.77679993,40.83078585,1665.89
-104.77679983,40.83074433,1665.98
-104.77679973,40.83073964,1665.99
-104.77679705,40.83065604,1666.07
-104.77679426,40.83060234,1666.15
-104.77677879,40.83036962,1666.44
-104.77677834,40.83036304,1666.44
-104.77677500,40.83033214,1666.54
-104.77676451,40.83024392,1666.66
-104.77676301,40.83023140,1666.63
-104.77671998,40.82979954,1666.16
-104.77670146,40.82948709,1665.66
-104.77669730,40.82938528,1665.38
-104.77668942,40.82915123,1664.54
-104.77668729,40.82907898,1664.32
-104.77668111,40.82887285,1663.72
-104.77667848,40.82877330,1663.45
-104.77667597,40.82867231,1663.18
-104.77667534,40.82864853,1663.13
-104.77666946,40.82852618,1662.85
-104.77666644,40.82847113,1662.71
-104.77665831,40.82806790,1661.39
-104.77667484,40.82763084,1659.35
-104.77668220,40.82748735,1658.37
-104.77668459,40.82744654,1657.96
-104.77669340,40.82725909,1656.29
-104.77669793,40.82714595,1655.52
-104.77669926,40.82710281,1655.23
-104.77670374,40.82686427,1654.30
-104.77670533,40.82670870,1653.87
-104.77670614,40.82653699,1653.56
-104.77670846,40.82616414,1652.07
-104.77670843,40.82613621,1652.25
-104.77670462,40.82592946,1652.71
-104.77670292,40.82590522,1652.69
-104.77670213,40.82589441,1652.67
-104.77668415,40.82552584,1652.69
-104.77668657,40.82537027,1652.98
-104.77668813,40.82529496,1652.90
-104.77668913,40.82524361,1652.75
-104.77669041,40.82518137,1652.68
-104.77669301,40.82507804,1652.63
-104.77669567,40.82499175,1652.49
-104.77669587,40.82496733,1652.49
-104.77669616,40.82488058,1652.69
-104.77669617,40.82487572,1652.68
-104.77669665,40.82476996,1652.92
-104.77669647,40.82468222,1653.20
-104.77669581,40.82462951,1653.35
-104.77669451,40.82452393,1653.53
-104.77669245,40.82446564,1653.75
-104.77668711,40.82432501,1654.09
-104.77668456,40.82427348,1654.19
-104.77667871,40.82417816,1654.48
-104.77667224,40.82409184,1654.80
-104.77666550,40.82401571,1655.05
-104.77665953,40.82395813,1655.22
-104.77664934,40.82388424,1655.47
-104.77664294,40.82384765,1655.54
-104.77663991,40.82383161,1655.58
-104.77662792,40.82376457,1655.77
-104.77658448,40.82334991,1657.25
-104.77658170,40.82326036,1657.66
-104.77658092,40.82321135,1657.72
-104.77658017,40.82311586,1657.73
-104.77657962,40.82306676,1657.73
-104.77657935,40.82304145,1657.82
-104.77657856,40.82292380,1657.63
-104.77657877,40.82286110,1657.42
-104.77657928,40.82278002,1656.66
-104.77657930,40.82270444,1656.16
-104.77657816,40.82265399,1656.07
-104.77657311,40.82253264,1656.17
-104.77656456,40.82239695,1656.94
-104.77655108,40.82220919,1658.25
-104.77652570,40.82181979,1660.69
-104.77652028,40.82180825,1660.75
-104.77625253,40.82180395,1659.24
-104.77624708,40.82180394,1659.20
-104.77572057,40.82180292,1656.15
-104.77571570,40.82180291,1656.11
-104.77569993,40.82180297,1656.01
-104.77561313,40.82180343,1655.56
-104.77558692,40.82180356,1655.46
-104.77556178,40.82180369,1655.31
-104.77553640,40.82180382,1655.19
-104.77548493,40.82180408,1654.99
-104.77542789,40.82180433,1654.80
-104.77541307,40.82180439,1654.75
-104.77537204,40.82180458,1654.61
-104.77533136,40.82180477,1654.53
-104.77475624,40.82180104,1652.10
-104.77475102,40.82180103,1652.09
-104.77474616,40.82180102,1652.08
-104.77470015,40.82180120,1651.97
-104.77469054,40.82180127,1651.91
-104.77468969,40.82180784,1651.92
-104.77468882,40.82181874,1651.88
-104.77468843,40.82183099,1651.85
-104.77468760,40.82207485,1650.83
-104.77468688,40.82228826,1650.53
-104.77468555,40.82267941,1649.82
-104.77468461,40.82299227,1649.86
-104.77468397,40.82314713,1649.50
-104.77468350,40.82328631,1649.43
-104.77468303,40.82342441,1650.35
-104.77468302,40.82342936,1650.39
-104.77468283,40.82348585,1650.72
-104.77468278,40.82349990,1650.80
-104.77468238,40.82361827,1651.77
-104.77468183,40.82377898,1652.66
-104.77468180,40.82378988,1652.86
-104.77468171,40.82381573,1653.21
-104.77468118,40.82397086,1654.73
-104.77468087,40.82406275,1655.96
-104.77467974,40.82439714,1658.75
-104.77467928,40.82453443,1659.00
-104.77467812,40.82487675,1659.67
-104.77467749,40.82506268,1659.53
-104.77467744,40.82507602,1659.52
-104.77467711,40.82517511,1659.57
-104.77467620,40.82544248,1659.69
-104.77467603,40.82549437,1659.63
-104.77467476,40.82586993,1659.84
-104.77467469,40.82588993,1659.87
-104.77467434,40.82599208,1659.96
-104.77467418,40.82604073,1659.98
-104.77467354,40.82623045,1660.19
     </coordinates>
    </LineString>
   </MultiGeometry>
  </Placemark>
 </Document>
</kml>
