<kml>
 <Document>
  <Style id="yellow">
   <LineStyle>
   <color>ff00ffff</color>
   <width>1</width>
   </LineStyle>
  </Style>
  <Style id="red">
   <LineStyle>
   <color>ffff0000</color>
   <width>2</width>
   </LineStyle>
  </Style>
  <Style id="green">
   <LineStyle>
   <color>ff00ff00</color>
   <width>1</width>
   </LineStyle>
  </Style>
  <Placemark>
  <styleUrl>#yellow</styleUrl>
   <MultiGeometry>
    <LineString>
     <coordinates>
-104.74310737,40.81272631,1653.91
-104.74311235,40.81272632,1653.90
-104.74343545,40.81272704,1653.66
-104.74373056,40.81272769,1653.55
-104.74401619,40.81272833,1653.43
-104.74435541,40.81272908,1652.75
-104.74471906,40.81272988,1652.15
-104.74496983,40.81273044,1651.79
-104.74497469,40.81273045,1651.78
-104.74531474,40.81273120,1651.35
-104.74532008,40.81273121,1651.34
-104.74560239,40.81273184,1651.04
-104.74589834,40.81273249,1650.82
-104.74614911,40.81273304,1650.97
-104.74615456,40.81273305,1650.95
-104.74629483,40.81273336,1651.11
-104.74629992,40.81273337,1651.11
-104.74630490,40.81273338,1651.10
-104.74630965,40.81273339,1651.06
-104.74631439,40.81273340,1651.08
-104.74631937,40.81273341,1651.06
-104.74632423,40.81273342,1651.07
-104.74632921,40.81273344,1651.08
-104.74633384,40.81273345,1651.08
-104.74637806,40.81273345,1651.09
-104.74642110,40.81273346,1651.08
-104.74647031,40.81273348,1651.07
-104.74705461,40.81273503,1651.05
-104.74705971,40.81273504,1651.03
-104.74707524,40.81273498,1651.05
-104.74710180,40.81273486,1651.03
-104.74714508,40.81273469,1651.03
-104.74773210,40.81273651,1651.25
-104.74773708,40.81273652,1651.26
-104.74774218,40.81273653,1651.27
-104.74776803,40.81273641,1651.29
-104.74779388,40.81273629,1651.30
-104.74783550,40.81273611,1651.31
-104.74787700,40.81273593,1651.31
-104.74790261,40.81273580,1651.30
-104.74794411,40.81273562,1651.30
-104.74798502,40.81273544,1651.37
-104.74801086,40.81273532,1651.41
-104.74803707,40.81273520,1651.40
-104.74861318,40.81273843,1651.78
-104.74861852,40.81273845,1651.79
-104.74862362,40.81273846,1651.84
-104.74862907,40.81273847,1651.83
-104.74863381,40.81273848,1651.78
-104.74863915,40.81273849,1651.77
-104.74864437,40.81273850,1651.80
-104.74868954,40.81273860,1651.81
-104.74869476,40.81273861,1651.82
-104.74886680,40.81273845,1651.79
-104.74890225,40.81273843,1651.80
-104.74949118,40.81274034,1651.06
-104.74949604,40.81274035,1651.08
-104.74950066,40.81274036,1651.05
-104.74954015,40.81274018,1651.01
-104.75009658,40.81274166,1650.75
-104.75010168,40.81274167,1650.74
-104.75010678,40.81274168,1650.76
-104.75011247,40.81274169,1650.73
-104.75011757,40.81274170,1650.71
-104.75012314,40.81274171,1650.70
-104.75012836,40.81274173,1650.69
-104.75019476,40.81274187,1650.66
-104.75019950,40.81274188,1650.69
-104.75020424,40.81274189,1650.69
-104.75035969,40.81274160,1650.62
-104.75089383,40.81274338,1650.18
-104.75089846,40.81274339,1650.15
-104.75091304,40.81274333,1650.13
-104.75092739,40.81274327,1650.10
-104.75095241,40.81274315,1650.04
-104.75100055,40.81274289,1649.96
-104.75100341,40.81273794,1649.93
-104.75100530,40.81270768,1649.90
-104.75100698,40.81228996,1649.34
-104.75100778,40.81207736,1649.11
-104.75100790,40.81204439,1649.09
-104.75100864,40.81184737,1648.93
-104.75100913,40.81171657,1648.66
-104.75100917,40.81170405,1648.63
-104.75100923,40.81168882,1648.63
-104.75100930,40.81167071,1648.57
-104.75101094,40.81123155,1648.67
-104.75101168,40.81103310,1648.52
-104.75101238,40.81084761,1648.23
-104.75101391,40.81043593,1648.08
-104.75101497,40.81015396,1648.13
-104.75101513,40.81011207,1648.13
-104.75101647,40.80975363,1649.28
-104.75101662,40.80971192,1649.52
-104.75101748,40.80948130,1651.08
-104.75101786,40.80938059,1651.64
-104.75101799,40.80934527,1651.74
-104.75101851,40.80920717,1651.80
-104.75101945,40.80895440,1650.10
-104.75101982,40.80885485,1649.21
-104.75102009,40.80878477,1648.60
-104.75102040,40.80870081,1648.02
-104.75102057,40.80865496,1647.75
-104.75102076,40.80860577,1647.49
-104.75102081,40.80859000,1647.41
-104.75102093,40.80856028,1647.21
-104.75102093,40.80855785,1647.23
-104.75102099,40.80851199,1647.03
-104.75102191,40.80820147,1646.34
-104.75102283,40.80805175,1645.89
-104.75102305,40.80799211,1645.82
-104.75102401,40.80773375,1645.66
-104.75102438,40.80763574,1645.30
-104.75102495,40.80748224,1644.17
-104.75102513,40.80743431,1643.83
-104.75102564,40.80729900,1643.17
-104.75102726,40.80686543,1643.32
-104.75102784,40.80671102,1643.72
-104.75102892,40.80635663,1645.15
-104.75102971,40.80617943,1645.73
-104.75103036,40.80603620,1646.02
-104.75103071,40.80594125,1646.22
-104.75103145,40.80571225,1646.39
-104.75103307,40.80531201,1646.51
-104.75103473,40.80486573,1648.57
-104.75103564,40.80462241,1646.42
-104.75103568,40.80461196,1646.32
-104.75103649,40.80439693,1644.65
-104.75103809,40.80396768,1643.57
-104.75103812,40.80395813,1643.61
-104.75103827,40.80391993,1643.62
-104.75103842,40.80387840,1643.60
-104.75103873,40.80376480,1643.84
-104.75103820,40.80374859,1643.92
-104.75103727,40.80374363,1643.97
-104.75103574,40.80373966,1643.97
-104.75102046,40.80373522,1643.98
-104.75078798,40.80373472,1643.82
-104.75078300,40.80373470,1643.84
-104.75052966,40.80373416,1643.92
-104.75052492,40.80373415,1643.92
-104.75022937,40.80373351,1644.11
-104.75022380,40.80373350,1644.14
-104.75022297,40.80373349,1644.13
-104.74997531,40.80373296,1644.32
-104.74977603,40.80373253,1644.53
-104.74975718,40.80373248,1644.54
-104.74975149,40.80373247,1644.56
-104.74950608,40.80373194,1644.93
-104.74930040,40.80373149,1645.30
-104.74923650,40.80373135,1645.46
-104.74923175,40.80373134,1645.44
-104.74903199,40.80373091,1647.08
-104.74887942,40.80373058,1647.25
-104.74887456,40.80373057,1647.24
-104.74885429,40.80373052,1647.19
-104.74839928,40.80372953,1647.45
-104.74839336,40.80372952,1647.47
-104.74819976,40.80372910,1648.05
-104.74801352,40.80372869,1648.34
-104.74799455,40.80372865,1648.39
-104.74798957,40.80372864,1648.40
-104.74779941,40.80372822,1648.64
-104.74762704,40.80372784,1649.00
-104.74759408,40.80372777,1649.05
-104.74739479,40.80372734,1649.31
-104.74724649,40.80372701,1649.75
-104.74724020,40.80372700,1649.80
-104.74704957,40.80372658,1650.54
-104.74688846,40.80372623,1651.35
-104.74688360,40.80372622,1651.36
-104.74686309,40.80372617,1651.50
-104.74649522,40.80372536,1652.87
-104.74616363,40.80372463,1652.88
-104.74595771,40.80372418,1653.03
-104.74589014,40.80372403,1653.19
-104.74588516,40.80372402,1653.19
-104.74556767,40.80372332,1652.65
-104.74533069,40.80372280,1651.96
-104.74501973,40.80372211,1652.39
-104.74488102,40.80372181,1652.84
-104.74478701,40.80372160,1653.22
-104.74459022,40.80372116,1654.01
-104.74450569,40.80372098,1654.32
-104.74426586,40.80372044,1654.73
-104.74400587,40.80371987,1653.51
-104.74383552,40.80371949,1652.78
-104.74379461,40.80371940,1652.65
-104.74373901,40.80371928,1652.43
-104.74370167,40.80371919,1652.25
-104.74363255,40.80371904,1651.98
-104.74352894,40.80371881,1651.56
-104.74342153,40.80371857,1651.17
-104.74318692,40.80371805,1650.37
-104.74309077,40.80371783,1650.14
-104.74283944,40.80371727,1649.30
-104.74274223,40.80371706,1649.04
-104.74268556,40.80371693,1648.92
-104.74267537,40.80371691,1648.90
-104.74231426,40.80371610,1648.16
-104.74224823,40.80371595,1648.08
-104.74211367,40.80371565,1647.99
-104.74193715,40.80371526,1647.95
-104.74160070,40.80371451,1647.89
-104.74141007,40.80371408,1647.99
-104.74138398,40.80371402,1647.94
-104.74102691,40.80371322,1647.44
-104.74088630,40.80371290,1647.11
-104.74080806,40.80371273,1646.95
-104.74069959,40.80371249,1646.79
-104.74063901,40.80371235,1646.72
-104.74057890,40.80371221,1646.73
-104.74036776,40.80371174,1646.46
-104.74024138,40.80371145,1646.28
-104.74014180,40.80371123,1646.18
-104.74003925,40.80371100,1646.04
-104.73995710,40.80371081,1646.06
-104.73972391,40.80371029,1646.17
-104.73954371,40.80370988,1646.49
-104.73950138,40.80370979,1646.62
-104.73947720,40.80370973,1646.68
-104.73932948,40.80370940,1647.11
-104.73919054,40.80370917,1647.40
-104.73918544,40.80370952,1647.44
-104.73918386,40.80371988,1647.46
-104.73918361,40.80378429,1647.61
-104.73918216,40.80415382,1648.52
-104.73918206,40.80417859,1648.58
-104.73918180,40.80424696,1648.63
-104.73918135,40.80436029,1648.68
-104.73918116,40.80441092,1648.72
-104.73918091,40.80447416,1648.76
-104.73918051,40.80457631,1648.81
-104.73918050,40.80457712,1648.81
-104.73917925,40.80489827,1649.12
-104.73917923,40.80490377,1649.15
-104.73917894,40.80497557,1649.26
-104.73917885,40.80500034,1649.33
-104.73917791,40.80523870,1649.61
-104.73917783,40.80525915,1649.66
-104.73917741,40.80536843,1649.70
-104.73917735,40.80538230,1649.72
-104.73917577,40.80578543,1650.51
-104.73917502,40.80597740,1650.84
-104.73917432,40.80615685,1650.48
-104.73917386,40.80627332,1650.22
-104.73917365,40.80632747,1650.03
-104.73917302,40.80648845,1649.60
-104.73917293,40.80651160,1649.53
-104.73917278,40.80654907,1649.45
-104.73917274,40.80656087,1649.44
-104.73917135,40.80691473,1649.22
-104.73917079,40.80705931,1649.27
-104.73917022,40.80720534,1649.30
-104.73916962,40.80735623,1649.39
-104.73916900,40.80751631,1649.57
-104.73916894,40.80753199,1649.63
-104.73916832,40.80768900,1649.89
-104.73916674,40.80809321,1652.04
-104.73916619,40.80823455,1652.69
-104.73916611,40.80825482,1652.76
-104.73916527,40.80846724,1653.84
-104.73916383,40.80883596,1656.00
-104.73916361,40.80889253,1656.35
-104.73916358,40.80889884,1656.40
-104.73916332,40.80896658,1656.84
-104.73916309,40.80902532,1657.29
-104.73916284,40.80908846,1657.57
-104.73916248,40.80917981,1657.81
-104.73916235,40.80921332,1657.79
-104.73916203,40.80929692,1657.54
-104.73916143,40.80944808,1656.74
-104.73916106,40.80954285,1656.25
-104.73916088,40.80958915,1656.06
-104.73915965,40.80990463,1655.04
-104.73915961,40.80991292,1655.01
-104.73915953,40.80993472,1654.96
-104.73915928,40.80999706,1654.93
-104.73915868,40.81015065,1654.73
-104.73915754,40.81044315,1654.14
-104.73915734,40.81049297,1654.03
-104.73915730,40.81050441,1653.98
-104.73915725,40.81051612,1654.00
-104.73915661,40.81068116,1653.89
-104.73915657,40.81068926,1653.90
-104.73915540,40.81098988,1653.26
-104.73915506,40.81107618,1652.98
-104.73915505,40.81107888,1652.99
-104.73915495,40.81110410,1652.89
-104.73915429,40.81127157,1652.34
-104.73915424,40.81128571,1652.29
-104.73915411,40.81131715,1652.20
-104.73915366,40.81143372,1651.88
-104.73915305,40.81158768,1651.58
-104.73915228,40.81178559,1651.51
-104.73915226,40.81179109,1651.51
-104.73915157,40.81196657,1651.51
-104.73915111,40.81208368,1651.52
-104.73915105,40.81210053,1651.50
-104.73915081,40.81216115,1651.41
-104.73915040,40.81226646,1651.34
-104.73915021,40.81231457,1651.46
-104.73915002,40.81236267,1651.39
-104.73914981,40.81241717,1651.43
-104.73914965,40.81245645,1651.31
-104.73914924,40.81256131,1651.31
-104.73914912,40.81259257,1651.31
-104.73914864,40.81271373,1651.32
-104.73925771,40.81271767,1651.33
-104.73964638,40.81271855,1651.44
-104.73990509,40.81271913,1651.63
-104.74005449,40.81271947,1651.82
-104.74020815,40.81271982,1652.01
-104.74024028,40.81271989,1652.05
-104.74046746,40.81272040,1652.33
-104.74057417,40.81272064,1652.47
-104.74059812,40.81272069,1652.55
-104.74086110,40.81272128,1653.06
-104.74087106,40.81272131,1653.03
-104.74110251,40.81272183,1653.22
-104.74118954,40.81272202,1653.31
-104.74127348,40.81272221,1653.45
-104.74140806,40.81272251,1653.61
-104.74150599,40.81272273,1653.72
-104.74156457,40.81272286,1653.81
-104.74180763,40.81272341,1653.93
-104.74217590,40.81272423,1653.82
-104.74240936,40.81272475,1653.88
-104.74277680,40.81272557,1654.01
-104.74288185,40.81272580,1654.00
-104.74288719,40.81272582,1653.99
-104.74289229,40.81272583,1653.99
-104.74289750,40.81272584,1653.99
-104.74290284,40.81272585,1653.99
-104.74290794,40.81272586,1653.99
-104.74291339,40.81272587,1653.98
-104.74291849,40.81272589,1653.97
-104.74292347,40.81272590,1653.99
-104.74292845,40.81272591,1653.97
-104.74293355,40.81272592,1653.97
-104.74293912,40.81272593,1653.96
-104.74294458,40.81272594,1653.98
-104.74310737,40.81272631,1653.91
     </coordinates>
    </LineString>
   </MultiGeometry>
  </Placemark>
 </Document>
</kml>
