<kml>
 <Document>
  <Style id="yellow">
   <LineStyle>
   <color>ff00ffff</color>
   <width>1</width>
   </LineStyle>
  </Style>
  <Style id="red">
   <LineStyle>
   <color>ffff0000</color>
   <width>2</width>
   </LineStyle>
  </Style>
  <Style id="green">
   <LineStyle>
   <color>ff00ff00</color>
   <width>1</width>
   </LineStyle>
  </Style>
  <Placemark>
  <styleUrl>#yellow</styleUrl>
   <MultiGeometry>
    <LineString>
     <coordinates>
-104.74338710,40.82173544,1643.09
-104.74355596,40.82173582,1643.11
-104.74389262,40.82173647,1643.22
-104.74415351,40.82173714,1643.38
-104.74415872,40.82173716,1643.38
-104.74416347,40.82173717,1643.40
-104.74449693,40.82173781,1643.60
-104.74493474,40.82173887,1643.89
-104.74493984,40.82173888,1643.90
-104.74494470,40.82173890,1643.91
-104.74494980,40.82173891,1643.89
-104.74498336,40.82173898,1643.95
-104.74542069,40.82173995,1645.42
-104.74556952,40.82174028,1646.07
-104.74587855,40.82174096,1647.48
-104.74595657,40.82174113,1647.79
-104.74596227,40.82174114,1647.82
-104.74596760,40.82174115,1647.87
-104.74597294,40.82174116,1647.87
-104.74617583,40.82174161,1648.80
-104.74632323,40.82174194,1649.40
-104.74663926,40.82174263,1650.55
-104.74694129,40.82174329,1651.40
-104.74694746,40.82174331,1651.40
-104.74698469,40.82174339,1651.58
-104.74722388,40.82174391,1652.44
-104.74724368,40.82174396,1652.53
-104.74738776,40.82174427,1652.86
-104.74742073,40.82174434,1652.94
-104.74749959,40.82174451,1653.07
-104.74758947,40.82174471,1653.19
-104.74771529,40.82174499,1653.22
-104.74783423,40.82174525,1653.03
-104.74785593,40.82174529,1653.02
-104.74793431,40.82174547,1652.86
-104.74798376,40.82174557,1652.82
-104.74809903,40.82174583,1652.69
-104.74817231,40.82174599,1652.66
-104.74832208,40.82174631,1652.76
-104.74840343,40.82174649,1652.87
-104.74843545,40.82174656,1652.87
-104.74850636,40.82174671,1653.01
-104.74858653,40.82174689,1653.21
-104.74874317,40.82174723,1653.41
-104.74887480,40.82174752,1653.59
-104.74893635,40.82174765,1653.66
-104.74900809,40.82174781,1653.81
-104.74954966,40.82174898,1654.80
-104.74975458,40.82174943,1655.26
-104.74998902,40.82174994,1655.76
-104.75003645,40.82175004,1655.89
-104.75010807,40.82175019,1656.04
-104.75020342,40.82175040,1656.23
-104.75035485,40.82175073,1656.34
-104.75047829,40.82175100,1656.39
-104.75048991,40.82175102,1656.41
-104.75096615,40.82175196,1656.30
-104.75097020,40.82174683,1656.32
-104.75097112,40.82172260,1656.31
-104.75097155,40.82170269,1656.30
-104.75097190,40.82167189,1656.30
-104.75097264,40.82147361,1656.09
-104.75097293,40.82139695,1655.99
-104.75097300,40.82137758,1655.93
-104.75097452,40.82094085,1655.38
-104.75097483,40.82085680,1655.22
-104.75097636,40.82047881,1654.47
-104.75097640,40.82046899,1654.47
-104.75097773,40.82011361,1654.38
-104.75097860,40.81988011,1654.02
-104.75097887,40.81977813,1653.98
-104.75097928,40.81963517,1653.98
-104.75098070,40.81931942,1654.89
-104.75098154,40.81909394,1655.07
-104.75098185,40.81901296,1654.83
-104.75098228,40.81889675,1654.57
-104.75098272,40.81878045,1654.28
-104.75098276,40.81876919,1654.26
-104.75098288,40.81873676,1654.23
-104.75098348,40.81857722,1653.97
-104.75098503,40.81816166,1653.98
-104.75098525,40.81810247,1654.00
-104.75098635,40.81780871,1653.56
-104.75098666,40.81772547,1653.56
-104.75098741,40.81752413,1653.62
-104.75098747,40.81750999,1653.65
-104.75098755,40.81748657,1653.63
-104.75098757,40.81748116,1653.62
-104.75098778,40.81742612,1653.63
-104.75098921,40.81701317,1652.57
-104.75099082,40.81661329,1651.79
-104.75099182,40.81628133,1651.53
-104.75099284,40.81604026,1651.31
-104.75099362,40.81586379,1650.97
-104.75099408,40.81574181,1650.68
-104.75099457,40.81561038,1650.48
-104.75099480,40.81554966,1650.34
-104.75099582,40.81527599,1650.17
-104.75099627,40.81515608,1650.15
-104.75099733,40.81487169,1650.06
-104.75099760,40.81479926,1650.02
-104.75099764,40.81479025,1650.04
-104.75099843,40.81457801,1649.90
-104.75099858,40.81453819,1649.84
-104.75099875,40.81449162,1649.79
-104.75100000,40.81415939,1649.68
-104.75100142,40.81377824,1649.93
-104.75100185,40.81363068,1649.98
-104.75100300,40.81332521,1650.05
-104.75100378,40.81314792,1650.22
-104.75100504,40.81277929,1650.03
-104.75100454,40.81275308,1649.99
-104.75100254,40.81274794,1649.98
-104.75088909,40.81274346,1650.18
-104.75088435,40.81274345,1650.21
-104.75087937,40.81274344,1650.22
-104.75085447,40.81274357,1650.22
-104.75081605,40.81274375,1650.31
-104.75079151,40.81274388,1650.35
-104.75076684,40.81274401,1650.35
-104.75019013,40.81274195,1650.69
-104.75018539,40.81274194,1650.73
-104.75009101,40.81274173,1650.76
-104.75008544,40.81274172,1650.76
-104.75008022,40.81274171,1650.76
-104.75007465,40.81274170,1650.76
-104.75006908,40.81274169,1650.76
-104.75006350,40.81274168,1650.79
-104.74948643,40.81274042,1651.07
-104.74948181,40.81274041,1651.08
-104.74947659,40.81274040,1651.08
-104.74945134,40.81274053,1651.13
-104.74941268,40.81274071,1651.25
-104.74937284,40.81274090,1651.32
-104.74933407,40.81274108,1651.40
-104.74929411,40.81274127,1651.48
-104.74925475,40.81274145,1651.56
-104.74868444,40.81273868,1651.82
-104.74867911,40.81273867,1651.80
-104.74867424,40.81273866,1651.82
-104.74860844,40.81273851,1651.78
-104.74860358,40.81273850,1651.79
-104.74859872,40.81273849,1651.77
-104.74859386,40.81273848,1651.76
-104.74858864,40.81273847,1651.78
-104.74858390,40.81273846,1651.77
-104.74857856,40.81273845,1651.76
-104.74854311,40.81273846,1651.75
-104.74850849,40.81273848,1651.73
-104.74847315,40.81273849,1651.71
-104.74843806,40.81273850,1651.69
-104.74840320,40.81273852,1651.67
-104.74836822,40.81273853,1651.66
-104.74833300,40.81273854,1651.63
-104.74829814,40.81273856,1651.62
-104.74772677,40.81273659,1651.29
-104.74772120,40.81273658,1651.25
-104.74771586,40.81273657,1651.28
-104.74769001,40.81273669,1651.23
-104.74764851,40.81273687,1651.22
-104.74762183,40.81273699,1651.22
-104.74704903,40.81273511,1651.02
-104.74704334,40.81273509,1651.01
-104.74703777,40.81273508,1651.02
-104.74699473,40.81273526,1651.00
-104.74696841,40.81273538,1651.03
-104.74694090,40.81273550,1651.00
-104.74689845,40.81273568,1651.01
-104.74687118,40.81273580,1650.98
-104.74629008,40.81273344,1651.05
-104.74628498,40.81273343,1651.01
-104.74628000,40.81273342,1651.08
-104.74627479,40.81273341,1651.10
-104.74627016,40.81273340,1651.09
-104.74626542,40.81273339,1651.06
-104.74626091,40.81273338,1651.05
-104.74625617,40.81273337,1651.05
-104.74625107,40.81273335,1651.05
-104.74589335,40.81273257,1650.83
-104.74588802,40.81273255,1650.85
-104.74559729,40.81273191,1651.02
-104.74530976,40.81273128,1651.34
-104.74496438,40.81273052,1651.82
-104.74471408,40.81272996,1652.15
-104.74470922,40.81272995,1652.18
-104.74435031,40.81272916,1652.76
-104.74401109,40.81272841,1653.44
-104.74372546,40.81272777,1653.54
-104.74343070,40.81272712,1653.66
-104.74310251,40.81272639,1653.90
-104.74287628,40.81272588,1653.99
-104.74287130,40.81272587,1654.01
-104.74286573,40.81272586,1654.01
-104.74286027,40.81272585,1654.01
-104.74285458,40.81272583,1653.99
-104.74284984,40.81272582,1654.01
-104.74284462,40.81272581,1654.00
-104.74283964,40.81272580,1654.00
-104.74283443,40.81272579,1653.99
-104.74282909,40.81272578,1653.98
-104.74282387,40.81272577,1654.00
-104.74281842,40.81272575,1654.00
-104.74281332,40.81272574,1654.00
-104.74277194,40.81272565,1653.99
-104.74240486,40.81272483,1653.88
-104.74239976,40.81272482,1653.87
-104.74217116,40.81272431,1653.82
-104.74216618,40.81272430,1653.83
-104.74180253,40.81272348,1653.94
-104.74150137,40.81272281,1653.71
-104.74118444,40.81272210,1653.32
-104.74100374,40.81272169,1653.17
-104.74086585,40.81272138,1653.04
-104.74086110,40.81272137,1653.05
-104.74072451,40.81272107,1652.79
-104.74060298,40.81272079,1652.52
-104.74056943,40.81272072,1652.47
-104.74056480,40.81272071,1652.47
-104.74047232,40.81272050,1652.35
-104.74034237,40.81272021,1652.18
-104.74023554,40.81271997,1652.02
-104.74021301,40.81271992,1652.01
-104.74005959,40.81271957,1651.80
-104.73996011,40.81271935,1651.72
-104.73989987,40.81271921,1651.65
-104.73979862,40.81271898,1651.55
-104.73966594,40.81271868,1651.44
-104.73964104,40.81271863,1651.42
-104.73952947,40.81271838,1651.34
-104.73941197,40.81271811,1651.34
-104.73928558,40.81271782,1651.33
-104.73925238,40.81271775,1651.31
-104.73915100,40.81271806,1651.31
-104.73914934,40.81271905,1651.30
-104.73914854,40.81273941,1651.14
-104.73914845,40.81276256,1651.07
-104.73914770,40.81295462,1651.40
-104.73914761,40.81297813,1651.42
-104.73914740,40.81303209,1651.55
-104.73914724,40.81307353,1651.67
-104.73914623,40.81333090,1652.36
-104.73914604,40.81337801,1652.55
-104.73914593,40.81340747,1652.69
-104.73914584,40.81343107,1652.73
-104.73914577,40.81344837,1652.79
-104.73914546,40.81352575,1653.08
-104.73914446,40.81378222,1653.86
-104.73914386,40.81393573,1653.93
-104.73914290,40.81418040,1653.42
-104.73914238,40.81431444,1652.92
-104.73914183,40.81445290,1652.37
-104.73914157,40.81452010,1652.29
-104.73914132,40.81458406,1652.17
-104.73914117,40.81462325,1652.16
-104.73914105,40.81465334,1652.11
-104.73914010,40.81489485,1652.18
-104.73913993,40.81493927,1652.19
-104.73913968,40.81500341,1652.20
-104.73913945,40.81506115,1651.85
-104.73913931,40.81509808,1651.58
-104.73913816,40.81538942,1650.56
-104.73913775,40.81549509,1650.39
-104.73913753,40.81555058,1650.30
-104.73913731,40.81560850,1650.25
-104.73913659,40.81579155,1650.16
-104.73913635,40.81585263,1650.16
-104.73913570,40.81601794,1650.18
-104.73913488,40.81622846,1650.14
-104.73913443,40.81634242,1650.14
-104.73913407,40.81643503,1650.16
-104.73913354,40.81657123,1650.18
-104.73913327,40.81663907,1650.20
-104.73913317,40.81666546,1650.22
-104.73913255,40.81682302,1650.28
-104.73913214,40.81692734,1650.57
-104.73913101,40.81721516,1652.36
-104.73913041,40.81737019,1652.99
-104.73913009,40.81744974,1653.13
-104.73912970,40.81754910,1653.21
-104.73912829,40.81791025,1652.46
-104.73912773,40.81805429,1651.93
-104.73912655,40.81835490,1650.36
-104.73912634,40.81840823,1650.06
-104.73912628,40.81842382,1649.99
-104.73912618,40.81844994,1649.81
-104.73912578,40.81854958,1649.31
-104.73912566,40.81858201,1649.18
-104.73912564,40.81858588,1649.17
-104.73912552,40.81861786,1649.11
-104.73912418,40.81895946,1648.22
-104.73912399,40.81900847,1648.09
-104.73912392,40.81902576,1648.04
-104.73912266,40.81934790,1647.27
-104.73912262,40.81935709,1647.26
-104.73912174,40.81958095,1646.78
-104.73912171,40.81959095,1646.78
-104.73912069,40.81985003,1646.42
-104.73912030,40.81994849,1646.36
-104.73912025,40.81996219,1646.35
-104.73911989,40.82005344,1646.31
-104.73911913,40.82024866,1646.15
-104.73911905,40.82026883,1646.16
-104.73911882,40.82032757,1646.11
-104.73911856,40.82039432,1646.11
-104.73911824,40.82047495,1646.03
-104.73911685,40.82083078,1646.73
-104.73911663,40.82088528,1646.92
-104.73911636,40.82095465,1647.26
-104.73911617,40.82100374,1647.52
-104.73911505,40.82128922,1648.78
-104.73911493,40.82131913,1648.89
-104.73911473,40.82137228,1649.12
-104.73911468,40.82138426,1649.18
-104.73911397,40.82156497,1649.94
-104.73911381,40.82160595,1650.12
-104.73911335,40.82172370,1650.76
-104.73911501,40.82172379,1650.74
-104.73911987,40.82172398,1650.67
-104.73915355,40.82172478,1650.53
-104.73918390,40.82172548,1650.40
-104.73921307,40.82172608,1650.27
-104.73942901,40.82172657,1649.37
-104.73943387,40.82172658,1649.37
-104.73943933,40.82172659,1649.32
-104.73981405,40.82172744,1647.92
-104.74000141,40.82172786,1647.24
-104.74019079,40.82172829,1646.54
-104.74024131,40.82172840,1646.39
-104.74024617,40.82172841,1646.36
-104.74037685,40.82172871,1645.98
-104.74055342,40.82172910,1645.40
-104.74088759,40.82172986,1644.65
-104.74089281,40.82172987,1644.65
-104.74089767,40.82172988,1644.64
-104.74090277,40.82172989,1644.64
-104.74146106,40.82173114,1643.65
-104.74161546,40.82173149,1643.29
-104.74178005,40.82173186,1642.96
-104.74178491,40.82173187,1642.97
-104.74178954,40.82173188,1642.97
-104.74228522,40.82173209,1642.57
-104.74240582,40.82173326,1642.60
-104.74247045,40.82173340,1642.64
-104.74247555,40.82173341,1642.64
-104.74248041,40.82173342,1642.66
-104.74272635,40.82173397,1642.77
-104.74289936,40.82173436,1642.89
-104.74324527,40.82173513,1643.11
-104.74328156,40.82173521,1643.11
-104.74328642,40.82173522,1643.10
-104.74329176,40.82173523,1643.11
-104.74338710,40.82173544,1643.09
     </coordinates>
    </LineString>
   </MultiGeometry>
  </Placemark>
 </Document>
</kml>
