<kml>
 <Document>
  <Style id="yellow">
   <LineStyle>
   <color>ff00ffff</color>
   <width>1</width>
   </LineStyle>
  </Style>
  <Style id="red">
   <LineStyle>
   <color>ffff0000</color>
   <width>2</width>
   </LineStyle>
  </Style>
  <Style id="green">
   <LineStyle>
   <color>ff00ff00</color>
   <width>1</width>
   </LineStyle>
  </Style>
  <Placemark>
  <styleUrl>#yellow</styleUrl>
   <MultiGeometry>
    <LineString>
     <coordinates>
-104.75159801,40.81274490,1649.36
-104.75172997,40.81274518,1649.27
-104.75191435,40.81274558,1649.27
-104.75201809,40.81274580,1649.28
-104.75214188,40.81274607,1649.27
-104.75226306,40.81274633,1649.37
-104.75226827,40.81274634,1649.39
-104.75240806,40.81274664,1649.60
-104.75260726,40.81274707,1649.93
-104.75291293,40.81274772,1650.29
-104.75298324,40.81274787,1650.30
-104.75301513,40.81274794,1650.36
-104.75301999,40.81274795,1650.34
-104.75302521,40.81274796,1650.34
-104.75340368,40.81274877,1650.09
-104.75349403,40.81274897,1650.03
-104.75351798,40.81274902,1650.05
-104.75352320,40.81274903,1650.04
-104.75352841,40.81274904,1650.01
-104.75359789,40.81274919,1649.94
-104.75390878,40.81274976,1649.87
-104.75421338,40.81275050,1649.66
-104.75421883,40.81275051,1649.65
-104.75459232,40.81275131,1649.39
-104.75470567,40.81275155,1649.29
-104.75479993,40.81275175,1649.20
-104.75483349,40.81275182,1649.18
-104.75483906,40.81275183,1649.14
-104.75510430,40.81275239,1648.82
-104.75521765,40.81275263,1648.65
-104.75531997,40.81275285,1648.55
-104.75541815,40.81275306,1648.41
-104.75552142,40.81275328,1648.23
-104.75557430,40.81275339,1648.10
-104.75562967,40.81275351,1648.06
-104.75583598,40.81275395,1647.66
-104.75641684,40.81275517,1644.62
-104.75652213,40.81275540,1643.67
-104.75663833,40.81275564,1642.86
-104.75673638,40.81275585,1642.18
-104.75675547,40.81275589,1642.10
-104.75703031,40.81275647,1640.71
-104.75710857,40.81275663,1640.44
-104.75721635,40.81275686,1640.07
-104.75734333,40.81275712,1639.64
-104.75759517,40.81275765,1638.63
-104.75761533,40.81275770,1638.53
-104.75770070,40.81275788,1638.03
-104.75789859,40.81275829,1636.86
-104.75808403,40.81275868,1636.05
-104.75822204,40.81275897,1635.68
-104.75831962,40.81275917,1635.54
-104.75851656,40.81275959,1635.53
-104.75870106,40.81275997,1635.87
-104.75877077,40.81276012,1635.88
-104.75911130,40.81276083,1635.79
-104.75934535,40.81276132,1635.08
-104.75966691,40.81276199,1634.59
-104.75989610,40.81276247,1636.72
-104.76017818,40.81276305,1637.07
-104.76049119,40.81276370,1637.25
-104.76056151,40.81276385,1637.28
-104.76077588,40.81276429,1637.40
-104.76104254,40.81276485,1637.50
-104.76133694,40.81276545,1637.51
-104.76133990,40.81276546,1637.50
-104.76134180,40.81276546,1637.48
-104.76160123,40.81276600,1637.21
-104.76192018,40.81276666,1636.91
-104.76210929,40.81276705,1636.99
-104.76217118,40.81276718,1636.92
-104.76246808,40.81276779,1637.25
-104.76271885,40.81276831,1638.33
-104.76278691,40.81276835,1638.65
-104.76279699,40.81276820,1638.70
-104.76281738,40.81276779,1638.80
-104.76283730,40.81276738,1638.92
-104.76285284,40.81276705,1638.94
-104.76285758,40.81276688,1639.08
-104.76286173,40.81276617,1639.05
-104.76286192,40.81274779,1639.07
-104.76286356,40.81235196,1640.79
-104.76286436,40.81206207,1640.61
-104.76286580,40.81172425,1639.37
-104.76286597,40.81167704,1639.24
-104.76286601,40.81166551,1639.21
-104.76286609,40.81164299,1639.08
-104.76286623,40.81160173,1638.86
-104.76286689,40.81141787,1638.58
-104.76286693,40.81140742,1638.52
-104.76286741,40.81127166,1638.32
-104.76286758,40.81122491,1638.22
-104.76286760,40.81121770,1638.20
-104.76286764,40.81120761,1638.20
-104.76286808,40.81108258,1638.18
-104.76286849,40.81096763,1638.12
-104.76286860,40.81093673,1638.06
-104.76286886,40.81086439,1638.06
-104.76286916,40.81077980,1638.00
-104.76286923,40.81075971,1638.01
-104.76286933,40.81073170,1637.99
-104.76286949,40.81068593,1638.06
-104.76287065,40.81036064,1637.93
-104.76287066,40.81035920,1637.92
-104.76287099,40.81026704,1637.90
-104.76287175,40.81005138,1638.15
-104.76287217,40.80993526,1638.26
-104.76287317,40.80965447,1638.06
-104.76287343,40.80957943,1637.97
-104.76287348,40.80956609,1637.99
-104.76287420,40.80936376,1637.34
-104.76287435,40.80932286,1637.25
-104.76287444,40.80929575,1637.16
-104.76287450,40.80928116,1637.08
-104.76287455,40.80926458,1637.02
-104.76287587,40.80889487,1635.83
-104.76287613,40.80882253,1635.58
-104.76287620,40.80880200,1635.49
-104.76287779,40.80835563,1634.98
-104.76287849,40.80815879,1635.11
-104.76287912,40.80798177,1635.08
-104.76287923,40.80795007,1635.04
-104.76287942,40.80789881,1634.99
-104.76288004,40.80772350,1634.70
-104.76288012,40.80770017,1634.67
-104.76288074,40.80752757,1634.29
-104.76288100,40.80745298,1634.17
-104.76288171,40.80725326,1633.74
-104.76288173,40.80724849,1633.72
-104.76288179,40.80723137,1633.69
-104.76288185,40.80721624,1633.65
-104.76288186,40.80721182,1633.65
-104.76288201,40.80716957,1633.58
-104.76288236,40.80707201,1633.44
-104.76288335,40.80679338,1633.37
-104.76288413,40.80657573,1633.43
-104.76288416,40.80656519,1633.44
-104.76288426,40.80653934,1633.35
-104.76288431,40.80652276,1633.34
-104.76288458,40.80644754,1633.36
-104.76288481,40.80638376,1633.31
-104.76288491,40.80635449,1633.30
-104.76288541,40.80621476,1633.25
-104.76288610,40.80602027,1632.98
-104.76288664,40.80586992,1632.66
-104.76288665,40.80586542,1632.66
-104.76288777,40.80555093,1631.94
-104.76288834,40.80539274,1631.71
-104.76288940,40.80509375,1631.35
-104.76289003,40.80491746,1631.18
-104.76289028,40.80484521,1631.09
-104.76289031,40.80483827,1631.09
-104.76289035,40.80482665,1631.09
-104.76289042,40.80480791,1631.08
-104.76289082,40.80469396,1631.06
-104.76289166,40.80445955,1630.89
-104.76289258,40.80416759,1630.50
-104.76289322,40.80395445,1630.43
-104.76289340,40.80380311,1630.30
-104.76289188,40.80376545,1630.29
-104.76278862,40.80376451,1630.33
-104.76251145,40.80376205,1630.34
-104.76214288,40.80375886,1629.95
-104.76212818,40.80375874,1629.88
-104.76210850,40.80375861,1629.72
-104.76210364,40.80375860,1629.68
-104.76209890,40.80375859,1629.66
-104.76209428,40.80375858,1629.55
-104.76208942,40.80375857,1629.47
-104.76149830,40.80376231,1629.63
-104.76122516,40.80376066,1630.04
-104.76118604,40.80376031,1630.03
-104.76116150,40.80376008,1630.10
-104.76110768,40.80375961,1630.10
-104.76108302,40.80375937,1630.09
-104.76101509,40.80375878,1630.00
-104.76098593,40.80375854,1629.93
-104.76091752,40.80375795,1629.85
-104.76083987,40.80375725,1629.86
-104.76076187,40.80375655,1629.88
-104.76068434,40.80375585,1629.95
-104.76066999,40.80375573,1629.95
-104.76065553,40.80375561,1629.95
-104.76065055,40.80375560,1629.95
-104.76012156,40.80375873,1630.35
-104.76004319,40.80375848,1630.55
-104.76003810,40.80375847,1630.54
-104.76003252,40.80375846,1630.55
-104.76002755,40.80375845,1630.56
-104.76002209,40.80375843,1630.58
-104.76001699,40.80375842,1630.60
-104.76001178,40.80375841,1630.59
-104.76000644,40.80375840,1630.62
-104.76000099,40.80375839,1630.64
-104.75999601,40.80375838,1630.64
-104.75999068,40.80375837,1630.71
-104.75998510,40.80375836,1630.68
-104.75997953,40.80375835,1630.69
-104.75987983,40.80375805,1630.83
-104.75953141,40.80375597,1631.12
-104.75926207,40.80375271,1631.27
-104.75915182,40.80375248,1631.44
-104.75914731,40.80375247,1631.44
-104.75914221,40.80375246,1631.47
-104.75912123,40.80375241,1631.55
-104.75895063,40.80375206,1632.33
-104.75882592,40.80375180,1633.06
-104.75867026,40.80375147,1633.90
-104.75851507,40.80375115,1634.67
-104.75837696,40.80375086,1635.44
-104.75823328,40.80375056,1636.76
-104.75796333,40.80374999,1638.92
-104.75795871,40.80374998,1638.96
-104.75766458,40.80374936,1639.49
-104.75750987,40.80374904,1639.55
-104.75721930,40.80374843,1639.93
-104.75696074,40.80374788,1640.28
-104.75658671,40.80374709,1640.55
-104.75658173,40.80374708,1640.56
-104.75657687,40.80374707,1640.58
-104.75655114,40.80374702,1640.64
-104.75600000,40.80374585,1640.49
-104.75559692,40.80374509,1640.62
-104.75520570,40.80374417,1640.85
-104.75478271,40.80374327,1640.66
-104.75440275,40.80374247,1640.80
-104.75429522,40.80374224,1640.87
-104.75428977,40.80374223,1640.89
-104.75399979,40.80374161,1641.31
-104.75392214,40.80374144,1641.32
-104.75351811,40.80374058,1642.04
-104.75337289,40.80374027,1642.29
-104.75318202,40.80373986,1642.48
-104.75287248,40.80373920,1643.76
-104.75273520,40.80373890,1644.43
-104.75251078,40.80373842,1645.59
-104.75236211,40.80373810,1646.20
-104.75217871,40.80373771,1646.62
-104.75193023,40.80373718,1646.45
-104.75184997,40.80373700,1646.23
-104.75159283,40.80373645,1645.31
-104.75158833,40.80373644,1645.31
-104.75158347,40.80373643,1645.29
-104.75132135,40.80373587,1644.50
-104.75121370,40.80373581,1644.30
-104.75104060,40.80373958,1643.99
-104.75103961,40.80375183,1643.95
-104.75103874,40.80385804,1643.62
-104.75103784,40.80406533,1643.62
-104.75103702,40.80428477,1643.82
-104.75103627,40.80448755,1645.27
-104.75103498,40.80483141,1648.43
-104.75103403,40.80508454,1647.91
-104.75103304,40.80538164,1646.30
-104.75103145,40.80577513,1646.37
-104.75103071,40.80597521,1646.12
-104.75102960,40.80627078,1645.51
-104.75102879,40.80648842,1644.65
-104.75102779,40.80675498,1643.61
-104.75102715,40.80692668,1643.09
-104.75102659,40.80707550,1643.03
-104.75102559,40.80734287,1643.31
-104.75102542,40.80739089,1643.54
-104.75102533,40.80741314,1643.70
-104.75102465,40.80759439,1644.99
-104.75102406,40.80775384,1645.74
-104.75102325,40.80800238,1645.83
-104.75102198,40.80830966,1646.55
-104.75102190,40.80833011,1646.56
-104.75102178,40.80836407,1646.59
-104.75102097,40.80857965,1647.34
-104.75102094,40.80858874,1647.39
-104.75102090,40.80859901,1647.45
-104.75102088,40.80860451,1647.47
-104.75102085,40.80861199,1647.52
-104.75102082,40.80862099,1647.55
-104.75102081,40.80862280,1647.56
-104.75102063,40.80867009,1647.85
-104.75102059,40.80868072,1647.92
-104.75102009,40.80881531,1648.87
-104.75101955,40.80895962,1650.13
-104.75101869,40.80919042,1651.78
-104.75101785,40.80950986,1650.85
-104.75101666,40.80973291,1649.40
-104.75101618,40.80986245,1648.75
-104.75101545,40.81005712,1648.23
-104.75101478,40.81023693,1648.11
-104.75101462,40.81027765,1648.10
-104.75101372,40.81051980,1648.07
-104.75101316,40.81066871,1648.09
-104.75101245,40.81086050,1648.24
-104.75101088,40.81127957,1648.59
-104.75101070,40.81132722,1648.51
-104.75101045,40.81139596,1648.48
-104.75100981,40.81156532,1648.49
-104.75100976,40.81157982,1648.48
-104.75100912,40.81175035,1648.72
-104.75100901,40.81177936,1648.77
-104.75100901,40.81178080,1648.76
-104.75100818,40.81200259,1649.07
-104.75100743,40.81220158,1649.19
-104.75100659,40.81242634,1649.12
-104.75100550,40.81271795,1649.93
-104.75100565,40.81274281,1649.94
-104.75112042,40.81274378,1649.77
-104.75158840,40.81274488,1649.37
-104.75159327,40.81274489,1649.36
-104.75159801,40.81274490,1649.36
     </coordinates>
    </LineString>
   </MultiGeometry>
  </Placemark>
 </Document>
</kml>
