<kml>
 <Document>
  <Style id="yellow">
   <LineStyle>
   <color>ff00ffff</color>
   <width>1</width>
   </LineStyle>
  </Style>
  <Style id="red">
   <LineStyle>
   <color>ffff0000</color>
   <width>2</width>
   </LineStyle>
  </Style>
  <Style id="green">
   <LineStyle>
   <color>ff00ff00</color>
   <width>1</width>
   </LineStyle>
  </Style>
  <Placemark>
  <styleUrl>#yellow</styleUrl>
   <MultiGeometry>
    <LineString>
     <coordinates>
-104.76281412,40.82626613,1647.66
-104.76281402,40.82629613,1647.50
-104.76281371,40.82638261,1646.83
-104.76281353,40.82643189,1646.53
-104.76281338,40.82647513,1646.48
-104.76281335,40.82648486,1646.50
-104.76281314,40.82654251,1646.77
-104.76281217,40.82681412,1647.41
-104.76281215,40.82682132,1647.46
-104.76281158,40.82698032,1648.11
-104.76281050,40.82728237,1648.36
-104.76281050,40.82728282,1648.37
-104.76281027,40.82734732,1648.49
-104.76281021,40.82736444,1648.53
-104.76280964,40.82755704,1648.91
-104.76280836,40.82788360,1649.52
-104.76280795,40.82799899,1652.76
-104.76280708,40.82824285,1649.90
-104.76280644,40.82842419,1649.55
-104.76280643,40.82842554,1649.54
-104.76280630,40.82846374,1649.63
-104.76280628,40.82846887,1649.65
-104.76280612,40.82851338,1649.77
-104.76280610,40.82851734,1649.82
-104.76280597,40.82855545,1649.88
-104.76280551,40.82868337,1649.95
-104.76280545,40.82870219,1649.97
-104.76280540,40.82871480,1649.98
-104.76280531,40.82874084,1649.99
-104.76280520,40.82876976,1650.03
-104.76280500,40.82882813,1650.00
-104.76280491,40.82885218,1650.02
-104.76280485,40.82886966,1649.99
-104.76280439,40.82899812,1649.76
-104.76280418,40.82905658,1649.65
-104.76280405,40.82909343,1649.52
-104.76280400,40.82910901,1649.48
-104.76280325,40.82931945,1648.30
-104.76280303,40.82937963,1648.15
-104.76280283,40.82943737,1648.07
-104.76280264,40.82948881,1648.01
-104.76280237,40.82956403,1648.07
-104.76280232,40.82957826,1648.14
-104.76280229,40.82958637,1648.17
-104.76280212,40.82963475,1648.26
-104.76280210,40.82964195,1648.24
-104.76280149,40.82981122,1648.38
-104.76280060,40.83006084,1648.94
-104.76280056,40.83007409,1648.98
-104.76279984,40.83030758,1649.55
-104.76279821,40.83073359,1648.81
-104.76279814,40.83078530,1648.84
-104.76295979,40.83078581,1648.87
-104.76323447,40.83078638,1649.90
-104.76341854,40.83078676,1650.48
-104.76344439,40.83078681,1650.57
-104.76383577,40.83078761,1651.59
-104.76430922,40.83078858,1651.98
-104.76451666,40.83078900,1652.11
-104.76469633,40.83078937,1652.19
-104.76486309,40.83078971,1652.33
-104.76505403,40.83079010,1652.38
-104.76510361,40.83079020,1652.44
-104.76510835,40.83079021,1652.47
-104.76545241,40.83079091,1652.62
-104.76551029,40.83079103,1652.68
-104.76559437,40.83079120,1652.73
-104.76578947,40.83079159,1652.93
-104.76594128,40.83079190,1653.24
-104.76616342,40.83079235,1653.34
-104.76633551,40.83079270,1653.44
-104.76635116,40.83079273,1653.50
-104.76683375,40.83079371,1653.61
-104.76689554,40.83079383,1653.63
-104.76703050,40.83079411,1653.66
-104.76717769,40.83079440,1653.19
-104.76723212,40.83079451,1652.94
-104.76742497,40.83079490,1653.70
-104.76759824,40.83079525,1654.23
-104.76793673,40.83079593,1655.00
-104.76833831,40.83079674,1656.77
-104.76848561,40.83079704,1657.29
-104.76870312,40.83079747,1657.98
-104.76886537,40.83079780,1658.58
-104.76905584,40.83079818,1659.73
-104.76914064,40.83079835,1660.07
-104.76940654,40.83079888,1661.26
-104.76951304,40.83079909,1661.99
-104.76960484,40.83079928,1662.75
-104.76967185,40.83079941,1663.28
-104.76975593,40.83079958,1663.83
-104.76979555,40.83079966,1664.07
-104.76994842,40.83079996,1664.96
-104.77000037,40.83080007,1665.26
-104.77014767,40.83080036,1666.22
-104.77022192,40.83080051,1666.75
-104.77031098,40.83080068,1667.23
-104.77038558,40.83080083,1667.56
-104.77052316,40.83080111,1668.18
-104.77068825,40.83080143,1668.90
-104.77073747,40.83080153,1669.14
-104.77085749,40.83080177,1669.75
-104.77091774,40.83080189,1670.14
-104.77123393,40.83080252,1672.06
-104.77139238,40.83080283,1672.59
-104.77145310,40.83080295,1672.72
-104.77155700,40.83080316,1672.81
-104.77160301,40.83080325,1672.81
-104.77178542,40.83080361,1672.37
-104.77208358,40.83080420,1671.09
-104.77233644,40.83080470,1669.58
-104.77244780,40.83080492,1668.91
-104.77274952,40.83080551,1667.15
-104.77318467,40.83080637,1664.45
-104.77350109,40.83080699,1663.35
-104.77395830,40.83080780,1662.96
-104.77435632,40.83080867,1663.03
-104.77454643,40.83080895,1663.09
-104.77465661,40.83080898,1663.20
-104.77465800,40.83078385,1663.17
-104.77465864,40.83059720,1662.84
-104.77465866,40.83058999,1662.81
-104.77465954,40.83033100,1662.16
-104.77465977,40.83026317,1661.95
-104.77466001,40.83019002,1661.75
-104.77466014,40.83015398,1661.67
-104.77466150,40.82974968,1661.37
-104.77466252,40.82941610,1661.16
-104.77466334,40.82920639,1661.22
-104.77466352,40.82915522,1661.27
-104.77466440,40.82889442,1661.48
-104.77466489,40.82875020,1661.59
-104.77466548,40.82857480,1661.89
-104.77466549,40.82857201,1661.87
-104.77466557,40.82854922,1661.96
-104.77466631,40.82833041,1662.73
-104.77466634,40.82832032,1662.74
-104.77466647,40.82828383,1662.79
-104.77466721,40.82803015,1663.03
-104.77466810,40.82780233,1662.51
-104.77466834,40.82772990,1662.29
-104.77466866,40.82763685,1662.00
-104.77466897,40.82743911,1661.14
-104.77467039,40.82709066,1660.69
-104.77467087,40.82698202,1660.64
-104.77467228,40.82656673,1660.64
-104.77467264,40.82645908,1660.72
-104.77467293,40.82637575,1660.53
-104.77467303,40.82634422,1660.50
-104.77467367,40.82615595,1660.08
-104.77467389,40.82609136,1660.00
-104.77467417,40.82600821,1659.97
-104.77467448,40.82591776,1659.92
-104.77467457,40.82588858,1659.84
-104.77467501,40.82575913,1659.75
-104.77467507,40.82574129,1659.73
-104.77467569,40.82555806,1659.60
-104.77467584,40.82551599,1659.60
-104.77467599,40.82547032,1659.67
-104.77467630,40.82537870,1659.74
-104.77467632,40.82537356,1659.74
-104.77467691,40.82519907,1659.54
-104.77467754,40.82501341,1659.54
-104.77467786,40.82488224,1659.65
-104.77467947,40.82444236,1658.79
-104.77468024,40.82421490,1657.58
-104.77468065,40.82409473,1656.35
-104.77468131,40.82386303,1653.49
-104.77468240,40.82357737,1651.45
-104.77468297,40.82340792,1650.19
-104.77468428,40.82301957,1649.92
-104.77468447,40.82296453,1649.85
-104.77468515,40.82272968,1649.78
-104.77468634,40.82241321,1650.21
-104.77468669,40.82230961,1650.46
-104.77468686,40.82225907,1650.39
-104.77468715,40.82217259,1650.58
-104.77468730,40.82212962,1650.61
-104.77468751,40.82206792,1650.85
-104.77468781,40.82183667,1651.84
-104.77468568,40.82180126,1651.90
-104.77467074,40.82180132,1651.91
-104.77465580,40.82180138,1651.82
-104.77464050,40.82180144,1651.83
-104.77461038,40.82180156,1651.72
-104.77456531,40.82180175,1651.60
-104.77450009,40.82180198,1651.49
-104.77444519,40.82180223,1651.31
-104.77443024,40.82180229,1651.26
-104.77438494,40.82180247,1651.14
-104.77437024,40.82180254,1651.12
-104.77435530,40.82180260,1651.09
-104.77430525,40.82180277,1650.99
-104.77428996,40.82180283,1650.98
-104.77427513,40.82180289,1650.93
-104.77424478,40.82180301,1650.84
-104.77365507,40.82179888,1649.23
-104.77365009,40.82179887,1649.22
-104.77364522,40.82179886,1649.18
-104.77356115,40.82179915,1649.04
-104.77346189,40.82179949,1648.83
-104.77341315,40.82179967,1648.73
-104.77334923,40.82179990,1648.58
-104.77330453,40.82180009,1648.41
-104.77307376,40.82180098,1647.72
-104.77303913,40.82180110,1647.67
-104.77302395,40.82180116,1647.64
-104.77296051,40.82180139,1647.47
-104.77294035,40.82180144,1647.51
-104.77292102,40.82180149,1647.49
-104.77275381,40.82180152,1648.37
-104.77229182,40.82179620,1649.61
-104.77228672,40.82179619,1649.62
-104.77228198,40.82179618,1649.63
-104.77227676,40.82179617,1649.61
-104.77227214,40.82179616,1649.62
-104.77201410,40.82179565,1649.66
-104.77200924,40.82179564,1649.68
-104.77142853,40.82179476,1650.32
-104.77140801,40.82179454,1650.31
-104.77139794,40.82179443,1650.28
-104.77139319,40.82179442,1650.27
-104.77082423,40.82179329,1649.43
-104.77081948,40.82179328,1649.41
-104.77081450,40.82179327,1649.40
-104.77057330,40.82179280,1648.49
-104.77002425,40.82179296,1648.61
-104.76997113,40.82179232,1648.85
-104.76996141,40.82179221,1648.93
-104.76990769,40.82179156,1649.16
-104.76989844,40.82179145,1649.20
-104.76989381,40.82179144,1649.21
-104.76930136,40.82179179,1650.53
-104.76929223,40.82179168,1650.54
-104.76928275,40.82179157,1650.53
-104.76926330,40.82179135,1650.55
-104.76925381,40.82179125,1650.57
-104.76924444,40.82179114,1650.54
-104.76922559,40.82179092,1650.59
-104.76921634,40.82179081,1650.58
-104.76919701,40.82179059,1650.64
-104.76917804,40.82179037,1650.67
-104.76916855,40.82179026,1650.66
-104.76914994,40.82179005,1650.69
-104.76914045,40.82178994,1650.70
-104.76913535,40.82178993,1650.70
-104.76894455,40.82178955,1650.89
-104.76893945,40.82178953,1650.88
-104.76893399,40.82178952,1650.89
-104.76892890,40.82178951,1650.89
-104.76892368,40.82178950,1650.88
-104.76851836,40.82178869,1650.93
-104.76851373,40.82178868,1650.92
-104.76793801,40.82178752,1650.91
-104.76793291,40.82178751,1650.93
-104.76785559,40.82178736,1651.04
-104.76785061,40.82178735,1651.05
-104.76781385,40.82178728,1651.13
-104.76780839,40.82178726,1651.15
-104.76750755,40.82178666,1651.76
-104.76750257,40.82178665,1651.78
-104.76723160,40.82178610,1652.48
-104.76722615,40.82178609,1652.51
-104.76722140,40.82178608,1652.51
-104.76715096,40.82178594,1652.71
-104.76714646,40.82178593,1652.75
-104.76704519,40.82178573,1653.04
-104.76703985,40.82178571,1653.05
-104.76681964,40.82178527,1653.69
-104.76681430,40.82178526,1653.71
-104.76656599,40.82178476,1654.43
-104.76656113,40.82178475,1654.44
-104.76647029,40.82178456,1654.73
-104.76627985,40.82178418,1655.59
-104.76627498,40.82178417,1655.60
-104.76627024,40.82178416,1655.61
-104.76595623,40.82178352,1657.15
-104.76595149,40.82178351,1657.17
-104.76583207,40.82178327,1657.91
-104.76582733,40.82178326,1657.92
-104.76581642,40.82178324,1658.02
-104.76551462,40.82178263,1659.80
-104.76550941,40.82178261,1659.82
-104.76530995,40.82178221,1661.33
-104.76530497,40.82178220,1661.35
-104.76519456,40.82178197,1662.40
-104.76518994,40.82178196,1662.46
-104.76502451,40.82178163,1664.07
-104.76501989,40.82178162,1664.11
-104.76480786,40.82178119,1667.27
-104.76480288,40.82178118,1667.35
-104.76461931,40.82178080,1669.76
-104.76461398,40.82178079,1669.74
-104.76458919,40.82178074,1669.59
-104.76458480,40.82178073,1669.55
-104.76458018,40.82178072,1669.52
-104.76457544,40.82178071,1669.47
-104.76415767,40.82177986,1669.30
-104.76415304,40.82177985,1669.14
-104.76414818,40.82177984,1668.99
-104.76414367,40.82177983,1668.90
-104.76413893,40.82177982,1668.75
-104.76413442,40.82177981,1668.64
-104.76412992,40.82177980,1668.50
-104.76412505,40.82177979,1668.38
-104.76412019,40.82177978,1668.21
-104.76411569,40.82177977,1668.11
-104.76411071,40.82177976,1667.94
-104.76410584,40.82177975,1667.79
-104.76410098,40.82177974,1667.67
-104.76409659,40.82177973,1667.55
-104.76409197,40.82177973,1667.40
-104.76408746,40.82177972,1667.26
-104.76408296,40.82177971,1667.09
-104.76407810,40.82177970,1666.94
-104.76407359,40.82177969,1666.85
-104.76406861,40.82177968,1666.70
-104.76406422,40.82177967,1666.58
-104.76405960,40.82177966,1666.43
-104.76405485,40.82177965,1666.27
-104.76404975,40.82177964,1666.15
-104.76404537,40.82177963,1665.99
-104.76404039,40.82177962,1665.87
-104.76403564,40.82177961,1665.69
-104.76403066,40.82177960,1665.59
-104.76402604,40.82177959,1665.47
-104.76402153,40.82177958,1665.32
-104.76401702,40.82177957,1665.22
-104.76401252,40.82177956,1665.10
-104.76400766,40.82177955,1664.96
-104.76400315,40.82177954,1664.84
-104.76399829,40.82177953,1664.70
-104.76399366,40.82177952,1664.56
-104.76398904,40.82177951,1664.41
-104.76398418,40.82177950,1664.33
-104.76397931,40.82177949,1664.26
-104.76339375,40.82177830,1656.52
-104.76338900,40.82177829,1656.50
-104.76338402,40.82177828,1656.43
-104.76337892,40.82177826,1656.36
-104.76327659,40.82177805,1655.45
-104.76297325,40.82177743,1652.96
-104.76296827,40.82177742,1652.94
-104.76296352,40.82177741,1652.91
-104.76295878,40.82177740,1652.84
-104.76283201,40.82177948,1651.85
-104.76283046,40.82178173,1651.84
-104.76283023,40.82181335,1651.81
-104.76282954,40.82197370,1651.51
-104.76282881,40.82214396,1651.26
-104.76282866,40.82218702,1651.21
-104.76282815,40.82233026,1651.05
-104.76282809,40.82234674,1651.02
-104.76282799,40.82237359,1651.00
-104.76282791,40.82239674,1650.93
-104.76282731,40.82256610,1650.46
-104.76282727,40.82257547,1650.44
-104.76282601,40.82296454,1650.04
-104.76282505,40.82319912,1649.55
-104.76282486,40.82325200,1649.50
-104.76282472,40.82329227,1649.35
-104.76282431,40.82340613,1649.20
-104.76282389,40.82352487,1649.05
-104.76282376,40.82356162,1649.03
-104.76282288,40.82380935,1648.73
-104.76282218,40.82403853,1648.40
-104.76282124,40.82426851,1647.98
-104.76282122,40.82427401,1647.97
-104.76282119,40.82428401,1647.98
-104.76282090,40.82436526,1647.90
-104.76282073,40.82441220,1647.74
-104.76282059,40.82445039,1647.66
-104.76282056,40.82445904,1647.66
-104.76281977,40.82468254,1647.40
-104.76281929,40.82481740,1647.24
-104.76281918,40.82484766,1647.22
-104.76281911,40.82486640,1647.21
-104.76281906,40.82487982,1647.15
-104.76281904,40.82488541,1647.17
-104.76281822,40.82511603,1647.26
-104.76281813,40.82514314,1647.28
-104.76281759,40.82529430,1647.36
-104.76281698,40.82546402,1647.41
-104.76281634,40.82564590,1647.50
-104.76281620,40.82568473,1647.57
-104.76281584,40.82578562,1647.56
-104.76281582,40.82578941,1647.56
-104.76281557,40.82585994,1647.51
-104.76281536,40.82592048,1647.53
-104.76281432,40.82621082,1647.61
-104.76281412,40.82626613,1647.66
     </coordinates>
    </LineString>
   </MultiGeometry>
  </Placemark>
 </Document>
</kml>
