<kml>
 <Document>
  <Style id="yellow">
   <LineStyle>
   <color>ff00ffff</color>
   <width>1</width>
   </LineStyle>
  </Style>
  <Style id="red">
   <LineStyle>
   <color>ffff0000</color>
   <width>2</width>
   </LineStyle>
  </Style>
  <Style id="green">
   <LineStyle>
   <color>ff00ff00</color>
   <width>1</width>
   </LineStyle>
  </Style>
  <Placemark>
  <styleUrl>#yellow</styleUrl>
   <MultiGeometry>
    <LineString>
     <coordinates>
-104.74252943,40.83975051,1644.95
-104.74261068,40.83975069,1644.89
-104.74265516,40.83975079,1644.93
-104.74273843,40.83975098,1644.86
-104.74282632,40.83975117,1644.75
-104.74284471,40.83975122,1644.67
-104.74296071,40.83975147,1644.56
-104.74304434,40.83975166,1644.37
-104.74310637,40.83975180,1644.25
-104.74314196,40.83975188,1644.15
-104.74323887,40.83975209,1643.95
-104.74330102,40.83975223,1643.68
-104.74360361,40.83975291,1643.51
-104.74362235,40.83975295,1643.49
-104.74371594,40.83975315,1643.50
-104.74381487,40.83975337,1643.34
-104.74390430,40.83975357,1643.32
-104.74394831,40.83975367,1643.35
-104.74399267,40.83975377,1643.30
-104.74410251,40.83975401,1643.19
-104.74420689,40.83975424,1643.43
-104.74425315,40.83975435,1643.41
-104.74425778,40.83975436,1643.43
-104.74426691,40.83975438,1643.42
-104.74437248,40.83975461,1643.02
-104.74445338,40.83975479,1643.07
-104.74452988,40.83975496,1642.98
-104.74453498,40.83975497,1642.98
-104.74464601,40.83975522,1642.95
-104.74474707,40.83975544,1642.91
-104.74486343,40.83975570,1643.15
-104.74491562,40.83975581,1643.07
-104.74492072,40.83975583,1643.03
-104.74502783,40.83975606,1643.10
-104.74514004,40.83975631,1643.13
-104.74524787,40.83975655,1643.01
-104.74525273,40.83975656,1643.01
-104.74556184,40.83975724,1643.07
-104.74569944,40.83975754,1642.83
-104.74576385,40.83975769,1642.82
-104.74600831,40.83975823,1642.91
-104.74607782,40.83975838,1641.91
-104.74646273,40.83975922,1642.94
-104.74646783,40.83975924,1642.97
-104.74694075,40.83976027,1642.97
-104.74734179,40.83976115,1642.52
-104.74734642,40.83976116,1642.51
-104.74741095,40.83976130,1642.69
-104.74782729,40.83976221,1642.73
-104.74783215,40.83976223,1642.80
-104.74817412,40.83976297,1642.95
-104.74839593,40.83976346,1643.38
-104.74840103,40.83976347,1643.39
-104.74874028,40.83976421,1643.76
-104.74894216,40.83976465,1643.96
-104.74894702,40.83976466,1643.96
-104.74923704,40.83976529,1644.13
-104.74959929,40.83976608,1644.28
-104.74960439,40.83976609,1644.27
-104.74969252,40.83976628,1644.39
-104.74995858,40.83976685,1644.73
-104.75012488,40.83976721,1645.11
-104.75013034,40.83976723,1645.13
-104.75015963,40.83976729,1645.17
-104.75064240,40.83976833,1646.25
-104.75086694,40.83976882,1646.78
-104.75087157,40.83976874,1646.78
-104.75089553,40.83976816,1647.03
-104.75090016,40.83976799,1646.96
-104.75090208,40.83976214,1646.98
-104.75090373,40.83973232,1646.91
-104.75090401,40.83972188,1646.91
-104.75090496,40.83956324,1646.80
-104.75090504,40.83954099,1646.76
-104.75090662,40.83911993,1646.73
-104.75090700,40.83901661,1646.59
-104.75090719,40.83893400,1646.64
-104.75090840,40.83857925,1647.35
-104.75090897,40.83845899,1647.67
-104.75091055,40.83806874,1648.91
-104.75091219,40.83763075,1650.19
-104.75091243,40.83756752,1650.35
-104.75091281,40.83746428,1650.52
-104.75091345,40.83729330,1651.06
-104.75091484,40.83692296,1652.73
-104.75091491,40.83690432,1652.86
-104.75091494,40.83689603,1652.85
-104.75091505,40.83686774,1653.02
-104.75091541,40.83676955,1653.63
-104.75091552,40.83674090,1653.75
-104.75091654,40.83646894,1655.38
-104.75091680,40.83639876,1655.92
-104.75091733,40.83625706,1656.88
-104.75091787,40.83611374,1657.95
-104.75091833,40.83599023,1658.75
-104.75091854,40.83593555,1659.06
-104.75091984,40.83558747,1661.86
-104.75092033,40.83545513,1663.46
-104.75092057,40.83539226,1664.20
-104.75092120,40.83522416,1665.48
-104.75092155,40.83512966,1665.81
-104.75092179,40.83506480,1666.12
-104.75092269,40.83479419,1667.78
-104.75092365,40.83456835,1669.97
-104.75092413,40.83444079,1671.51
-104.75092461,40.83431116,1672.66
-104.75092525,40.83414099,1675.48
-104.75092534,40.83411810,1675.68
-104.75092594,40.83395658,1678.30
-104.75092615,40.83390181,1679.81
-104.75092744,40.83355508,1681.22
-104.75092881,40.83318934,1679.47
-104.75092913,40.83310493,1678.39
-104.75092954,40.83299512,1676.72
-104.75093049,40.83270964,1674.06
-104.75093182,40.83235480,1672.00
-104.75093233,40.83225066,1671.21
-104.75093363,40.83190185,1668.65
-104.75093491,40.83156080,1666.60
-104.75093617,40.83122415,1664.81
-104.75093751,40.83086435,1662.57
-104.75093776,40.83079832,1662.14
-104.75093774,40.83077337,1661.97
-104.75093623,40.83076490,1661.90
-104.75091180,40.83076412,1661.87
-104.75079131,40.83076035,1661.51
-104.75078657,40.83076025,1661.48
-104.75050762,40.83075965,1660.35
-104.75047785,40.83075958,1660.32
-104.75020555,40.83075899,1660.19
-104.74988462,40.83075839,1660.14
-104.74959511,40.83075767,1660.15
-104.74918405,40.83075678,1660.35
-104.74890842,40.83075618,1660.82
-104.74857515,40.83075545,1660.88
-104.74829917,40.83075485,1660.05
-104.74825150,40.83075475,1659.89
-104.74812602,40.83075447,1659.48
-104.74804122,40.83075429,1659.09
-104.74799994,40.83075420,1658.83
-104.74787008,40.83075391,1658.83
-104.74775515,40.83075366,1658.57
-104.74762493,40.83075338,1657.95
-104.74753918,40.83075319,1657.55
-104.74732013,40.83075271,1656.71
-104.74727625,40.83075262,1656.41
-104.74683767,40.83075165,1653.44
-104.74683316,40.83075164,1653.37
-104.74648922,40.83075089,1651.72
-104.74638485,40.83075066,1651.06
-104.74626945,40.83075041,1650.36
-104.74617434,40.83075020,1649.82
-104.74606997,40.83074997,1649.31
-104.74595505,40.83074971,1648.69
-104.74589705,40.83074959,1648.27
-104.74589195,40.83074957,1648.24
-104.74588661,40.83074956,1648.22
-104.74564455,40.83074903,1647.06
-104.74558466,40.83074890,1646.72
-104.74557920,40.83074889,1646.71
-104.74554991,40.83074882,1646.56
-104.74536300,40.83074841,1645.71
-104.74515711,40.83074795,1644.83
-104.74508156,40.83074779,1644.48
-104.74507622,40.83074777,1644.45
-104.74506116,40.83074774,1644.40
-104.74496402,40.83074753,1643.99
-104.74464962,40.83074683,1643.13
-104.74464428,40.83074682,1643.13
-104.74463965,40.83074681,1643.10
-104.74457751,40.83074667,1642.92
-104.74436676,40.83074620,1642.11
-104.74426808,40.83074599,1641.85
-104.74416917,40.83074577,1641.60
-104.74395035,40.83074528,1641.04
-104.74378574,40.83074492,1640.57
-104.74366974,40.83074466,1640.28
-104.74358400,40.83074447,1640.11
-104.74349469,40.83074427,1639.92
-104.74348983,40.83074426,1639.86
-104.74348485,40.83074425,1639.90
-104.74347999,40.83074424,1639.88
-104.74328809,40.83074381,1639.67
-104.74309798,40.83074339,1639.50
-104.74281832,40.83074276,1639.16
-104.74275748,40.83074263,1639.09
-104.74275249,40.83074262,1639.07
-104.74274739,40.83074261,1639.09
-104.74264042,40.83074237,1639.00
-104.74254067,40.83074223,1638.86
-104.74196879,40.83074087,1638.03
-104.74196369,40.83074086,1637.99
-104.74195894,40.83074084,1637.99
-104.74176527,40.83074041,1637.64
-104.74167620,40.83074021,1637.53
-104.74145608,40.83073972,1637.35
-104.74123216,40.83073922,1637.10
-104.74122718,40.83073921,1637.13
-104.74122232,40.83073919,1637.10
-104.74121722,40.83073918,1637.11
-104.74121259,40.83073917,1637.11
-104.74116005,40.83073906,1637.01
-104.74108723,40.83073889,1636.80
-104.74096259,40.83073861,1636.59
-104.74089107,40.83073845,1636.48
-104.74071981,40.83073807,1636.28
-104.74057654,40.83073774,1636.14
-104.74046743,40.83073750,1636.02
-104.74046269,40.83073749,1635.99
-104.74045735,40.83073748,1635.95
-104.74038726,40.83073732,1635.84
-104.73990942,40.83073624,1635.41
-104.73965502,40.83073567,1635.65
-104.73953370,40.83073539,1635.55
-104.73942885,40.83073516,1635.28
-104.73934370,40.83073497,1635.09
-104.73933836,40.83073495,1635.10
-104.73933338,40.83073494,1635.07
-104.73932840,40.83073493,1635.06
-104.73916805,40.83073457,1634.93
-104.73907862,40.83073545,1634.97
-104.73907804,40.83079310,1635.22
-104.73907703,40.83099129,1636.11
-104.73907618,40.83120641,1636.50
-104.73907562,40.83134946,1636.58
-104.73907487,40.83154161,1636.44
-104.73907443,40.83165340,1636.40
-104.73907386,40.83179943,1636.07
-104.73907325,40.83195536,1636.07
-104.73907218,40.83222733,1636.33
-104.73907178,40.83232948,1636.26
-104.73907154,40.83239227,1636.31
-104.73907152,40.83239750,1636.43
-104.73907112,40.83249947,1636.41
-104.73907109,40.83250551,1636.40
-104.73907083,40.83257244,1636.46
-104.73907078,40.83258613,1636.46
-104.73907029,40.83270883,1636.52
-104.73906966,40.83287206,1636.50
-104.73906963,40.83287882,1636.37
-104.73906951,40.83290818,1636.39
-104.73906941,40.83293350,1636.43
-104.73906928,40.83296827,1636.40
-104.73906906,40.83302286,1636.46
-104.73906892,40.83306052,1636.56
-104.73906890,40.83306502,1636.51
-104.73906851,40.83316294,1636.37
-104.73906838,40.83319609,1636.39
-104.73906821,40.83324050,1636.49
-104.73906809,40.83327122,1636.59
-104.73906772,40.83336491,1636.78
-104.73906644,40.83369120,1637.24
-104.73906640,40.83370327,1637.20
-104.73906618,40.83375840,1637.11
-104.73906595,40.83381641,1637.10
-104.73906497,40.83406748,1637.25
-104.73906376,40.83437556,1637.10
-104.73906308,40.83454780,1637.29
-104.73906260,40.83467122,1637.55
-104.73906189,40.83485175,1638.74
-104.73906154,40.83494084,1639.26
-104.73906141,40.83497588,1639.45
-104.73906127,40.83501012,1639.68
-104.73906121,40.83502633,1639.71
-104.73906101,40.83507687,1639.64
-104.73906072,40.83515182,1639.73
-104.73906070,40.83515695,1639.74
-104.73906036,40.83524190,1640.01
-104.73906031,40.83525659,1640.00
-104.73905997,40.83534108,1640.32
-104.73905986,40.83537000,1640.35
-104.73905977,40.83539225,1640.38
-104.73905963,40.83542883,1640.41
-104.73905955,40.83544973,1640.41
-104.73905886,40.83562485,1640.45
-104.73905879,40.83564215,1640.47
-104.73905869,40.83566926,1640.51
-104.73905857,40.83569818,1640.52
-104.73905801,40.83584159,1640.61
-104.73905770,40.83592204,1640.72
-104.73905686,40.83613500,1641.09
-104.73905629,40.83628111,1641.54
-104.73905623,40.83629607,1641.61
-104.73905621,40.83630138,1641.69
-104.73905608,40.83633561,1641.84
-104.73905604,40.83634426,1641.87
-104.73905599,40.83635831,1641.95
-104.73905559,40.83645957,1642.15
-104.73905455,40.83672423,1640.48
-104.73905410,40.83683855,1639.79
-104.73905406,40.83684819,1639.73
-104.73905372,40.83693602,1639.26
-104.73905350,40.83699323,1638.95
-104.73905326,40.83705313,1638.77
-104.73905291,40.83714222,1638.49
-104.73905240,40.83727384,1638.17
-104.73905233,40.83729122,1638.26
-104.73905212,40.83734482,1638.09
-104.73905136,40.83753904,1638.01
-104.73905091,40.83765399,1638.06
-104.73905075,40.83769471,1638.08
-104.73904980,40.83793532,1638.45
-104.73904947,40.83802108,1638.38
-104.73904912,40.83810964,1638.29
-104.73904882,40.83818486,1638.42
-104.73904866,40.83822693,1638.29
-104.73904848,40.83827206,1638.34
-104.73904805,40.83838313,1638.42
-104.73904762,40.83849249,1638.35
-104.73904709,40.83862663,1638.47
-104.73904643,40.83879500,1638.54
-104.73904547,40.83903894,1638.67
-104.73904479,40.83921244,1638.77
-104.73904470,40.83923578,1638.90
-104.73904444,40.83930289,1638.81
-104.73904339,40.83956918,1639.83
-104.73904325,40.83963665,1640.70
-104.73904321,40.83967629,1641.28
-104.73904346,40.83970430,1641.52
-104.73904373,40.83972656,1641.64
-104.73904486,40.83974115,1641.79
-104.73904972,40.83974134,1641.76
-104.73905944,40.83974164,1641.70
-104.73910060,40.83974281,1641.71
-104.73922004,40.83974308,1641.85
-104.73923072,40.83974310,1641.90
-104.73932265,40.83974331,1641.86
-104.73945609,40.83974361,1641.93
-104.73947910,40.83974366,1642.00
-104.73953794,40.83974380,1641.76
-104.73964481,40.83974404,1641.82
-104.73976591,40.83974431,1641.88
-104.73977659,40.83974434,1641.96
-104.74008985,40.83974504,1642.33
-104.74035971,40.83974565,1642.54
-104.74036267,40.83974566,1642.71
-104.74043420,40.83974582,1642.54
-104.74055708,40.83974609,1642.06
-104.74059516,40.83974618,1642.23
-104.74092147,40.83974691,1642.76
-104.74092859,40.83974693,1642.76
-104.74119358,40.83974752,1643.02
-104.74131006,40.83974778,1643.22
-104.74138882,40.83974796,1643.37
-104.74145145,40.83974810,1643.51
-104.74153981,40.83974830,1643.71
-104.74164716,40.83974854,1643.91
-104.74171264,40.83974869,1644.08
-104.74187490,40.83974905,1644.43
-104.74198629,40.83974930,1644.65
-104.74212210,40.83974960,1644.96
-104.74232114,40.83975005,1645.06
-104.74244651,40.83975033,1644.93
-104.74252943,40.83975051,1644.95
     </coordinates>
    </LineString>
   </MultiGeometry>
  </Placemark>
 </Document>
</kml>
