<kml>
 <Document>
  <Style id="yellow">
   <LineStyle>
   <color>ff00ffff</color>
   <width>1</width>
   </LineStyle>
  </Style>
  <Style id="red">
   <LineStyle>
   <color>ffff0000</color>
   <width>2</width>
   </LineStyle>
  </Style>
  <Style id="green">
   <LineStyle>
   <color>ff00ff00</color>
   <width>1</width>
   </LineStyle>
  </Style>
  <Placemark>
  <styleUrl>#yellow</styleUrl>
   <MultiGeometry>
    <LineString>
     <coordinates>
-118.99113549,37.07457549,2714.39
-118.99113683,37.07457586,2713.80
-118.99115318,37.07457630,2713.45
-118.99118582,37.07457595,2708.85
-118.99135169,37.07457316,2709.61
-118.99149977,37.07457067,2710.23
-118.99183067,37.07456511,2715.04
-118.99210092,37.07456058,2716.59
-118.99232680,37.07455677,2749.82
-118.99273137,37.07454998,2739.29
-118.99301974,37.07454513,2727.01
-118.99336370,37.07453933,2728.98
-118.99359599,37.07453544,2736.08
-118.99370662,37.07453359,2731.01
-118.99418944,37.07452547,2738.21
-118.99466167,37.07451752,2755.78
-118.99475255,37.07451599,2743.55
-118.99529801,37.07450681,2753.91
-118.99532568,37.07450635,2753.79
-118.99569283,37.07450016,2762.60
-118.99621448,37.07449139,2771.27
-118.99654208,37.07448585,2781.46
-118.99702822,37.07447768,2788.36
-118.99719360,37.07447488,2793.02
-118.99743515,37.07447079,2797.03
-118.99775986,37.07446532,2798.67
-118.99803148,37.07446078,2797.57
-118.99842380,37.07445416,2793.54
-118.99869977,37.07444952,2789.80
-118.99915286,37.07444188,2800.67
-118.99916273,37.07444171,2810.19
-118.99953222,37.07443548,2795.66
-119.00003647,37.07442698,2796.22
-119.00048519,37.07441940,2805.39
-119.00102224,37.07441033,2783.07
-119.00114561,37.07440826,2783.17
-119.00122131,37.07440698,2792.40
-119.00139894,37.07440399,2807.84
-119.00144735,37.07440317,2783.32
-119.00189586,37.07439560,2806.62
-119.00227050,37.07438925,2798.01
-119.00234756,37.07438766,2790.02
-119.00235415,37.07438739,2789.25
-119.00235819,37.07438714,2789.13
-119.00237089,37.07438627,2789.03
-119.00237521,37.07438596,2789.04
-119.00237774,37.07438370,2789.03
-119.00237367,37.07422406,2790.38
-119.00236515,37.07389929,2788.44
-119.00236331,37.07382959,2804.93
-119.00236269,37.07380608,2803.90
-119.00235266,37.07342453,2786.81
-119.00234836,37.07326140,2780.90
-119.00233973,37.07293264,2784.87
-119.00233631,37.07280251,2788.78
-119.00232987,37.07255781,2791.34
-119.00232836,37.07250036,2791.86
-119.00232769,37.07247475,2793.18
-119.00232123,37.07222911,2771.78
-119.00231769,37.07209470,2771.39
-119.00231062,37.07182793,2781.36
-119.00230563,37.07163700,2762.06
-119.00230355,37.07155727,2783.28
-119.00229976,37.07141282,2760.10
-119.00229374,37.07118432,2759.95
-119.00228281,37.07076834,2761.29
-119.00227348,37.07041377,2765.49
-119.00226462,37.07007681,2764.06
-119.00225843,37.06984175,2764.26
-119.00224763,37.06943086,2776.78
-119.00224133,37.06919150,2759.81
-119.00223457,37.06893814,2755.02
-119.00222915,37.06872838,2759.15
-119.00221866,37.06833081,2739.99
-119.00221475,37.06818122,2737.71
-119.00220475,37.06780116,2727.43
-119.00219951,37.06760067,2722.92
-119.00219049,37.06725923,2714.74
-119.00217871,37.06681012,2722.70
-119.00217185,37.06654972,2732.11
-119.00216371,37.06623976,2709.06
-119.00215844,37.06603875,2730.10
-119.00215130,37.06576769,2706.29
-119.00214316,37.06546428,2706.36
-119.00214084,37.06538598,2730.39
-119.00214054,37.06538073,2730.51
-119.00213417,37.06537904,2732.18
-119.00210355,37.06537941,2733.66
-119.00209580,37.06537951,2730.98
-119.00194146,37.06538203,2706.03
-119.00169555,37.06538618,2726.22
-119.00142688,37.06539072,2726.28
-119.00141068,37.06539099,2701.39
-119.00131033,37.06539269,2712.90
-119.00093715,37.06539902,2699.86
-119.00052526,37.06540593,2699.44
-119.00032388,37.06540935,2714.59
-118.99982027,37.06541787,2696.95
-118.99957155,37.06542209,2708.88
-118.99919984,37.06542836,2704.98
-118.99885405,37.06543412,2699.39
-118.99837352,37.06544222,2700.90
-118.99806070,37.06544749,2726.65
-118.99755039,37.06545609,2704.42
-118.99741904,37.06545830,2721.21
-118.99700877,37.06546524,2705.91
-118.99666297,37.06547103,2717.85
-118.99664852,37.06547128,2726.00
-118.99634540,37.06547638,2726.32
-118.99624115,37.06547813,2735.90
-118.99601877,37.06548189,2711.32
-118.99595145,37.06548303,2737.44
-118.99543851,37.06549164,2713.20
-118.99532956,37.06549351,2713.75
-118.99486558,37.06550130,2715.66
-118.99467458,37.06550452,2728.70
-118.99421032,37.06551232,2716.26
-118.99372891,37.06552041,2714.78
-118.99330798,37.06552749,2719.93
-118.99308634,37.06553122,2705.74
-118.99263111,37.06553886,2717.10
-118.99246245,37.06554169,2703.47
-118.99229271,37.06554454,2713.39
-118.99190551,37.06555108,2692.69
-118.99168381,37.06555477,2700.62
-118.99161182,37.06555598,2692.43
-118.99137073,37.06556003,2692.46
-118.99116005,37.06556357,2690.02
-118.99091434,37.06556770,2691.01
-118.99090284,37.06556796,2690.98
-118.99090057,37.06557493,2691.41
-118.99089978,37.06557908,2700.90
-118.99090037,37.06560675,2691.95
-118.99090230,37.06568152,2696.27
-118.99090738,37.06587543,2691.25
-118.99091502,37.06616896,2702.45
-118.99091710,37.06624835,2695.36
-118.99092418,37.06651906,2693.62
-118.99093413,37.06689976,2720.89
-118.99094567,37.06733992,2698.82
-118.99094843,37.06744653,2720.07
-118.99095680,37.06776677,2725.61
-118.99096791,37.06819163,2701.40
-118.99096987,37.06826677,2701.93
-118.99097184,37.06834205,2705.63
-118.99097258,37.06837034,2723.53
-118.99097258,37.06837040,2708.82
-118.99097820,37.06858516,2713.52
-118.99097885,37.06861016,2703.82
-118.99097911,37.06861986,2703.20
-118.99099053,37.06905639,2705.86
-118.99099592,37.06926268,2731.15
-118.99099631,37.06927777,2742.57
-118.99100616,37.06965431,2708.30
-118.99101123,37.06984840,2710.08
-118.99101841,37.07012242,2728.68
-118.99102302,37.07029917,2730.84
-118.99103256,37.07066384,2720.15
-118.99103323,37.07068962,2725.08
-118.99103434,37.07073183,2726.78
-118.99103913,37.07091524,2746.01
-118.99104621,37.07118578,2747.78
-118.99104805,37.07125627,2736.50
-118.99105377,37.07147432,2754.93
-118.99106039,37.07172805,2748.64
-118.99107146,37.07215118,2748.91
-118.99107238,37.07218656,2739.65
-118.99107529,37.07229788,2730.45
-118.99107549,37.07230538,2729.54
-118.99108535,37.07268239,2722.60
-118.99109551,37.07307106,2735.57
-118.99109602,37.07309024,2735.29
-118.99109644,37.07310649,2734.78
-118.99110091,37.07327726,2741.75
-118.99110721,37.07351813,2735.21
-118.99111328,37.07375012,2715.00
-118.99111550,37.07383518,2715.07
-118.99111635,37.07386762,2732.18
-118.99112248,37.07410215,2729.55
-118.99112294,37.07411970,2730.45
-118.99112830,37.07432468,2713.78
-118.99113326,37.07451408,2722.79
-118.99113341,37.07451989,2708.81
-118.99113448,37.07455719,2715.97
-118.99113489,37.07457048,2715.97
-118.99113549,37.07457549,2714.39
     </coordinates>
    </LineString>
   </MultiGeometry>
  </Placemark>
 </Document>
</kml>
