<kml>
 <Document>
  <Style id="yellow">
   <LineStyle>
   <color>ff00ffff</color>
   <width>1</width>
   </LineStyle>
  </Style>
  <Style id="red">
   <LineStyle>
   <color>ffff0000</color>
   <width>2</width>
   </LineStyle>
  </Style>
  <Style id="green">
   <LineStyle>
   <color>ff00ff00</color>
   <width>1</width>
   </LineStyle>
  </Style>
  <Placemark>
  <styleUrl>#yellow</styleUrl>
   <MultiGeometry>
    <LineString>
     <coordinates>
-119.02524235,37.07399906,2788.60
-119.02554789,37.07399388,2775.91
-119.02554882,37.07399387,2779.81
-119.02587647,37.07398827,2796.62
-119.02600778,37.07398603,2773.60
-119.02639609,37.07397934,2784.85
-119.02665544,37.07397494,2771.41
-119.02712716,37.07396689,2764.47
-119.02731024,37.07396375,2781.61
-119.02772940,37.07395657,2779.20
-119.02801600,37.07395168,2751.74
-119.02826189,37.07394748,2745.81
-119.02853643,37.07394278,2740.60
-119.02905914,37.07393383,2732.59
-119.02947367,37.07392675,2725.71
-119.02981859,37.07392084,2724.16
-119.03010656,37.07391591,2716.32
-119.03038470,37.07391114,2712.28
-119.03064660,37.07390665,2708.10
-119.03100740,37.07390048,2702.70
-119.03136672,37.07389433,2700.81
-119.03167205,37.07388907,2697.37
-119.03203801,37.07388279,2696.65
-119.03228317,37.07387863,2716.55
-119.03277761,37.07387015,2697.19
-119.03321055,37.07386272,2719.09
-119.03334022,37.07386050,2699.99
-119.03368584,37.07385455,2701.41
-119.03395484,37.07384996,2693.89
-119.03432487,37.07384361,2677.67
-119.03462121,37.07383852,2666.12
-119.03516523,37.07382910,2648.50
-119.03546913,37.07382393,2641.69
-119.03579013,37.07381846,2638.18
-119.03579136,37.07381844,2638.22
-119.03581471,37.07381804,2638.79
-119.03583121,37.07381775,2638.91
-119.03585331,37.07381737,2639.11
-119.03599027,37.07381495,2638.55
-119.03601956,37.07381435,2638.35
-119.03610622,37.07381161,2638.95
-119.03610643,37.07380890,2638.92
-119.03610610,37.07379415,2638.55
-119.03609943,37.07354134,2633.08
-119.03609396,37.07333704,2628.98
-119.03609193,37.07326129,2642.46
-119.03608829,37.07312636,2625.45
-119.03607683,37.07269657,2622.93
-119.03607146,37.07249619,2621.31
-119.03606347,37.07219739,2611.81
-119.03605216,37.07177419,2600.19
-119.03604365,37.07145626,2593.20
-119.03603374,37.07108532,2582.94
-119.03602369,37.07070997,2575.60
-119.03601484,37.07037849,2570.27
-119.03600405,37.06997548,2569.97
-119.03599685,37.06970600,2564.32
-119.03598805,37.06937738,2568.54
-119.03598455,37.06924627,2600.53
-119.03597782,37.06899676,2577.11
-119.03596680,37.06858251,2567.82
-119.03596287,37.06843608,2556.10
-119.03595297,37.06806600,2543.68
-119.03594230,37.06766591,2542.35
-119.03593051,37.06722668,2560.68
-119.03592511,37.06702560,2540.14
-119.03591505,37.06664840,2547.18
-119.03591340,37.06658635,2537.94
-119.03590558,37.06629243,2534.51
-119.03590023,37.06609429,2537.71
-119.03589350,37.06584077,2527.65
-119.03588168,37.06539914,2522.66
-119.03587146,37.06501733,2530.68
-119.03586802,37.06489035,2516.22
-119.03586567,37.06480676,2528.54
-119.03585812,37.06480555,2524.46
-119.03581239,37.06480548,2515.55
-119.03574935,37.06480642,2514.45
-119.03539878,37.06481247,2546.25
-119.03509569,37.06481763,2524.92
-119.03466283,37.06482506,2543.01
-119.03466089,37.06482510,2542.64
-119.03455445,37.06482692,2543.52
-119.03454077,37.06482716,2541.77
-119.03453784,37.06482721,2541.47
-119.03445451,37.06482864,2540.20
-119.03409653,37.06483478,2539.52
-119.03394260,37.06483743,2555.84
-119.03338492,37.06484699,2557.35
-119.03332757,37.06484797,2558.68
-119.03332229,37.06484806,2558.87
-119.03289716,37.06485536,2568.58
-119.03264184,37.06485974,2570.82
-119.03224993,37.06486645,2582.76
-119.03179955,37.06487420,2584.25
-119.03124553,37.06488366,2613.53
-119.03106812,37.06488669,2600.80
-119.03072669,37.06489255,2610.79
-119.03035215,37.06489897,2613.74
-119.02997107,37.06490549,2599.63
-119.02977121,37.06490892,2607.24
-119.02931299,37.06491683,2572.72
-119.02902473,37.06492171,2598.30
-119.02881490,37.06492528,2566.72
-119.02841509,37.06493213,2581.45
-119.02820082,37.06493578,2573.27
-119.02799273,37.06493933,2557.48
-119.02785533,37.06494168,2581.42
-119.02766859,37.06494487,2581.52
-119.02766243,37.06494498,2562.53
-119.02739326,37.06494963,2553.80
-119.02698661,37.06495655,2560.60
-119.02683297,37.06495918,2547.33
-119.02630493,37.06496820,2553.93
-119.02621981,37.06496964,2561.31
-119.02607093,37.06497218,2543.66
-119.02560524,37.06498015,2549.56
-119.02531053,37.06498518,2561.66
-119.02487787,37.06499256,2562.34
-119.02484887,37.06499306,2564.63
-119.02480608,37.06499380,2565.64
-119.02474817,37.06499483,2567.29
-119.02469540,37.06499579,2570.24
-119.02466279,37.06499644,2570.76
-119.02463157,37.06499727,2572.96
-119.02462469,37.06499969,2572.96
-119.02462546,37.06503915,2573.58
-119.02463527,37.06540800,2580.30
-119.02463999,37.06558542,2584.37
-119.02464743,37.06586492,2608.50
-119.02465701,37.06622553,2618.40
-119.02465926,37.06630959,2609.04
-119.02467086,37.06674576,2629.29
-119.02467171,37.06677802,2642.02
-119.02467932,37.06706455,2646.24
-119.02468466,37.06726553,2657.57
-119.02468771,37.06738004,2663.54
-119.02469581,37.06768473,2681.84
-119.02470279,37.06794720,2713.73
-119.02470326,37.06796505,2719.26
-119.02470433,37.06800516,2697.07
-119.02471135,37.06826746,2704.98
-119.02471717,37.06848755,2709.80
-119.02472148,37.06864961,2713.49
-119.02472865,37.06891909,2724.87
-119.02473224,37.06905316,2722.19
-119.02473978,37.06933519,2727.90
-119.02475005,37.06972422,2744.96
-119.02475164,37.06978415,2742.15
-119.02475826,37.07003336,2751.00
-119.02476499,37.07028620,2743.73
-119.02477130,37.07052291,2748.37
-119.02477908,37.07081588,2770.04
-119.02478021,37.07085853,2763.93
-119.02478291,37.07095991,2755.64
-119.02478708,37.07111631,2777.52
-119.02479869,37.07155332,2768.83
-119.02480346,37.07173283,2772.59
-119.02481249,37.07207219,2780.39
-119.02481767,37.07226694,2784.88
-119.02481926,37.07232633,2785.71
-119.02482455,37.07252449,2810.12
-119.02483142,37.07278406,2804.11
-119.02484259,37.07320400,2791.61
-119.02484423,37.07326558,2817.84
-119.02485137,37.07353372,2785.52
-119.02485879,37.07381243,2782.28
-119.02486158,37.07391752,2783.10
-119.02486224,37.07394211,2782.47
-119.02486377,37.07399839,2781.28
-119.02486408,37.07400545,2805.56
-119.02493216,37.07400436,2781.09
-119.02524235,37.07399906,2788.60
     </coordinates>
    </LineString>
   </MultiGeometry>
  </Placemark>
 </Document>
</kml>
