<kml>
 <Document>
  <Style id="yellow">
   <LineStyle>
   <color>ff00ffff</color>
   <width>1</width>
   </LineStyle>
  </Style>
  <Style id="red">
   <LineStyle>
   <color>ffff0000</color>
   <width>2</width>
   </LineStyle>
  </Style>
  <Style id="green">
   <LineStyle>
   <color>ff00ff00</color>
   <width>1</width>
   </LineStyle>
  </Style>
  <Placemark>
  <styleUrl>#yellow</styleUrl>
   <MultiGeometry>
    <LineString>
     <coordinates>
-118.97918068,37.04740995,2437.07
-118.97918154,37.04744295,2453.71
-118.97918383,37.04753071,2439.57
-118.97918776,37.04767803,2437.81
-118.97918875,37.04771269,2463.34
-118.97918947,37.04772815,2467.45
-118.97918983,37.04773147,2452.45
-118.97919058,37.04773643,2467.31
-118.97919356,37.04773746,2456.18
-118.97919924,37.04773777,2464.57
-118.97922725,37.04773748,2440.10
-118.97939937,37.04773472,2444.40
-118.97949794,37.04773310,2475.05
-118.97964815,37.04773060,2466.20
-118.97984541,37.04772731,2494.37
-118.98033964,37.04771905,2470.59
-118.98075886,37.04771203,2482.77
-118.98115592,37.04770541,2510.47
-118.98155914,37.04769868,2495.18
-118.98174558,37.04769557,2499.35
-118.98205076,37.04769047,2506.50
-118.98251783,37.04768266,2506.63
-118.98285261,37.04767707,2525.82
-118.98312390,37.04767253,2517.26
-118.98345990,37.04766691,2509.29
-118.98393356,37.04765898,2517.22
-118.98424220,37.04765382,2541.99
-118.98426611,37.04765342,2544.47
-118.98461168,37.04764764,2522.76
-118.98461666,37.04764756,2527.54
-118.98468133,37.04764648,2535.80
-118.98480794,37.04764436,2526.15
-118.98507795,37.04763984,2536.27
-118.98540511,37.04763436,2529.94
-118.98543494,37.04763386,2533.72
-118.98576583,37.04762830,2529.25
-118.98616964,37.04762150,2526.07
-118.98639289,37.04761781,2522.22
-118.98659224,37.04761447,2536.34
-118.98703388,37.04760707,2546.86
-118.98722127,37.04760394,2551.93
-118.98742474,37.04760053,2535.29
-118.98798107,37.04759120,2534.10
-118.98849745,37.04758252,2544.45
-118.98881281,37.04757719,2549.36
-118.98916882,37.04757128,2553.16
-118.98962465,37.04756365,2557.59
-118.98988670,37.04755915,2557.01
-118.99027342,37.04755276,2554.98
-118.99042702,37.04754989,2554.11
-118.99042771,37.04754869,2553.97
-118.99042811,37.04754194,2553.37
-118.99042720,37.04750346,2550.85
-118.99042718,37.04750275,2550.80
-118.99042627,37.04746784,2548.60
-118.99041597,37.04707411,2524.48
-118.99040882,37.04679939,2504.81
-118.99040695,37.04672802,2501.08
-118.99040086,37.04649464,2499.73
-118.99039646,37.04632656,2510.57
-118.99039247,37.04617429,2473.66
-118.99038747,37.04598348,2499.26
-118.99037912,37.04566252,2457.85
-118.99037568,37.04553098,2478.00
-118.99036415,37.04508920,2453.89
-118.99035760,37.04483851,2442.58
-118.99035584,37.04477168,2440.80
-118.99034517,37.04436251,2446.50
-118.99034446,37.04433541,2450.82
-118.99033973,37.04415473,2431.94
-118.99033161,37.04384587,2438.59
-118.99032297,37.04351271,2429.21
-118.99031643,37.04326420,2457.08
-118.99030655,37.04288495,2410.01
-118.99030393,37.04278366,2440.18
-118.99029763,37.04254269,2419.71
-118.99029244,37.04234441,2442.09
-118.99028968,37.04223897,2435.01
-118.99027831,37.04180248,2403.79
-118.99026713,37.04137502,2383.85
-118.99025949,37.04108230,2383.17
-118.99025079,37.04074902,2380.25
-118.99024012,37.04034090,2384.53
-118.99023554,37.04016508,2379.25
-118.99022698,37.03983659,2396.43
-118.99022093,37.03960610,2373.31
-118.99021409,37.03934324,2370.79
-118.99021280,37.03929367,2402.92
-118.99020600,37.03903399,2368.89
-118.99019494,37.03861056,2366.37
-118.99019432,37.03858828,2363.44
-118.99019212,37.03855552,2363.21
-118.99019081,37.03854525,2362.82
-118.99018499,37.03854304,2362.85
-118.99017148,37.03854190,2367.72
-118.99016611,37.03854185,2368.09
-118.99016056,37.03854186,2368.21
-118.99010101,37.03854282,2383.63
-118.98956138,37.03855186,2355.71
-118.98946023,37.03855355,2354.86
-118.98905783,37.03856030,2381.04
-118.98874929,37.03856548,2345.13
-118.98862655,37.03856753,2355.02
-118.98813642,37.03857575,2336.25
-118.98771493,37.03858286,2335.82
-118.98755175,37.03858556,2330.55
-118.98740297,37.03858804,2335.02
-118.98692421,37.03859607,2326.04
-118.98655342,37.03860228,2342.00
-118.98623815,37.03860756,2320.68
-118.98597043,37.03861204,2321.33
-118.98557404,37.03861868,2333.91
-118.98546423,37.03862052,2317.36
-118.98492575,37.03862953,2312.36
-118.98481803,37.03863133,2330.52
-118.98456585,37.03863555,2309.20
-118.98441625,37.03863808,2307.37
-118.98390183,37.03864666,2303.15
-118.98363290,37.03865117,2310.38
-118.98323625,37.03865780,2307.48
-118.98300925,37.03866158,2321.50
-118.98263174,37.03866790,2295.05
-118.98230684,37.03867333,2302.11
-118.98222811,37.03867464,2291.11
-118.98185895,37.03868082,2288.28
-118.98159983,37.03868514,2318.16
-118.98122052,37.03869149,2294.10
-118.98103411,37.03869460,2304.72
-118.98069120,37.03870033,2310.59
-118.98015912,37.03870920,2292.87
-118.97967871,37.03871723,2288.66
-118.97957258,37.03871899,2297.04
-118.97907467,37.03872730,2313.59
-118.97904669,37.03872783,2295.75
-118.97899112,37.03872911,2294.32
-118.97895799,37.03873042,2294.61
-118.97895581,37.03873071,2294.64
-118.97895702,37.03879613,2296.42
-118.97896650,37.03916196,2317.09
-118.97897167,37.03936147,2340.37
-118.97898303,37.03979905,2340.74
-118.97898566,37.03990007,2344.87
-118.97899696,37.04033551,2375.99
-118.97899978,37.04044378,2347.76
-118.97900458,37.04062497,2351.01
-118.97901590,37.04106505,2386.94
-118.97902286,37.04133254,2387.80
-118.97903012,37.04161253,2403.53
-118.97904009,37.04199648,2408.01
-118.97904541,37.04220125,2417.40
-118.97904924,37.04234898,2407.73
-118.97905852,37.04270582,2421.46
-118.97906243,37.04285662,2413.82
-118.97906740,37.04304740,2418.72
-118.97907420,37.04330865,2426.70
-118.97908143,37.04358839,2444.50
-118.97908715,37.04380842,2443.37
-118.97909062,37.04394134,2448.56
-118.97909523,37.04411868,2452.64
-118.97910479,37.04448713,2455.60
-118.97911085,37.04472097,2456.59
-118.97911911,37.04503950,2458.00
-118.97912429,37.04523886,2457.93
-118.97913554,37.04567184,2457.65
-118.97913868,37.04579283,2457.76
-118.97914068,37.04586977,2457.11
-118.97914538,37.04604996,2456.00
-118.97915466,37.04640825,2451.56
-118.97915794,37.04653395,2461.22
-118.97915889,37.04657016,2451.79
-118.97916515,37.04680882,2447.54
-118.97917169,37.04706295,2461.57
-118.97918068,37.04740995,2437.07
     </coordinates>
    </LineString>
   </MultiGeometry>
  </Placemark>
 </Document>
</kml>
