<kml>
 <Document>
  <Style id="yellow">
   <LineStyle>
   <color>ff00ffff</color>
   <width>1</width>
   </LineStyle>
  </Style>
  <Style id="red">
   <LineStyle>
   <color>ffff0000</color>
   <width>2</width>
   </LineStyle>
  </Style>
  <Style id="green">
   <LineStyle>
   <color>ff00ff00</color>
   <width>1</width>
   </LineStyle>
  </Style>
  <Placemark>
  <styleUrl>#yellow</styleUrl>
   <MultiGeometry>
    <LineString>
     <coordinates>
-119.04660354,37.04586849,2483.85
-119.04660943,37.04608714,2498.91
-119.04662012,37.04648253,2507.26
-119.04662203,37.04655356,2506.00
-119.04662261,37.04657366,2505.58
-119.04662461,37.04659203,2505.04
-119.04663612,37.04659296,2505.58
-119.04666719,37.04659293,2506.08
-119.04676045,37.04659132,2507.17
-119.04715362,37.04658451,2505.46
-119.04747047,37.04657905,2491.85
-119.04772567,37.04657467,2490.95
-119.04824727,37.04656566,2470.80
-119.04877602,37.04655652,2504.37
-119.04909691,37.04655098,2472.86
-119.04948831,37.04654422,2465.20
-119.05000800,37.04653524,2445.17
-119.05034285,37.04652944,2445.62
-119.05062521,37.04652456,2449.44
-119.05094440,37.04651905,2474.06
-119.05105971,37.04651706,2494.88
-119.05142592,37.04651072,2478.69
-119.05163720,37.04650705,2465.94
-119.05212645,37.04649860,2499.28
-119.05221662,37.04649703,2500.34
-119.05228857,37.04649576,2477.15
-119.05248082,37.04649231,2480.84
-119.05286059,37.04648580,2485.99
-119.05318888,37.04648021,2487.50
-119.05351602,37.04647448,2492.00
-119.05385227,37.04646870,2498.51
-119.05431742,37.04646066,2512.08
-119.05487590,37.04645097,2520.35
-119.05509255,37.04644724,2532.52
-119.05510608,37.04644701,2539.04
-119.05532371,37.04644321,2526.01
-119.05572004,37.04643633,2531.75
-119.05602504,37.04643108,2535.87
-119.05617716,37.04642843,2537.58
-119.05660028,37.04642110,2539.91
-119.05667595,37.04641979,2559.16
-119.05717570,37.04641112,2539.19
-119.05765104,37.04640287,2534.29
-119.05771426,37.04640176,2557.95
-119.05785159,37.04639932,2531.60
-119.05785904,37.04639756,2531.41
-119.05786101,37.04637882,2530.92
-119.05785479,37.04614744,2560.81
-119.05784531,37.04579614,2513.34
-119.05783652,37.04547018,2520.21
-119.05782950,37.04521071,2500.42
-119.05781952,37.04484200,2512.66
-119.05781393,37.04463661,2485.88
-119.05780406,37.04427064,2470.38
-119.05779955,37.04410388,2466.40
-119.05779296,37.04386026,2487.68
-119.05778444,37.04354183,2483.05
-119.05777669,37.04325598,2452.30
-119.05777487,37.04318909,2452.97
-119.05777145,37.04306274,2438.22
-119.05776264,37.04273483,2426.24
-119.05776072,37.04266322,2427.73
-119.05775989,37.04263234,2419.60
-119.05775840,37.04257730,2418.76
-119.05774743,37.04217266,2411.13
-119.05774118,37.04193956,2413.44
-119.05773266,37.04162532,2414.96
-119.05772631,37.04138896,2414.24
-119.05771658,37.04103220,2417.30
-119.05770990,37.04078160,2419.17
-119.05770023,37.04042637,2416.78
-119.05769586,37.04026118,2410.75
-119.05769081,37.04007395,2399.56
-119.05768838,37.03998437,2395.13
-119.05767773,37.03959036,2386.64
-119.05766619,37.03916345,2366.08
-119.05766421,37.03908987,2363.48
-119.05765315,37.03867889,2348.47
-119.05765177,37.03862784,2346.53
-119.05764847,37.03850549,2351.87
-119.05764208,37.03826897,2333.66
-119.05763743,37.03809789,2325.74
-119.05762834,37.03776091,2313.24
-119.05762350,37.03758107,2326.44
-119.05762030,37.03746256,2310.74
-119.05761970,37.03744139,2302.66
-119.05761851,37.03740036,2296.32
-119.05761661,37.03739224,2296.01
-119.05761618,37.03739115,2295.95
-119.05761065,37.03739087,2295.86
-119.05737936,37.03739485,2292.27
-119.05692032,37.03740282,2290.46
-119.05638742,37.03741207,2310.63
-119.05617592,37.03741573,2298.71
-119.05581711,37.03742200,2292.09
-119.05548274,37.03742777,2323.99
-119.05504454,37.03743535,2302.10
-119.05454595,37.03744400,2313.39
-119.05422020,37.03744961,2316.20
-119.05387622,37.03745556,2317.23
-119.05364059,37.03745964,2329.98
-119.05340241,37.03746377,2310.51
-119.05292679,37.03747200,2308.49
-119.05266491,37.03747657,2319.33
-119.05236069,37.03748179,2338.36
-119.05188866,37.03748996,2313.17
-119.05182074,37.03749114,2317.41
-119.05166994,37.03749374,2315.56
-119.05132073,37.03749978,2303.56
-119.05087216,37.03750755,2311.34
-119.05035367,37.03751651,2301.09
-119.04985838,37.03752510,2297.84
-119.04967015,37.03752837,2295.43
-119.04929614,37.03753483,2289.00
-119.04906724,37.03753876,2304.97
-119.04878366,37.03754364,2301.22
-119.04864897,37.03754596,2298.06
-119.04847440,37.03754898,2305.17
-119.04812587,37.03755500,2328.81
-119.04798225,37.03755748,2264.20
-119.04753414,37.03756522,2258.28
-119.04740614,37.03756743,2264.02
-119.04723925,37.03757031,2258.06
-119.04702757,37.03757400,2288.55
-119.04657798,37.03758172,2261.77
-119.04651878,37.03758281,2258.81
-119.04638545,37.03758528,2250.23
-119.04638252,37.03758763,2251.21
-119.04638205,37.03761324,2250.31
-119.04638333,37.03766479,2258.89
-119.04638727,37.03781191,2267.00
-119.04639716,37.03818248,2256.01
-119.04640691,37.03854503,2260.43
-119.04641672,37.03890959,2268.42
-119.04641908,37.03899802,2290.91
-119.04642609,37.03926026,2286.34
-119.04643002,37.03940613,2301.15
-119.04643587,37.03962324,2300.46
-119.04644186,37.03984620,2305.85
-119.04644989,37.04014677,2312.33
-119.04645635,37.04038717,2323.65
-119.04646644,37.04076127,2351.90
-119.04647635,37.04113136,2382.02
-119.04648173,37.04133272,2377.65
-119.04648790,37.04156172,2399.34
-119.04649915,37.04198143,2371.30
-119.04650125,37.04205961,2373.10
-119.04650727,37.04228329,2378.24
-119.04651512,37.04257521,2383.85
-119.04652203,37.04283342,2388.41
-119.04652517,37.04295025,2400.45
-119.04653020,37.04313768,2423.01
-119.04653026,37.04313981,2420.83
-119.04653468,37.04330409,2400.82
-119.04654289,37.04360933,2409.75
-119.04655040,37.04388941,2417.88
-119.04656011,37.04425033,2429.42
-119.04656521,37.04444117,2434.80
-119.04657382,37.04476177,2444.53
-119.04657549,37.04482410,2447.29
-119.04658032,37.04500238,2451.50
-119.04659212,37.04544326,2466.86
-119.04660354,37.04586849,2483.85
     </coordinates>
    </LineString>
   </MultiGeometry>
  </Placemark>
 </Document>
</kml>
