<kml>
 <Document>
  <Style id="yellow">
   <LineStyle>
   <color>ff00ffff</color>
   <width>1</width>
   </LineStyle>
  </Style>
  <Style id="red">
   <LineStyle>
   <color>ffff0000</color>
   <width>2</width>
   </LineStyle>
  </Style>
  <Style id="green">
   <LineStyle>
   <color>ff00ff00</color>
   <width>1</width>
   </LineStyle>
  </Style>
  <Placemark>
  <styleUrl>#yellow</styleUrl>
   <MultiGeometry>
    <LineString>
     <coordinates>
-119.01314303,37.05611753,2779.48
-119.01314367,37.05614149,2774.86
-119.01314441,37.05616783,2758.00
-119.01314462,37.05617414,2762.03
-119.01314518,37.05617862,2767.74
-119.01314694,37.05617906,2767.79
-119.01314854,37.05617917,2762.89
-119.01315000,37.05617920,2766.73
-119.01322807,37.05617812,2763.13
-119.01335400,37.05617599,2752.06
-119.01386379,37.05616733,2733.55
-119.01428327,37.05616017,2716.36
-119.01447894,37.05615680,2709.00
-119.01487117,37.05615019,2715.17
-119.01508794,37.05614652,2682.90
-119.01546513,37.05614009,2668.25
-119.01567227,37.05613660,2660.84
-119.01617770,37.05612801,2645.82
-119.01640341,37.05612412,2640.07
-119.01685808,37.05611642,2640.73
-119.01741383,37.05610699,2661.07
-119.01750040,37.05610552,2648.31
-119.01770828,37.05610198,2641.49
-119.01824918,37.05609276,2648.22
-119.01864982,37.05608592,2653.77
-119.01893105,37.05608114,2659.19
-119.01940659,37.05607306,2663.67
-119.01988801,37.05606487,2663.18
-119.02007924,37.05606161,2659.92
-119.02041757,37.05605585,2664.48
-119.02046615,37.05605502,2654.62
-119.02066352,37.05605166,2651.69
-119.02079566,37.05604941,2662.65
-119.02094920,37.05604679,2656.23
-119.02123803,37.05604186,2642.51
-119.02172665,37.05603354,2648.52
-119.02198944,37.05602906,2626.67
-119.02245951,37.05602104,2612.89
-119.02280200,37.05601516,2604.43
-119.02287938,37.05601382,2601.95
-119.02338827,37.05600520,2582.30
-119.02358648,37.05600182,2574.15
-119.02387645,37.05599687,2562.90
-119.02437524,37.05598833,2551.71
-119.02437569,37.05598820,2550.81
-119.02438014,37.05598691,2541.91
-119.02438316,37.05598301,2541.96
-119.02438427,37.05597291,2542.20
-119.02438278,37.05591039,2572.53
-119.02437624,37.05566387,2550.61
-119.02437530,37.05562845,2562.82
-119.02437172,37.05549395,2554.77
-119.02436675,37.05530672,2558.03
-119.02436388,37.05519869,2559.32
-119.02435629,37.05491328,2569.95
-119.02434915,37.05464433,2559.26
-119.02434270,37.05440210,2560.01
-119.02433607,37.05415330,2560.24
-119.02433070,37.05395203,2560.26
-119.02431958,37.05353217,2562.10
-119.02431665,37.05342133,2561.85
-119.02431441,37.05333731,2561.96
-119.02430609,37.05302416,2561.26
-119.02429638,37.05265963,2558.77
-119.02428991,37.05241629,2556.41
-119.02428288,37.05215056,2586.33
-119.02427092,37.05170060,2565.47
-119.02426865,37.05161508,2554.30
-119.02425977,37.05128095,2587.25
-119.02424885,37.05087123,2576.73
-119.02424361,37.05067300,2574.21
-119.02424289,37.05064595,2568.27
-119.02423789,37.05045804,2561.65
-119.02423479,37.05034197,2565.27
-119.02422582,37.05000289,2542.54
-119.02422207,37.04986170,2539.47
-119.02421339,37.04953569,2530.62
-119.02420843,37.04934902,2525.65
-119.02420157,37.04909165,2520.22
-119.02419444,37.04882211,2517.65
-119.02419059,37.04867678,2515.28
-119.02418306,37.04839426,2505.29
-119.02417245,37.04799400,2514.39
-119.02416740,37.04780386,2483.11
-119.02416175,37.04759138,2516.43
-119.02416059,37.04754767,2517.53
-119.02414948,37.04712931,2502.45
-119.02414627,37.04700842,2495.52
-119.02414550,37.04698816,2499.31
-119.02414314,37.04698042,2499.04
-119.02413829,37.04698006,2499.23
-119.02411131,37.04698014,2506.77
-119.02403457,37.04698143,2494.99
-119.02374638,37.04698632,2499.20
-119.02340826,37.04699207,2504.05
-119.02321571,37.04699537,2500.06
-119.02267332,37.04700461,2534.01
-119.02242322,37.04700888,2537.98
-119.02190616,37.04701770,2521.18
-119.02149096,37.04702477,2552.73
-119.02114786,37.04703062,2553.87
-119.02087357,37.04703529,2576.45
-119.02049826,37.04704169,2562.73
-119.02022972,37.04704626,2562.13
-119.01993576,37.04705126,2555.42
-119.01979571,37.04705366,2550.24
-119.01962233,37.04705663,2577.96
-119.01910048,37.04706551,2565.23
-119.01881840,37.04707029,2541.66
-119.01860263,37.04707396,2530.18
-119.01826960,37.04707964,2524.91
-119.01793862,37.04708527,2536.34
-119.01778191,37.04708795,2529.79
-119.01729189,37.04709627,2539.13
-119.01718483,37.04709809,2509.02
-119.01690516,37.04710286,2520.51
-119.01646651,37.04711030,2538.05
-119.01597679,37.04711863,2539.69
-119.01553771,37.04712613,2543.94
-119.01538792,37.04712864,2525.29
-119.01516668,37.04713242,2521.54
-119.01508604,37.04713382,2540.58
-119.01506111,37.04713425,2540.85
-119.01450841,37.04714363,2514.48
-119.01414214,37.04714982,2534.83
-119.01394639,37.04715313,2507.39
-119.01367713,37.04715771,2508.34
-119.01356860,37.04715955,2515.06
-119.01333999,37.04716343,2530.27
-119.01321250,37.04716559,2532.03
-119.01298237,37.04716954,2528.28
-119.01295026,37.04717010,2525.07
-119.01294381,37.04717033,2525.59
-119.01290669,37.04717330,2512.35
-119.01290872,37.04725062,2533.09
-119.01291842,37.04761828,2515.37
-119.01292151,37.04773528,2521.11
-119.01292970,37.04804519,2516.55
-119.01293676,37.04831279,2517.88
-119.01294422,37.04859521,2525.09
-119.01294883,37.04876927,2535.38
-119.01295945,37.04917064,2539.57
-119.01296996,37.04956694,2548.02
-119.01297701,37.04983648,2562.10
-119.01298841,37.05026664,2581.39
-119.01299721,37.05060078,2593.30
-119.01299942,37.05068458,2605.14
-119.01300233,37.05079387,2586.13
-119.01300458,37.05087796,2587.11
-119.01301568,37.05129977,2618.16
-119.01301662,37.05133568,2600.27
-119.01301899,37.05142489,2602.87
-119.01302473,37.05164081,2617.39
-119.01303110,37.05188224,2620.11
-119.01303529,37.05204177,2626.76
-119.01303972,37.05220977,2634.65
-119.01304924,37.05257004,2659.01
-119.01305106,37.05263884,2654.37
-119.01306296,37.05308909,2672.41
-119.01306954,37.05333830,2683.70
-119.01307264,37.05345548,2688.86
-119.01307598,37.05358202,2694.44
-119.01308134,37.05378482,2701.75
-119.01308417,37.05389199,2705.96
-119.01309053,37.05413010,2715.34
-119.01309611,37.05434259,2721.96
-119.01310110,37.05453208,2727.51
-119.01310310,37.05460811,2730.05
-119.01311038,37.05488314,2739.37
-119.01312112,37.05529011,2751.81
-119.01312743,37.05552715,2756.50
-119.01313568,37.05583840,2757.61
-119.01314303,37.05611753,2779.48
     </coordinates>
    </LineString>
   </MultiGeometry>
  </Placemark>
 </Document>
</kml>
