<kml>
 <Document>
  <Style id="yellow">
   <LineStyle>
   <color>ff00ffff</color>
   <width>1</width>
   </LineStyle>
  </Style>
  <Style id="red">
   <LineStyle>
   <color>ffff0000</color>
   <width>2</width>
   </LineStyle>
  </Style>
  <Style id="green">
   <LineStyle>
   <color>ff00ff00</color>
   <width>1</width>
   </LineStyle>
  </Style>
  <Placemark>
  <styleUrl>#yellow</styleUrl>
   <MultiGeometry>
    <LineString>
     <coordinates>
-119.00142018,37.03794132,2450.38
-119.00142533,37.03813747,2451.89
-119.00142957,37.03829852,2454.46
-119.00143023,37.03832330,2472.28
-119.00143206,37.03834793,2454.08
-119.00143425,37.03834923,2454.11
-119.00144484,37.03834964,2454.23
-119.00145011,37.03834983,2454.30
-119.00147098,37.03835057,2454.62
-119.00148137,37.03835094,2454.77
-119.00148653,37.03835110,2454.88
-119.00202339,37.03834214,2471.40
-119.00243883,37.03833513,2451.91
-119.00297236,37.03832612,2428.35
-119.00303213,37.03832511,2438.86
-119.00333197,37.03832003,2428.48
-119.00359823,37.03831555,2428.63
-119.00393354,37.03830988,2429.29
-119.00427145,37.03830417,2431.35
-119.00444745,37.03830120,2433.01
-119.00493813,37.03829291,2447.41
-119.00546579,37.03828398,2432.26
-119.00576435,37.03827892,2432.40
-119.00615965,37.03827226,2455.22
-119.00626358,37.03827050,2435.42
-119.00672003,37.03826278,2445.53
-119.00682524,37.03826100,2463.63
-119.00719501,37.03825473,2449.00
-119.00771309,37.03824595,2445.61
-119.00781398,37.03824426,2452.06
-119.00821910,37.03823738,2450.67
-119.00841900,37.03823402,2480.87
-119.00842462,37.03823392,2471.67
-119.00866259,37.03822989,2465.07
-119.00903422,37.03822360,2459.46
-119.00955208,37.03821483,2462.65
-119.00973732,37.03821169,2484.33
-119.00986212,37.03820957,2478.23
-119.01040641,37.03820035,2490.16
-119.01067392,37.03819582,2504.03
-119.01083177,37.03819314,2481.75
-119.01107016,37.03818910,2503.45
-119.01128901,37.03818536,2505.09
-119.01164602,37.03817932,2505.78
-119.01204015,37.03817265,2496.06
-119.01241123,37.03816634,2504.91
-119.01264944,37.03816228,2521.58
-119.01265580,37.03816215,2522.28
-119.01266564,37.03816100,2500.76
-119.01266747,37.03815953,2500.82
-119.01266804,37.03815253,2516.56
-119.01266778,37.03813235,2507.04
-119.01266723,37.03810866,2523.99
-119.01266354,37.03796843,2503.22
-119.01265661,37.03770615,2513.56
-119.01265070,37.03748252,2521.15
-119.01264119,37.03712202,2536.12
-119.01263219,37.03678108,2594.87
-119.01262175,37.03638625,2576.89
-119.01260996,37.03593918,2617.63
-119.01259833,37.03549948,2608.60
-119.01258959,37.03516842,2599.33
-119.01258453,37.03497607,2598.66
-119.01257562,37.03463833,2599.05
-119.01257349,37.03455808,2611.17
-119.01256663,37.03430274,2590.15
-119.01255601,37.03389917,2593.65
-119.01255044,37.03368548,2618.69
-119.01254232,37.03337691,2621.57
-119.01253616,37.03314451,2599.24
-119.01252872,37.03286270,2597.27
-119.01252240,37.03262382,2596.92
-119.01251527,37.03235226,2593.11
-119.01251325,37.03227603,2602.85
-119.01250686,37.03203378,2587.13
-119.01249606,37.03162519,2569.25
-119.01249122,37.03144181,2564.79
-119.01249024,37.03140450,2564.28
-119.01249018,37.03140218,2564.33
-119.01248803,37.03132068,2562.12
-119.01248269,37.03111843,2555.02
-119.01247392,37.03078722,2543.19
-119.01246823,37.03057026,2538.29
-119.01246203,37.03033522,2534.27
-119.01246099,37.03029586,2533.82
-119.01245081,37.02991023,2554.20
-119.01244360,37.02963917,2523.07
-119.01243577,37.02934056,2555.62
-119.01243541,37.02932699,2553.18
-119.01243093,37.02915799,2549.90
-119.01243033,37.02915556,2531.68
-119.01242974,37.02915410,2531.63
-119.01242578,37.02915403,2545.74
-119.01240361,37.02915370,2507.52
-119.01221239,37.02915689,2547.87
-119.01211012,37.02915863,2520.53
-119.01174060,37.02916491,2561.02
-119.01132127,37.02917201,2580.68
-119.01120684,37.02917395,2581.37
-119.01078306,37.02918113,2574.86
-119.01049636,37.02918600,2582.63
-119.01007364,37.02919317,2593.36
-119.00990998,37.02919595,2595.81
-119.00945368,37.02920367,2598.36
-119.00911812,37.02920934,2597.15
-119.00880690,37.02921463,2591.16
-119.00842785,37.02922104,2584.42
-119.00805372,37.02922738,2577.62
-119.00768873,37.02923356,2568.94
-119.00742434,37.02923802,2580.68
-119.00734409,37.02923938,2559.92
-119.00727932,37.02924048,2574.20
-119.00687171,37.02924737,2573.95
-119.00641850,37.02925507,2527.24
-119.00604024,37.02926145,2518.58
-119.00584060,37.02926481,2515.97
-119.00546384,37.02927121,2503.89
-119.00517723,37.02927605,2538.83
-119.00464418,37.02928508,2483.74
-119.00453474,37.02928690,2482.25
-119.00422508,37.02929212,2473.76
-119.00402718,37.02929548,2471.27
-119.00350926,37.02930422,2474.30
-119.00321125,37.02930926,2465.93
-119.00295664,37.02931357,2494.13
-119.00257541,37.02932000,2492.21
-119.00246746,37.02932183,2456.53
-119.00215728,37.02932712,2452.29
-119.00188246,37.02933169,2449.60
-119.00134357,37.02934078,2463.00
-119.00128138,37.02934185,2441.67
-119.00124171,37.02934262,2446.81
-119.00123394,37.02934288,2445.23
-119.00122129,37.02934361,2444.26
-119.00120663,37.02934462,2442.53
-119.00119703,37.02934572,2440.84
-119.00119540,37.02934638,2440.83
-119.00119511,37.02935381,2440.75
-119.00119555,37.02937427,2440.33
-119.00119620,37.02940295,2440.48
-119.00119657,37.02941907,2440.23
-119.00119817,37.02948435,2438.84
-119.00120745,37.02983652,2433.53
-119.00121365,37.03007421,2435.64
-119.00122005,37.03031793,2425.32
-119.00122854,37.03064057,2421.83
-119.00123406,37.03085172,2419.40
-119.00124284,37.03118641,2424.57
-119.00124573,37.03129642,2456.76
-119.00125311,37.03157745,2422.78
-119.00125585,37.03168198,2419.02
-119.00125730,37.03173733,2425.49
-119.00126092,37.03187474,2415.62
-119.00126636,37.03207983,2411.60
-119.00126955,37.03220002,2412.73
-119.00127926,37.03257336,2406.46
-119.00128388,37.03274962,2406.91
-119.00129266,37.03308421,2406.36
-119.00129526,37.03318322,2420.28
-119.00130032,37.03337531,2409.51
-119.00130986,37.03373911,2413.80
-119.00131999,37.03412529,2416.76
-119.00132458,37.03429995,2421.96
-119.00132951,37.03448750,2423.82
-119.00133712,37.03477769,2433.16
-119.00134788,37.03518756,2420.52
-119.00134963,37.03525436,2445.57
-119.00135373,37.03541009,2429.64
-119.00136153,37.03570775,2427.24
-119.00136609,37.03588108,2437.02
-119.00137609,37.03626146,2439.23
-119.00137882,37.03636604,2458.99
-119.00138991,37.03678857,2438.76
-119.00139075,37.03682051,2441.25
-119.00140227,37.03725947,2462.62
-119.00140700,37.03743892,2454.64
-119.00141443,37.03772191,2448.60
-119.00142018,37.03794132,2450.38
     </coordinates>
    </LineString>
   </MultiGeometry>
  </Placemark>
 </Document>
</kml>
