<kml>
 <Document>
  <Style id="yellow">
   <LineStyle>
   <color>ff00ffff</color>
   <width>1</width>
   </LineStyle>
  </Style>
  <Style id="red">
   <LineStyle>
   <color>ffff0000</color>
   <width>2</width>
   </LineStyle>
  </Style>
  <Style id="green">
   <LineStyle>
   <color>ff00ff00</color>
   <width>1</width>
   </LineStyle>
  </Style>
  <Placemark>
  <styleUrl>#yellow</styleUrl>
   <MultiGeometry>
    <LineString>
     <coordinates>
-119.02388577,37.03719918,2506.44
-119.02389456,37.03753034,2516.21
-119.02390162,37.03779578,2528.11
-119.02390559,37.03794237,2535.39
-119.02390647,37.03795712,2536.00
-119.02390681,37.03796118,2536.57
-119.02390727,37.03796436,2536.76
-119.02390958,37.03796849,2536.93
-119.02396707,37.03796939,2537.07
-119.02398253,37.03796925,2537.25
-119.02400945,37.03796897,2537.27
-119.02414807,37.03796662,2537.54
-119.02462711,37.03795845,2537.66
-119.02490403,37.03795372,2541.35
-119.02519953,37.03794867,2573.34
-119.02553747,37.03794291,2533.81
-119.02558232,37.03794214,2533.91
-119.02595937,37.03793570,2536.00
-119.02631059,37.03792970,2541.58
-119.02655317,37.03792554,2572.41
-119.02693979,37.03791894,2579.05
-119.02706905,37.03791673,2554.79
-119.02747411,37.03790981,2561.27
-119.02768045,37.03790629,2565.57
-119.02792940,37.03790202,2568.85
-119.02804161,37.03790006,2569.79
-119.02849992,37.03789227,2565.46
-119.02880035,37.03788714,2573.47
-119.02897240,37.03788419,2572.62
-119.02924819,37.03787947,2567.99
-119.02948199,37.03787546,2542.89
-119.02990672,37.03786818,2528.79
-119.03024582,37.03786238,2517.85
-119.03051914,37.03785772,2495.01
-119.03095244,37.03785031,2478.72
-119.03095702,37.03785023,2480.82
-119.03106582,37.03784836,2478.27
-119.03131734,37.03784400,2481.20
-119.03168494,37.03783776,2458.09
-119.03183910,37.03783512,2467.61
-119.03198731,37.03783258,2431.84
-119.03231734,37.03782692,2421.22
-119.03276357,37.03781928,2417.84
-119.03276628,37.03781923,2419.49
-119.03276955,37.03781918,2420.80
-119.03286641,37.03781751,2431.73
-119.03340330,37.03780831,2389.07
-119.03368645,37.03780341,2360.85
-119.03413202,37.03779579,2365.45
-119.03442282,37.03779082,2339.84
-119.03450229,37.03778946,2339.81
-119.03498388,37.03778118,2322.29
-119.03505916,37.03777988,2316.37
-119.03510527,37.03777901,2327.34
-119.03514371,37.03777806,2325.79
-119.03514043,37.03765520,2327.87
-119.03513996,37.03763741,2327.95
-119.03513790,37.03756027,2315.60
-119.03513489,37.03744765,2326.05
-119.03513131,37.03731476,2324.69
-119.03512004,37.03689178,2319.24
-119.03511742,37.03679333,2336.65
-119.03511301,37.03662800,2320.85
-119.03510307,37.03625566,2321.19
-119.03509410,37.03592002,2321.40
-119.03508379,37.03553562,2326.00
-119.03508181,37.03546075,2343.72
-119.03507048,37.03503594,2356.57
-119.03506791,37.03493882,2361.94
-119.03506475,37.03482045,2333.24
-119.03505708,37.03453291,2359.77
-119.03504636,37.03413299,2342.50
-119.03503732,37.03379453,2374.11
-119.03503381,37.03366150,2362.19
-119.03502888,37.03347651,2351.74
-119.03502237,37.03323328,2353.96
-119.03501414,37.03292482,2357.29
-119.03500334,37.03252264,2366.83
-119.03499787,37.03231478,2359.16
-119.03498996,37.03201867,2363.06
-119.03498656,37.03189204,2365.08
-119.03497716,37.03153919,2403.50
-119.03496630,37.03113303,2381.80
-119.03495636,37.03076129,2383.53
-119.03495275,37.03062534,2383.14
-119.03494541,37.03034959,2382.11
-119.03494205,37.03022369,2381.28
-119.03493777,37.03006376,2391.88
-119.03492889,37.02973060,2378.70
-119.03492529,37.02959571,2376.99
-119.03492414,37.02955239,2376.08
-119.03491453,37.02919385,2369.43
-119.03491202,37.02909975,2368.45
-119.03490554,37.02885739,2366.14
-119.03490371,37.02879153,2363.81
-119.03490249,37.02877645,2363.52
-119.03490219,37.02877505,2363.39
-119.03490184,37.02877428,2363.43
-119.03489842,37.02877106,2363.43
-119.03488053,37.02877093,2364.72
-119.03485496,37.02877076,2363.36
-119.03475055,37.02877242,2363.43
-119.03429522,37.02878023,2359.64
-119.03406367,37.02878420,2359.00
-119.03352582,37.02879341,2356.69
-119.03332006,37.02879695,2381.14
-119.03278306,37.02880615,2351.02
-119.03230721,37.02881438,2346.78
-119.03217483,37.02881658,2345.39
-119.03168946,37.02882488,2358.80
-119.03160901,37.02882626,2350.78
-119.03134084,37.02883085,2340.70
-119.03121998,37.02883292,2349.74
-119.03091398,37.02883818,2340.64
-119.03069313,37.02884197,2339.98
-119.03033160,37.02884813,2336.20
-119.02980637,37.02885713,2336.88
-119.02936812,37.02886466,2336.39
-119.02897132,37.02887141,2359.32
-119.02893918,37.02887196,2358.91
-119.02850590,37.02887940,2344.12
-119.02794799,37.02888893,2349.14
-119.02756679,37.02889543,2391.11
-119.02755998,37.02889554,2355.02
-119.02750663,37.02889645,2389.18
-119.02707245,37.02890390,2364.16
-119.02659581,37.02891203,2416.89
-119.02643976,37.02891469,2378.82
-119.02616397,37.02891940,2409.12
-119.02612429,37.02892007,2388.59
-119.02586615,37.02892449,2419.30
-119.02537736,37.02893289,2432.83
-119.02515663,37.02893665,2409.36
-119.02506501,37.02893822,2411.55
-119.02459321,37.02894622,2443.84
-119.02452793,37.02894733,2425.52
-119.02445077,37.02894865,2428.84
-119.02414942,37.02895379,2484.44
-119.02384971,37.02895891,2453.41
-119.02375923,37.02896045,2455.36
-119.02373606,37.02896086,2467.86
-119.02370041,37.02896163,2457.07
-119.02366911,37.02896371,2458.41
-119.02366843,37.02899363,2458.37
-119.02366874,37.02902132,2472.87
-119.02367038,37.02908513,2485.96
-119.02367252,37.02916608,2488.26
-119.02368131,37.02949718,2478.17
-119.02368331,37.02957286,2468.35
-119.02368989,37.02982056,2460.71
-119.02369921,37.03017179,2491.82
-119.02370884,37.03053447,2475.75
-119.02371229,37.03066448,2499.19
-119.02371550,37.03078492,2507.18
-119.02372347,37.03108503,2485.59
-119.02372860,37.03127875,2493.85
-119.02373326,37.03145372,2537.05
-119.02374213,37.03178819,2528.43
-119.02374625,37.03194330,2540.59
-119.02375074,37.03211266,2541.91
-119.02375495,37.03227053,2543.21
-119.02376456,37.03263358,2508.24
-119.02376477,37.03264177,2508.09
-119.02376478,37.03264183,2508.09
-119.02377165,37.03290004,2502.29
-119.02378221,37.03329785,2504.56
-119.02379294,37.03370148,2493.59
-119.02379773,37.03388083,2492.59
-119.02380702,37.03423197,2490.97
-119.02380875,37.03429765,2490.62
-119.02381654,37.03459180,2488.72
-119.02382242,37.03481337,2508.63
-119.02382694,37.03498366,2530.18
-119.02382783,37.03501695,2532.61
-119.02383242,37.03518986,2528.95
-119.02383604,37.03532623,2495.84
-119.02384201,37.03555075,2535.64
-119.02385152,37.03590947,2531.09
-119.02385483,37.03603389,2498.31
-119.02386064,37.03625284,2499.10
-119.02386971,37.03659420,2500.25
-119.02388090,37.03701565,2502.72
-119.02388369,37.03712119,2504.91
-119.02388577,37.03719918,2506.44
     </coordinates>
    </LineString>
   </MultiGeometry>
  </Placemark>
 </Document>
</kml>
