<kml>
 <Document>
  <Style id="yellow">
   <LineStyle>
   <color>ff00ffff</color>
   <width>1</width>
   </LineStyle>
  </Style>
  <Style id="red">
   <LineStyle>
   <color>ffff0000</color>
   <width>2</width>
   </LineStyle>
  </Style>
  <Style id="green">
   <LineStyle>
   <color>ff00ff00</color>
   <width>1</width>
   </LineStyle>
  </Style>
  <Placemark>
  <styleUrl>#yellow</styleUrl>
   <MultiGeometry>
    <LineString>
     <coordinates>
-119.00165490,37.04687873,2549.98
-119.00165727,37.04696899,2551.94
-119.00166565,37.04728807,2564.06
-119.00166706,37.04733818,2545.41
-119.00166758,37.04735372,2544.65
-119.00166990,37.04735949,2562.19
-119.00167075,37.04736080,2560.48
-119.00168312,37.04736072,2556.56
-119.00201158,37.04735511,2540.11
-119.00240885,37.04734846,2540.77
-119.00259333,37.04734533,2550.81
-119.00313041,37.04733630,2540.11
-119.00351246,37.04732984,2556.11
-119.00397707,37.04732199,2548.07
-119.00451584,37.04731288,2547.55
-119.00495570,37.04730545,2554.43
-119.00510034,37.04730300,2553.32
-119.00545645,37.04729690,2570.69
-119.00575346,37.04729193,2579.20
-119.00590903,37.04728933,2562.89
-119.00598263,37.04728808,2564.19
-119.00650284,37.04727929,2574.95
-119.00661667,37.04727736,2608.73
-119.00711647,37.04726890,2581.85
-119.00729463,37.04726589,2583.20
-119.00752873,37.04726193,2584.73
-119.00780914,37.04725717,2586.03
-119.00826347,37.04724949,2584.29
-119.00869177,37.04724221,2585.79
-119.00894224,37.04723799,2574.28
-119.00905476,37.04723608,2572.10
-119.00945385,37.04722931,2575.86
-119.00997091,37.04722056,2569.78
-119.01024535,37.04721591,2589.53
-119.01071455,37.04720795,2573.72
-119.01105826,37.04720213,2544.25
-119.01146027,37.04719530,2536.30
-119.01186561,37.04718843,2547.88
-119.01213192,37.04718392,2559.29
-119.01260499,37.04717589,2527.03
-119.01286729,37.04717135,2521.90
-119.01289400,37.04717079,2518.63
-119.01289857,37.04717028,2515.37
-119.01290651,37.04716809,2512.28
-119.01290366,37.04706041,2511.01
-119.01289315,37.04666264,2533.91
-119.01288690,37.04642564,2525.00
-119.01288672,37.04641892,2520.30
-119.01288018,37.04617135,2516.57
-119.01287771,37.04607803,2504.77
-119.01287045,37.04580307,2522.36
-119.01286127,37.04545557,2516.97
-119.01285018,37.04503611,2517.61
-119.01284520,37.04484838,2513.54
-119.01283829,37.04458533,2517.82
-119.01282828,37.04420645,2503.91
-119.01282731,37.04416996,2503.13
-119.01282514,37.04408759,2526.61
-119.01282149,37.04394954,2513.10
-119.01281944,37.04387166,2511.75
-119.01280807,37.04344123,2499.98
-119.01280123,37.04318284,2517.36
-119.01279279,37.04286264,2511.95
-119.01279002,37.04275783,2494.48
-119.01277959,37.04236375,2514.51
-119.01277325,37.04212284,2515.36
-119.01276767,37.04191278,2496.86
-119.01276111,37.04166321,2490.52
-119.01275433,37.04140647,2497.84
-119.01275093,37.04127764,2486.81
-119.01275034,37.04125539,2487.34
-119.01274574,37.04108134,2511.42
-119.01274302,37.04097839,2491.25
-119.01273168,37.04054877,2506.51
-119.01272406,37.04026026,2496.31
-119.01271996,37.04010519,2494.61
-119.01271419,37.03988717,2490.73
-119.01270251,37.03944433,2491.50
-119.01269959,37.03933351,2495.54
-119.01269791,37.03927015,2479.52
-119.01269433,37.03913435,2475.98
-119.01269034,37.03898415,2499.04
-119.01267859,37.03853900,2488.78
-119.01267469,37.03839069,2500.67
-119.01267356,37.03834782,2495.76
-119.01267138,37.03826521,2525.62
-119.01267102,37.03825343,2514.60
-119.01266876,37.03817901,2500.40
-119.01266707,37.03816502,2500.68
-119.01266341,37.03816241,2518.51
-119.01266150,37.03816215,2516.31
-119.01247351,37.03816532,2500.95
-119.01193920,37.03817437,2498.49
-119.01185124,37.03817586,2493.84
-119.01164094,37.03817943,2505.99
-119.01130256,37.03818516,2506.55
-119.01106626,37.03818917,2500.87
-119.01103083,37.03818977,2505.50
-119.01101295,37.03819008,2491.59
-119.01051667,37.03819851,2481.41
-119.01014420,37.03820481,2475.70
-119.00994534,37.03820818,2487.12
-119.00956019,37.03821470,2462.69
-119.00955213,37.03821484,2462.66
-119.00955203,37.03821484,2462.65
-119.00955193,37.03821484,2462.64
-119.00931125,37.03821893,2458.69
-119.00875265,37.03822838,2455.09
-119.00861088,37.03823079,2459.44
-119.00810101,37.03823942,2449.81
-119.00770159,37.03824618,2445.75
-119.00735922,37.03825197,2471.03
-119.00699780,37.03825810,2461.15
-119.00644996,37.03826736,2436.99
-119.00589932,37.03827670,2448.37
-119.00588651,37.03827691,2443.57
-119.00545914,37.03828414,2431.69
-119.00517551,37.03828891,2447.59
-119.00491969,37.03829323,2456.92
-119.00456708,37.03829920,2434.34
-119.00433470,37.03830313,2444.83
-119.00424501,37.03830466,2439.61
-119.00392840,37.03831004,2429.28
-119.00365936,37.03831456,2428.61
-119.00310313,37.03832393,2427.98
-119.00279960,37.03832906,2430.88
-119.00233242,37.03833694,2446.63
-119.00184036,37.03834526,2458.78
-119.00154120,37.03835036,2479.05
-119.00149179,37.03835131,2454.93
-119.00143288,37.03835289,2454.11
-119.00143149,37.03835673,2454.13
-119.00143159,37.03837159,2454.25
-119.00143199,37.03839048,2454.54
-119.00143509,37.03850913,2456.25
-119.00144435,37.03886134,2463.33
-119.00145602,37.03930376,2471.34
-119.00145767,37.03936694,2473.54
-119.00146027,37.03946656,2474.21
-119.00146545,37.03966493,2495.26
-119.00146584,37.03967979,2506.76
-119.00147098,37.03987572,2478.39
-119.00148193,37.04029282,2481.14
-119.00148379,37.04036400,2482.36
-119.00148433,37.04038430,2482.52
-119.00148713,37.04049043,2498.94
-119.00149430,37.04076028,2490.38
-119.00150056,37.04100161,2500.12
-119.00151096,37.04139767,2500.19
-119.00151608,37.04159316,2503.68
-119.00152579,37.04196307,2504.47
-119.00152791,37.04204386,2505.10
-119.00153687,37.04237804,2508.26
-119.00154121,37.04254643,2510.15
-119.00154411,37.04265831,2511.58
-119.00154753,37.04278966,2513.18
-119.00155168,37.04294901,2515.06
-119.00156313,37.04338445,2521.47
-119.00156526,37.04346592,2522.83
-119.00156991,37.04364326,2526.46
-119.00157039,37.04366139,2549.14
-119.00157804,37.04395253,2531.43
-119.00158138,37.04407873,2540.73
-119.00158640,37.04426842,2536.95
-119.00159441,37.04457546,2542.42
-119.00160465,37.04496545,2551.02
-119.00160479,37.04497072,2551.06
-119.00161087,37.04520195,2554.50
-119.00161202,37.04524603,2567.18
-119.00162338,37.04567889,2559.12
-119.00162409,37.04570575,2559.40
-119.00163404,37.04608374,2558.89
-119.00163760,37.04621967,2557.56
-119.00164920,37.04666115,2577.06
-119.00165490,37.04687873,2549.98
     </coordinates>
    </LineString>
   </MultiGeometry>
  </Placemark>
 </Document>
</kml>
