<kml>
 <Document>
  <Style id="yellow">
   <LineStyle>
   <color>ff00ffff</color>
   <width>1</width>
   </LineStyle>
  </Style>
  <Style id="red">
   <LineStyle>
   <color>ffff0000</color>
   <width>2</width>
   </LineStyle>
  </Style>
  <Style id="green">
   <LineStyle>
   <color>ff00ff00</color>
   <width>1</width>
   </LineStyle>
  </Style>
  <Placemark>
  <styleUrl>#yellow</styleUrl>
   <MultiGeometry>
    <LineString>
     <coordinates>
-119.00119398,37.02932482,2441.10
-119.00119449,37.02934186,2440.88
-119.00119456,37.02934269,2440.86
-119.00119647,37.02934285,2440.85
-119.00120994,37.02934301,2441.03
-119.00126850,37.02934203,2443.60
-119.00136527,37.02934040,2460.82
-119.00182665,37.02933260,2450.34
-119.00224244,37.02932559,2453.27
-119.00259547,37.02931963,2502.27
-119.00278240,37.02931646,2459.90
-119.00321464,37.02930917,2464.72
-119.00366941,37.02930147,2477.33
-119.00387205,37.02929807,2480.03
-119.00406982,37.02929474,2471.74
-119.00426258,37.02929148,2473.67
-119.00472770,37.02928362,2483.10
-119.00518373,37.02927591,2536.35
-119.00530327,37.02927388,2533.93
-119.00569830,37.02926718,2509.62
-119.00589733,37.02926381,2514.40
-119.00639040,37.02925551,2526.47
-119.00675443,37.02924935,2541.15
-119.00716021,37.02924247,2555.13
-119.00731815,37.02923981,2570.46
-119.00766735,37.02923390,2568.48
-119.00788122,37.02923027,2573.42
-119.00823346,37.02922428,2581.11
-119.00860774,37.02921797,2587.79
-119.00899325,37.02921144,2596.08
-119.00942669,37.02920407,2598.93
-119.00976997,37.02919827,2597.08
-119.01014378,37.02919193,2591.45
-119.01042450,37.02918718,2584.75
-119.01061726,37.02918392,2579.24
-119.01107349,37.02917620,2566.30
-119.01111813,37.02917544,2587.66
-119.01120628,37.02917395,2582.65
-119.01149234,37.02916910,2548.82
-119.01184909,37.02916303,2553.63
-119.01228763,37.02915558,2511.34
-119.01233423,37.02915477,2530.41
-119.01242940,37.02915305,2545.37
-119.01243046,37.02915159,2526.66
-119.01243045,37.02914580,2536.68
-119.01243017,37.02912987,2524.71
-119.01242999,37.02912335,2527.35
-119.01242684,37.02900413,2532.88
-119.01241697,37.02862818,2522.21
-119.01240832,37.02830054,2512.02
-119.01239881,37.02793998,2497.97
-119.01238726,37.02750344,2469.26
-119.01238621,37.02746304,2459.13
-119.01238115,37.02727074,2458.40
-119.01237183,37.02691917,2431.73
-119.01236184,37.02653935,2478.09
-119.01235812,37.02639806,2432.70
-119.01235084,37.02612241,2415.78
-119.01234722,37.02598530,2412.13
-119.01233949,37.02569242,2435.92
-119.01233072,37.02536172,2429.02
-119.01232401,37.02510598,2420.43
-119.01231799,37.02487740,2425.40
-119.01230755,37.02448470,2416.48
-119.01229877,37.02414906,2400.72
-119.01228718,37.02371013,2368.76
-119.01228265,37.02353813,2401.00
-119.01227658,37.02330801,2404.98
-119.01227374,37.02320044,2372.70
-119.01227202,37.02313531,2376.23
-119.01226561,37.02289291,2371.04
-119.01225755,37.02258677,2384.23
-119.01225747,37.02258381,2344.08
-119.01225011,37.02230569,2359.44
-119.01223953,37.02190431,2320.56
-119.01222903,37.02150611,2309.09
-119.01222578,37.02138268,2312.15
-119.01222166,37.02122801,2300.39
-119.01221128,37.02083341,2289.73
-119.01220246,37.02049890,2307.26
-119.01219386,37.02017371,2304.26
-119.01219318,37.02015777,2277.37
-119.01219174,37.02015293,2277.40
-119.01218794,37.02014578,2277.35
-119.01218187,37.02014542,2277.51
-119.01217586,37.02014508,2277.63
-119.01209858,37.02014597,2317.02
-119.01162551,37.02015400,2314.91
-119.01132059,37.02015917,2299.09
-119.01113568,37.02016231,2303.73
-119.01065095,37.02017052,2307.27
-119.01064058,37.02017069,2339.87
-119.01043544,37.02017417,2313.02
-119.01023732,37.02017754,2337.67
-119.00972306,37.02018624,2358.63
-119.00963525,37.02018773,2347.33
-119.00954085,37.02018933,2344.29
-119.00929827,37.02019344,2346.91
-119.00893068,37.02019968,2355.18
-119.00872764,37.02020312,2374.39
-119.00844640,37.02020787,2387.84
-119.00841784,37.02020836,2371.59
-119.00786721,37.02021767,2381.40
-119.00764412,37.02022144,2382.79
-119.00727518,37.02022771,2421.14
-119.00706428,37.02023127,2426.11
-119.00688410,37.02023431,2394.73
-119.00647134,37.02024129,2398.32
-119.00596723,37.02024984,2400.09
-119.00586899,37.02025148,2400.38
-119.00548724,37.02025796,2400.40
-119.00504373,37.02026546,2399.34
-119.00474930,37.02027043,2402.17
-119.00435789,37.02027702,2406.32
-119.00393936,37.02028409,2417.30
-119.00385868,37.02028545,2411.67
-119.00381743,37.02028615,2419.09
-119.00378980,37.02028661,2439.39
-119.00372975,37.02028763,2413.51
-119.00342865,37.02029271,2429.05
-119.00315084,37.02029740,2433.96
-119.00265221,37.02030582,2443.54
-119.00229696,37.02031183,2450.53
-119.00204374,37.02031609,2454.40
-119.00157538,37.02032401,2481.06
-119.00141043,37.02032681,2477.45
-119.00100484,37.02033362,2466.59
-119.00095914,37.02033475,2465.36
-119.00095851,37.02033522,2465.35
-119.00095843,37.02034367,2465.52
-119.00096043,37.02042387,2467.38
-119.00096686,37.02066787,2483.14
-119.00097512,37.02098288,2490.32
-119.00098194,37.02124361,2499.59
-119.00098418,37.02132933,2511.87
-119.00098462,37.02134630,2481.21
-119.00099573,37.02176919,2490.81
-119.00100126,37.02198066,2514.43
-119.00100435,37.02209824,2520.00
-119.00101221,37.02239773,2511.68
-119.00101463,37.02249013,2512.82
-119.00102145,37.02275006,2514.21
-119.00102378,37.02283876,2512.82
-119.00102708,37.02296465,2511.27
-119.00102964,37.02306222,2509.69
-119.00103545,37.02328303,2509.45
-119.00104119,37.02350160,2512.62
-119.00105174,37.02390271,2533.88
-119.00105796,37.02414029,2525.61
-119.00106368,37.02435971,2527.79
-119.00106566,37.02443490,2529.35
-119.00106755,37.02450647,2530.60
-119.00107886,37.02493798,2526.83
-119.00108362,37.02511946,2541.04
-119.00109016,37.02536822,2519.55
-119.00109481,37.02554469,2513.75
-119.00110265,37.02584363,2517.81
-119.00111378,37.02626894,2505.92
-119.00111435,37.02629044,2511.44
-119.00111984,37.02649972,2484.91
-119.00112779,37.02680258,2476.19
-119.00113514,37.02708241,2495.89
-119.00114034,37.02728100,2469.07
-119.00114516,37.02746444,2465.47
-119.00114936,37.02762441,2480.92
-119.00114955,37.02763184,2469.67
-119.00114958,37.02763288,2473.12
-119.00115496,37.02783766,2460.38
-119.00116405,37.02818419,2473.65
-119.00116407,37.02818505,2463.78
-119.00117348,37.02854365,2464.50
-119.00117765,37.02870243,2492.39
-119.00118489,37.02897822,2445.17
-119.00118597,37.02901935,2464.36
-119.00119398,37.02932482,2441.10
     </coordinates>
    </LineString>
   </MultiGeometry>
  </Placemark>
 </Document>
</kml>
