<kml>
 <Document>
  <Style id="yellow">
   <LineStyle>
   <color>ff00ffff</color>
   <width>1</width>
   </LineStyle>
  </Style>
  <Style id="red">
   <LineStyle>
   <color>ffff0000</color>
   <width>2</width>
   </LineStyle>
  </Style>
  <Style id="green">
   <LineStyle>
   <color>ff00ff00</color>
   <width>1</width>
   </LineStyle>
  </Style>
  <Placemark>
  <styleUrl>#yellow</styleUrl>
   <MultiGeometry>
    <LineString>
     <coordinates>
-119.04710717,37.06460758,2614.46
-119.04711216,37.06460899,2614.43
-119.04713470,37.06460967,2614.34
-119.04714034,37.06460982,2614.30
-119.04714600,37.06460997,2614.26
-119.04720590,37.06460916,2613.43
-119.04736858,37.06460633,2613.23
-119.04780766,37.06459876,2639.35
-119.04831009,37.06459009,2606.05
-119.04875880,37.06458232,2601.89
-119.04895765,37.06457890,2599.55
-119.04909878,37.06457646,2598.05
-119.04934440,37.06457222,2595.49
-119.04938349,37.06457154,2624.64
-119.04987997,37.06456294,2594.88
-119.05027737,37.06455609,2602.24
-119.05043109,37.06455343,2590.50
-119.05083748,37.06454640,2585.67
-119.05137597,37.06453708,2573.35
-119.05158987,37.06453339,2567.89
-119.05168189,37.06453179,2594.96
-119.05194627,37.06452722,2559.61
-119.05244660,37.06451854,2551.38
-119.05259865,37.06451593,2549.70
-119.05296886,37.06450952,2597.13
-119.05307939,37.06450760,2566.53
-119.05308242,37.06450755,2567.77
-119.05332356,37.06450338,2574.39
-119.05361099,37.06449837,2564.39
-119.05403487,37.06449106,2571.77
-119.05438449,37.06448489,2570.82
-119.05461398,37.06448100,2568.74
-119.05465402,37.06448033,2553.92
-119.05494611,37.06447521,2529.44
-119.05533181,37.06446858,2545.06
-119.05561159,37.06446371,2524.96
-119.05593853,37.06445806,2538.99
-119.05639407,37.06445016,2515.50
-119.05663017,37.06444607,2511.49
-119.05695342,37.06444045,2521.44
-119.05728120,37.06443477,2498.99
-119.05742428,37.06443228,2495.50
-119.05749073,37.06443113,2493.88
-119.05750449,37.06443089,2493.25
-119.05789062,37.06442419,2493.48
-119.05811512,37.06442030,2499.59
-119.05828548,37.06441735,2493.98
-119.05834633,37.06441582,2481.33
-119.05834677,37.06440615,2480.81
-119.05834751,37.06438764,2480.23
-119.05834600,37.06432927,2502.42
-119.05834163,37.06416599,2478.33
-119.05833450,37.06390209,2480.99
-119.05832474,37.06354145,2495.35
-119.05831882,37.06332179,2483.09
-119.05831847,37.06330898,2492.62
-119.05831692,37.06325221,2483.30
-119.05830805,37.06292611,2480.59
-119.05830308,37.06273998,2480.98
-119.05829942,37.06260404,2481.68
-119.05829003,37.06225736,2486.50
-119.05828168,37.06194791,2499.70
-119.05827204,37.06159138,2497.75
-119.05826024,37.06115572,2503.67
-119.05825219,37.06085672,2537.65
-119.05825033,37.06078877,2514.42
-119.05824515,37.06059927,2518.60
-119.05823755,37.06031539,2543.19
-119.05823559,37.06024268,2529.67
-119.05822694,37.05992360,2539.58
-119.05822443,37.05983096,2577.10
-119.05821340,37.05942228,2555.29
-119.05820918,37.05926571,2576.36
-119.05819926,37.05889816,2580.71
-119.05819683,37.05880819,2585.81
-119.05819073,37.05858266,2582.62
-119.05818641,37.05842471,2587.16
-119.05817836,37.05812559,2593.96
-119.05817436,37.05797816,2597.32
-119.05816426,37.05760322,2609.16
-119.05815636,37.05731061,2608.54
-119.05814779,37.05699511,2616.58
-119.05814269,37.05680448,2620.99
-119.05814173,37.05676889,2622.38
-119.05813693,37.05659223,2627.66
-119.05812981,37.05632907,2634.03
-119.05812474,37.05614043,2640.80
-119.05811451,37.05576194,2651.25
-119.05810740,37.05549927,2685.14
-119.05810663,37.05547256,2657.70
-119.05810524,37.05542469,2658.73
-119.05810490,37.05541357,2665.78
-119.05810471,37.05541140,2667.93
-119.05810285,37.05540998,2669.20
-119.05810227,37.05540973,2671.65
-119.05809721,37.05540869,2681.23
-119.05809288,37.05540835,2681.23
-119.05802261,37.05540920,2659.09
-119.05763695,37.05541588,2667.61
-119.05756947,37.05541705,2659.04
-119.05715309,37.05542428,2668.19
-119.05679382,37.05543051,2685.28
-119.05648046,37.05543594,2668.32
-119.05632443,37.05543864,2649.92
-119.05631949,37.05543873,2663.51
-119.05584492,37.05544697,2645.48
-119.05542862,37.05545424,2649.39
-119.05524502,37.05545738,2654.56
-119.05511562,37.05545962,2668.03
-119.05494673,37.05546255,2663.23
-119.05472779,37.05546636,2669.71
-119.05432306,37.05547333,2667.87
-119.05411455,37.05547697,2665.76
-119.05403412,37.05547837,2668.11
-119.05364421,37.05548517,2671.48
-119.05332785,37.05549059,2681.71
-119.05291959,37.05549764,2673.16
-119.05291410,37.05549773,2673.07
-119.05251422,37.05550466,2705.06
-119.05221752,37.05550980,2677.30
-119.05179701,37.05551709,2685.04
-119.05148093,37.05552255,2678.57
-119.05095853,37.05553158,2666.38
-119.05059711,37.05553784,2668.52
-119.05032968,37.05554245,2667.26
-119.04993521,37.05554927,2645.37
-119.04951937,37.05555646,2616.58
-119.04897038,37.05556594,2620.70
-119.04889126,37.05556733,2603.57
-119.04839363,37.05557591,2612.87
-119.04791251,37.05558422,2574.93
-119.04737142,37.05559356,2605.88
-119.04704989,37.05559911,2605.74
-119.04702950,37.05559947,2595.61
-119.04694514,37.05560098,2596.62
-119.04693351,37.05560123,2590.72
-119.04687013,37.05560569,2555.01
-119.04686607,37.05561150,2575.55
-119.04686546,37.05561387,2578.42
-119.04686606,37.05563977,2609.73
-119.04686820,37.05572011,2593.48
-119.04687951,37.05614042,2572.59
-119.04688439,37.05632223,2603.46
-119.04689290,37.05663925,2568.43
-119.04689562,37.05673996,2577.66
-119.04690539,37.05710269,2584.82
-119.04691300,37.05738709,2581.09
-119.04692162,37.05770758,2601.75
-119.04693316,37.05813675,2572.38
-119.04693563,37.05822928,2607.69
-119.04694540,37.05859135,2607.43
-119.04695263,37.05886149,2601.61
-119.04695542,37.05896535,2583.18
-119.04695552,37.05896907,2582.94
-119.04696032,37.05914723,2589.75
-119.04696789,37.05942907,2600.46
-119.04697606,37.05973140,2595.85
-119.04698030,37.05988994,2596.62
-119.04698447,37.06004609,2603.18
-119.04699101,37.06028979,2626.36
-119.04699333,37.06037613,2632.03
-119.04699667,37.06050051,2616.30
-119.04700165,37.06068501,2611.91
-119.04701116,37.06103911,2601.58
-119.04701508,37.06118547,2605.43
-119.04701571,37.06120896,2608.53
-119.04702367,37.06150411,2613.81
-119.04702946,37.06171808,2616.68
-119.04703767,37.06202564,2619.96
-119.04704829,37.06242025,2622.46
-119.04705416,37.06263881,2631.70
-119.04705949,37.06283608,2624.01
-119.04706778,37.06314598,2627.43
-119.04706822,37.06316213,2635.40
-119.04707030,37.06323986,2628.50
-119.04707599,37.06345132,2630.27
-119.04707983,37.06359418,2644.22
-119.04708583,37.06381614,2630.77
-119.04709575,37.06418601,2628.68
-119.04710432,37.06450523,2615.44
-119.04710524,37.06453929,2614.83
-119.04710717,37.06460758,2614.46
     </coordinates>
    </LineString>
   </MultiGeometry>
  </Placemark>
 </Document>
</kml>
