<kml>
 <Document>
  <Style id="yellow">
   <LineStyle>
   <color>ff00ffff</color>
   <width>1</width>
   </LineStyle>
  </Style>
  <Style id="red">
   <LineStyle>
   <color>ffff0000</color>
   <width>2</width>
   </LineStyle>
  </Style>
  <Style id="green">
   <LineStyle>
   <color>ff00ff00</color>
   <width>1</width>
   </LineStyle>
  </Style>
  <Placemark>
  <styleUrl>#yellow</styleUrl>
   <MultiGeometry>
    <LineString>
     <coordinates>
-99.29018023,47.14828753,606.28
-99.29018162,47.14854186,607.19
-99.29018300,47.14878129,609.02
-99.29018484,47.14912826,607.96
-99.29018515,47.14918874,607.85
-99.29018671,47.14947553,608.24
-99.29018908,47.14990579,607.60
-99.29018976,47.15003766,608.25
-99.29019096,47.15025880,608.22
-99.29019101,47.15026702,608.21
-99.29019227,47.15046789,607.85
-99.29019396,47.15079315,609.03
-99.29019495,47.15098062,610.68
-99.29019554,47.15108735,611.84
-99.29019673,47.15113164,612.18
-99.29021685,47.15113256,612.37
-99.29034857,47.15113223,612.59
-99.29062284,47.15113152,612.40
-99.29108294,47.15113032,611.92
-99.29133825,47.15112969,611.89
-99.29152596,47.15112921,613.86
-99.29164694,47.15112889,612.80
-99.29223466,47.15112732,610.73
-99.29252786,47.15112666,610.52
-99.29302803,47.15112540,610.92
-99.29332995,47.15112462,611.38
-99.29348896,47.15112422,611.89
-99.29403397,47.15112262,614.98
-99.29433046,47.15112197,615.49
-99.29478392,47.15112085,615.16
-99.29494102,47.15112047,615.04
-99.29539589,47.15111909,615.32
-99.29571502,47.15111846,616.46
-99.29632421,47.15111692,615.87
-99.29657697,47.15111620,615.38
-99.29705234,47.15111500,614.07
-99.29758975,47.15111363,615.24
-99.29804341,47.15111240,616.42
-99.29825270,47.15111188,617.05
-99.29845487,47.15111139,618.26
-99.29900545,47.15110991,622.75
-99.29924800,47.15110926,625.00
-99.29972163,47.15110808,626.41
-99.30034689,47.15110641,626.80
-99.30097150,47.15110461,627.79
-99.30127251,47.15110396,628.01
-99.30176706,47.15110262,627.86
-99.30220127,47.15110151,630.06
-99.30250772,47.15110071,631.55
-99.30269649,47.15110019,632.44
-99.30310298,47.15109903,635.37
-99.30336521,47.15109828,636.63
-99.30338008,47.15109675,636.69
-99.30338419,47.15109061,636.73
-99.30338552,47.15107384,636.83
-99.30338592,47.15105490,636.75
-99.30338489,47.15086239,636.36
-99.30338344,47.15060929,635.65
-99.30338157,47.15027911,634.62
-99.30338004,47.15002592,633.21
-99.30337801,47.14968630,629.65
-99.30337676,47.14944680,627.84
-99.30337533,47.14918227,626.00
-99.30337343,47.14885762,625.10
-99.30337227,47.14866443,625.05
-99.30337009,47.14828189,623.21
-99.30336960,47.14819510,622.64
-99.30336725,47.14779212,620.14
-99.30336549,47.14745493,619.04
-99.30336307,47.14703905,618.45
-99.30336239,47.14692356,618.97
-99.30335992,47.14648062,621.13
-99.30335788,47.14611959,621.47
-99.30335582,47.14575837,624.30
-99.30335407,47.14544790,625.52
-99.30335251,47.14518882,628.77
-99.30335143,47.14498103,624.92
-99.30334895,47.14454823,624.02
-99.30334775,47.14433880,624.33
-99.30334610,47.14406066,624.23
-99.30334502,47.14385397,623.57
-99.30334291,47.14350212,622.08
-99.30334166,47.14326754,626.80
-99.30334029,47.14303472,634.13
-99.30333865,47.14274095,619.38
-99.30333814,47.14265435,619.10
-99.30333568,47.14221513,617.60
-99.30333484,47.14214871,631.42
-99.30333456,47.14213196,628.42
-99.30333395,47.14211205,617.35
-99.30332853,47.14210489,617.44
-99.30332594,47.14210215,617.33
-99.30330761,47.14210201,617.45
-99.30310396,47.14210076,622.00
-99.30308098,47.14210075,616.49
-99.30300681,47.14210093,623.03
-99.30282059,47.14210143,615.65
-99.30220640,47.14210305,615.33
-99.30199710,47.14210359,615.13
-99.30145022,47.14210520,614.58
-99.30089931,47.14210664,613.85
-99.30077415,47.14210688,613.88
-99.30071971,47.14210698,613.63
-99.30041468,47.14210774,613.73
-99.29986143,47.14210923,613.12
-99.29959659,47.14210991,613.19
-99.29911169,47.14211126,613.13
-99.29891502,47.14211170,613.40
-99.29872710,47.14211217,613.10
-99.29811957,47.14211379,612.79
-99.29785784,47.14211447,612.79
-99.29743163,47.14211564,612.81
-99.29718840,47.14211617,612.91
-99.29678612,47.14211726,613.88
-99.29651395,47.14211798,614.61
-99.29596620,47.14211937,612.58
-99.29563620,47.14212025,612.75
-99.29528833,47.14212111,614.18
-99.29497458,47.14212193,613.91
-99.29451369,47.14212306,612.16
-99.29402185,47.14212435,609.80
-99.29388150,47.14212493,608.93
-99.29331920,47.14212615,608.35
-99.29295260,47.14212707,608.39
-99.29272827,47.14212766,608.98
-99.29230998,47.14212879,609.32
-99.29185306,47.14212997,606.76
-99.29142649,47.14213100,607.56
-99.29076932,47.14213266,606.26
-99.29060009,47.14213307,605.64
-99.29017173,47.14213425,605.50
-99.29016224,47.14213465,605.46
-99.29015243,47.14213513,605.62
-99.29014886,47.14214069,605.53
-99.29014719,47.14218622,605.43
-99.29014721,47.14220395,605.46
-99.29014740,47.14225014,605.50
-99.29014813,47.14238743,605.42
-99.29015040,47.14280525,605.42
-99.29015279,47.14324019,607.33
-99.29015512,47.14366556,604.94
-99.29015578,47.14379297,604.83
-99.29015756,47.14407781,605.21
-99.29015841,47.14425005,604.92
-99.29015887,47.14434944,604.89
-99.29016019,47.14459639,604.49
-99.29016064,47.14468146,604.47
-99.29016075,47.14469882,604.53
-99.29016260,47.14501324,603.38
-99.29016412,47.14531882,604.52
-99.29016467,47.14542720,605.43
-99.29016615,47.14570016,606.72
-99.29016732,47.14591248,606.64
-99.29016853,47.14612404,607.75
-99.29017026,47.14645011,607.88
-99.29017212,47.14679592,606.54
-99.29017392,47.14707801,606.23
-99.29017500,47.14729746,606.36
-99.29017539,47.14737295,606.28
-99.29017722,47.14771648,605.82
-99.29017911,47.14806890,605.51
-99.29018023,47.14828753,606.28
     </coordinates>
    </LineString>
   </MultiGeometry>
  </Placemark>
 </Document>
</kml>
