<kml>
 <Document>
  <Style id="yellow">
   <LineStyle>
   <color>ff00ffff</color>
   <width>1</width>
   </LineStyle>
  </Style>
  <Style id="red">
   <LineStyle>
   <color>ffff0000</color>
   <width>2</width>
   </LineStyle>
  </Style>
  <Style id="green">
   <LineStyle>
   <color>ff00ff00</color>
   <width>1</width>
   </LineStyle>
  </Style>
  <Placemark>
  <styleUrl>#yellow</styleUrl>
   <MultiGeometry>
    <LineString>
     <coordinates>
-99.07915217,47.15644228,567.12
-99.07915231,47.15654743,565.51
-99.07915290,47.15690571,559.92
-99.07915314,47.15710784,557.60
-99.07915335,47.15724712,555.91
-99.07915389,47.15746002,554.32
-99.07915405,47.15772025,552.82
-99.07915425,47.15785267,552.11
-99.07915482,47.15823460,550.42
-99.07915525,47.15849698,549.17
-99.07915557,47.15873247,547.85
-99.07915576,47.15885701,547.14
-99.07915607,47.15902064,546.30
-99.07915665,47.15934551,544.80
-99.07915680,47.15952360,543.97
-99.07915714,47.15976125,543.15
-99.07915758,47.16003098,542.01
-99.07915784,47.16025004,541.37
-99.07915814,47.16042415,541.74
-99.07915831,47.16045910,541.95
-99.07915942,47.16046526,541.94
-99.07916579,47.16046733,541.95
-99.07921377,47.16047069,541.84
-99.07922922,47.16047106,541.66
-99.07934395,47.16047105,541.34
-99.07963796,47.16047097,540.51
-99.07992556,47.16047065,540.48
-99.08043995,47.16047045,541.90
-99.08088171,47.16047011,542.25
-99.08122674,47.16046990,541.22
-99.08127413,47.16046986,541.12
-99.08187206,47.16046939,539.80
-99.08245054,47.16046889,540.83
-99.08270806,47.16046884,541.30
-99.08331700,47.16046825,543.72
-99.08387084,47.16046799,545.48
-99.08446810,47.16046745,543.82
-99.08471588,47.16046735,544.63
-99.08516522,47.16046702,545.32
-99.08524101,47.16046695,545.30
-99.08569770,47.16046656,547.73
-99.08612030,47.16046629,547.87
-99.08652650,47.16046600,549.02
-99.08681900,47.16046574,549.45
-99.08741397,47.16046529,555.50
-99.08781918,47.16046499,557.05
-99.08811978,47.16046475,555.42
-99.08826902,47.16046455,553.84
-99.08870948,47.16046406,551.14
-99.08893548,47.16046416,551.63
-99.08938797,47.16046374,555.52
-99.08973041,47.16046344,557.99
-99.09007527,47.16046325,562.24
-99.09048606,47.16046289,565.16
-99.09098207,47.16046243,567.88
-99.09116973,47.16046242,567.97
-99.09124623,47.16046236,567.95
-99.09159408,47.16046208,567.83
-99.09224751,47.16046151,566.10
-99.09228812,47.16046136,565.94
-99.09234584,47.16046063,565.71
-99.09235084,47.16045301,565.57
-99.09235102,47.16042213,565.65
-99.09235101,47.16039022,565.19
-99.09235058,47.16024113,564.92
-99.09235047,47.16020093,564.73
-99.09234980,47.15976628,568.78
-99.09234973,47.15965956,568.03
-99.09234957,47.15956181,567.29
-99.09234956,47.15955453,567.32
-99.09234881,47.15914179,569.15
-99.09234818,47.15881790,570.24
-99.09234796,47.15864629,569.44
-99.09234790,47.15860264,569.22
-99.09234713,47.15816518,571.45
-99.09234666,47.15790452,569.56
-99.09234608,47.15756315,568.90
-99.09234534,47.15712870,571.32
-99.09234465,47.15673742,577.83
-99.09234438,47.15656349,581.03
-99.09234430,47.15651870,581.34
-99.09234411,47.15641701,581.79
-99.09234355,47.15613809,582.27
-99.09234301,47.15577610,582.06
-99.09234224,47.15534902,582.45
-99.09234200,47.15523680,580.94
-99.09234182,47.15516311,580.15
-99.09234120,47.15475799,581.20
-99.09234118,47.15473200,581.52
-99.09234042,47.15431112,587.17
-99.09233982,47.15393363,588.14
-99.09233910,47.15353167,586.48
-99.09233855,47.15324168,585.76
-99.09233824,47.15307372,585.29
-99.09233766,47.15274015,584.55
-99.09233753,47.15261213,584.10
-99.09233688,47.15223711,584.08
-99.09233672,47.15215732,585.61
-99.09233606,47.15176603,588.13
-99.09233560,47.15150533,582.37
-99.09233545,47.15149245,582.04
-99.09233379,47.15146446,581.32
-99.09233135,47.15146343,581.31
-99.09228617,47.15146311,584.44
-99.09219406,47.15146317,585.29
-99.09179222,47.15146353,586.07
-99.09125722,47.15146387,589.91
-99.09089344,47.15146415,590.02
-99.09082327,47.15146423,589.79
-99.09023218,47.15146475,586.54
-99.08999628,47.15146486,586.07
-99.08982633,47.15146497,585.78
-99.08925960,47.15146544,587.55
-99.08885215,47.15146595,589.89
-99.08842638,47.15146624,592.78
-99.08799127,47.15146654,593.16
-99.08767634,47.15146667,591.66
-99.08702219,47.15146719,588.83
-99.08661798,47.15146749,586.33
-99.08600003,47.15146794,587.76
-99.08535600,47.15146839,586.06
-99.08517245,47.15146855,585.62
-99.08480277,47.15146887,586.50
-99.08447193,47.15146913,590.83
-99.08397191,47.15146948,593.24
-99.08359580,47.15146984,590.81
-99.08320056,47.15147008,587.75
-99.08291733,47.15147019,585.21
-99.08268623,47.15147046,582.70
-99.08257318,47.15147059,581.74
-99.08200976,47.15147096,577.97
-99.08163805,47.15147118,577.93
-99.08124182,47.15147139,578.20
-99.08071439,47.15147177,578.34
-99.08048480,47.15147193,578.30
-99.07990118,47.15147235,576.02
-99.07980065,47.15147239,576.01
-99.07952130,47.15147263,576.41
-99.07919253,47.15147305,576.89
-99.07917248,47.15147347,576.84
-99.07916234,47.15147375,576.85
-99.07914738,47.15147629,576.68
-99.07914491,47.15149041,576.57
-99.07914515,47.15168633,575.51
-99.07914554,47.15198622,575.38
-99.07914588,47.15220841,574.27
-99.07914630,47.15240843,573.06
-99.07914674,47.15276791,574.31
-99.07914716,47.15307659,574.07
-99.07914758,47.15332280,572.86
-99.07914795,47.15357612,573.48
-99.07914821,47.15375906,573.98
-99.07914865,47.15399880,576.11
-99.07914904,47.15422090,577.87
-99.07914958,47.15459884,579.86
-99.07915006,47.15496586,577.99
-99.07915029,47.15515709,576.68
-99.07915059,47.15534377,574.83
-99.07915114,47.15573112,570.75
-99.07915158,47.15602586,566.17
-99.07915217,47.15644228,567.12
     </coordinates>
    </LineString>
   </MultiGeometry>
  </Placemark>
 </Document>
</kml>
