<kml>
 <Document>
  <Style id="yellow">
   <LineStyle>
   <color>ff00ffff</color>
   <width>1</width>
   </LineStyle>
  </Style>
  <Style id="red">
   <LineStyle>
   <color>ffff0000</color>
   <width>2</width>
   </LineStyle>
  </Style>
  <Style id="green">
   <LineStyle>
   <color>ff00ff00</color>
   <width>1</width>
   </LineStyle>
  </Style>
  <Placemark>
  <styleUrl>#yellow</styleUrl>
   <MultiGeometry>
    <LineString>
     <coordinates>
-99.23737263,47.13758491,572.13
-99.23737394,47.13790320,573.67
-99.23737484,47.13810416,578.01
-99.23737567,47.13826425,577.46
-99.23737742,47.13866606,576.01
-99.23737774,47.13873849,575.81
-99.23737938,47.13912214,577.25
-99.23738140,47.13950131,578.40
-99.23738239,47.13976469,581.94
-99.23738393,47.14014737,580.74
-99.23738478,47.14033612,577.13
-99.23738543,47.14047606,576.74
-99.23738652,47.14062147,577.01
-99.23738716,47.14072191,577.01
-99.23738886,47.14112498,579.06
-99.23738939,47.14134518,580.67
-99.23738979,47.14141935,580.29
-99.23739042,47.14153784,577.56
-99.23739184,47.14176802,576.78
-99.23739274,47.14202948,578.52
-99.23739330,47.14225227,582.00
-99.23748429,47.14225542,582.41
-99.23757980,47.14225527,581.43
-99.23774489,47.14225479,579.19
-99.23813576,47.14225388,576.86
-99.23841247,47.14225348,576.58
-99.23854801,47.14225316,576.65
-99.23908788,47.14225213,577.07
-99.23949353,47.14225126,582.38
-99.24013153,47.14224991,580.07
-99.24046322,47.14224921,578.98
-99.24098049,47.14224816,579.52
-99.24120274,47.14224769,580.99
-99.24151834,47.14224676,583.65
-99.24199016,47.14224600,585.27
-99.24220668,47.14224551,584.08
-99.24282294,47.14224428,584.87
-99.24342107,47.14224300,585.18
-99.24403957,47.14224167,583.09
-99.24435470,47.14224103,581.52
-99.24479070,47.14224003,580.46
-99.24511445,47.14223931,580.65
-99.24568557,47.14223809,581.71
-99.24600805,47.14223738,583.59
-99.24664290,47.14223461,587.98
-99.24669965,47.14223492,588.41
-99.24679508,47.14223548,588.97
-99.24682390,47.14223566,589.11
-99.24683330,47.14223571,589.23
-99.24697617,47.14223539,589.81
-99.24738573,47.14223322,591.29
-99.24767499,47.14223390,589.74
-99.24829884,47.14223254,593.22
-99.24894687,47.14222750,591.24
-99.24898401,47.14222742,591.23
-99.24904911,47.14222727,591.15
-99.24909579,47.14222718,591.21
-99.24913284,47.14222709,591.10
-99.24917015,47.14222701,591.09
-99.24917953,47.14222699,591.18
-99.24918902,47.14222697,591.09
-99.24923548,47.14222688,591.23
-99.24927285,47.14222682,591.36
-99.24930083,47.14222676,591.44
-99.24932852,47.14222669,591.31
-99.24941210,47.14222650,591.19
-99.24946778,47.14222639,591.21
-99.24950523,47.14222630,591.13
-99.24954244,47.14222621,591.00
-99.24961671,47.14222604,590.84
-99.24962581,47.14222602,590.77
-99.24963534,47.14222600,590.76
-99.24966326,47.14222594,590.70
-99.24970963,47.14222583,590.65
-99.24978417,47.14222566,590.35
-99.24979348,47.14222564,590.36
-99.24980280,47.14222562,590.40
-99.24981190,47.14222560,590.36
-99.24988646,47.14222542,590.24
-99.24990510,47.14222538,590.28
-99.24991442,47.14222536,590.24
-99.24992373,47.14222534,590.29
-99.24994239,47.14222530,590.21
-99.24995171,47.14222528,590.21
-99.24996102,47.14222526,590.21
-99.24997035,47.14222524,590.17
-99.24997968,47.14222522,590.19
-99.24998879,47.14222520,590.16
-99.24999812,47.14222518,590.16
-99.25000765,47.14222516,590.15
-99.25001696,47.14222514,590.23
-99.25010068,47.14222497,590.16
-99.25013794,47.14222489,590.31
-99.25025888,47.14222465,590.53
-99.25036136,47.14222445,590.82
-99.25048264,47.14222420,590.96
-99.25057597,47.14222401,591.12
-99.25057995,47.14219383,591.02
-99.25058068,47.14211948,590.69
-99.25058050,47.14201625,590.20
-99.25058032,47.14196547,590.02
-99.25057931,47.14173201,589.71
-99.25057896,47.14165155,589.72
-99.25057731,47.14129737,589.92
-99.25057520,47.14091638,587.92
-99.25057475,47.14080154,587.93
-99.25057347,47.14049086,589.13
-99.25057291,47.14035809,588.23
-99.25057168,47.14009995,586.71
-99.25056988,47.13977988,586.90
-99.25056926,47.13962050,586.71
-99.25056755,47.13925630,587.08
-99.25056624,47.13898418,590.19
-99.25056480,47.13870817,592.12
-99.25056341,47.13834444,592.56
-99.25056176,47.13798723,591.09
-99.25056052,47.13776098,590.91
-99.25055945,47.13750704,589.87
-99.25055876,47.13739113,589.23
-99.25055714,47.13704657,588.72
-99.25055589,47.13675686,588.27
-99.25055424,47.13643551,589.19
-99.25055305,47.13614295,592.09
-99.25055163,47.13584060,591.45
-99.25054970,47.13547895,591.89
-99.25054823,47.13511687,594.14
-99.25054620,47.13469301,592.65
-99.25054465,47.13435372,592.47
-99.25054296,47.13402713,591.77
-99.25054195,47.13377094,591.61
-99.25054160,47.13369329,591.62
-99.25054034,47.13343652,592.19
-99.25053857,47.13327217,592.49
-99.25053798,47.13324689,592.52
-99.25053771,47.13324375,592.65
-99.25053618,47.13323056,592.57
-99.25046052,47.13322959,592.62
-99.25045089,47.13322946,592.53
-99.25044163,47.13322935,592.54
-99.24991251,47.13323052,592.62
-99.24964073,47.13323111,592.47
-99.24913384,47.13323220,592.68
-99.24865290,47.13323329,591.88
-99.24834670,47.13323397,591.59
-99.24783341,47.13323503,590.92
-99.24757173,47.13323562,590.41
-99.24734293,47.13323613,589.98
-99.24673864,47.13323738,588.81
-99.24627565,47.13323837,588.29
-99.24604121,47.13323888,588.47
-99.24540701,47.13324025,588.17
-99.24534542,47.13324037,588.07
-99.24519574,47.13324074,589.40
-99.24464084,47.13324192,588.48
-99.24436527,47.13324254,589.01
-99.24383419,47.13324365,585.50
-99.24350325,47.13324440,585.89
-99.24311472,47.13324520,584.93
-99.24277628,47.13324591,586.04
-99.24238510,47.13324668,583.03
-99.24187883,47.13324781,581.52
-99.24168367,47.13324819,581.32
-99.24107203,47.13324945,581.09
-99.24041751,47.13325089,577.95
-99.24028085,47.13325115,578.85
-99.24010256,47.13325149,579.54
-99.23964277,47.13325247,576.97
-99.23933826,47.13325314,578.33
-99.23884295,47.13325420,575.42
-99.23867769,47.13325463,575.23
-99.23803383,47.13325584,574.21
-99.23771911,47.13325649,574.09
-99.23759463,47.13325676,573.95
-99.23738515,47.13325736,574.37
-99.23737512,47.13325775,574.36
-99.23736532,47.13325814,574.38
-99.23735556,47.13325853,574.40
-99.23735408,47.13329407,574.14
-99.23735377,47.13336343,574.06
-99.23735571,47.13379208,573.64
-99.23735715,47.13412465,574.18
-99.23735788,47.13428197,574.19
-99.23735944,47.13462539,574.23
-99.23736046,47.13487282,573.39
-99.23736207,47.13519641,571.78
-99.23736409,47.13563674,571.92
-99.23736596,47.13605739,571.88
-99.23736675,47.13624796,571.91
-99.23736735,47.13637128,571.68
-99.23736924,47.13682057,571.81
-99.23737029,47.13696982,572.08
-99.23737133,47.13731125,572.16
-99.23737151,47.13734785,571.91
-99.23737263,47.13758491,572.13
     </coordinates>
    </LineString>
   </MultiGeometry>
  </Placemark>
 </Document>
</kml>
