<kml>
 <Document>
  <Style id="yellow">
   <LineStyle>
   <color>ff00ffff</color>
   <width>1</width>
   </LineStyle>
  </Style>
  <Style id="red">
   <LineStyle>
   <color>ffff0000</color>
   <width>2</width>
   </LineStyle>
  </Style>
  <Style id="green">
   <LineStyle>
   <color>ff00ff00</color>
   <width>1</width>
   </LineStyle>
  </Style>
  <Placemark>
  <styleUrl>#yellow</styleUrl>
   <MultiGeometry>
    <LineString>
     <coordinates>
-99.26857703,47.13318825,613.37
-99.26886027,47.13318758,610.61
-99.26947170,47.13314165,610.67
-99.26954103,47.13318371,610.62
-99.26970739,47.13318426,610.69
-99.27024252,47.13318426,611.28
-99.27062812,47.13318337,610.85
-99.27116228,47.13318207,613.07
-99.27168233,47.13318091,614.16
-99.27219074,47.13317967,618.64
-99.27219990,47.13317958,618.61
-99.27222719,47.13317923,619.32
-99.27225448,47.13317891,619.82
-99.27227245,47.13317869,620.23
-99.27228176,47.13317857,620.37
-99.27229974,47.13317836,620.66
-99.27231813,47.13317815,620.89
-99.27296037,47.13317789,622.86
-99.27344779,47.13317670,624.51
-99.27372157,47.13317596,624.54
-99.27422702,47.13317477,624.97
-99.27470223,47.13317370,624.32
-99.27497758,47.13317305,623.76
-99.27550845,47.13317165,624.95
-99.27575266,47.13317113,624.32
-99.27588076,47.13317085,624.20
-99.27637478,47.13316965,621.25
-99.27667838,47.13316897,619.42
-99.27687856,47.13316792,619.32
-99.27689685,47.13316662,619.29
-99.27690592,47.13316596,619.14
-99.27690790,47.13315737,619.26
-99.27690982,47.13314875,619.30
-99.27691047,47.13313990,619.13
-99.27691101,47.13306804,619.58
-99.27691044,47.13295006,621.51
-99.27690957,47.13278764,621.41
-99.27690742,47.13235334,619.70
-99.27690633,47.13213985,620.24
-99.27690448,47.13178512,621.73
-99.27690244,47.13138872,621.84
-99.27690133,47.13123152,621.76
-99.27689990,47.13090262,621.09
-99.27689893,47.13071183,619.91
-99.27689672,47.13033824,618.48
-99.27689602,47.13016787,619.11
-99.27689559,47.13007648,619.75
-99.27689404,47.12979253,620.33
-99.27689222,47.12942306,618.69
-99.27689110,47.12921989,618.53
-99.27689035,47.12908260,619.28
-99.27688942,47.12891371,620.56
-99.27688787,47.12860359,621.48
-99.27688595,47.12824671,621.47
-99.27688401,47.12784521,621.39
-99.27688186,47.12742146,621.58
-99.27687969,47.12701018,618.78
-99.27687712,47.12657511,615.72
-99.27687689,47.12650903,615.78
-99.27687518,47.12619529,615.78
-99.27687424,47.12596221,615.32
-99.27687243,47.12560356,616.03
-99.27687039,47.12528326,616.81
-99.27686959,47.12510466,617.07
-99.27686910,47.12496421,617.68
-99.27686824,47.12479529,617.69
-99.27686693,47.12455926,618.09
-99.27686508,47.12422049,616.79
-99.27686411,47.12418581,616.55
-99.27685931,47.12417701,616.36
-99.27685693,47.12417352,616.44
-99.27678973,47.12417018,616.38
-99.27668540,47.12417040,616.53
-99.27648656,47.12417088,616.31
-99.27616289,47.12417180,615.68
-99.27573541,47.12417269,619.68
-99.27514054,47.12417416,609.16
-99.27480944,47.12417499,608.40
-99.27442945,47.12417588,617.52
-99.27415437,47.12417650,610.13
-99.27376525,47.12417747,610.31
-99.27312509,47.12417896,608.75
-99.27283561,47.12417964,615.49
-99.27249857,47.12418044,607.38
-99.27184595,47.12418199,605.34
-99.27150743,47.12418282,606.15
-99.27115633,47.12418363,610.37
-99.27076732,47.12418458,614.85
-99.27046612,47.12418526,604.66
-99.26997109,47.12418645,602.99
-99.26967736,47.12418711,602.18
-99.26948423,47.12418758,602.60
-99.26887775,47.12418902,599.41
-99.26874145,47.12418940,599.64
-99.26873587,47.12418944,599.44
-99.26842689,47.12425249,599.61
-99.26841678,47.12425529,599.24
-99.26821256,47.12435291,599.66
-99.26764425,47.12421511,599.60
-99.26761191,47.12419663,599.32
-99.26758101,47.12419221,598.99
-99.26756257,47.12419211,599.04
-99.26753434,47.12419217,599.66
-99.26724544,47.12419491,599.66
-99.26659813,47.12419831,600.89
-99.26649794,47.12419799,601.60
-99.26636174,47.12419744,602.32
-99.26633468,47.12419731,602.38
-99.26627104,47.12419697,602.48
-99.26616211,47.12419633,602.56
-99.26611684,47.12419607,602.56
-99.26607156,47.12419581,602.62
-99.26605317,47.12419571,602.64
-99.26604431,47.12419567,602.69
-99.26553380,47.12419678,601.61
-99.26525814,47.12419743,599.65
-99.26475881,47.12419858,599.35
-99.26469963,47.12419871,599.51
-99.26426634,47.12419982,599.75
-99.26382347,47.12420085,599.21
-99.26368255,47.12420350,599.59
-99.26368155,47.12420600,599.63
-99.26368169,47.12431602,600.16
-99.26368274,47.12450968,599.71
-99.26368453,47.12488025,599.22
-99.26368550,47.12507918,598.56
-99.26368628,47.12523527,598.41
-99.26368726,47.12542459,596.66
-99.26368944,47.12580442,596.11
-99.26369196,47.12611510,596.07
-99.26369319,47.12627374,595.92
-99.26370023,47.12654785,596.14
-99.26369489,47.12683345,596.38
-99.26369462,47.12684180,596.45
-99.26369448,47.12689173,596.43
-99.26369629,47.12723630,598.53
-99.26369731,47.12745379,597.40
-99.26369917,47.12784320,596.81
-99.26370034,47.12808830,597.10
-99.26370220,47.12847020,599.23
-99.26370372,47.12877703,602.28
-99.26370547,47.12911608,603.36
-99.26370644,47.12930115,602.98
-99.26370680,47.12937149,603.02
-99.26370791,47.12959352,603.22
-99.26370952,47.12994551,602.90
-99.26371172,47.13038569,602.86
-99.26371223,47.13049283,602.44
-99.26371363,47.13077782,602.87
-99.26371387,47.13082017,602.70
-99.26371590,47.13112967,602.36
-99.26371606,47.13127342,604.05
-99.26371743,47.13152500,603.88
-99.26371844,47.13174437,601.96
-99.26372009,47.13205772,600.17
-99.26372128,47.13231701,600.54
-99.26372304,47.13266807,600.50
-99.26372457,47.13298805,600.57
-99.26372507,47.13306999,601.21
-99.26372552,47.13313926,601.55
-99.26372717,47.13319523,601.74
-99.26382349,47.13319912,602.29
-99.26390930,47.13319902,603.05
-99.26438158,47.13319801,603.84
-99.26489578,47.13319680,604.60
-99.26515794,47.13319620,604.30
-99.26517677,47.13319611,604.35
-99.26522337,47.13319589,604.30
-99.26528901,47.13319558,604.50
-99.26535462,47.13319526,604.76
-99.26537338,47.13319517,604.81
-99.26542001,47.13319495,604.72
-99.26543869,47.13319486,604.91
-99.26548546,47.13319464,605.00
-99.26550403,47.13319455,605.10
-99.26552269,47.13319446,605.10
-99.26556956,47.13319423,605.34
-99.26558829,47.13319414,605.42
-99.26560693,47.13319406,605.44
-99.26562581,47.13319397,605.71
-99.26564431,47.13319388,605.81
-99.26572852,47.13319349,606.35
-99.26574693,47.13319340,606.40
-99.26576536,47.13319331,606.48
-99.26578419,47.13319322,606.77
-99.26580288,47.13319313,606.93
-99.26582159,47.13319305,607.13
-99.26584021,47.13319296,607.21
-99.26585878,47.13319287,607.25
-99.26587718,47.13319278,607.33
-99.26593309,47.13319252,607.76
-99.26596098,47.13319238,607.88
-99.26597952,47.13319229,607.91
-99.26602584,47.13319209,608.33
-99.26605375,47.13319196,608.64
-99.26607229,47.13319187,608.72
-99.26609993,47.13319174,608.91
-99.26611847,47.13319165,609.05
-99.26614624,47.13319153,609.15
-99.26616481,47.13319144,609.35
-99.26681604,47.13319236,613.29
-99.26684363,47.13319221,613.39
-99.26687120,47.13319205,613.48
-99.26752210,47.13319065,612.53
-99.26809422,47.13318936,615.26
-99.26857703,47.13318825,613.37
     </coordinates>
    </LineString>
   </MultiGeometry>
  </Placemark>
 </Document>
</kml>
