<kml>
 <Document>
  <Style id="yellow">
   <LineStyle>
   <color>ff00ffff</color>
   <width>1</width>
   </LineStyle>
  </Style>
  <Style id="red">
   <LineStyle>
   <color>ffff0000</color>
   <width>2</width>
   </LineStyle>
  </Style>
  <Style id="green">
   <LineStyle>
   <color>ff00ff00</color>
   <width>1</width>
   </LineStyle>
  </Style>
  <Placemark>
  <styleUrl>#yellow</styleUrl>
   <MultiGeometry>
    <LineString>
     <coordinates>
-99.26361365,47.11054411,591.16
-99.26361560,47.11093936,591.43
-99.26361604,47.11102894,590.32
-99.26361702,47.11122134,587.18
-99.26361918,47.11165708,587.59
-99.26362021,47.11187367,590.07
-99.26362228,47.11227368,591.95
-99.26362265,47.11234651,591.51
-99.26362368,47.11254880,590.48
-99.26362489,47.11281596,592.53
-99.26362600,47.11303996,593.33
-99.26362772,47.11339402,589.97
-99.26362913,47.11367694,589.43
-99.26362958,47.11375363,589.68
-99.26363171,47.11420003,591.75
-99.26363239,47.11433926,593.19
-99.26363277,47.11441599,593.72
-99.26363487,47.11484128,594.36
-99.26363497,47.11486199,594.42
-99.26363644,47.11515693,594.60
-99.26363670,47.11519902,594.43
-99.26364011,47.11520026,594.47
-99.26364586,47.11520148,594.41
-99.26374576,47.11520222,594.48
-99.26379794,47.11520216,594.55
-99.26433841,47.11520091,594.91
-99.26451682,47.11520047,594.71
-99.26491314,47.11519951,595.20
-99.26528807,47.11519876,596.98
-99.26556292,47.11519810,596.78
-99.26573172,47.11519765,596.26
-99.26623810,47.11519653,597.13
-99.26688186,47.11519505,597.95
-99.26713849,47.11519446,598.37
-99.26742072,47.11519374,598.11
-99.26755740,47.11519339,597.41
-99.26809217,47.11519222,594.89
-99.26833978,47.11519165,595.04
-99.26874525,47.11519066,596.71
-99.26930678,47.11518937,599.78
-99.26980151,47.11518807,600.26
-99.27018995,47.11518721,600.57
-99.27042837,47.11518673,599.73
-99.27082174,47.11518569,599.53
-99.27124128,47.11518476,599.09
-99.27184879,47.11518313,599.74
-99.27204285,47.11518268,599.46
-99.27231683,47.11518206,598.86
-99.27249150,47.11518166,598.89
-99.27289090,47.11518070,601.88
-99.27334317,47.11517971,601.21
-99.27370280,47.11517891,601.15
-99.27395793,47.11517833,601.54
-99.27433489,47.11517744,601.51
-99.27483951,47.11517619,603.67
-99.27521429,47.11517530,602.42
-99.27552360,47.11517459,601.96
-99.27604043,47.11517333,601.95
-99.27644433,47.11517218,601.39
-99.27670837,47.11517163,601.78
-99.27671821,47.11517144,601.97
-99.27673776,47.11517102,602.23
-99.27678601,47.11516996,602.65
-99.27680539,47.11516953,602.82
-99.27681497,47.11516930,602.82
-99.27681682,47.11516070,602.86
-99.27681771,47.11511747,602.90
-99.27681690,47.11492625,602.68
-99.27681595,47.11471508,601.97
-99.27681372,47.11429817,601.48
-99.27681168,47.11391721,601.64
-99.27681021,47.11361013,601.54
-99.27680841,47.11326768,601.60
-99.27680787,47.11315958,601.52
-99.27680562,47.11273728,601.65
-99.27680351,47.11232042,602.16
-99.27680299,47.11224847,601.61
-99.27680110,47.11185901,601.70
-99.27680044,47.11173233,601.60
-99.27680004,47.11166940,601.53
-99.27679817,47.11134785,601.67
-99.27679752,47.11116493,602.43
-99.27679608,47.11088632,602.62
-99.27679528,47.11074909,603.32
-99.27679347,47.11037973,604.95
-99.27679215,47.11013190,606.82
-99.27679175,47.11006838,607.33
-99.27678989,47.10975477,608.29
-99.27678919,47.10956836,609.83
-99.27678775,47.10932878,610.66
-99.27678552,47.10889857,610.37
-99.27678400,47.10858153,610.78
-99.27678270,47.10835545,610.94
-99.27678157,47.10815210,611.26
-99.27677998,47.10781767,611.23
-99.27677795,47.10738644,612.34
-99.27677668,47.10717844,612.79
-99.27677510,47.10686839,610.76
-99.27677356,47.10657907,608.79
-99.27677266,47.10637336,608.23
-99.27677177,47.10626050,608.06
-99.27677062,47.10618481,608.33
-99.27676438,47.10617651,608.25
-99.27671986,47.10617327,608.27
-99.27662636,47.10617335,607.95
-99.27646594,47.10617376,607.46
-99.27596399,47.10617503,607.42
-99.27571827,47.10617560,608.10
-99.27514282,47.10617694,608.83
-99.27461311,47.10617825,607.00
-99.27447645,47.10617852,607.07
-99.27386192,47.10618000,606.06
-99.27360120,47.10618065,604.97
-99.27330622,47.10618142,604.27
-99.27288783,47.10618234,602.26
-99.27287849,47.10618236,602.11
-99.27225541,47.10618877,600.58
-99.27221786,47.10618875,600.52
-99.27220821,47.10618874,600.50
-99.27217064,47.10618871,600.44
-99.27215199,47.10618871,600.38
-99.27213310,47.10618870,600.33
-99.27212368,47.10618869,600.25
-99.27210480,47.10618869,600.16
-99.27206703,47.10618867,600.01
-99.27202947,47.10618865,599.93
-99.27197281,47.10618864,599.59
-99.27193522,47.10618862,599.47
-99.27185961,47.10618852,599.70
-99.27178424,47.10618846,599.63
-99.27176553,47.10618844,599.59
-99.27175586,47.10618844,599.58
-99.27168991,47.10618839,599.50
-99.27166153,47.10618838,599.45
-99.27165228,47.10618837,599.42
-99.27162367,47.10618836,599.30
-99.27161440,47.10618835,599.22
-99.27160494,47.10618835,599.22
-99.27158600,47.10618834,599.14
-99.27151964,47.10618832,598.81
-99.27150093,47.10618831,598.78
-99.27121686,47.10618811,598.39
-99.27120739,47.10618809,598.40
-99.27119791,47.10618808,598.40
-99.27117900,47.10618805,598.50
-99.27113167,47.10618799,598.64
-99.27109398,47.10618795,598.72
-99.27104638,47.10618793,598.59
-99.27098922,47.10618789,598.42
-99.27089403,47.10618782,598.32
-99.27085589,47.10618779,598.26
-99.27078933,47.10618774,598.16
-99.27070381,47.10618766,598.23
-99.27067538,47.10618764,598.23
-99.27064632,47.10618764,598.06
-99.27012552,47.10618888,598.05
-99.26951801,47.10619035,596.50
-99.26939874,47.10619062,595.83
-99.26883742,47.10619201,597.24
-99.26865545,47.10619244,596.36
-99.26808293,47.10619367,594.11
-99.26784717,47.10619425,594.01
-99.26723690,47.10619572,591.33
-99.26684035,47.10619663,591.04
-99.26654138,47.10619730,591.13
-99.26619295,47.10619807,591.03
-99.26553857,47.10619967,594.17
-99.26489914,47.10620114,593.04
-99.26427461,47.10620252,593.85
-99.26367501,47.10620394,593.32
-99.26360809,47.10620410,593.00
-99.26360141,47.10620557,593.04
-99.26359470,47.10621060,593.16
-99.26359231,47.10622144,593.33
-99.26359333,47.10641796,593.78
-99.26359491,47.10671940,591.76
-99.26359558,47.10688554,591.35
-99.26359643,47.10705222,591.37
-99.26359773,47.10730235,591.38
-99.26359940,47.10764801,591.00
-99.26360025,47.10782159,589.47
-99.26360164,47.10810853,588.17
-99.26360364,47.10849910,588.19
-99.26360484,47.10875839,590.78
-99.26360537,47.10886736,590.75
-99.26360609,47.10900820,589.66
-99.26360831,47.10945724,586.72
-99.26360889,47.10957702,586.79
-99.26360939,47.10967202,586.78
-99.26361081,47.10993418,587.60
-99.26361220,47.11022972,590.71
-99.26361233,47.11025791,590.55
-99.26361365,47.11054411,591.16
     </coordinates>
    </LineString>
   </MultiGeometry>
  </Placemark>
 </Document>
</kml>
