<kml>
 <Document>
  <Style id="yellow">
   <LineStyle>
   <color>ff00ffff</color>
   <width>1</width>
   </LineStyle>
  </Style>
  <Style id="red">
   <LineStyle>
   <color>ffff0000</color>
   <width>2</width>
   </LineStyle>
  </Style>
  <Style id="green">
   <LineStyle>
   <color>ff00ff00</color>
   <width>1</width>
   </LineStyle>
  </Style>
  <Placemark>
  <styleUrl>#yellow</styleUrl>
   <MultiGeometry>
    <LineString>
     <coordinates>
-99.23931007,47.10625473,580.17
-99.23991355,47.10625600,580.97
-99.24016687,47.10625554,580.36
-99.24061352,47.10625465,577.81
-99.24104629,47.10625370,578.30
-99.24127806,47.10625323,578.71
-99.24158004,47.10625253,579.84
-99.24212620,47.10625143,579.00
-99.24222818,47.10625124,578.62
-99.24271579,47.10625022,577.43
-99.24280331,47.10625003,577.53
-99.24305182,47.10624938,577.51
-99.24356505,47.10624834,577.44
-99.24408730,47.10624730,579.09
-99.24421390,47.10624696,579.27
-99.24482350,47.10624571,579.35
-99.24487392,47.10624562,579.61
-99.24533642,47.10624456,581.06
-99.24586699,47.10624345,580.38
-99.24617923,47.10624280,580.54
-99.24648390,47.10624216,581.62
-99.24689249,47.10624127,582.50
-99.24752248,47.10623993,583.11
-99.24802110,47.10623885,583.34
-99.24826617,47.10623825,582.88
-99.24874865,47.10623723,580.81
-99.24935936,47.10623585,579.15
-99.24959959,47.10623539,579.97
-99.24988618,47.10623480,580.27
-99.25012482,47.10623423,580.75
-99.25041170,47.10623324,581.55
-99.25041257,47.10622204,581.66
-99.25041170,47.10601935,580.99
-99.25040975,47.10563817,579.33
-99.25040869,47.10537691,578.44
-99.25040791,47.10520530,578.07
-99.25040655,47.10491801,577.74
-99.25040632,47.10487267,577.71
-99.25040485,47.10464070,577.52
-99.25040391,47.10438072,577.39
-99.25040243,47.10404270,577.21
-99.25040018,47.10361749,576.96
-99.25039904,47.10338439,576.96
-99.25039820,47.10313747,577.11
-99.25039599,47.10272285,577.44
-99.25039544,47.10260072,577.38
-99.25039472,47.10243569,577.24
-99.25039354,47.10215274,576.94
-99.25039167,47.10175015,576.68
-99.25039057,47.10151365,577.03
-99.25038854,47.10108006,578.12
-99.25038724,47.10081723,577.45
-99.25038637,47.10062603,578.34
-99.25038540,47.10042533,578.96
-99.25038372,47.10004767,578.96
-99.25038303,47.09990553,579.00
-99.25038254,47.09980926,579.44
-99.25038071,47.09940512,579.52
-99.25037884,47.09900919,577.26
-99.25037695,47.09860638,576.29
-99.25037566,47.09833339,576.99
-99.25037464,47.09811350,575.30
-99.25037274,47.09771204,578.98
-99.25037248,47.09765176,579.05
-99.25037063,47.09728867,579.23
-99.25036990,47.09723977,579.02
-99.25036465,47.09723588,579.01
-99.25014738,47.09723568,579.04
-99.24963024,47.09723688,578.67
-99.24940708,47.09723730,578.62
-99.24892132,47.09723839,581.34
-99.24868421,47.09723887,584.19
-99.24848908,47.09723924,586.07
-99.24802964,47.09724024,588.72
-99.24760018,47.09724116,588.24
-99.24737603,47.09724165,584.45
-99.24716459,47.09724211,581.72
-99.24710822,47.09724224,581.16
-99.24670178,47.09724318,584.35
-99.24624105,47.09724416,585.58
-99.24583386,47.09724507,587.34
-99.24547624,47.09724574,586.19
-99.24524844,47.09724628,584.75
-99.24481241,47.09724718,584.78
-99.24435124,47.09724824,587.19
-99.24412654,47.09724867,589.22
-99.24351191,47.09724996,590.21
-99.24341730,47.09725014,590.39
-99.24277436,47.09725166,587.42
-99.24218213,47.09725289,585.91
-99.24187424,47.09725344,584.85
-99.24167268,47.09725386,584.22
-99.24115362,47.09725493,583.86
-99.24093241,47.09725538,583.09
-99.24048258,47.09725635,580.60
-99.23982504,47.09725775,578.35
-99.23956102,47.09725829,578.65
-99.23955909,47.09725829,578.66
-99.23937868,47.09725884,579.59
-99.23887117,47.09725973,579.98
-99.23834201,47.09726087,581.04
-99.23807481,47.09726149,580.60
-99.23757963,47.09726242,578.89
-99.23752922,47.09726251,579.62
-99.23733577,47.09726290,580.70
-99.23725910,47.09726308,581.00
-99.23719404,47.09726958,581.23
-99.23719373,47.09727166,581.24
-99.23719349,47.09727787,581.26
-99.23719416,47.09745727,581.96
-99.23719513,47.09768044,582.34
-99.23719548,47.09775631,582.80
-99.23719646,47.09795579,582.88
-99.23719821,47.09835905,581.77
-99.23719949,47.09865996,578.92
-99.23720068,47.09892233,576.03
-99.23720262,47.09934620,573.03
-99.23720323,47.09949940,572.71
-99.23720475,47.09984428,572.85
-99.23720541,47.09999524,572.57
-99.23720662,47.10026529,571.25
-99.23720747,47.10045728,570.74
-99.23720821,47.10060566,571.41
-99.23720873,47.10068450,571.68
-99.23721015,47.10087991,572.01
-99.23721143,47.10116156,571.90
-99.23721154,47.10134408,571.62
-99.23721299,47.10169942,571.99
-99.23721389,47.10190466,572.35
-99.23721485,47.10210957,571.27
-99.23721591,47.10236069,573.37
-99.23721646,47.10246062,573.72
-99.23721727,47.10259240,572.29
-99.23721835,47.10280159,567.60
-99.23721942,47.10314409,567.10
-99.23722055,47.10340077,567.05
-99.23722215,47.10375887,567.40
-99.23722340,47.10404233,570.02
-99.23722463,47.10431585,570.73
-99.23722554,47.10448830,570.65
-99.23722601,47.10456624,570.22
-99.23722757,47.10497530,569.38
-99.23722935,47.10538529,569.90
-99.23723059,47.10565246,572.00
-99.23723185,47.10589488,572.65
-99.23723279,47.10607225,573.66
-99.23723357,47.10620995,575.09
-99.23723541,47.10625995,575.42
-99.23724543,47.10625993,575.44
-99.23725546,47.10625991,575.46
-99.23783305,47.10625855,576.58
-99.23792176,47.10625847,576.50
-99.23796147,47.10625837,576.61
-99.23802109,47.10625815,576.88
-99.23803104,47.10625811,576.93
-99.23809038,47.10625787,577.24
-99.23811025,47.10625778,577.37
-99.23826834,47.10625694,578.62
-99.23835738,47.10625652,579.21
-99.23838681,47.10625636,579.46
-99.23903503,47.10625493,580.54
-99.23912336,47.10625499,580.15
-99.23920205,47.10625488,580.18
-99.23931007,47.10625473,580.17
     </coordinates>
    </LineString>
   </MultiGeometry>
  </Placemark>
 </Document>
</kml>
