<kml>
 <Document>
  <Style id="yellow">
   <LineStyle>
   <color>ff00ffff</color>
   <width>1</width>
   </LineStyle>
  </Style>
  <Style id="red">
   <LineStyle>
   <color>ffff0000</color>
   <width>2</width>
   </LineStyle>
  </Style>
  <Style id="green">
   <LineStyle>
   <color>ff00ff00</color>
   <width>1</width>
   </LineStyle>
  </Style>
  <Placemark>
  <styleUrl>#yellow</styleUrl>
   <MultiGeometry>
    <LineString>
     <coordinates>
-99.29002539,47.11980957,612.24
-99.29002712,47.12013206,614.97
-99.29002931,47.12053034,615.73
-99.29003067,47.12078272,613.68
-99.29003151,47.12093318,610.96
-99.29003382,47.12136313,610.79
-99.29003502,47.12158379,610.38
-99.29003719,47.12196580,610.42
-99.29003881,47.12223540,610.58
-99.29004074,47.12263840,611.47
-99.29004263,47.12298754,613.31
-99.29004387,47.12319842,613.97
-99.29004481,47.12335669,614.24
-99.29004659,47.12371448,611.77
-99.29004821,47.12399681,610.65
-99.29004932,47.12413053,610.78
-99.29005540,47.12413609,610.76
-99.29006458,47.12413677,610.61
-99.29008493,47.12413710,610.64
-99.29034739,47.12413652,610.61
-99.29087037,47.12413520,610.81
-99.29117098,47.12413319,610.70
-99.29153552,47.12413317,610.65
-99.29174693,47.12413295,610.57
-99.29219287,47.12413180,610.56
-99.29266871,47.12413064,610.55
-99.29316712,47.12412937,611.40
-99.29338648,47.12412879,615.20
-99.29400311,47.12412724,615.52
-99.29441958,47.12412604,616.90
-99.29472831,47.12412532,617.69
-99.29488271,47.12412485,618.15
-99.29523257,47.12412380,622.33
-99.29556001,47.12412324,621.18
-99.29562820,47.12412303,621.69
-99.29619972,47.12412147,622.21
-99.29653235,47.12412070,623.13
-99.29683330,47.12411991,624.90
-99.29731504,47.12411863,626.43
-99.29785108,47.12411728,627.46
-99.29809632,47.12411664,627.43
-99.29842473,47.12411552,625.56
-99.29900070,47.12411424,626.01
-99.29925660,47.12411359,625.87
-99.29960138,47.12411271,627.50
-99.30023542,47.12411105,630.52
-99.30087568,47.12410937,633.16
-99.30150228,47.12410774,635.18
-99.30199848,47.12410644,637.09
-99.30213492,47.12410608,637.27
-99.30273273,47.12410447,636.96
-99.30309238,47.12410346,639.97
-99.30322483,47.12410284,640.12
-99.30322999,47.12409604,640.01
-99.30323210,47.12403661,639.98
-99.30323161,47.12391450,639.97
-99.30322962,47.12357388,638.03
-99.30322892,47.12343993,638.18
-99.30322834,47.12333167,637.80
-99.30322685,47.12307410,637.31
-99.30322661,47.12303914,637.25
-99.30322513,47.12282542,636.34
-99.30322289,47.12240686,636.26
-99.30322257,47.12233973,636.19
-99.30322070,47.12199105,637.37
-99.30321994,47.12185252,637.94
-99.30321924,47.12173247,638.20
-99.30321679,47.12129791,638.38
-99.30321420,47.12085909,639.52
-99.30321161,47.12041685,637.82
-99.30320943,47.12001310,635.90
-99.30320798,47.11979161,635.50
-99.30320610,47.11941900,634.23
-99.30320500,47.11922331,632.77
-99.30320271,47.11882126,630.60
-99.30320178,47.11866053,630.38
-99.30319946,47.11828110,631.62
-99.30319914,47.11820540,631.46
-99.30319836,47.11806178,631.16
-99.30319626,47.11768436,631.20
-99.30319495,47.11745610,631.10
-99.30319403,47.11730821,630.16
-99.30319234,47.11699764,629.60
-99.30319203,47.11694055,629.49
-99.30319000,47.11658997,628.77
-99.30318786,47.11620881,629.28
-99.30318706,47.11606612,630.32
-99.30318486,47.11569233,632.00
-99.30318418,47.11556966,632.30
-99.30318329,47.11540818,632.68
-99.30318161,47.11511760,632.23
-99.30318061,47.11510867,632.16
-99.30317557,47.11510547,632.16
-99.30316589,47.11510494,632.10
-99.30314347,47.11510484,632.17
-99.30279996,47.11510575,633.19
-99.30228015,47.11510721,630.66
-99.30168764,47.11510869,625.38
-99.30108202,47.11511040,624.29
-99.30079511,47.11511106,624.39
-99.30028575,47.11511250,624.17
-99.29989350,47.11511350,624.25
-99.29928816,47.11511504,627.90
-99.29914331,47.11511540,628.36
-99.29862115,47.11511683,627.85
-99.29838929,47.11511737,629.35
-99.29808585,47.11511812,629.85
-99.29764179,47.11511929,624.69
-99.29703263,47.11512088,624.16
-99.29659631,47.11512203,621.95
-99.29620622,47.11512302,621.96
-99.29583610,47.11512406,621.73
-99.29525487,47.11512545,622.83
-99.29467008,47.11512701,623.86
-99.29413102,47.11512837,624.21
-99.29397951,47.11512874,625.00
-99.29359528,47.11512973,622.27
-99.29295957,47.11513139,622.15
-99.29267119,47.11513208,622.70
-99.29209778,47.11513361,622.53
-99.29195745,47.11513398,621.58
-99.29146020,47.11513524,621.18
-99.29126102,47.11513571,621.34
-99.29113898,47.11513599,621.34
-99.29099821,47.11513636,621.04
-99.29037661,47.11513796,618.72
-99.29010268,47.11513867,617.10
-99.29004358,47.11513930,616.97
-99.29002504,47.11514044,616.85
-99.29000629,47.11514164,616.87
-99.29000011,47.11514523,616.85
-99.29000070,47.11524934,618.84
-99.29000310,47.11569494,619.62
-99.29000455,47.11597179,620.51
-99.29000677,47.11637505,620.15
-99.29000705,47.11643179,619.37
-99.29000890,47.11676091,616.10
-99.29001090,47.11713723,618.21
-99.29001235,47.11738824,618.98
-99.29001336,47.11759867,616.97
-99.29001386,47.11768786,616.13
-99.29001611,47.11810452,614.18
-99.29001771,47.11839952,614.98
-99.29001869,47.11858198,615.37
-99.29002091,47.11898449,615.51
-99.29002201,47.11918223,615.37
-99.29002355,47.11946930,612.97
-99.29002539,47.11980957,612.24
     </coordinates>
    </LineString>
   </MultiGeometry>
  </Placemark>
 </Document>
</kml>
