<kml>
 <Document>
  <Style id="yellow">
   <LineStyle>
   <color>ff00ffff</color>
   <width>1</width>
   </LineStyle>
  </Style>
  <Style id="red">
   <LineStyle>
   <color>ffff0000</color>
   <width>2</width>
   </LineStyle>
  </Style>
  <Style id="green">
   <LineStyle>
   <color>ff00ff00</color>
   <width>1</width>
   </LineStyle>
  </Style>
  <Placemark>
  <styleUrl>#yellow</styleUrl>
   <MultiGeometry>
    <LineString>
     <coordinates>
-99.28058133,47.13315945,619.89
-99.28079586,47.13315895,618.07
-99.28121139,47.13315784,615.43
-99.28146371,47.13315724,612.95
-99.28184355,47.13315631,612.58
-99.28230586,47.13315520,612.48
-99.28275768,47.13315403,612.40
-99.28322125,47.13315277,612.45
-99.28345184,47.13315232,612.60
-99.28410699,47.13315078,618.29
-99.28439349,47.13315006,613.80
-99.28487230,47.13314888,615.61
-99.28541329,47.13314744,616.93
-99.28586471,47.13314638,617.94
-99.28650941,47.13314480,619.55
-99.28693542,47.13314373,619.35
-99.28718781,47.13314301,620.08
-99.28759135,47.13314196,620.95
-99.28793738,47.13314118,621.08
-99.28843447,47.13313986,620.77
-99.28903262,47.13313827,620.41
-99.28950211,47.13313728,620.16
-99.28973415,47.13313666,619.69
-99.28989519,47.13313611,619.54
-99.28999367,47.13313575,619.43
-99.29009753,47.13313167,619.25
-99.29009562,47.13278029,618.95
-99.29009427,47.13249791,619.66
-99.29009299,47.13225550,619.38
-99.29009067,47.13183539,619.24
-99.29008949,47.13166943,620.07
-99.29008805,47.13136343,620.25
-99.29008635,47.13106376,618.32
-99.29008538,47.13091408,616.95
-99.29008393,47.13059428,614.79
-99.29008283,47.13039454,615.00
-99.29008149,47.13013836,616.19
-99.29007965,47.12979841,616.34
-99.29007789,47.12950732,616.13
-99.29007640,47.12923871,615.17
-99.29007473,47.12892133,612.84
-99.29007290,47.12855845,611.55
-99.29007240,47.12846533,611.69
-99.29007080,47.12822232,611.36
-99.29006935,47.12794164,611.76
-99.29006751,47.12757423,614.00
-99.29006511,47.12712728,614.13
-99.29006400,47.12692621,613.70
-99.29006227,47.12663654,613.51
-99.29006127,47.12642760,614.27
-99.29006086,47.12634803,614.77
-99.29005866,47.12593852,612.84
-99.29005807,47.12583040,611.89
-99.29005739,47.12572710,611.16
-99.29005526,47.12534352,610.68
-99.29005485,47.12523940,610.84
-99.29005352,47.12500551,611.05
-99.29005146,47.12462165,614.78
-99.29005052,47.12444277,614.19
-99.29004911,47.12420112,610.73
-99.29004867,47.12417801,610.53
-99.29004552,47.12414359,610.82
-99.29004185,47.12414046,610.82
-99.28998817,47.12413758,610.59
-99.28969918,47.12413822,613.01
-99.28913669,47.12413971,613.42
-99.28870878,47.12414080,613.32
-99.28819633,47.12414203,615.32
-99.28794687,47.12414273,614.29
-99.28749071,47.12414382,612.68
-99.28715214,47.12414465,613.53
-99.28672516,47.12414574,629.33
-99.28613915,47.12414722,626.08
-99.28558504,47.12414858,612.25
-99.28521639,47.12414947,611.01
-99.28504828,47.12414990,610.75
-99.28452865,47.12415119,609.45
-99.28392016,47.12415289,608.98
-99.28383511,47.12415303,608.88
-99.28338383,47.12415422,609.13
-99.28303253,47.12415495,609.00
-99.28289431,47.12415527,608.89
-99.28229054,47.12415671,611.97
-99.28189049,47.12415770,615.39
-99.28154844,47.12415857,614.37
-99.28102959,47.12415984,614.75
-99.28079454,47.12416041,616.69
-99.28046294,47.12416124,619.18
-99.28012881,47.12416207,620.48
-99.27951114,47.12416353,615.18
-99.27921294,47.12416426,615.23
-99.27890587,47.12416501,615.73
-99.27841406,47.12416621,616.07
-99.27816309,47.12416681,615.98
-99.27771422,47.12416801,615.81
-99.27726908,47.12416912,615.95
-99.27710100,47.12416955,616.07
-99.27696830,47.12416997,616.22
-99.27695916,47.12417025,616.18
-99.27694985,47.12417054,616.19
-99.27687533,47.12417292,616.36
-99.27686621,47.12417321,616.37
-99.27686552,47.12423763,617.03
-99.27686554,47.12426831,617.18
-99.27686677,47.12450280,618.19
-99.27686871,47.12485753,617.70
-99.27686994,47.12509589,616.98
-99.27687108,47.12531009,616.94
-99.27687268,47.12563291,615.93
-99.27687401,47.12589805,614.67
-99.27687579,47.12623249,615.68
-99.27687642,47.12631701,615.71
-99.27687827,47.12670563,616.12
-99.27687837,47.12674144,616.45
-99.27687987,47.12703266,618.99
-99.27688202,47.12744602,621.58
-99.27688391,47.12780499,621.38
-99.27688544,47.12804782,621.44
-99.27688703,47.12839668,621.66
-99.27688890,47.12876746,621.32
-99.27689004,47.12899345,620.02
-99.27689221,47.12941306,618.69
-99.27689244,47.12945005,618.82
-99.27689489,47.12985982,620.50
-99.27689557,47.13005307,619.86
-99.27689561,47.13006183,619.82
-99.27689651,47.13024173,618.82
-99.27689849,47.13061430,619.20
-99.27690001,47.13087906,620.97
-99.27690098,47.13108551,621.59
-99.27690296,47.13137924,621.92
-99.27690384,47.13161046,621.01
-99.27690416,47.13169771,621.38
-99.27690482,47.13179467,621.82
-99.27690621,47.13201584,621.41
-99.27690733,47.13229449,619.54
-99.27690763,47.13237151,619.71
-99.27690792,47.13243467,619.84
-99.27690831,47.13251525,620.00
-99.27690995,47.13280494,621.52
-99.27691137,47.13307635,619.61
-99.27691258,47.13313145,619.17
-99.27691406,47.13316051,619.12
-99.27691509,47.13316532,619.20
-99.27693202,47.13316788,619.08
-99.27699674,47.13316814,619.11
-99.27717725,47.13316775,619.52
-99.27760972,47.13316669,619.59
-99.27792271,47.13316581,619.41
-99.27829445,47.13316503,620.32
-99.27842063,47.13316474,621.28
-99.27846596,47.13316463,621.50
-99.27895214,47.13316343,622.76
-99.27919604,47.13316284,623.19
-99.27943881,47.13316223,624.21
-99.27987316,47.13316120,624.35
-99.28052468,47.13315957,620.58
-99.28058133,47.13315945,619.89
     </coordinates>
    </LineString>
   </MultiGeometry>
  </Placemark>
 </Document>
</kml>
