<kml>
 <Document>
  <Style id="yellow">
   <LineStyle>
   <color>ff00ffff</color>
   <width>1</width>
   </LineStyle>
  </Style>
  <Style id="red">
   <LineStyle>
   <color>ffff0000</color>
   <width>2</width>
   </LineStyle>
  </Style>
  <Style id="green">
   <LineStyle>
   <color>ff00ff00</color>
   <width>1</width>
   </LineStyle>
  </Style>
  <Placemark>
  <styleUrl>#yellow</styleUrl>
   <MultiGeometry>
    <LineString>
     <coordinates>
-99.25107914,47.12422934,594.08
-99.25156546,47.12422829,593.96
-99.25221531,47.12422686,600.30
-99.25258445,47.12422606,598.77
-99.25279270,47.12422559,596.42
-99.25295182,47.12422523,596.40
-99.25354036,47.12422392,595.88
-99.25363211,47.12422372,594.62
-99.25400081,47.12422287,594.11
-99.25408574,47.12422203,594.23
-99.25467882,47.12422018,594.21
-99.25476229,47.12422062,594.09
-99.25479923,47.12422083,593.80
-99.25483650,47.12422100,594.11
-99.25484585,47.12422104,594.16
-99.25523923,47.12422014,595.10
-99.25560879,47.12421934,595.43
-99.25616875,47.12421805,593.50
-99.25642063,47.12421752,593.96
-99.25684830,47.12421652,595.29
-99.25711002,47.12421595,595.01
-99.25760030,47.12421489,595.86
-99.25825890,47.12421339,596.73
-99.25854112,47.12421270,598.10
-99.25900418,47.12421172,598.09
-99.25907583,47.12421156,597.75
-99.25911352,47.12421145,597.81
-99.25960617,47.12421024,598.39
-99.25978497,47.12420996,598.41
-99.26010328,47.12420923,598.61
-99.26058978,47.12420809,598.10
-99.26106415,47.12420690,598.12
-99.26131110,47.12420648,598.13
-99.26177871,47.12420536,598.34
-99.26221801,47.12420441,598.55
-99.26264842,47.12420338,598.78
-99.26294604,47.12420274,599.69
-99.26339524,47.12420168,600.28
-99.26353246,47.12420123,599.67
-99.26354218,47.12420098,599.65
-99.26359067,47.12419970,599.53
-99.26360069,47.12419943,599.41
-99.26361993,47.12419892,599.46
-99.26366802,47.12419764,599.54
-99.26367825,47.12419736,599.43
-99.26367955,47.12418696,599.36
-99.26368056,47.12414394,599.35
-99.26367935,47.12385154,599.45
-99.26367859,47.12369785,599.74
-99.26367713,47.12340427,600.07
-99.26367538,47.12305277,599.46
-99.26367476,47.12294046,599.16
-99.26367270,47.12251667,599.02
-99.26367184,47.12233037,599.50
-99.26366988,47.12193782,598.92
-99.26366810,47.12157788,596.27
-99.26366661,47.12128782,595.08
-99.26366572,47.12110918,594.56
-99.26366478,47.12091838,594.87
-99.26366362,47.12068604,596.23
-99.26366241,47.12041932,597.22
-99.26366149,47.12023347,597.86
-99.26366030,47.11999634,599.31
-99.26365903,47.11974391,599.11
-99.26365768,47.11947028,598.94
-99.26365648,47.11922187,598.32
-99.26365505,47.11892928,598.97
-99.26365428,47.11877453,598.85
-99.26365239,47.11839114,596.58
-99.26365143,47.11819678,596.19
-99.26364960,47.11784093,597.20
-99.26364914,47.11774060,597.37
-99.26364857,47.11764841,597.59
-99.26364677,47.11732264,597.88
-99.26364519,47.11696357,597.44
-99.26364431,47.11680471,598.87
-99.26364240,47.11637498,597.71
-99.26364044,47.11598497,596.36
-99.26363842,47.11556411,594.79
-99.26363670,47.11523308,594.42
-99.26363593,47.11520888,594.59
-99.26363495,47.11520667,594.50
-99.26362985,47.11520552,594.46
-99.26354421,47.11520298,594.58
-99.26350182,47.11520294,594.55
-99.26340620,47.11520316,594.39
-99.26300365,47.11520414,594.26
-99.26252214,47.11520515,594.41
-99.26214658,47.11520604,593.98
-99.26187074,47.11520924,592.67
-99.26127908,47.11520800,591.43
-99.26125098,47.11520818,591.53
-99.26124170,47.11520825,591.53
-99.26116767,47.11520879,591.37
-99.26113050,47.11520904,591.45
-99.26108430,47.11520936,591.47
-99.26106574,47.11520949,591.45
-99.26103790,47.11520970,591.40
-99.26101005,47.11520989,591.38
-99.26097293,47.11521016,591.29
-99.26088979,47.11521077,591.10
-99.26085265,47.11521104,591.01
-99.26078789,47.11521147,591.19
-99.26076004,47.11521167,591.14
-99.26072292,47.11521192,591.26
-99.26070435,47.11521204,591.29
-99.26066717,47.11521231,591.17
-99.26065809,47.11521238,591.15
-99.26062092,47.11521265,591.06
-99.25999754,47.11521095,586.44
-99.25990175,47.11521114,586.29
-99.25938715,47.11521231,586.33
-99.25917779,47.11521277,586.80
-99.25883328,47.11521359,590.07
-99.25842370,47.11521457,590.49
-99.25819965,47.11521513,588.99
-99.25755284,47.11521643,587.03
-99.25748097,47.11521659,586.77
-99.25698118,47.11521782,586.74
-99.25647766,47.11521886,586.67
-99.25603982,47.11521986,589.29
-99.25559778,47.11522089,589.67
-99.25507626,47.11522208,589.84
-99.25453730,47.11522324,589.68
-99.25402108,47.11522432,588.51
-99.25345788,47.11522564,588.91
-99.25319340,47.11522621,588.22
-99.25294510,47.11522673,588.75
-99.25260857,47.11522745,589.28
-99.25215218,47.11522846,590.34
-99.25198805,47.11522885,590.31
-99.25134456,47.11523023,587.77
-99.25092934,47.11523113,587.42
-99.25083303,47.11523139,587.62
-99.25075668,47.11523160,587.50
-99.25058997,47.11523209,587.71
-99.25048125,47.11523243,587.93
-99.25045868,47.11523467,588.05
-99.25045558,47.11525900,588.06
-99.25045528,47.11526750,588.03
-99.25045552,47.11534556,588.12
-99.25045704,47.11565516,587.75
-99.25045835,47.11591417,587.13
-99.25046012,47.11632139,586.44
-99.25046171,47.11664904,587.72
-99.25046242,47.11682347,587.98
-99.25046369,47.11706877,588.66
-99.25046474,47.11729046,589.31
-99.25046631,47.11764118,589.67
-99.25046787,47.11789259,589.41
-99.25046856,47.11810175,589.73
-99.25046900,47.11817311,590.29
-99.25047000,47.11836410,591.25
-99.25047089,47.11862783,591.05
-99.25047179,47.11881294,591.15
-99.25047341,47.11910134,591.53
-99.25047402,47.11926708,591.22
-99.25047531,47.11944902,589.87
-99.25047643,47.11980953,590.25
-99.25047672,47.11986892,590.22
-99.25047868,47.12028809,592.28
-99.25047894,47.12033799,592.43
-99.25048073,47.12069637,592.33
-99.25048102,47.12075607,592.44
-99.25048287,47.12118148,592.40
-99.25048392,47.12136328,592.21
-99.25048550,47.12171400,590.00
-99.25048739,47.12210450,589.82
-99.25048938,47.12255428,590.34
-99.25049148,47.12299142,590.23
-99.25049223,47.12310829,590.18
-99.25049393,47.12350019,590.63
-99.25049505,47.12374414,593.99
-99.25049681,47.12414869,596.29
-99.25049755,47.12418878,596.37
-99.25050000,47.12422220,596.39
-99.25050501,47.12422663,596.39
-99.25071240,47.12423011,596.09
-99.25107914,47.12422934,594.08
     </coordinates>
    </LineString>
   </MultiGeometry>
  </Placemark>
 </Document>
</kml>
