<kml>
 <Document>
  <Style id="yellow">
   <LineStyle>
   <color>ff00ffff</color>
   <width>1</width>
   </LineStyle>
  </Style>
  <Style id="red">
   <LineStyle>
   <color>ffff0000</color>
   <width>2</width>
   </LineStyle>
  </Style>
  <Style id="green">
   <LineStyle>
   <color>ff00ff00</color>
   <width>1</width>
   </LineStyle>
  </Style>
  <Placemark>
  <styleUrl>#yellow</styleUrl>
   <MultiGeometry>
    <LineString>
     <coordinates>
-99.27904419,47.14216175,609.88
-99.27914158,47.14216154,610.09
-99.27961382,47.14216029,610.51
-99.28003662,47.14215936,608.44
-99.28048928,47.14215822,607.67
-99.28069244,47.14215771,607.50
-99.28120743,47.14215648,606.44
-99.28171929,47.14215522,604.59
-99.28220481,47.14215397,603.84
-99.28258069,47.14215310,603.71
-99.28294591,47.14215209,606.41
-99.28348040,47.14215079,609.57
-99.28368256,47.14215034,610.31
-99.28407673,47.14214917,610.33
-99.28441243,47.14214850,609.71
-99.28495261,47.14214721,607.00
-99.28510405,47.14214685,606.14
-99.28571143,47.14214535,605.20
-99.28606938,47.14214445,608.44
-99.28632901,47.14214365,612.03
-99.28650063,47.14214315,612.53
-99.28699247,47.14214214,610.24
-99.28713383,47.14214179,608.82
-99.28776560,47.14214009,603.60
-99.28820674,47.14213907,605.05
-99.28877044,47.14213757,607.40
-99.28900326,47.14213708,608.16
-99.28922772,47.14213652,608.38
-99.28931574,47.14213628,608.29
-99.28989783,47.14213478,605.90
-99.28996454,47.14213460,605.73
-99.29004498,47.14213436,605.62
-99.29010544,47.14213407,605.53
-99.29011512,47.14213367,605.58
-99.29012444,47.14213327,605.58
-99.29014360,47.14213243,605.54
-99.29014524,47.14213193,605.47
-99.29014654,47.14212284,605.62
-99.29014583,47.14197486,606.07
-99.29014545,47.14190435,606.15
-99.29014447,47.14172446,606.23
-99.29014235,47.14133578,606.26
-99.29014026,47.14095739,604.57
-99.29013859,47.14063649,605.37
-99.29013687,47.14033413,606.63
-99.29013504,47.14000988,606.11
-99.29013411,47.13982248,606.07
-99.29013338,47.13968657,606.29
-99.29013156,47.13934635,606.68
-99.29012923,47.13892532,607.13
-99.29012812,47.13871409,607.09
-99.29012682,47.13847270,608.21
-99.29012582,47.13829086,608.99
-99.29012439,47.13803381,609.99
-99.29012256,47.13771475,608.05
-99.29012076,47.13741750,609.03
-99.29012013,47.13725181,608.66
-99.29011782,47.13682344,609.36
-99.29011561,47.13641399,617.05
-99.29011412,47.13613973,618.82
-99.29011294,47.13595247,620.78
-99.29011078,47.13552959,625.83
-99.29010958,47.13532834,623.87
-99.29010742,47.13501521,624.49
-99.29010689,47.13483358,624.65
-99.29010661,47.13475976,624.69
-99.29010586,47.13464919,624.43
-99.29010380,47.13429156,621.89
-99.29010298,47.13411546,621.41
-99.29010164,47.13386186,621.77
-99.29010137,47.13381353,621.78
-99.29009975,47.13351991,621.06
-99.29009845,47.13327435,619.68
-99.29009735,47.13317997,619.45
-99.29009641,47.13314018,619.24
-99.29009124,47.13313768,619.25
-99.28998430,47.13313612,619.40
-99.28964419,47.13313696,619.89
-99.28927066,47.13313789,620.60
-99.28917123,47.13313814,620.60
-99.28855472,47.13313968,620.64
-99.28830731,47.13314032,621.17
-99.28783014,47.13314154,621.11
-99.28734125,47.13314272,620.42
-99.28677655,47.13314417,619.05
-99.28630876,47.13314531,619.54
-99.28582624,47.13314655,617.69
-99.28535932,47.13314779,616.91
-99.28511013,47.13314833,616.46
-99.28487518,47.13314889,615.76
-99.28436284,47.13315017,613.68
-99.28412640,47.13315075,613.17
-99.28391792,47.13315138,612.59
-99.28334952,47.13315276,612.64
-99.28288426,47.13315388,612.37
-99.28264326,47.13315446,612.43
-99.28241152,47.13315507,612.42
-99.28216967,47.13315578,612.51
-99.28155104,47.13315711,612.59
-99.28138121,47.13315752,613.71
-99.28119938,47.13315799,615.67
-99.28061862,47.13315941,619.53
-99.28024528,47.13316031,622.84
-99.28015269,47.13316056,623.32
-99.27964835,47.13316183,624.54
-99.27940307,47.13316240,624.26
-99.27917129,47.13316296,623.20
-99.27870287,47.13316410,622.20
-99.27816795,47.13316544,619.59
-99.27767653,47.13316657,619.61
-99.27736619,47.13316735,619.53
-99.27711397,47.13316800,619.34
-99.27692311,47.13316851,619.14
-99.27691376,47.13316916,619.20
-99.27691197,47.13319495,619.08
-99.27691195,47.13320334,619.14
-99.27691378,47.13355999,620.31
-99.27691595,47.13398661,624.32
-99.27691756,47.13429750,628.57
-99.27691818,47.13441615,627.89
-99.27692069,47.13484583,624.36
-99.27692188,47.13509375,623.94
-99.27692297,47.13531773,621.79
-99.27692473,47.13566544,619.96
-99.27692697,47.13610306,617.58
-99.27692849,47.13639589,615.86
-99.27693051,47.13679108,613.79
-99.27693222,47.13712070,612.50
-99.27693390,47.13742522,609.08
-99.27693584,47.13776836,608.87
-99.27693676,47.13798419,608.75
-99.27693847,47.13831315,608.72
-99.27693992,47.13859795,608.79
-99.27694055,47.13871470,608.75
-99.27694236,47.13906827,608.69
-99.27694427,47.13940520,608.58
-99.27694538,47.13963934,608.75
-99.27694733,47.13996187,608.84
-99.27694855,47.14025181,609.92
-99.27694857,47.14025627,609.95
-99.27694973,47.14045989,611.15
-99.27695119,47.14074601,612.08
-99.27695259,47.14102869,612.02
-99.27695369,47.14125464,611.84
-99.27695588,47.14167657,610.39
-99.27695792,47.14206992,609.08
-99.27695909,47.14212453,608.61
-99.27696019,47.14216122,608.36
-99.27696579,47.14216490,608.42
-99.27699957,47.14216649,608.31
-99.27753911,47.14216543,607.69
-99.27806374,47.14216415,606.65
-99.27840152,47.14216334,607.01
-99.27904419,47.14216175,609.88
     </coordinates>
    </LineString>
   </MultiGeometry>
  </Placemark>
 </Document>
</kml>
