<kml>
 <Document>
  <Style id="yellow">
   <LineStyle>
   <color>ff00ffff</color>
   <width>1</width>
   </LineStyle>
  </Style>
  <Style id="red">
   <LineStyle>
   <color>ffff0000</color>
   <width>2</width>
   </LineStyle>
  </Style>
  <Style id="green">
   <LineStyle>
   <color>ff00ff00</color>
   <width>1</width>
   </LineStyle>
  </Style>
  <Placemark>
  <styleUrl>#yellow</styleUrl>
   <MultiGeometry>
    <LineString>
     <coordinates>
-99.21523832,47.14229897,578.95
-99.21588151,47.14229823,578.11
-99.21629527,47.14229741,578.84
-99.21691686,47.14229625,580.22
-99.21757399,47.14229500,578.99
-99.21811423,47.14229397,578.57
-99.21872610,47.14229270,579.63
-99.21904475,47.14229219,580.02
-99.21937565,47.14229157,580.09
-99.21977846,47.14229079,580.35
-99.22004393,47.14229026,582.88
-99.22063612,47.14228914,581.07
-99.22101786,47.14228841,579.49
-99.22122779,47.14228796,579.57
-99.22185704,47.14228676,579.34
-99.22249570,47.14228545,581.01
-99.22304556,47.14228441,578.57
-99.22330772,47.14228399,578.08
-99.22375787,47.14228310,580.17
-99.22389246,47.14228281,582.28
-99.22398223,47.14228261,582.28
-99.22404870,47.14228235,582.05
-99.22420444,47.14228074,581.64
-99.22420472,47.14225441,581.51
-99.22420469,47.14224097,581.34
-99.22420466,47.14223123,581.39
-99.22420411,47.14209704,589.15
-99.22420307,47.14187697,586.75
-99.22420199,47.14160260,575.59
-99.22420185,47.14156786,575.62
-99.22420110,47.14140284,587.66
-99.22419902,47.14095542,573.74
-99.22419840,47.14075792,572.90
-99.22419779,47.14059574,571.73
-99.22419610,47.14020567,570.68
-99.22419583,47.14013249,570.55
-99.22419462,47.13986665,571.15
-99.22419335,47.13958482,572.99
-99.22419201,47.13926878,573.24
-99.22419147,47.13909822,572.97
-99.22419114,47.13901011,573.00
-99.22419004,47.13874912,571.13
-99.22418824,47.13835243,570.71
-99.22418742,47.13814265,571.42
-99.22418655,47.13793867,575.22
-99.22418525,47.13764418,574.42
-99.22418436,47.13739734,570.89
-99.22418285,47.13704074,570.48
-99.22418200,47.13683573,572.10
-99.22418026,47.13642623,570.54
-99.22417908,47.13616267,570.40
-99.22417791,47.13587066,570.90
-99.22417772,47.13582865,571.36
-99.22417626,47.13550005,575.15
-99.22417534,47.13526505,576.37
-99.22417405,47.13496389,576.14
-99.22417260,47.13462212,573.18
-99.22417079,47.13420450,572.95
-99.22417023,47.13405804,574.37
-99.22416889,47.13372342,574.93
-99.22416778,47.13346493,573.66
-99.22416756,47.13341908,573.47
-99.22416700,47.13336402,573.44
-99.22416603,47.13328716,573.20
-99.22416104,47.13328501,573.19
-99.22404963,47.13328404,572.40
-99.22378329,47.13328457,570.53
-99.22330431,47.13328552,567.31
-99.22291996,47.13328623,567.68
-99.22290035,47.13328642,567.75
-99.22286128,47.13328681,567.80
-99.22281261,47.13328731,567.67
-99.22280309,47.13328741,567.66
-99.22279330,47.13328751,567.71
-99.22278364,47.13328761,567.59
-99.22277382,47.13328771,567.68
-99.22275433,47.13328790,567.67
-99.22211104,47.13328785,571.32
-99.22164462,47.13328870,573.71
-99.22102912,47.13328988,570.11
-99.22037799,47.13329114,567.64
-99.21987542,47.13329209,569.74
-99.21947859,47.13329295,572.04
-99.21907067,47.13329364,572.85
-99.21852579,47.13329468,566.45
-99.21828820,47.13329512,564.40
-99.21782092,47.13329605,564.34
-99.21738280,47.13329694,564.30
-99.21701362,47.13329755,564.19
-99.21671817,47.13329812,564.75
-99.21643143,47.13329886,565.42
-99.21603597,47.13329948,568.45
-99.21556164,47.13330032,569.15
-99.21532485,47.13330076,568.98
-99.21484043,47.13330165,569.95
-99.21480282,47.13330173,569.64
-99.21415385,47.13330307,566.09
-99.21375213,47.13330372,563.65
-99.21338599,47.13330443,563.25
-99.21285945,47.13330534,561.13
-99.21239187,47.13330623,561.36
-99.21218114,47.13330661,562.63
-99.21153715,47.13330783,564.56
-99.21106527,47.13330869,566.67
-99.21102492,47.13330893,566.72
-99.21098345,47.13330929,566.97
-99.21098134,47.13333151,567.09
-99.21098103,47.13334621,567.11
-99.21098269,47.13374036,567.20
-99.21098337,47.13392934,567.34
-99.21098441,47.13415574,564.79
-99.21098540,47.13442223,563.42
-99.21098603,47.13459441,563.21
-99.21098739,47.13493381,563.39
-99.21098828,47.13517352,562.11
-99.21098950,47.13547759,561.89
-99.21099120,47.13582837,563.15
-99.21099176,47.13605346,563.36
-99.21099301,47.13629500,564.98
-99.21099380,47.13654179,565.91
-99.21099531,47.13684704,567.83
-99.21099560,47.13701034,569.43
-99.21099620,47.13716631,571.25
-99.21099773,47.13755649,570.46
-99.21099945,47.13798839,571.60
-99.21100135,47.13832528,570.90
-99.21100165,47.13846226,570.65
-99.21100193,47.13858838,571.03
-99.21100309,47.13890173,569.43
-99.21100364,47.13905677,570.05
-99.21100467,47.13931297,570.60
-99.21100635,47.13974504,571.87
-99.21100644,47.13976705,571.90
-99.21100800,47.14015107,571.00
-99.21100836,47.14022273,570.61
-99.21100905,47.14037121,570.78
-99.21101022,47.14068513,570.76
-99.21101143,47.14099420,570.49
-99.21101287,47.14139198,570.97
-99.21101305,47.14143788,571.15
-99.21101441,47.14177875,571.26
-99.21101540,47.14203413,572.12
-99.21101612,47.14218947,572.15
-99.21101706,47.14229836,572.36
-99.21102287,47.14230262,572.46
-99.21103223,47.14230276,572.51
-99.21106978,47.14230329,572.46
-99.21131390,47.14230649,571.71
-99.21132354,47.14230661,571.65
-99.21155247,47.14230627,571.87
-99.21213913,47.14230519,570.53
-99.21271602,47.14230402,572.31
-99.21309491,47.14230342,574.33
-99.21364240,47.14230236,576.73
-99.21394347,47.14230186,577.20
-99.21428212,47.14230122,579.21
-99.21490846,47.14230006,577.19
-99.21519320,47.14229945,578.53
-99.21521124,47.14229926,578.79
-99.21522022,47.14229917,578.81
-99.21523832,47.14229897,578.95
     </coordinates>
    </LineString>
   </MultiGeometry>
  </Placemark>
 </Document>
</kml>
