<kml>
 <Document>
  <Style id="yellow">
   <LineStyle>
   <color>ff00ffff</color>
   <width>1</width>
   </LineStyle>
  </Style>
  <Style id="red">
   <LineStyle>
   <color>ffff0000</color>
   <width>2</width>
   </LineStyle>
  </Style>
  <Style id="green">
   <LineStyle>
   <color>ff00ff00</color>
   <width>1</width>
   </LineStyle>
  </Style>
  <Placemark>
  <styleUrl>#yellow</styleUrl>
   <MultiGeometry>
    <LineString>
     <coordinates>
-99.24034800,47.12425235,588.95
-99.24094388,47.12425114,592.12
-99.24159921,47.12424967,590.76
-99.24200041,47.12424878,591.22
-99.24238271,47.12424802,592.01
-99.24269908,47.12424733,591.91
-99.24303857,47.12424661,594.92
-99.24338198,47.12424598,594.75
-99.24372549,47.12424518,594.96
-99.24406837,47.12424447,596.36
-99.24465580,47.12424323,597.66
-99.24495847,47.12424239,597.85
-99.24541334,47.12424163,596.96
-99.24577426,47.12424082,596.32
-99.24625093,47.12423982,595.55
-99.24683271,47.12423860,594.07
-99.24737781,47.12423732,593.31
-99.24756266,47.12423694,593.81
-99.24785023,47.12423636,594.99
-99.24801742,47.12423598,595.66
-99.24842820,47.12423506,596.02
-99.24879697,47.12423432,596.26
-99.24933734,47.12423306,594.22
-99.24981639,47.12423208,593.54
-99.25020517,47.12423124,595.64
-99.25022398,47.12423097,595.63
-99.25024256,47.12423069,595.65
-99.25040218,47.12422823,596.03
-99.25047705,47.12422706,596.31
-99.25049556,47.12422677,596.41
-99.25049638,47.12419355,596.34
-99.25049602,47.12400470,595.57
-99.25049414,47.12362761,592.32
-99.25049339,47.12347216,590.22
-99.25049147,47.12303825,590.30
-99.25049017,47.12281827,590.73
-99.25048906,47.12253688,590.15
-99.25048873,47.12244012,590.09
-99.25048841,47.12237264,589.77
-99.25048744,47.12217451,590.00
-99.25048592,47.12188194,590.11
-99.25048415,47.12148513,592.61
-99.25048255,47.12111904,592.45
-99.25048120,47.12083127,592.35
-99.25047940,47.12044414,592.19
-99.25047816,47.12018387,591.35
-99.25047673,47.11991472,590.31
-99.25047581,47.11970280,589.89
-99.25047456,47.11943850,589.93
-99.25047380,47.11927867,591.10
-99.25047189,47.11886238,591.45
-99.25047178,47.11884088,591.33
-99.25047072,47.11864207,591.20
-99.25046895,47.11829938,590.94
-99.25046837,47.11811207,589.82
-99.25046672,47.11779853,589.49
-99.25046538,47.11746494,589.87
-99.25046396,47.11717363,588.80
-99.25046197,47.11673703,587.70
-99.25046003,47.11632892,586.59
-99.25045968,47.11624533,586.39
-99.25045929,47.11617279,586.67
-99.25045752,47.11579138,587.36
-99.25045674,47.11562239,587.81
-99.25045494,47.11524920,588.07
-99.25045335,47.11523937,588.16
-99.25044948,47.11523420,588.14
-99.25042137,47.11523278,588.26
-99.25041214,47.11523232,588.17
-99.24978708,47.11523368,587.58
-99.24942619,47.11523457,587.18
-99.24896686,47.11523546,585.97
-99.24860726,47.11523627,585.70
-99.24816807,47.11523725,586.61
-99.24785287,47.11523786,585.79
-99.24762203,47.11523837,585.61
-99.24742486,47.11523881,585.58
-99.24687124,47.11523996,586.28
-99.24641729,47.11524093,585.19
-99.24577216,47.11524237,586.09
-99.24551467,47.11524289,587.17
-99.24490227,47.11524424,588.21
-99.24450792,47.11524509,588.34
-99.24391317,47.11524632,586.89
-99.24337741,47.11524745,587.52
-99.24314132,47.11524793,587.78
-99.24295036,47.11524833,587.99
-99.24232172,47.11524971,587.10
-99.24200089,47.11525034,587.07
-99.24159186,47.11525132,586.43
-99.24134023,47.11525180,586.15
-99.24091512,47.11525265,586.43
-99.24067554,47.11525314,585.64
-99.24020812,47.11525420,584.24
-99.23999032,47.11525460,584.77
-99.23987612,47.11525483,584.38
-99.23980594,47.11525499,583.68
-99.23920360,47.11525622,582.17
-99.23859080,47.11525752,582.25
-99.23825082,47.11525822,582.20
-99.23777409,47.11525932,584.08
-99.23743670,47.11525990,586.20
-99.23735813,47.11526239,586.53
-99.23730893,47.11526399,586.51
-99.23727905,47.11526497,586.50
-99.23727740,47.11526850,586.58
-99.23727474,47.11527491,586.66
-99.23727431,47.11527799,586.73
-99.23727356,47.11531587,586.84
-99.23727392,47.11540857,586.61
-99.23727456,47.11555293,585.76
-99.23727634,47.11594407,588.22
-99.23727843,47.11638520,585.83
-99.23727895,47.11653104,585.64
-99.23727937,47.11662652,585.85
-99.23728069,47.11686742,587.50
-99.23728204,47.11723602,588.44
-99.23728273,47.11738506,588.47
-99.23728453,47.11778457,588.18
-99.23728597,47.11811109,587.73
-99.23728733,47.11842788,588.18
-99.23728746,47.11845701,588.33
-99.23728918,47.11884196,589.54
-99.23729064,47.11917487,589.74
-99.23729094,47.11924251,590.07
-99.23729184,47.11943899,590.71
-99.23729337,47.11978883,590.82
-99.23729467,47.12006552,590.57
-99.23729575,47.12030543,590.06
-99.23729740,47.12065666,589.08
-99.23729860,47.12095482,586.60
-99.23729959,47.12117331,585.17
-99.23730037,47.12134113,584.48
-99.23730190,47.12170895,584.62
-99.23730339,47.12190215,584.42
-99.23730444,47.12227287,584.33
-99.23730581,47.12251107,585.80
-99.23730651,47.12272829,586.28
-99.23730845,47.12316837,586.98
-99.23731008,47.12353283,587.70
-99.23731174,47.12372925,586.49
-99.23731217,47.12399014,585.34
-99.23731305,47.12419555,585.15
-99.23731354,47.12424881,584.85
-99.23731850,47.12425564,584.83
-99.23732042,47.12425681,584.77
-99.23737216,47.12425836,584.82
-99.23748612,47.12425831,584.88
-99.23771709,47.12425778,584.78
-99.23827185,47.12425666,584.46
-99.23862317,47.12425598,585.22
-99.23897129,47.12425510,586.10
-99.23947935,47.12425417,586.45
-99.24000394,47.12425304,587.01
-99.24034800,47.12425235,588.95
     </coordinates>
    </LineString>
   </MultiGeometry>
  </Placemark>
 </Document>
</kml>
