<kml>
 <Document>
  <Style id="yellow">
   <LineStyle>
   <color>ff00ffff</color>
   <width>1</width>
   </LineStyle>
  </Style>
  <Style id="red">
   <LineStyle>
   <color>ffff0000</color>
   <width>2</width>
   </LineStyle>
  </Style>
  <Style id="green">
   <LineStyle>
   <color>ff00ff00</color>
   <width>1</width>
   </LineStyle>
  </Style>
  <Placemark>
  <styleUrl>#yellow</styleUrl>
   <MultiGeometry>
    <LineString>
     <coordinates>
-99.25637696,47.10622044,586.84
-99.25641563,47.10622037,586.75
-99.25680877,47.10621650,586.58
-99.25708015,47.10621658,586.86
-99.25730982,47.10621836,587.64
-99.25748236,47.10621798,588.06
-99.25772193,47.10621738,589.10
-99.25835505,47.10621469,590.30
-99.25838374,47.10621480,590.33
-99.25839347,47.10621483,590.38
-99.25842236,47.10621492,590.41
-99.25845127,47.10621503,590.47
-99.25850854,47.10621526,590.47
-99.25854689,47.10621540,590.50
-99.25857552,47.10621550,590.57
-99.25891222,47.10621474,589.54
-99.25956636,47.10621255,589.90
-99.25958539,47.10621262,589.96
-99.25961345,47.10621274,589.93
-99.25964138,47.10621283,589.95
-99.25967891,47.10621297,590.03
-99.26031130,47.10621158,591.47
-99.26094264,47.10620945,593.15
-99.26099800,47.10620968,593.13
-99.26105334,47.10620988,593.19
-99.26165597,47.10620770,593.87
-99.26172075,47.10620787,593.95
-99.26175779,47.10620794,594.11
-99.26181347,47.10620807,594.24
-99.26183187,47.10620812,594.24
-99.26230944,47.10620696,593.73
-99.26246771,47.10620658,593.28
-99.26304038,47.10620526,593.75
-99.26330261,47.10620471,593.37
-99.26358827,47.10620400,593.17
-99.26358871,47.10620278,593.04
-99.26359045,47.10617895,593.02
-99.26359154,47.10615346,593.12
-99.26359140,47.10609748,592.95
-99.26359123,47.10603535,592.83
-99.26359080,47.10592408,592.97
-99.26359028,47.10581637,593.37
-99.26359011,47.10578145,593.27
-99.26358845,47.10547180,592.69
-99.26358772,47.10531344,592.78
-99.26358682,47.10512392,593.21
-99.26358596,47.10494150,593.57
-99.26358509,47.10476396,592.80
-99.26358370,47.10450214,592.15
-99.26358238,47.10421619,592.81
-99.26358123,47.10401051,593.03
-99.26358004,47.10374393,593.38
-99.26357888,47.10353655,593.87
-99.26357687,47.10310043,591.68
-99.26357486,47.10268924,590.33
-99.26357305,47.10233528,589.94
-99.26357180,47.10207152,591.22
-99.26357041,47.10178804,590.72
-99.26356957,47.10162660,589.82
-99.26356779,47.10129770,589.52
-99.26356735,47.10117245,589.23
-99.26356611,47.10099165,589.41
-99.26356509,47.10071590,588.90
-99.26356414,47.10052283,588.54
-99.26356372,47.10043792,588.40
-99.26356315,47.10032995,588.28
-99.26356097,47.09988081,586.46
-99.26356029,47.09973762,587.04
-99.26355847,47.09936903,585.70
-99.26355690,47.09907167,586.00
-99.26355614,47.09892529,585.89
-99.26355434,47.09854682,585.69
-99.26355272,47.09820630,585.84
-99.26355135,47.09793192,585.15
-99.26354915,47.09749037,585.36
-99.26354746,47.09722769,586.42
-99.26354706,47.09721812,586.50
-99.26354217,47.09720727,586.46
-99.26353824,47.09720576,586.46
-99.26350570,47.09720575,586.57
-99.26337503,47.09720600,586.20
-99.26276976,47.09720738,585.77
-99.26236252,47.09720838,585.85
-99.26209642,47.09720898,585.50
-99.26173291,47.09720978,584.81
-99.26109527,47.09721122,587.05
-99.26075398,47.09721208,585.45
-99.26043110,47.09721272,584.25
-99.26003841,47.09721366,582.79
-99.25976122,47.09721431,582.20
-99.25911468,47.09721570,581.40
-99.25856858,47.09721694,581.71
-99.25839379,47.09721737,583.08
-99.25774825,47.09721882,580.57
-99.25716511,47.09722014,580.08
-99.25694577,47.09722058,580.85
-99.25674761,47.09722103,581.47
-99.25672836,47.09722114,581.40
-99.25670912,47.09722125,581.34
-99.25669970,47.09722130,581.33
-99.25657456,47.09722203,581.22
-99.25650774,47.09722239,580.89
-99.25644061,47.09722277,580.66
-99.25641196,47.09722293,580.65
-99.25636425,47.09722320,580.50
-99.25629731,47.09722357,580.35
-99.25622073,47.09722400,580.10
-99.25614452,47.09722443,579.92
-99.25611577,47.09722460,579.90
-99.25608722,47.09722477,579.89
-99.25543019,47.09722398,579.46
-99.25488251,47.09722603,576.85
-99.25443309,47.09722630,576.48
-99.25439577,47.09722627,576.42
-99.25391815,47.09722733,574.01
-99.25338832,47.09722853,573.87
-99.25291241,47.09722959,576.65
-99.25238233,47.09723089,579.26
-99.25223830,47.09723117,579.92
-99.25198946,47.09723159,580.68
-99.25141140,47.09723287,578.86
-99.25088718,47.09723408,576.12
-99.25062938,47.09723468,577.24
-99.25039315,47.09723525,578.78
-99.25037417,47.09723567,578.94
-99.25037198,47.09724054,578.92
-99.25037071,47.09724960,579.15
-99.25037108,47.09734482,579.60
-99.25037140,47.09741100,580.15
-99.25037327,47.09781378,578.65
-99.25037489,47.09813738,575.29
-99.25037578,47.09835126,577.16
-99.25037732,47.09867659,575.62
-99.25037867,47.09895575,577.00
-99.25038062,47.09938200,579.48
-99.25038238,47.09975485,579.47
-99.25038420,47.10014724,579.45
-99.25038615,47.10054521,578.67
-99.25038698,47.10073872,577.71
-99.25038908,47.10116868,577.81
-99.25039074,47.10154116,577.15
-99.25039112,47.10162199,577.07
-99.25039274,47.10195888,576.77
-99.25039328,47.10207843,576.92
-99.25039475,47.10239145,576.99
-99.25039614,47.10266160,577.35
-99.25039760,47.10300455,577.29
-99.25039935,47.10334350,576.97
-99.25039990,47.10348854,577.00
-99.25040138,47.10379023,577.03
-99.25040318,47.10417399,577.25
-99.25040425,47.10441109,577.45
-99.25040607,47.10480880,577.65
-99.25040725,47.10503940,577.79
-99.25040912,47.10543806,578.93
-99.25040949,47.10552816,579.07
-99.25041094,47.10583187,580.24
-99.25041212,47.10608348,581.22
-99.25041314,47.10617827,581.50
-99.25041470,47.10623007,581.58
-99.25042122,47.10623337,581.69
-99.25044009,47.10623359,581.71
-99.25065903,47.10623311,582.37
-99.25122567,47.10623180,583.22
-99.25162323,47.10623094,583.88
-99.25220335,47.10622965,583.49
-99.25232655,47.10622939,583.41
-99.25286247,47.10622821,583.55
-99.25344267,47.10622697,584.46
-99.25346440,47.10622691,584.56
-99.25349550,47.10622680,584.65
-99.25372677,47.10622540,585.07
-99.25374604,47.10622529,585.08
-99.25380406,47.10622498,585.02
-99.25383316,47.10622483,584.97
-99.25389118,47.10622453,584.84
-99.25391039,47.10622442,584.84
-99.25392979,47.10622432,584.84
-99.25394926,47.10622421,584.89
-99.25403595,47.10622374,584.84
-99.25406512,47.10622357,584.93
-99.25410373,47.10622336,585.02
-99.25413287,47.10622320,585.12
-99.25416176,47.10622304,585.05
-99.25418141,47.10622293,585.12
-99.25420985,47.10622278,585.07
-99.25422942,47.10622267,585.11
-99.25427750,47.10622241,585.16
-99.25429678,47.10622230,585.16
-99.25430649,47.10622225,585.22
-99.25435448,47.10622198,585.26
-99.25436416,47.10622192,585.30
-99.25441248,47.10622165,585.45
-99.25444121,47.10622150,585.35
-99.25445067,47.10622145,585.40
-99.25446036,47.10622139,585.47
-99.25447020,47.10622133,585.48
-99.25447973,47.10622128,585.60
-99.25448936,47.10622122,585.61
-99.25452774,47.10622101,585.58
-99.25516786,47.10622316,586.20
-99.25517742,47.10622313,586.17
-99.25519654,47.10622305,586.21
-99.25523459,47.10622288,586.35
-99.25529198,47.10622264,586.52
-99.25532043,47.10622252,586.56
-99.25532998,47.10622248,586.60
-99.25533952,47.10622244,586.60
-99.25536840,47.10622232,586.65
-99.25539681,47.10622221,586.57
-99.25545387,47.10622198,586.58
-99.25548248,47.10622187,586.46
-99.25550155,47.10622179,586.46
-99.25551112,47.10622175,586.42
-99.25553020,47.10622167,586.48
-99.25557770,47.10622149,586.44
-99.25560633,47.10622138,586.39
-99.25561588,47.10622134,586.40
-99.25566360,47.10622115,586.20
-99.25568248,47.10622107,586.31
-99.25569223,47.10622103,586.31
-99.25571111,47.10622095,586.28
-99.25636706,47.10622042,586.77
-99.25637696,47.10622044,586.84
     </coordinates>
    </LineString>
   </MultiGeometry>
  </Placemark>
 </Document>
</kml>
