<kml>
 <Document>
  <Style id="yellow">
   <LineStyle>
   <color>ff00ffff</color>
   <width>1</width>
   </LineStyle>
  </Style>
  <Style id="red">
   <LineStyle>
   <color>ffff0000</color>
   <width>2</width>
   </LineStyle>
  </Style>
  <Style id="green">
   <LineStyle>
   <color>ff00ff00</color>
   <width>1</width>
   </LineStyle>
  </Style>
  <Placemark>
  <styleUrl>#yellow</styleUrl>
   <MultiGeometry>
    <LineString>
     <coordinates>
-99.29572476,47.16011683,587.14
-99.29606780,47.16011612,587.75
-99.29667952,47.16011450,589.02
-99.29678450,47.16011425,588.63
-99.29692029,47.16011391,589.30
-99.29743438,47.16011256,590.04
-99.29777240,47.16011165,591.68
-99.29832800,47.16011020,595.23
-99.29873136,47.16010918,598.25
-99.29923435,47.16010787,599.79
-99.29941284,47.16010742,600.11
-99.29978147,47.16010644,601.93
-99.30033514,47.16010501,604.37
-99.30086833,47.16010355,605.79
-99.30115209,47.16010287,605.32
-99.30140794,47.16010218,605.55
-99.30176541,47.16010123,606.43
-99.30238891,47.16009946,606.95
-99.30266578,47.16009884,607.42
-99.30321430,47.16009743,609.45
-99.30326970,47.16009711,609.29
-99.30343701,47.16009525,608.54
-99.30343703,47.16008247,608.76
-99.30343677,47.15999809,609.79
-99.30343609,47.15985770,611.14
-99.30343497,47.15967943,612.33
-99.30343309,47.15933100,609.96
-99.30343113,47.15899111,608.75
-99.30342997,47.15878207,607.62
-99.30342819,47.15848974,604.87
-99.30342609,47.15811213,604.94
-99.30342429,47.15779099,606.50
-99.30342294,47.15755038,606.34
-99.30342174,47.15733692,607.06
-99.30342095,47.15719846,607.69
-99.30341879,47.15683286,611.55
-99.30341802,47.15668271,612.18
-99.30341558,47.15628205,611.75
-99.30341473,47.15612102,613.11
-99.30341332,47.15588250,614.86
-99.30341180,47.15561252,615.55
-99.30340967,47.15521990,616.80
-99.30340787,47.15490019,618.54
-99.30340607,47.15458818,621.23
-99.30340471,47.15435893,623.18
-99.30340234,47.15396366,628.27
-99.30340147,47.15380011,628.60
-99.30339971,47.15346604,632.27
-99.30339806,47.15318754,631.44
-99.30339646,47.15289496,632.83
-99.30339409,47.15249744,634.99
-99.30339297,47.15228152,636.73
-99.30339128,47.15198945,635.10
-99.30338979,47.15175984,634.99
-99.30338858,47.15151810,635.90
-99.30338793,47.15140622,636.00
-99.30338671,47.15119781,636.47
-99.30338635,47.15113679,636.66
-99.30338588,47.15112665,636.66
-99.30338438,47.15109927,636.66
-99.30338324,47.15109898,636.66
-99.30337425,47.15109861,636.70
-99.30317670,47.15109901,635.87
-99.30281484,47.15109998,632.97
-99.30222117,47.15110153,630.13
-99.30176160,47.15110277,627.78
-99.30146795,47.15110356,627.64
-99.30096270,47.15110485,627.64
-99.30051083,47.15110604,626.76
-99.29988471,47.15110776,626.64
-99.29942291,47.15110899,625.76
-99.29911201,47.15110970,624.09
-99.29900985,47.15110997,622.86
-99.29889672,47.15111027,621.59
-99.29834423,47.15111174,617.57
-99.29820645,47.15111206,616.79
-99.29791362,47.15111293,616.25
-99.29753768,47.15111382,615.21
-99.29729086,47.15111443,614.67
-99.29665131,47.15111613,614.98
-99.29602441,47.15111777,616.30
-99.29569807,47.15111855,616.23
-99.29523858,47.15111975,614.94
-99.29487235,47.15112079,615.12
-99.29456379,47.15112169,615.46
-99.29418211,47.15112246,615.42
-99.29363993,47.15112387,612.66
-99.29342846,47.15112446,611.77
-99.29287642,47.15112580,610.79
-99.29224157,47.15112745,610.61
-99.29185436,47.15112847,611.29
-99.29135671,47.15112977,611.99
-99.29105192,47.15113053,611.85
-99.29090900,47.15113090,611.89
-99.29031010,47.15113243,612.58
-99.29020733,47.15113325,612.38
-99.29019826,47.15113387,612.26
-99.29019657,47.15114045,612.34
-99.29019624,47.15114318,612.37
-99.29019605,47.15116090,612.40
-99.29019711,47.15138004,613.02
-99.29019801,47.15155056,612.35
-99.29020056,47.15197338,612.24
-99.29020184,47.15224155,611.44
-99.29020211,47.15229465,611.31
-99.29020406,47.15265510,610.21
-99.29020597,47.15300549,609.58
-99.29020743,47.15324976,607.91
-99.29020947,47.15364392,608.27
-99.29021114,47.15396529,605.03
-99.29021216,47.15413151,604.18
-99.29021445,47.15455903,601.46
-99.29021564,47.15479182,601.52
-99.29021766,47.15514663,600.16
-99.29022008,47.15559264,600.04
-99.29022203,47.15594935,596.02
-99.29022305,47.15614599,593.97
-99.29022385,47.15629732,592.90
-99.29022523,47.15655062,592.50
-99.29022588,47.15666775,592.11
-99.29022772,47.15701007,591.26
-99.29023003,47.15741995,589.60
-99.29023141,47.15766323,589.87
-99.29023213,47.15778213,590.28
-99.29023360,47.15804744,591.32
-99.29023498,47.15834111,591.78
-99.29023668,47.15865165,591.70
-99.29023899,47.15906971,590.36
-99.29024036,47.15929059,589.33
-99.29024184,47.15959411,589.71
-99.29024379,47.15993721,591.01
-99.29024457,47.16006620,591.57
-99.29024508,47.16009173,591.69
-99.29024721,47.16011943,592.05
-99.29025083,47.16012829,592.13
-99.29026387,47.16013044,592.20
-99.29032636,47.16013079,592.72
-99.29064182,47.16013000,594.84
-99.29075410,47.16012972,595.07
-99.29128490,47.16012831,596.05
-99.29158081,47.16012761,594.92
-99.29221160,47.16012602,592.13
-99.29224017,47.16012595,592.22
-99.29284255,47.16012440,593.84
-99.29319351,47.16012347,593.75
-99.29345195,47.16012275,592.14
-99.29393541,47.16012151,590.04
-99.29453039,47.16011993,588.43
-99.29461653,47.16011973,588.07
-99.29478818,47.16011932,587.37
-99.29507318,47.16011853,587.57
-99.29572476,47.16011683,587.14
     </coordinates>
    </LineString>
   </MultiGeometry>
  </Placemark>
 </Document>
</kml>
