<kml>
 <Document>
  <Style id="yellow">
   <LineStyle>
   <color>ff00ffff</color>
   <width>1</width>
   </LineStyle>
  </Style>
  <Style id="red">
   <LineStyle>
   <color>ffff0000</color>
   <width>2</width>
   </LineStyle>
  </Style>
  <Style id="green">
   <LineStyle>
   <color>ff00ff00</color>
   <width>1</width>
   </LineStyle>
  </Style>
  <Placemark>
  <styleUrl>#yellow</styleUrl>
   <MultiGeometry>
    <LineString>
     <coordinates>
-99.25047177,47.11523194,588.06
-99.25074326,47.11523146,587.34
-99.25133082,47.11523015,587.64
-99.25149367,47.11522985,587.84
-99.25180003,47.11522914,589.69
-99.25234441,47.11522795,589.61
-99.25297288,47.11522657,588.70
-99.25358244,47.11522527,588.93
-99.25366905,47.11522508,588.49
-99.25408390,47.11522405,588.67
-99.25464539,47.11522291,589.85
-99.25517242,47.11522172,589.76
-99.25547867,47.11522103,589.43
-99.25582742,47.11522018,589.44
-99.25623674,47.11521928,586.20
-99.25675863,47.11521814,586.51
-99.25720387,47.11521716,587.07
-99.25748548,47.11521656,586.78
-99.25755910,47.11521639,587.02
-99.25756183,47.11521638,586.94
-99.25803010,47.11521530,588.53
-99.25824481,47.11521483,589.01
-99.25861199,47.11521391,590.40
-99.25919785,47.11521266,586.69
-99.25939688,47.11521222,586.50
-99.26000681,47.11521087,586.56
-99.26001609,47.11521083,586.46
-99.26010985,47.11521023,586.76
-99.26013777,47.11521006,586.79
-99.26024071,47.11520940,587.10
-99.26025011,47.11520934,587.16
-99.26026886,47.11520920,587.25
-99.26027804,47.11520914,587.31
-99.26034362,47.11520866,587.95
-99.26039993,47.11520822,588.53
-99.26042790,47.11520800,588.91
-99.26045602,47.11520778,589.20
-99.26048417,47.11520755,589.65
-99.26057741,47.11520684,590.59
-99.26063308,47.11520646,590.90
-99.26128833,47.11520793,591.50
-99.26130672,47.11520781,591.40
-99.26135313,47.11520747,591.54
-99.26197342,47.11520575,593.46
-99.26216086,47.11520593,593.96
-99.26253126,47.11520509,594.43
-99.26282988,47.11520443,594.70
-99.26325703,47.11520343,594.13
-99.26341504,47.11520306,594.60
-99.26355386,47.11520270,594.57
-99.26363594,47.11520153,594.51
-99.26363611,47.11519252,594.46
-99.26363616,47.11511388,594.53
-99.26363506,47.11488872,594.39
-99.26363448,47.11477154,594.19
-99.26363267,47.11442196,593.89
-99.26363194,47.11426511,592.15
-99.26363131,47.11412376,591.49
-99.26362974,47.11381872,589.58
-99.26362917,47.11372945,589.58
-99.26362801,47.11353809,589.65
-99.26362668,47.11320022,592.27
-99.26362613,47.11308994,593.64
-99.26362398,47.11264378,590.92
-99.26362217,47.11227521,591.90
-99.26362091,47.11201958,590.60
-99.26361961,47.11177096,589.11
-99.26361833,47.11149842,586.35
-99.26361732,47.11130365,586.49
-99.26361600,47.11102653,590.30
-99.26361479,47.11077907,591.10
-99.26361340,47.11050742,590.81
-99.26361325,47.11047879,590.44
-99.26361110,47.11003071,588.51
-99.26360913,47.10963176,586.65
-99.26360754,47.10930903,587.12
-99.26360662,47.10913116,588.75
-99.26360450,47.10872020,590.73
-99.26360281,47.10835786,587.63
-99.26360125,47.10805469,588.40
-99.26360023,47.10783284,589.29
-99.26359906,47.10760275,591.33
-99.26359760,47.10730515,591.31
-99.26359634,47.10704159,591.29
-99.26359486,47.10674172,591.75
-99.26359309,47.10638587,593.80
-99.26359228,47.10623782,593.24
-99.26359169,47.10620555,593.06
-99.26356255,47.10620544,593.19
-99.26332176,47.10620476,593.38
-99.26331237,47.10620473,593.39
-99.26304981,47.10620538,593.66
-99.26251841,47.10620656,593.22
-99.26231882,47.10620703,593.57
-99.26184122,47.10620816,594.20
-99.26118269,47.10621028,593.54
-99.26117363,47.10621025,593.54
-99.26113662,47.10621014,593.45
-99.26110888,47.10621005,593.36
-99.26106279,47.10620989,593.28
-99.26049764,47.10621173,593.31
-99.26032065,47.10621159,591.57
-99.25968797,47.10621303,589.96
-99.25904602,47.10621503,590.16
-99.25901714,47.10621495,590.13
-99.25896986,47.10621484,589.93
-99.25893138,47.10621477,589.64
-99.25892173,47.10621476,589.56
-99.25858487,47.10621556,590.47
-99.25796878,47.10621808,589.76
-99.25792008,47.10621792,589.76
-99.25785143,47.10621769,589.73
-99.25783145,47.10621763,589.66
-99.25774168,47.10621744,589.13
-99.25773151,47.10621745,588.95
-99.25730002,47.10621841,587.72
-99.25727127,47.10621858,587.72
-99.25720413,47.10621895,587.43
-99.25712707,47.10621938,587.21
-99.25708893,47.10621960,587.08
-99.25702160,47.10621997,587.03
-99.25642122,47.10622039,586.76
-99.25638177,47.10622048,586.77
-99.25591391,47.10622593,586.58
-99.25588557,47.10622609,586.38
-99.25585675,47.10622625,586.41
-99.25583768,47.10622635,586.40
-99.25582836,47.10622640,586.40
-99.25581883,47.10622645,586.36
-99.25580930,47.10622650,586.35
-99.25515827,47.10622321,586.11
-99.25512959,47.10622331,586.13
-99.25503405,47.10622372,585.94
-99.25497681,47.10622395,585.87
-99.25494794,47.10622407,586.00
-99.25491940,47.10622419,585.94
-99.25490021,47.10622427,585.89
-99.25489065,47.10622430,585.90
-99.25487171,47.10622438,585.91
-99.25486211,47.10622442,585.89
-99.25484283,47.10622450,585.75
-99.25483309,47.10622454,585.83
-99.25475686,47.10622485,585.87
-99.25469936,47.10622507,585.93
-99.25466082,47.10622524,585.78
-99.25459360,47.10622552,585.79
-99.25453598,47.10622577,585.62
-99.25452648,47.10622581,585.72
-99.25449770,47.10622593,585.61
-99.25443983,47.10622618,585.50
-99.25443026,47.10622622,585.55
-99.25442083,47.10622626,585.53
-99.25441125,47.10622630,585.56
-99.25439172,47.10622638,585.54
-99.25437251,47.10622646,585.42
-99.25433384,47.10622663,585.33
-99.25427609,47.10622688,585.28
-99.25424677,47.10622700,585.17
-99.25422776,47.10622708,585.24
-99.25419886,47.10622720,585.14
-99.25418902,47.10622724,585.17
-99.25416962,47.10622732,585.13
-99.25414077,47.10622745,585.25
-99.25350200,47.10622687,584.69
-99.25343318,47.10622702,584.50
-99.25295334,47.10622812,583.71
-99.25287214,47.10622831,583.58
-99.25221381,47.10622971,583.25
-99.25175187,47.10623080,583.91
-99.25163254,47.10623108,584.03
-99.25105175,47.10623227,583.21
-99.25044907,47.10623370,581.75
-99.25041600,47.10623786,581.55
-99.25041329,47.10626407,581.69
-99.25041423,47.10653716,581.96
-99.25041516,47.10673700,582.41
-99.25041701,47.10711800,583.83
-99.25041759,47.10725853,584.26
-99.25041923,47.10759472,584.04
-99.25042046,47.10786891,584.10
-99.25042244,47.10829494,582.02
-99.25042458,47.10868802,581.61
-99.25042510,47.10885246,581.47
-99.25042651,47.10916368,581.51
-99.25042720,47.10928043,581.58
-99.25042878,47.10957711,581.93
-99.25042934,47.10977258,582.00
-99.25043070,47.10999295,581.91
-99.25043213,47.11034811,581.80
-99.25043336,47.11062436,582.01
-99.25043470,47.11088761,583.35
-99.25043618,47.11120492,583.72
-99.25043748,47.11146612,585.11
-99.25043838,47.11168569,585.51
-99.25044027,47.11209458,585.89
-99.25044097,47.11224024,586.18
-99.25044261,47.11257593,587.19
-99.25044427,47.11294402,586.28
-99.25044493,47.11308366,586.86
-99.25044702,47.11352931,586.48
-99.25044895,47.11392713,587.41
-99.25045040,47.11424747,587.24
-99.25045185,47.11457080,588.71
-99.25045405,47.11500340,588.22
-99.25045432,47.11508852,588.13
-99.25045477,47.11519376,588.09
-99.25045756,47.11521531,588.10
-99.25045911,47.11522550,588.01
-99.25046248,47.11523146,588.02
-99.25047177,47.11523194,588.06
     </coordinates>
    </LineString>
   </MultiGeometry>
  </Placemark>
 </Document>
</kml>
