<kml>
 <Document>
  <Style id="yellow">
   <LineStyle>
   <color>ff00ffff</color>
   <width>1</width>
   </LineStyle>
  </Style>
  <Style id="red">
   <LineStyle>
   <color>ffff0000</color>
   <width>2</width>
   </LineStyle>
  </Style>
  <Style id="green">
   <LineStyle>
   <color>ff00ff00</color>
   <width>1</width>
   </LineStyle>
  </Style>
  <Placemark>
  <styleUrl>#yellow</styleUrl>
   <MultiGeometry>
    <LineString>
     <coordinates>
-99.26367303,47.12253993,598.99
-99.26367409,47.12278173,599.05
-99.26367600,47.12316313,600.15
-99.26367719,47.12340560,600.12
-99.26367888,47.12375023,599.66
-99.26368075,47.12407481,599.32
-99.26368127,47.12415511,599.40
-99.26368180,47.12416575,599.31
-99.26368304,47.12417706,599.21
-99.26368559,47.12419301,599.51
-99.26368740,47.12419712,599.55
-99.26383290,47.12420061,599.31
-99.26392919,47.12420047,599.26
-99.26435028,47.12419950,599.82
-99.26469002,47.12419859,599.33
-99.26510685,47.12419774,599.37
-99.26556285,47.12419664,601.88
-99.26603496,47.12419559,602.62
-99.26662483,47.12419227,600.94
-99.26676149,47.12419272,600.34
-99.26677975,47.12419279,600.28
-99.26691647,47.12419343,600.16
-99.26695323,47.12419343,599.68
-99.26754424,47.12419197,598.99
-99.26771404,47.12418230,599.50
-99.26829086,47.12408857,599.67
-99.26875140,47.12418922,599.66
-99.26931568,47.12418792,602.23
-99.26944769,47.12418761,602.73
-99.26945771,47.12418758,602.53
-99.26965733,47.12418707,602.46
-99.27017891,47.12418586,604.41
-99.27051022,47.12418513,605.17
-99.27059050,47.12418494,605.35
-99.27112285,47.12418367,615.96
-99.27151670,47.12418268,605.96
-99.27216728,47.12418116,616.28
-99.27223634,47.12418100,606.43
-99.27281360,47.12417965,619.00
-99.27307698,47.12417896,617.04
-99.27353549,47.12417794,617.20
-99.27419386,47.12417630,616.44
-99.27433991,47.12417599,610.57
-99.27450128,47.12417563,610.43
-99.27515956,47.12417403,609.37
-99.27574224,47.12417264,613.77
-99.27639264,47.12417101,616.23
-99.27679907,47.12416991,616.40
-99.27685502,47.12416818,616.33
-99.27686409,47.12416789,616.29
-99.27686420,47.12410577,615.92
-99.27686348,47.12387886,615.17
-99.27686259,47.12371479,614.49
-99.27686110,47.12341985,614.13
-99.27686022,47.12326813,613.21
-99.27685930,47.12311786,612.52
-99.27685764,47.12279679,609.81
-99.27685564,47.12243750,607.74
-99.27685496,47.12227419,607.53
-99.27685291,47.12189932,602.33
-99.27685150,47.12159295,602.55
-99.27685001,47.12129729,602.19
-99.27684859,47.12105091,602.41
-99.27684773,47.12089565,602.35
-99.27684585,47.12050313,602.41
-99.27684487,47.12031405,602.49
-99.27684354,47.12006001,602.51
-99.27684204,47.11980422,602.31
-99.27684115,47.11960141,603.12
-99.27683955,47.11926628,604.73
-99.27683840,47.11904339,605.09
-99.27683702,47.11882263,604.57
-99.27683547,47.11853007,605.85
-99.27683318,47.11811032,605.70
-99.27683249,47.11790413,605.29
-99.27683061,47.11754154,603.95
-99.27682843,47.11715249,604.82
-99.27682683,47.11684583,605.43
-99.27682512,47.11657158,606.40
-99.27682445,47.11637430,607.44
-99.27682429,47.11633099,607.60
-99.27682205,47.11591728,607.32
-99.27682038,47.11558155,605.86
-99.27681897,47.11530503,603.33
-99.27681762,47.11518983,602.96
-99.27681134,47.11517267,602.84
-99.27669867,47.11517185,601.71
-99.27643482,47.11517243,601.49
-99.27630637,47.11517276,601.69
-99.27577434,47.11517401,602.72
-99.27514356,47.11517554,602.60
-99.27477014,47.11517653,603.95
-99.27438105,47.11517736,601.67
-99.27419208,47.11517781,601.38
-99.27382671,47.11517874,601.22
-99.27319764,47.11518024,601.63
-99.27290058,47.11518094,601.86
-99.27232645,47.11518230,598.85
-99.27205248,47.11518291,599.33
-99.27144635,47.11518435,598.99
-99.27101547,47.11518540,599.31
-99.27039167,47.11518686,599.54
-99.26987913,47.11518805,600.48
-99.26939872,47.11518924,600.10
-99.26907184,47.11518995,599.16
-99.26887504,47.11519044,597.92
-99.26837623,47.11519169,595.13
-99.26803964,47.11519237,595.12
-99.26744520,47.11519379,598.06
-99.26687298,47.11519514,598.02
-99.26641162,47.11519626,597.62
-99.26588824,47.11519738,596.14
-99.26555294,47.11519817,596.79
-99.26527818,47.11519881,597.04
-99.26480344,47.11519995,594.92
-99.26424913,47.11520126,595.00
-99.26406008,47.11520170,595.03
-99.26373608,47.11520252,594.53
-99.26372592,47.11520276,594.41
-99.26365877,47.11520467,594.39
-99.26364927,47.11520497,594.44
-99.26364003,47.11520527,594.58
-99.26363809,47.11521165,594.47
-99.26363711,47.11521813,594.42
-99.26363693,47.11525905,594.42
-99.26363875,47.11558119,594.88
-99.26363995,47.11587033,595.67
-99.26364087,47.11604314,596.68
-99.26364286,47.11645591,597.86
-99.26364295,47.11647462,597.95
-99.26364373,47.11663280,598.91
-99.26364554,47.11699739,597.39
-99.26364700,47.11727902,597.89
-99.26364817,47.11753358,597.90
-99.26364848,47.11759702,597.73
-99.26364864,47.11762187,597.66
-99.26365077,47.11805626,596.37
-99.26365226,47.11836252,596.43
-99.26365355,47.11862020,598.61
-99.26365575,47.11905111,598.62
-99.26365708,47.11933615,598.36
-99.26365825,47.11957493,599.15
-99.26365948,47.11981392,599.30
-99.26366140,47.12020144,598.27
-99.26366247,47.12042636,597.27
-99.26366388,47.12069308,596.17
-99.26366494,47.12092726,594.84
-99.26366561,47.12106478,594.75
-99.26366741,47.12142335,595.49
-99.26366860,47.12165978,596.92
-99.26366986,47.12187687,598.65
-99.26367167,47.12228692,599.73
-99.26367303,47.12253993,598.99
     </coordinates>
    </LineString>
   </MultiGeometry>
  </Placemark>
 </Document>
</kml>
