<kml>
 <Document>
  <Style id="yellow">
   <LineStyle>
   <color>ff00ffff</color>
   <width>1</width>
   </LineStyle>
  </Style>
  <Style id="red">
   <LineStyle>
   <color>ffff0000</color>
   <width>2</width>
   </LineStyle>
  </Style>
  <Style id="green">
   <LineStyle>
   <color>ff00ff00</color>
   <width>1</width>
   </LineStyle>
  </Style>
  <Placemark>
  <styleUrl>#yellow</styleUrl>
   <MultiGeometry>
    <LineString>
     <coordinates>
-99.23733499,47.12913940,579.05
-99.23733629,47.12944007,577.23
-99.23733734,47.12966856,576.49
-99.23733886,47.13001365,575.49
-99.23734059,47.13040681,575.28
-99.23734157,47.13058946,575.02
-99.23734319,47.13088570,574.45
-99.23734368,47.13108182,574.36
-99.23734469,47.13131994,574.54
-99.23734537,47.13147641,574.21
-99.23734637,47.13170373,574.41
-99.23734799,47.13207055,573.86
-99.23734984,47.13247991,573.79
-99.23735149,47.13282185,573.10
-99.23735313,47.13321377,574.49
-99.23735333,47.13324352,574.40
-99.23735837,47.13325451,574.32
-99.23739471,47.13325697,574.34
-99.23790875,47.13325598,574.36
-99.23820214,47.13325539,574.27
-99.23853306,47.13325462,575.04
-99.23899845,47.13325375,575.80
-99.23948290,47.13325269,577.99
-99.23959893,47.13325244,577.54
-99.23978440,47.13325204,576.29
-99.24027045,47.13325111,578.70
-99.24035397,47.13325094,578.29
-99.24075737,47.13325007,579.50
-99.24113901,47.13324927,581.15
-99.24160395,47.13324827,581.01
-99.24186962,47.13324769,581.61
-99.24237597,47.13324662,582.97
-99.24276715,47.13324581,586.08
-99.24313544,47.13324507,584.82
-99.24349411,47.13324431,585.92
-99.24382484,47.13324354,585.54
-99.24435615,47.13324247,588.97
-99.24463164,47.13324181,588.53
-99.24518659,47.13324064,589.50
-99.24538038,47.13324024,588.18
-99.24588405,47.13323917,588.53
-99.24635119,47.13323810,588.29
-99.24678754,47.13323721,588.91
-99.24721598,47.13323634,589.64
-99.24756590,47.13323555,590.48
-99.24817142,47.13323425,591.41
-99.24864366,47.13323316,591.94
-99.24885730,47.13323271,592.13
-99.24938587,47.13323161,592.49
-99.24990307,47.13323039,592.51
-99.25014810,47.13322991,593.06
-99.25043215,47.13322922,592.54
-99.25053561,47.13322710,592.47
-99.25053636,47.13322228,592.63
-99.25053908,47.13319830,592.47
-99.25053882,47.13313409,592.44
-99.25053809,47.13296868,591.83
-99.25053712,47.13279157,592.19
-99.25053561,47.13245347,590.63
-99.25053526,47.13237026,590.50
-99.25053462,47.13222082,592.37
-99.25053419,47.13212281,593.04
-99.25053284,47.13184692,593.74
-99.25053173,47.13160642,590.84
-99.25052995,47.13121850,590.18
-99.25052904,47.13104145,590.23
-99.25052802,47.13090017,590.39
-99.25052722,47.13080410,589.93
-99.25052635,47.13079401,590.17
-99.25052310,47.13078328,590.21
-99.25051701,47.13076190,589.95
-99.25051277,47.13031930,589.90
-99.25052176,47.13029616,590.72
-99.25052285,47.13028661,590.12
-99.25052467,47.13016623,590.14
-99.25052460,47.13007321,590.80
-99.25052416,47.13000241,591.29
-99.25052291,47.12977294,592.80
-99.25052201,47.12952625,591.27
-99.25052117,47.12935466,591.19
-99.25051950,47.12899786,591.24
-99.25051840,47.12875836,594.11
-99.25051692,47.12850770,596.07
-99.25051617,47.12830621,596.78
-99.25051422,47.12787295,593.46
-99.25051382,47.12778861,593.17
-99.25051309,47.12764751,593.75
-99.25051246,47.12755870,595.14
-99.25051076,47.12718229,596.24
-99.25050933,47.12684666,596.47
-99.25050884,47.12676696,596.34
-99.25050692,47.12632493,592.30
-99.25050527,47.12600764,592.24
-99.25050336,47.12557989,592.19
-99.25050268,47.12544430,592.79
-99.25050260,47.12543225,592.91
-99.25050090,47.12515404,594.04
-99.25050004,47.12485590,593.40
-99.25049800,47.12447769,596.60
-99.25049772,47.12440304,597.18
-99.25049708,47.12429300,596.69
-99.25049678,47.12427056,596.50
-99.25049564,47.12423308,596.30
-99.25019577,47.12423138,595.65
-99.24980700,47.12423222,593.46
-99.24932770,47.12423322,594.13
-99.24878762,47.12423444,596.32
-99.24834836,47.12423534,595.00
-99.24780487,47.12423657,594.75
-99.24768295,47.12423680,593.99
-99.24755299,47.12423709,593.78
-99.24722611,47.12423793,593.67
-99.24689259,47.12423858,594.01
-99.24682323,47.12423871,594.19
-99.24665154,47.12423910,594.12
-99.24620663,47.12424015,595.83
-99.24578194,47.12424088,596.35
-99.24526101,47.12424199,598.30
-99.24472694,47.12424323,597.60
-99.24414396,47.12424439,596.76
-99.24371092,47.12424534,594.84
-99.24325177,47.12424630,596.61
-99.24300090,47.12424680,594.17
-99.24242429,47.12424805,591.99
-99.24190525,47.12424914,591.02
-99.24134833,47.12425031,590.84
-99.24109332,47.12425083,592.05
-99.24080628,47.12425150,591.61
-99.24054032,47.12425215,589.95
-99.24012638,47.12425288,587.84
-99.23964870,47.12425394,586.18
-99.23912079,47.12425497,586.50
-99.23877219,47.12425570,585.57
-99.23841153,47.12425659,584.70
-99.23805943,47.12425720,584.44
-99.23752157,47.12425833,584.91
-99.23736250,47.12425872,584.85
-99.23734271,47.12425945,584.74
-99.23732372,47.12426016,584.73
-99.23731407,47.12426052,584.76
-99.23731394,47.12428152,584.76
-99.23731390,47.12438971,584.06
-99.23731434,47.12447724,583.75
-99.23731613,47.12489612,583.72
-99.23731764,47.12523778,582.20
-99.23731960,47.12567962,580.50
-99.23732124,47.12602962,582.51
-99.23732196,47.12621006,583.26
-99.23732327,47.12651305,583.92
-99.23732488,47.12683905,583.61
-99.23732558,47.12700937,583.70
-99.23732613,47.12714205,583.58
-99.23732721,47.12739282,583.86
-99.23732787,47.12754711,583.74
-99.23732976,47.12796073,583.83
-99.23733173,47.12840352,582.42
-99.23733372,47.12885107,580.08
-99.23733499,47.12913940,579.05
     </coordinates>
    </LineString>
   </MultiGeometry>
  </Placemark>
 </Document>
</kml>
