<kml>
 <Document>
  <Style id="yellow">
   <LineStyle>
   <color>ff00ffff</color>
   <width>1</width>
   </LineStyle>
  </Style>
  <Style id="red">
   <LineStyle>
   <color>ffff0000</color>
   <width>2</width>
   </LineStyle>
  </Style>
  <Style id="green">
   <LineStyle>
   <color>ff00ff00</color>
   <width>1</width>
   </LineStyle>
  </Style>
  <Placemark>
  <styleUrl>#yellow</styleUrl>
   <MultiGeometry>
    <LineString>
     <coordinates>
-99.23726149,47.11261323,583.10
-99.23726182,47.11269261,582.90
-99.23726229,47.11277691,582.24
-99.23726408,47.11316585,581.09
-99.23726499,47.11336339,580.67
-99.23726636,47.11365846,581.32
-99.23726743,47.11388283,581.69
-99.23726915,47.11426415,581.52
-99.23726929,47.11428463,581.58
-99.23727146,47.11473405,581.35
-99.23727171,47.11489793,582.84
-99.23727216,47.11501336,583.83
-99.23727352,47.11521413,586.04
-99.23727679,47.11524462,586.31
-99.23727921,47.11525826,586.48
-99.23744657,47.11525958,586.18
-99.23757148,47.11525942,585.71
-99.23791006,47.11525877,583.40
-99.23843367,47.11525781,582.27
-99.23903580,47.11525643,582.24
-99.23935577,47.11525579,582.24
-99.23986712,47.11525476,584.26
-99.23998090,47.11525453,584.81
-99.24042048,47.11525362,584.58
-99.24075415,47.11525292,586.01
-99.24114339,47.11525213,586.51
-99.24154892,47.11525119,586.41
-99.24181493,47.11525064,586.82
-99.24231220,47.11524964,587.09
-99.24290259,47.11524841,588.00
-99.24336833,47.11524738,587.62
-99.24390385,47.11524624,586.88
-99.24449836,47.11524502,588.39
-99.24503114,47.11524388,588.29
-99.24546590,47.11524295,587.40
-99.24576226,47.11524228,586.20
-99.24628253,47.11524117,585.36
-99.24662543,47.11524045,585.29
-99.24710763,47.11523936,586.32
-99.24741518,47.11523873,585.62
-99.24753557,47.11523847,585.61
-99.24797749,47.11523750,585.85
-99.24834022,47.11523676,587.17
-99.24852822,47.11523633,586.19
-99.24906364,47.11523503,586.42
-99.24951025,47.11523411,587.32
-99.24970622,47.11523370,587.48
-99.25024448,47.11523261,588.31
-99.25040279,47.11523185,588.20
-99.25045305,47.11523097,588.11
-99.25045378,47.11518778,588.05
-99.25045409,47.11511597,588.15
-99.25045373,47.11498514,588.36
-99.25045286,47.11479767,588.75
-99.25045082,47.11437080,587.99
-99.25044924,47.11411837,587.51
-99.25044817,47.11378998,587.16
-99.25044724,47.11359115,586.54
-99.25044639,47.11341014,586.47
-99.25044460,47.11313328,587.00
-99.25044388,47.11288117,586.34
-99.25044378,47.11285856,586.31
-99.25044332,47.11277227,586.50
-99.25044245,47.11261974,587.12
-99.25044086,47.11227842,586.25
-99.25044043,47.11215537,585.91
-99.25043879,47.11179314,585.59
-99.25043754,47.11152647,585.51
-99.25043616,47.11123480,583.68
-99.25043511,47.11103694,583.47
-99.25043300,47.11058949,581.89
-99.25043216,47.11038415,582.01
-99.25043084,47.11010145,582.47
-99.25042938,47.10980067,581.87
-99.25042840,47.10961507,581.87
-99.25042697,47.10931273,581.41
-99.25042563,47.10898365,581.67
-99.25042428,47.10874193,581.60
-99.25042331,47.10851961,581.62
-99.25042273,47.10837728,581.76
-99.25042234,47.10828382,582.01
-99.25042125,47.10808882,583.19
-99.25041968,47.10773602,584.62
-99.25041759,47.10738615,583.97
-99.25041705,47.10716040,583.91
-99.25041569,47.10687331,583.06
-99.25041489,47.10669357,582.20
-99.25041291,47.10629212,581.66
-99.25041224,47.10624091,581.61
-99.25040679,47.10623774,581.55
-99.25039722,47.10623762,581.46
-99.25035039,47.10623702,581.31
-99.25028462,47.10623619,581.03
-99.25013425,47.10623433,580.74
-99.24960922,47.10623549,579.91
-99.24936881,47.10623601,579.41
-99.24875808,47.10623735,580.84
-99.24847635,47.10623789,581.57
-99.24794190,47.10623905,582.94
-99.24742104,47.10624017,583.30
-99.24703183,47.10624100,582.94
-99.24675675,47.10624161,582.58
-99.24649354,47.10624226,581.54
-99.24596419,47.10624332,580.14
-99.24539987,47.10624452,580.94
-99.24513726,47.10624508,581.53
-99.24483753,47.10624572,579.44
-99.24460752,47.10624623,578.91
-99.24434195,47.10624686,579.09
-99.24383047,47.10624796,578.04
-99.24345800,47.10624870,577.75
-99.24331765,47.10624897,577.65
-99.24306088,47.10624971,577.31
-99.24256391,47.10625074,577.93
-99.24216797,47.10625140,578.96
-99.24182464,47.10625219,579.99
-99.24152899,47.10625283,579.89
-99.24109060,47.10625371,578.46
-99.24059041,47.10625481,578.03
-99.24039650,47.10625520,578.95
-99.23991853,47.10625618,580.88
-99.23948308,47.10625811,580.61
-99.23895262,47.10625898,581.27
-99.23885464,47.10625902,581.61
-99.23878570,47.10625910,581.76
-99.23873707,47.10625921,581.78
-99.23870739,47.10625929,581.75
-99.23868775,47.10625935,581.73
-99.23863884,47.10625954,581.56
-99.23857961,47.10625984,581.22
-99.23849117,47.10626038,580.54
-99.23827404,47.10626170,578.87
-99.23763117,47.10626379,577.61
-99.23756186,47.10626394,577.61
-99.23753204,47.10626401,577.61
-99.23752230,47.10626404,577.60
-99.23750209,47.10626413,577.53
-99.23749229,47.10626417,577.47
-99.23747223,47.10626428,577.34
-99.23740214,47.10626466,576.90
-99.23724048,47.10626575,575.44
-99.23723723,47.10626849,575.54
-99.23723359,47.10629884,575.65
-99.23723546,47.10669887,575.94
-99.23723585,47.10684847,576.01
-99.23723659,47.10701126,576.82
-99.23723743,47.10719441,578.19
-99.23723906,47.10755233,579.11
-99.23724027,47.10776549,578.65
-99.23724141,47.10807783,578.79
-99.23724241,47.10831257,580.16
-99.23724330,47.10852534,579.52
-99.23724438,47.10875342,578.45
-99.23724610,47.10915449,580.14
-99.23724658,47.10925988,579.84
-99.23724821,47.10962948,582.52
-99.23724823,47.10963408,582.51
-99.23724972,47.10995521,582.90
-99.23725114,47.11026815,582.49
-99.23725268,47.11052658,582.36
-99.23725356,47.11079630,582.20
-99.23725440,47.11101690,582.76
-99.23725639,47.11146655,584.56
-99.23725781,47.11178794,583.06
-99.23725901,47.11205692,583.72
-99.23725958,47.11217635,583.54
-99.23726149,47.11261323,583.10
     </coordinates>
    </LineString>
   </MultiGeometry>
  </Placemark>
 </Document>
</kml>
