<kml>
 <Document>
  <Style id="yellow">
   <LineStyle>
   <color>ff00ffff</color>
   <width>1</width>
   </LineStyle>
  </Style>
  <Style id="red">
   <LineStyle>
   <color>ffff0000</color>
   <width>2</width>
   </LineStyle>
  </Style>
  <Style id="green">
   <LineStyle>
   <color>ff00ff00</color>
   <width>1</width>
   </LineStyle>
  </Style>
  <Placemark>
  <styleUrl>#yellow</styleUrl>
   <MultiGeometry>
    <LineString>
     <coordinates>
-99.29014678,47.14209614,605.72
-99.29014715,47.14211374,605.49
-99.29014993,47.14213144,605.46
-99.29015419,47.14213247,605.54
-99.29017939,47.14213405,605.40
-99.29033621,47.14213372,605.30
-99.29038982,47.14213357,605.57
-99.29104803,47.14213190,607.19
-99.29121301,47.14213146,607.49
-99.29164416,47.14213033,606.66
-99.29221956,47.14212888,608.76
-99.29233708,47.14212855,609.33
-99.29289572,47.14212719,608.91
-99.29308099,47.14212669,608.45
-99.29365884,47.14212521,608.42
-99.29394161,47.14212446,609.38
-99.29450315,47.14212305,612.13
-99.29474230,47.14212246,613.05
-99.29519863,47.14212128,614.02
-99.29578408,47.14211974,612.64
-99.29585986,47.14211953,612.61
-99.29609875,47.14211890,612.40
-99.29672129,47.14211735,614.13
-99.29719994,47.14211610,612.89
-99.29745265,47.14211542,612.85
-99.29794194,47.14211418,612.59
-99.29839974,47.14211297,612.91
-99.29882491,47.14211169,613.26
-99.29930861,47.14211047,613.21
-99.29948666,47.14211003,613.05
-99.29997316,47.14210883,613.39
-99.30053879,47.14210737,613.77
-99.30108936,47.14210592,613.96
-99.30131516,47.14210537,614.11
-99.30187680,47.14210387,615.25
-99.30199636,47.14210356,615.25
-99.30238511,47.14210232,615.36
-99.30273336,47.14210149,615.92
-99.30289565,47.14210119,615.99
-99.30307156,47.14210070,616.47
-99.30310024,47.14210060,621.84
-99.30310914,47.14210042,621.84
-99.30332806,47.14209492,617.31
-99.30333407,47.14199961,622.33
-99.30333421,47.14199059,617.10
-99.30333405,47.14194221,617.14
-99.30333191,47.14155179,616.86
-99.30332948,47.14116645,617.69
-99.30332804,47.14088966,616.01
-99.30332656,47.14060929,615.49
-99.30332438,47.14023450,614.90
-99.30332374,47.14012510,614.60
-99.30332344,47.14007736,614.52
-99.30332188,47.13981831,613.78
-99.30332001,47.13947987,613.11
-99.30331915,47.13932531,612.67
-99.30331707,47.13894947,611.52
-99.30331604,47.13875915,611.50
-99.30331417,47.13843304,610.89
-99.30331273,47.13820043,610.63
-99.30331064,47.13783447,610.54
-99.30330933,47.13767723,610.79
-99.30330740,47.13739270,610.36
-99.30330632,47.13713647,610.54
-99.30330464,47.13676090,610.38
-99.30330317,47.13653497,610.73
-99.30330161,47.13625415,610.48
-99.30330034,47.13600755,610.90
-99.30329897,47.13581246,610.69
-99.30329707,47.13547040,614.09
-99.30329542,47.13514165,616.52
-99.30329367,47.13482811,619.25
-99.30329228,47.13458965,619.57
-99.30329058,47.13432332,622.55
-99.30328865,47.13394489,622.50
-99.30328714,47.13367719,623.69
-99.30328478,47.13326369,624.32
-99.30328413,47.13319682,624.61
-99.30328325,47.13310824,624.86
-99.30327739,47.13310227,624.90
-99.30326830,47.13310198,625.00
-99.30325900,47.13310171,624.98
-99.30287651,47.13310271,624.56
-99.30255742,47.13310355,622.45
-99.30246723,47.13310379,621.62
-99.30213423,47.13310467,618.88
-99.30178287,47.13310559,615.76
-99.30145790,47.13310652,614.03
-99.30094644,47.13310791,612.35
-99.30073647,47.13310839,611.52
-99.30062258,47.13310865,610.88
-99.30031544,47.13310960,610.57
-99.29981303,47.13311080,610.64
-99.29936872,47.13311195,610.66
-99.29891765,47.13311311,611.49
-99.29826152,47.13311486,612.39
-99.29762268,47.13311650,612.12
-99.29702311,47.13311806,612.27
-99.29682353,47.13311858,612.37
-99.29633125,47.13311988,612.58
-99.29611123,47.13312040,613.29
-99.29597684,47.13312082,613.98
-99.29535647,47.13312245,616.72
-99.29494678,47.13312342,618.02
-99.29463586,47.13312425,618.79
-99.29443160,47.13312487,618.69
-99.29400408,47.13312605,617.79
-99.29370709,47.13312668,617.39
-99.29337004,47.13312748,616.70
-99.29295774,47.13312853,616.91
-99.29254206,47.13312957,616.67
-99.29247843,47.13312973,616.24
-99.29188598,47.13313125,616.82
-99.29131716,47.13313269,617.45
-99.29128875,47.13313276,617.36
-99.29085214,47.13313387,617.59
-99.29033562,47.13313520,618.53
-99.29013856,47.13313587,619.14
-99.29012894,47.13313623,619.12
-99.29011973,47.13313659,619.12
-99.29010062,47.13313733,619.27
-99.29009962,47.13315415,619.23
-99.29009837,47.13322553,619.56
-99.29009937,47.13341107,620.35
-99.29010094,47.13369213,621.76
-99.29010186,47.13383795,621.71
-99.29010380,47.13423479,621.66
-99.29010470,47.13439660,622.02
-99.29010560,47.13452963,622.96
-99.29010730,47.13486157,624.53
-99.29010938,47.13508481,623.64
-99.29011008,47.13532566,623.60
-99.29011140,47.13563606,626.15
-99.29011378,47.13605642,619.50
-99.29011632,47.13649483,615.87
-99.29011679,47.13661702,613.54
-99.29011874,47.13697299,608.49
-99.29011993,47.13718714,608.39
-99.29012219,47.13758952,607.83
-99.29012318,47.13775837,608.35
-99.29012488,47.13810648,609.77
-99.29012668,47.13843477,608.39
-99.29012847,47.13877460,607.05
-99.29013095,47.13922244,607.44
-99.29013276,47.13955759,617.47
-99.29013416,47.13979994,606.01
-99.29013563,47.14008480,606.17
-99.29013655,47.14024618,606.69
-99.29013891,47.14068758,605.13
-99.29014061,47.14100353,604.56
-99.29014200,47.14124302,605.74
-99.29014345,47.14152210,606.66
-99.29014437,47.14169741,606.44
-99.29014678,47.14209614,605.72
     </coordinates>
    </LineString>
   </MultiGeometry>
  </Placemark>
 </Document>
</kml>
