<kml>
 <Document>
  <Style id="yellow">
   <LineStyle>
   <color>ff00ffff</color>
   <width>1</width>
   </LineStyle>
  </Style>
  <Style id="red">
   <LineStyle>
   <color>ffff0000</color>
   <width>2</width>
   </LineStyle>
  </Style>
  <Style id="green">
   <LineStyle>
   <color>ff00ff00</color>
   <width>1</width>
   </LineStyle>
  </Style>
  <Placemark>
  <styleUrl>#yellow</styleUrl>
   <MultiGeometry>
    <LineString>
     <coordinates>
-99.26357820,47.10335234,593.03
-99.26357955,47.10363691,593.80
-99.26358158,47.10404066,592.97
-99.26358325,47.10438412,592.34
-99.26358427,47.10458760,592.18
-99.26358566,47.10487458,593.39
-99.26358674,47.10507964,593.33
-99.26358891,47.10552732,592.70
-99.26359000,47.10575368,593.17
-99.26359158,47.10606966,592.88
-99.26359174,47.10609564,592.96
-99.26359256,47.10619708,593.13
-99.26359818,47.10620405,593.08
-99.26381924,47.10620353,593.66
-99.26444559,47.10620210,593.71
-99.26488976,47.10620101,592.96
-99.26511575,47.10620056,592.91
-99.26552939,47.10619955,594.19
-99.26581054,47.10619887,593.72
-99.26618376,47.10619796,591.06
-99.26653170,47.10619720,591.29
-99.26683106,47.10619653,591.17
-99.26722767,47.10619561,591.30
-99.26783887,47.10619423,594.07
-99.26816020,47.10619348,594.08
-99.26864583,47.10619232,596.33
-99.26882768,47.10619189,597.33
-99.26938878,47.10619051,595.90
-99.26950890,47.10619023,596.36
-99.27011648,47.10618876,597.93
-99.27018349,47.10618869,598.63
-99.27063692,47.10618763,598.01
-99.27128345,47.10618361,597.70
-99.27132116,47.10618365,597.34
-99.27133063,47.10618364,597.33
-99.27136831,47.10618364,597.27
-99.27142554,47.10618353,597.99
-99.27153946,47.10618338,598.83
-99.27157713,47.10618335,598.99
-99.27168120,47.10618326,599.31
-99.27176602,47.10618321,599.40
-99.27190750,47.10618316,599.31
-99.27192663,47.10618316,599.29
-99.27197384,47.10618312,599.49
-99.27201139,47.10618308,599.58
-99.27205879,47.10618303,599.86
-99.27215316,47.10618294,600.24
-99.27220010,47.10618290,600.39
-99.27226616,47.10618286,600.55
-99.27233196,47.10618280,600.71
-99.27236025,47.10618278,600.86
-99.27249200,47.10618265,601.34
-99.27284085,47.10618239,602.10
-99.27285956,47.10618237,602.10
-99.27286895,47.10618236,602.19
-99.27329154,47.10618134,604.19
-99.27383556,47.10617996,605.81
-99.27446678,47.10617851,607.13
-99.27487800,47.10617751,607.38
-99.27539124,47.10617628,608.89
-99.27588300,47.10617511,607.50
-99.27638290,47.10617375,607.35
-99.27672936,47.10617291,608.24
-99.27675799,47.10617188,608.33
-99.27676724,47.10617153,608.28
-99.27676944,47.10616809,608.39
-99.27677151,47.10616279,608.41
-99.27676992,47.10586732,609.00
-99.27676906,47.10568767,610.00
-99.27676687,47.10526600,610.19
-99.27676548,47.10498849,608.38
-99.27676407,47.10473088,607.80
-99.27676315,47.10453609,605.95
-99.27676061,47.10409039,603.28
-99.27675987,47.10391448,602.12
-99.27675836,47.10360858,599.63
-99.27675599,47.10320220,596.77
-99.27675461,47.10291584,595.94
-99.27675389,47.10276111,596.24
-99.27675311,47.10259328,596.80
-99.27675196,47.10237688,597.13
-99.27675039,47.10206911,596.56
-99.27674854,47.10171324,595.51
-99.27674655,47.10137093,594.26
-99.27674539,47.10112375,594.22
-99.27674335,47.10073437,593.71
-99.27674279,47.10060973,594.25
-99.27674168,47.10039529,594.00
-99.27673941,47.09998209,596.35
-99.27673873,47.09984445,596.79
-99.27673746,47.09959401,597.69
-99.27673626,47.09935118,597.41
-99.27673477,47.09909429,597.31
-99.27673300,47.09872995,595.37
-99.27673227,47.09857475,594.59
-99.27673128,47.09839270,593.64
-99.27672971,47.09811586,593.84
-99.27672910,47.09800724,593.83
-99.27672685,47.09756843,594.08
-99.27672659,47.09748199,594.16
-99.27672553,47.09730182,594.31
-99.27672483,47.09718566,594.02
-99.27671868,47.09717644,593.98
-99.27633525,47.09717544,594.63
-99.27610386,47.09717601,595.80
-99.27549197,47.09717754,595.83
-99.27530080,47.09717794,595.75
-99.27528096,47.09717821,595.75
-99.27527126,47.09717834,595.75
-99.27522169,47.09717904,595.89
-99.27458458,47.09717965,594.91
-99.27406319,47.09718096,594.55
-99.27344991,47.09718260,592.02
-99.27340041,47.09718254,591.91
-99.27339046,47.09718255,591.92
-99.27338073,47.09718255,591.93
-99.27272851,47.09718963,591.45
-99.27264991,47.09718958,591.57
-99.27263025,47.09718954,591.56
-99.27258104,47.09718948,591.58
-99.27254176,47.09718940,591.54
-99.27250270,47.09718932,591.51
-99.27241480,47.09718915,591.44
-99.27236553,47.09718903,591.31
-99.27233630,47.09718898,591.32
-99.27229706,47.09718890,591.29
-99.27225805,47.09718881,591.20
-99.27220902,47.09718870,591.13
-99.27219921,47.09718868,591.13
-99.27215015,47.09718860,591.10
-99.27211091,47.09718855,591.15
-99.27208171,47.09718852,591.14
-99.27198384,47.09718840,591.20
-99.27136713,47.09718735,591.00
-99.27072555,47.09718888,588.81
-99.27025914,47.09719005,588.59
-99.26991665,47.09719075,586.96
-99.26940695,47.09719196,584.03
-99.26911011,47.09719271,583.95
-99.26873854,47.09719365,583.86
-99.26822321,47.09719474,585.75
-99.26771791,47.09719606,585.67
-99.26751076,47.09719644,585.63
-99.26721637,47.09719714,585.60
-99.26672545,47.09719829,587.31
-99.26623603,47.09719937,587.10
-99.26575443,47.09720051,584.64
-99.26515180,47.09720188,584.67
-99.26481081,47.09720272,585.26
-99.26456400,47.09720332,585.12
-99.26397275,47.09720460,586.02
-99.26354863,47.09720597,586.63
-99.26354853,47.09721999,586.70
-99.26354873,47.09734322,586.02
-99.26354914,47.09745641,585.53
-99.26354993,47.09763318,584.87
-99.26355146,47.09793788,584.91
-99.26355273,47.09816863,585.56
-99.26355318,47.09825285,585.87
-99.26355452,47.09853262,585.65
-99.26355531,47.09872570,585.40
-99.26355673,47.09900421,585.80
-99.26355830,47.09930731,585.67
-99.26356017,47.09970318,586.91
-99.26356183,47.10001167,586.61
-99.26356279,47.10023388,588.09
-99.26356301,47.10028670,588.26
-99.26356421,47.10052008,588.46
-99.26356555,47.10079753,589.16
-99.26356646,47.10097450,589.44
-99.26356728,47.10113468,589.13
-99.26356741,47.10115790,589.12
-99.26356919,47.10146254,589.79
-99.26357043,47.10175648,590.50
-99.26357064,47.10181609,590.74
-99.26357098,47.10190142,591.11
-99.26357159,47.10202146,591.39
-99.26357381,47.10242876,589.86
-99.26357546,47.10280546,590.75
-99.26357685,47.10308445,591.87
-99.26357820,47.10335234,593.03
     </coordinates>
    </LineString>
   </MultiGeometry>
  </Placemark>
 </Document>
</kml>
