<kml>
 <Document>
  <Style id="yellow">
   <LineStyle>
   <color>ff00ffff</color>
   <width>1</width>
   </LineStyle>
  </Style>
  <Style id="red">
   <LineStyle>
   <color>ffff0000</color>
   <width>2</width>
   </LineStyle>
  </Style>
  <Style id="green">
   <LineStyle>
   <color>ff00ff00</color>
   <width>1</width>
   </LineStyle>
  </Style>
  <Placemark>
  <styleUrl>#yellow</styleUrl>
   <MultiGeometry>
    <LineString>
     <coordinates>
-99.22785706,47.11527928,575.39
-99.22809074,47.11527887,574.52
-99.22820005,47.11527865,574.24
-99.22862251,47.11527779,575.97
-99.22893242,47.11527718,577.06
-99.22943632,47.11527612,578.10
-99.22956806,47.11527585,577.84
-99.22995835,47.11527503,581.46
-99.23052529,47.11527399,584.50
-99.23112444,47.11527273,586.72
-99.23154445,47.11527193,588.07
-99.23219694,47.11526879,587.31
-99.23223456,47.11526915,586.88
-99.23228141,47.11526959,586.32
-99.23230969,47.11526984,586.00
-99.23235667,47.11527022,585.60
-99.23236640,47.11527023,585.66
-99.23296698,47.11526799,583.91
-99.23304313,47.11526830,583.77
-99.23306190,47.11526839,583.71
-99.23314709,47.11526859,583.87
-99.23316604,47.11526861,583.98
-99.23317551,47.11526860,584.08
-99.23380544,47.11526588,586.18
-99.23389082,47.11526623,586.21
-99.23392871,47.11526640,586.20
-99.23399559,47.11526678,585.99
-99.23401474,47.11526689,585.92
-99.23402420,47.11526690,585.98
-99.23450639,47.11526580,584.99
-99.23503480,47.11526479,583.82
-99.23538785,47.11526411,583.78
-99.23553842,47.11526367,583.92
-99.23613412,47.11526242,584.65
-99.23655085,47.11526168,585.23
-99.23708467,47.11526061,586.56
-99.23722025,47.11526009,586.58
-99.23723005,47.11525980,586.50
-99.23725957,47.11525890,586.40
-99.23726957,47.11525856,586.50
-99.23727198,47.11525454,586.30
-99.23727244,47.11524805,586.39
-99.23727212,47.11513462,585.13
-99.23727132,47.11488722,582.71
-99.23726912,47.11448594,581.39
-99.23726935,47.11439656,583.00
-99.23726837,47.11419197,581.63
-99.23726754,47.11403507,581.70
-99.23726625,47.11370205,581.50
-99.23726520,47.11346464,580.86
-99.23726357,47.11312703,581.14
-99.23726233,47.11283370,581.87
-99.23726175,47.11273358,582.58
-99.23726014,47.11236115,583.15
-99.23725918,47.11211237,583.77
-99.23725906,47.11207939,583.72
-99.23725892,47.11204616,583.64
-99.23725717,47.11166671,583.80
-99.23725516,47.11121778,582.40
-99.23725397,47.11093295,582.83
-99.23725231,47.11062131,581.90
-99.23725179,47.11051553,582.27
-99.23724997,47.11010842,582.55
-99.23724983,47.11001847,583.57
-99.23724968,47.10997343,583.07
-99.23724927,47.10987427,582.79
-99.23724898,47.10981133,582.77
-99.23724776,47.10955255,582.51
-99.23724623,47.10919421,580.02
-99.23724484,47.10887527,578.81
-99.23724347,47.10857234,579.22
-99.23724249,47.10836095,580.13
-99.23724077,47.10796088,578.37
-99.23724044,47.10789589,578.40
-99.23723980,47.10776975,578.59
-99.23723791,47.10736865,579.19
-99.23723693,47.10711126,577.60
-99.23723566,47.10683726,576.05
-99.23723415,47.10646815,576.29
-99.23723338,47.10630133,575.76
-99.23723202,47.10627414,575.52
-99.23723055,47.10626575,575.49
-99.23720022,47.10626592,575.30
-99.23713943,47.10626626,574.88
-99.23705845,47.10626673,574.32
-99.23689582,47.10626754,573.43
-99.23652009,47.10626870,572.83
-99.23640838,47.10626882,573.08
-99.23632736,47.10626886,573.36
-99.23625614,47.10626896,573.49
-99.23618465,47.10626903,573.67
-99.23614345,47.10626911,573.69
-99.23551992,47.10626526,571.03
-99.23511884,47.10626608,570.20
-99.23483771,47.10626674,570.73
-99.23443737,47.10626747,571.29
-99.23385768,47.10626867,569.62
-99.23344512,47.10626951,567.22
-99.23302065,47.10627041,567.03
-99.23255025,47.10627132,567.36
-99.23209575,47.10627224,567.15
-99.23168458,47.10627307,567.18
-99.23107264,47.10627434,567.47
-99.23087259,47.10627472,568.93
-99.23062049,47.10627525,569.25
-99.23021084,47.10627604,568.21
-99.22978188,47.10627704,566.59
-99.22953509,47.10627744,566.79
-99.22939653,47.10627770,566.53
-99.22919541,47.10627812,566.99
-99.22872516,47.10627902,569.20
-99.22865992,47.10627915,569.37
-99.22817014,47.10628015,569.48
-99.22779348,47.10628089,569.64
-99.22729274,47.10628188,571.97
-99.22705706,47.10628238,572.09
-99.22698439,47.10628255,571.85
-99.22673915,47.10628317,572.98
-99.22609426,47.10628426,574.50
-99.22586086,47.10628473,573.95
-99.22543190,47.10628556,572.93
-99.22515905,47.10628613,572.53
-99.22474721,47.10628692,572.21
-99.22451039,47.10628741,572.21
-99.22441346,47.10628772,572.33
-99.22406314,47.10628933,573.33
-99.22405986,47.10629156,573.39
-99.22405568,47.10630081,573.35
-99.22405394,47.10632866,573.60
-99.22405566,47.10674928,573.15
-99.22405740,47.10715401,571.89
-99.22405877,47.10748084,572.68
-99.22405955,47.10766298,568.95
-99.22406089,47.10799204,564.74
-99.22406544,47.10800198,564.97
-99.22407419,47.10800241,565.03
-99.22408240,47.10800278,564.74
-99.22449528,47.10822533,564.48
-99.22436806,47.10843372,564.42
-99.22420517,47.10848972,564.63
-99.22420041,47.10849089,565.01
-99.22411381,47.10850696,564.62
-99.22406645,47.10852552,564.89
-99.22406411,47.10853646,564.56
-99.22406371,47.10856573,564.62
-99.22406352,47.10861148,564.76
-99.22406415,47.10873874,565.49
-99.22406579,47.10914054,566.49
-99.22406625,47.10927008,565.89
-99.22406727,47.10951195,564.93
-99.22406893,47.10990417,563.40
-99.22407055,47.11026074,561.77
-99.22407141,47.11046476,563.31
-99.22407288,47.11085142,563.73
-99.22407483,47.11129780,563.45
-99.22407617,47.11161604,564.27
-99.22407718,47.11187614,563.95
-99.22407755,47.11195521,564.29
-99.22407907,47.11230465,567.40
-99.22407968,47.11246369,568.68
-99.22408003,47.11254596,568.61
-99.22408118,47.11281342,568.08
-99.22408196,47.11300371,568.56
-99.22408255,47.11314008,568.82
-99.22408441,47.11355494,568.21
-99.22408577,47.11390537,568.02
-99.22408748,47.11432013,567.06
-99.22408920,47.11470330,565.42
-99.22409062,47.11506881,564.83
-99.22409159,47.11527567,564.73
-99.22409283,47.11528566,564.79
-99.22409331,47.11528653,564.84
-99.22428524,47.11528637,565.29
-99.22480842,47.11528535,566.68
-99.22517345,47.11528461,568.02
-99.22560105,47.11528378,569.65
-99.22596992,47.11528305,571.32
-99.22627204,47.11528244,571.89
-99.22678771,47.11528143,572.68
-99.22728104,47.11528041,573.61
-99.22785706,47.11527928,575.39
     </coordinates>
    </LineString>
   </MultiGeometry>
  </Placemark>
 </Document>
</kml>
