<kml>
 <Document>
  <Style id="yellow">
   <LineStyle>
   <color>ff00ffff</color>
   <width>1</width>
   </LineStyle>
  </Style>
  <Style id="red">
   <LineStyle>
   <color>ffff0000</color>
   <width>2</width>
   </LineStyle>
  </Style>
  <Style id="green">
   <LineStyle>
   <color>ff00ff00</color>
   <width>1</width>
   </LineStyle>
  </Style>
  <Placemark>
  <styleUrl>#yellow</styleUrl>
   <MultiGeometry>
    <LineString>
     <coordinates>
-99.28994354,47.10473928,608.75
-99.28994535,47.10508029,609.88
-99.28994781,47.10552915,608.34
-99.28994854,47.10566250,608.66
-99.28995048,47.10602260,609.62
-99.28995102,47.10611363,608.90
-99.28995183,47.10613365,608.54
-99.28996587,47.10613995,608.60
-99.29004528,47.10614012,608.50
-99.29056796,47.10613883,608.01
-99.29108764,47.10613746,606.88
-99.29147315,47.10613649,606.94
-99.29178861,47.10613571,607.19
-99.29201783,47.10613514,607.12
-99.29226211,47.10613451,606.94
-99.29244964,47.10613396,606.28
-99.29296766,47.10613269,604.62
-99.29322750,47.10613193,605.50
-99.29363190,47.10613093,607.10
-99.29421111,47.10612950,604.84
-99.29454474,47.10612863,604.87
-99.29514529,47.10612712,607.94
-99.29573985,47.10612558,604.89
-99.29617873,47.10612443,605.41
-99.29670411,47.10612296,606.30
-99.29695986,47.10612243,606.72
-99.29761356,47.10612069,610.16
-99.29825137,47.10611904,610.16
-99.29884686,47.10611750,609.44
-99.29909803,47.10611682,609.00
-99.29954066,47.10611558,610.21
-99.29976915,47.10611509,611.46
-99.30026686,47.10611381,612.25
-99.30078680,47.10611242,612.49
-99.30117354,47.10611141,612.43
-99.30147351,47.10611059,612.63
-99.30210516,47.10610898,613.60
-99.30273386,47.10610729,614.40
-99.30311573,47.10610631,615.62
-99.30312421,47.10610610,615.69
-99.30312932,47.10610509,615.69
-99.30313001,47.10606684,615.92
-99.30312953,47.10596257,616.23
-99.30312836,47.10575957,615.32
-99.30312595,47.10534833,615.07
-99.30312544,47.10523219,614.88
-99.30312473,47.10509228,614.77
-99.30312339,47.10486933,614.63
-99.30312216,47.10463862,614.39
-99.30312039,47.10433505,614.62
-99.30311951,47.10417270,614.62
-99.30311777,47.10386875,615.71
-99.30311625,47.10359753,616.16
-99.30311401,47.10322390,617.16
-99.30311271,47.10297112,617.64
-99.30311058,47.10260481,616.90
-99.30310886,47.10229679,615.39
-99.30310808,47.10217071,614.18
-99.30310576,47.10178153,612.80
-99.30310517,47.10167068,612.52
-99.30310432,47.10150484,612.55
-99.30310264,47.10119929,611.91
-99.30310111,47.10094634,611.63
-99.30309927,47.10060521,612.35
-99.30309738,47.10027408,609.82
-99.30309659,47.10013480,607.09
-99.30309485,47.09983266,604.43
-99.30309278,47.09946585,602.79
-99.30309167,47.09926611,600.63
-99.30309060,47.09907675,599.10
-99.30308861,47.09873433,596.40
-99.30308642,47.09834129,596.10
-99.30308398,47.09791334,599.59
-99.30308172,47.09751520,592.19
-99.30307997,47.09721561,591.44
-99.30307812,47.09712036,592.04
-99.30307701,47.09711186,592.13
-99.30307513,47.09710836,592.01
-99.30306547,47.09710822,592.10
-99.30305565,47.09710807,592.22
-99.30304593,47.09710794,592.27
-99.30247978,47.09710940,593.47
-99.30220882,47.09711010,594.44
-99.30178404,47.09711127,597.12
-99.30153444,47.09711194,598.42
-99.30091530,47.09711352,596.72
-99.30029999,47.09711514,595.43
-99.29971124,47.09711674,596.63
-99.29926936,47.09711783,598.92
-99.29912730,47.09711823,599.41
-99.29853141,47.09711974,600.95
-99.29830243,47.09712036,601.27
-99.29775149,47.09712185,602.13
-99.29714874,47.09712340,600.40
-99.29671361,47.09712448,599.57
-99.29658472,47.09712480,599.36
-99.29612174,47.09712603,599.83
-99.29550606,47.09712759,600.94
-99.29544157,47.09712776,600.97
-99.29485077,47.09712931,601.62
-99.29421634,47.09713098,602.76
-99.29374227,47.09713214,603.23
-99.29362782,47.09713243,603.43
-99.29332076,47.09713325,604.51
-99.29273741,47.09713472,605.50
-99.29243384,47.09713552,605.18
-99.29186763,47.09713696,603.05
-99.29135501,47.09713823,603.54
-99.29083764,47.09713958,602.00
-99.29029656,47.09714096,600.75
-99.28995368,47.09714178,600.82
-99.28990526,47.09714290,600.86
-99.28990321,47.09715255,600.82
-99.28990260,47.09719155,600.94
-99.28990392,47.09743303,600.72
-99.28990511,47.09765280,600.56
-99.28990595,47.09779805,600.18
-99.28990874,47.09824287,602.56
-99.28990934,47.09839055,604.71
-99.28991020,47.09857272,606.57
-99.28991102,47.09873738,605.98
-99.28991294,47.09910256,605.38
-99.28991497,47.09947423,604.52
-99.28991713,47.09984211,605.34
-99.28991782,47.09999440,605.33
-99.28991995,47.10034780,604.81
-99.28992088,47.10056253,605.25
-99.28992280,47.10090251,605.19
-99.28992386,47.10107305,603.60
-99.28992578,47.10146583,602.48
-99.28992690,47.10165900,602.84
-99.28992857,47.10195932,603.25
-99.28993030,47.10230285,603.14
-99.28993198,47.10261120,602.65
-99.28993301,47.10280694,603.03
-99.28993460,47.10300414,603.44
-99.28993644,47.10330279,604.67
-99.28993711,47.10350692,605.53
-99.28993724,47.10355713,605.62
-99.28993745,47.10361686,605.85
-99.28993875,47.10386423,606.67
-99.28994104,47.10426447,608.19
-99.28994196,47.10444804,607.93
-99.28994354,47.10473928,608.75
     </coordinates>
    </LineString>
   </MultiGeometry>
  </Placemark>
 </Document>
</kml>
