<kml>
 <Document>
  <Style id="yellow">
   <LineStyle>
   <color>ff00ffff</color>
   <width>1</width>
   </LineStyle>
  </Style>
  <Style id="red">
   <LineStyle>
   <color>ffff0000</color>
   <width>2</width>
   </LineStyle>
  </Style>
  <Style id="green">
   <LineStyle>
   <color>ff00ff00</color>
   <width>1</width>
   </LineStyle>
  </Style>
  <Placemark>
  <styleUrl>#yellow</styleUrl>
   <MultiGeometry>
    <LineString>
     <coordinates>
-99.26380274,47.14877081,594.17
-99.26380481,47.14921881,595.43
-99.26380567,47.14938568,593.63
-99.26380688,47.14962158,593.90
-99.26380838,47.14993900,593.77
-99.26380977,47.15020056,592.74
-99.26381094,47.15041746,587.51
-99.26381408,47.15083759,587.26
-99.26381497,47.15101361,587.10
-99.26384398,47.15116922,587.41
-99.26385134,47.15119252,587.47
-99.26397641,47.15119543,587.24
-99.26435220,47.15119514,587.32
-99.26493176,47.15119373,587.24
-99.26509496,47.15119341,587.34
-99.26550651,47.15119249,588.22
-99.26577482,47.15119188,589.21
-99.26617420,47.15119089,589.43
-99.26683236,47.15118939,587.35
-99.26718583,47.15118855,587.29
-99.26783841,47.15118707,593.34
-99.26823795,47.15118614,595.99
-99.26873144,47.15118495,595.95
-99.26937990,47.15118337,589.13
-99.26982110,47.15118232,590.01
-99.27032264,47.15118108,593.34
-99.27060235,47.15118056,590.92
-99.27116218,47.15117923,588.28
-99.27142933,47.15117850,588.30
-99.27153427,47.15117820,588.33
-99.27209993,47.15117686,588.39
-99.27261557,47.15117575,589.24
-99.27296785,47.15117494,590.35
-99.27314110,47.15117453,591.32
-99.27333667,47.15117406,592.29
-99.27359187,47.15117342,592.84
-99.27405241,47.15117235,592.10
-99.27423850,47.15117188,591.41
-99.27487636,47.15117039,589.76
-99.27509171,47.15116985,589.56
-99.27570412,47.15116832,589.70
-99.27609052,47.15116746,589.84
-99.27635660,47.15116683,589.65
-99.27695556,47.15116518,589.99
-99.27699318,47.15116354,589.97
-99.27700265,47.15116312,589.99
-99.27700456,47.15115502,590.01
-99.27700421,47.15105967,589.98
-99.27700319,47.15087106,589.73
-99.27700186,47.15055920,590.23
-99.27700162,47.15050948,590.28
-99.27699968,47.15012241,590.29
-99.27699836,47.14988977,590.36
-99.27699701,47.14962321,590.17
-99.27699651,47.14952689,590.17
-99.27699459,47.14914666,589.90
-99.27699369,47.14896906,590.66
-99.27699314,47.14886448,590.24
-99.27699237,47.14872671,589.92
-99.27699079,47.14841254,590.09
-99.27698972,47.14821522,591.04
-99.27698825,47.14791677,594.20
-99.27698699,47.14768366,595.49
-99.27698501,47.14730243,595.82
-99.27698461,47.14721558,596.67
-99.27698246,47.14681283,598.68
-99.27698170,47.14667109,599.87
-99.27698003,47.14635486,602.15
-99.27697819,47.14597724,604.66
-99.27697675,47.14573406,605.36
-99.27697519,47.14545662,604.14
-99.27697433,47.14528175,603.15
-99.27697370,47.14515583,602.39
-99.27697147,47.14470704,600.84
-99.27697075,47.14456060,601.26
-99.27696846,47.14412874,599.72
-99.27696717,47.14385798,600.14
-99.27696594,47.14363612,600.80
-99.27696386,47.14324192,602.90
-99.27696260,47.14297319,605.18
-99.27696046,47.14256906,607.21
-99.27695860,47.14225821,607.78
-99.27695790,47.14222620,607.96
-99.27695648,47.14218016,608.20
-99.27695401,47.14217093,608.21
-99.27693820,47.14216754,608.22
-99.27689610,47.14216750,608.23
-99.27665267,47.14216763,608.67
-99.27604530,47.14216908,609.92
-99.27575189,47.14216978,610.20
-99.27574978,47.14216979,610.36
-99.27541801,47.14217059,609.47
-99.27488197,47.14217190,609.36
-99.27469110,47.14217237,611.04
-99.27413124,47.14217369,610.03
-99.27382040,47.14217445,612.46
-99.27335561,47.14217553,615.18
-99.27289523,47.14217664,612.71
-99.27235244,47.14217792,613.39
-99.27202672,47.14217886,614.19
-99.27166485,47.14217954,614.76
-99.27128541,47.14218046,612.90
-99.27117059,47.14218077,612.33
-99.27066797,47.14218200,611.13
-99.27039776,47.14218256,611.03
-99.27011907,47.14218320,610.16
-99.26953674,47.14218457,608.50
-99.26931443,47.14218508,608.32
-99.26874731,47.14218642,606.92
-99.26834992,47.14218736,606.14
-99.26791287,47.14218840,607.26
-99.26749384,47.14218936,607.09
-99.26692629,47.14219070,607.49
-99.26638901,47.14219197,606.53
-99.26585223,47.14219323,605.42
-99.26519554,47.14219495,604.31
-99.26516723,47.14219478,604.26
-99.26477603,47.14219566,603.95
-99.26421394,47.14219699,603.47
-99.26407477,47.14219729,602.59
-99.26382838,47.14219788,600.96
-99.26377677,47.14220295,600.77
-99.26377070,47.14220415,600.74
-99.26377051,47.14221600,600.71
-99.26377046,47.14222415,600.69
-99.26377068,47.14228522,600.67
-99.26377133,47.14243727,600.93
-99.26377158,47.14249608,601.10
-99.26377167,47.14251828,601.14
-99.26377368,47.14291917,600.79
-99.26377531,47.14325439,599.57
-99.26377742,47.14365088,597.69
-99.26377950,47.14406770,596.92
-99.26378102,47.14440569,597.39
-99.26378164,47.14453002,597.73
-99.26378275,47.14475238,597.86
-99.26378425,47.14506050,597.75
-99.26378591,47.14538923,597.14
-99.26378773,47.14574587,595.91
-99.26378829,47.14587702,595.61
-99.26378959,47.14612106,594.71
-99.26379110,47.14644829,593.98
-99.26379335,47.14689472,595.18
-99.26379381,47.14699125,595.91
-99.26379501,47.14722603,597.25
-99.26379522,47.14726466,597.81
-99.26379585,47.14738420,598.63
-99.26379751,47.14770574,597.30
-99.26379871,47.14797628,595.60
-99.26379895,47.14802380,595.61
-99.26380093,47.14843162,592.85
-99.26380274,47.14877081,594.17
     </coordinates>
    </LineString>
   </MultiGeometry>
  </Placemark>
 </Document>
</kml>
