<kml>
 <Document>
  <Style id="yellow">
   <LineStyle>
   <color>ff00ffff</color>
   <width>1</width>
   </LineStyle>
  </Style>
  <Style id="red">
   <LineStyle>
   <color>ffff0000</color>
   <width>2</width>
   </LineStyle>
  </Style>
  <Style id="green">
   <LineStyle>
   <color>ff00ff00</color>
   <width>1</width>
   </LineStyle>
  </Style>
  <Placemark>
  <styleUrl>#yellow</styleUrl>
   <MultiGeometry>
    <LineString>
     <coordinates>
-99.28231085,47.11515805,614.17
-99.28268297,47.11515715,614.37
-99.28323701,47.11515573,615.54
-99.28362699,47.11515481,617.14
-99.28368861,47.11515467,617.10
-99.28431326,47.11515309,613.70
-99.28487451,47.11515164,612.92
-99.28524369,47.11515081,612.55
-99.28569892,47.11514966,613.36
-99.28634275,47.11514805,612.45
-99.28660209,47.11514740,614.31
-99.28685247,47.11514668,615.74
-99.28733684,47.11514544,614.61
-99.28757653,47.11514491,614.53
-99.28810214,47.11514362,617.95
-99.28867976,47.11514216,615.54
-99.28898368,47.11514122,613.73
-99.28935845,47.11514041,615.81
-99.28950550,47.11514010,616.53
-99.28996584,47.11513863,616.74
-99.28999390,47.11513676,616.60
-99.28999868,47.11513321,616.61
-99.28999964,47.11511398,616.49
-99.28999754,47.11469309,617.51
-99.28999609,47.11442410,618.30
-99.28999525,47.11430274,617.40
-99.28999347,47.11396598,617.91
-99.28999274,47.11381044,618.20
-99.28999263,47.11379033,618.18
-99.28999242,47.11375190,618.11
-99.28999041,47.11338916,617.92
-99.28998927,47.11318108,617.17
-99.28998772,47.11289783,615.05
-99.28998624,47.11262327,614.33
-99.28998474,47.11234505,617.30
-99.28998365,47.11214477,617.23
-99.28998220,47.11186686,615.06
-99.28998072,47.11160479,615.66
-99.28997839,47.11118568,612.91
-99.28997754,47.11101397,613.02
-99.28997647,47.11082502,613.27
-99.28997489,47.11053123,613.26
-99.28997367,47.11029927,612.02
-99.28997146,47.10990412,608.00
-99.28997071,47.10979526,607.97
-99.28997053,47.10977208,607.98
-99.28996990,47.10970695,608.02
-99.28996674,47.10930168,608.08
-99.28996549,47.10900654,607.52
-99.28996529,47.10876031,608.09
-99.28996430,47.10861718,607.93
-99.28996314,47.10843631,607.85
-99.28996173,47.10812723,607.94
-99.28996123,47.10801890,607.81
-99.28995988,47.10776220,609.04
-99.28995815,47.10744872,608.87
-99.28995596,47.10705051,610.23
-99.28995465,47.10680661,610.47
-99.28995307,47.10650689,610.97
-99.28995090,47.10614289,608.39
-99.28994712,47.10614097,608.49
-99.28992201,47.10614086,608.50
-99.28991483,47.10614083,608.57
-99.28983281,47.10614074,608.60
-99.28926706,47.10614224,608.68
-99.28874941,47.10614349,607.71
-99.28832053,47.10614455,608.51
-99.28798793,47.10614536,609.08
-99.28771390,47.10614606,608.90
-99.28746203,47.10614672,607.94
-99.28686046,47.10614820,606.44
-99.28630197,47.10614960,608.34
-99.28606422,47.10615025,608.75
-99.28603641,47.10615033,608.70
-99.28575690,47.10615112,608.04
-99.28525797,47.10615224,608.92
-99.28500652,47.10615288,609.49
-99.28486259,47.10615327,609.27
-99.28428041,47.10615465,608.26
-99.28391289,47.10615554,608.40
-99.28343674,47.10615677,610.79
-99.28292663,47.10615800,610.86
-99.28239981,47.10615926,608.19
-99.28227608,47.10615958,608.19
-99.28165133,47.10616115,608.48
-99.28157392,47.10616132,608.37
-99.28117159,47.10616236,608.51
-99.28067198,47.10616358,608.99
-99.28024629,47.10616458,609.37
-99.28001551,47.10616512,609.60
-99.27952975,47.10616639,610.03
-99.27934918,47.10616674,610.41
-99.27869972,47.10616840,609.10
-99.27850480,47.10616883,609.18
-99.27820187,47.10616969,610.93
-99.27783647,47.10617055,612.33
-99.27747675,47.10617150,611.16
-99.27711322,47.10617223,609.93
-99.27686006,47.10617300,608.65
-99.27685020,47.10617333,608.48
-99.27677420,47.10617616,608.36
-99.27677358,47.10617993,608.29
-99.27677202,47.10620519,608.38
-99.27677301,47.10640712,608.26
-99.27677501,47.10681636,610.31
-99.27677648,47.10709243,612.45
-99.27677795,47.10735827,612.50
-99.27678008,47.10779475,611.25
-99.27678120,47.10800986,611.08
-99.27678191,47.10814748,611.18
-99.27678307,47.10834608,611.05
-99.27678520,47.10875315,610.55
-99.27678690,47.10910393,610.11
-99.27678860,47.10942722,610.66
-99.27678989,47.10966943,608.98
-99.27679092,47.10988044,607.85
-99.27679224,47.11012291,606.71
-99.27679441,47.11055910,604.06
-99.27679576,47.11080608,603.06
-99.27679694,47.11104606,603.32
-99.27679768,47.11115010,602.51
-99.27679947,47.11153234,601.52
-99.27680128,47.11186838,601.32
-99.27680233,47.11207356,601.60
-99.27680346,47.11229823,602.04
-99.27680475,47.11255069,603.29
-99.27680497,47.11259249,603.11
-99.27680581,47.11273636,601.78
-99.27680793,47.11315353,601.64
-99.27680982,47.11347700,601.56
-99.27681076,47.11367554,601.63
-99.27681217,47.11394281,601.57
-99.27681357,47.11424664,601.62
-99.27681455,47.11441729,601.56
-99.27681664,47.11482617,602.22
-99.27681765,47.11503539,602.90
-99.27681971,47.11515231,602.95
-99.27682153,47.11516380,602.96
-99.27682474,47.11516910,602.98
-99.27687911,47.11517130,603.69
-99.27715855,47.11517057,605.28
-99.27754394,47.11516969,603.37
-99.27793992,47.11516872,604.34
-99.27824248,47.11516798,605.34
-99.27862278,47.11516707,605.93
-99.27899958,47.11516609,604.04
-99.27941006,47.11516511,603.69
-99.27975969,47.11516433,604.68
-99.28019987,47.11516324,606.97
-99.28072551,47.11516195,609.56
-99.28120521,47.11516076,608.44
-99.28173401,47.11515948,610.84
-99.28231085,47.11515805,614.17
     </coordinates>
    </LineString>
   </MultiGeometry>
  </Placemark>
 </Document>
</kml>
