<kml>
 <Document>
  <Style id="yellow">
   <LineStyle>
   <color>ff00ffff</color>
   <width>1</width>
   </LineStyle>
  </Style>
  <Style id="red">
   <LineStyle>
   <color>ffff0000</color>
   <width>2</width>
   </LineStyle>
  </Style>
  <Style id="green">
   <LineStyle>
   <color>ff00ff00</color>
   <width>1</width>
   </LineStyle>
  </Style>
  <Placemark>
  <styleUrl>#yellow</styleUrl>
   <MultiGeometry>
    <LineString>
     <coordinates>
-99.21699283,47.12429900,563.65
-99.21752707,47.12429800,564.14
-99.21786967,47.12429734,564.14
-99.21850575,47.12429611,564.08
-99.21893106,47.12429529,564.06
-99.21918149,47.12429483,564.47
-99.21980458,47.12429365,566.65
-99.22002738,47.12429318,567.23
-99.22053563,47.12429211,569.74
-99.22082076,47.12429167,570.82
-99.22145763,47.12429045,570.37
-99.22182149,47.12428966,571.90
-99.22213990,47.12428909,572.66
-99.22278292,47.12428786,573.67
-99.22332594,47.12428674,574.58
-99.22350210,47.12428643,575.70
-99.22390022,47.12428572,576.18
-99.22402316,47.12428534,575.89
-99.22412630,47.12428127,575.06
-99.22412734,47.12427761,574.90
-99.22412813,47.12426506,574.85
-99.22412864,47.12424247,574.85
-99.22412851,47.12413408,575.25
-99.22412788,47.12395756,574.91
-99.22412749,47.12386799,574.51
-99.22412559,47.12342292,575.39
-99.22412507,47.12328830,575.77
-99.22412317,47.12285540,576.17
-99.22412160,47.12247876,577.63
-99.22412046,47.12223863,579.21
-99.22411965,47.12199871,579.24
-99.22411954,47.12197175,579.29
-99.22411845,47.12171505,578.80
-99.22411678,47.12131486,577.77
-99.22411621,47.12117684,578.37
-99.22411524,47.12099463,579.00
-99.22411384,47.12061836,581.09
-99.22411307,47.12043172,580.52
-99.22411128,47.12003946,581.48
-99.22411027,47.11977067,581.64
-99.22410918,47.11950176,582.04
-99.22410752,47.11911968,581.82
-99.22410571,47.11869498,581.67
-99.22410448,47.11839800,581.21
-99.22410318,47.11808295,582.97
-99.22410143,47.11767002,581.47
-99.22409930,47.11722709,577.63
-99.22409915,47.11715140,577.55
-99.22409902,47.11708159,576.53
-99.22409830,47.11693413,574.91
-99.22409768,47.11680048,573.92
-99.22409598,47.11635845,571.78
-99.22409559,47.11627880,571.29
-99.22409389,47.11587034,567.18
-99.22409370,47.11581537,566.51
-99.22409271,47.11557924,564.92
-99.22409158,47.11531375,564.71
-99.22409136,47.11529952,564.76
-99.22408341,47.11528684,564.80
-99.22387947,47.11528721,564.27
-99.22354607,47.11528788,563.60
-99.22340944,47.11528816,563.97
-99.22284844,47.11528920,563.34
-99.22238330,47.11529023,563.52
-99.22191494,47.11529101,562.79
-99.22162855,47.11529160,562.77
-99.22103429,47.11529272,563.18
-99.22089728,47.11529299,563.59
-99.22030286,47.11529414,566.40
-99.21999760,47.11529477,565.65
-99.21956553,47.11529554,563.59
-99.21896681,47.11529672,563.08
-99.21871975,47.11529725,561.03
-99.21817654,47.11529822,562.41
-99.21766373,47.11529918,563.99
-99.21745919,47.11529958,565.28
-99.21701490,47.11530049,567.67
-99.21682164,47.11530092,568.84
-99.21629246,47.11530185,572.33
-99.21601614,47.11530237,572.81
-99.21544722,47.11530338,574.08
-99.21521117,47.11530387,574.26
-99.21482669,47.11530464,575.02
-99.21448011,47.11530524,575.35
-99.21427673,47.11530557,575.97
-99.21378699,47.11530656,572.85
-99.21358896,47.11530686,571.49
-99.21333724,47.11530732,570.09
-99.21310347,47.11530775,569.23
-99.21247102,47.11530894,570.44
-99.21187991,47.11531003,568.64
-99.21154100,47.11531066,565.75
-99.21100818,47.11531169,562.28
-99.21091196,47.11531290,561.76
-99.21091014,47.11537156,561.92
-99.21091185,47.11578695,566.49
-99.21091300,47.11611150,566.37
-99.21091317,47.11615772,566.14
-99.21091483,47.11657995,566.14
-99.21091561,47.11678218,566.42
-99.21091658,47.11703646,566.11
-99.21091774,47.11730158,565.43
-99.21091837,47.11748718,565.55
-99.21091876,47.11759514,565.60
-99.21092056,47.11803536,566.86
-99.21092181,47.11836834,566.96
-99.21092212,47.11843995,566.92
-99.21092374,47.11883443,566.14
-99.21092487,47.11913152,566.23
-99.21092548,47.11927483,566.53
-99.21092674,47.11960216,566.28
-99.21092739,47.11976915,566.17
-99.21092761,47.11982379,566.33
-99.21092914,47.12020752,568.34
-99.21093005,47.12042933,572.51
-99.21093127,47.12071289,572.95
-99.21093228,47.12101081,569.43
-99.21093266,47.12111009,568.79
-99.21093359,47.12134873,568.46
-99.21093455,47.12157046,568.81
-99.21093561,47.12183536,570.26
-99.21093643,47.12206304,571.19
-99.21093729,47.12224968,572.11
-99.21093822,47.12251494,570.34
-99.21093945,47.12282407,569.33
-99.21094041,47.12307050,569.67
-99.21094081,47.12317020,568.99
-99.21094201,47.12346767,565.93
-99.21094271,47.12365566,567.13
-99.21094409,47.12397808,566.73
-99.21094465,47.12410916,566.35
-99.21094499,47.12416864,566.11
-99.21094518,47.12420105,566.05
-99.21094630,47.12428099,565.69
-99.21094750,47.12430765,565.80
-99.21100635,47.12430992,565.47
-99.21123193,47.12430966,564.24
-99.21130497,47.12430954,563.81
-99.21168367,47.12430892,562.04
-99.21189513,47.12430850,561.20
-99.21245815,47.12430733,558.79
-99.21255446,47.12430718,558.81
-99.21282704,47.12430679,558.69
-99.21307288,47.12430637,558.51
-99.21337425,47.12430579,558.49
-99.21384775,47.12430490,558.60
-99.21423250,47.12430417,558.71
-99.21481105,47.12430308,559.08
-99.21535373,47.12430206,559.43
-99.21561726,47.12430153,559.69
-99.21619350,47.12430048,560.73
-99.21646775,47.12429982,561.73
-99.21699283,47.12429900,563.65
     </coordinates>
    </LineString>
   </MultiGeometry>
  </Placemark>
 </Document>
</kml>
