<kml>
 <Document>
  <Style id="yellow">
   <LineStyle>
   <color>ff00ffff</color>
   <width>1</width>
   </LineStyle>
  </Style>
  <Style id="red">
   <LineStyle>
   <color>ffff0000</color>
   <width>2</width>
   </LineStyle>
  </Style>
  <Style id="green">
   <LineStyle>
   <color>ff00ff00</color>
   <width>1</width>
   </LineStyle>
  </Style>
  <Placemark>
  <styleUrl>#yellow</styleUrl>
   <MultiGeometry>
    <LineString>
     <coordinates>
-99.09234352,47.15605354,582.33
-99.09234378,47.15621113,582.30
-99.09234440,47.15653756,581.20
-99.09234471,47.15674189,577.69
-99.09234513,47.15695621,573.83
-99.09234589,47.15740593,569.01
-99.09234642,47.15769625,569.56
-99.09234703,47.15808700,571.05
-99.09234728,47.15822536,571.43
-99.09234788,47.15849287,568.96
-99.09234822,47.15875024,569.89
-99.09234891,47.15915740,568.88
-99.09234949,47.15946218,566.89
-99.09234973,47.15964692,568.14
-99.09234985,47.15971333,568.44
-99.09234988,47.15973288,568.57
-99.09235037,47.16001112,567.19
-99.09235072,47.16021033,564.77
-99.09235104,47.16035284,565.00
-99.09235121,47.16041597,565.50
-99.09235220,47.16044754,565.79
-99.09235358,47.16045803,565.69
-99.09237969,47.16046129,565.70
-99.09251037,47.16046134,565.55
-99.09299946,47.16046093,567.50
-99.09338108,47.16046034,568.39
-99.09370427,47.16046014,567.57
-99.09392305,47.16046000,567.64
-99.09425707,47.16045989,566.40
-99.09470988,47.16045944,564.27
-99.09501207,47.16045927,564.42
-99.09555205,47.16045884,565.29
-99.09587914,47.16045855,565.63
-99.09651019,47.16045800,567.10
-99.09702755,47.16045757,566.48
-99.09756109,47.16045710,566.75
-99.09786665,47.16045681,568.06
-99.09832901,47.16045643,570.81
-99.09842387,47.16045633,571.39
-99.09900831,47.16045587,571.90
-99.09926731,47.16045562,572.34
-99.09969466,47.16045526,574.76
-99.10022537,47.16045483,575.62
-99.10039125,47.16045458,574.49
-99.10104734,47.16045413,573.05
-99.10159801,47.16045358,571.05
-99.10202870,47.16045317,570.21
-99.10255344,47.16045274,572.53
-99.10303131,47.16045225,572.84
-99.10367571,47.16045169,573.84
-99.10389564,47.16045155,573.84
-99.10390408,47.16045148,573.88
-99.10456173,47.16044618,577.26
-99.10458010,47.16044618,577.34
-99.10463506,47.16044621,577.37
-99.10467171,47.16044623,577.38
-99.10471726,47.16044627,577.39
-99.10472641,47.16044628,577.37
-99.10476249,47.16044633,577.17
-99.10478099,47.16044636,577.11
-99.10483566,47.16044641,577.03
-99.10484500,47.16044642,577.00
-99.10491768,47.16044653,576.65
-99.10492703,47.16044654,576.63
-99.10499082,47.16044661,576.42
-99.10503655,47.16044668,576.21
-99.10510951,47.16044680,575.77
-99.10515526,47.16044688,575.48
-99.10519169,47.16044694,575.26
-99.10523728,47.16044703,574.96
-99.10528313,47.16044709,574.67
-99.10532899,47.16044717,574.46
-99.10535630,47.16044721,574.27
-99.10542077,47.16044730,574.02
-99.10544812,47.16044734,573.90
-99.10547567,47.16044737,573.76
-99.10549382,47.16044739,573.76
-99.10550300,47.16044739,573.79
-99.10552153,47.16044739,573.90
-99.10553965,47.16044739,573.98
-99.10554266,47.16041453,573.94
-99.10554358,47.16039259,573.78
-99.10554364,47.16034948,573.93
-99.10554330,47.16023290,573.65
-99.10554321,47.16019935,573.75
-99.10554244,47.15988969,571.50
-99.10554253,47.15972695,571.00
-99.10554219,47.15950163,571.54
-99.10554176,47.15937519,572.51
-99.10554126,47.15899821,573.86
-99.10554045,47.15861410,579.28
-99.10553973,47.15824258,581.11
-99.10553917,47.15797344,580.58
-99.10553862,47.15770252,580.80
-99.10553827,47.15749499,577.80
-99.10553778,47.15730276,574.84
-99.10553732,47.15703855,575.84
-99.10553723,47.15699312,576.18
-99.10553688,47.15681398,580.75
-99.10553599,47.15642638,582.16
-99.10553587,47.15629735,584.20
-99.10553528,47.15607864,580.63
-99.10553519,47.15604946,580.26
-99.10553437,47.15569186,576.09
-99.10553431,47.15553662,575.68
-99.10553383,47.15526190,575.58
-99.10553335,47.15510577,575.47
-99.10553263,47.15472043,578.24
-99.10553237,47.15451635,580.02
-99.10553190,47.15429530,580.89
-99.10553104,47.15386598,580.29
-99.10553036,47.15349629,580.34
-99.10552954,47.15308713,580.07
-99.10552871,47.15266835,579.84
-99.10552807,47.15241744,580.47
-99.10552743,47.15226657,581.20
-99.10552703,47.15189822,582.82
-99.10552627,47.15145365,582.00
-99.10546169,47.15145199,582.15
-99.10512049,47.15145201,582.96
-99.10489343,47.15145217,582.13
-99.10476824,47.15145231,581.42
-99.10453744,47.15145255,580.53
-99.10409151,47.15145291,578.16
-99.10378151,47.15145317,578.86
-99.10341438,47.15145352,580.74
-99.10295902,47.15145401,582.38
-99.10244076,47.15145446,583.45
-99.10227478,47.15145454,584.56
-99.10220736,47.15145462,584.68
-99.10183213,47.15145500,585.41
-99.10137448,47.15145533,583.85
-99.10083189,47.15145582,583.29
-99.10050141,47.15145628,583.70
-99.10005842,47.15145661,583.45
-99.09972773,47.15145678,581.90
-99.09907449,47.15145750,580.90
-99.09884369,47.15145765,580.47
-99.09856392,47.15145793,579.84
-99.09795448,47.15145833,581.89
-99.09734186,47.15145885,583.17
-99.09709475,47.15145905,583.82
-99.09649458,47.15145957,579.63
-99.09632855,47.15145973,579.07
-99.09601659,47.15146002,578.78
-99.09565473,47.15146026,579.61
-99.09558944,47.15146030,580.07
-99.09495510,47.15146092,583.50
-99.09453191,47.15146132,584.17
-99.09390515,47.15146171,578.29
-99.09349521,47.15146209,578.16
-99.09322253,47.15146231,578.26
-99.09291317,47.15146258,578.17
-99.09247591,47.15146291,580.86
-99.09233601,47.15146310,581.23
-99.09233582,47.15158272,583.97
-99.09233612,47.15168873,586.83
-99.09233661,47.15204692,587.52
-99.09233736,47.15247844,582.87
-99.09233752,47.15258620,583.96
-99.09233827,47.15298397,584.83
-99.09233844,47.15308257,585.36
-99.09233923,47.15348963,586.15
-99.09233916,47.15354221,586.51
-99.09233975,47.15384739,587.64
-99.09234014,47.15409586,588.60
-99.09234057,47.15433296,586.81
-99.09234120,47.15462996,582.36
-99.09234165,47.15497095,580.20
-99.09234225,47.15532076,582.13
-99.09234290,47.15566226,582.53
-99.09234352,47.15605354,582.33
     </coordinates>
    </LineString>
   </MultiGeometry>
  </Placemark>
 </Document>
</kml>
