<kml>
 <Document>
  <Style id="yellow">
   <LineStyle>
   <color>ff00ffff</color>
   <width>1</width>
   </LineStyle>
  </Style>
  <Style id="red">
   <LineStyle>
   <color>ffff0000</color>
   <width>2</width>
   </LineStyle>
  </Style>
  <Style id="green">
   <LineStyle>
   <color>ff00ff00</color>
   <width>1</width>
   </LineStyle>
  </Style>
  <Placemark>
  <styleUrl>#yellow</styleUrl>
   <MultiGeometry>
    <LineString>
     <coordinates>
-99.25087641,47.15122544,589.40
-99.25125274,47.15122465,588.90
-99.25148545,47.15122412,589.03
-99.25180547,47.15122336,589.27
-99.25227524,47.15122237,589.99
-99.25243321,47.15122205,590.07
-99.25304569,47.15122066,587.45
-99.25345623,47.15121978,587.52
-99.25383696,47.15121882,587.27
-99.25429637,47.15121791,587.41
-99.25448548,47.15121750,587.45
-99.25513609,47.15121590,588.42
-99.25532107,47.15121556,587.78
-99.25540975,47.15121539,587.81
-99.25593953,47.15121419,587.62
-99.25616892,47.15121357,588.53
-99.25649438,47.15121270,587.79
-99.25690905,47.15121195,588.89
-99.25696769,47.15121186,588.82
-99.25726313,47.15121128,588.84
-99.25765447,47.15121042,589.06
-99.25820929,47.15120918,589.41
-99.25822425,47.15120914,589.41
-99.25849187,47.15120853,589.14
-99.25909038,47.15120719,587.86
-99.25914646,47.15120706,587.84
-99.25950184,47.15120626,587.90
-99.25973927,47.15120572,588.74
-99.26009544,47.15120490,591.46
-99.26049894,47.15120399,590.48
-99.26084773,47.15120309,589.06
-99.26123929,47.15120208,587.28
-99.26173462,47.15120116,589.00
-99.26198371,47.15120057,589.04
-99.26212893,47.15120018,588.44
-99.26265380,47.15119904,587.75
-99.26273927,47.15119886,587.82
-99.26290804,47.15119832,587.70
-99.26300225,47.15119791,587.54
-99.26315010,47.15119597,587.10
-99.26366925,47.15119020,587.52
-99.26371048,47.15117779,587.65
-99.26378183,47.15111053,586.96
-99.26380927,47.15084119,587.17
-99.26381046,47.15043649,587.50
-99.26381046,47.15039902,587.71
-99.26380946,47.15019624,592.54
-99.26380820,47.14990698,593.74
-99.26380651,47.14958751,593.79
-99.26380543,47.14935033,594.18
-99.26380432,47.14912241,596.11
-99.26380214,47.14869079,593.40
-99.26380083,47.14844161,593.34
-99.26379928,47.14813042,593.19
-99.26379815,47.14788471,595.33
-99.26379733,47.14771564,597.16
-99.26379532,47.14730373,598.16
-99.26379498,47.14724366,597.54
-99.26379288,47.14681080,594.61
-99.26379259,47.14675270,594.35
-99.26379048,47.14635799,594.22
-99.26378838,47.14591739,595.56
-99.26378807,47.14584067,595.73
-99.26378647,47.14552029,596.66
-99.26378440,47.14509888,597.45
-99.26378243,47.14471596,597.72
-99.26378129,47.14451593,597.70
-99.26378014,47.14423819,597.12
-99.26377972,47.14415130,596.83
-99.26377940,47.14408648,596.89
-99.26377930,47.14406449,596.97
-99.26377742,47.14370204,597.66
-99.26377519,47.14327442,599.39
-99.26377338,47.14289704,600.76
-99.26377137,47.14246675,601.02
-99.26377068,47.14232441,600.86
-99.26377049,47.14228741,600.72
-99.26377018,47.14222520,600.69
-99.26376848,47.14220327,600.69
-99.26364477,47.14219840,600.83
-99.26361476,47.14219837,600.78
-99.26300799,47.14219975,599.77
-99.26287722,47.14220010,599.78
-99.26267714,47.14220069,599.78
-99.26212451,47.14220203,599.89
-99.26204318,47.14220221,599.91
-99.26171701,47.14220292,600.05
-99.26137016,47.14220358,603.86
-99.26086181,47.14220470,603.19
-99.26023122,47.14220613,602.41
-99.26018409,47.14220619,602.42
-99.25999758,47.14220660,601.68
-99.25961852,47.14220747,599.40
-99.25911432,47.14220863,600.99
-99.25847077,47.14221007,598.43
-99.25815578,47.14221078,599.82
-99.25761152,47.14221219,596.68
-99.25745133,47.14221246,596.52
-99.25691371,47.14221362,596.51
-99.25661464,47.14221434,595.35
-99.25599495,47.14221572,593.55
-99.25544066,47.14221686,595.45
-99.25528388,47.14221746,591.99
-99.25519420,47.14221783,591.95
-99.25516564,47.14221953,592.01
-99.25466694,47.14242338,591.83
-99.25424929,47.14222850,592.37
-99.25422118,47.14222078,592.17
-99.25420169,47.14221975,591.88
-99.25358245,47.14222106,593.90
-99.25347517,47.14222123,594.13
-99.25288656,47.14222259,594.70
-99.25265174,47.14222305,593.59
-99.25242057,47.14222363,592.87
-99.25179920,47.14222953,593.22
-99.25176103,47.14222956,593.16
-99.25174229,47.14222958,593.12
-99.25172334,47.14222959,593.09
-99.25169541,47.14222960,592.91
-99.25168582,47.14222960,592.84
-99.25167643,47.14222961,592.79
-99.25165787,47.14222961,592.56
-99.25164838,47.14222961,592.56
-99.25159246,47.14222963,592.12
-99.25155488,47.14222965,591.92
-99.25154560,47.14222965,591.81
-99.25153625,47.14222965,591.75
-99.25152677,47.14222965,591.73
-99.25150806,47.14222966,591.60
-99.25149886,47.14222966,591.57
-99.25148959,47.14222966,591.45
-99.25146127,47.14222967,591.27
-99.25140493,47.14222971,591.12
-99.25139559,47.14222971,591.05
-99.25136755,47.14222973,590.98
-99.25134846,47.14222974,590.96
-99.25130148,47.14222977,590.91
-99.25126389,47.14222980,590.80
-99.25123566,47.14222983,590.75
-99.25121698,47.14222984,590.76
-99.25119792,47.14222985,590.90
-99.25116969,47.14222988,590.86
-99.25110377,47.14222993,590.85
-99.25108479,47.14222995,590.95
-99.25106628,47.14222996,590.88
-99.25101914,47.14223001,590.96
-99.25097207,47.14223005,591.02
-99.25090608,47.14223013,591.24
-99.25084985,47.14223018,591.37
-99.25082172,47.14223020,591.36
-99.25077514,47.14223024,591.33
-99.25075639,47.14223025,591.33
-99.25070967,47.14223029,591.22
-99.25058829,47.14223036,590.94
-99.25058650,47.14223557,591.22
-99.25058262,47.14225449,591.02
-99.25058282,47.14237812,590.93
-99.25058421,47.14267975,591.29
-99.25058576,47.14307367,592.33
-99.25058598,47.14312547,591.91
-99.25058789,47.14353826,591.17
-99.25058977,47.14393499,593.77
-99.25059021,47.14401214,592.77
-99.25059211,47.14442189,591.98
-99.25059267,47.14453538,593.41
-99.25059428,47.14488915,593.73
-99.25059583,47.14518221,593.32
-99.25059772,47.14559644,590.77
-99.25059942,47.14599255,591.61
-99.25060038,47.14619272,590.95
-99.25060084,47.14628608,591.05
-99.25060198,47.14647252,591.61
-99.25060327,47.14676352,590.65
-99.25060385,47.14691159,589.57
-99.25060508,47.14712528,589.36
-99.25060604,47.14739910,589.34
-99.25060689,47.14757756,588.72
-99.25060795,47.14779784,588.77
-99.25060930,47.14810030,588.66
-99.25061044,47.14834279,588.40
-99.25061051,47.14835670,588.39
-99.25061114,47.14848151,587.56
-99.25061319,47.14890746,587.79
-99.25061360,47.14899461,587.00
-99.25061442,47.14916694,588.91
-99.25061596,47.14945131,589.42
-99.25062112,47.14952012,589.60
-99.25062226,47.14994152,589.57
-99.25061822,47.14998794,589.29
-99.25061842,47.15002456,589.13
-99.25061987,47.15026081,591.15
-99.25062055,47.15048620,595.67
-99.25062203,47.15080514,593.19
-99.25062342,47.15107582,591.09
-99.25062547,47.15116879,590.58
-99.25062621,47.15119124,590.50
-99.25062654,47.15119657,590.43
-99.25063072,47.15121895,590.22
-99.25063234,47.15122423,590.21
-99.25070486,47.15122578,590.13
-99.25087641,47.15122544,589.40
     </coordinates>
    </LineString>
   </MultiGeometry>
  </Placemark>
 </Document>
</kml>
