<kml>
 <Document>
  <Style id="yellow">
   <LineStyle>
   <color>ff00ffff</color>
   <width>1</width>
   </LineStyle>
  </Style>
  <Style id="red">
   <LineStyle>
   <color>ffff0000</color>
   <width>2</width>
   </LineStyle>
  </Style>
  <Style id="green">
   <LineStyle>
   <color>ff00ff00</color>
   <width>1</width>
   </LineStyle>
  </Style>
  <Placemark>
  <styleUrl>#yellow</styleUrl>
   <MultiGeometry>
    <LineString>
     <coordinates>
-99.21619628,47.16029465,591.28
-99.21675487,47.16029364,591.85
-99.21725355,47.16029264,592.81
-99.21771485,47.16029178,592.88
-99.21799015,47.16029128,593.10
-99.21835604,47.16029055,593.17
-99.21870355,47.16028991,592.60
-99.21894862,47.16028946,592.12
-99.21939371,47.16028850,592.98
-99.21960952,47.16028818,592.45
-99.21968369,47.16028806,592.05
-99.22018039,47.16028701,592.49
-99.22047425,47.16028649,593.03
-99.22054735,47.16028635,593.61
-99.22103720,47.16028536,592.09
-99.22149933,47.16028448,591.01
-99.22192268,47.16028373,594.17
-99.22247764,47.16028254,598.26
-99.22282873,47.16028195,596.39
-99.22346185,47.16028073,594.64
-99.22363654,47.16028037,594.80
-99.22394058,47.16027697,593.58
-99.22394852,47.16027647,593.64
-99.22428025,47.16025507,594.14
-99.22427913,47.15993415,594.48
-99.22427783,47.15962855,595.11
-99.22427595,47.15919422,599.67
-99.22427418,47.15886665,596.06
-99.22427363,47.15866287,596.20
-99.22427332,47.15855229,595.46
-99.22427240,47.15836084,595.09
-99.22427136,47.15809854,592.93
-99.22427045,47.15787536,592.98
-99.22426873,47.15745952,596.53
-99.22426730,47.15713358,596.10
-99.22426674,47.15699300,594.68
-99.22426585,47.15681430,594.30
-99.22426411,47.15637613,596.04
-99.22426397,47.15633552,596.19
-99.22426289,47.15610092,597.59
-99.22426183,47.15585279,598.73
-99.22426067,47.15555456,597.28
-99.22425981,47.15535011,596.62
-99.22425823,47.15497459,598.65
-99.22425729,47.15477331,597.84
-99.22425624,47.15451104,597.18
-99.22425497,47.15419747,597.97
-99.22425426,47.15403647,597.43
-99.22425295,47.15372203,595.72
-99.22425138,47.15342401,596.07
-99.22425045,47.15314994,596.87
-99.22425012,47.15305582,596.53
-99.22424886,47.15274139,596.78
-99.22424755,47.15242713,596.44
-99.22424578,47.15201173,593.80
-99.22424402,47.15163075,593.09
-99.22424384,47.15154743,593.07
-99.22424264,47.15129266,592.62
-99.22424100,47.15128191,592.54
-99.22424064,47.15128100,592.55
-99.22423087,47.15128096,592.52
-99.22421151,47.15128088,592.50
-99.22420236,47.15128088,592.58
-99.22418353,47.15128090,592.81
-99.22404841,47.15128118,592.67
-99.22346939,47.15128226,590.50
-99.22311161,47.15128298,589.95
-99.22275058,47.15128368,589.44
-99.22221815,47.15128470,590.22
-99.22166004,47.15128574,587.38
-99.22110618,47.15128684,586.44
-99.22049705,47.15128803,590.10
-99.22005872,47.15128884,588.72
-99.21946396,47.15129001,584.06
-99.21912491,47.15129063,583.75
-99.21855727,47.15129170,583.25
-99.21848307,47.15129187,583.39
-99.21787853,47.15129303,583.33
-99.21764514,47.15129348,582.80
-99.21738715,47.15129540,582.68
-99.21687378,47.15130323,582.42
-99.21646925,47.15129655,582.58
-99.21642288,47.15129583,583.82
-99.21635300,47.15129588,583.18
-99.21580809,47.15129693,582.90
-99.21575282,47.15129705,582.80
-99.21510885,47.15129830,583.73
-99.21458661,47.15129931,585.56
-99.21435584,47.15129966,585.75
-99.21371291,47.15130084,584.00
-99.21352724,47.15130126,582.05
-99.21297336,47.15130228,582.31
-99.21281741,47.15130253,581.87
-99.21232289,47.15130350,582.58
-99.21213061,47.15130382,585.91
-99.21187223,47.15130429,586.35
-99.21128641,47.15130538,586.16
-99.21125852,47.15130545,586.23
-99.21105527,47.15130916,585.95
-99.21105387,47.15131135,586.01
-99.21105243,47.15133226,586.05
-99.21105227,47.15135177,586.07
-99.21105251,47.15140841,586.30
-99.21105285,47.15146808,586.44
-99.21105444,47.15188283,585.54
-99.21105572,47.15219824,582.36
-99.21105719,47.15257355,584.67
-99.21105756,47.15268156,583.50
-99.21105876,47.15296823,583.45
-99.21106001,47.15329943,583.04
-99.21106074,47.15344008,585.55
-99.21106231,47.15383971,580.32
-99.21106349,47.15414556,580.39
-99.21106401,47.15429210,580.38
-99.21106468,47.15448190,580.98
-99.21106509,47.15458503,581.39
-99.21106539,47.15464865,581.61
-99.21106634,47.15484044,583.45
-99.21106775,47.15526063,589.34
-99.21106929,47.15559427,588.59
-99.21107094,47.15603966,588.53
-99.21107107,47.15609993,588.69
-99.21107228,47.15638256,589.07
-99.21107352,47.15671933,589.53
-99.21107513,47.15708458,591.96
-99.21107545,47.15718640,592.55
-99.21107691,47.15757384,592.99
-99.21107766,47.15776388,593.03
-99.21107895,47.15802176,592.39
-99.21107965,47.15823988,591.06
-99.21107996,47.15831844,590.62
-99.21108143,47.15858560,589.45
-99.21108205,47.15887321,588.74
-99.21108282,47.15906000,587.66
-99.21108436,47.15944131,589.09
-99.21108509,47.15963349,593.70
-99.21108590,47.15982808,592.68
-99.21108721,47.16009360,592.60
-99.21108811,47.16022652,593.67
-99.21108949,47.16029144,594.73
-99.21108993,47.16029604,594.83
-99.21109297,47.16030323,594.96
-99.21112206,47.16030373,595.00
-99.21117668,47.16030374,595.02
-99.21142576,47.16030359,593.90
-99.21151829,47.16030343,593.23
-99.21173408,47.16030294,592.32
-99.21229296,47.16030192,593.77
-99.21253829,47.16030148,593.38
-99.21287507,47.16030089,592.78
-99.21305493,47.16030052,591.99
-99.21354269,47.16029965,591.80
-99.21411370,47.16029859,590.39
-99.21438035,47.16029811,589.00
-99.21474123,47.16029741,589.11
-99.21520152,47.16029654,589.21
-99.21556139,47.16029583,589.13
-99.21619628,47.16029465,591.28
     </coordinates>
    </LineString>
   </MultiGeometry>
  </Placemark>
 </Document>
</kml>
