<kml>
 <Document>
  <Style id="yellow">
   <LineStyle>
   <color>ff00ffff</color>
   <width>1</width>
   </LineStyle>
  </Style>
  <Style id="red">
   <LineStyle>
   <color>ffff0000</color>
   <width>2</width>
   </LineStyle>
  </Style>
  <Style id="green">
   <LineStyle>
   <color>ff00ff00</color>
   <width>1</width>
   </LineStyle>
  </Style>
  <Placemark>
  <styleUrl>#yellow</styleUrl>
   <MultiGeometry>
    <LineString>
     <coordinates>
-105.52001419,40.24427851,2580.33
-105.52005440,40.24427833,2581.22
-105.52044131,40.24427659,2595.48
-105.52048187,40.24427641,2602.21
-105.52049175,40.24427636,2601.43
-105.52055418,40.24427608,2597.93
-105.52073440,40.24427527,2602.60
-105.52108781,40.24427368,2607.55
-105.52110392,40.24427361,2611.04
-105.52110815,40.24427359,2606.15
-105.52122524,40.24427306,2610.32
-105.52124852,40.24427296,2607.59
-105.52126957,40.24427286,2607.58
-105.52127639,40.24427283,2607.49
-105.52149541,40.24427184,2601.66
-105.52150705,40.24427179,2600.54
-105.52151211,40.24427177,2602.56
-105.52151751,40.24427174,2599.92
-105.52156066,40.24427155,2596.60
-105.52157077,40.24427150,2596.11
-105.52170703,40.24427089,2594.94
-105.52189502,40.24427004,2600.28
-105.52200447,40.24426955,2604.72
-105.52201776,40.24426949,2603.46
-105.52204656,40.24426936,2603.87
-105.52220175,40.24426866,2598.81
-105.52226688,40.24426836,2602.08
-105.52231638,40.24426814,2607.18
-105.52235811,40.24426795,2611.83
-105.52263193,40.24426672,2608.94
-105.52264556,40.24426665,2608.65
-105.52317614,40.24426426,2589.21
-105.52322187,40.24426405,2588.52
-105.52340128,40.24426324,2587.22
-105.52387343,40.24426110,2587.42
-105.52391563,40.24426091,2591.19
-105.52403508,40.24426037,2587.34
-105.52408411,40.24426015,2592.28
-105.52412866,40.24425995,2587.71
-105.52419885,40.24425963,2588.25
-105.52421131,40.24425957,2591.97
-105.52424023,40.24425944,2594.60
-105.52434146,40.24425898,2591.08
-105.52437626,40.24425883,2592.78
-105.52438037,40.24425881,2594.04
-105.52457483,40.24425793,2590.42
-105.52464701,40.24425760,2596.09
-105.52469216,40.24425739,2591.52
-105.52470533,40.24425734,2594.17
-105.52482912,40.24425677,2592.69
-105.52492506,40.24425634,2593.19
-105.52497009,40.24425613,2596.73
-105.52517113,40.24425522,2596.48
-105.52527458,40.24425475,2593.38
-105.52528987,40.24425468,2599.67
-105.52539967,40.24425418,2596.86
-105.52540755,40.24425415,2596.71
-105.52548197,40.24425381,2600.55
-105.52556627,40.24425343,2605.67
-105.52576789,40.24425251,2595.02
-105.52611201,40.24425095,2599.81
-105.52615445,40.24425076,2589.95
-105.52621453,40.24425048,2603.08
-105.52622687,40.24425043,2590.02
-105.52623134,40.24425041,2598.65
-105.52624016,40.24425037,2590.09
-105.52625991,40.24425028,2601.53
-105.52628119,40.24425018,2600.85
-105.52628448,40.24425016,2601.64
-105.52642709,40.24424952,2598.42
-105.52664999,40.24424850,2596.12
-105.52668785,40.24424833,2598.11
-105.52704290,40.24424671,2594.79
-105.52725334,40.24424575,2604.03
-105.52730883,40.24424550,2607.08
-105.52731189,40.24424549,2592.66
-105.52731636,40.24424547,2605.25
-105.52737208,40.24424521,2603.17
-105.52743827,40.24424491,2592.25
-105.52743992,40.24424490,2595.63
-105.52746190,40.24424480,2592.15
-105.52756360,40.24424434,2592.01
-105.52757735,40.24424428,2592.06
-105.52768634,40.24424378,2591.98
-105.52783271,40.24424311,2606.84
-105.52783682,40.24424310,2596.40
-105.52784905,40.24424304,2606.54
-105.52786657,40.24424296,2605.53
-105.52787903,40.24424290,2592.56
-105.52788514,40.24424287,2599.25
-105.52789102,40.24424285,2597.10
-105.52793358,40.24424265,2602.16
-105.52793664,40.24424264,2605.50
-105.52796638,40.24424250,2592.84
-105.52798084,40.24424244,2598.76
-105.52799084,40.24424239,2593.03
-105.52807866,40.24424199,2601.38
-105.52809747,40.24424191,2605.47
-105.52823091,40.24424130,2593.76
-105.52823337,40.24424129,2605.56
-105.52825289,40.24424120,2593.84
-105.52826947,40.24424112,2594.03
-105.52831508,40.24424091,2598.45
-105.52831532,40.24424091,2596.89
-105.52831661,40.24424091,2593.71
-105.52834248,40.24424079,2603.63
-105.52834553,40.24424077,2602.62
-105.52838480,40.24424059,2599.99
-105.52840161,40.24424052,2601.43
-105.52848379,40.24424014,2593.52
-105.52855903,40.24423980,2593.59
-105.52860289,40.24423960,2593.84
-105.52885777,40.24423843,2594.63
-105.52893231,40.24423809,2595.05
-105.52900014,40.24423778,2599.98
-105.52904658,40.24423739,2595.62
-105.52906456,40.24423677,2595.86
-105.52906597,40.24423622,2595.89
-105.52906936,40.24423422,2604.28
-105.52906901,40.24418954,2595.70
-105.52906897,40.24418404,2598.82
-105.52906824,40.24409008,2612.40
-105.52906773,40.24402404,2608.03
-105.52906769,40.24401990,2608.64
-105.52906635,40.24384729,2615.64
-105.52906623,40.24383179,2606.82
-105.52906612,40.24381720,2611.45
-105.52906586,40.24378467,2599.46
-105.52906556,40.24374638,2609.83
-105.52906548,40.24373593,2612.59
-105.52906426,40.24357927,2604.78
-105.52906424,40.24357647,2604.84
-105.52906410,40.24355810,2613.09
-105.52906398,40.24354287,2612.95
-105.52906397,40.24354152,2614.50
-105.52906394,40.24353710,2610.87
-105.52906390,40.24353242,2606.13
-105.52906378,40.24351710,2609.01
-105.52906374,40.24351161,2609.46
-105.52906371,40.24350873,2609.75
-105.52906350,40.24348080,2609.59
-105.52906337,40.24346485,2608.71
-105.52906301,40.24341873,2609.08
-105.52906268,40.24337539,2610.24
-105.52906119,40.24318413,2616.68
-105.52906081,40.24313584,2613.91
-105.52906081,40.24313575,2606.03
-105.52906081,40.24313512,2614.82
-105.52906080,40.24313431,2608.35
-105.52906076,40.24312981,2606.27
-105.52906039,40.24308134,2607.00
-105.52906023,40.24306071,2607.08
-105.52905976,40.24300089,2613.27
-105.52905935,40.24294854,2618.42
-105.52905930,40.24294170,2608.99
-105.52905887,40.24288674,2609.96
-105.52905845,40.24283197,2611.50
-105.52905702,40.24264872,2619.98
-105.52905483,40.24236800,2608.41
-105.52905472,40.24235359,2608.25
-105.52905385,40.24224142,2611.75
-105.52905375,40.24222854,2609.48
-105.52905344,40.24218863,2613.80
-105.52905268,40.24209133,2601.68
-105.52905084,40.24185539,2600.84
-105.52904927,40.24165268,2595.93
-105.52904875,40.24158584,2595.07
-105.52904867,40.24157584,2597.96
-105.52904856,40.24156142,2607.36
-105.52904855,40.24156133,2607.41
-105.52904854,40.24155953,2607.38
-105.52904848,40.24155178,2606.57
-105.52904836,40.24153656,2596.54
-105.52904824,40.24152106,2598.02
-105.52904794,40.24148196,2600.04
-105.52904772,40.24145439,2605.49
-105.52904771,40.24145277,2605.43
-105.52904685,40.24134178,2608.47
-105.52904618,40.24125575,2606.22
-105.52904601,40.24123403,2602.95
-105.52904412,40.24099178,2604.35
-105.52904394,40.24096863,2603.28
-105.52904336,40.24089340,2609.02
-105.52904322,40.24087610,2606.41
-105.52904304,40.24085340,2595.66
-105.52904253,40.24078700,2602.27
-105.52904203,40.24072295,2595.92
-105.52904186,40.24070187,2595.81
-105.52904176,40.24068899,2599.65
-105.52904167,40.24067637,2595.63
-105.52904049,40.24052547,2603.79
-105.52904048,40.24052367,2594.84
-105.52903968,40.24042124,2594.98
-105.52903958,40.24040790,2601.08
-105.52903903,40.24033799,2594.77
-105.52903862,40.24028529,2598.69
-105.52903734,40.24012070,2595.30
-105.52903730,40.24011538,2595.39
-105.52903692,40.24006673,2605.98
-105.52903672,40.24004106,2606.51
-105.52903605,40.23995466,2596.50
-105.52903605,40.23995439,2599.62
-105.52903584,40.23992781,2610.08
-105.52903568,40.23990727,2609.22
-105.52903522,40.23984844,2607.42
-105.52903430,40.23972988,2611.65
-105.52903371,40.23965457,2596.87
-105.52903328,40.23959862,2596.75
-105.52903298,40.23956069,2605.13
-105.52903287,40.23954574,2604.07
-105.52903284,40.23954259,2606.17
-105.52903250,40.23949817,2596.91
-105.52903209,40.23944583,2596.76
-105.52903204,40.23944006,2596.77
-105.52903173,40.23939970,2596.73
-105.52903098,40.23930331,2596.63
-105.52903083,40.23928376,2607.77
-105.52903079,40.23927907,2598.84
-105.52903074,40.23927285,2604.58
-105.52903066,40.23926222,2602.24
-105.52903062,40.23925781,2597.87
-105.52903030,40.23921556,2599.89
-105.52903003,40.23918177,2597.18
-105.52902984,40.23915700,2597.28
-105.52902980,40.23915141,2603.71
-105.52902967,40.23913511,2604.81
-105.52902942,40.23910348,2596.60
-105.52902894,40.23904186,2596.56
-105.52902670,40.23875357,2607.52
-105.52902655,40.23873483,2594.04
-105.52902631,40.23870393,2593.66
-105.52902597,40.23866033,2599.95
-105.52902597,40.23865952,2597.30
-105.52902562,40.23861510,2605.88
-105.52902560,40.23861222,2598.41
-105.52902555,40.23860528,2605.31
-105.52902549,40.23859754,2602.64
-105.52902547,40.23859519,2602.98
-105.52902522,40.23856348,2596.75
-105.52902496,40.23852943,2592.28
-105.52902481,40.23851105,2592.12
-105.52902480,40.23850916,2592.06
-105.52902443,40.23846204,2592.02
-105.52902440,40.23845745,2591.95
-105.52902437,40.23845465,2592.00
-105.52902407,40.23841546,2591.80
-105.52902324,40.23830835,2591.03
-105.52902244,40.23820573,2595.31
-105.52902239,40.23819925,2591.09
-105.52902223,40.23817871,2594.27
-105.52902181,40.23812474,2595.96
-105.52902131,40.23806159,2590.11
-105.52902128,40.23805699,2595.76
-105.52902117,40.23804339,2589.90
-105.52902115,40.23804033,2595.59
-105.52902113,40.23803835,2596.26
-105.52902111,40.23803555,2594.99
-105.52902079,40.23799438,2593.88
-105.52902044,40.23794970,2589.93
-105.52902036,40.23793871,2593.69
-105.52902028,40.23792862,2592.21
-105.52902018,40.23791627,2594.39
-105.52902012,40.23790834,2594.17
-105.52901971,40.23785501,2591.34
-105.52901965,40.23784780,2591.37
-105.52901952,40.23783159,2589.81
-105.52901941,40.23781699,2589.27
-105.52901798,40.23763285,2589.50
-105.52901777,40.23760582,2589.59
-105.52901770,40.23759726,2589.56
-105.52901763,40.23758780,2589.58
-105.52901653,40.23744735,2589.51
-105.52901536,40.23729654,2589.44
-105.52901533,40.23729312,2595.61
-105.52901467,40.23720789,2589.15
-105.52901112,40.23676654,2589.14
-105.52900867,40.23643726,2590.58
-105.52900798,40.23634852,2589.40
-105.52900761,40.23630122,2595.47
-105.52900647,40.23616879,2589.48
-105.52900394,40.23582843,2587.48
-105.52900372,40.23580059,2587.58
-105.52900346,40.23576698,2587.81
-105.52900277,40.23567924,2589.39
-105.52900276,40.23567707,2587.04
-105.52900208,40.23559032,2592.15
-105.52900128,40.23548671,2589.59
-105.52900083,40.23542896,2585.84
-105.52899943,40.23525004,2585.82
-105.52899822,40.23522942,2585.52
-105.52895178,40.23522891,2585.46
-105.52891334,40.23522900,2586.52
-105.52886714,40.23522912,2595.76
-105.52885515,40.23522917,2597.71
-105.52873830,40.23522971,2585.94
-105.52871738,40.23522980,2585.99
-105.52868882,40.23522993,2589.78
-105.52859736,40.23523035,2589.62
-105.52852354,40.23523069,2593.70
-105.52845078,40.23523102,2595.96
-105.52845054,40.23523102,2597.67
-105.52839999,40.23523125,2586.14
-105.52821227,40.23523211,2591.95
-105.52815325,40.23523238,2596.07
-105.52803829,40.23523290,2584.82
-105.52799468,40.23523310,2592.18
-105.52771796,40.23523436,2587.62
-105.52771503,40.23523438,2591.48
-105.52770268,40.23523443,2587.90
-105.52759606,40.23523492,2588.44
-105.52752600,40.23523524,2593.03
-105.52738200,40.23523589,2594.36
-105.52737989,40.23523590,2593.72
-105.52720556,40.23523670,2598.17
-105.52710506,40.23523716,2597.65
-105.52701901,40.23523755,2591.43
-105.52693190,40.23523794,2595.91
-105.52691968,40.23523800,2597.50
-105.52690510,40.23523807,2595.27
-105.52685197,40.23523831,2593.69
-105.52681435,40.23523848,2600.80
-105.52677580,40.23523865,2599.66
-105.52668540,40.23523907,2594.80
-105.52643020,40.23524023,2591.82
-105.52640798,40.23524033,2591.11
-105.52639893,40.23524037,2588.85
-105.52631171,40.23524077,2589.34
-105.52629525,40.23524084,2589.50
-105.52628526,40.23524089,2590.50
-105.52626128,40.23524100,2590.04
-105.52622578,40.23524116,2600.33
-105.52621249,40.23524122,2597.46
-105.52616265,40.23524144,2590.78
-105.52614279,40.23524153,2592.91
-105.52613526,40.23524157,2595.31
-105.52608166,40.23524181,2594.35
-105.52605838,40.23524192,2594.60
-105.52599138,40.23524222,2593.05
-105.52583398,40.23524294,2596.82
-105.52575957,40.23524328,2600.49
-105.52575569,40.23524329,2597.86
-105.52560076,40.23524400,2594.10
-105.52559488,40.23524402,2590.87
-105.52538400,40.23524498,2588.97
-105.52536378,40.23524507,2587.47
-105.52531123,40.23524531,2600.43
-105.52529372,40.23524539,2599.00
-105.52518322,40.23524589,2587.15
-105.52518087,40.23524590,2601.37
-105.52517076,40.23524595,2597.72
-105.52481176,40.23524758,2580.85
-105.52461357,40.23524848,2578.50
-105.52413984,40.23525062,2579.22
-105.52410363,40.23525079,2574.82
-105.52402382,40.23525115,2574.77
-105.52400959,40.23525121,2574.71
-105.52400407,40.23525124,2574.65
-105.52375568,40.23525236,2572.54
-105.52374969,40.23525239,2572.58
-105.52340456,40.23525395,2573.80
-105.52339257,40.23525400,2573.94
-105.52325080,40.23525464,2575.37
-105.52290567,40.23525620,2580.61
-105.52266093,40.23525731,2586.44
-105.52258852,40.23525764,2593.21
-105.52254256,40.23525784,2598.32
-105.52249460,40.23525806,2597.06
-105.52244323,40.23525829,2594.29
-105.52230346,40.23525892,2596.81
-105.52226443,40.23525910,2598.19
-105.52217039,40.23525952,2607.94
-105.52210468,40.23525982,2606.53
-105.52199971,40.23526029,2612.57
-105.52182068,40.23526110,2613.24
-105.52181750,40.23526112,2613.30
-105.52171958,40.23526156,2615.03
-105.52170900,40.23526161,2617.05
-105.52159275,40.23526213,2619.44
-105.52157747,40.23526220,2619.41
-105.52152104,40.23526245,2622.54
-105.52136940,40.23526314,2620.33
-105.52121306,40.23526384,2627.81
-105.52120095,40.23526389,2628.16
-105.52119707,40.23526391,2629.16
-105.52112877,40.23526422,2626.95
-105.52104637,40.23526459,2623.26
-105.52091989,40.23526516,2625.28
-105.52090837,40.23526521,2623.61
-105.52076919,40.23526584,2629.62
-105.52072546,40.23526603,2624.11
-105.52065234,40.23526636,2624.53
-105.52061214,40.23526654,2624.76
-105.52049788,40.23526706,2630.48
-105.52044639,40.23526729,2628.62
-105.52043264,40.23526735,2625.55
-105.52029534,40.23526797,2632.07
-105.52028676,40.23526801,2635.48
-105.51981361,40.23527013,2635.30
-105.51957017,40.23527123,2641.34
-105.51936363,40.23527215,2644.09
-105.51935587,40.23527219,2647.21
-105.51925678,40.23527263,2650.47
-105.51881572,40.23527461,2663.08
-105.51866890,40.23527527,2667.06
-105.51825653,40.23527712,2665.76
-105.51820105,40.23527736,2672.90
-105.51814216,40.23527763,2674.11
-105.51809267,40.23527785,2665.96
-105.51804741,40.23527805,2665.36
-105.51803613,40.23527810,2664.96
-105.51798100,40.23527835,2677.56
-105.51795643,40.23527846,2672.87
-105.51793303,40.23527856,2664.12
-105.51769405,40.23527963,2663.87
-105.51761635,40.23527998,2668.85
-105.51758097,40.23528014,2670.75
-105.51753125,40.23528036,2663.74
-105.51742839,40.23528082,2668.65
-105.51738054,40.23528104,2665.16
-105.51732577,40.23528128,2674.23
-105.51725089,40.23528180,2667.28
-105.51724819,40.23528226,2667.40
-105.51724506,40.23528831,2667.32
-105.51724478,40.23529768,2670.87
-105.51724469,40.23530182,2667.32
-105.51724523,40.23540372,2674.62
-105.51724583,40.23548237,2665.65
-105.51724599,40.23550372,2670.84
-105.51724841,40.23582174,2663.07
-105.51724864,40.23585120,2657.28
-105.51724978,40.23600075,2651.22
-105.51725002,40.23603237,2649.59
-105.51725044,40.23608787,2644.96
-105.51725207,40.23630228,2638.10
-105.51725215,40.23631318,2633.19
-105.51725215,40.23631327,2633.22
-105.51725300,40.23642508,2626.92
-105.51725320,40.23645138,2625.77
-105.51725331,40.23646499,2629.88
-105.51725341,40.23647787,2624.72
-105.51725397,40.23655147,2621.99
-105.51725449,40.23662012,2615.20
-105.51725455,40.23662823,2614.91
-105.51725488,40.23667165,2612.47
-105.51725558,40.23676328,2611.35
-105.51725613,40.23683526,2605.01
-105.51725635,40.23686526,2603.72
-105.51725899,40.23721112,2587.18
-105.51725901,40.23721463,2584.95
-105.51725962,40.23729499,2581.22
-105.51726052,40.23741310,2583.71
-105.51726095,40.23746941,2570.92
-105.51726137,40.23752382,2576.83
-105.51726168,40.23756544,2573.23
-105.51726210,40.23762031,2570.41
-105.51726211,40.23762157,2571.33
-105.51726252,40.23767607,2564.36
-105.51726265,40.23769265,2573.87
-105.51726381,40.23784472,2555.33
-105.51726400,40.23787031,2554.45
-105.51726515,40.23802175,2548.38
-105.51726607,40.23814202,2549.23
-105.51726613,40.23814995,2543.76
-105.51726625,40.23816581,2545.60
-105.51726626,40.23816743,2548.17
-105.51726629,40.23817148,2547.20
-105.51726631,40.23817392,2548.47
-105.51726637,40.23818094,2549.70
-105.51726638,40.23818238,2549.74
-105.51726676,40.23823229,2541.58
-105.51726701,40.23826572,2547.59
-105.51726752,40.23833274,2539.32
-105.51726814,40.23841356,2542.05
-105.51726910,40.23854085,2535.93
-105.51726945,40.23858581,2535.55
-105.51726949,40.23859085,2535.41
-105.51727133,40.23883284,2534.59
-105.51727156,40.23886302,2534.48
-105.51727164,40.23887392,2534.43
-105.51727166,40.23887689,2534.46
-105.51727222,40.23894978,2534.30
-105.51727248,40.23898455,2534.27
-105.51727299,40.23905122,2534.20
-105.51727312,40.23906851,2534.22
-105.51727379,40.23915617,2540.23
-105.51727423,40.23921410,2541.43
-105.51727525,40.23934798,2547.36
-105.51727656,40.23952032,2546.98
-105.51727721,40.23960555,2554.53
-105.51727723,40.23960888,2557.33
-105.51727725,40.23961149,2553.55
-105.51727774,40.23967609,2557.93
-105.51727781,40.23968518,2554.31
-105.51727784,40.23968897,2554.26
-105.51727790,40.23969645,2554.19
-105.51727846,40.23977041,2554.49
-105.51727877,40.23981140,2555.69
-105.51727889,40.23982690,2555.87
-105.51727900,40.23984059,2558.42
-105.51728004,40.23997771,2559.62
-105.51728165,40.24018906,2562.18
-105.51728176,40.24020366,2570.48
-105.51728182,40.24021231,2561.86
-105.51728254,40.24030582,2563.40
-105.51728275,40.24033429,2565.84
-105.51728337,40.24041555,2558.75
-105.51728362,40.24044870,2566.17
-105.51728363,40.24044951,2569.95
-105.51728369,40.24045699,2557.71
-105.51728383,40.24047618,2565.22
-105.51728494,40.24062222,2557.20
-105.51728529,40.24066726,2549.06
-105.51728679,40.24086420,2554.95
-105.51728695,40.24088546,2550.85
-105.51728697,40.24088798,2550.88
-105.51728709,40.24090348,2546.04
-105.51728727,40.24092735,2549.50
-105.51728760,40.24097078,2539.84
-105.51728909,40.24116700,2539.89
-105.51728929,40.24119339,2540.61
-105.51728943,40.24121159,2539.93
-105.51729034,40.24133078,2541.01
-105.51729296,40.24167493,2533.12
-105.51729515,40.24196249,2534.86
-105.51729540,40.24199646,2535.09
-105.51729546,40.24200385,2535.15
-105.51729606,40.24208205,2534.57
-105.51729699,40.24220484,2534.76
-105.51729770,40.24229745,2534.92
-105.51729810,40.24235069,2535.06
-105.51729880,40.24244214,2535.60
-105.51729884,40.24244844,2545.65
-105.51729885,40.24244880,2550.21
-105.51729885,40.24244907,2541.91
-105.51729966,40.24255619,2535.99
-105.51730051,40.24266700,2548.12
-105.51730062,40.24268160,2548.38
-105.51730089,40.24271682,2547.58
-105.51730102,40.24273394,2536.43
-105.51730163,40.24281502,2536.57
-105.51730205,40.24287016,2537.21
-105.51730212,40.24287836,2537.34
-105.51730234,40.24290772,2545.26
-105.51730298,40.24299169,2538.46
-105.51730303,40.24299881,2538.51
-105.51730366,40.24308070,2539.19
-105.51730424,40.24315692,2544.43
-105.51730490,40.24324421,2543.90
-105.51730611,40.24340232,2545.33
-105.51730658,40.24346494,2538.18
-105.51730665,40.24347385,2537.70
-105.51730717,40.24354178,2533.83
-105.51730736,40.24356755,2531.88
-105.51730908,40.24379331,2548.74
-105.51731120,40.24407124,2535.33
-105.51731204,40.24418242,2535.76
-105.51731273,40.24427242,2536.07
-105.51731280,40.24428179,2547.25
-105.51731309,40.24428872,2550.18
-105.51731603,40.24428979,2548.74
-105.51731968,40.24429031,2550.77
-105.51732145,40.24429049,2548.90
-105.51734943,40.24429045,2552.09
-105.51762066,40.24428924,2535.88
-105.51798417,40.24428761,2544.51
-105.51819955,40.24428665,2556.07
-105.51829960,40.24428620,2549.44
-105.51831547,40.24428613,2549.70
-105.51850805,40.24428527,2553.59
-105.51860281,40.24428484,2556.59
-105.51873460,40.24428425,2566.81
-105.51886286,40.24428368,2562.35
-105.51897784,40.24428316,2566.40
-105.51913280,40.24428247,2569.97
-105.51954498,40.24428062,2569.73
-105.51955263,40.24428058,2569.68
-105.51991144,40.24427897,2587.43
-105.51992143,40.24427893,2586.45
-105.51992943,40.24427889,2586.50
-105.51995788,40.24427876,2584.46
-105.52001419,40.24427851,2580.33
     </coordinates>
    </LineString>
   </MultiGeometry>
  </Placemark>
 </Document>
</kml>
