<kml>
 <Document>
  <Style id="yellow">
   <LineStyle>
   <color>ff00ffff</color>
   <width>1</width>
   </LineStyle>
  </Style>
  <Style id="red">
   <LineStyle>
   <color>ffff0000</color>
   <width>2</width>
   </LineStyle>
  </Style>
  <Style id="green">
   <LineStyle>
   <color>ff00ff00</color>
   <width>1</width>
   </LineStyle>
  </Style>
  <Placemark>
  <styleUrl>#yellow</styleUrl>
   <MultiGeometry>
    <LineString>
     <coordinates>
-105.52200373,40.29832546,3243.69
-105.52205797,40.29832521,3241.19
-105.52208644,40.29832508,3245.84
-105.52213998,40.29832484,3245.97
-105.52219057,40.29832461,3246.82
-105.52241271,40.29832361,3255.52
-105.52254673,40.29832300,3256.70
-105.52274863,40.29832209,3254.71
-105.52291135,40.29832136,3255.33
-105.52302278,40.29832085,3255.86
-105.52338929,40.29831920,3262.12
-105.52372415,40.29831768,3263.81
-105.52377780,40.29831744,3263.53
-105.52388876,40.29831694,3265.85
-105.52406078,40.29831616,3271.81
-105.52436599,40.29831477,3271.41
-105.52443952,40.29831444,3270.86
-105.52456460,40.29831387,3273.13
-105.52470343,40.29831324,3273.64
-105.52476532,40.29831296,3272.62
-105.52507277,40.29831157,3269.19
-105.52524326,40.29831079,3264.86
-105.52529162,40.29831057,3258.57
-105.52530632,40.29831051,3257.60
-105.52538527,40.29831015,3259.51
-105.52542740,40.29830996,3254.83
-105.52545352,40.29830984,3254.43
-105.52549129,40.29830967,3259.14
-105.52550752,40.29830959,3256.57
-105.52553753,40.29830946,3252.58
-105.52554341,40.29830943,3257.24
-105.52557106,40.29830931,3255.40
-105.52558341,40.29830925,3253.37
-105.52562636,40.29830905,3250.43
-105.52564554,40.29830897,3251.18
-105.52564577,40.29830897,3250.29
-105.52574002,40.29830854,3247.94
-105.52586191,40.29830798,3245.32
-105.52599146,40.29830739,3242.97
-105.52610088,40.29830690,3242.58
-105.52611888,40.29830682,3249.49
-105.52615724,40.29830664,3243.88
-105.52619725,40.29830646,3241.91
-105.52623984,40.29830626,3240.72
-105.52633420,40.29830584,3235.78
-105.52634161,40.29830580,3238.24
-105.52634385,40.29830579,3241.92
-105.52634561,40.29830578,3241.40
-105.52634609,40.29830578,3237.72
-105.52634632,40.29830578,3239.78
-105.52634785,40.29830577,3241.06
-105.52634797,40.29830577,3239.23
-105.52634809,40.29830577,3238.29
-105.52634856,40.29830577,3240.39
-105.52634879,40.29830577,3237.47
-105.52634950,40.29830577,3235.88
-105.52635103,40.29830576,3239.11
-105.52635162,40.29830576,3237.39
-105.52635267,40.29830575,3235.87
-105.52650551,40.29830506,3227.36
-105.52654305,40.29830489,3225.40
-105.52670518,40.29830415,3220.52
-105.52678449,40.29830379,3223.66
-105.52704451,40.29830260,3222.46
-105.52706381,40.29830251,3227.11
-105.52710805,40.29830231,3225.29
-105.52711052,40.29830230,3224.98
-105.52711217,40.29830229,3224.96
-105.52726419,40.29830160,3187.94
-105.52731843,40.29830135,3186.34
-105.52736537,40.29830114,3195.52
-105.52742750,40.29830086,3182.41
-105.52746244,40.29830070,3181.30
-105.52754704,40.29830031,3187.09
-105.52754951,40.29830030,3187.17
-105.52755081,40.29830030,3187.34
-105.52755234,40.29830029,3184.13
-105.52762764,40.29829994,3174.13
-105.52773800,40.29829944,3173.82
-105.52783837,40.29829898,3176.09
-105.52790249,40.29829869,3169.06
-105.52793897,40.29829852,3168.46
-105.52794014,40.29829852,3175.03
-105.52798850,40.29829830,3170.20
-105.52798921,40.29829830,3170.93
-105.52799003,40.29829829,3168.12
-105.52799321,40.29829828,3167.91
-105.52801168,40.29829819,3167.85
-105.52805180,40.29829801,3167.31
-105.52805227,40.29829801,3174.08
-105.52807192,40.29829792,3170.08
-105.52807510,40.29829790,3170.33
-105.52811028,40.29829774,3175.57
-105.52815087,40.29829756,3173.66
-105.52815993,40.29829752,3166.75
-105.52817887,40.29829743,3169.59
-105.52819770,40.29829734,3172.43
-105.52821700,40.29829726,3175.15
-105.52822253,40.29829723,3175.82
-105.52823641,40.29829717,3168.90
-105.52840890,40.29829638,3168.80
-105.52841196,40.29829636,3168.20
-105.52841725,40.29829634,3164.83
-105.52842631,40.29829630,3153.85
-105.52850962,40.29829592,3150.65
-105.52858104,40.29829559,3152.54
-105.52858692,40.29829557,3153.21
-105.52861186,40.29829545,3148.57
-105.52883965,40.29829441,3122.81
-105.52888542,40.29829420,3120.44
-105.52888883,40.29829419,3120.32
-105.52939748,40.29829186,3098.62
-105.52940160,40.29829184,3098.34
-105.52942148,40.29829157,3096.76
-105.52943713,40.29829132,3095.78
-105.52948289,40.29829057,3094.50
-105.52949007,40.29829045,3094.59
-105.52949029,40.29825819,3097.03
-105.52948989,40.29817693,3101.83
-105.52948915,40.29808179,3115.85
-105.52948906,40.29807143,3108.65
-105.52948765,40.29789062,3115.21
-105.52948716,40.29782747,3120.56
-105.52948683,40.29778540,3119.20
-105.52948673,40.29777234,3120.12
-105.52948445,40.29748072,3131.12
-105.52948397,40.29741910,3134.91
-105.52948376,40.29739225,3136.45
-105.52948349,40.29735675,3138.66
-105.52948336,40.29734045,3139.50
-105.52948313,40.29731144,3147.81
-105.52948263,40.29724757,3153.41
-105.52948212,40.29718162,3156.43
-105.52948207,40.29717594,3155.90
-105.52948203,40.29717036,3155.60
-105.52948174,40.29713342,3154.42
-105.52948145,40.29709558,3154.64
-105.52948134,40.29708171,3155.21
-105.52948113,40.29705513,3155.81
-105.52948069,40.29699811,3153.66
-105.52948056,40.29698261,3154.12
-105.52948041,40.29696333,3151.84
-105.52948013,40.29692703,3152.41
-105.52947978,40.29688171,3158.23
-105.52947901,40.29678387,3156.72
-105.52947845,40.29671117,3164.57
-105.52947780,40.29662820,3166.17
-105.52947777,40.29662469,3166.06
-105.52947774,40.29662108,3166.06
-105.52947764,40.29660748,3167.90
-105.52947753,40.29659334,3165.89
-105.52947748,40.29658757,3166.05
-105.52947735,40.29657108,3162.98
-105.52947723,40.29655496,3166.10
-105.52947689,40.29651144,3163.77
-105.52947670,40.29648730,3167.86
-105.52947665,40.29648045,3166.23
-105.52947663,40.29647838,3163.20
-105.52947660,40.29647451,3164.67
-105.52947641,40.29645090,3167.77
-105.52947632,40.29643910,3168.04
-105.52947620,40.29642397,3161.62
-105.52947617,40.29641973,3161.58
-105.52947608,40.29640766,3166.33
-105.52947593,40.29638883,3160.82
-105.52947583,40.29637568,3161.66
-105.52947578,40.29636919,3162.32
-105.52947575,40.29636586,3163.83
-105.52947571,40.29636027,3160.55
-105.52947425,40.29617343,3155.41
-105.52947354,40.29608235,3144.56
-105.52947307,40.29602244,3143.61
-105.52947289,40.29599956,3139.27
-105.52947143,40.29581271,3132.10
-105.52947125,40.29578902,3126.93
-105.52947085,40.29573793,3128.38
-105.52947065,40.29571235,3122.07
-105.52947027,40.29566433,3121.39
-105.52947023,40.29565821,3118.24
-105.52947009,40.29564100,3122.77
-105.52946950,40.29556442,3121.06
-105.52946941,40.29555361,3120.87
-105.52946925,40.29553271,3111.31
-105.52946904,40.29550550,3109.47
-105.52946890,40.29548812,3119.68
-105.52946850,40.29543695,3115.27
-105.52946814,40.29539118,3114.40
-105.52946729,40.29528199,3094.23
-105.52946685,40.29522524,3092.23
-105.52946634,40.29516010,3088.87
-105.52946609,40.29512830,3091.17
-105.52946593,40.29510758,3088.20
-105.52946555,40.29505947,3087.83
-105.52946503,40.29499253,3087.47
-105.52946498,40.29498551,3086.26
-105.52946464,40.29494271,3074.91
-105.52946459,40.29493542,3074.75
-105.52946453,40.29492848,3074.79
-105.52946444,40.29491740,3078.89
-105.52946442,40.29491470,3074.22
-105.52946395,40.29485461,3077.54
-105.52946318,40.29475578,3078.84
-105.52946304,40.29473695,3074.55
-105.52946219,40.29462812,3080.74
-105.52946218,40.29462668,3074.91
-105.52946168,40.29456272,3065.83
-105.52946150,40.29454065,3063.89
-105.52946131,40.29451569,3063.74
-105.52946125,40.29450848,3063.35
-105.52946106,40.29448434,3071.16
-105.52946100,40.29447560,3067.67
-105.52946046,40.29440650,3060.90
-105.52946035,40.29439308,3060.63
-105.52945950,40.29428425,3059.15
-105.52945938,40.29426839,3061.58
-105.52945930,40.29425794,3062.99
-105.52945908,40.29423020,3062.47
-105.52945882,40.29419686,3058.19
-105.52945868,40.29417903,3059.30
-105.52945838,40.29414029,3058.22
-105.52945802,40.29409470,3066.77
-105.52945771,40.29405407,3058.14
-105.52945753,40.29403173,3057.98
-105.52945722,40.29399110,3058.32
-105.52945688,40.29394831,3059.11
-105.52945669,40.29392380,3058.74
-105.52945653,40.29390389,3059.89
-105.52945646,40.29389371,3060.04
-105.52945545,40.29376506,3068.17
-105.52945508,40.29371759,3065.52
-105.52945499,40.29370614,3055.39
-105.52945496,40.29370155,3059.62
-105.52945488,40.29369191,3062.77
-105.52945472,40.29367200,3059.55
-105.52945467,40.29366434,3059.43
-105.52945436,40.29362479,3060.21
-105.52945422,40.29360678,3052.98
-105.52945417,40.29360092,3063.44
-105.52945411,40.29359344,3062.55
-105.52945409,40.29359011,3066.00
-105.52945405,40.29358560,3059.59
-105.52945405,40.29358533,3072.37
-105.52945404,40.29358416,3067.67
-105.52945390,40.29356633,3060.73
-105.52945361,40.29352966,3062.41
-105.52945337,40.29349867,3064.27
-105.52945336,40.29349705,3052.59
-105.52945292,40.29344074,3060.15
-105.52945242,40.29337678,3051.11
-105.52945157,40.29326723,3048.79
-105.52945103,40.29319858,3049.72
-105.52945070,40.29315615,3047.91
-105.52945011,40.29308110,3046.97
-105.52944954,40.29300768,3050.20
-105.52944900,40.29293804,3053.45
-105.52944893,40.29292948,3045.49
-105.52944815,40.29282948,3051.66
-105.52944767,40.29276759,3048.11
-105.52944763,40.29276300,3056.93
-105.52944758,40.29275597,3054.44
-105.52944727,40.29271651,3059.46
-105.52944692,40.29267210,3055.24
-105.52944684,40.29266174,3051.78
-105.52944676,40.29265138,3055.63
-105.52944635,40.29259858,3057.83
-105.52944610,40.29256714,3047.50
-105.52944602,40.29255642,3047.81
-105.52944596,40.29254858,3055.02
-105.52944592,40.29254444,3055.19
-105.52944587,40.29253741,3048.16
-105.52944587,40.29253714,3058.72
-105.52944577,40.29252408,3048.30
-105.52944554,40.29249543,3060.11
-105.52944502,40.29242858,3060.37
-105.52944426,40.29233165,3054.13
-105.52944414,40.29231534,3048.78
-105.52944386,40.29228039,3053.16
-105.52944374,40.29226408,3048.22
-105.52944339,40.29222021,3053.21
-105.52944323,40.29219850,3057.75
-105.52944256,40.29211345,3056.49
-105.52944216,40.29206201,3060.51
-105.52944211,40.29205543,3058.94
-105.52944201,40.29204219,3054.73
-105.52944194,40.29203417,3062.40
-105.52944194,40.29203390,3062.25
-105.52944183,40.29201922,3055.20
-105.52944135,40.29195760,3058.97
-105.52944099,40.29191255,3060.89
-105.52944096,40.29190805,3056.82
-105.52944090,40.29190111,3056.87
-105.52944048,40.29184715,3057.14
-105.52943966,40.29174183,3056.05
-105.52943956,40.29172886,3058.02
-105.52943931,40.29169661,3055.72
-105.52943924,40.29168796,3065.03
-105.52943909,40.29166913,3063.95
-105.52943881,40.29163282,3066.34
-105.52943859,40.29160516,3060.88
-105.52943830,40.29156679,3060.72
-105.52943783,40.29150715,3053.43
-105.52943761,40.29147868,3061.14
-105.52943738,40.29144967,3062.48
-105.52943738,40.29144886,3052.95
-105.52943714,40.29141832,3062.53
-105.52943713,40.29141697,3054.12
-105.52943706,40.29140841,3062.63
-105.52943684,40.29138048,3060.23
-105.52943641,40.29132580,3052.37
-105.52943610,40.29128535,3054.42
-105.52943609,40.29128373,3052.02
-105.52943577,40.29124364,3058.67
-105.52943560,40.29122084,3056.39
-105.52943557,40.29121751,3050.48
-105.52943554,40.29121409,3058.20
-105.52943552,40.29121075,3050.45
-105.52943520,40.29117048,3049.92
-105.52943454,40.29108598,3048.79
-105.52943452,40.29108283,3048.74
-105.52943432,40.29105733,3054.89
-105.52943428,40.29105174,3048.25
-105.52943303,40.29089184,3046.24
-105.52943209,40.29077130,3055.12
-105.52943075,40.29060004,3043.32
-105.52943061,40.29058193,3049.81
-105.52943041,40.29055688,3039.85
-105.52942949,40.29043805,3050.70
-105.52942920,40.29040166,3045.12
-105.52942882,40.29035238,3034.53
-105.52942849,40.29031040,3032.67
-105.52942798,40.29024544,3031.54
-105.52942653,40.29005914,3042.99
-105.52942638,40.29004022,3040.19
-105.52942620,40.29001688,3030.30
-105.52942573,40.28995616,3037.95
-105.52942509,40.28987472,3039.50
-105.52942498,40.28985995,3028.57
-105.52942486,40.28984463,3034.67
-105.52942441,40.28978779,3027.36
-105.52942422,40.28976292,3026.96
-105.52942387,40.28971815,3026.84
-105.52942343,40.28966166,3031.32
-105.52942313,40.28962310,3032.25
-105.52942303,40.28961049,3033.15
-105.52942291,40.28959454,3028.56
-105.52942283,40.28958481,3024.75
-105.52942274,40.28957364,3024.59
-105.52942225,40.28951004,3031.67
-105.52942187,40.28946175,3027.19
-105.52942109,40.28936166,3028.39
-105.52942102,40.28935328,3021.31
-105.52942097,40.28934689,3026.63
-105.52942095,40.28934455,3021.11
-105.52942085,40.28933157,3020.72
-105.52942058,40.28931121,3030.54
-105.52942034,40.28929635,3028.27
-105.52942006,40.28929022,3024.84
-105.52941993,40.28928842,3019.51
-105.52941931,40.28928410,3021.62
-105.52940729,40.28928262,3020.07
-105.52940412,40.28928264,3019.98
-105.52935494,40.28928286,3028.04
-105.52930153,40.28928311,3030.50
-105.52925247,40.28928333,3032.55
-105.52921001,40.28928353,3025.94
-105.52918601,40.28928364,3026.70
-105.52917071,40.28928371,3033.44
-105.52916118,40.28928375,3037.23
-105.52915436,40.28928378,3033.58
-105.52908036,40.28928412,3032.75
-105.52904201,40.28928430,3038.85
-105.52899801,40.28928450,3032.90
-105.52896389,40.28928465,3034.07
-105.52895589,40.28928469,3034.31
-105.52893919,40.28928477,3034.66
-105.52885625,40.28928514,3037.46
-105.52880237,40.28928539,3046.02
-105.52870049,40.28928586,3049.84
-105.52869743,40.28928587,3047.88
-105.52860284,40.28928630,3051.13
-105.52859908,40.28928632,3048.26
-105.52854755,40.28928655,3057.59
-105.52853684,40.28928660,3059.18
-105.52849814,40.28928678,3052.67
-105.52847543,40.28928688,3058.28
-105.52846155,40.28928695,3062.96
-105.52844896,40.28928701,3061.71
-105.52844191,40.28928704,3062.92
-105.52834061,40.28928750,3065.46
-105.52802603,40.28928894,3069.16
-105.52802262,40.28928895,3069.28
-105.52800392,40.28928904,3073.07
-105.52795333,40.28928927,3080.23
-105.52771192,40.28929037,3092.26
-105.52762722,40.28929076,3082.27
-105.52759322,40.28929091,3084.31
-105.52758569,40.28929094,3094.12
-105.52734287,40.28929205,3094.42
-105.52720546,40.28929268,3106.02
-105.52717782,40.28929280,3111.64
-105.52717441,40.28929282,3111.76
-105.52694841,40.28929385,3121.56
-105.52673136,40.28929484,3132.89
-105.52672406,40.28929487,3134.07
-105.52671359,40.28929492,3136.65
-105.52669618,40.28929500,3133.93
-105.52669359,40.28929501,3138.25
-105.52656877,40.28929558,3134.02
-105.52644266,40.28929615,3139.26
-105.52635690,40.28929654,3149.61
-105.52635407,40.28929655,3149.82
-105.52634843,40.28929658,3151.25
-105.52608408,40.28929778,3159.69
-105.52594926,40.28929840,3173.46
-105.52586350,40.28929879,3185.61
-105.52584232,40.28929888,3182.60
-105.52580432,40.28929905,3178.85
-105.52574209,40.28929934,3182.58
-105.52569385,40.28929956,3185.31
-105.52560174,40.28929997,3187.60
-105.52528633,40.28930141,3227.02
-105.52515951,40.28930198,3219.51
-105.52505234,40.28930247,3222.81
-105.52496658,40.28930286,3227.17
-105.52485999,40.28930334,3232.19
-105.52475870,40.28930380,3238.25
-105.52466223,40.28930424,3244.82
-105.52447788,40.28930507,3257.43
-105.52443718,40.28930526,3258.74
-105.52443200,40.28930528,3259.00
-105.52441235,40.28930537,3260.19
-105.52439753,40.28930544,3260.97
-105.52439035,40.28930547,3261.52
-105.52438788,40.28930548,3261.61
-105.52427894,40.28930598,3270.61
-105.52419236,40.28930637,3279.56
-105.52400377,40.28930722,3295.21
-105.52393401,40.28930754,3315.59
-105.52391613,40.28930762,3318.22
-105.52387142,40.28930782,3319.11
-105.52365437,40.28930880,3325.27
-105.52348449,40.28930957,3341.29
-105.52340167,40.28930995,3344.09
-105.52317132,40.28931099,3357.36
-105.52309050,40.28931136,3359.41
-105.52291156,40.28931225,3363.58
-105.52242252,40.28931437,3384.63
-105.52240075,40.28931447,3385.95
-105.52235546,40.28931468,3389.00
-105.52230217,40.28931492,3391.69
-105.52203452,40.28931612,3415.60
-105.52185253,40.28931695,3417.65
-105.52182241,40.28931708,3418.03
-105.52163183,40.28931794,3419.93
-105.52130313,40.28931942,3415.54
-105.52108890,40.28932039,3419.17
-105.52108725,40.28932039,3419.20
-105.52092843,40.28932111,3422.26
-105.52090890,40.28932120,3422.59
-105.52071820,40.28932206,3426.78
-105.52068373,40.28932221,3427.78
-105.52050162,40.28932303,3432.90
-105.52041350,40.28932343,3436.61
-105.52040703,40.28932346,3436.93
-105.52028927,40.28932399,3441.27
-105.52010315,40.28932482,3448.10
-105.52009998,40.28932484,3448.23
-105.52009445,40.28932486,3448.43
-105.52009080,40.28932488,3448.82
-105.52006033,40.28932502,3450.69
-105.51987798,40.28932583,3454.57
-105.51986728,40.28932588,3454.74
-105.51986398,40.28932590,3454.88
-105.51981010,40.28932614,3458.21
-105.51973528,40.28932648,3462.94
-105.51967669,40.28932674,3464.75
-105.51966140,40.28932681,3467.38
-105.51965775,40.28932682,3468.06
-105.51963481,40.28932693,3469.26
-105.51963187,40.28932694,3469.42
-105.51962905,40.28932695,3469.58
-105.51961399,40.28932702,3470.55
-105.51946129,40.28932771,3472.88
-105.51931553,40.28932836,3470.96
-105.51919917,40.28932888,3465.39
-105.51906483,40.28932949,3461.89
-105.51892153,40.28933013,3461.36
-105.51890224,40.28933021,3460.57
-105.51879883,40.28933068,3457.18
-105.51865460,40.28933133,3455.07
-105.51849719,40.28933203,3455.31
-105.51841684,40.28933239,3456.72
-105.51841437,40.28933240,3457.46
-105.51833555,40.28933275,3461.12
-105.51833237,40.28933277,3461.23
-105.51825978,40.28933309,3466.11
-105.51816237,40.28933353,3458.01
-105.51785556,40.28933490,3449.57
-105.51784179,40.28933497,3449.31
-105.51774979,40.28933538,3449.23
-105.51771144,40.28933555,3449.12
-105.51770944,40.28933556,3449.96
-105.51765781,40.28933786,3448.80
-105.51765714,40.28934183,3448.70
-105.51765644,40.28935904,3448.22
-105.51765651,40.28938363,3447.13
-105.51765666,40.28940228,3446.29
-105.51765945,40.28976778,3429.52
-105.51765946,40.28977021,3429.41
-105.51765970,40.28980093,3427.88
-105.51766102,40.28997417,3418.29
-105.51766151,40.29003850,3415.08
-105.51766166,40.29005778,3414.25
-105.51766196,40.29009688,3412.26
-105.51766217,40.29012525,3410.95
-105.51766279,40.29020642,3405.58
-105.51766297,40.29022958,3404.86
-105.51766338,40.29028345,3402.76
-105.51766386,40.29034579,3399.65
-105.51766413,40.29038192,3397.80
-105.51766482,40.29047219,3393.07
-105.51766486,40.29047696,3392.91
-105.51766511,40.29050985,3391.21
-105.51766632,40.29066877,3382.29
-105.51766663,40.29071003,3380.15
-105.51766809,40.29090093,3371.26
-105.51766816,40.29090985,3370.08
-105.51766821,40.29091669,3369.92
-105.51766926,40.29105399,3362.39
-105.51766947,40.29108183,3360.89
-105.51766987,40.29113426,3357.22
-105.51767022,40.29118012,3354.90
-105.51767109,40.29129426,3353.32
-105.51767186,40.29139498,3349.70
-105.51767209,40.29142525,3342.88
-105.51767219,40.29143804,3343.41
-105.51767228,40.29145047,3341.95
-105.51767267,40.29150047,3340.12
-105.51767317,40.29156615,3337.30
-105.51767338,40.29159444,3335.73
-105.51767401,40.29167660,3335.72
-105.51767421,40.29170273,3332.56
-105.51767431,40.29171597,3333.19
-105.51767435,40.29172128,3332.08
-105.51767437,40.29172408,3328.92
-105.51767468,40.29176516,3326.98
-105.51767478,40.29177759,3326.42
-105.51767483,40.29178444,3326.16
-105.51767487,40.29178876,3329.90
-105.51767526,40.29184083,3326.34
-105.51767527,40.29184182,3324.98
-105.51767531,40.29184669,3323.24
-105.51767531,40.29184696,3325.24
-105.51767586,40.29191885,3319.03
-105.51767651,40.29200399,3319.81
-105.51767698,40.29206624,3311.10
-105.51767835,40.29224534,3303.11
-105.51767922,40.29235984,3296.40
-105.51768064,40.29254615,3288.19
-105.51768127,40.29262804,3285.13
-105.51768150,40.29265840,3285.93
-105.51768151,40.29265921,3283.78
-105.51768210,40.29273624,3283.01
-105.51768391,40.29297434,3270.33
-105.51768408,40.29299696,3275.78
-105.51768513,40.29313416,3273.30
-105.51768563,40.29319921,3266.96
-105.51768563,40.29319975,3269.65
-105.51768622,40.29327686,3261.58
-105.51768683,40.29335695,3256.60
-105.51768688,40.29336353,3256.09
-105.51768723,40.29340957,3257.55
-105.51768732,40.29342101,3260.43
-105.51768762,40.29346020,3252.00
-105.51768778,40.29348173,3251.07
-105.51768807,40.29351975,3252.17
-105.51768820,40.29353686,3250.92
-105.51768849,40.29357407,3251.58
-105.51768861,40.29359029,3249.35
-105.51768865,40.29359578,3247.34
-105.51768871,40.29360362,3247.11
-105.51768885,40.29362083,3247.63
-105.51768911,40.29365605,3244.95
-105.51768918,40.29366524,3245.58
-105.51768948,40.29370452,3249.62
-105.51768951,40.29370794,3242.95
-105.51768969,40.29373137,3244.90
-105.51768977,40.29374137,3242.79
-105.51769004,40.29377740,3240.28
-105.51769048,40.29383560,3244.90
-105.51769058,40.29384758,3237.99
-105.51769060,40.29385119,3239.79
-105.51769062,40.29385290,3239.77
-105.51769064,40.29385614,3237.62
-105.51769097,40.29389939,3236.56
-105.51769113,40.29391965,3240.76
-105.51769121,40.29393038,3239.79
-105.51769149,40.29396722,3239.88
-105.51769149,40.29396740,3237.16
-105.51769158,40.29397911,3239.28
-105.51769165,40.29398830,3236.96
-105.51769183,40.29401191,3234.82
-105.51769264,40.29411794,3238.31
-105.51769344,40.29422317,3229.43
-105.51769450,40.29436182,3225.61
-105.51769492,40.29441722,3226.74
-105.51769587,40.29454082,3219.88
-105.51769641,40.29461236,3217.78
-105.51769641,40.29461272,3223.49
-105.51769650,40.29462335,3222.70
-105.51769735,40.29473578,3214.19
-105.51769800,40.29482019,3217.03
-105.51769803,40.29482461,3212.49
-105.51769833,40.29486316,3211.72
-105.51769869,40.29491073,3210.93
-105.51769877,40.29492127,3210.87
-105.51769913,40.29496884,3219.18
-105.51769921,40.29497875,3209.79
-105.51769928,40.29498767,3211.62
-105.51770012,40.29509839,3209.02
-105.51770049,40.29514623,3206.16
-105.51770111,40.29522803,3207.97
-105.51770176,40.29531280,3206.02
-105.51770229,40.29538244,3200.31
-105.51770244,40.29540217,3203.67
-105.51770269,40.29543478,3205.83
-105.51770318,40.29549911,3202.23
-105.51770327,40.29551055,3197.13
-105.51770330,40.29551551,3196.95
-105.51770352,40.29554325,3202.88
-105.51770362,40.29555659,3196.19
-105.51770427,40.29564145,3195.69
-105.51770429,40.29564505,3197.57
-105.51770434,40.29565082,3193.44
-105.51770483,40.29571595,3195.33
-105.51770503,40.29574109,3199.16
-105.51770568,40.29582686,3193.17
-105.51770575,40.29583613,3192.26
-105.51770597,40.29586424,3190.22
-105.51770672,40.29596325,3185.08
-105.51770774,40.29609703,3182.75
-105.51770781,40.29610568,3187.13
-105.51770825,40.29616307,3179.86
-105.51770837,40.29617929,3188.81
-105.51770926,40.29629559,3180.86
-105.51770981,40.29636748,3179.05
-105.51770994,40.29638550,3174.55
-105.51770995,40.29638622,3175.37
-105.51771009,40.29640460,3177.75
-105.51771052,40.29646145,3173.91
-105.51771084,40.29650226,3177.11
-105.51771175,40.29662253,3173.20
-105.51771212,40.29667018,3169.25
-105.51771253,40.29672424,3166.97
-105.51771335,40.29683136,3171.42
-105.51771338,40.29683523,3169.69
-105.51771340,40.29683766,3164.81
-105.51771350,40.29685181,3171.13
-105.51771398,40.29691415,3168.40
-105.51771454,40.29698793,3162.88
-105.51771510,40.29706135,3161.91
-105.51771568,40.29713685,3163.25
-105.51771655,40.29725144,3168.69
-105.51771681,40.29728451,3166.25
-105.51771685,40.29728982,3167.76
-105.51771714,40.29732892,3157.10
-105.51771736,40.29735775,3156.96
-105.51771744,40.29736757,3156.93
-105.51771760,40.29738811,3156.72
-105.51771773,40.29740622,3156.90
-105.51771808,40.29745099,3156.17
-105.51771814,40.29745883,3158.74
-105.51771814,40.29745982,3163.34
-105.51771853,40.29751000,3155.38
-105.51771868,40.29753027,3155.20
-105.51771884,40.29755054,3155.03
-105.51771903,40.29757640,3168.19
-105.51771944,40.29763000,3166.08
-105.51772008,40.29771342,3158.12
-105.51772042,40.29775829,3152.50
-105.51772049,40.29776712,3152.43
-105.51772062,40.29778432,3162.89
-105.51772075,40.29780135,3164.84
-105.51772092,40.29782396,3160.90
-105.51772102,40.29783658,3155.33
-105.51772134,40.29787820,3158.52
-105.51772160,40.29791243,3157.29
-105.51772363,40.29817874,3149.73
-105.51772473,40.29832234,3156.38
-105.51772564,40.29833351,3155.10
-105.51772602,40.29833729,3153.83
-105.51772758,40.29834098,3148.90
-105.51775690,40.29834445,3157.59
-105.51793245,40.29834375,3160.53
-105.51798846,40.29834350,3152.25
-105.51833885,40.29834193,3158.04
-105.51835803,40.29834185,3163.67
-105.51842862,40.29834153,3166.43
-105.51847804,40.29834131,3162.46
-105.51862994,40.29834063,3162.28
-105.51872995,40.29834018,3173.19
-105.51883749,40.29833970,3171.46
-105.51895197,40.29833918,3167.96
-105.51899951,40.29833897,3172.41
-105.51904763,40.29833875,3178.00
-105.51913435,40.29833837,3172.94
-105.51916953,40.29833821,3181.35
-105.51921094,40.29833802,3174.71
-105.51924836,40.29833785,3178.35
-105.51929390,40.29833765,3176.58
-105.51943744,40.29833701,3187.37
-105.51948015,40.29833681,3189.95
-105.51951474,40.29833666,3183.74
-105.51964899,40.29833606,3184.94
-105.51966817,40.29833597,3195.37
-105.51967653,40.29833593,3185.32
-105.51969641,40.29833584,3189.68
-105.51971124,40.29833578,3192.18
-105.51975512,40.29833558,3194.21
-105.51977395,40.29833549,3187.57
-105.51977983,40.29833547,3197.07
-105.51983572,40.29833522,3199.28
-105.51983760,40.29833521,3190.78
-105.51990396,40.29833491,3192.68
-105.52002562,40.29833436,3197.14
-105.52006480,40.29833419,3201.39
-105.52007951,40.29833412,3203.28
-105.52009187,40.29833407,3200.93
-105.52014117,40.29833384,3198.91
-105.52014893,40.29833381,3199.03
-105.52016870,40.29833372,3196.59
-105.52018129,40.29833366,3196.92
-105.52027083,40.29833326,3201.44
-105.52028165,40.29833321,3205.30
-105.52031224,40.29833307,3203.28
-105.52031977,40.29833304,3199.87
-105.52035084,40.29833290,3207.52
-105.52035331,40.29833289,3206.37
-105.52043414,40.29833253,3211.63
-105.52052780,40.29833211,3208.67
-105.52059734,40.29833179,3214.60
-105.52060992,40.29833174,3213.34
-105.52068393,40.29833140,3214.12
-105.52068617,40.29833139,3209.71
-105.52069546,40.29833135,3207.32
-105.52070746,40.29833130,3212.73
-105.52073417,40.29833118,3207.99
-105.52075182,40.29833110,3208.37
-105.52076288,40.29833105,3208.77
-105.52077371,40.29833100,3217.87
-105.52077865,40.29833098,3217.54
-105.52077935,40.29833097,3209.02
-105.52083548,40.29833072,3221.11
-105.52083748,40.29833071,3219.59
-105.52084430,40.29833068,3215.14
-105.52084901,40.29833066,3211.89
-105.52085160,40.29833065,3210.67
-105.52086984,40.29833057,3214.64
-105.52087725,40.29833053,3210.77
-105.52101820,40.29832990,3223.90
-105.52105880,40.29832972,3213.68
-105.52124470,40.29832888,3217.19
-105.52127741,40.29832873,3217.97
-105.52129953,40.29832863,3218.54
-105.52136589,40.29832833,3221.95
-105.52153038,40.29832759,3224.23
-105.52154697,40.29832752,3227.89
-105.52166745,40.29832697,3227.57
-105.52173864,40.29832665,3229.77
-105.52182300,40.29832627,3236.62
-105.52187301,40.29832605,3235.27
-105.52187477,40.29832604,3235.82
-105.52195949,40.29832565,3240.66
-105.52200373,40.29832546,3243.69
     </coordinates>
    </LineString>
   </MultiGeometry>
  </Placemark>
 </Document>
</kml>
