<kml>
 <Document>
  <Style id="yellow">
   <LineStyle>
   <color>ff00ffff</color>
   <width>1</width>
   </LineStyle>
  </Style>
  <Style id="red">
   <LineStyle>
   <color>ffff0000</color>
   <width>2</width>
   </LineStyle>
  </Style>
  <Style id="green">
   <LineStyle>
   <color>ff00ff00</color>
   <width>1</width>
   </LineStyle>
  </Style>
  <Placemark>
  <styleUrl>#yellow</styleUrl>
   <MultiGeometry>
    <LineString>
     <coordinates>
-105.53479452,40.25322050,2651.95
-105.53482379,40.25322037,2651.93
-105.53484261,40.25322028,2655.30
-105.53485813,40.25322021,2651.98
-105.53493444,40.25321985,2653.56
-105.53494020,40.25321983,2652.13
-105.53494784,40.25321979,2652.97
-105.53494820,40.25321979,2653.13
-105.53495784,40.25321975,2652.20
-105.53496278,40.25321972,2652.18
-105.53499887,40.25321956,2654.24
-105.53500628,40.25321952,2654.96
-105.53500981,40.25321951,2654.60
-105.53501804,40.25321947,2652.36
-105.53503721,40.25321938,2654.23
-105.53503885,40.25321937,2654.60
-105.53504473,40.25321935,2654.48
-105.53507213,40.25321922,2659.14
-105.53511904,40.25321900,2652.76
-105.53513245,40.25321894,2652.85
-105.53513762,40.25321892,2652.88
-105.53515620,40.25321883,2663.81
-105.53518124,40.25321871,2653.19
-105.53518218,40.25321871,2658.36
-105.53519524,40.25321865,2663.33
-105.53520993,40.25321858,2653.36
-105.53524533,40.25321842,2653.60
-105.53526202,40.25321834,2653.71
-105.53529824,40.25321817,2666.00
-105.53531999,40.25321807,2654.11
-105.53533880,40.25321799,2654.21
-105.53534127,40.25321797,2664.56
-105.53534351,40.25321796,2663.46
-105.53534786,40.25321794,2665.78
-105.53535374,40.25321792,2654.36
-105.53544521,40.25321749,2655.12
-105.53548319,40.25321732,2655.30
-105.53549519,40.25321726,2655.26
-105.53551412,40.25321717,2655.18
-105.53553011,40.25321710,2655.14
-105.53559525,40.25321680,2656.45
-105.53559901,40.25321678,2655.26
-105.53564534,40.25321657,2666.99
-105.53565310,40.25321653,2655.63
-105.53567179,40.25321644,2667.71
-105.53572165,40.25321621,2656.30
-105.53573564,40.25321615,2656.48
-105.53576633,40.25321601,2656.84
-105.53581642,40.25321577,2669.25
-105.53582018,40.25321576,2668.31
-105.53583065,40.25321571,2657.49
-105.53585793,40.25321558,2657.82
-105.53587474,40.25321550,2657.85
-105.53588379,40.25321546,2662.46
-105.53589543,40.25321541,2658.07
-105.53591660,40.25321531,2658.34
-105.53592777,40.25321526,2669.07
-105.53597292,40.25321505,2670.97
-105.53598315,40.25321500,2673.60
-105.53605182,40.25321468,2669.66
-105.53606264,40.25321463,2662.90
-105.53607945,40.25321456,2669.26
-105.53607980,40.25321455,2669.43
-105.53609297,40.25321449,2670.85
-105.53609474,40.25321449,2663.28
-105.53614788,40.25321424,2673.23
-105.53615000,40.25321423,2672.66
-105.53616434,40.25321416,2667.42
-105.53618033,40.25321409,2661.84
-105.53620326,40.25321398,2669.20
-105.53621408,40.25321393,2668.09
-105.53622807,40.25321387,2662.70
-105.53626605,40.25321369,2663.17
-105.53627734,40.25321364,2664.69
-105.53637329,40.25321319,2665.29
-105.53639751,40.25321308,2671.04
-105.53644654,40.25321286,2673.98
-105.53648228,40.25321269,2675.86
-105.53648746,40.25321267,2667.05
-105.53648852,40.25321266,2675.38
-105.53648993,40.25321265,2667.11
-105.53649545,40.25321263,2667.22
-105.53652685,40.25321248,2675.50
-105.53654978,40.25321238,2673.67
-105.53656882,40.25321229,2668.77
-105.53659951,40.25321215,2669.25
-105.53662491,40.25321203,2676.27
-105.53663596,40.25321198,2676.07
-105.53664196,40.25321195,2675.94
-105.53664337,40.25321194,2678.31
-105.53666101,40.25321186,2676.20
-105.53669158,40.25321172,2671.37
-105.53669887,40.25321169,2676.61
-105.53671098,40.25321163,2671.78
-105.53681821,40.25321113,2675.12
-105.53684902,40.25321099,2682.43
-105.53685866,40.25321094,2684.01
-105.53688559,40.25321082,2676.86
-105.53691322,40.25321069,2683.74
-105.53699906,40.25321029,2679.49
-105.53703668,40.25321012,2680.59
-105.53704456,40.25321008,2680.78
-105.53707454,40.25320994,2681.41
-105.53707642,40.25320993,2681.42
-105.53708677,40.25320989,2681.57
-105.53709194,40.25320986,2681.62
-105.53709594,40.25320984,2685.27
-105.53709759,40.25320984,2681.67
-105.53710100,40.25320982,2681.74
-105.53710958,40.25320978,2681.88
-105.53711711,40.25320975,2682.00
-105.53712887,40.25320969,2682.42
-105.53714897,40.25320960,2687.30
-105.53714944,40.25320960,2688.57
-105.53716367,40.25320953,2683.50
-105.53717555,40.25320947,2683.79
-105.53718272,40.25320944,2683.97
-105.53720130,40.25320935,2685.59
-105.53720376,40.25320934,2685.59
-105.53721435,40.25320929,2684.67
-105.53721646,40.25320928,2684.52
-105.53722023,40.25320927,2684.51
-105.53723128,40.25320922,2684.56
-105.53724703,40.25320914,2685.35
-105.53727843,40.25320900,2688.89
-105.53728066,40.25320899,2684.96
-105.53729371,40.25320893,2690.46
-105.53733945,40.25320871,2689.33
-105.53734087,40.25320871,2689.46
-105.53734710,40.25320868,2685.04
-105.53738860,40.25320849,2685.15
-105.53739977,40.25320843,2685.25
-105.53743658,40.25320826,2685.25
-105.53747585,40.25320808,2685.08
-105.53749678,40.25320798,2689.20
-105.53750689,40.25320794,2688.66
-105.53752476,40.25320785,2685.02
-105.53755357,40.25320772,2686.18
-105.53759143,40.25320754,2686.96
-105.53759825,40.25320751,2683.97
-105.53760401,40.25320748,2683.88
-105.53765634,40.25320724,2689.71
-105.53778673,40.25320664,2682.92
-105.53781072,40.25320652,2689.25
-105.53781601,40.25320650,2682.60
-105.53785234,40.25320633,2682.74
-105.53788151,40.25320619,2682.03
-105.53788938,40.25320616,2687.03
-105.53790726,40.25320607,2686.62
-105.53790737,40.25320607,2687.32
-105.53794994,40.25320588,2681.87
-105.53797157,40.25320578,2681.98
-105.53797992,40.25320574,2689.59
-105.53798121,40.25320573,2687.30
-105.53798674,40.25320571,2689.27
-105.53799215,40.25320568,2685.10
-105.53799227,40.25320568,2687.44
-105.53799591,40.25320566,2684.27
-105.53799815,40.25320565,2681.99
-105.53800649,40.25320561,2682.01
-105.53806587,40.25320534,2684.89
-105.53806740,40.25320533,2682.22
-105.53806870,40.25320532,2684.10
-105.53806905,40.25320532,2689.52
-105.53809515,40.25320520,2691.30
-105.53809621,40.25320520,2688.25
-105.53809844,40.25320519,2691.87
-105.53809938,40.25320518,2682.12
-105.53810056,40.25320518,2682.15
-105.53810656,40.25320515,2691.64
-105.53815230,40.25320494,2682.21
-105.53815865,40.25320491,2688.84
-105.53816006,40.25320490,2693.54
-105.53816300,40.25320489,2692.11
-105.53816311,40.25320489,2686.58
-105.53816593,40.25320487,2693.52
-105.53822755,40.25320459,2682.44
-105.53827211,40.25320438,2689.90
-105.53827799,40.25320435,2682.68
-105.53828528,40.25320432,2688.01
-105.53828716,40.25320431,2689.09
-105.53828728,40.25320431,2682.73
-105.53830445,40.25320423,2689.52
-105.53830609,40.25320422,2688.50
-105.53831044,40.25320420,2692.65
-105.53831374,40.25320419,2691.80
-105.53834054,40.25320406,2682.86
-105.53834395,40.25320404,2692.45
-105.53838123,40.25320387,2682.97
-105.53840357,40.25320377,2683.08
-105.53843237,40.25320363,2683.18
-105.53844672,40.25320357,2683.29
-105.53846377,40.25320349,2683.47
-105.53848729,40.25320338,2683.53
-105.53873291,40.25320223,2701.30
-105.53876925,40.25320207,2696.58
-105.53883227,40.25320177,2685.81
-105.53883345,40.25320177,2685.82
-105.53884085,40.25320173,2685.84
-105.53886390,40.25320162,2686.27
-105.53900547,40.25320097,2690.57
-105.53912458,40.25320041,2695.66
-105.53922358,40.25319995,2715.08
-105.53922405,40.25319995,2709.78
-105.53922770,40.25319993,2714.28
-105.53928543,40.25319966,2711.64
-105.53934034,40.25319940,2706.52
-105.53937209,40.25319926,2707.87
-105.53944205,40.25319893,2709.05
-105.53959020,40.25319824,2715.84
-105.53963194,40.25319805,2717.42
-105.53963335,40.25319804,2716.26
-105.53968285,40.25319781,2720.08
-105.53969591,40.25319775,2712.48
-105.53979656,40.25319728,2705.89
-105.53992566,40.25319668,2716.47
-105.53996705,40.25319648,2704.77
-105.54003513,40.25319616,2704.62
-105.54007158,40.25319600,2716.98
-105.54012861,40.25319573,2704.49
-105.54016353,40.25319557,2715.76
-105.54022267,40.25319529,2705.53
-105.54024830,40.25319517,2705.73
-105.54026829,40.25319508,2715.27
-105.54029745,40.25319494,2711.86
-105.54033167,40.25319478,2706.09
-105.54035965,40.25319465,2706.27
-105.54051862,40.25319391,2706.73
-105.54055543,40.25319374,2707.57
-105.54059717,40.25319354,2710.06
-105.54060117,40.25319352,2713.42
-105.54068171,40.25319315,2714.95
-105.54068359,40.25319314,2719.00
-105.54073744,40.25319289,2714.46
-105.54074368,40.25319286,2718.69
-105.54079365,40.25319262,2720.90
-105.54079717,40.25319261,2717.80
-105.54087184,40.25319226,2709.80
-105.54088207,40.25319203,2719.93
-105.54089006,40.25319172,2710.12
-105.54089135,40.25319136,2721.79
-105.54089416,40.25318990,2710.17
-105.54089649,40.25318683,2715.45
-105.54089730,40.25318475,2717.58
-105.54089736,40.25317763,2718.55
-105.54089701,40.25310511,2709.86
-105.54089695,40.25309763,2716.01
-105.54089692,40.25309367,2715.60
-105.54089691,40.25309196,2713.91
-105.54089661,40.25305412,2708.90
-105.54089604,40.25298268,2708.35
-105.54089592,40.25296781,2716.26
-105.54089531,40.25289097,2714.46
-105.54089506,40.25286024,2716.21
-105.54089496,40.25284718,2715.69
-105.54089474,40.25281889,2718.91
-105.54089311,40.25261430,2709.70
-105.54089260,40.25255115,2702.92
-105.54089237,40.25252151,2712.84
-105.54088960,40.25217340,2704.72
-105.54088903,40.25210277,2705.63
-105.54088859,40.25204691,2700.65
-105.54088837,40.25201997,2700.49
-105.54088797,40.25196889,2701.20
-105.54088712,40.25186187,2700.65
-105.54088660,40.25179673,2700.21
-105.54088598,40.25171871,2698.89
-105.54088572,40.25168673,2698.42
-105.54088552,40.25166160,2697.33
-105.54088503,40.25159997,2696.53
-105.54088502,40.25159853,2696.51
-105.54088476,40.25156610,2696.19
-105.54088469,40.25155673,2696.09
-105.54088467,40.25155511,2696.05
-105.54088377,40.25144142,2693.74
-105.54088263,40.25129862,2689.69
-105.54088256,40.25129015,2689.18
-105.54088198,40.25121664,2685.15
-105.54087944,40.25089826,2680.64
-105.54087938,40.25089061,2691.06
-105.54087913,40.25085862,2689.46
-105.54087900,40.25084304,2694.09
-105.54087848,40.25077718,2679.41
-105.54087836,40.25076214,2679.34
-105.54087613,40.25048214,2677.66
-105.54087518,40.25036214,2677.19
-105.54087467,40.25029817,2677.04
-105.54087444,40.25026943,2677.07
-105.54087414,40.25023196,2676.80
-105.54087366,40.25017142,2676.29
-105.54087359,40.25016313,2676.30
-105.54087315,40.25010736,2676.17
-105.54087310,40.25010187,2680.41
-105.54087299,40.25008763,2676.02
-105.54087291,40.25007709,2676.70
-105.54087279,40.25006178,2676.17
-105.54087225,40.24999394,2679.51
-105.54087171,40.24992664,2675.75
-105.54087119,40.24986133,2675.68
-105.54087115,40.24985610,2681.82
-105.54087092,40.24982754,2675.36
-105.54087021,40.24973826,2680.68
-105.54086944,40.24964142,2674.44
-105.54086853,40.24952736,2675.19
-105.54086834,40.24950304,2675.22
-105.54086817,40.24948241,2675.05
-105.54086709,40.24934592,2679.29
-105.54086637,40.24925529,2667.84
-105.54086599,40.24920817,2669.52
-105.54086580,40.24918421,2676.42
-105.54086573,40.24917565,2675.10
-105.54086547,40.24914340,2665.39
-105.54086518,40.24910646,2669.80
-105.54086517,40.24910520,2669.77
-105.54086508,40.24909430,2666.86
-105.54086486,40.24906664,2673.49
-105.54086485,40.24906493,2676.40
-105.54086484,40.24906412,2674.10
-105.54086480,40.24905862,2672.34
-105.54086470,40.24904664,2677.63
-105.54086453,40.24902448,2676.39
-105.54086437,40.24900448,2675.88
-105.54086436,40.24900385,2678.77
-105.54086435,40.24900214,2678.71
-105.54086418,40.24898042,2682.20
-105.54086312,40.24884745,2666.03
-105.54086288,40.24881763,2674.92
-105.54086270,40.24879529,2682.38
-105.54086241,40.24875853,2672.33
-105.54086226,40.24873907,2680.46
-105.54086195,40.24869997,2686.31
-105.54086123,40.24860988,2674.72
-105.54085972,40.24842088,2675.46
-105.54085954,40.24839790,2675.56
-105.54085912,40.24834484,2676.10
-105.54085883,40.24830853,2676.70
-105.54085811,40.24821853,2678.25
-105.54085647,40.24801169,2687.74
-105.54085603,40.24795709,2676.49
-105.54085601,40.24795421,2685.15
-105.54085551,40.24789142,2680.46
-105.54085508,40.24783781,2685.90
-105.54085438,40.24774916,2678.31
-105.54085425,40.24773277,2678.54
-105.54085418,40.24772430,2678.67
-105.54085398,40.24769880,2681.43
-105.54085364,40.24765700,2679.59
-105.54085285,40.24755781,2682.46
-105.54085262,40.24752871,2682.67
-105.54085230,40.24748781,2682.04
-105.54085138,40.24737268,2676.36
-105.54085135,40.24736871,2682.24
-105.54085014,40.24721628,2667.54
-105.54084940,40.24712394,2664.67
-105.54084935,40.24711781,2666.74
-105.54084888,40.24705862,2662.90
-105.54084855,40.24701736,2661.86
-105.54084779,40.24692214,2659.56
-105.54084725,40.24685385,2662.13
-105.54084725,40.24685331,2665.07
-105.54084721,40.24684853,2662.17
-105.54084719,40.24684610,2665.96
-105.54084717,40.24684367,2662.39
-105.54084694,40.24681538,2663.67
-105.54084684,40.24680196,2663.00
-105.54084675,40.24679033,2666.56
-105.54084600,40.24669646,2664.72
-105.54084576,40.24666619,2666.45
-105.54084521,40.24659808,2661.15
-105.54084508,40.24658150,2662.93
-105.54084506,40.24657889,2660.55
-105.54084456,40.24651538,2665.34
-105.54084455,40.24651475,2657.76
-105.54084385,40.24642664,2669.92
-105.54084320,40.24634475,2670.69
-105.54084317,40.24634069,2671.79
-105.54084305,40.24632655,2662.52
-105.54084283,40.24629817,2672.10
-105.54084203,40.24619790,2666.00
-105.54084153,40.24613448,2667.83
-105.54084053,40.24600916,2677.44
-105.54084041,40.24599466,2670.47
-105.54084024,40.24597358,2679.22
-105.54084021,40.24596898,2676.47
-105.54083988,40.24592736,2675.04
-105.54083867,40.24577592,2673.54
-105.54083861,40.24576781,2675.27
-105.54083799,40.24568970,2676.15
-105.54083739,40.24561448,2667.14
-105.54083661,40.24551700,2664.35
-105.54083603,40.24544358,2675.82
-105.54083572,40.24540448,2669.71
-105.54083541,40.24536646,2668.37
-105.54083466,40.24527168,2666.39
-105.54083401,40.24518988,2661.61
-105.54083398,40.24518610,2678.33
-105.54083386,40.24517123,2677.99
-105.54083352,40.24512835,2675.36
-105.54083351,40.24512799,2673.04
-105.54083348,40.24512340,2677.16
-105.54083326,40.24509565,2676.06
-105.54083299,40.24506150,2671.39
-105.54083287,40.24504754,2672.80
-105.54083269,40.24502394,2671.37
-105.54083252,40.24500303,2671.33
-105.54083241,40.24498925,2666.74
-105.54083144,40.24486727,2661.62
-105.54082998,40.24468439,2659.21
-105.54082927,40.24459484,2658.54
-105.54082825,40.24446610,2660.91
-105.54082823,40.24446339,2661.12
-105.54082808,40.24444538,2664.63
-105.54082797,40.24443069,2671.20
-105.54082658,40.24425619,2668.06
-105.54082637,40.24423078,2670.32
-105.54082566,40.24418565,2665.65
-105.54082542,40.24418430,2667.95
-105.54082223,40.24418332,2663.95
-105.54081965,40.24418324,2667.93
-105.54053737,40.24418456,2665.75
-105.54052197,40.24418463,2662.31
-105.54045272,40.24418496,2665.37
-105.54043321,40.24418505,2659.98
-105.54041440,40.24418514,2659.95
-105.54040887,40.24418516,2659.99
-105.54040358,40.24418519,2659.95
-105.54039759,40.24418522,2659.92
-105.54039218,40.24418524,2659.89
-105.54031505,40.24418560,2661.12
-105.54029883,40.24418568,2661.72
-105.54028073,40.24418576,2659.40
-105.54022723,40.24418601,2662.68
-105.54012742,40.24418648,2657.86
-105.54010144,40.24418660,2657.60
-105.54008345,40.24418668,2664.57
-105.54007816,40.24418671,2664.71
-105.54007134,40.24418674,2666.10
-105.54002337,40.24418696,2665.84
-105.54000644,40.24418704,2665.84
-105.53999575,40.24418709,2666.05
-105.53982045,40.24418791,2668.80
-105.53977778,40.24418811,2656.64
-105.53977225,40.24418813,2656.59
-105.53976673,40.24418816,2656.50
-105.53974145,40.24418828,2656.32
-105.53967479,40.24418859,2655.81
-105.53962741,40.24418881,2655.02
-105.53950691,40.24418937,2653.16
-105.53930704,40.24419030,2650.61
-105.53905369,40.24419148,2648.53
-105.53904746,40.24419151,2648.48
-105.53904146,40.24419154,2648.37
-105.53898938,40.24419178,2647.83
-105.53887052,40.24419234,2655.05
-105.53867513,40.24419325,2653.26
-105.53859248,40.24419363,2651.11
-105.53857449,40.24419371,2659.00
-105.53856697,40.24419375,2645.76
-105.53855850,40.24419379,2661.59
-105.53855121,40.24419382,2645.50
-105.53847914,40.24419416,2656.13
-105.53840966,40.24419448,2651.83
-105.53838838,40.24419458,2657.30
-105.53838286,40.24419461,2657.40
-105.53833889,40.24419481,2644.66
-105.53824578,40.24419524,2644.29
-105.53823990,40.24419527,2644.25
-105.53823355,40.24419530,2644.16
-105.53822732,40.24419533,2644.12
-105.53822685,40.24419533,2651.24
-105.53815690,40.24419566,2652.31
-105.53815360,40.24419567,2652.23
-105.53812457,40.24419581,2650.86
-105.53811869,40.24419583,2645.81
-105.53811375,40.24419586,2643.37
-105.53809835,40.24419593,2643.28
-105.53806143,40.24419610,2650.20
-105.53805591,40.24419613,2642.90
-105.53802052,40.24419629,2642.55
-105.53801488,40.24419632,2642.61
-105.53799489,40.24419641,2645.60
-105.53788990,40.24419690,2646.93
-105.53783535,40.24419715,2651.79
-105.53782607,40.24419719,2641.32
-105.53779550,40.24419734,2651.30
-105.53778797,40.24419737,2650.70
-105.53777575,40.24419743,2648.66
-105.53777445,40.24419743,2640.85
-105.53775752,40.24419751,2651.97
-105.53770532,40.24419776,2650.95
-105.53768934,40.24419783,2651.88
-105.53768158,40.24419787,2654.40
-105.53763185,40.24419810,2652.39
-105.53749194,40.24419875,2651.52
-105.53746655,40.24419886,2651.55
-105.53732629,40.24419952,2650.10
-105.53722307,40.24419999,2650.17
-105.53721613,40.24420003,2648.57
-105.53718639,40.24420017,2637.78
-105.53696513,40.24420119,2637.01
-105.53695913,40.24420122,2637.03
-105.53691622,40.24420142,2637.11
-105.53678643,40.24420202,2646.53
-105.53672682,40.24420230,2648.41
-105.53659397,40.24420291,2647.57
-105.53658457,40.24420296,2635.80
-105.53648146,40.24420344,2645.41
-105.53647841,40.24420345,2646.27
-105.53624527,40.24420453,2635.29
-105.53615733,40.24420494,2643.39
-105.53615686,40.24420494,2633.94
-105.53613993,40.24420502,2638.06
-105.53611736,40.24420512,2639.30
-105.53591985,40.24420604,2632.54
-105.53582286,40.24420649,2630.53
-105.53573821,40.24420688,2634.48
-105.53572798,40.24420693,2638.16
-105.53569483,40.24420708,2640.19
-105.53568613,40.24420712,2641.39
-105.53561759,40.24420744,2629.00
-105.53558690,40.24420758,2628.93
-105.53551883,40.24420789,2628.47
-105.53539844,40.24420845,2639.04
-105.53539010,40.24420849,2637.55
-105.53537764,40.24420855,2639.30
-105.53522633,40.24420925,2627.92
-105.53517801,40.24420947,2627.77
-105.53507502,40.24420995,2627.64
-105.53505821,40.24421002,2627.65
-105.53486176,40.24421093,2624.90
-105.53484471,40.24421101,2625.01
-105.53484436,40.24421101,2626.83
-105.53478181,40.24421130,2624.70
-105.53472150,40.24421158,2624.67
-105.53469493,40.24421170,2630.16
-105.53442394,40.24421295,2625.30
-105.53425112,40.24421375,2630.06
-105.53417928,40.24421408,2628.62
-105.53416729,40.24421414,2629.03
-105.53413249,40.24421430,2631.54
-105.53411451,40.24421438,2627.37
-105.53404444,40.24421471,2623.13
-105.53379790,40.24421584,2637.23
-105.53374888,40.24421607,2634.05
-105.53373136,40.24421615,2628.81
-105.53363766,40.24421658,2625.28
-105.53353690,40.24421705,2620.49
-105.53350598,40.24421719,2626.76
-105.53346002,40.24421740,2620.47
-105.53342874,40.24421755,2620.36
-105.53335244,40.24421790,2636.34
-105.53335021,40.24421791,2633.61
-105.53333739,40.24421797,2620.33
-105.53332716,40.24421801,2620.37
-105.53326920,40.24421828,2625.22
-105.53308286,40.24421914,2619.91
-105.53305465,40.24421927,2636.94
-105.53300962,40.24421948,2619.77
-105.53276990,40.24422058,2634.84
-105.53272311,40.24422080,2634.62
-105.53270900,40.24422086,2630.97
-105.53265798,40.24422110,2632.97
-105.53241332,40.24422222,2632.57
-105.53241085,40.24422223,2622.39
-105.53234913,40.24422252,2623.09
-105.53233256,40.24422259,2623.34
-105.53230646,40.24422271,2625.17
-105.53230457,40.24422272,2623.58
-105.53217655,40.24422331,2633.75
-105.53191320,40.24422452,2626.53
-105.53190356,40.24422457,2626.68
-105.53189262,40.24422462,2629.75
-105.53181762,40.24422496,2638.91
-105.53179328,40.24422507,2633.17
-105.53178576,40.24422511,2626.52
-105.53178011,40.24422513,2631.00
-105.53165972,40.24422569,2625.82
-105.53161329,40.24422590,2626.32
-105.53160788,40.24422592,2628.22
-105.53150595,40.24422639,2632.25
-105.53137145,40.24422701,2630.69
-105.53129409,40.24422737,2627.08
-105.53107260,40.24422838,2627.54
-105.53101652,40.24422864,2625.82
-105.53099383,40.24422874,2627.46
-105.53082183,40.24422953,2619.04
-105.53080713,40.24422960,2621.19
-105.53080278,40.24422962,2622.67
-105.53078821,40.24422969,2619.38
-105.53076070,40.24422981,2617.61
-105.53066570,40.24423025,2626.83
-105.53064407,40.24423035,2615.04
-105.53063619,40.24423038,2614.88
-105.53060175,40.24423054,2623.23
-105.53054896,40.24423078,2624.63
-105.53054191,40.24423082,2617.45
-105.53044327,40.24423127,2611.00
-105.53044021,40.24423128,2618.75
-105.53043033,40.24423133,2610.78
-105.53042787,40.24423134,2610.74
-105.53035368,40.24423168,2609.21
-105.53026468,40.24423209,2617.91
-105.53011655,40.24423277,2604.82
-105.52989376,40.24423379,2606.40
-105.52985356,40.24423397,2613.68
-105.52974246,40.24423448,2609.76
-105.52970472,40.24423465,2612.82
-105.52970460,40.24423465,2599.76
-105.52956493,40.24423529,2603.02
-105.52951238,40.24423553,2598.24
-105.52949897,40.24423559,2600.88
-105.52942350,40.24423594,2603.41
-105.52941974,40.24423595,2604.85
-105.52940516,40.24423602,2610.03
-105.52940034,40.24423604,2605.70
-105.52935566,40.24423625,2597.15
-105.52934061,40.24423632,2603.37
-105.52930546,40.24423648,2596.76
-105.52929653,40.24423652,2596.78
-105.52917132,40.24423709,2602.23
-105.52909890,40.24423742,2595.93
-105.52907210,40.24423800,2596.69
-105.52906955,40.24424359,2595.75
-105.52906990,40.24428765,2595.59
-105.52906994,40.24429269,2595.60
-105.52907037,40.24434846,2595.42
-105.52907059,40.24437729,2606.57
-105.52907100,40.24442999,2595.25
-105.52907156,40.24450116,2608.71
-105.52907159,40.24450540,2611.05
-105.52907178,40.24452990,2606.61
-105.52907214,40.24457531,2595.10
-105.52907252,40.24462476,2595.10
-105.52907297,40.24468188,2595.16
-105.52907464,40.24489720,2610.92
-105.52907485,40.24492368,2609.82
-105.52907532,40.24498477,2596.24
-105.52907620,40.24509792,2596.76
-105.52907809,40.24534053,2605.42
-105.52907924,40.24548810,2604.95
-105.52907932,40.24549837,2605.90
-105.52907961,40.24553567,2602.88
-105.52907972,40.24554918,2603.36
-105.52908067,40.24567207,2607.97
-105.52908074,40.24568107,2609.75
-105.52908075,40.24568134,2609.33
-105.52908082,40.24569062,2599.00
-105.52908083,40.24569252,2604.95
-105.52908086,40.24569594,2593.44
-105.52908190,40.24582972,2607.25
-105.52908192,40.24583162,2594.25
-105.52908235,40.24588783,2590.81
-105.52908265,40.24592531,2603.05
-105.52908285,40.24595080,2605.26
-105.52908305,40.24597738,2590.03
-105.52908335,40.24601621,2601.22
-105.52908352,40.24603783,2604.84
-105.52908371,40.24606243,2591.18
-105.52908379,40.24607216,2600.62
-105.52908394,40.24609099,2592.27
-105.52908435,40.24614387,2608.41
-105.52908440,40.24614999,2607.59
-105.52908464,40.24618153,2595.62
-105.52908519,40.24625225,2598.28
-105.52908552,40.24629450,2599.24
-105.52908605,40.24636252,2600.83
-105.52908611,40.24637063,2606.27
-105.52908705,40.24649126,2603.45
-105.52908736,40.24653135,2606.66
-105.52908772,40.24657702,2605.11
-105.52908943,40.24679675,2608.20
-105.52908982,40.24684657,2608.85
-105.52909000,40.24686937,2609.16
-105.52909000,40.24686982,2609.18
-105.52909068,40.24695693,2610.53
-105.52909100,40.24699792,2615.24
-105.52909142,40.24705162,2612.10
-105.52909153,40.24706657,2612.48
-105.52909170,40.24708856,2612.66
-105.52909239,40.24717675,2613.65
-105.52909391,40.24737189,2616.10
-105.52909426,40.24741675,2623.79
-105.52909491,40.24750018,2618.50
-105.52909589,40.24762567,2623.20
-105.52909602,40.24764351,2623.78
-105.52909607,40.24764901,2623.72
-105.52909719,40.24779279,2627.16
-105.52909723,40.24779793,2627.29
-105.52909727,40.24780387,2627.31
-105.52909737,40.24781694,2627.67
-105.52909760,40.24784576,2628.63
-105.52909774,40.24786315,2632.78
-105.52909781,40.24787324,2629.22
-105.52909793,40.24788802,2632.81
-105.52909802,40.24789919,2635.48
-105.52909817,40.24791901,2630.45
-105.52909822,40.24792540,2633.75
-105.52909886,40.24800811,2640.76
-105.52909895,40.24801928,2640.34
-105.52909898,40.24802279,2637.04
-105.52910012,40.24816910,2641.86
-105.52910123,40.24831270,2645.62
-105.52910288,40.24852369,2640.42
-105.52910366,40.24862451,2648.67
-105.52910398,40.24866496,2640.04
-105.52910505,40.24880189,2639.47
-105.52910550,40.24886090,2638.97
-105.52910554,40.24886514,2638.96
-105.52910559,40.24887135,2639.02
-105.52910612,40.24894054,2639.02
-105.52910624,40.24895595,2650.87
-105.52910676,40.24902234,2639.07
-105.52910706,40.24906108,2651.91
-105.52910844,40.24923811,2643.56
-105.52910864,40.24926343,2646.86
-105.52910914,40.24932793,2638.65
-105.52910976,40.24940703,2645.07
-105.52910992,40.24942766,2644.58
-105.52910992,40.24942775,2646.86
-105.52911002,40.24944108,2644.19
-105.52911014,40.24945667,2636.70
-105.52911129,40.24960361,2644.16
-105.52911132,40.24960739,2634.84
-105.52911176,40.24966379,2633.71
-105.52911229,40.24973199,2632.48
-105.52911252,40.24976117,2632.04
-105.52911291,40.24981226,2637.00
-105.52911305,40.24983000,2637.12
-105.52911308,40.24983424,2635.29
-105.52911319,40.24984829,2632.56
-105.52911366,40.24990856,2630.75
-105.52911449,40.25001541,2630.46
-105.52911456,40.25002325,2630.45
-105.52911464,40.25003397,2630.44
-105.52911505,40.25008640,2642.29
-105.52911508,40.25009099,2640.79
-105.52911528,40.25011649,2644.79
-105.52911565,40.25016397,2630.19
-105.52911602,40.25021118,2630.11
-105.52911612,40.25022478,2630.09
-105.52911624,40.25023946,2629.90
-105.52911628,40.25024433,2633.54
-105.52911643,40.25026424,2639.36
-105.52911646,40.25026775,2640.93
-105.52911669,40.25029676,2630.91
-105.52911757,40.25041055,2632.35
-105.52911816,40.25048667,2627.30
-105.52911829,40.25050253,2644.64
-105.52911846,40.25052451,2637.58
-105.52911909,40.25060613,2626.14
-105.52911923,40.25062388,2626.02
-105.52911926,40.25062766,2626.03
-105.52911940,40.25064514,2625.91
-105.52911944,40.25065001,2625.88
-105.52911966,40.25067820,2638.35
-105.52911992,40.25071172,2636.36
-105.52912004,40.25072766,2625.33
-105.52912046,40.25078127,2639.19
-105.52912231,40.25101938,2621.03
-105.52912350,40.25117154,2618.05
-105.52912380,40.25121064,2616.91
-105.52912406,40.25124316,2622.39
-105.52912492,40.25135397,2626.37
-105.52912566,40.25144902,2624.98
-105.52912663,40.25157415,2626.16
-105.52912671,40.25158388,2622.96
-105.52912675,40.25158848,2623.61
-105.52912774,40.25171640,2623.24
-105.52912863,40.25183001,2622.66
-105.52912870,40.25183974,2622.89
-105.52912886,40.25185983,2609.92
-105.52912927,40.25191280,2609.67
-105.52912936,40.25192442,2609.86
-105.52912941,40.25193010,2609.93
-105.52912959,40.25195316,2609.83
-105.52912964,40.25196064,2623.70
-105.52912978,40.25197848,2609.97
-105.52913008,40.25201676,2624.90
-105.52913014,40.25202478,2626.51
-105.52913025,40.25203893,2614.08
-105.52913044,40.25206226,2609.61
-105.52913072,40.25209830,2627.15
-105.52913093,40.25212586,2622.03
-105.52913114,40.25215226,2621.38
-105.52913150,40.25219848,2626.14
-105.52913185,40.25224343,2623.38
-105.52913211,40.25227713,2615.53
-105.52913218,40.25228568,2625.11
-105.52913239,40.25231271,2622.97
-105.52913283,40.25236992,2622.03
-105.52913289,40.25237803,2622.05
-105.52913327,40.25242613,2619.63
-105.52913349,40.25245433,2625.34
-105.52913365,40.25247523,2620.24
-105.52913463,40.25260136,2622.36
-105.52913502,40.25265109,2630.73
-105.52913516,40.25266956,2632.47
-105.52913526,40.25268154,2628.56
-105.52913568,40.25273622,2630.99
-105.52913569,40.25273650,2623.85
-105.52913607,40.25278577,2631.20
-105.52913660,40.25285361,2631.19
-105.52913680,40.25288001,2624.49
-105.52913753,40.25297343,2625.00
-105.52913759,40.25298037,2631.88
-105.52913770,40.25299469,2633.33
-105.52913834,40.25307758,2625.41
-105.52913911,40.25316145,2625.70
-105.52913977,40.25323109,2625.89
-105.52914129,40.25324442,2625.91
-105.52914447,40.25324530,2625.90
-105.52914906,40.25324627,2632.01
-105.52915365,40.25324634,2625.97
-105.52916647,40.25324637,2626.06
-105.52920021,40.25324622,2633.14
-105.52926418,40.25324593,2635.63
-105.52951545,40.25324478,2637.46
-105.52984974,40.25324325,2635.78
-105.52987043,40.25324315,2634.51
-105.52993063,40.25324288,2636.17
-105.53002223,40.25324246,2628.24
-105.53025139,40.25324141,2628.90
-105.53025868,40.25324137,2628.93
-105.53031054,40.25324114,2633.34
-105.53032300,40.25324108,2637.39
-105.53033076,40.25324104,2635.94
-105.53035193,40.25324095,2632.28
-105.53036804,40.25324087,2629.24
-105.53044717,40.25324051,2635.17
-105.53049714,40.25324028,2637.88
-105.53050020,40.25324027,2635.27
-105.53058568,40.25323988,2633.02
-105.53063965,40.25323963,2634.98
-105.53065611,40.25323955,2632.05
-105.53086376,40.25323860,2627.71
-105.53117088,40.25323719,2622.67
-105.53119993,40.25323706,2625.79
-105.53120992,40.25323701,2626.35
-105.53122756,40.25323693,2623.27
-105.53125484,40.25323681,2623.80
-105.53130046,40.25323660,2626.08
-105.53130246,40.25323659,2626.45
-105.53140323,40.25323612,2625.42
-105.53157054,40.25323536,2629.74
-105.53164827,40.25323500,2629.94
-105.53166590,40.25323492,2629.83
-105.53166861,40.25323490,2630.60
-105.53168013,40.25323485,2627.98
-105.53181723,40.25323422,2635.97
-105.53182311,40.25323420,2634.69
-105.53191482,40.25323377,2630.80
-105.53192106,40.25323375,2634.95
-105.53193481,40.25323368,2635.69
-105.53203276,40.25323323,2633.50
-105.53206862,40.25323307,2634.44
-105.53225440,40.25323221,2637.45
-105.53247757,40.25323119,2645.85
-105.53254871,40.25323086,2644.39
-105.53277999,40.25322979,2638.43
-105.53282255,40.25322960,2639.29
-105.53287511,40.25322936,2648.61
-105.53288711,40.25322930,2646.78
-105.53294766,40.25322902,2642.91
-105.53299164,40.25322882,2642.21
-105.53304267,40.25322858,2639.45
-105.53311298,40.25322826,2642.24
-105.53311827,40.25322824,2643.26
-105.53315813,40.25322805,2645.62
-105.53320387,40.25322784,2641.22
-105.53321434,40.25322779,2647.07
-105.53330523,40.25322737,2643.29
-105.53339624,40.25322696,2645.85
-105.53339800,40.25322695,2645.71
-105.53340188,40.25322693,2645.73
-105.53342093,40.25322684,2647.08
-105.53342951,40.25322680,2644.88
-105.53346361,40.25322664,2645.02
-105.53348442,40.25322655,2645.27
-105.53349195,40.25322651,2645.75
-105.53355709,40.25322621,2647.70
-105.53362223,40.25322591,2646.04
-105.53367984,40.25322565,2648.11
-105.53371959,40.25322546,2646.55
-105.53374992,40.25322532,2646.74
-105.53377520,40.25322521,2646.92
-105.53385092,40.25322486,2647.55
-105.53389149,40.25322467,2648.02
-105.53392888,40.25322450,2653.78
-105.53395933,40.25322436,2654.48
-105.53411395,40.25322365,2654.87
-105.53411983,40.25322362,2654.82
-105.53413312,40.25322356,2654.53
-105.53419708,40.25322326,2650.99
-105.53422084,40.25322315,2651.29
-105.53435782,40.25322252,2650.96
-105.53438181,40.25322241,2651.01
-105.53439098,40.25322237,2659.62
-105.53441132,40.25322227,2664.29
-105.53446858,40.25322201,2661.91
-105.53448563,40.25322193,2661.66
-105.53455688,40.25322160,2651.41
-105.53456547,40.25322156,2657.84
-105.53457005,40.25322154,2661.44
-105.53478923,40.25322053,2651.96
-105.53479452,40.25322050,2651.95
     </coordinates>
    </LineString>
   </MultiGeometry>
  </Placemark>
 </Document>
</kml>
