<kml>
 <Document>
  <Style id="yellow">
   <LineStyle>
   <color>ff00ffff</color>
   <width>1</width>
   </LineStyle>
  </Style>
  <Style id="red">
   <LineStyle>
   <color>ffff0000</color>
   <width>2</width>
   </LineStyle>
  </Style>
  <Style id="green">
   <LineStyle>
   <color>ff00ff00</color>
   <width>1</width>
   </LineStyle>
  </Style>
  <Placemark>
  <styleUrl>#yellow</styleUrl>
   <MultiGeometry>
    <LineString>
     <coordinates>
-105.53390065,40.24421528,2629.37
-105.53415001,40.24421413,2622.33
-105.53417117,40.24421403,2628.45
-105.53417411,40.24421402,2629.49
-105.53421879,40.24421381,2630.71
-105.53422702,40.24421377,2629.59
-105.53423795,40.24421372,2622.40
-105.53427863,40.24421354,2633.37
-105.53429285,40.24421347,2628.82
-105.53445733,40.24421271,2625.36
-105.53446450,40.24421268,2625.34
-105.53451999,40.24421242,2625.25
-105.53459488,40.24421207,2624.02
-105.53464367,40.24421185,2624.13
-105.53469704,40.24421160,2626.86
-105.53471292,40.24421153,2626.65
-105.53471362,40.24421153,2624.64
-105.53472973,40.24421145,2632.45
-105.53490619,40.24421064,2632.33
-105.53492395,40.24421055,2625.97
-105.53495240,40.24421042,2626.88
-105.53514015,40.24420955,2627.68
-105.53540162,40.24420835,2637.88
-105.53546134,40.24420807,2628.29
-105.53570094,40.24420696,2629.47
-105.53573927,40.24420678,2634.44
-105.53599380,40.24420560,2631.76
-105.53635955,40.24420391,2635.83
-105.53640387,40.24420370,2641.92
-105.53650215,40.24420325,2637.97
-105.53655141,40.24420302,2644.24
-105.53668285,40.24420241,2648.99
-105.53681558,40.24420180,2640.84
-105.53691563,40.24420133,2637.09
-105.53692233,40.24420130,2637.14
-105.53692857,40.24420127,2637.07
-105.53693444,40.24420124,2637.05
-105.53694044,40.24420122,2637.05
-105.53694691,40.24420119,2637.04
-105.53695290,40.24420116,2637.03
-105.53724141,40.24419982,2647.58
-105.53730019,40.24419955,2649.56
-105.53732853,40.24419942,2645.60
-105.53735451,40.24419929,2645.97
-105.53746361,40.24419879,2652.83
-105.53747207,40.24419875,2651.58
-105.53753838,40.24419844,2653.33
-105.53756060,40.24419834,2652.78
-105.53757447,40.24419827,2650.63
-105.53760057,40.24419815,2652.26
-105.53763561,40.24419799,2654.85
-105.53763737,40.24419798,2652.15
-105.53770521,40.24419767,2650.97
-105.53771496,40.24419762,2649.39
-105.53773436,40.24419753,2640.47
-105.53775070,40.24419745,2648.04
-105.53775200,40.24419745,2650.55
-105.53776834,40.24419737,2650.20
-105.53778597,40.24419729,2650.03
-105.53788591,40.24419683,2641.75
-105.53790636,40.24419673,2648.35
-105.53790719,40.24419673,2648.41
-105.53795045,40.24419653,2649.59
-105.53795786,40.24419649,2647.60
-105.53795985,40.24419648,2650.78
-105.53797808,40.24419640,2649.73
-105.53807025,40.24419597,2643.06
-105.53814490,40.24419562,2643.43
-105.53817042,40.24419550,2643.56
-105.53818499,40.24419544,2643.58
-105.53820886,40.24419532,2643.93
-105.53821450,40.24419530,2643.99
-105.53821509,40.24419530,2644.00
-105.53825377,40.24419512,2644.28
-105.53847185,40.24419410,2655.66
-105.53850842,40.24419393,2645.36
-105.53866925,40.24419318,2654.12
-105.53866937,40.24419318,2653.20
-105.53868030,40.24419313,2653.05
-105.53877035,40.24419271,2651.76
-105.53883266,40.24419242,2650.89
-105.53884348,40.24419237,2650.74
-105.53885100,40.24419234,2647.23
-105.53889450,40.24419213,2650.10
-105.53891179,40.24419205,2649.85
-105.53895141,40.24419187,2647.52
-105.53902324,40.24419153,2648.16
-105.53902947,40.24419150,2648.18
-105.53903558,40.24419148,2648.26
-105.53912634,40.24419105,2650.50
-105.53933855,40.24419007,2662.06
-105.53934466,40.24419004,2662.11
-105.53934995,40.24419001,2661.85
-105.53945741,40.24418951,2652.48
-105.53957157,40.24418898,2659.03
-105.53959943,40.24418885,2658.36
-105.53960519,40.24418882,2658.42
-105.53966327,40.24418855,2655.70
-105.53973193,40.24418823,2656.53
-105.53974321,40.24418818,2656.34
-105.53974909,40.24418815,2656.37
-105.53975473,40.24418813,2656.37
-105.53976061,40.24418810,2656.44
-105.53981975,40.24418782,2668.26
-105.53982574,40.24418779,2668.44
-105.53990028,40.24418745,2656.96
-105.54001514,40.24418691,2665.93
-105.54007240,40.24418664,2664.48
-105.54011989,40.24418642,2657.78
-105.54024828,40.24418582,2661.80
-105.54030953,40.24418554,2661.11
-105.54034045,40.24418539,2664.07
-105.54036408,40.24418528,2659.88
-105.54036960,40.24418526,2659.86
-105.54037560,40.24418523,2659.89
-105.54038101,40.24418520,2659.90
-105.54038642,40.24418518,2659.89
-105.54040111,40.24418511,2659.95
-105.54056782,40.24418433,2660.81
-105.54064612,40.24418396,2670.06
-105.54065247,40.24418394,2668.73
-105.54071654,40.24418364,2670.52
-105.54080683,40.24418312,2660.68
-105.54082575,40.24418249,2670.79
-105.54082573,40.24415015,2660.92
-105.54082565,40.24413934,2670.03
-105.54082563,40.24413736,2660.93
-105.54082490,40.24404583,2661.37
-105.54082442,40.24398583,2667.62
-105.54082427,40.24396646,2665.76
-105.54082375,40.24390051,2668.88
-105.54082337,40.24385321,2661.19
-105.54082323,40.24383628,2669.34
-105.54082317,40.24382772,2669.68
-105.54082236,40.24372691,2662.07
-105.54082171,40.24364447,2663.10
-105.54082150,40.24361781,2672.84
-105.54082102,40.24355781,2670.68
-105.54082097,40.24355168,2672.94
-105.54082085,40.24353646,2671.61
-105.54082081,40.24353177,2666.71
-105.54082037,40.24347583,2664.54
-105.54081966,40.24338763,2664.43
-105.54081880,40.24327844,2664.90
-105.54081865,40.24326078,2665.00
-105.54081801,40.24317970,2672.71
-105.54081768,40.24313826,2666.13
-105.54081683,40.24303177,2666.97
-105.54081656,40.24299808,2667.53
-105.54081656,40.24299745,2667.47
-105.54081655,40.24299628,2667.55
-105.54081569,40.24288790,2668.34
-105.54081557,40.24287258,2675.30
-105.54081503,40.24280465,2669.36
-105.54081413,40.24269222,2669.24
-105.54081283,40.24252898,2670.74
-105.54081134,40.24234204,2669.30
-105.54081108,40.24230826,2671.86
-105.54081099,40.24229772,2673.59
-105.54081099,40.24229754,2674.04
-105.54081079,40.24227285,2669.50
-105.54081076,40.24226889,2675.24
-105.54081063,40.24225231,2677.78
-105.54081062,40.24225141,2673.42
-105.54081061,40.24224943,2672.18
-105.54081057,40.24224537,2672.74
-105.54081030,40.24221051,2671.47
-105.54081025,40.24220420,2670.01
-105.54081013,40.24218916,2670.32
-105.54080979,40.24214627,2672.96
-105.54080917,40.24206943,2671.64
-105.54080873,40.24201312,2670.41
-105.54080848,40.24198240,2670.46
-105.54080767,40.24188078,2671.44
-105.54080727,40.24182952,2670.92
-105.54080721,40.24182276,2670.98
-105.54080710,40.24180862,2671.06
-105.54080706,40.24180375,2671.07
-105.54080595,40.24166357,2670.55
-105.54080575,40.24163934,2670.37
-105.54080524,40.24157519,2674.75
-105.54080486,40.24152735,2668.69
-105.54080411,40.24143240,2669.80
-105.54080397,40.24141573,2676.06
-105.54080389,40.24140519,2672.68
-105.54080376,40.24138889,2667.66
-105.54080371,40.24138303,2672.82
-105.54080370,40.24138141,2674.86
-105.54080354,40.24136123,2672.43
-105.54080322,40.24132051,2667.43
-105.54080228,40.24120348,2666.50
-105.54080164,40.24112276,2666.27
-105.54080075,40.24101087,2668.94
-105.54080075,40.24101060,2666.73
-105.54080069,40.24100348,2668.13
-105.54080003,40.24092042,2665.06
-105.54079983,40.24089528,2665.24
-105.54079961,40.24086681,2665.25
-105.54079941,40.24084204,2665.14
-105.54079833,40.24070645,2666.55
-105.54079800,40.24066537,2665.19
-105.54079731,40.24057852,2665.54
-105.54079717,40.24056042,2665.74
-105.54079555,40.24035753,2665.71
-105.54079476,40.24025762,2665.41
-105.54079464,40.24024240,2665.47
-105.54079308,40.24004636,2665.15
-105.54079286,40.24001960,2669.63
-105.54079246,40.23996897,2664.88
-105.54079233,40.23995303,2669.03
-105.54079222,40.23993834,2667.19
-105.54079221,40.23993726,2668.71
-105.54078946,40.23959168,2666.10
-105.54078923,40.23956231,2663.94
-105.54078922,40.23956140,2663.96
-105.54078912,40.23954951,2663.71
-105.54078823,40.23943681,2662.09
-105.54078817,40.23942969,2668.38
-105.54078814,40.23942627,2672.43
-105.54078751,40.23934717,2661.89
-105.54078748,40.23934276,2665.06
-105.54078728,40.23931762,2664.25
-105.54078675,40.23925104,2661.81
-105.54078652,40.23922203,2662.67
-105.54078527,40.23906465,2662.43
-105.54078457,40.23897771,2665.70
-105.54078403,40.23890879,2663.72
-105.54078382,40.23888339,2663.96
-105.54078214,40.23867131,2663.28
-105.54078108,40.23853843,2667.94
-105.54078105,40.23853465,2663.26
-105.54078064,40.23848293,2663.36
-105.54078062,40.23848032,2663.34
-105.54078018,40.23842537,2663.35
-105.54077908,40.23828654,2670.88
-105.54077905,40.23828356,2670.96
-105.54077836,40.23819645,2668.36
-105.54077793,40.23814257,2663.76
-105.54077714,40.23804347,2661.56
-105.54077560,40.23784933,2659.84
-105.54077535,40.23781771,2662.56
-105.54077526,40.23780672,2667.89
-105.54077507,40.23778329,2658.38
-105.54077403,40.23765230,2658.48
-105.54077364,40.23760311,2657.64
-105.54077358,40.23759600,2659.38
-105.54077354,40.23759050,2665.12
-105.54077314,40.23754095,2658.14
-105.54077306,40.23752996,2658.16
-105.54077299,40.23752185,2658.22
-105.54077257,40.23746942,2668.98
-105.54077200,40.23739753,2664.96
-105.54077196,40.23739266,2663.18
-105.54077192,40.23738771,2658.25
-105.54077098,40.23726870,2658.04
-105.54077086,40.23725410,2657.98
-105.54077082,40.23724834,2658.02
-105.54077033,40.23718726,2658.10
-105.54076949,40.23708104,2658.02
-105.54076828,40.23692924,2663.91
-105.54076824,40.23692428,2663.78
-105.54076814,40.23691230,2663.05
-105.54076726,40.23680086,2656.81
-105.54076652,40.23670834,2660.07
-105.54076646,40.23670050,2664.86
-105.54076635,40.23668752,2656.38
-105.54076563,40.23659689,2655.94
-105.54076527,40.23655104,2655.67
-105.54076355,40.23633518,2655.37
-105.54076279,40.23623924,2650.99
-105.54076237,40.23618644,2649.70
-105.54076182,40.23611779,2648.38
-105.54076161,40.23609131,2654.82
-105.54076133,40.23605617,2656.82
-105.54076117,40.23603626,2660.88
-105.54076061,40.23596581,2659.44
-105.54076061,40.23596518,2659.41
-105.54076052,40.23595356,2650.12
-105.54075978,40.23586086,2665.43
-105.54075822,40.23566554,2656.96
-105.54075792,40.23562734,2657.07
-105.54075751,40.23557590,2664.70
-105.54075693,40.23550320,2657.89
-105.54075613,40.23540239,2658.41
-105.54075590,40.23537338,2666.87
-105.54075578,40.23535842,2669.14
-105.54075422,40.23517734,2672.46
-105.54075208,40.23517447,2672.11
-105.54073657,40.23517436,2660.94
-105.54072587,40.23517432,2670.81
-105.54068696,40.23517450,2670.45
-105.54059280,40.23517494,2669.06
-105.54058434,40.23517498,2668.85
-105.54020594,40.23517675,2663.58
-105.54003890,40.23517753,2651.62
-105.53971987,40.23517902,2645.42
-105.53966592,40.23517927,2644.00
-105.53966498,40.23517927,2645.91
-105.53965663,40.23517931,2643.83
-105.53964876,40.23517935,2643.63
-105.53962513,40.23517946,2647.73
-105.53961396,40.23517951,2647.71
-105.53958998,40.23517962,2654.88
-105.53958692,40.23517964,2654.96
-105.53958105,40.23517966,2654.64
-105.53956400,40.23517974,2654.50
-105.53955812,40.23517977,2654.26
-105.53950335,40.23518003,2641.16
-105.53940766,40.23518047,2640.23
-105.53939943,40.23518051,2640.17
-105.53939061,40.23518055,2640.06
-105.53935970,40.23518069,2646.35
-105.53919101,40.23518148,2638.15
-105.53902868,40.23518224,2649.62
-105.53901716,40.23518229,2650.74
-105.53887422,40.23518296,2638.02
-105.53886869,40.23518298,2638.10
-105.53886187,40.23518301,2646.99
-105.53886034,40.23518302,2645.66
-105.53885553,40.23518304,2641.30
-105.53878864,40.23518335,2635.24
-105.53875902,40.23518349,2635.21
-105.53875267,40.23518352,2635.04
-105.53872904,40.23518363,2644.44
-105.53861972,40.23518414,2642.17
-105.53861443,40.23518417,2640.70
-105.53854813,40.23518447,2641.00
-105.53854225,40.23518450,2642.18
-105.53848830,40.23518475,2633.59
-105.53836887,40.23518531,2643.26
-105.53836146,40.23518534,2646.30
-105.53809157,40.23518660,2631.41
-105.53802562,40.23518690,2636.76
-105.53768155,40.23518850,2629.28
-105.53765345,40.23518863,2632.57
-105.53762677,40.23518876,2628.68
-105.53755718,40.23518908,2628.37
-105.53746537,40.23518951,2627.94
-105.53745926,40.23518954,2627.90
-105.53744715,40.23518959,2627.76
-105.53744668,40.23518959,2640.88
-105.53742846,40.23518968,2628.64
-105.53716668,40.23519089,2626.02
-105.53705888,40.23519139,2626.48
-105.53700552,40.23519164,2635.35
-105.53687033,40.23519227,2636.83
-105.53685164,40.23519236,2625.84
-105.53677876,40.23519269,2636.11
-105.53675502,40.23519280,2635.92
-105.53675114,40.23519282,2635.30
-105.53674397,40.23519286,2635.11
-105.53663300,40.23519337,2624.03
-105.53658304,40.23519360,2626.36
-105.53648359,40.23519406,2622.23
-105.53644175,40.23519426,2621.53
-105.53633689,40.23519474,2620.76
-105.53627141,40.23519505,2620.39
-105.53616327,40.23519555,2619.86
-105.53612436,40.23519573,2626.85
-105.53605148,40.23519606,2618.94
-105.53604830,40.23519608,2621.23
-105.53598706,40.23519636,2618.70
-105.53590666,40.23519674,2637.01
-105.53577030,40.23519737,2624.92
-105.53574902,40.23519747,2619.69
-105.53573574,40.23519753,2617.36
-105.53557128,40.23519829,2626.48
-105.53555988,40.23519834,2623.65
-105.53553449,40.23519846,2617.51
-105.53536063,40.23519926,2616.30
-105.53535711,40.23519928,2615.38
-105.53526330,40.23519971,2618.65
-105.53515175,40.23520023,2615.84
-105.53514505,40.23520026,2616.86
-105.53513153,40.23520032,2618.54
-105.53505594,40.23520067,2616.59
-105.53504066,40.23520074,2614.70
-105.53503725,40.23520076,2620.87
-105.53490465,40.23520137,2619.19
-105.53488479,40.23520146,2614.23
-105.53484717,40.23520164,2618.29
-105.53483753,40.23520168,2615.10
-105.53467731,40.23520242,2613.86
-105.53462489,40.23520266,2617.35
-105.53462406,40.23520267,2617.63
-105.53456740,40.23520293,2613.51
-105.53454189,40.23520305,2613.42
-105.53445984,40.23520343,2616.37
-105.53438167,40.23520379,2614.25
-105.53434982,40.23520393,2616.09
-105.53434582,40.23520395,2614.90
-105.53428963,40.23520421,2616.34
-105.53427682,40.23520427,2613.30
-105.53424238,40.23520443,2613.21
-105.53421992,40.23520453,2623.34
-105.53416773,40.23520477,2622.41
-105.53401903,40.23520546,2612.54
-105.53395567,40.23520575,2619.44
-105.53373879,40.23520675,2618.46
-105.53361759,40.23520731,2625.00
-105.53353272,40.23520770,2609.93
-105.53348923,40.23520790,2609.55
-105.53344092,40.23520813,2623.60
-105.53341882,40.23520823,2609.14
-105.53340248,40.23520830,2613.10
-105.53331831,40.23520869,2622.50
-105.53326870,40.23520892,2615.65
-105.53311601,40.23520962,2607.62
-105.53309767,40.23520971,2616.87
-105.53308392,40.23520977,2611.50
-105.53296707,40.23521031,2609.92
-105.53294685,40.23521040,2614.95
-105.53290912,40.23521058,2609.19
-105.53279404,40.23521111,2605.66
-105.53268260,40.23521162,2605.38
-105.53244997,40.23521269,2613.77
-105.53224190,40.23521365,2606.28
-105.53218912,40.23521389,2601.85
-105.53205934,40.23521449,2601.45
-105.53203407,40.23521460,2601.21
-105.53200539,40.23521473,2601.03
-105.53191546,40.23521515,2600.55
-105.53180297,40.23521566,2599.70
-105.53163581,40.23521643,2602.48
-105.53162417,40.23521649,2599.02
-105.53154682,40.23521684,2599.74
-105.53124789,40.23521821,2608.93
-105.53124754,40.23521822,2610.23
-105.53124119,40.23521824,2607.00
-105.53122779,40.23521831,2603.62
-105.53105135,40.23521912,2594.72
-105.53094931,40.23521958,2594.21
-105.53093874,40.23521963,2603.55
-105.53090688,40.23521978,2607.78
-105.53090229,40.23521980,2606.34
-105.53089665,40.23521983,2602.92
-105.53087643,40.23521992,2593.78
-105.53086327,40.23521998,2593.78
-105.53084634,40.23522006,2593.74
-105.53079297,40.23522030,2593.65
-105.53078098,40.23522036,2593.62
-105.53077628,40.23522038,2593.61
-105.53076899,40.23522041,2593.58
-105.53067095,40.23522086,2593.53
-105.53060689,40.23522115,2593.85
-105.53053918,40.23522146,2594.29
-105.53049710,40.23522166,2603.21
-105.53043773,40.23522193,2597.08
-105.53027164,40.23522269,2592.48
-105.53002537,40.23522382,2590.96
-105.52995695,40.23522413,2594.64
-105.52994861,40.23522417,2594.80
-105.52993932,40.23522421,2590.76
-105.52987949,40.23522449,2590.64
-105.52975065,40.23522508,2589.94
-105.52973396,40.23522515,2594.89
-105.52967847,40.23522541,2589.80
-105.52967765,40.23522541,2589.77
-105.52956504,40.23522593,2589.61
-105.52955552,40.23522597,2588.75
-105.52954188,40.23522603,2598.22
-105.52954165,40.23522603,2598.12
-105.52938307,40.23522676,2587.08
-105.52934910,40.23522691,2586.94
-105.52927927,40.23522723,2590.20
-105.52926176,40.23522731,2586.53
-105.52921039,40.23522755,2588.92
-105.52912540,40.23522794,2585.79
-105.52905840,40.23522833,2585.78
-105.52901878,40.23522860,2585.71
-105.52900481,40.23523038,2585.58
-105.52900083,40.23523247,2585.63
-105.52900054,40.23524130,2585.86
-105.52900013,40.23526383,2585.76
-105.52899999,40.23530581,2585.76
-105.52900042,40.23536212,2586.04
-105.52900056,40.23538004,2585.75
-105.52900068,40.23539500,2585.82
-105.52900095,40.23542959,2585.74
-105.52900113,40.23545266,2588.36
-105.52900119,40.23546041,2590.35
-105.52900230,40.23560383,2586.69
-105.52900233,40.23560707,2589.95
-105.52900243,40.23562041,2592.53
-105.52900257,40.23563761,2586.77
-105.52900308,40.23570329,2589.21
-105.52900418,40.23584509,2587.51
-105.52900440,40.23587293,2587.39
-105.52900441,40.23587428,2587.35
-105.52900528,40.23598626,2587.49
-105.52900535,40.23599464,2587.46
-105.52900537,40.23599753,2587.49
-105.52900564,40.23603176,2587.66
-105.52900720,40.23623239,2587.76
-105.52900722,40.23623536,2587.73
-105.52900739,40.23625663,2587.99
-105.52900816,40.23635627,2589.60
-105.52900841,40.23638762,2596.95
-105.52900854,40.23640437,2596.23
-105.52900991,40.23658158,2590.42
-105.52901362,40.23701248,2589.19
-105.52901524,40.23726636,2589.42
-105.52901608,40.23737438,2589.44
-105.52901615,40.23738276,2592.08
-105.52901618,40.23738618,2596.95
-105.52901618,40.23738645,2597.99
-105.52901649,40.23742708,2596.17
-105.52901744,40.23754915,2589.53
-105.52901880,40.23772366,2589.16
-105.52901886,40.23773168,2589.12
-105.52901978,40.23784970,2591.34
-105.52902018,40.23790006,2593.78
-105.52902022,40.23790636,2591.77
-105.52902028,40.23791375,2594.31
-105.52902077,40.23797591,2593.70
-105.52902126,40.23803898,2589.90
-105.52902133,40.23804807,2589.95
-105.52902153,40.23807357,2595.94
-105.52902153,40.23807465,2593.15
-105.52902166,40.23809078,2589.99
-105.52902260,40.23821123,2594.84
-105.52902284,40.23824231,2596.84
-105.52902296,40.23825753,2601.27
-105.52902319,40.23828762,2591.22
-105.52902408,40.23840132,2591.78
-105.52902436,40.23843736,2591.84
-105.52902452,40.23845781,2591.96
-105.52902452,40.23845853,2592.02
-105.52902456,40.23846393,2592.03
-105.52902494,40.23851168,2592.08
-105.52902545,40.23857718,2592.78
-105.52902558,40.23859429,2596.31
-105.52902558,40.23859438,2592.96
-105.52902565,40.23860375,2605.18
-105.52902571,40.23861078,2601.66
-105.52902609,40.23865952,2600.30
-105.52902623,40.23867862,2593.42
-105.52902734,40.23882042,2595.02
-105.52902784,40.23888465,2606.19
-105.52902787,40.23888916,2608.43
-105.52902794,40.23889790,2595.77
-105.52902845,40.23896384,2610.34
-105.52902914,40.23905204,2596.51
-105.52903012,40.23917754,2606.38
-105.52903112,40.23930646,2603.17
-105.52903123,40.23932069,2596.62
-105.52903144,40.23934790,2596.59
-105.52903226,40.23945286,2596.73
-105.52903250,40.23948421,2596.89
-105.52903312,40.23956304,2598.64
-105.52903320,40.23957331,2596.82
-105.52903368,40.23963529,2596.79
-105.52903455,40.23974736,2612.02
-105.52903469,40.23976439,2603.33
-105.52903472,40.23976889,2608.82
-105.52903510,40.23981763,2611.96
-105.52903514,40.23982214,2611.50
-105.52903526,40.23983781,2596.89
-105.52903538,40.23985376,2602.25
-105.52903604,40.23993880,2602.53
-105.52903626,40.23996628,2596.34
-105.52903689,40.24004799,2595.86
-105.52903779,40.24016268,2594.81
-105.52903964,40.24040106,2602.77
-105.52903980,40.24042142,2595.02
-105.52904053,40.24051493,2599.77
-105.52904068,40.24053403,2602.13
-105.52904127,40.24060998,2602.36
-105.52904162,40.24065484,2601.89
-105.52904189,40.24068935,2599.70
-105.52904295,40.24082583,2595.94
-105.52904458,40.24103511,2594.94
-105.52904524,40.24112079,2604.08
-105.52904550,40.24115403,2603.60
-105.52904592,40.24120737,2601.82
-105.52904641,40.24127115,2605.25
-105.52904667,40.24130349,2607.78
-105.52904689,40.24133286,2604.96
-105.52904733,40.24138908,2603.64
-105.52904744,40.24140331,2604.43
-105.52904755,40.24141683,2609.21
-105.52904782,40.24145160,2605.43
-105.52904786,40.24145683,2604.19
-105.52904791,40.24146295,2597.04
-105.52904791,40.24146394,2605.26
-105.52904802,40.24147719,2598.79
-105.52904828,40.24151079,2606.03
-105.52904842,40.24152827,2605.87
-105.52904850,40.24153971,2601.85
-105.52904855,40.24154566,2594.77
-105.52904855,40.24154593,2603.65
-105.52904917,40.24162457,2604.76
-105.52904923,40.24163250,2595.59
-105.52904974,40.24169890,2596.31
-105.52905042,40.24178575,2611.89
-105.52905138,40.24190953,2598.76
-105.52905242,40.24204331,2600.51
-105.52905257,40.24206169,2600.88
-105.52905402,40.24224809,2604.20
-105.52905457,40.24231908,2607.81
-105.52905473,40.24234007,2608.20
-105.52905583,40.24248034,2612.63
-105.52905589,40.24248809,2612.90
-105.52905643,40.24255809,2613.41
-105.52905748,40.24269278,2618.37
-105.52905840,40.24281125,2611.67
-105.52905879,40.24286098,2610.95
-105.52905885,40.24286935,2610.61
-105.52905897,40.24288359,2610.01
-105.52905913,40.24290476,2610.74
-105.52905917,40.24291044,2615.37
-105.52905921,40.24291548,2616.89
-105.52905932,40.24292917,2609.11
-105.52905959,40.24296368,2609.76
-105.52905966,40.24297260,2608.53
-105.52905997,40.24301242,2607.34
-105.52906005,40.24302287,2607.15
-105.52906005,40.24302332,2607.16
-105.52906022,40.24304512,2607.12
-105.52906055,40.24308728,2610.60
-105.52906076,40.24311449,2606.26
-105.52906088,40.24312945,2607.33
-105.52906093,40.24313629,2613.74
-105.52906095,40.24313845,2615.46
-105.52906095,40.24313908,2614.88
-105.52906097,40.24314161,2618.64
-105.52906103,40.24314854,2610.41
-105.52906125,40.24317692,2614.52
-105.52906155,40.24321530,2611.57
-105.52906206,40.24328089,2608.63
-105.52906250,40.24333728,2612.11
-105.52906356,40.24347314,2611.70
-105.52906369,40.24348990,2611.84
-105.52906404,40.24353566,2612.81
-105.52906416,40.24355026,2610.61
-105.52906418,40.24355368,2605.73
-105.52906419,40.24355431,2611.23
-105.52906421,40.24355665,2605.65
-105.52906421,40.24355755,2614.06
-105.52906460,40.24360791,2603.90
-105.52906535,40.24370350,2602.48
-105.52906598,40.24378422,2599.49
-105.52906704,40.24392089,2597.89
-105.52906717,40.24393737,2610.54
-105.52906748,40.24397702,2608.82
-105.52906766,40.24399990,2613.41
-105.52906767,40.24400206,2613.25
-105.52906773,40.24400981,2609.74
-105.52906804,40.24404945,2612.11
-105.52906822,40.24407260,2606.62
-105.52906835,40.24408900,2611.11
-105.52906857,40.24411711,2596.06
-105.52906869,40.24413287,2601.50
-105.52906875,40.24413999,2596.05
-105.52906888,40.24415675,2602.06
-105.52906907,40.24418179,2598.80
-105.52906936,40.24421855,2604.87
-105.52907009,40.24423737,2595.77
-105.52907856,40.24423742,2595.98
-105.52917743,40.24423697,2601.99
-105.52921035,40.24423682,2596.41
-105.52934261,40.24423622,2603.42
-105.52949498,40.24423552,2602.15
-105.52949533,40.24423552,2602.14
-105.52950603,40.24423547,2598.20
-105.52954388,40.24423530,2598.58
-105.52957046,40.24423518,2598.88
-105.52958903,40.24423509,2599.23
-105.52960937,40.24423500,2599.30
-105.52965569,40.24423479,2606.21
-105.52968050,40.24423467,2614.44
-105.52977843,40.24423422,2600.63
-105.52986367,40.24423383,2608.71
-105.52986790,40.24423381,2608.70
-105.52988459,40.24423374,2614.29
-105.52991586,40.24423359,2608.53
-105.53005448,40.24423296,2618.61
-105.53013395,40.24423259,2615.21
-105.53027385,40.24423195,2607.49
-105.53031641,40.24423176,2608.22
-105.53045667,40.24423112,2622.13
-105.53045796,40.24423111,2616.70
-105.53048171,40.24423100,2623.30
-105.53053673,40.24423075,2620.69
-105.53059140,40.24423050,2620.30
-105.53060527,40.24423044,2620.45
-105.53062197,40.24423036,2614.58
-105.53063125,40.24423032,2614.76
-105.53066547,40.24423016,2627.10
-105.53092505,40.24422897,2621.55
-105.53127469,40.24422736,2626.93
-105.53129104,40.24422729,2627.07
-105.53137898,40.24422689,2635.51
-105.53157155,40.24422600,2625.33
-105.53161152,40.24422582,2630.68
-105.53173156,40.24422527,2627.75
-105.53174590,40.24422520,2626.16
-105.53175813,40.24422514,2631.45
-105.53179622,40.24422497,2634.50
-105.53180492,40.24422493,2633.10
-105.53195481,40.24422424,2626.23
-105.53196481,40.24422419,2626.14
-105.53208284,40.24422365,2625.32
-105.53220076,40.24422311,2624.54
-105.53233585,40.24422249,2627.00
-105.53241450,40.24422213,2625.54
-105.53241932,40.24422210,2630.01
-105.53251807,40.24422165,2621.40
-105.53252172,40.24422163,2627.03
-105.53253994,40.24422155,2631.37
-105.53266174,40.24422099,2632.10
-105.53266586,40.24422097,2631.09
-105.53267491,40.24422093,2620.49
-105.53281516,40.24422028,2619.97
-105.53309662,40.24421899,2630.07
-105.53324111,40.24421832,2620.38
-105.53329201,40.24421809,2631.58
-105.53332963,40.24421791,2637.05
-105.53334210,40.24421785,2620.27
-105.53334797,40.24421783,2633.42
-105.53335585,40.24421779,2638.82
-105.53340946,40.24421754,2626.36
-105.53356018,40.24421685,2620.57
-105.53360427,40.24421665,2620.92
-105.53389089,40.24421532,2631.58
-105.53390065,40.24421528,2629.37
     </coordinates>
    </LineString>
   </MultiGeometry>
  </Placemark>
 </Document>
</kml>
