<kml>
 <Document>
  <Style id="yellow">
   <LineStyle>
   <color>ff00ffff</color>
   <width>1</width>
   </LineStyle>
  </Style>
  <Style id="red">
   <LineStyle>
   <color>ffff0000</color>
   <width>2</width>
   </LineStyle>
  </Style>
  <Style id="green">
   <LineStyle>
   <color>ff00ff00</color>
   <width>1</width>
   </LineStyle>
  </Style>
  <Placemark>
  <styleUrl>#yellow</styleUrl>
   <MultiGeometry>
    <LineString>
     <coordinates>
-105.49983225,40.28040478,2837.71
-105.49984989,40.28040470,2838.59
-105.49985319,40.28040469,2839.64
-105.50001246,40.28040400,2832.79
-105.50016949,40.28040332,2830.33
-105.50018820,40.28040324,2824.91
-105.50019514,40.28040321,2827.44
-105.50040475,40.28040230,2837.75
-105.50040769,40.28040229,2838.90
-105.50044439,40.28040213,2826.37
-105.50057367,40.28040157,2826.88
-105.50062872,40.28040133,2844.11
-105.50063225,40.28040132,2828.43
-105.50077481,40.28040070,2838.03
-105.50095455,40.28039992,2839.19
-105.50095655,40.28039992,2840.18
-105.50095808,40.28039991,2840.92
-105.50101925,40.28039964,2839.78
-105.50106230,40.28039946,2837.67
-105.50116581,40.28039901,2845.05
-105.50124345,40.28039867,2844.71
-105.50125180,40.28039864,2856.93
-105.50127156,40.28039855,2859.96
-105.50130144,40.28039842,2853.72
-105.50136849,40.28039813,2850.36
-105.50137837,40.28039809,2853.63
-105.50146083,40.28039773,2866.86
-105.50153964,40.28039739,2857.89
-105.50157199,40.28039725,2868.04
-105.50175749,40.28039644,2866.40
-105.50182748,40.28039614,2880.22
-105.50204568,40.28039519,2900.85
-105.50228517,40.28039416,2926.05
-105.50236446,40.28039381,2933.40
-105.50245832,40.28039340,2929.67
-105.50251608,40.28039315,2923.78
-105.50259313,40.28039282,2925.15
-105.50263406,40.28039264,2926.00
-105.50267606,40.28039246,2926.46
-105.50283980,40.28039175,2941.64
-105.50286026,40.28039166,2936.06
-105.50287403,40.28039160,2933.56
-105.50288826,40.28039154,2931.00
-105.50312164,40.28039052,2938.80
-105.50313175,40.28039048,2934.98
-105.50318221,40.28039026,2936.29
-105.50329902,40.28038975,2938.71
-105.50333596,40.28038959,2940.40
-105.50346453,40.28038903,2944.04
-105.50350570,40.28038885,2958.48
-105.50350746,40.28038884,2958.41
-105.50363085,40.28038831,2946.06
-105.50366014,40.28038818,2956.43
-105.50367391,40.28038812,2956.44
-105.50367967,40.28038809,2955.37
-105.50368249,40.28038808,2954.72
-105.50368837,40.28038806,2953.74
-105.50369378,40.28038803,2952.53
-105.50370414,40.28038799,2972.25
-105.50370814,40.28038797,2949.95
-105.50377260,40.28038769,2952.64
-105.50378212,40.28038765,2956.16
-105.50378483,40.28038764,2957.66
-105.50383717,40.28038741,2978.23
-105.50384317,40.28038738,2977.40
-105.50396245,40.28038686,2964.62
-105.50396504,40.28038685,2966.17
-105.50396810,40.28038684,2966.87
-105.50398256,40.28038677,2972.21
-105.50415183,40.28038604,2977.11
-105.50415442,40.28038603,2978.14
-105.50415724,40.28038601,2978.92
-105.50435463,40.28038515,3005.55
-105.50441850,40.28038487,3009.01
-105.50449155,40.28038456,3011.43
-105.50466070,40.28038382,3019.70
-105.50466258,40.28038381,3020.71
-105.50466505,40.28038380,3021.43
-105.50481856,40.28038313,3028.71
-105.50484985,40.28038299,3041.95
-105.50485384,40.28038298,3043.46
-105.50489643,40.28038279,3041.07
-105.50490219,40.28038276,3039.96
-105.50503464,40.28038219,3036.68
-105.50511945,40.28038182,3043.43
-105.50512439,40.28038180,3045.89
-105.50512980,40.28038177,3048.24
-105.50526614,40.28038118,3055.20
-105.50538365,40.28038066,3058.20
-105.50539270,40.28038062,3058.71
-105.50546493,40.28038031,3062.85
-105.50554421,40.28037996,3080.28
-105.50566231,40.28037945,3074.48
-105.50566749,40.28037942,3075.00
-105.50582029,40.28037876,3083.99
-105.50582440,40.28037820,3085.24
-105.50582433,40.28036892,3093.58
-105.50582414,40.28034342,3092.96
-105.50582413,40.28034225,3087.06
-105.50582406,40.28033225,3086.39
-105.50582394,40.28031685,3084.53
-105.50582335,40.28023793,3072.97
-105.50582279,40.28016216,3068.53
-105.50582226,40.28009099,3077.08
-105.50582220,40.28008279,3080.69
-105.50582218,40.28007982,3075.77
-105.50582217,40.28007865,3081.62
-105.50582203,40.28006000,3071.41
-105.50582185,40.28003676,3079.50
-105.50582183,40.28003378,3083.89
-105.50582181,40.28003108,3086.56
-105.50582180,40.28002937,3082.96
-105.50582180,40.28002928,3079.69
-105.50582166,40.28001117,3070.13
-105.50582147,40.27998450,3083.60
-105.50582068,40.27987964,3090.65
-105.50582055,40.27986153,3092.42
-105.50582052,40.27985757,3084.77
-105.50581991,40.27977639,3086.98
-105.50581991,40.27977513,3086.46
-105.50581911,40.27966784,3072.32
-105.50581844,40.27957883,3063.30
-105.50581763,40.27946919,3041.73
-105.50581706,40.27939288,3034.52
-105.50581683,40.27936315,3033.88
-105.50581671,40.27934676,3033.38
-105.50581663,40.27933630,3032.91
-105.50581659,40.27933063,3033.60
-105.50581651,40.27932000,3034.09
-105.50581635,40.27929874,3035.75
-105.50581634,40.27929621,3035.70
-105.50581620,40.27927820,3035.47
-105.50581614,40.27926937,3034.45
-105.50581602,40.27925360,3032.96
-105.50581585,40.27923072,3043.27
-105.50581582,40.27922757,3041.44
-105.50581570,40.27921144,3040.04
-105.50581566,40.27920612,3031.50
-105.50581551,40.27918549,3028.47
-105.50581494,40.27910829,3033.78
-105.50581469,40.27907468,3035.51
-105.50581466,40.27907081,3028.99
-105.50581465,40.27906946,3032.83
-105.50581455,40.27905702,3033.56
-105.50581434,40.27902829,3029.15
-105.50581421,40.27901144,3040.84
-105.50581407,40.27899225,3039.19
-105.50581328,40.27888585,3047.20
-105.50581325,40.27888252,3033.61
-105.50581321,40.27887684,3038.47
-105.50581318,40.27887216,3041.86
-105.50581293,40.27883964,3030.66
-105.50581213,40.27873243,3045.20
-105.50581193,40.27870477,3033.36
-105.50581135,40.27862684,3034.43
-105.50581135,40.27862666,3045.17
-105.50581133,40.27862504,3046.51
-105.50581107,40.27858946,3046.25
-105.50581105,40.27858630,3038.57
-105.50581071,40.27854135,3044.23
-105.50580996,40.27844081,3050.01
-105.50580974,40.27841090,3052.91
-105.50580974,40.27841063,3051.83
-105.50580917,40.27833504,3037.16
-105.50580872,40.27827360,3051.24
-105.50580838,40.27822838,3036.95
-105.50580763,40.27812765,3039.29
-105.50580732,40.27808621,3039.84
-105.50580700,40.27804342,3054.72
-105.50580668,40.27800072,3041.19
-105.50580601,40.27791063,3043.02
-105.50580598,40.27790684,3057.19
-105.50580598,40.27790621,3054.86
-105.50580590,40.27789621,3045.48
-105.50580573,40.27787306,3044.42
-105.50580561,40.27785639,3059.42
-105.50580552,40.27784522,3057.54
-105.50580551,40.27784306,3055.86
-105.50580543,40.27783279,3054.91
-105.50580543,40.27783207,3062.68
-105.50580537,40.27782486,3064.23
-105.50580478,40.27774612,3059.90
-105.50580472,40.27773711,3049.20
-105.50580468,40.27773261,3053.82
-105.50580435,40.27768756,3062.00
-105.50580425,40.27767459,3062.30
-105.50580422,40.27767081,3052.93
-105.50580241,40.27742765,3076.79
-105.50580239,40.27742477,3079.25
-105.50580216,40.27739360,3069.48
-105.50580208,40.27738306,3064.58
-105.50580159,40.27731747,3067.82
-105.50580136,40.27728657,3077.26
-105.50580121,40.27726612,3072.70
-105.50580082,40.27721468,3073.36
-105.50580048,40.27716855,3076.39
-105.50580039,40.27715612,3081.66
-105.50580034,40.27714982,3079.00
-105.50579977,40.27707342,3087.55
-105.50579975,40.27707063,3087.69
-105.50579973,40.27706792,3087.94
-105.50579962,40.27705324,3087.94
-105.50579926,40.27700522,3087.96
-105.50579905,40.27697594,3083.64
-105.50579892,40.27695846,3092.56
-105.50579877,40.27693919,3095.57
-105.50579877,40.27693882,3092.44
-105.50579854,40.27690765,3087.74
-105.50579844,40.27689405,3088.18
-105.50579840,40.27688873,3090.20
-105.50579825,40.27686937,3085.81
-105.50579812,40.27685171,3086.35
-105.50579810,40.27684855,3094.69
-105.50579805,40.27684225,3096.95
-105.50579797,40.27683162,3097.18
-105.50579786,40.27681630,3093.78
-105.50579766,40.27679054,3087.34
-105.50579763,40.27678657,3094.23
-105.50579752,40.27677108,3098.96
-105.50579741,40.27675684,3087.92
-105.50579730,40.27674153,3087.95
-105.50579659,40.27664621,3101.25
-105.50579650,40.27663396,3100.77
-105.50579608,40.27657729,3097.72
-105.50579592,40.27655603,3097.22
-105.50579560,40.27651405,3090.67
-105.50579532,40.27647603,3090.87
-105.50579463,40.27638342,3091.13
-105.50579430,40.27633882,3100.03
-105.50579416,40.27632000,3104.27
-105.50579397,40.27629477,3094.07
-105.50579382,40.27627414,3099.43
-105.50579324,40.27619693,3098.13
-105.50579314,40.27618387,3102.47
-105.50579313,40.27618189,3095.74
-105.50579305,40.27617099,3091.01
-105.50579107,40.27590531,3101.16
-105.50579102,40.27589873,3092.33
-105.50579100,40.27589648,3099.04
-105.50579082,40.27587135,3087.10
-105.50579081,40.27587090,3087.09
-105.50579081,40.27587008,3093.27
-105.50579080,40.27586981,3097.97
-105.50579079,40.27586837,3092.94
-105.50579078,40.27586711,3098.05
-105.50579078,40.27586657,3098.32
-105.50579078,40.27586639,3098.36
-105.50579068,40.27585306,3086.78
-105.50579066,40.27585036,3096.89
-105.50579060,40.27584279,3087.57
-105.50578976,40.27573026,3098.47
-105.50578967,40.27571810,3100.29
-105.50578963,40.27571279,3085.55
-105.50578945,40.27568801,3085.05
-105.50578917,40.27565053,3090.50
-105.50578908,40.27563792,3097.20
-105.50578907,40.27563675,3099.84
-105.50578883,40.27560450,3083.86
-105.50578793,40.27548351,3086.49
-105.50578671,40.27532026,3080.48
-105.50578624,40.27525729,3078.97
-105.50578503,40.27509441,3075.91
-105.50578486,40.27507198,3075.80
-105.50578478,40.27506143,3084.02
-105.50578477,40.27505954,3083.46
-105.50578452,40.27502648,3074.85
-105.50578451,40.27502468,3079.80
-105.50578419,40.27498153,3078.73
-105.50578401,40.27495792,3082.35
-105.50578400,40.27495720,3082.18
-105.50578396,40.27495153,3081.46
-105.50578384,40.27493486,3086.18
-105.50578272,40.27478477,3080.48
-105.50578256,40.27476333,3079.97
-105.50578250,40.27475594,3076.75
-105.50578234,40.27473324,3073.00
-105.50578220,40.27471486,3072.83
-105.50578216,40.27470927,3072.90
-105.50578115,40.27457396,3080.47
-105.50578096,40.27454873,3078.61
-105.50578065,40.27450729,3071.27
-105.50578044,40.27447837,3079.41
-105.50578031,40.27446116,3077.99
-105.50578025,40.27445324,3070.80
-105.50577973,40.27438423,3071.45
-105.50577886,40.27426729,3078.30
-105.50577814,40.27416999,3069.01
-105.50577811,40.27416675,3080.46
-105.50577811,40.27416612,3075.52
-105.50577808,40.27416197,3075.02
-105.50577804,40.27415729,3079.33
-105.50577803,40.27415585,3074.28
-105.50577747,40.27408008,3072.30
-105.50577709,40.27402882,3076.80
-105.50577663,40.27396792,3066.95
-105.50577658,40.27396017,3075.09
-105.50577614,40.27390233,3075.34
-105.50577548,40.27381351,3072.49
-105.50577383,40.27359179,3068.13
-105.50577350,40.27354756,3076.45
-105.50577333,40.27352423,3069.08
-105.50577316,40.27350152,3074.10
-105.50577313,40.27349828,3076.83
-105.50577283,40.27345801,3075.67
-105.50577283,40.27345684,3075.93
-105.50577269,40.27343837,3074.02
-105.50577248,40.27340990,3069.71
-105.50577234,40.27339152,3069.70
-105.50577219,40.27337125,3076.98
-105.50577184,40.27332432,3078.58
-105.50577165,40.27329882,3076.22
-105.50577045,40.27313810,3072.88
-105.50576982,40.27305395,3073.69
-105.50576906,40.27295080,3086.54
-105.50576875,40.27291035,3082.77
-105.50576846,40.27287134,3074.21
-105.50576822,40.27283873,3074.54
-105.50576810,40.27282269,3074.70
-105.50576807,40.27281873,3074.87
-105.50576804,40.27281449,3074.78
-105.50576772,40.27277143,3075.02
-105.50576760,40.27275585,3075.00
-105.50576745,40.27273585,3075.04
-105.50576690,40.27266179,3076.10
-105.50576685,40.27265422,3077.68
-105.50576680,40.27264828,3075.77
-105.50576646,40.27260179,3082.64
-105.50576645,40.27260116,3079.76
-105.50576643,40.27259882,3082.67
-105.50576643,40.27259873,3078.65
-105.50576639,40.27259305,3080.01
-105.50576619,40.27256548,3076.47
-105.50576584,40.27251909,3077.11
-105.50576537,40.27245566,3080.88
-105.50576409,40.27228458,3088.04
-105.50576401,40.27227341,3089.56
-105.50576345,40.27219801,3088.85
-105.50576264,40.27209008,3088.92
-105.50576250,40.27207116,3083.73
-105.50576247,40.27206720,3083.79
-105.50576205,40.27200990,3083.84
-105.50576167,40.27195972,3089.98
-105.50576155,40.27194386,3092.59
-105.50576098,40.27186729,3091.05
-105.50576030,40.27177494,3091.04
-105.50576016,40.27175738,3086.49
-105.50576013,40.27175305,3086.56
-105.50576003,40.27173945,3091.55
-105.50575998,40.27173260,3095.37
-105.50575995,40.27172873,3091.39
-105.50575974,40.27170035,3087.23
-105.50575912,40.27161765,3088.85
-105.50575896,40.27159620,3089.27
-105.50575894,40.27159332,3094.59
-105.50575891,40.27158873,3089.49
-105.50575875,40.27156728,3098.22
-105.50575768,40.27142395,3094.99
-105.50575731,40.27137368,3098.23
-105.50575622,40.27137026,3092.35
-105.50575587,40.27137008,3092.35
-105.50575293,40.27136992,3092.29
-105.50571705,40.27136998,3091.68
-105.50547924,40.27137102,3085.33
-105.50546066,40.27137110,3091.31
-105.50544313,40.27137118,3086.65
-105.50543572,40.27137121,3089.71
-105.50543219,40.27137123,3083.74
-105.50510217,40.27137267,3073.42
-105.50492904,40.27137342,3068.44
-105.50492010,40.27137346,3068.20
-105.50486706,40.27137369,3067.07
-105.50476791,40.27137413,3068.09
-105.50462419,40.27137475,3059.06
-105.50461113,40.27137481,3069.13
-105.50453045,40.27137516,3056.00
-105.50452386,40.27137519,3059.97
-105.50450975,40.27137525,3060.64
-105.50446811,40.27137543,3058.61
-105.50443412,40.27137558,3053.19
-105.50438261,40.27137581,3051.89
-105.50435191,40.27137594,3051.01
-105.50432333,40.27137607,3051.19
-105.50415573,40.27137680,3061.01
-105.50406211,40.27137720,3046.03
-105.50399601,40.27137749,3049.57
-105.50392991,40.27137778,3051.54
-105.50392768,40.27137779,3052.19
-105.50389298,40.27137794,3042.59
-105.50383982,40.27137817,3041.72
-105.50377208,40.27137847,3045.30
-105.50376478,40.27137850,3051.15
-105.50369516,40.27137880,3044.49
-105.50357860,40.27137931,3035.62
-105.50354414,40.27137946,3035.64
-105.50353262,40.27137951,3038.43
-105.50348675,40.27137971,3043.41
-105.50348498,40.27137972,3038.20
-105.50346816,40.27137979,3031.76
-105.50344499,40.27137989,3037.23
-105.50333467,40.27138037,3040.05
-105.50327810,40.27138062,3026.12
-105.50325999,40.27138070,3025.54
-105.50319495,40.27138098,3030.52
-105.50317660,40.27138106,3033.30
-105.50315766,40.27138114,3022.72
-105.50308204,40.27138147,3032.91
-105.50305969,40.27138157,3024.32
-105.50305934,40.27138157,3022.29
-105.50302276,40.27138173,3030.94
-105.50301382,40.27138177,3028.02
-105.50294702,40.27138206,3027.36
-105.50294384,40.27138207,3027.40
-105.50290644,40.27138223,3022.76
-105.50289127,40.27138230,3026.62
-105.50283340,40.27138255,3027.13
-105.50283211,40.27138256,3025.99
-105.50279071,40.27138274,3027.84
-105.50278353,40.27138277,3026.43
-105.50277706,40.27138279,3017.33
-105.50276260,40.27138286,3018.64
-105.50274743,40.27138292,3022.54
-105.50273919,40.27138296,3024.79
-105.50273472,40.27138298,3027.46
-105.50272120,40.27138304,3016.72
-105.50266463,40.27138328,3014.66
-105.50265169,40.27138334,3010.87
-105.50263311,40.27138342,3010.56
-105.50257689,40.27138366,3017.44
-105.50255572,40.27138376,3009.88
-105.50250467,40.27138398,3012.47
-105.50244257,40.27138425,3014.81
-105.50234789,40.27138466,3018.48
-105.50222840,40.27138518,3005.62
-105.50211949,40.27138565,3006.18
-105.50210925,40.27138569,3006.83
-105.50202022,40.27138608,2997.69
-105.50197306,40.27138629,3005.83
-105.50196553,40.27138632,2996.81
-105.50195883,40.27138635,3003.34
-105.50194859,40.27138639,3000.94
-105.50192107,40.27138651,3001.59
-105.50191249,40.27138655,2996.80
-105.50183463,40.27138689,3001.96
-105.50181710,40.27138696,3001.19
-105.50179922,40.27138704,2996.96
-105.50179711,40.27138705,2999.11
-105.50171160,40.27138742,3004.28
-105.50159528,40.27138792,2991.35
-105.50157388,40.27138802,2996.64
-105.50152577,40.27138822,2996.11
-105.50148931,40.27138838,2988.99
-105.50145062,40.27138855,2988.08
-105.50136499,40.27138892,2990.15
-105.50133900,40.27138903,2993.12
-105.50132101,40.27138911,2999.36
-105.50129019,40.27138925,2984.81
-105.50115058,40.27138985,2989.17
-105.50111412,40.27139001,2984.87
-105.50108307,40.27139014,2979.83
-105.50105473,40.27139027,2980.94
-105.50104203,40.27139032,2984.29
-105.50100180,40.27139049,2979.13
-105.50093394,40.27139079,2981.49
-105.50091642,40.27139086,2985.73
-105.50091148,40.27139089,2986.96
-105.50090042,40.27139093,2987.89
-105.50088278,40.27139101,2982.68
-105.50083644,40.27139121,2981.09
-105.50082915,40.27139124,2977.03
-105.50080739,40.27139134,2982.81
-105.50079951,40.27139137,2984.30
-105.50079410,40.27139139,2976.50
-105.50076575,40.27139152,2976.09
-105.50072788,40.27139168,2977.98
-105.50071353,40.27139174,2975.80
-105.50071094,40.27139175,2976.09
-105.50065790,40.27139198,2974.83
-105.50059862,40.27139224,2974.35
-105.50057698,40.27139233,2974.20
-105.50050324,40.27139265,2980.10
-105.50049818,40.27139267,2981.98
-105.50046725,40.27139281,2972.94
-105.50044655,40.27139290,2980.27
-105.50043879,40.27139293,2972.66
-105.50041385,40.27139304,2972.79
-105.50028859,40.27139358,2972.27
-105.50027436,40.27139364,2974.01
-105.50019615,40.27139398,2972.01
-105.50014369,40.27139421,2972.02
-105.50002114,40.27139474,2972.61
-105.49984942,40.27139548,2970.07
-105.49976921,40.27139582,2977.36
-105.49945730,40.27139717,2965.55
-105.49942249,40.27139732,2957.17
-105.49937720,40.27139752,2964.03
-105.49934639,40.27139765,2961.41
-105.49934169,40.27139767,2961.64
-105.49931652,40.27139778,2954.37
-105.49929358,40.27139788,2957.68
-105.49928370,40.27139792,2961.80
-105.49926759,40.27139799,2951.59
-105.49926135,40.27139802,2952.34
-105.49919843,40.27139829,2949.64
-105.49919561,40.27139830,2949.59
-105.49915832,40.27139846,2957.18
-105.49911316,40.27139866,2947.18
-105.49909775,40.27139872,2953.73
-105.49903565,40.27139899,2947.94
-105.49902966,40.27139902,2950.41
-105.49896626,40.27139929,2953.01
-105.49894297,40.27139939,2947.01
-105.49893815,40.27139941,2941.78
-105.49891851,40.27139950,2953.57
-105.49887464,40.27139968,2939.98
-105.49885135,40.27139979,2950.41
-105.49884865,40.27139980,2950.54
-105.49882889,40.27139988,2944.69
-105.49882571,40.27139990,2941.98
-105.49882560,40.27139990,2938.55
-105.49875973,40.27140018,2943.76
-105.49874868,40.27140023,2948.20
-105.49874515,40.27140024,2944.89
-105.49870351,40.27140042,2934.89
-105.49864953,40.27140065,2932.93
-105.49863541,40.27140072,2938.21
-105.49859237,40.27140090,2933.71
-105.49858119,40.27140095,2942.18
-105.49857661,40.27140097,2931.05
-105.49857108,40.27140099,2939.99
-105.49854650,40.27140110,2934.73
-105.49851368,40.27140124,2933.65
-105.49851027,40.27140126,2937.50
-105.49850992,40.27140126,2936.58
-105.49850733,40.27140127,2934.70
-105.49850463,40.27140128,2936.29
-105.49849169,40.27140134,2930.40
-105.49849110,40.27140134,2928.32
-105.49848463,40.27140137,2930.04
-105.49846382,40.27140146,2927.69
-105.49846076,40.27140147,2927.60
-105.49845840,40.27140148,2927.53
-105.49845088,40.27140151,2927.37
-105.49840419,40.27140171,2926.17
-105.49834150,40.27140198,2934.27
-105.49834067,40.27140199,2924.56
-105.49833503,40.27140201,2929.13
-105.49831480,40.27140210,2923.94
-105.49830457,40.27140214,2928.38
-105.49828822,40.27140221,2934.20
-105.49828257,40.27140224,2931.42
-105.49823670,40.27140243,2922.62
-105.49819413,40.27140262,2926.40
-105.49818954,40.27140264,2924.59
-105.49815002,40.27140281,2923.57
-105.49814579,40.27140282,2923.78
-105.49805487,40.27140322,2918.84
-105.49800030,40.27140345,2925.31
-105.49797137,40.27140358,2921.66
-105.49796843,40.27140359,2922.34
-105.49790997,40.27140384,2919.71
-105.49784387,40.27140412,2912.71
-105.49779483,40.27140434,2911.57
-105.49777742,40.27140441,2919.97
-105.49772191,40.27140465,2917.65
-105.49770109,40.27140474,2909.08
-105.49761688,40.27140510,2905.91
-105.49758536,40.27140524,2913.34
-105.49756372,40.27140533,2904.44
-105.49753467,40.27140545,2912.94
-105.49752608,40.27140549,2915.01
-105.49752196,40.27140551,2903.06
-105.49743187,40.27140590,2914.10
-105.49741611,40.27140596,2900.40
-105.49738189,40.27140611,2908.45
-105.49725475,40.27140666,2900.88
-105.49724310,40.27140671,2910.41
-105.49717512,40.27140700,2895.85
-105.49713866,40.27140716,2896.54
-105.49712725,40.27140720,2894.65
-105.49708585,40.27140738,2896.91
-105.49704704,40.27140755,2896.75
-105.49699623,40.27140777,2891.37
-105.49693836,40.27140802,2897.23
-105.49693166,40.27140805,2902.91
-105.49687615,40.27140828,2887.28
-105.49681193,40.27140856,2890.84
-105.49666338,40.27140920,2887.55
-105.49666162,40.27140920,2890.87
-105.49665433,40.27140924,2891.23
-105.49665045,40.27140925,2891.38
-105.49663210,40.27140933,2885.91
-105.49654612,40.27140970,2876.40
-105.49654353,40.27140971,2876.32
-105.49653648,40.27140974,2884.05
-105.49644980,40.27141011,2873.75
-105.49641157,40.27141028,2872.95
-105.49630642,40.27141073,2870.43
-105.49618222,40.27141126,2872.74
-105.49617634,40.27141129,2865.42
-105.49614800,40.27141141,2875.39
-105.49614588,40.27141142,2873.63
-105.49614200,40.27141143,2873.84
-105.49608355,40.27141168,2862.56
-105.49606167,40.27141178,2868.48
-105.49600263,40.27141203,2860.65
-105.49594147,40.27141229,2871.16
-105.49592618,40.27141236,2872.51
-105.49588290,40.27141254,2864.57
-105.49584773,40.27141269,2868.90
-105.49583691,40.27141274,2861.10
-105.49579739,40.27141291,2857.28
-105.49577034,40.27141303,2862.11
-105.49568060,40.27141341,2858.93
-105.49567978,40.27141341,2851.81
-105.49561391,40.27141370,2858.07
-105.49560909,40.27141372,2862.05
-105.49560333,40.27141374,2853.95
-105.49556499,40.27141391,2864.69
-105.49553100,40.27141405,2851.42
-105.49548865,40.27141423,2861.74
-105.49548442,40.27141425,2848.38
-105.49548160,40.27141426,2859.59
-105.49547454,40.27141429,2857.37
-105.49547360,40.27141430,2845.94
-105.49544161,40.27141443,2851.06
-105.49539115,40.27141465,2857.67
-105.49538233,40.27141469,2854.79
-105.49537551,40.27141472,2849.69
-105.49536951,40.27141474,2855.53
-105.49531047,40.27141500,2846.54
-105.49529930,40.27141504,2845.18
-105.49529812,40.27141505,2848.47
-105.49529495,40.27141506,2842.64
-105.49523802,40.27141531,2854.38
-105.49523626,40.27141531,2857.45
-105.49519756,40.27141548,2840.81
-105.49515299,40.27141567,2840.02
-105.49512852,40.27141577,2848.20
-105.49511770,40.27141582,2845.00
-105.49509594,40.27141591,2840.82
-105.49505078,40.27141611,2845.32
-105.49502220,40.27141623,2836.96
-105.49499962,40.27141633,2841.47
-105.49493563,40.27141660,2840.22
-105.49491129,40.27141670,2838.08
-105.49483225,40.27141704,2835.44
-105.49466465,40.27141776,2829.42
-105.49465524,40.27141780,2834.97
-105.49459255,40.27141807,2840.87
-105.49459032,40.27141808,2842.27
-105.49454057,40.27141829,2835.67
-105.49453739,40.27141830,2827.27
-105.49453692,40.27141830,2835.85
-105.49450117,40.27141846,2828.69
-105.49445189,40.27141867,2826.14
-105.49444530,40.27141870,2831.92
-105.49440555,40.27141887,2825.45
-105.49437979,40.27141898,2825.01
-105.49430934,40.27141928,2830.09
-105.49429299,40.27141935,2832.51
-105.49427265,40.27141943,2823.61
-105.49406459,40.27142032,2826.09
-105.49405412,40.27142037,2820.85
-105.49399731,40.27142079,2823.13
-105.49399649,40.27142160,2824.10
-105.49399605,40.27142503,2822.67
-105.49399726,40.27159206,2828.75
-105.49399765,40.27164467,2827.75
-105.49399798,40.27169035,2825.81
-105.49399852,40.27176404,2814.52
-105.49399955,40.27190674,2812.11
-105.49400014,40.27198701,2810.36
-105.49400071,40.27206539,2822.97
-105.49400072,40.27206755,2809.08
-105.49400075,40.27207107,2822.91
-105.49400105,40.27211197,2808.47
-105.49400133,40.27215035,2809.37
-105.49400136,40.27215485,2821.56
-105.49400237,40.27229341,2806.66
-105.49400283,40.27235738,2806.21
-105.49400324,40.27241305,2817.48
-105.49400352,40.27245224,2804.91
-105.49400389,40.27250296,2804.55
-105.49400430,40.27255900,2804.05
-105.49400464,40.27260494,2804.23
-105.49400483,40.27263161,2803.61
-105.49400486,40.27263612,2803.59
-105.49400563,40.27274215,2802.53
-105.49400591,40.27277990,2801.98
-105.49400614,40.27281170,2801.82
-105.49400619,40.27281900,2801.77
-105.49400654,40.27286648,2808.45
-105.49400686,40.27291134,2800.77
-105.49400735,40.27297783,2800.53
-105.49400752,40.27300152,2800.69
-105.49400769,40.27302431,2800.70
-105.49400775,40.27303251,2800.83
-105.49400776,40.27303449,2800.86
-105.49400776,40.27303477,2800.84
-105.49400776,40.27303495,2800.83
-105.49400863,40.27315413,2801.28
-105.49401039,40.27339531,2802.66
-105.49401091,40.27346801,2802.59
-105.49401113,40.27349783,2810.84
-105.49401113,40.27349819,2806.53
-105.49401171,40.27357720,2802.43
-105.49401238,40.27366954,2809.36
-105.49401241,40.27367315,2802.15
-105.49401246,40.27368026,2807.30
-105.49401261,40.27370134,2801.91
-105.49401302,40.27375783,2801.18
-105.49401307,40.27376477,2802.33
-105.49401308,40.27376603,2807.08
-105.49401395,40.27388576,2802.38
-105.49401401,40.27389369,2803.28
-105.49401501,40.27403062,2791.17
-105.49401558,40.27410918,2786.11
-105.49401566,40.27411990,2791.40
-105.49401611,40.27418153,2791.65
-105.49401630,40.27420774,2794.13
-105.49401645,40.27422828,2779.81
-105.49401650,40.27423522,2780.68
-105.49401693,40.27429495,2786.04
-105.49401826,40.27447801,2773.59
-105.49401883,40.27455522,2762.68
-105.49401886,40.27456045,2774.50
-105.49401893,40.27456946,2768.61
-105.49401945,40.27464144,2758.40
-105.49401951,40.27464900,2763.56
-105.49401967,40.27467144,2756.99
-105.49402004,40.27472153,2754.13
-105.49402024,40.27474901,2759.37
-105.49402025,40.27475081,2759.41
-105.49402032,40.27476009,2759.81
-105.49402033,40.27476144,2759.76
-105.49402037,40.27476693,2759.46
-105.49402043,40.27477576,2761.79
-105.49402072,40.27481558,2761.05
-105.49402073,40.27481747,2767.33
-105.49402163,40.27494000,2752.15
-105.49402187,40.27497396,2756.14
-105.49402203,40.27499594,2754.08
-105.49402254,40.27506495,2741.36
-105.49402337,40.27517955,2744.19
-105.49402339,40.27518252,2752.85
-105.49402347,40.27519324,2738.57
-105.49402433,40.27531189,2753.59
-105.49402436,40.27531594,2742.01
-105.49402450,40.27533504,2754.67
-105.49402465,40.27535558,2742.17
-105.49402465,40.27535576,2752.00
-105.49402529,40.27544297,2745.19
-105.49402733,40.27572306,2753.68
-105.49402748,40.27574450,2757.75
-105.49402753,40.27575144,2757.86
-105.49402789,40.27580036,2753.14
-105.49402837,40.27586694,2761.85
-105.49402846,40.27587883,2762.49
-105.49402854,40.27588955,2760.77
-105.49402883,40.27592919,2759.60
-105.49402886,40.27593378,2759.25
-105.49402910,40.27596721,2764.27
-105.49402913,40.27597027,2764.83
-105.49402930,40.27599468,2767.52
-105.49402946,40.27601694,2758.49
-105.49402952,40.27602441,2758.90
-105.49402959,40.27603459,2763.91
-105.49402996,40.27608496,2761.42
-105.49403040,40.27614487,2769.74
-105.49403043,40.27614964,2770.56
-105.49403063,40.27617649,2764.03
-105.49403133,40.27627279,2766.96
-105.49403144,40.27628784,2782.10
-105.49403152,40.27629991,2767.80
-105.49403224,40.27639811,2774.65
-105.49403286,40.27648288,2779.98
-105.49403297,40.27649901,2777.25
-105.49403322,40.27653252,2781.76
-105.49403324,40.27653559,2781.82
-105.49403326,40.27653802,2783.18
-105.49403359,40.27658424,2778.22
-105.49403378,40.27660973,2784.47
-105.49403384,40.27661775,2778.80
-105.49403404,40.27664496,2779.23
-105.49403476,40.27674397,2779.10
-105.49403521,40.27680658,2779.67
-105.49403542,40.27683487,2780.19
-105.49403559,40.27685883,2782.36
-105.49403559,40.27685910,2780.64
-105.49403635,40.27696280,2784.46
-105.49403635,40.27696316,2782.79
-105.49403710,40.27706577,2779.88
-105.49403844,40.27725000,2779.38
-105.49403922,40.27735703,2775.88
-105.49403929,40.27736757,2778.26
-105.49403993,40.27745505,2772.97
-105.49404047,40.27752928,2769.21
-105.49404056,40.27754172,2766.96
-105.49404075,40.27756721,2771.21
-105.49404179,40.27771046,2767.17
-105.49404217,40.27776307,2761.07
-105.49404234,40.27778649,2760.63
-105.49404245,40.27780127,2767.29
-105.49404371,40.27797478,2751.53
-105.49404379,40.27798505,2751.10
-105.49404394,40.27800604,2752.91
-105.49404396,40.27800856,2750.28
-105.49404424,40.27804667,2750.68
-105.49404485,40.27813109,2750.76
-105.49404554,40.27822577,2743.76
-105.49404590,40.27827523,2742.16
-105.49404593,40.27827902,2742.06
-105.49404651,40.27835938,2751.50
-105.49404655,40.27836424,2752.81
-105.49404712,40.27844244,2740.35
-105.49404712,40.27844253,2740.38
-105.49404788,40.27854785,2732.82
-105.49404867,40.27865622,2730.27
-105.49404868,40.27865658,2730.27
-105.49404906,40.27870893,2730.26
-105.49404966,40.27879226,2735.35
-105.49405030,40.27887965,2731.36
-105.49405053,40.27891190,2732.06
-105.49405099,40.27897478,2744.67
-105.49405103,40.27897983,2745.10
-105.49405113,40.27899388,2746.34
-105.49405127,40.27901244,2732.54
-105.49405147,40.27904046,2732.41
-105.49405155,40.27905091,2732.34
-105.49405162,40.27906091,2732.27
-105.49405181,40.27908722,2745.18
-105.49405182,40.27908866,2740.39
-105.49405249,40.27917983,2735.78
-105.49405298,40.27924758,2728.91
-105.49405304,40.27925559,2742.40
-105.49405374,40.27935154,2732.94
-105.49405426,40.27942406,2725.17
-105.49405432,40.27943127,2726.34
-105.49405445,40.27944956,2726.48
-105.49405500,40.27952487,2727.36
-105.49405510,40.27953866,2729.00
-105.49405542,40.27958370,2731.18
-105.49405560,40.27960794,2723.51
-105.49405612,40.27967947,2723.30
-105.49405674,40.27976406,2731.53
-105.49405676,40.27976722,2728.27
-105.49405689,40.27978515,2721.92
-105.49405711,40.27981524,2721.99
-105.49405731,40.27984244,2721.93
-105.49405752,40.27987226,2726.06
-105.49405807,40.27994740,2722.18
-105.49405823,40.27996929,2727.10
-105.49405829,40.27997668,2722.20
-105.49405835,40.27998569,2722.19
-105.49405883,40.28005199,2728.05
-105.49405887,40.28005740,2727.89
-105.49405918,40.28009920,2723.75
-105.49405928,40.28011316,2730.33
-105.49405954,40.28014956,2731.48
-105.49405958,40.28015434,2733.62
-105.49405970,40.28017100,2722.95
-105.49405971,40.28017280,2727.81
-105.49406002,40.28021524,2729.42
-105.49406008,40.28022289,2728.74
-105.49406013,40.28022965,2729.82
-105.49406033,40.28025686,2730.17
-105.49406052,40.28028389,2726.87
-105.49406084,40.28032767,2729.95
-105.49406171,40.28041470,2724.15
-105.49406189,40.28042307,2728.14
-105.49406215,40.28042677,2730.39
-105.49406252,40.28042857,2728.67
-105.49406523,40.28042928,2727.75
-105.49407711,40.28042950,2724.66
-105.49413263,40.28042926,2729.46
-105.49418556,40.28042903,2729.41
-105.49423156,40.28042884,2736.83
-105.49423814,40.28042881,2734.68
-105.49424355,40.28042878,2739.52
-105.49430555,40.28042852,2733.21
-105.49431178,40.28042849,2732.63
-105.49437012,40.28042824,2734.90
-105.49454739,40.28042749,2748.35
-105.49460056,40.28042726,2746.76
-105.49461350,40.28042720,2751.58
-105.49462091,40.28042717,2749.34
-105.49463256,40.28042712,2751.36
-105.49463597,40.28042711,2744.88
-105.49467631,40.28042693,2749.90
-105.49470337,40.28042682,2751.51
-105.49471101,40.28042679,2750.80
-105.49485629,40.28042617,2753.30
-105.49500297,40.28042554,2759.21
-105.49517718,40.28042479,2766.21
-105.49523941,40.28042453,2768.37
-105.49530010,40.28042427,2771.12
-105.49534833,40.28042406,2772.78
-105.49539209,40.28042387,2779.60
-105.49542679,40.28042372,2779.33
-105.49543902,40.28042367,2781.09
-105.49555477,40.28042318,2781.12
-105.49556230,40.28042314,2787.07
-105.49556477,40.28042313,2790.46
-105.49556642,40.28042313,2789.63
-105.49557018,40.28042311,2784.96
-105.49558300,40.28042305,2782.05
-105.49558630,40.28042304,2782.07
-105.49560418,40.28042296,2783.60
-105.49564288,40.28042280,2783.87
-105.49568722,40.28042261,2784.66
-105.49571863,40.28042247,2785.09
-105.49576897,40.28042226,2791.13
-105.49577133,40.28042225,2792.04
-105.49578544,40.28042219,2793.63
-105.49583355,40.28042198,2789.79
-105.49583544,40.28042197,2789.21
-105.49586355,40.28042185,2796.88
-105.49588143,40.28042178,2801.78
-105.49588613,40.28042176,2801.42
-105.49589025,40.28042174,2800.63
-105.49589425,40.28042172,2788.85
-105.49589813,40.28042171,2788.97
-105.49589848,40.28042170,2793.25
-105.49590754,40.28042166,2790.39
-105.49590801,40.28042166,2801.57
-105.49598306,40.28042134,2790.43
-105.49598647,40.28042133,2798.89
-105.49599012,40.28042131,2798.90
-105.49602035,40.28042118,2791.37
-105.49612186,40.28042075,2794.33
-105.49619303,40.28042044,2804.85
-105.49619903,40.28042041,2808.48
-105.49621926,40.28042033,2798.20
-105.49624149,40.28042023,2798.04
-105.49627384,40.28042009,2808.35
-105.49628996,40.28042003,2806.72
-105.49637618,40.28041966,2802.62
-105.49650628,40.28041910,2806.45
-105.49658438,40.28041876,2808.40
-105.49659638,40.28041871,2816.08
-105.49672436,40.28041816,2822.94
-105.49672895,40.28041814,2812.74
-105.49703584,40.28041682,2832.56
-105.49703855,40.28041681,2832.43
-105.49713712,40.28041639,2824.27
-105.49720111,40.28041611,2825.90
-105.49725640,40.28041588,2827.40
-105.49730039,40.28041569,2835.57
-105.49735615,40.28041545,2838.81
-105.49740626,40.28041523,2831.68
-105.49746578,40.28041498,2833.58
-105.49749154,40.28041486,2834.46
-105.49758188,40.28041448,2837.27
-105.49759047,40.28041444,2845.80
-105.49761670,40.28041433,2837.99
-105.49768539,40.28041403,2850.28
-105.49778373,40.28041361,2841.88
-105.49780538,40.28041352,2852.69
-105.49803734,40.28041252,2856.86
-105.49805110,40.28041246,2849.51
-105.49810310,40.28041223,2857.84
-105.49818061,40.28041190,2854.12
-105.49820626,40.28041179,2858.69
-105.49826390,40.28041154,2853.47
-105.49826531,40.28041154,2857.99
-105.49833836,40.28041122,2847.48
-105.49835882,40.28041113,2853.49
-105.49836282,40.28041112,2851.45
-105.49839105,40.28041099,2844.71
-105.49845446,40.28041072,2841.92
-105.49848574,40.28041059,2842.29
-105.49856656,40.28041024,2844.98
-105.49867230,40.28040978,2828.71
-105.49875147,40.28040944,2828.54
-105.49877464,40.28040934,2826.81
-105.49892380,40.28040870,2823.73
-105.49894685,40.28040860,2821.71
-105.49897520,40.28040848,2826.22
-105.49901155,40.28040832,2821.42
-105.49916600,40.28040765,2828.85
-105.49919717,40.28040752,2819.43
-105.49923010,40.28040738,2831.68
-105.49941549,40.28040658,2825.62
-105.49943054,40.28040651,2826.55
-105.49943666,40.28040649,2828.31
-105.49947324,40.28040633,2827.82
-105.49954664,40.28040601,2819.51
-105.49959546,40.28040580,2819.94
-105.49960240,40.28040577,2819.77
-105.49965251,40.28040555,2819.60
-105.49972426,40.28040524,2838.90
-105.49973697,40.28040519,2823.50
-105.49975320,40.28040512,2834.48
-105.49983225,40.28040478,2837.71
     </coordinates>
    </LineString>
   </MultiGeometry>
  </Placemark>
 </Document>
</kml>
