<kml>
 <Document>
  <Style id="yellow">
   <LineStyle>
   <color>ff00ffff</color>
   <width>1</width>
   </LineStyle>
  </Style>
  <Style id="red">
   <LineStyle>
   <color>ffff0000</color>
   <width>2</width>
   </LineStyle>
  </Style>
  <Style id="green">
   <LineStyle>
   <color>ff00ff00</color>
   <width>1</width>
   </LineStyle>
  </Style>
  <Placemark>
  <styleUrl>#yellow</styleUrl>
   <MultiGeometry>
    <LineString>
     <coordinates>
-105.51097262,40.24431878,2558.91
-105.51098543,40.24431873,2558.79
-105.51098778,40.24431871,2554.32
-105.51151824,40.24431637,2546.64
-105.51155681,40.24431620,2546.04
-105.51156468,40.24431617,2545.88
-105.51157162,40.24431614,2545.67
-105.51157914,40.24431610,2545.45
-105.51158714,40.24431607,2545.32
-105.51159501,40.24431603,2545.15
-105.51210996,40.24431366,2531.68
-105.51228913,40.24431296,2530.41
-105.51229254,40.24431295,2533.27
-105.51249734,40.24431204,2527.22
-105.51259186,40.24431162,2525.41
-105.51259198,40.24431162,2526.32
-105.51263325,40.24431144,2524.50
-105.51270214,40.24431113,2526.99
-105.51275293,40.24431091,2526.39
-105.51279772,40.24431071,2526.06
-105.51280830,40.24431066,2527.48
-105.51283111,40.24431056,2525.96
-105.51293586,40.24431010,2524.89
-105.51295044,40.24431003,2524.76
-105.51295796,40.24431000,2524.75
-105.51296514,40.24430997,2524.67
-105.51297195,40.24430994,2524.75
-105.51298806,40.24430987,2524.68
-105.51305519,40.24430957,2532.26
-105.51305555,40.24430957,2530.89
-105.51311609,40.24430930,2537.50
-105.51317946,40.24430902,2525.91
-105.51344963,40.24430782,2542.30
-105.51345739,40.24430778,2542.29
-105.51351135,40.24430755,2527.85
-105.51362833,40.24430703,2529.28
-105.51370992,40.24430666,2531.05
-105.51371792,40.24430663,2531.24
-105.51372685,40.24430659,2531.38
-105.51378434,40.24430633,2546.97
-105.51388251,40.24430590,2540.54
-105.51388368,40.24430589,2539.08
-105.51428271,40.24430412,2534.84
-105.51438852,40.24430365,2547.18
-105.51454029,40.24430297,2544.99
-105.51463129,40.24430257,2539.96
-105.51474169,40.24430208,2551.44
-105.51475626,40.24430201,2550.06
-105.51478377,40.24430189,2536.01
-105.51488829,40.24430143,2540.83
-105.51494719,40.24430117,2537.52
-105.51506464,40.24430064,2535.75
-105.51507193,40.24430061,2535.76
-105.51512060,40.24430039,2535.98
-105.51512801,40.24430036,2536.04
-105.51521642,40.24429997,2536.33
-105.51530941,40.24429955,2536.85
-105.51543556,40.24429899,2538.00
-105.51543674,40.24429899,2537.32
-105.51548788,40.24429876,2548.78
-105.51550363,40.24429869,2550.91
-105.51577498,40.24429748,2538.63
-105.51580978,40.24429732,2551.82
-105.51606102,40.24429620,2539.18
-105.51607830,40.24429613,2539.26
-105.51616271,40.24429575,2539.71
-105.51617059,40.24429572,2539.71
-105.51635858,40.24429488,2540.29
-105.51659371,40.24429383,2537.84
-105.51662687,40.24429368,2537.47
-105.51666743,40.24429350,2536.67
-105.51671833,40.24429327,2548.13
-105.51672186,40.24429326,2543.89
-105.51690809,40.24429242,2535.01
-105.51704011,40.24429183,2536.54
-105.51717520,40.24429123,2537.30
-105.51719894,40.24429112,2548.85
-105.51728818,40.24429072,2543.15
-105.51729123,40.24429071,2549.51
-105.51729323,40.24429070,2535.97
-105.51729829,40.24429059,2550.23
-105.51731075,40.24429017,2552.61
-105.51731155,40.24428747,2552.08
-105.51731223,40.24428467,2551.69
-105.51731234,40.24428350,2547.51
-105.51731245,40.24426692,2536.09
-105.51731234,40.24423656,2536.07
-105.51731213,40.24420935,2535.92
-105.51731183,40.24416944,2535.80
-105.51731160,40.24414007,2538.66
-105.51731110,40.24407413,2550.17
-105.51731108,40.24407188,2535.31
-105.51731075,40.24402854,2551.53
-105.51731054,40.24399989,2544.79
-105.51731031,40.24396962,2550.38
-105.51731013,40.24394674,2548.60
-105.51730950,40.24386332,2534.49
-105.51730914,40.24381665,2542.04
-105.51730880,40.24377151,2533.36
-105.51730872,40.24376178,2537.26
-105.51730692,40.24352503,2544.05
-105.51730672,40.24349854,2536.16
-105.51730516,40.24329322,2551.75
-105.51730438,40.24319088,2544.86
-105.51730377,40.24311151,2547.92
-105.51730256,40.24295250,2549.74
-105.51730243,40.24293448,2538.20
-105.51730239,40.24292971,2551.83
-105.51730227,40.24291457,2551.71
-105.51730205,40.24288448,2537.47
-105.51730144,40.24280484,2536.59
-105.51730109,40.24275944,2536.53
-105.51730090,40.24273376,2545.49
-105.51730057,40.24269007,2547.66
-105.51730025,40.24264890,2536.00
-105.51730010,40.24262935,2546.29
-105.51730010,40.24262908,2541.14
-105.51730010,40.24262881,2535.94
-105.51730008,40.24262655,2549.87
-105.51729990,40.24260286,2547.21
-105.51729939,40.24253511,2535.96
-105.51729937,40.24253340,2535.96
-105.51729882,40.24246052,2544.92
-105.51729875,40.24245133,2535.69
-105.51729860,40.24243196,2535.69
-105.51729841,40.24240655,2535.41
-105.51729820,40.24237898,2535.22
-105.51729781,40.24232799,2534.95
-105.51729780,40.24232637,2534.95
-105.51729628,40.24212637,2534.67
-105.51729604,40.24209610,2534.56
-105.51729538,40.24200853,2535.24
-105.51729533,40.24200214,2535.16
-105.51729521,40.24198646,2534.97
-105.51729484,40.24193781,2534.96
-105.51729375,40.24179475,2540.78
-105.51729325,40.24172916,2533.07
-105.51729229,40.24160222,2535.35
-105.51729217,40.24158763,2533.14
-105.51729205,40.24157060,2540.68
-105.51728986,40.24128384,2536.55
-105.51728942,40.24122619,2547.05
-105.51728929,40.24120898,2539.92
-105.51728920,40.24119745,2540.49
-105.51728893,40.24116069,2539.85
-105.51728883,40.24114844,2539.91
-105.51728865,40.24112465,2539.83
-105.51728864,40.24112294,2539.87
-105.51728831,40.24107925,2537.61
-105.51728725,40.24093997,2546.62
-105.51728604,40.24078177,2544.89
-105.51728483,40.24062294,2557.52
-105.51728441,40.24056717,2553.40
-105.51728392,40.24050312,2568.17
-105.51728258,40.24032663,2565.83
-105.51728239,40.24030258,2563.49
-105.51728042,40.24004321,2560.84
-105.51727927,40.23989194,2569.79
-105.51727850,40.23979086,2554.89
-105.51727845,40.23978374,2554.77
-105.51727798,40.23972284,2564.78
-105.51727720,40.23961942,2553.77
-105.51727657,40.23953672,2548.51
-105.51727528,40.23936780,2547.91
-105.51727524,40.23936284,2548.22
-105.51727503,40.23933509,2552.22
-105.51727443,40.23925572,2534.73
-105.51727324,40.23909915,2536.82
-105.51727276,40.23903662,2534.26
-105.51727255,40.23900951,2534.22
-105.51727240,40.23898924,2534.28
-105.51727223,40.23896671,2534.30
-105.51727205,40.23894302,2534.35
-105.51727151,40.23887275,2534.43
-105.51727143,40.23886158,2534.42
-105.51727091,40.23879374,2534.65
-105.51727039,40.23872509,2534.66
-105.51727003,40.23867752,2534.83
-105.51726988,40.23865842,2534.89
-105.51726950,40.23860815,2535.33
-105.51726769,40.23836986,2538.63
-105.51726765,40.23836455,2538.72
-105.51726719,40.23830428,2539.87
-105.51726711,40.23829464,2540.09
-105.51726692,40.23826968,2543.88
-105.51726633,40.23819148,2542.51
-105.51726624,40.23817986,2549.90
-105.51726616,40.23816914,2543.33
-105.51726613,40.23816509,2548.13
-105.51726613,40.23816482,2545.71
-105.51726599,40.23814743,2553.99
-105.51726489,40.23800292,2549.14
-105.51726473,40.23798121,2550.16
-105.51726441,40.23793950,2559.27
-105.51726307,40.23776292,2566.42
-105.51726134,40.23753643,2575.41
-105.51726041,40.23741373,2583.79
-105.51725967,40.23731625,2579.36
-105.51725745,40.23702526,2596.30
-105.51725739,40.23701733,2596.75
-105.51725553,40.23677283,2607.63
-105.51725551,40.23677003,2610.57
-105.51725414,40.23659003,2621.72
-105.51725338,40.23648949,2624.15
-105.51725275,40.23640661,2633.49
-105.51725273,40.23640435,2633.36
-105.51725247,40.23637030,2629.87
-105.51725188,40.23629228,2634.45
-105.51724954,40.23598579,2653.56
-105.51724950,40.23598057,2652.77
-105.51724917,40.23593687,2658.30
-105.51724911,40.23592868,2654.47
-105.51724896,40.23590967,2657.62
-105.51724869,40.23587291,2656.92
-105.51724862,40.23586498,2657.11
-105.51724849,40.23584678,2659.86
-105.51724825,40.23581624,2662.95
-105.51724821,40.23581039,2662.58
-105.51724818,40.23580588,2658.88
-105.51724774,40.23574813,2661.97
-105.51724707,40.23566003,2662.79
-105.51724586,40.23550102,2672.01
-105.51724562,40.23547011,2665.63
-105.51724548,40.23545129,2670.34
-105.51724545,40.23544822,2670.30
-105.51724494,40.23538065,2670.83
-105.51724468,40.23534714,2669.40
-105.51724464,40.23534183,2667.42
-105.51724419,40.23528228,2667.44
-105.51724160,40.23528193,2667.66
-105.51718964,40.23528207,2668.82
-105.51704623,40.23528253,2673.43
-105.51677481,40.23528374,2677.79
-105.51672155,40.23528398,2670.60
-105.51639218,40.23528545,2671.22
-105.51633916,40.23528569,2669.14
-105.51605116,40.23528697,2668.76
-105.51593255,40.23528750,2668.17
-105.51591468,40.23528758,2668.02
-105.51588506,40.23528771,2671.36
-105.51586179,40.23528781,2673.91
-105.51579325,40.23528812,2674.44
-105.51572308,40.23528843,2666.20
-105.51564808,40.23528877,2673.97
-105.51561058,40.23528893,2670.63
-105.51551783,40.23528935,2664.21
-105.51549409,40.23528945,2669.30
-105.51545530,40.23528963,2669.48
-105.51544389,40.23528968,2671.98
-105.51526486,40.23529047,2665.93
-105.51519574,40.23529078,2661.08
-105.51515436,40.23529097,2669.72
-105.51502682,40.23529153,2668.20
-105.51495135,40.23529187,2658.46
-105.51493407,40.23529195,2663.67
-105.51492831,40.23529197,2664.43
-105.51492138,40.23529200,2664.84
-105.51486742,40.23529224,2665.79
-105.51482922,40.23529241,2662.68
-105.51481981,40.23529245,2661.53
-105.51458483,40.23529350,2658.51
-105.51452170,40.23529378,2653.32
-105.51447692,40.23529398,2656.31
-105.51440756,40.23529429,2650.36
-105.51402893,40.23529597,2656.68
-105.51389610,40.23529656,2646.01
-105.51387635,40.23529665,2654.34
-105.51387235,40.23529667,2656.09
-105.51384943,40.23529677,2645.77
-105.51377961,40.23529708,2654.42
-105.51377819,40.23529708,2654.38
-105.51377279,40.23529711,2655.12
-105.51369779,40.23529744,2645.41
-105.51359188,40.23529791,2655.69
-105.51358224,40.23529795,2653.97
-105.51350618,40.23529829,2654.43
-105.51340967,40.23529872,2648.58
-105.51337593,40.23529887,2642.09
-105.51326885,40.23529934,2650.84
-105.51326861,40.23529934,2644.97
-105.51321031,40.23529960,2649.91
-105.51320172,40.23529964,2645.57
-105.51316669,40.23529980,2640.57
-105.51307841,40.23530019,2647.93
-105.51306454,40.23530025,2650.44
-105.51306090,40.23530027,2649.10
-105.51302375,40.23530043,2647.88
-105.51294640,40.23530077,2639.29
-105.51291807,40.23530090,2645.25
-105.51275726,40.23530161,2637.93
-105.51274398,40.23530167,2642.76
-105.51271659,40.23530179,2646.64
-105.51261914,40.23530222,2636.53
-105.51258493,40.23530237,2647.87
-105.51257294,40.23530243,2646.46
-105.51231856,40.23530355,2636.32
-105.51222182,40.23530398,2633.93
-105.51216034,40.23530425,2633.90
-105.51214682,40.23530431,2633.90
-105.51212825,40.23530440,2638.14
-105.51192688,40.23530529,2637.81
-105.51186094,40.23530558,2636.79
-105.51170013,40.23530629,2634.21
-105.51169554,40.23530631,2639.09
-105.51166310,40.23530645,2629.39
-105.51160362,40.23530672,2628.98
-105.51154049,40.23530699,2628.63
-105.51127177,40.23530818,2635.66
-105.51125284,40.23530827,2635.36
-105.51120747,40.23530847,2626.80
-105.51116750,40.23530864,2633.32
-105.51105806,40.23530913,2634.94
-105.51090172,40.23530982,2626.56
-105.51083377,40.23531012,2626.07
-105.51069753,40.23531072,2626.82
-105.51069107,40.23531075,2626.76
-105.51068425,40.23531078,2626.64
-105.51063241,40.23531100,2625.86
-105.51062536,40.23531104,2625.69
-105.51028411,40.23531254,2621.77
-105.51025378,40.23531267,2620.73
-105.51009579,40.23531337,2619.31
-105.51006534,40.23531351,2624.87
-105.50992017,40.23531415,2622.61
-105.50991018,40.23531419,2622.58
-105.50988337,40.23531431,2627.78
-105.50981790,40.23531460,2622.88
-105.50972021,40.23531503,2623.15
-105.50963158,40.23531542,2622.39
-105.50956540,40.23531571,2623.13
-105.50936732,40.23531658,2619.25
-105.50933335,40.23531673,2626.15
-105.50932712,40.23531676,2619.54
-105.50926235,40.23531704,2629.21
-105.50922615,40.23531720,2626.49
-105.50912070,40.23531766,2619.15
-105.50898375,40.23531827,2618.26
-105.50878157,40.23531916,2621.59
-105.50871915,40.23531943,2617.56
-105.50860207,40.23531995,2621.02
-105.50818829,40.23532176,2608.65
-105.50811011,40.23532211,2600.95
-105.50810341,40.23532214,2600.84
-105.50809695,40.23532216,2600.76
-105.50808320,40.23532222,2600.52
-105.50807602,40.23532226,2600.42
-105.50805522,40.23532235,2600.15
-105.50804899,40.23532237,2600.30
-105.50804146,40.23532241,2599.88
-105.50800749,40.23532256,2599.43
-105.50794025,40.23532285,2595.75
-105.50789793,40.23532304,2597.75
-105.50776710,40.23532361,2595.70
-105.50768117,40.23532399,2588.42
-105.50762498,40.23532423,2586.80
-105.50748944,40.23532483,2583.01
-105.50746923,40.23532492,2588.72
-105.50711105,40.23532649,2579.87
-105.50702171,40.23532688,2574.58
-105.50698656,40.23532703,2566.77
-105.50686419,40.23532757,2574.61
-105.50675945,40.23532803,2561.46
-105.50675828,40.23532803,2557.96
-105.50669386,40.23532831,2555.38
-105.50655409,40.23532893,2563.16
-105.50655197,40.23532894,2564.88
-105.50645158,40.23532938,2560.60
-105.50643160,40.23532946,2558.30
-105.50642713,40.23532948,2546.10
-105.50641796,40.23532952,2546.05
-105.50641091,40.23532955,2545.94
-105.50639152,40.23532964,2554.94
-105.50634379,40.23532985,2556.47
-105.50630006,40.23533004,2557.43
-105.50629830,40.23533005,2548.26
-105.50624987,40.23533026,2545.90
-105.50610058,40.23533091,2546.12
-105.50602675,40.23533123,2535.99
-105.50601747,40.23533127,2535.83
-105.50595599,40.23533154,2541.81
-105.50595105,40.23533156,2542.15
-105.50585854,40.23533197,2538.79
-105.50585243,40.23533200,2541.25
-105.50579083,40.23533226,2531.83
-105.50579012,40.23533227,2542.31
-105.50578577,40.23533229,2534.58
-105.50577308,40.23533234,2531.28
-105.50575968,40.23533240,2529.39
-105.50575356,40.23533243,2529.30
-105.50575168,40.23533244,2529.23
-105.50574440,40.23533247,2529.07
-105.50559652,40.23533311,2530.40
-105.50558394,40.23533317,2525.27
-105.50558018,40.23533319,2525.15
-105.50550624,40.23533351,2523.04
-105.50549578,40.23533364,2522.77
-105.50549108,40.23533484,2522.59
-105.50549087,40.23533754,2522.54
-105.50549065,40.23534042,2522.54
-105.50549014,40.23536592,2522.18
-105.50548971,40.23538728,2525.53
-105.50548966,40.23539602,2527.47
-105.50548993,40.23543304,2520.49
-105.50549010,40.23545593,2520.09
-105.50549058,40.23551971,2528.93
-105.50549123,40.23560764,2520.02
-105.50549127,40.23561331,2526.04
-105.50549156,40.23565205,2529.95
-105.50549176,40.23567881,2528.97
-105.50549331,40.23588710,2517.82
-105.50549351,40.23591449,2526.61
-105.50549356,40.23592161,2517.53
-105.50549364,40.23593107,2520.22
-105.50549378,40.23595034,2518.29
-105.50549440,40.23603404,2521.63
-105.50549532,40.23615701,2515.41
-105.50549592,40.23623764,2529.83
-105.50549604,40.23625413,2528.08
-105.50549661,40.23633143,2529.44
-105.50549670,40.23634377,2530.02
-105.50549683,40.23636053,2525.44
-105.50549963,40.23673729,2519.79
-105.50550061,40.23686945,2520.17
-105.50550191,40.23704342,2505.32
-105.50550191,40.23704360,2505.17
-105.50550272,40.23715270,2501.16
-105.50550313,40.23720819,2508.63
-105.50550315,40.23721053,2511.45
-105.50550368,40.23728225,2507.97
-105.50550374,40.23729036,2506.21
-105.50550382,40.23730027,2503.86
-105.50550386,40.23730585,2501.28
-105.50550394,40.23731657,2501.76
-105.50550447,40.23738837,2506.40
-105.50550458,40.23740225,2510.81
-105.50550483,40.23743621,2504.37
-105.50550486,40.23744009,2504.30
-105.50550504,40.23746495,2501.21
-105.50550542,40.23751630,2501.67
-105.50550677,40.23769703,2496.36
-105.50550718,40.23775261,2498.51
-105.50550802,40.23786604,2508.67
-105.50550846,40.23792523,2505.47
-105.50550852,40.23793225,2505.72
-105.50550859,40.23794261,2506.09
-105.50550874,40.23796207,2506.97
-105.50550916,40.23801829,2509.79
-105.50550934,40.23804297,2515.18
-105.50550989,40.23811667,2513.82
-105.50550990,40.23811847,2510.91
-105.50551003,40.23813532,2515.35
-105.50551010,40.23814523,2518.67
-105.50551030,40.23817198,2513.40
-105.50551059,40.23821108,2520.03
-105.50551281,40.23850964,2519.16
-105.50551302,40.23853775,2519.83
-105.50551384,40.23864784,2522.49
-105.50551441,40.23872442,2530.06
-105.50551542,40.23886082,2527.48
-105.50551547,40.23886703,2527.64
-105.50551548,40.23886902,2527.67
-105.50551549,40.23887028,2527.68
-105.50551567,40.23889460,2528.23
-105.50551578,40.23890947,2533.84
-105.50551579,40.23890965,2528.79
-105.50551597,40.23893397,2529.47
-105.50551612,40.23895460,2529.98
-105.50551671,40.23903415,2532.10
-105.50551718,40.23909767,2533.85
-105.50551753,40.23914460,2535.14
-105.50551806,40.23921542,2537.16
-105.50551817,40.23922956,2537.54
-105.50551878,40.23931199,2539.72
-105.50551881,40.23931569,2545.43
-105.50551882,40.23931830,2546.96
-105.50551916,40.23936398,2549.66
-105.50551918,40.23936632,2546.37
-105.50551976,40.23944353,2543.50
-105.50552027,40.23951253,2550.69
-105.50552045,40.23953659,2547.26
-105.50552128,40.23964794,2555.53
-105.50552156,40.23968641,2559.05
-105.50552181,40.23971920,2555.94
-105.50552206,40.23975362,2552.88
-105.50552336,40.23992830,2557.99
-105.50552347,40.23994335,2558.53
-105.50552359,40.23995911,2559.17
-105.50552364,40.23996551,2561.66
-105.50552414,40.24003290,2561.55
-105.50552423,40.24004515,2561.90
-105.50552450,40.24008101,2563.14
-105.50552525,40.24018245,2567.25
-105.50552594,40.24027497,2573.94
-105.50552602,40.24028551,2573.94
-105.50552651,40.24035191,2576.11
-105.50552694,40.24040894,2578.32
-105.50552742,40.24047344,2578.33
-105.50552953,40.24075822,2577.45
-105.50552979,40.24079191,2579.68
-105.50553127,40.24099192,2574.23
-105.50553149,40.24102056,2563.01
-105.50553155,40.24102912,2562.28
-105.50553155,40.24102957,2567.21
-105.50553157,40.24103210,2567.21
-105.50553234,40.24113606,2573.67
-105.50553267,40.24117984,2563.26
-105.50553282,40.24120030,2558.48
-105.50553338,40.24127534,2565.58
-105.50553351,40.24129201,2572.74
-105.50553494,40.24148471,2578.20
-105.50553675,40.24172832,2582.35
-105.50553711,40.24177706,2575.12
-105.50553712,40.24177760,2578.24
-105.50553739,40.24181363,2578.77
-105.50553749,40.24182751,2575.33
-105.50553783,40.24187336,2575.94
-105.50553804,40.24190192,2578.06
-105.50553816,40.24191724,2576.48
-105.50553997,40.24216084,2589.48
-105.50554087,40.24228211,2582.87
-105.50554190,40.24242039,2585.26
-105.50554192,40.24242391,2585.31
-105.50554242,40.24249112,2586.67
-105.50554356,40.24264445,2592.57
-105.50554461,40.24278508,2597.76
-105.50554478,40.24280842,2601.97
-105.50554522,40.24286751,2597.73
-105.50554779,40.24321238,2607.58
-105.50554786,40.24322166,2607.80
-105.50554878,40.24334509,2610.53
-105.50554884,40.24335373,2610.68
-105.50554901,40.24337707,2611.72
-105.50555028,40.24354680,2615.43
-105.50555160,40.24372392,2622.96
-105.50555213,40.24379599,2622.89
-105.50555285,40.24389320,2626.14
-105.50555290,40.24389941,2626.43
-105.50555314,40.24393203,2631.95
-105.50555347,40.24397644,2633.48
-105.50555351,40.24398077,2631.75
-105.50555351,40.24398131,2629.26
-105.50555400,40.24404779,2630.75
-105.50555423,40.24407752,2639.14
-105.50555427,40.24408320,2631.27
-105.50555489,40.24416707,2634.02
-105.50555490,40.24416761,2633.98
-105.50555551,40.24425059,2641.73
-105.50555564,40.24426707,2633.75
-105.50555636,40.24433311,2633.59
-105.50555795,40.24434067,2633.55
-105.50556066,40.24434174,2637.71
-105.50556642,40.24434226,2637.98
-105.50558041,40.24434237,2633.55
-105.50573466,40.24434179,2630.08
-105.50576852,40.24434164,2629.26
-105.50584776,40.24434130,2627.69
-105.50591948,40.24434098,2626.46
-105.50596862,40.24434077,2625.93
-105.50597697,40.24434073,2627.18
-105.50602494,40.24434052,2636.73
-105.50603023,40.24434050,2634.17
-105.50603528,40.24434048,2632.37
-105.50604034,40.24434045,2629.65
-105.50615461,40.24433995,2637.30
-105.50625584,40.24433951,2627.09
-105.50626465,40.24433947,2623.64
-105.50629793,40.24433933,2630.71
-105.50630392,40.24433930,2628.21
-105.50632085,40.24433923,2625.08
-105.50639645,40.24433890,2621.73
-105.50675444,40.24433733,2613.52
-105.50700662,40.24433622,2612.10
-105.50711572,40.24433575,2603.91
-105.50712172,40.24433572,2603.74
-105.50715158,40.24433559,2603.21
-105.50722224,40.24433528,2603.13
-105.50742974,40.24433437,2601.16
-105.50746125,40.24433423,2596.97
-105.50749229,40.24433410,2601.57
-105.50754355,40.24433387,2595.58
-105.50767910,40.24433328,2592.58
-105.50769850,40.24433319,2598.81
-105.50772119,40.24433309,2599.08
-105.50775117,40.24433296,2590.80
-105.50781783,40.24433267,2596.20
-105.50791811,40.24433223,2587.16
-105.50796843,40.24433201,2586.15
-105.50816453,40.24433115,2582.70
-105.50822438,40.24433088,2589.69
-105.50832525,40.24433044,2578.36
-105.50859859,40.24432924,2575.76
-105.50873426,40.24432864,2569.73
-105.50893119,40.24432778,2573.98
-105.50895470,40.24432767,2558.62
-105.50896105,40.24432765,2558.47
-105.50902113,40.24432738,2574.23
-105.50938958,40.24432576,2578.42
-105.50944472,40.24432552,2568.39
-105.51002679,40.24432295,2558.48
-105.51005877,40.24432281,2558.41
-105.51019997,40.24432219,2564.97
-105.51026216,40.24432192,2557.92
-105.51031471,40.24432168,2557.84
-105.51043134,40.24432117,2557.49
-105.51071127,40.24431994,2556.18
-105.51097050,40.24431879,2559.51
-105.51097262,40.24431878,2558.91
     </coordinates>
    </LineString>
   </MultiGeometry>
  </Placemark>
 </Document>
</kml>
