<kml>
 <Document>
  <Style id="yellow">
   <LineStyle>
   <color>ff00ffff</color>
   <width>1</width>
   </LineStyle>
  </Style>
  <Style id="red">
   <LineStyle>
   <color>ffff0000</color>
   <width>2</width>
   </LineStyle>
  </Style>
  <Style id="green">
   <LineStyle>
   <color>ff00ff00</color>
   <width>1</width>
   </LineStyle>
  </Style>
  <Placemark>
  <styleUrl>#yellow</styleUrl>
   <MultiGeometry>
    <LineString>
     <coordinates>
-105.48764931,40.25342877,2651.47
-105.48767636,40.25342865,2660.00
-105.48769235,40.25342859,2659.34
-105.48769540,40.25342857,2661.88
-105.48772115,40.25342846,2652.19
-105.48785743,40.25342789,2653.55
-105.48789435,40.25342773,2656.72
-105.48800124,40.25342728,2656.50
-105.48820289,40.25342643,2661.78
-105.48822241,40.25342635,2666.77
-105.48822253,40.25342635,2666.88
-105.48822864,40.25342632,2665.34
-105.48823440,40.25342630,2664.12
-105.48829566,40.25342604,2664.29
-105.48837468,40.25342571,2670.32
-105.48838855,40.25342565,2673.50
-105.48841466,40.25342554,2667.39
-105.48854094,40.25342501,2672.49
-105.48874213,40.25342416,2678.88
-105.48875682,40.25342410,2675.58
-105.48877070,40.25342404,2679.85
-105.48880715,40.25342388,2676.61
-105.48886253,40.25342365,2679.64
-105.48893049,40.25342336,2680.05
-105.48904008,40.25342290,2685.67
-105.48922810,40.25342210,2684.53
-105.48932310,40.25342170,2685.08
-105.48938483,40.25342144,2689.92
-105.48941094,40.25342133,2685.51
-105.48946303,40.25342111,2686.33
-105.48946397,40.25342111,2687.53
-105.48946573,40.25342110,2687.50
-105.48953123,40.25342082,2689.01
-105.48970760,40.25342008,2686.17
-105.48987457,40.25341937,2684.02
-105.48989585,40.25341928,2681.40
-105.49008269,40.25341849,2681.81
-105.49012502,40.25341831,2681.97
-105.49016123,40.25341816,2682.23
-105.49027788,40.25341766,2682.69
-105.49030751,40.25341754,2683.53
-105.49041639,40.25341707,2686.63
-105.49055619,40.25341648,2683.23
-105.49071764,40.25341580,2687.89
-105.49073598,40.25341572,2683.70
-105.49078125,40.25341553,2683.91
-105.49081264,40.25341539,2685.96
-105.49082334,40.25341535,2690.20
-105.49082428,40.25341535,2688.78
-105.49094187,40.25341485,2688.66
-105.49100595,40.25341458,2689.10
-105.49104887,40.25341439,2688.39
-105.49106615,40.25341432,2684.54
-105.49106850,40.25341431,2687.15
-105.49114999,40.25341396,2686.58
-105.49122994,40.25341362,2700.09
-105.49124064,40.25341358,2685.99
-105.49138715,40.25341296,2693.66
-105.49142795,40.25341278,2688.35
-105.49143677,40.25341275,2688.42
-105.49148098,40.25341256,2688.97
-105.49157035,40.25341218,2690.50
-105.49179575,40.25341122,2693.55
-105.49187794,40.25341087,2699.84
-105.49193332,40.25341064,2695.64
-105.49201422,40.25341029,2706.33
-105.49209006,40.25340997,2710.47
-105.49209206,40.25340996,2708.73
-105.49209571,40.25340995,2705.08
-105.49228701,40.25340913,2712.97
-105.49240765,40.25340862,2707.10
-105.49243082,40.25340852,2721.62
-105.49243576,40.25340850,2717.65
-105.49249255,40.25340826,2709.40
-105.49253629,40.25340807,2714.37
-105.49269150,40.25340741,2714.87
-105.49272842,40.25340725,2715.98
-105.49278897,40.25340700,2718.20
-105.49284976,40.25340674,2726.87
-105.49291455,40.25340646,2722.32
-105.49302367,40.25340600,2724.79
-105.49307458,40.25340578,2737.88
-105.49308152,40.25340575,2733.01
-105.49313314,40.25340553,2728.08
-105.49317535,40.25340535,2732.45
-105.49324284,40.25340506,2733.26
-105.49326248,40.25340498,2731.71
-105.49335255,40.25340460,2733.15
-105.49348471,40.25340403,2735.21
-105.49361276,40.25340349,2739.14
-105.49371600,40.25340304,2750.81
-105.49377761,40.25340278,2744.47
-105.49378537,40.25340275,2755.71
-105.49384651,40.25340222,2746.82
-105.49386179,40.25340053,2747.34
-105.49386458,40.25339664,2747.34
-105.49386449,40.25336773,2758.83
-105.49386427,40.25332178,2753.71
-105.49386423,40.25331574,2754.04
-105.49386402,40.25328754,2756.42
-105.49386350,40.25321556,2757.48
-105.49386300,40.25314727,2745.52
-105.49386230,40.25305033,2756.30
-105.49386227,40.25304646,2755.86
-105.49386201,40.25301088,2751.75
-105.49386148,40.25293763,2744.33
-105.49386121,40.25290106,2744.12
-105.49386077,40.25284087,2747.76
-105.49386067,40.25282691,2752.17
-105.49386066,40.25282466,2743.54
-105.49386049,40.25280232,2743.40
-105.49386042,40.25279186,2749.68
-105.49386034,40.25278078,2754.58
-105.49385947,40.25266150,2753.43
-105.49385912,40.25261331,2747.92
-105.49385823,40.25249105,2740.67
-105.49385780,40.25243240,2740.25
-105.49385722,40.25235186,2747.92
-105.49385683,40.25229799,2739.27
-105.49385639,40.25223835,2738.94
-105.49385607,40.25219375,2748.37
-105.49385601,40.25218591,2744.38
-105.49385591,40.25217105,2749.12
-105.49385577,40.25215312,2739.61
-105.49385500,40.25204690,2736.20
-105.49385400,40.25190961,2733.81
-105.49385323,40.25180348,2736.79
-105.49385323,40.25180267,2732.13
-105.49385302,40.25177438,2735.29
-105.49385278,40.25174069,2735.44
-105.49385273,40.25173366,2734.26
-105.49385262,40.25171915,2737.57
-105.49385252,40.25170483,2738.53
-105.49385229,40.25167348,2735.76
-105.49385217,40.25165780,2738.31
-105.49385212,40.25165005,2738.03
-105.49385209,40.25164582,2735.42
-105.49385205,40.25164114,2735.46
-105.49385170,40.25159267,2730.35
-105.49385152,40.25156744,2730.38
-105.49385149,40.25156303,2730.41
-105.49385117,40.25151978,2733.84
-105.49385100,40.25149645,2729.92
-105.49385086,40.25147645,2729.64
-105.49385084,40.25147447,2731.96
-105.49385077,40.25146402,2730.24
-105.49385064,40.25144618,2734.64
-105.49384994,40.25135050,2731.21
-105.49384972,40.25132068,2728.35
-105.49384951,40.25129095,2737.52
-105.49384896,40.25121564,2742.18
-105.49384739,40.25099960,2740.52
-105.49384687,40.25092843,2738.18
-105.49384660,40.25089095,2736.83
-105.49384658,40.25088843,2734.45
-105.49384394,40.25052464,2717.61
-105.49384366,40.25048698,2717.35
-105.49384348,40.25046122,2717.00
-105.49384336,40.25044554,2716.86
-105.49384335,40.25044419,2716.85
-105.49384328,40.25043410,2716.65
-105.49384306,40.25040392,2716.06
-105.49384263,40.25034455,2722.98
-105.49384226,40.25029320,2717.78
-105.49384177,40.25022707,2712.83
-105.49384168,40.25021383,2712.72
-105.49384164,40.25020797,2719.59
-105.49384159,40.25020194,2720.90
-105.49384120,40.25014797,2711.69
-105.49384112,40.25013671,2720.45
-105.49384102,40.25012284,2711.38
-105.49384074,40.25008410,2710.84
-105.49383999,40.24998103,2708.57
-105.49383976,40.24994968,2715.92
-105.49383962,40.24993085,2708.66
-105.49383949,40.24991265,2713.58
-105.49383937,40.24989563,2708.00
-105.49383889,40.24982986,2706.58
-105.49383879,40.24981617,2713.46
-105.49383876,40.24981175,2717.38
-105.49383835,40.24975554,2713.95
-105.49383830,40.24974941,2718.98
-105.49383823,40.24973977,2719.89
-105.49383813,40.24972545,2714.51
-105.49383804,40.24971373,2716.55
-105.49383793,40.24969824,2707.21
-105.49383787,40.24968959,2716.76
-105.49383732,40.24961346,2712.51
-105.49383690,40.24955590,2714.65
-105.49383679,40.24954094,2708.85
-105.49383667,40.24952535,2714.08
-105.49383652,40.24950427,2708.40
-105.49383632,40.24947716,2703.34
-105.49383618,40.24945761,2709.96
-105.49383615,40.24945301,2702.84
-105.49383580,40.24940445,2711.60
-105.49383552,40.24936661,2712.87
-105.49383540,40.24935013,2711.07
-105.49383540,40.24934968,2707.15
-105.49383507,40.24930490,2713.20
-105.49383423,40.24918859,2706.38
-105.49383403,40.24916094,2699.92
-105.49383402,40.24916058,2708.18
-105.49383402,40.24915977,2708.22
-105.49383402,40.24915959,2708.17
-105.49383394,40.24914941,2706.25
-105.49383391,40.24914526,2702.59
-105.49383386,40.24913805,2706.43
-105.49383384,40.24913553,2708.08
-105.49383382,40.24913265,2707.70
-105.49383354,40.24909409,2698.80
-105.49383328,40.24905823,2709.89
-105.49383327,40.24905643,2701.12
-105.49383324,40.24905256,2698.89
-105.49383321,40.24904805,2700.72
-105.49383230,40.24892373,2707.33
-105.49383191,40.24886931,2702.99
-105.49383190,40.24886895,2697.81
-105.49383181,40.24885562,2698.62
-105.49383163,40.24883102,2706.21
-105.49383109,40.24875643,2696.01
-105.49383085,40.24872382,2695.63
-105.49383054,40.24868120,2702.10
-105.49383044,40.24866751,2695.02
-105.49383040,40.24866219,2697.53
-105.49383035,40.24865580,2694.91
-105.49383021,40.24863526,2694.72
-105.49383002,40.24861021,2694.44
-105.49382986,40.24858805,2694.23
-105.49382981,40.24858120,2694.15
-105.49382965,40.24855877,2697.55
-105.49382928,40.24850787,2693.13
-105.49382915,40.24848985,2702.55
-105.49382910,40.24848372,2696.73
-105.49382909,40.24848147,2703.56
-105.49382906,40.24847742,2697.27
-105.49382902,40.24847165,2701.71
-105.49382884,40.24844733,2692.54
-105.49382858,40.24841210,2692.39
-105.49382852,40.24840300,2692.34
-105.49382849,40.24839868,2694.10
-105.49382844,40.24839273,2692.39
-105.49382844,40.24839246,2693.17
-105.49382821,40.24836030,2696.28
-105.49382788,40.24831552,2691.59
-105.49382773,40.24829498,2691.13
-105.49382769,40.24828895,2690.95
-105.49382742,40.24825174,2690.09
-105.49382661,40.24814066,2686.36
-105.49382633,40.24810237,2691.37
-105.49382621,40.24808516,2688.86
-105.49382603,40.24806039,2684.92
-105.49382585,40.24803624,2688.67
-105.49382569,40.24801363,2687.45
-105.49382523,40.24795129,2683.04
-105.49382485,40.24789768,2686.23
-105.49382481,40.24789354,2683.80
-105.49382479,40.24789003,2685.68
-105.49382469,40.24787696,2681.12
-105.49382443,40.24784084,2680.16
-105.49382405,40.24778813,2678.86
-105.49382403,40.24778588,2689.15
-105.49382402,40.24778390,2688.89
-105.49382386,40.24776273,2686.63
-105.49382343,40.24770309,2676.94
-105.49382338,40.24769624,2676.79
-105.49382326,40.24767921,2676.47
-105.49382324,40.24767615,2676.45
-105.49382317,40.24766777,2676.28
-105.49382315,40.24766390,2676.21
-105.49382291,40.24763138,2675.50
-105.49382271,40.24760372,2675.00
-105.49382219,40.24753264,2673.96
-105.49382207,40.24751597,2673.82
-105.49382203,40.24750975,2682.33
-105.49382194,40.24749750,2673.68
-105.49382164,40.24745624,2676.08
-105.49382144,40.24742975,2673.11
-105.49382136,40.24741831,2672.93
-105.49382131,40.24741119,2672.68
-105.49382117,40.24739137,2672.57
-105.49382116,40.24739092,2672.56
-105.49382065,40.24732002,2680.60
-105.49382060,40.24731417,2677.58
-105.49382028,40.24726912,2676.81
-105.49382023,40.24726236,2678.36
-105.49381942,40.24715146,2668.77
-105.49381937,40.24714461,2675.41
-105.49381871,40.24705317,2672.85
-105.49381860,40.24703795,2674.12
-105.49381699,40.24681731,2663.16
-105.49381667,40.24677335,2668.07
-105.49381600,40.24668065,2661.90
-105.49381517,40.24656614,2661.52
-105.49381505,40.24654965,2660.34
-105.49381491,40.24653065,2660.89
-105.49381460,40.24648731,2654.78
-105.49381427,40.24644218,2660.04
-105.49381407,40.24641515,2652.18
-105.49381343,40.24632722,2650.76
-105.49381317,40.24629082,2650.24
-105.49381275,40.24623290,2654.69
-105.49381248,40.24619560,2649.16
-105.49381231,40.24617235,2648.62
-105.49381221,40.24615875,2653.92
-105.49381067,40.24594740,2646.30
-105.49381040,40.24590992,2649.83
-105.49381034,40.24590163,2650.06
-105.49381006,40.24586334,2644.00
-105.49380946,40.24578037,2644.00
-105.49380905,40.24572469,2647.02
-105.49380871,40.24567740,2642.03
-105.49380751,40.24551280,2636.45
-105.49380693,40.24543262,2635.13
-105.49380692,40.24543064,2635.12
-105.49380661,40.24538802,2634.19
-105.49380604,40.24530964,2632.91
-105.49380479,40.24513847,2631.64
-105.49380459,40.24510973,2631.49
-105.49380423,40.24506090,2631.31
-105.49380401,40.24503036,2639.26
-105.49380380,40.24500153,2631.37
-105.49380350,40.24496036,2631.23
-105.49380349,40.24495874,2631.17
-105.49380249,40.24482135,2633.54
-105.49380228,40.24479306,2632.71
-105.49380198,40.24475081,2630.52
-105.49380178,40.24472423,2634.11
-105.49380173,40.24471721,2630.21
-105.49380167,40.24470793,2629.94
-105.49380106,40.24462450,2629.71
-105.49379995,40.24447126,2634.01
-105.49379975,40.24444396,2634.70
-105.49379972,40.24443964,2632.61
-105.49379934,40.24440378,2628.17
-105.49379882,40.24439748,2627.95
-105.49379680,40.24439496,2627.95
-105.49379350,40.24439381,2627.98
-105.49377493,40.24439352,2628.01
-105.49376599,40.24439356,2628.09
-105.49373166,40.24439371,2628.37
-105.49371485,40.24439378,2628.28
-105.49356331,40.24439443,2628.28
-105.49345820,40.24439488,2628.28
-105.49339213,40.24439516,2627.84
-105.49322189,40.24439588,2626.75
-105.49321319,40.24439592,2633.22
-105.49318674,40.24439603,2633.78
-105.49316146,40.24439614,2626.00
-105.49314594,40.24439621,2625.85
-105.49308034,40.24439649,2625.08
-105.49306976,40.24439653,2624.92
-105.49303637,40.24439667,2630.94
-105.49295219,40.24439703,2635.13
-105.49294090,40.24439708,2627.52
-105.49276256,40.24439784,2618.84
-105.49275585,40.24439787,2618.81
-105.49271024,40.24439806,2618.25
-105.49265674,40.24439829,2630.47
-105.49262265,40.24439844,2632.24
-105.49260219,40.24439852,2633.41
-105.49257668,40.24439863,2630.84
-105.49257421,40.24439864,2634.24
-105.49244947,40.24439917,2623.90
-105.49233614,40.24439965,2622.75
-105.49232497,40.24439970,2628.12
-105.49229346,40.24439984,2623.40
-105.49210242,40.24440065,2628.06
-105.49197638,40.24440118,2633.39
-105.49180368,40.24440192,2639.85
-105.49179533,40.24440195,2630.36
-105.49125652,40.24440424,2640.73
-105.49125558,40.24440425,2640.81
-105.49124512,40.24440429,2640.96
-105.49111520,40.24440484,2647.49
-105.49111403,40.24440485,2648.90
-105.49111332,40.24440485,2649.85
-105.49108146,40.24440499,2643.74
-105.49097824,40.24440542,2644.81
-105.49095002,40.24440554,2645.15
-105.49091769,40.24440568,2645.48
-105.49087160,40.24440588,2651.71
-105.49084162,40.24440600,2648.05
-105.49083445,40.24440603,2650.96
-105.49073311,40.24440646,2647.37
-105.49070301,40.24440659,2647.70
-105.49066527,40.24440675,2650.64
-105.49065822,40.24440678,2648.29
-105.49063271,40.24440689,2654.10
-105.49062424,40.24440692,2648.75
-105.49061789,40.24440695,2654.49
-105.49061554,40.24440696,2655.42
-105.49042697,40.24440776,2658.14
-105.49040051,40.24440787,2652.39
-105.49036324,40.24440803,2654.41
-105.49027789,40.24440839,2659.59
-105.49027730,40.24440839,2660.29
-105.49025555,40.24440849,2664.58
-105.49022522,40.24440862,2662.44
-105.49019312,40.24440875,2664.77
-105.49015068,40.24440893,2661.73
-105.49013505,40.24440900,2666.70
-105.49000466,40.24440955,2667.28
-105.48997069,40.24440969,2668.67
-105.48994847,40.24440979,2669.77
-105.48990297,40.24440998,2675.28
-105.48990085,40.24440999,2676.77
-105.48988721,40.24441005,2672.09
-105.48984630,40.24441022,2680.51
-105.48976953,40.24441054,2677.04
-105.48960399,40.24441125,2684.69
-105.48956296,40.24441142,2686.38
-105.48952193,40.24441159,2693.14
-105.48949113,40.24441172,2689.11
-105.48946056,40.24441185,2690.87
-105.48944587,40.24441191,2690.92
-105.48934076,40.24441236,2694.93
-105.48933947,40.24441236,2694.86
-105.48933747,40.24441237,2697.62
-105.48923142,40.24441282,2702.74
-105.48917440,40.24441306,2701.57
-105.48917052,40.24441308,2705.98
-105.48906965,40.24441350,2710.55
-105.48897713,40.24441390,2714.58
-105.48893798,40.24441406,2708.87
-105.48889988,40.24441422,2709.66
-105.48888049,40.24441430,2713.23
-105.48884768,40.24441444,2713.85
-105.48876997,40.24441477,2713.01
-105.48872389,40.24441497,2718.56
-105.48869931,40.24441507,2714.85
-105.48866898,40.24441520,2715.68
-105.48857904,40.24441558,2721.93
-105.48849216,40.24441594,2721.54
-105.48845842,40.24441609,2722.64
-105.48844278,40.24441615,2723.90
-105.48843091,40.24441620,2727.16
-105.48843009,40.24441621,2724.53
-105.48842809,40.24441621,2725.68
-105.48839493,40.24441635,2726.27
-105.48839435,40.24441636,2727.58
-105.48838329,40.24441640,2722.69
-105.48833250,40.24441662,2722.91
-105.48830993,40.24441671,2723.06
-105.48824198,40.24441700,2726.19
-105.48823986,40.24441701,2727.35
-105.48823598,40.24441702,2723.61
-105.48822952,40.24441705,2726.77
-105.48821623,40.24441711,2723.77
-105.48820095,40.24441717,2723.96
-105.48819060,40.24441722,2731.96
-105.48818566,40.24441724,2731.02
-105.48816438,40.24441733,2724.51
-105.48816039,40.24441734,2724.50
-105.48815169,40.24441738,2724.61
-105.48814522,40.24441741,2734.61
-105.48814240,40.24441742,2728.21
-105.48814228,40.24441742,2728.63
-105.48813323,40.24441746,2732.47
-105.48813111,40.24441747,2733.38
-105.48811700,40.24441753,2731.58
-105.48808702,40.24441765,2733.60
-105.48808126,40.24441768,2733.99
-105.48807868,40.24441769,2725.47
-105.48807762,40.24441769,2734.13
-105.48807162,40.24441772,2734.42
-105.48803259,40.24441788,2733.03
-105.48803083,40.24441789,2726.25
-105.48802048,40.24441793,2734.81
-105.48800437,40.24441800,2726.77
-105.48799156,40.24441806,2732.06
-105.48798533,40.24441808,2730.49
-105.48798298,40.24441809,2730.31
-105.48795782,40.24441820,2727.55
-105.48793830,40.24441828,2727.99
-105.48791643,40.24441837,2728.39
-105.48789480,40.24441846,2731.14
-105.48779816,40.24441887,2734.98
-105.48777723,40.24441896,2731.52
-105.48774091,40.24441911,2736.63
-105.48763803,40.24441955,2735.23
-105.48763239,40.24441957,2735.31
-105.48753493,40.24441998,2737.44
-105.48750989,40.24442009,2743.29
-105.48750260,40.24442012,2745.35
-105.48749237,40.24442016,2738.45
-105.48746321,40.24442028,2745.26
-105.48737656,40.24442065,2741.47
-105.48732190,40.24442088,2742.84
-105.48725206,40.24442117,2744.67
-105.48722067,40.24442130,2745.46
-105.48719269,40.24442142,2748.95
-105.48715283,40.24442159,2754.54
-105.48714707,40.24442161,2747.56
-105.48713543,40.24442166,2748.02
-105.48710640,40.24442178,2748.73
-105.48709781,40.24442182,2750.72
-105.48700446,40.24442221,2748.57
-105.48693357,40.24442251,2749.10
-105.48693193,40.24442252,2749.95
-105.48691993,40.24442257,2746.19
-105.48677650,40.24442317,2741.48
-105.48676757,40.24442321,2745.56
-105.48672254,40.24442340,2739.46
-105.48658675,40.24442397,2737.44
-105.48652267,40.24442424,2740.68
-105.48652103,40.24442425,2731.97
-105.48651562,40.24442427,2741.67
-105.48651409,40.24442428,2740.18
-105.48651021,40.24442429,2741.08
-105.48644179,40.24442458,2729.45
-105.48634879,40.24442497,2741.74
-105.48634138,40.24442500,2743.32
-105.48629154,40.24442521,2734.15
-105.48623981,40.24442543,2722.56
-105.48615046,40.24442580,2719.32
-105.48599127,40.24442647,2716.10
-105.48593813,40.24442670,2712.98
-105.48591861,40.24442678,2711.11
-105.48587746,40.24442695,2720.01
-105.48587476,40.24442696,2721.76
-105.48568842,40.24442774,2706.36
-105.48548432,40.24442860,2697.35
-105.48546351,40.24442869,2696.79
-105.48545446,40.24442873,2696.41
-105.48535676,40.24442914,2693.91
-105.48532866,40.24442925,2693.05
-105.48523284,40.24442965,2697.00
-105.48517735,40.24442989,2693.99
-105.48516642,40.24442993,2695.56
-105.48509435,40.24443024,2696.06
-105.48508847,40.24443026,2696.92
-105.48492364,40.24443095,2686.68
-105.48485721,40.24443123,2688.52
-105.48470896,40.24443185,2685.78
-105.48470802,40.24443185,2686.01
-105.48466534,40.24443203,2687.42
-105.48445525,40.24443291,2678.46
-105.48444538,40.24443295,2679.91
-105.48439294,40.24443317,2683.14
-105.48424551,40.24443379,2676.06
-105.48407551,40.24443450,2673.67
-105.48404776,40.24443462,2672.22
-105.48386154,40.24443540,2669.06
-105.48385625,40.24443542,2670.39
-105.48382615,40.24443554,2660.68
-105.48379734,40.24443566,2659.96
-105.48366050,40.24443624,2666.93
-105.48365850,40.24443625,2655.58
-105.48364745,40.24443629,2655.15
-105.48361429,40.24443643,2653.96
-105.48353094,40.24443678,2661.02
-105.48345381,40.24443710,2649.31
-105.48340996,40.24443728,2653.08
-105.48332837,40.24443762,2649.33
-105.48327958,40.24443783,2645.14
-105.48322197,40.24443807,2643.48
-105.48311581,40.24443851,2640.45
-105.48307442,40.24443868,2644.16
-105.48298919,40.24443904,2637.74
-105.48298495,40.24443906,2646.33
-105.48297813,40.24443909,2647.24
-105.48292570,40.24443931,2636.33
-105.48290853,40.24443938,2645.89
-105.48285822,40.24443959,2646.79
-105.48277568,40.24443993,2639.90
-105.48265353,40.24444044,2646.90
-105.48263801,40.24444051,2649.22
-105.48263296,40.24444053,2648.55
-105.48255442,40.24444085,2630.54
-105.48253526,40.24444093,2633.02
-105.48250834,40.24444105,2637.65
-105.48234515,40.24444173,2631.08
-105.48233234,40.24444178,2634.42
-105.48232317,40.24444182,2628.63
-105.48229777,40.24444192,2628.46
-105.48223429,40.24444219,2638.24
-105.48223088,40.24444220,2635.91
-105.48211272,40.24444269,2627.46
-105.48209038,40.24444279,2627.32
-105.48205723,40.24444293,2632.25
-105.48204312,40.24444307,2628.49
-105.48204286,40.24445533,2627.20
-105.48204302,40.24447857,2632.88
-105.48204315,40.24449704,2627.95
-105.48204360,40.24456074,2636.98
-105.48204392,40.24460551,2630.28
-105.48204405,40.24462380,2645.43
-105.48204458,40.24469866,2643.30
-105.48204473,40.24471893,2639.82
-105.48204575,40.24486362,2646.73
-105.48204665,40.24499002,2636.66
-105.48204677,40.24500768,2641.48
-105.48204685,40.24501804,2642.40
-105.48204692,40.24502858,2640.73
-105.48204799,40.24517921,2642.21
-105.48204909,40.24533489,2652.30
-105.48204914,40.24534083,2654.09
-105.48204934,40.24536930,2656.15
-105.48204960,40.24540543,2649.41
-105.48204968,40.24541678,2649.81
-105.48204993,40.24545237,2654.09
-105.48205002,40.24546471,2658.31
-105.48205005,40.24546939,2654.64
-105.48205018,40.24548822,2651.72
-105.48205027,40.24550065,2662.69
-105.48205044,40.24552525,2653.54
-105.48205050,40.24553273,2659.11
-105.48205053,40.24553714,2658.66
-105.48205115,40.24562471,2658.54
-105.48205148,40.24567129,2660.01
-105.48205166,40.24569669,2659.03
-105.48205178,40.24571291,2659.12
-105.48205236,40.24579534,2658.52
-105.48205247,40.24581102,2660.87
-105.48205264,40.24583426,2657.36
-105.48205340,40.24594237,2660.67
-105.48205351,40.24595679,2659.44
-105.48205375,40.24599183,2650.32
-105.48205381,40.24599976,2653.02
-105.48205426,40.24606309,2656.72
-105.48205438,40.24608048,2646.62
-105.48205469,40.24612408,2650.44
-105.48205471,40.24612706,2649.44
-105.48205481,40.24614003,2644.97
-105.48205595,40.24630165,2641.20
-105.48205610,40.24632237,2639.74
-105.48205644,40.24636976,2638.73
-105.48205659,40.24639138,2638.42
-105.48205666,40.24640138,2637.97
-105.48205736,40.24650012,2643.79
-105.48205738,40.24650346,2641.19
-105.48205750,40.24651967,2637.50
-105.48205792,40.24657931,2634.40
-105.48205802,40.24659346,2634.00
-105.48205806,40.24659913,2633.90
-105.48205809,40.24660355,2633.73
-105.48205830,40.24663184,2633.07
-105.48205846,40.24665517,2642.40
-105.48205985,40.24685148,2626.76
-105.48206018,40.24689770,2625.59
-105.48206025,40.24690743,2634.43
-105.48206165,40.24710418,2620.15
-105.48206197,40.24715022,2618.91
-105.48206218,40.24717932,2634.22
-105.48206231,40.24719716,2637.36
-105.48206245,40.24721734,2625.15
-105.48206267,40.24724797,2620.02
-105.48206299,40.24729319,2628.28
-105.48206326,40.24733238,2619.07
-105.48206341,40.24735211,2620.26
-105.48206372,40.24739707,2626.29
-105.48206384,40.24741329,2620.50
-105.48206425,40.24747058,2617.11
-105.48206427,40.24747374,2616.97
-105.48206433,40.24748320,2616.95
-105.48206441,40.24749392,2623.26
-105.48206460,40.24752122,2623.74
-105.48206471,40.24753590,2617.18
-105.48206572,40.24767887,2611.13
-105.48206583,40.24769338,2628.09
-105.48206629,40.24775833,2619.49
-105.48206645,40.24778077,2613.95
-105.48206756,40.24793816,2616.15
-105.48206760,40.24794311,2613.69
-105.48206801,40.24800131,2619.22
-105.48206842,40.24805861,2613.75
-105.48206856,40.24807852,2624.23
-105.48206884,40.24811762,2616.68
-105.48206899,40.24813978,2617.22
-105.48206959,40.24822329,2614.08
-105.48207104,40.24842780,2614.22
-105.48207117,40.24844681,2614.40
-105.48207276,40.24867024,2618.45
-105.48207326,40.24874186,2630.49
-105.48207331,40.24874825,2625.04
-105.48207403,40.24885015,2617.27
-105.48207457,40.24892546,2625.02
-105.48207466,40.24893817,2622.80
-105.48207466,40.24893889,2624.89
-105.48207487,40.24896880,2624.18
-105.48207546,40.24905186,2619.55
-105.48207605,40.24913411,2620.06
-105.48207611,40.24914285,2606.20
-105.48207628,40.24916664,2607.91
-105.48207636,40.24917754,2617.54
-105.48207637,40.24918006,2615.98
-105.48207638,40.24918132,2616.09
-105.48207721,40.24929736,2613.37
-105.48207733,40.24931547,2611.07
-105.48207738,40.24932150,2598.62
-105.48207758,40.24935042,2613.01
-105.48207764,40.24935817,2611.50
-105.48207799,40.24940826,2596.57
-105.48207814,40.24942916,2594.40
-105.48207869,40.24950700,2592.62
-105.48207876,40.24951601,2595.07
-105.48207950,40.24962069,2594.38
-105.48207953,40.24962439,2601.96
-105.48207956,40.24962898,2602.44
-105.48207966,40.24964268,2598.16
-105.48208033,40.24973736,2586.00
-105.48208104,40.24983790,2597.85
-105.48208125,40.24986772,2588.22
-105.48208144,40.24989394,2581.59
-105.48208167,40.24992592,2579.79
-105.48208183,40.24994881,2591.20
-105.48208190,40.24995944,2577.72
-105.48208192,40.24996214,2585.22
-105.48208203,40.24997782,2578.56
-105.48208225,40.25000854,2574.28
-105.48208247,40.25003962,2574.58
-105.48208258,40.25005439,2577.73
-105.48208331,40.25015773,2582.71
-105.48208342,40.25017259,2567.43
-105.48208365,40.25020520,2568.53
-105.48208394,40.25024620,2578.58
-105.48208395,40.25024845,2569.08
-105.48208399,40.25025430,2579.30
-105.48208408,40.25026620,2578.95
-105.48208416,40.25027809,2573.57
-105.48208418,40.25027989,2569.00
-105.48208451,40.25032647,2577.31
-105.48208452,40.25032872,2582.18
-105.48208501,40.25039800,2580.35
-105.48208559,40.25047917,2579.77
-105.48208580,40.25050800,2582.27
-105.48208721,40.25070683,2584.86
-105.48208731,40.25072197,2589.27
-105.48208757,40.25075845,2596.11
-105.48208762,40.25076521,2598.64
-105.48208765,40.25076980,2598.77
-105.48208771,40.25077719,2597.34
-105.48208774,40.25078152,2583.04
-105.48208796,40.25081368,2583.60
-105.48208840,40.25087548,2585.00
-105.48208901,40.25096044,2593.26
-105.48208967,40.25105440,2595.03
-105.48208983,40.25107692,2593.92
-105.48208985,40.25107990,2591.59
-105.48209196,40.25137648,2605.27
-105.48209372,40.25162450,2607.85
-105.48209491,40.25179243,2603.00
-105.48209592,40.25193441,2604.08
-105.48209627,40.25198387,2615.34
-105.48209638,40.25200036,2604.96
-105.48209693,40.25207747,2613.71
-105.48209775,40.25219324,2608.85
-105.48209813,40.25224657,2610.00
-105.48209935,40.25241847,2616.94
-105.48210062,40.25259739,2625.27
-105.48210091,40.25263784,2630.73
-105.48210111,40.25266658,2626.76
-105.48210163,40.25273901,2627.73
-105.48210169,40.25274730,2627.62
-105.48210211,40.25280685,2633.22
-105.48210218,40.25281766,2631.59
-105.48210223,40.25282397,2633.66
-105.48210255,40.25286910,2635.58
-105.48210258,40.25287370,2635.26
-105.48210280,40.25290397,2631.90
-105.48210294,40.25292451,2632.51
-105.48210329,40.25297280,2629.41
-105.48210331,40.25297604,2629.49
-105.48210360,40.25301766,2629.47
-105.48210362,40.25302055,2629.49
-105.48210390,40.25305992,2629.71
-105.48210412,40.25309001,2629.91
-105.48210437,40.25312514,2633.12
-105.48210458,40.25315496,2632.51
-105.48210462,40.25316055,2634.51
-105.48210476,40.25318082,2635.62
-105.48210478,40.25318325,2634.17
-105.48210487,40.25319676,2630.20
-105.48210510,40.25322902,2635.97
-105.48210534,40.25326226,2630.50
-105.48210615,40.25337586,2636.09
-105.48210625,40.25339037,2640.79
-105.48210653,40.25342947,2631.38
-105.48210735,40.25344640,2630.16
-105.48210762,40.25345118,2630.17
-105.48211162,40.25345188,2630.13
-105.48217547,40.25345170,2644.24
-105.48218700,40.25345166,2637.36
-105.48221616,40.25345153,2630.14
-105.48231739,40.25345111,2637.09
-105.48238030,40.25345085,2631.13
-105.48241934,40.25345069,2631.25
-105.48247837,40.25345044,2637.21
-105.48249530,40.25345037,2631.82
-105.48250012,40.25345035,2638.41
-105.48260277,40.25344992,2628.60
-105.48261123,40.25344989,2629.00
-105.48268378,40.25344959,2624.26
-105.48271859,40.25344944,2623.91
-105.48279984,40.25344910,2632.31
-105.48281430,40.25344904,2636.51
-105.48287380,40.25344879,2621.77
-105.48290813,40.25344865,2622.01
-105.48292377,40.25344858,2622.11
-105.48293953,40.25344852,2625.20
-105.48294870,40.25344848,2629.28
-105.48299832,40.25344827,2626.68
-105.48300161,40.25344826,2625.56
-105.48311061,40.25344780,2629.34
-105.48316858,40.25344756,2626.13
-105.48317422,40.25344754,2624.30
-105.48332050,40.25344693,2624.15
-105.48332285,40.25344692,2623.43
-105.48339363,40.25344662,2625.65
-105.48343385,40.25344645,2623.95
-105.48356424,40.25344591,2626.39
-105.48358035,40.25344584,2624.22
-105.48365984,40.25344551,2622.68
-105.48368159,40.25344542,2626.93
-105.48369700,40.25344535,2618.13
-105.48370005,40.25344534,2625.29
-105.48377778,40.25344502,2625.31
-105.48385562,40.25344469,2613.70
-105.48390453,40.25344449,2613.04
-105.48392217,40.25344441,2616.58
-105.48393393,40.25344436,2612.42
-105.48398954,40.25344413,2622.43
-105.48399213,40.25344412,2621.68
-105.48400730,40.25344406,2615.68
-105.48401635,40.25344402,2612.14
-105.48404022,40.25344392,2611.98
-105.48424317,40.25344307,2617.13
-105.48431478,40.25344277,2622.04
-105.48434993,40.25344262,2619.12
-105.48438250,40.25344249,2614.49
-105.48443224,40.25344228,2619.05
-105.48451667,40.25344193,2637.31
-105.48460674,40.25344155,2632.34
-105.48472879,40.25344104,2625.65
-105.48504238,40.25343972,2638.37
-105.48514585,40.25343929,2642.90
-105.48521911,40.25343898,2650.35
-105.48557926,40.25343747,2658.48
-105.48560243,40.25343737,2666.62
-105.48562759,40.25343727,2669.34
-105.48563700,40.25343723,2660.62
-105.48580832,40.25343651,2666.98
-105.48591626,40.25343606,2684.08
-105.48602655,40.25343559,2685.81
-105.48603172,40.25343557,2685.46
-105.48605783,40.25343546,2679.05
-105.48614061,40.25343512,2681.31
-105.48614731,40.25343509,2679.52
-105.48628182,40.25343452,2682.06
-105.48634638,40.25343425,2684.20
-105.48635272,40.25343422,2682.51
-105.48640858,40.25343399,2680.06
-105.48644420,40.25343384,2681.86
-105.48664480,40.25343300,2673.31
-105.48665644,40.25343295,2677.18
-105.48666197,40.25343292,2678.70
-105.48669031,40.25343280,2677.49
-105.48676532,40.25343249,2674.91
-105.48678731,40.25343240,2670.21
-105.48687562,40.25343203,2668.66
-105.48693758,40.25343176,2673.99
-105.48694229,40.25343175,2669.40
-105.48696310,40.25343166,2672.47
-105.48698979,40.25343154,2665.86
-105.48699802,40.25343151,2665.69
-105.48700813,40.25343147,2673.14
-105.48710490,40.25343106,2672.44
-105.48712348,40.25343098,2661.94
-105.48712513,40.25343098,2670.37
-105.48715158,40.25343086,2661.19
-105.48724894,40.25343045,2664.22
-105.48730056,40.25343024,2664.02
-105.48731020,40.25343020,2661.69
-105.48733372,40.25343010,2655.89
-105.48734313,40.25343006,2653.46
-105.48740627,40.25342979,2650.88
-105.48742990,40.25342969,2662.16
-105.48747258,40.25342951,2658.64
-105.48751703,40.25342933,2649.85
-105.48754172,40.25342922,2666.84
-105.48755172,40.25342918,2664.39
-105.48760675,40.25342895,2651.12
-105.48764931,40.25342877,2651.47
     </coordinates>
    </LineString>
   </MultiGeometry>
  </Placemark>
 </Document>
</kml>
