<kml>
 <Document>
  <Style id="yellow">
   <LineStyle>
   <color>ff00ffff</color>
   <width>1</width>
   </LineStyle>
  </Style>
  <Style id="red">
   <LineStyle>
   <color>ffff0000</color>
   <width>2</width>
   </LineStyle>
  </Style>
  <Style id="green">
   <LineStyle>
   <color>ff00ff00</color>
   <width>1</width>
   </LineStyle>
  </Style>
  <Placemark>
  <styleUrl>#yellow</styleUrl>
   <MultiGeometry>
    <LineString>
     <coordinates>
-105.47438950,40.27150257,2600.28
-105.47442902,40.27150240,2598.89
-105.47444078,40.27150236,2603.43
-105.47452840,40.27150200,2604.13
-105.47461308,40.27150165,2605.39
-105.47463261,40.27150157,2610.67
-105.47463496,40.27150156,2615.80
-105.47465084,40.27150149,2617.22
-105.47466942,40.27150142,2607.05
-105.47474011,40.27150113,2611.17
-105.47478621,40.27150094,2608.54
-105.47481467,40.27150082,2610.33
-105.47484537,40.27150070,2609.15
-105.47496663,40.27150020,2614.76
-105.47497875,40.27150015,2611.21
-105.47506355,40.27149980,2605.51
-105.47519563,40.27149926,2605.20
-105.47528490,40.27149889,2607.65
-105.47530360,40.27149882,2608.11
-105.47533700,40.27149868,2608.37
-105.47542109,40.27149833,2609.50
-105.47547390,40.27149812,2609.95
-105.47552377,40.27149791,2610.52
-105.47556423,40.27149774,2611.27
-105.47558599,40.27149765,2611.59
-105.47561092,40.27149755,2612.03
-105.47561575,40.27149753,2612.12
-105.47562127,40.27149751,2612.11
-105.47562304,40.27149750,2612.16
-105.47573042,40.27149706,2614.16
-105.47574994,40.27149698,2614.41
-105.47576441,40.27149692,2614.97
-105.47576594,40.27149692,2615.04
-105.47577535,40.27149688,2614.95
-105.47578041,40.27149686,2614.98
-105.47579064,40.27149681,2615.14
-105.47580934,40.27149674,2615.50
-105.47589696,40.27149638,2617.05
-105.47591002,40.27149632,2617.26
-105.47596094,40.27149611,2618.37
-105.47611384,40.27149548,2621.10
-105.47615595,40.27149531,2621.90
-105.47619723,40.27149514,2622.81
-105.47647915,40.27149398,2631.49
-105.47648786,40.27149395,2631.70
-105.47666839,40.27149320,2638.16
-105.47679507,40.27149268,2639.69
-105.47684188,40.27149249,2641.17
-105.47684246,40.27149248,2642.10
-105.47687398,40.27149235,2640.61
-105.47692374,40.27149215,2641.34
-105.47701395,40.27149178,2642.30
-105.47701959,40.27149175,2645.06
-105.47706005,40.27149159,2643.25
-105.47713909,40.27149126,2644.22
-105.47718449,40.27149107,2647.53
-105.47722589,40.27149090,2646.24
-105.47722659,40.27149090,2646.32
-105.47730069,40.27149060,2647.51
-105.47733727,40.27149044,2648.38
-105.47745653,40.27148995,2651.82
-105.47748311,40.27148984,2653.39
-105.47748958,40.27148982,2652.89
-105.47756567,40.27148950,2656.54
-105.47761307,40.27148931,2659.68
-105.47762166,40.27148927,2662.25
-105.47764906,40.27148916,2662.85
-105.47782878,40.27148842,2665.99
-105.47783819,40.27148838,2664.51
-105.47791417,40.27148806,2668.22
-105.47799050,40.27148775,2669.00
-105.47807871,40.27148738,2671.75
-105.47809753,40.27148730,2679.55
-105.47814151,40.27148712,2675.61
-105.47816304,40.27148703,2676.90
-105.47819703,40.27148689,2674.90
-105.47830582,40.27148644,2679.35
-105.47839380,40.27148608,2680.08
-105.47846460,40.27148579,2681.39
-105.47849824,40.27148565,2682.21
-105.47850141,40.27148564,2685.54
-105.47859492,40.27148525,2691.30
-105.47862197,40.27148514,2690.36
-105.47866360,40.27148497,2692.09
-105.47869548,40.27148483,2691.44
-105.47878463,40.27148446,2689.19
-105.47890330,40.27148397,2692.66
-105.47890965,40.27148395,2697.52
-105.47907608,40.27148326,2703.85
-105.47914723,40.27148296,2704.57
-105.47915064,40.27148295,2706.64
-105.47922392,40.27148265,2708.10
-105.47923380,40.27148260,2701.85
-105.47926849,40.27148246,2708.71
-105.47938964,40.27148196,2714.52
-105.47951007,40.27148146,2718.31
-105.47961346,40.27148103,2720.10
-105.47961499,40.27148103,2721.03
-105.47962781,40.27148097,2720.73
-105.47963133,40.27148096,2720.38
-105.47964451,40.27148090,2713.85
-105.47964839,40.27148089,2721.82
-105.47968826,40.27148072,2715.09
-105.47968944,40.27148072,2719.18
-105.47970320,40.27148066,2723.63
-105.47974519,40.27148049,2721.88
-105.47974707,40.27148048,2722.50
-105.47976694,40.27148040,2720.41
-105.47984422,40.27148008,2718.68
-105.47990726,40.27147981,2727.53
-105.47991196,40.27147979,2727.61
-105.48008768,40.27147907,2726.31
-105.48017412,40.27147871,2734.40
-105.48019141,40.27147864,2732.31
-105.48027680,40.27147828,2727.61
-105.48041323,40.27147771,2728.05
-105.48045640,40.27147754,2730.38
-105.48046110,40.27147752,2731.31
-105.48051979,40.27147727,2733.75
-105.48057637,40.27147704,2732.06
-105.48061800,40.27147686,2730.19
-105.48071797,40.27147645,2732.20
-105.48078878,40.27147615,2742.54
-105.48079254,40.27147614,2742.00
-105.48081936,40.27147603,2734.88
-105.48086934,40.27147582,2736.02
-105.48098990,40.27147532,2738.97
-105.48105106,40.27147506,2745.32
-105.48110963,40.27147482,2746.62
-105.48116138,40.27147461,2744.29
-105.48121748,40.27147437,2744.82
-105.48125665,40.27147421,2747.91
-105.48126053,40.27147419,2748.77
-105.48129852,40.27147404,2750.07
-105.48134650,40.27147384,2755.68
-105.48142295,40.27147352,2748.45
-105.48145447,40.27147339,2753.28
-105.48146729,40.27147333,2751.40
-105.48149140,40.27147323,2752.52
-105.48149317,40.27147323,2750.14
-105.48157515,40.27147288,2753.20
-105.48164689,40.27147259,2753.29
-105.48172534,40.27147226,2759.31
-105.48179226,40.27147198,2756.04
-105.48180355,40.27147193,2756.96
-105.48189717,40.27147154,2765.55
-105.48202079,40.27147103,2762.15
-105.48207289,40.27147081,2763.40
-105.48220309,40.27147027,2769.33
-105.48221508,40.27147022,2767.18
-105.48222684,40.27146981,2767.50
-105.48222943,40.27146935,2768.60
-105.48223166,40.27146880,2767.68
-105.48223424,40.27146753,2773.85
-105.48223442,40.27146077,2767.75
-105.48223406,40.27140933,2777.98
-105.48223403,40.27140473,2775.24
-105.48223396,40.27139572,2775.40
-105.48223376,40.27136744,2775.67
-105.48223375,40.27136536,2768.55
-105.48223316,40.27128230,2775.45
-105.48223304,40.27126635,2776.93
-105.48223302,40.27126365,2774.24
-105.48223268,40.27121554,2780.11
-105.48223266,40.27121284,2777.54
-105.48223248,40.27118734,2775.67
-105.48223200,40.27111978,2771.47
-105.48223199,40.27111833,2770.11
-105.48223193,40.27110915,2776.49
-105.48223077,40.27094689,2775.11
-105.48223060,40.27092230,2776.31
-105.48223046,40.27090248,2770.54
-105.48223042,40.27089752,2770.49
-105.48222976,40.27080365,2774.39
-105.48222961,40.27078248,2771.94
-105.48222859,40.27063923,2768.87
-105.48222833,40.27060320,2773.15
-105.48222832,40.27060094,2773.17
-105.48222811,40.27057112,2772.90
-105.48222807,40.27056599,2768.77
-105.48222805,40.27056383,2772.68
-105.48222802,40.27055941,2777.59
-105.48222797,40.27055203,2773.67
-105.48222793,40.27054680,2777.94
-105.48222791,40.27054428,2776.42
-105.48222789,40.27054085,2777.47
-105.48222774,40.27052031,2768.50
-105.48222734,40.27046365,2768.20
-105.48222709,40.27042860,2770.84
-105.48222696,40.27040986,2776.83
-105.48222693,40.27040518,2771.55
-105.48222676,40.27038184,2769.85
-105.48222671,40.27037410,2776.41
-105.48222662,40.27036220,2767.42
-105.48222582,40.27024968,2769.51
-105.48222550,40.27020419,2765.74
-105.48222546,40.27019851,2773.01
-105.48222535,40.27018310,2765.76
-105.48222523,40.27016671,2765.26
-105.48222516,40.27015689,2765.14
-105.48222499,40.27013220,2764.81
-105.48222487,40.27011608,2774.90
-105.48222460,40.27007752,2764.14
-105.48222453,40.27006716,2771.77
-105.48222451,40.27006536,2770.45
-105.48222449,40.27006220,2770.82
-105.48222446,40.27005725,2772.61
-105.48222443,40.27005355,2764.07
-105.48222441,40.27005148,2771.75
-105.48222404,40.26999824,2763.71
-105.48222401,40.26999490,2772.32
-105.48222399,40.26999193,2772.43
-105.48222398,40.26998995,2772.58
-105.48222384,40.26997013,2769.59
-105.48222374,40.26995653,2763.25
-105.48222310,40.26986590,2762.63
-105.48222305,40.26985977,2764.84
-105.48222297,40.26984761,2762.51
-105.48222211,40.26972670,2761.43
-105.48222206,40.26972049,2768.06
-105.48222172,40.26967238,2764.52
-105.48222172,40.26967220,2760.61
-105.48222098,40.26956833,2770.54
-105.48221995,40.26942310,2761.81
-105.48221931,40.26933247,2755.39
-105.48221927,40.26932643,2764.60
-105.48221842,40.26920778,2753.77
-105.48221836,40.26919895,2760.50
-105.48221834,40.26919580,2761.12
-105.48221827,40.26918562,2762.37
-105.48221806,40.26915706,2753.07
-105.48221782,40.26912274,2752.89
-105.48221780,40.26912058,2758.83
-105.48221765,40.26909877,2753.23
-105.48221760,40.26909202,2752.57
-105.48221720,40.26903589,2758.81
-105.48221716,40.26902976,2759.14
-105.48221715,40.26902904,2752.87
-105.48221715,40.26902796,2757.52
-105.48221706,40.26901661,2750.80
-105.48221697,40.26900346,2758.58
-105.48221632,40.26891229,2745.02
-105.48221557,40.26880607,2743.10
-105.48221525,40.26876111,2739.38
-105.48221504,40.26873147,2738.32
-105.48221386,40.26856490,2735.70
-105.48221374,40.26854823,2738.85
-105.48221360,40.26852931,2738.39
-105.48221320,40.26847210,2744.94
-105.48221317,40.26846877,2747.16
-105.48221309,40.26845652,2733.92
-105.48221299,40.26844345,2733.62
-105.48221287,40.26842544,2733.33
-105.48221231,40.26834661,2736.57
-105.48221225,40.26833877,2740.04
-105.48221220,40.26833210,2743.19
-105.48221179,40.26827318,2729.15
-105.48221127,40.26820039,2729.16
-105.48221118,40.26818850,2729.09
-105.48221097,40.26815787,2735.59
-105.48221066,40.26811444,2733.23
-105.48220999,40.26802021,2727.26
-105.48220958,40.26796210,2726.73
-105.48220955,40.26795805,2732.66
-105.48220944,40.26794273,2726.51
-105.48220893,40.26787165,2735.03
-105.48220890,40.26786705,2733.82
-105.48220877,40.26784841,2726.15
-105.48220875,40.26784606,2734.81
-105.48220872,40.26784228,2731.65
-105.48220825,40.26777480,2725.20
-105.48220776,40.26770588,2724.23
-105.48220642,40.26751813,2720.29
-105.48220605,40.26746588,2719.32
-105.48220600,40.26745912,2726.33
-105.48220537,40.26737029,2728.86
-105.48220523,40.26734966,2725.66
-105.48220500,40.26731822,2726.20
-105.48220488,40.26730038,2717.04
-105.48220450,40.26724777,2715.82
-105.48220371,40.26713570,2719.74
-105.48220360,40.26712011,2715.63
-105.48220360,40.26712002,2719.72
-105.48220334,40.26708336,2712.70
-105.48220322,40.26706750,2712.19
-105.48220249,40.26696480,2716.15
-105.48220246,40.26696047,2712.90
-105.48220238,40.26694849,2719.72
-105.48220232,40.26694002,2709.42
-105.48220217,40.26691966,2713.51
-105.48220201,40.26689714,2715.54
-105.48220179,40.26686534,2708.22
-105.48220102,40.26675777,2706.73
-105.48220092,40.26674290,2706.53
-105.48220059,40.26669615,2706.17
-105.48220009,40.26662597,2706.10
-105.48220000,40.26661371,2714.86
-105.48219997,40.26660903,2705.99
-105.48219965,40.26656389,2710.13
-105.48219962,40.26656038,2708.59
-105.48219904,40.26647831,2715.37
-105.48219895,40.26646596,2712.12
-105.48219883,40.26644849,2712.47
-105.48219816,40.26635416,2713.54
-105.48219813,40.26634993,2708.53
-105.48219812,40.26634939,2711.51
-105.48219811,40.26634804,2706.61
-105.48219802,40.26633542,2702.88
-105.48219799,40.26633002,2703.01
-105.48219798,40.26632939,2706.50
-105.48219751,40.26626290,2702.38
-105.48219728,40.26623047,2701.92
-105.48219643,40.26611155,2699.89
-105.48219641,40.26610758,2708.00
-105.48219637,40.26610191,2705.24
-105.48219600,40.26605101,2702.56
-105.48219579,40.26602011,2705.96
-105.48219544,40.26597137,2700.20
-105.48219543,40.26596993,2706.13
-105.48219534,40.26595776,2698.10
-105.48219530,40.26595209,2701.22
-105.48219516,40.26593200,2701.27
-105.48219507,40.26591974,2707.10
-105.48219499,40.26590857,2696.80
-105.48219498,40.26590632,2696.79
-105.48219487,40.26589074,2699.78
-105.48219486,40.26588974,2700.94
-105.48219475,40.26587362,2706.81
-105.48219426,40.26580533,2704.48
-105.48219419,40.26579488,2704.30
-105.48219396,40.26576272,2693.85
-105.48219386,40.26574956,2693.68
-105.48219372,40.26572974,2695.06
-105.48219362,40.26571542,2702.67
-105.48219312,40.26564515,2692.59
-105.48219298,40.26562497,2692.43
-105.48219262,40.26557434,2692.29
-105.48219247,40.26555281,2691.69
-105.48219076,40.26531253,2694.55
-105.48219042,40.26526488,2690.01
-105.48218991,40.26519253,2692.62
-105.48218926,40.26510073,2689.49
-105.48218886,40.26504523,2689.40
-105.48218728,40.26482172,2688.79
-105.48218692,40.26477172,2688.17
-105.48218623,40.26467433,2691.17
-105.48218579,40.26461244,2687.89
-105.48218546,40.26456613,2687.64
-105.48218501,40.26450235,2687.25
-105.48218465,40.26445181,2690.88
-105.48218440,40.26441712,2686.94
-105.48218383,40.26433640,2686.85
-105.48218325,40.26425460,2686.16
-105.48218316,40.26424144,2686.25
-105.48218232,40.26412370,2684.41
-105.48218193,40.26406820,2683.67
-105.48218178,40.26404766,2686.88
-105.48218118,40.26396279,2687.55
-105.48218111,40.26395379,2688.00
-105.48218103,40.26394252,2682.39
-105.48218041,40.26385514,2681.32
-105.48217949,40.26372550,2683.22
-105.48217891,40.26364351,2684.78
-105.48217877,40.26362324,2688.97
-105.48217865,40.26360685,2688.10
-105.48217864,40.26360549,2690.94
-105.48217853,40.26359027,2686.23
-105.48217834,40.26356270,2680.53
-105.48217807,40.26352486,2683.91
-105.48217794,40.26350757,2681.99
-105.48217694,40.26336567,2681.38
-105.48217676,40.26334054,2685.46
-105.48217666,40.26332711,2681.44
-105.48217658,40.26331576,2681.45
-105.48217616,40.26325621,2685.21
-105.48217581,40.26320648,2686.01
-105.48217548,40.26316081,2688.20
-105.48217539,40.26314711,2689.27
-105.48217536,40.26314342,2687.32
-105.48217534,40.26314072,2682.74
-105.48217496,40.26308783,2682.41
-105.48217485,40.26307234,2682.20
-105.48217416,40.26297414,2681.17
-105.48217386,40.26293225,2680.24
-105.48217382,40.26292612,2680.09
-105.48217378,40.26292117,2684.86
-105.48217372,40.26291243,2683.42
-105.48217269,40.26276702,2677.84
-105.48217219,40.26269756,2678.59
-105.48217182,40.26264459,2676.12
-105.48217149,40.26259801,2675.47
-105.48217148,40.26259693,2675.48
-105.48217098,40.26252675,2679.51
-105.48217061,40.26247468,2673.77
-105.48216879,40.26246712,2673.72
-105.48216783,40.26246334,2673.66
-105.48216711,40.26246154,2673.65
-105.48213865,40.26246139,2676.38
-105.48210301,40.26246144,2672.20
-105.48206891,40.26246159,2678.18
-105.48202646,40.26246176,2670.57
-105.48196319,40.26246203,2669.47
-105.48191086,40.26246224,2673.84
-105.48184042,40.26246254,2667.76
-105.48183501,40.26246256,2671.17
-105.48183277,40.26246257,2672.55
-105.48181549,40.26246264,2667.40
-105.48181454,40.26246264,2667.99
-105.48181243,40.26246265,2669.26
-105.48180996,40.26246266,2670.86
-105.48176727,40.26246284,2666.55
-105.48167825,40.26246321,2668.17
-105.48160863,40.26246350,2664.28
-105.48158041,40.26246362,2663.82
-105.48149221,40.26246399,2662.65
-105.48143388,40.26246423,2661.83
-105.48139977,40.26246437,2661.89
-105.48139425,40.26246439,2662.07
-105.48137496,40.26246447,2660.89
-105.48128088,40.26246487,2663.02
-105.48121679,40.26246513,2664.57
-105.48105839,40.26246579,2656.99
-105.48102558,40.26246593,2656.34
-105.48095502,40.26246622,2655.34
-105.48091809,40.26246637,2654.44
-105.48087599,40.26246655,2653.76
-105.48087070,40.26246657,2659.56
-105.48075627,40.26246705,2651.89
-105.48073793,40.26246712,2652.33
-105.48072570,40.26246717,2661.65
-105.48068666,40.26246734,2658.25
-105.48066020,40.26246745,2650.15
-105.48063103,40.26246757,2657.83
-105.48059352,40.26246772,2652.85
-105.48054554,40.26246792,2649.05
-105.48048521,40.26246817,2653.21
-105.48047662,40.26246821,2657.48
-105.48044264,40.26246835,2648.64
-105.48039419,40.26246855,2651.73
-105.48035891,40.26246870,2652.33
-105.48027224,40.26246906,2647.26
-105.48014076,40.26246960,2647.56
-105.48002516,40.26247008,2646.96
-105.48000576,40.26247016,2648.67
-105.47992003,40.26247052,2645.70
-105.47985182,40.26247080,2652.04
-105.47982724,40.26247090,2652.54
-105.47973622,40.26247128,2651.29
-105.47950938,40.26247222,2644.20
-105.47926559,40.26247323,2645.15
-105.47926171,40.26247325,2645.13
-105.47906897,40.26247404,2648.26
-105.47874851,40.26247537,2641.33
-105.47869254,40.26247560,2641.16
-105.47865549,40.26247575,2644.26
-105.47845440,40.26247659,2643.89
-105.47821485,40.26247758,2643.80
-105.47803904,40.26247830,2637.73
-105.47799623,40.26247848,2643.20
-105.47788169,40.26247895,2635.05
-105.47776903,40.26247942,2634.40
-105.47776774,40.26247942,2635.54
-105.47761780,40.26248004,2634.38
-105.47759005,40.26248016,2627.27
-105.47754759,40.26248033,2625.83
-105.47753195,40.26248040,2628.63
-105.47745058,40.26248073,2623.31
-105.47737849,40.26248103,2624.75
-105.47737755,40.26248103,2625.74
-105.47732286,40.26248126,2627.23
-105.47721844,40.26248169,2617.91
-105.47721549,40.26248170,2615.13
-105.47706426,40.26248233,2609.03
-105.47705874,40.26248235,2613.74
-105.47693926,40.26248284,2603.18
-105.47676921,40.26248354,2597.52
-105.47661480,40.26248418,2589.82
-105.47654636,40.26248446,2593.95
-105.47648309,40.26248472,2581.97
-105.47643382,40.26248492,2580.69
-105.47642676,40.26248495,2582.76
-105.47642429,40.26248496,2583.73
-105.47639713,40.26248507,2577.96
-105.47627941,40.26248556,2579.10
-105.47615652,40.26248606,2567.90
-105.47613265,40.26248616,2566.33
-105.47610313,40.26248628,2565.19
-105.47593543,40.26248697,2556.74
-105.47584935,40.26248733,2557.00
-105.47577256,40.26248764,2549.90
-105.47570153,40.26248794,2547.08
-105.47563920,40.26248819,2546.69
-105.47552337,40.26248867,2538.33
-105.47550608,40.26248874,2537.46
-105.47537848,40.26248926,2534.77
-105.47483388,40.26249150,2546.30
-105.47480507,40.26249162,2550.47
-105.47470488,40.26249203,2551.50
-105.47466513,40.26249219,2552.08
-105.47457529,40.26249256,2542.89
-105.47457434,40.26249256,2544.36
-105.47443852,40.26249312,2547.03
-105.47436196,40.26249343,2539.38
-105.47430528,40.26249367,2537.52
-105.47423942,40.26249394,2534.23
-105.47412241,40.26249442,2528.76
-105.47387992,40.26249541,2520.44
-105.47370541,40.26249612,2523.21
-105.47362026,40.26249647,2523.80
-105.47361003,40.26249651,2517.93
-105.47360945,40.26249652,2510.44
-105.47355135,40.26249675,2522.46
-105.47348797,40.26249701,2512.61
-105.47342482,40.26249727,2524.14
-105.47324301,40.26249802,2528.09
-105.47305991,40.26249876,2529.32
-105.47287010,40.26249954,2532.25
-105.47270970,40.26250020,2527.79
-105.47260304,40.26250063,2526.73
-105.47240923,40.26250142,2527.78
-105.47202739,40.26250307,2526.95
-105.47167824,40.26250440,2521.61
-105.47160862,40.26250469,2521.91
-105.47146456,40.26250528,2522.40
-105.47145762,40.26250530,2535.81
-105.47141364,40.26250548,2522.73
-105.47132062,40.26250586,2522.54
-105.47122807,40.26250624,2529.36
-105.47122607,40.26250625,2529.61
-105.47121490,40.26250629,2531.31
-105.47105826,40.26250693,2526.89
-105.47105414,40.26250695,2522.46
-105.47104379,40.26250699,2524.01
-105.47097264,40.26250728,2525.08
-105.47084717,40.26250779,2522.79
-105.47084105,40.26250781,2522.34
-105.47083694,40.26250783,2524.40
-105.47066477,40.26250853,2515.61
-105.47066230,40.26250854,2515.62
-105.47052365,40.26250911,2515.84
-105.47052283,40.26250911,2514.19
-105.47049331,40.26250923,2510.62
-105.47046274,40.26250944,2508.20
-105.47043687,40.26250973,2508.80
-105.47041147,40.26251010,2508.35
-105.47041090,40.26253010,2508.47
-105.47041110,40.26255902,2507.16
-105.47041123,40.26257758,2507.29
-105.47041125,40.26258056,2508.74
-105.47041201,40.26269029,2507.54
-105.47041269,40.26278822,2521.33
-105.47041288,40.26281668,2523.87
-105.47041293,40.26282308,2521.98
-105.47041332,40.26287930,2510.20
-105.47041358,40.26291768,2510.65
-105.47041386,40.26295714,2511.40
-105.47041431,40.26302272,2518.83
-105.47041433,40.26302606,2517.66
-105.47041454,40.26305515,2518.22
-105.47041454,40.26305570,2515.20
-105.47041524,40.26315687,2517.43
-105.47041532,40.26316795,2517.44
-105.47041553,40.26319894,2518.19
-105.47041565,40.26321552,2518.75
-105.47041580,40.26323759,2522.69
-105.47041607,40.26327696,2528.52
-105.47041611,40.26328290,2521.23
-105.47041644,40.26333047,2524.37
-105.47041685,40.26338876,2527.15
-105.47041696,40.26340588,2527.41
-105.47041796,40.26354966,2541.38
-105.47041834,40.26360381,2537.55
-105.47041923,40.26373219,2542.17
-105.47041935,40.26375075,2543.33
-105.47041941,40.26375849,2543.24
-105.47041985,40.26382219,2543.72
-105.47042006,40.26385327,2547.53
-105.47042070,40.26394507,2545.36
-105.47042086,40.26396823,2547.42
-105.47042095,40.26398138,2546.83
-105.47042159,40.26407345,2546.98
-105.47042172,40.26409219,2547.06
-105.47042238,40.26418688,2556.80
-105.47042259,40.26421823,2555.61
-105.47042263,40.26422372,2551.24
-105.47042269,40.26423246,2552.23
-105.47042296,40.26427129,2553.29
-105.47042360,40.26436426,2544.80
-105.47042362,40.26436706,2548.22
-105.47042386,40.26440111,2545.18
-105.47042406,40.26443075,2545.34
-105.47042423,40.26445454,2547.52
-105.47042491,40.26455246,2548.49
-105.47042550,40.26463805,2550.63
-105.47042575,40.26467400,2553.37
-105.47042586,40.26469066,2551.29
-105.47042619,40.26473733,2552.68
-105.47042666,40.26480481,2554.47
-105.47042803,40.26500283,2554.26
-105.47042841,40.26505851,2556.16
-105.47042846,40.26506598,2556.96
-105.47042882,40.26511697,2555.66
-105.47042888,40.26512625,2555.51
-105.47042914,40.26516400,2554.63
-105.47042942,40.26520364,2554.40
-105.47042972,40.26524707,2553.83
-105.47042976,40.26525319,2555.98
-105.47043001,40.26528923,2559.38
-105.47043053,40.26536400,2548.35
-105.47043058,40.26537166,2552.00
-105.47043085,40.26540968,2551.77
-105.47043134,40.26548130,2544.56
-105.47043181,40.26554923,2542.19
-105.47043197,40.26557193,2541.29
-105.47043257,40.26565905,2553.84
-105.47043268,40.26567509,2552.34
-105.47043294,40.26571121,2542.01
-105.47043321,40.26575130,2550.25
-105.47043378,40.26583338,2549.31
-105.47043379,40.26583428,2540.97
-105.47043386,40.26584464,2550.33
-105.47043396,40.26585932,2544.95
-105.47043451,40.26593914,2544.53
-105.47043454,40.26594311,2544.47
-105.47043475,40.26597329,2540.90
-105.47043495,40.26600266,2543.50
-105.47043508,40.26602077,2543.44
-105.47043522,40.26604050,2544.78
-105.47043613,40.26617194,2541.88
-105.47043615,40.26617473,2541.87
-105.47043628,40.26619437,2541.86
-105.47043662,40.26624383,2542.05
-105.47043703,40.26630203,2540.55
-105.47043717,40.26632266,2542.25
-105.47043756,40.26637879,2538.11
-105.47043811,40.26645861,2532.44
-105.47043829,40.26648473,2536.07
-105.47043831,40.26648726,2540.44
-105.47043835,40.26649221,2536.00
-105.47043843,40.26650383,2539.42
-105.47043878,40.26655446,2527.57
-105.47043940,40.26664437,2525.67
-105.47043995,40.26672437,2523.29
-105.47044000,40.26673068,2523.09
-105.47044025,40.26676771,2523.32
-105.47044032,40.26677717,2531.16
-105.47044066,40.26682645,2522.18
-105.47044073,40.26683645,2524.10
-105.47044077,40.26684167,2526.82
-105.47044081,40.26684744,2526.72
-105.47044127,40.26691456,2525.23
-105.47044130,40.26691924,2522.31
-105.47044147,40.26694357,2520.92
-105.47044152,40.26695095,2520.99
-105.47044166,40.26697068,2521.04
-105.47044178,40.26698834,2521.09
-105.47044219,40.26704744,2521.09
-105.47044234,40.26706924,2528.33
-105.47044261,40.26710771,2529.79
-105.47044280,40.26713573,2529.66
-105.47044286,40.26714420,2524.04
-105.47044296,40.26715798,2526.32
-105.47044307,40.26717384,2529.19
-105.47044320,40.26719285,2527.30
-105.47044323,40.26719789,2525.77
-105.47044331,40.26720870,2523.98
-105.47044331,40.26720888,2526.78
-105.47044421,40.26733870,2533.44
-105.47044474,40.26741582,2523.93
-105.47044487,40.26743429,2525.53
-105.47044523,40.26748555,2524.43
-105.47044641,40.26765654,2529.24
-105.47044654,40.26767438,2530.52
-105.47044678,40.26771033,2532.53
-105.47044728,40.26778132,2525.39
-105.47044811,40.26790105,2526.72
-105.47044817,40.26791042,2526.63
-105.47044841,40.26794565,2526.50
-105.47044906,40.26803844,2534.10
-105.47044908,40.26804213,2528.68
-105.47044920,40.26805907,2534.06
-105.47044924,40.26806538,2532.83
-105.47044943,40.26809150,2526.32
-105.47045007,40.26818466,2526.08
-105.47045041,40.26823367,2525.90
-105.47045059,40.26825916,2533.08
-105.47045059,40.26825943,2531.49
-105.47045064,40.26826673,2532.46
-105.47045071,40.26827673,2532.98
-105.47045074,40.26828159,2534.25
-105.47045080,40.26828952,2532.70
-105.47045081,40.26829204,2528.73
-105.47045104,40.26832430,2524.46
-105.47045106,40.26832772,2524.42
-105.47045139,40.26837529,2523.28
-105.47045154,40.26839682,2524.28
-105.47045270,40.26856358,2523.11
-105.47045289,40.26859088,2533.60
-105.47045298,40.26860439,2531.81
-105.47045356,40.26868862,2522.78
-105.47045389,40.26873655,2530.41
-105.47045392,40.26874025,2523.86
-105.47045443,40.26881448,2533.92
-105.47045458,40.26883556,2529.14
-105.47045467,40.26884863,2529.89
-105.47045494,40.26888782,2527.42
-105.47045496,40.26889025,2527.64
-105.47045498,40.26889241,2527.36
-105.47045530,40.26894007,2523.22
-105.47045560,40.26898322,2519.91
-105.47045578,40.26900863,2524.11
-105.47045593,40.26903079,2524.11
-105.47045651,40.26911439,2515.56
-105.47045680,40.26915638,2515.25
-105.47045709,40.26919755,2514.94
-105.47045711,40.26920061,2514.88
-105.47045729,40.26922602,2517.63
-105.47045739,40.26924151,2514.08
-105.47045769,40.26928394,2523.87
-105.47045809,40.26934241,2516.46
-105.47045818,40.26935485,2516.29
-105.47045845,40.26939368,2512.30
-105.47045875,40.26943728,2510.91
-105.47045881,40.26944647,2515.69
-105.47045894,40.26946476,2515.69
-105.47045967,40.26957061,2509.85
-105.47046005,40.26962476,2511.50
-105.47046005,40.26962503,2511.52
-105.47046025,40.26965305,2516.80
-105.47046027,40.26965665,2509.08
-105.47046030,40.26966142,2519.46
-105.47046036,40.26967016,2515.69
-105.47046038,40.26967233,2516.89
-105.47046042,40.26967764,2511.49
-105.47046060,40.26970404,2511.98
-105.47046062,40.26970674,2508.63
-105.47046070,40.26971899,2508.59
-105.47046118,40.26978845,2513.29
-105.47046121,40.26979197,2514.31
-105.47046125,40.26979827,2508.36
-105.47046131,40.26980719,2509.56
-105.47046143,40.26982404,2516.60
-105.47046147,40.26982935,2518.56
-105.47046147,40.26983026,2518.61
-105.47046155,40.26984107,2519.47
-105.47046156,40.26984287,2508.08
-105.47046159,40.26984692,2517.09
-105.47046161,40.26984990,2509.34
-105.47046169,40.26986089,2507.99
-105.47046178,40.26987449,2517.16
-105.47046184,40.26988269,2516.47
-105.47046184,40.26988350,2514.40
-105.47046194,40.26989710,2507.72
-105.47046202,40.26990863,2514.99
-105.47046206,40.26991539,2507.59
-105.47046230,40.26995008,2507.30
-105.47046232,40.26995314,2507.33
-105.47046279,40.27002080,2507.21
-105.47046284,40.27002782,2512.55
-105.47046319,40.27007773,2506.75
-105.47046336,40.27010296,2512.24
-105.47046342,40.27011188,2514.97
-105.47046351,40.27012467,2506.61
-105.47046388,40.27017756,2515.07
-105.47046409,40.27020864,2510.42
-105.47046425,40.27023053,2516.21
-105.47046425,40.27023116,2513.98
-105.47046429,40.27023738,2506.29
-105.47046438,40.27024972,2512.51
-105.47046442,40.27025593,2514.30
-105.47046444,40.27025846,2516.16
-105.47046489,40.27032377,2509.03
-105.47046505,40.27034711,2512.08
-105.47046508,40.27035071,2512.09
-105.47046519,40.27036738,2510.40
-105.47046534,40.27038882,2513.86
-105.47046538,40.27039440,2510.92
-105.47046541,40.27039828,2511.29
-105.47046546,40.27040494,2516.57
-105.47046571,40.27044152,2506.29
-105.47046585,40.27046242,2506.52
-105.47046601,40.27048521,2513.26
-105.47046652,40.27055810,2505.87
-105.47046656,40.27056449,2506.00
-105.47046656,40.27056486,2506.06
-105.47046664,40.27057576,2505.93
-105.47046666,40.27057819,2505.93
-105.47046668,40.27058143,2512.55
-105.47046706,40.27063648,2506.06
-105.47046708,40.27063981,2515.32
-105.47046711,40.27064413,2514.87
-105.47046725,40.27066459,2505.97
-105.47046743,40.27069053,2505.96
-105.47046749,40.27069801,2505.95
-105.47046761,40.27071549,2515.86
-105.47046770,40.27072882,2513.68
-105.47046799,40.27077134,2505.26
-105.47046838,40.27082702,2504.58
-105.47046853,40.27084873,2513.10
-105.47046857,40.27085387,2509.37
-105.47046920,40.27094567,2503.89
-105.47047027,40.27110017,2507.21
-105.47047055,40.27113999,2508.53
-105.47047061,40.27114927,2502.75
-105.47047090,40.27119063,2510.35
-105.47047093,40.27119540,2510.17
-105.47047099,40.27120306,2510.76
-105.47047130,40.27124900,2503.09
-105.47047183,40.27132513,2506.59
-105.47047225,40.27138558,2504.06
-105.47047254,40.27142675,2512.19
-105.47047269,40.27144829,2504.08
-105.47047281,40.27146693,2507.70
-105.47047306,40.27150261,2510.22
-105.47047363,40.27151738,2503.71
-105.47047882,40.27151817,2503.80
-105.47050093,40.27151844,2504.14
-105.47050881,40.27151841,2506.57
-105.47051857,40.27151837,2506.84
-105.47055480,40.27151822,2513.25
-105.47058702,40.27151809,2510.71
-105.47076615,40.27151736,2509.07
-105.47085024,40.27151702,2512.54
-105.47087788,40.27151691,2510.17
-105.47087812,40.27151691,2519.50
-105.47088494,40.27151688,2518.93
-105.47091234,40.27151677,2516.64
-105.47095610,40.27151659,2511.40
-105.47097527,40.27151651,2511.34
-105.47101526,40.27151635,2519.19
-105.47102208,40.27151632,2518.10
-105.47107500,40.27151611,2513.24
-105.47108547,40.27151607,2513.43
-105.47111982,40.27151592,2520.81
-105.47112876,40.27151589,2516.94
-105.47118051,40.27151568,2518.04
-105.47126907,40.27151532,2524.32
-105.47127648,40.27151529,2523.68
-105.47132047,40.27151511,2524.70
-105.47133376,40.27151505,2519.02
-105.47146419,40.27151452,2529.13
-105.47157404,40.27151407,2530.38
-105.47158322,40.27151404,2530.57
-105.47160298,40.27151396,2525.73
-105.47165837,40.27151373,2527.04
-105.47172059,40.27151348,2533.56
-105.47175623,40.27151333,2537.02
-105.47189090,40.27151278,2532.73
-105.47206414,40.27151208,2536.16
-105.47217423,40.27151163,2543.76
-105.47232983,40.27151099,2544.26
-105.47234959,40.27151091,2547.60
-105.47239899,40.27151071,2548.58
-105.47240323,40.27151069,2548.76
-105.47240781,40.27151067,2548.92
-105.47241275,40.27151065,2548.90
-105.47242169,40.27151062,2549.17
-105.47246180,40.27151045,2550.08
-105.47248885,40.27151034,2550.65
-105.47249649,40.27151031,2547.37
-105.47252978,40.27151018,2555.08
-105.47267586,40.27150958,2554.79
-105.47268068,40.27150956,2554.89
-105.47270891,40.27150944,2552.23
-105.47274243,40.27150931,2557.76
-105.47280053,40.27150907,2557.61
-105.47284757,40.27150888,2560.62
-105.47286369,40.27150881,2555.29
-105.47291661,40.27150859,2556.19
-105.47292955,40.27150854,2560.44
-105.47296636,40.27150839,2557.33
-105.47305787,40.27150802,2561.76
-105.47309668,40.27150786,2567.10
-105.47315902,40.27150760,2562.53
-105.47333673,40.27150688,2569.47
-105.47341236,40.27150657,2571.06
-105.47341659,40.27150655,2571.17
-105.47342118,40.27150653,2571.28
-105.47363771,40.27150565,2586.73
-105.47364194,40.27150563,2586.82
-105.47367640,40.27150549,2587.54
-105.47375944,40.27150515,2588.23
-105.47383565,40.27150484,2584.05
-105.47384753,40.27150479,2591.15
-105.47384824,40.27150478,2584.41
-105.47385623,40.27150475,2590.43
-105.47388199,40.27150465,2593.37
-105.47390928,40.27150453,2592.34
-105.47397291,40.27150427,2595.39
-105.47397914,40.27150425,2593.88
-105.47399231,40.27150419,2594.11
-105.47406700,40.27150389,2595.63
-105.47406712,40.27150389,2590.40
-105.47412592,40.27150365,2591.82
-105.47423966,40.27150318,2598.91
-105.47424401,40.27150316,2599.21
-105.47425142,40.27150313,2599.51
-105.47427365,40.27150304,2603.18
-105.47436880,40.27150265,2597.05
-105.47438950,40.27150257,2600.28
     </coordinates>
    </LineString>
   </MultiGeometry>
  </Placemark>
 </Document>
</kml>
