<kml>
 <Document>
  <Style id="yellow">
   <LineStyle>
   <color>ff00ffff</color>
   <width>1</width>
   </LineStyle>
  </Style>
  <Style id="red">
   <LineStyle>
   <color>ffff0000</color>
   <width>2</width>
   </LineStyle>
  </Style>
  <Style id="green">
   <LineStyle>
   <color>ff00ff00</color>
   <width>1</width>
   </LineStyle>
  </Style>
  <Placemark>
  <styleUrl>#yellow</styleUrl>
   <MultiGeometry>
    <LineString>
     <coordinates>
-105.53416899,40.27124205,2716.87
-105.53417182,40.27124203,2707.23
-105.53423298,40.27124175,2720.54
-105.53424344,40.27124170,2720.61
-105.53424556,40.27124169,2706.65
-105.53429884,40.27124145,2716.84
-105.53430284,40.27124143,2715.49
-105.53445479,40.27124073,2704.89
-105.53448914,40.27124057,2704.60
-105.53477741,40.27123924,2700.27
-105.53479011,40.27123918,2699.79
-105.53492901,40.27123854,2705.69
-105.53493501,40.27123851,2696.92
-105.53505956,40.27123793,2704.72
-105.53507626,40.27123786,2699.16
-105.53508002,40.27123784,2698.62
-105.53508120,40.27123783,2697.32
-105.53509390,40.27123777,2692.49
-105.53516353,40.27123745,2690.50
-105.53519693,40.27123730,2698.91
-105.53519893,40.27123729,2698.92
-105.53520105,40.27123728,2697.68
-105.53520893,40.27123724,2694.80
-105.53521446,40.27123722,2694.54
-105.53522398,40.27123717,2688.79
-105.53524268,40.27123709,2699.15
-105.53527891,40.27123692,2687.14
-105.53532231,40.27123672,2686.04
-105.53532936,40.27123668,2691.54
-105.53533901,40.27123664,2687.17
-105.53533995,40.27123664,2687.10
-105.53534018,40.27123664,2685.68
-105.53545262,40.27123611,2690.96
-105.53550108,40.27123589,2682.77
-105.53554448,40.27123569,2682.15
-105.53561269,40.27123537,2687.43
-105.53564257,40.27123524,2690.10
-105.53564574,40.27123522,2689.13
-105.53566056,40.27123515,2682.01
-105.53566209,40.27123515,2680.38
-105.53574689,40.27123475,2680.51
-105.53591943,40.27123395,2682.32
-105.53592248,40.27123394,2681.28
-105.53594424,40.27123384,2692.63
-105.53601693,40.27123350,2684.16
-105.53603081,40.27123344,2699.66
-105.53603563,40.27123342,2684.90
-105.53614877,40.27123289,2699.19
-105.53615207,40.27123288,2698.11
-105.53615395,40.27123287,2696.62
-105.53616971,40.27123279,2688.99
-105.53620323,40.27123264,2699.19
-105.53626568,40.27123235,2693.19
-105.53629132,40.27123223,2694.18
-105.53640446,40.27123171,2703.86
-105.53644480,40.27123152,2702.39
-105.53671814,40.27123025,2709.79
-105.53672813,40.27123021,2705.76
-105.53673084,40.27123019,2704.50
-105.53673613,40.27123017,2700.97
-105.53674966,40.27123011,2701.06
-105.53679011,40.27122992,2701.41
-105.53684281,40.27122967,2701.71
-105.53688338,40.27122949,2702.00
-105.53700923,40.27122890,2703.01
-105.53709014,40.27122853,2712.36
-105.53712155,40.27122838,2712.70
-105.53712319,40.27122837,2709.71
-105.53712402,40.27122837,2710.38
-105.53712649,40.27122836,2708.20
-105.53713154,40.27122833,2704.23
-105.53731349,40.27122749,2703.87
-105.53736442,40.27122725,2711.46
-105.53743181,40.27122694,2702.12
-105.53743322,40.27122693,2703.50
-105.53745463,40.27122683,2703.17
-105.53749015,40.27122667,2702.30
-105.53755577,40.27122636,2705.00
-105.53758000,40.27122625,2702.94
-105.53763305,40.27122600,2706.97
-105.53764069,40.27122597,2703.19
-105.53767727,40.27122580,2706.63
-105.53774207,40.27122550,2717.68
-105.53774595,40.27122548,2716.16
-105.53774654,40.27122548,2716.87
-105.53774889,40.27122547,2713.36
-105.53775854,40.27122542,2704.87
-105.53783064,40.27122509,2707.32
-105.53790767,40.27122473,2711.31
-105.53790838,40.27122472,2712.42
-105.53799964,40.27122430,2710.02
-105.53804304,40.27122410,2715.23
-105.53804351,40.27122410,2716.42
-105.53804763,40.27122408,2713.33
-105.53807492,40.27122395,2711.17
-105.53808880,40.27122389,2708.86
-105.53813584,40.27122367,2720.55
-105.53813796,40.27122366,2719.43
-105.53835331,40.27122266,2718.97
-105.53836730,40.27122259,2710.52
-105.53843822,40.27122226,2720.01
-105.53856477,40.27122167,2713.18
-105.53856677,40.27122166,2713.21
-105.53856760,40.27122166,2721.18
-105.53856771,40.27122166,2717.67
-105.53856783,40.27122166,2716.35
-105.53857324,40.27122163,2713.33
-105.53863863,40.27122133,2718.06
-105.53866298,40.27122121,2714.56
-105.53869097,40.27122108,2714.77
-105.53875119,40.27122080,2724.57
-105.53878847,40.27122063,2715.95
-105.53887021,40.27122025,2721.95
-105.53887610,40.27122022,2719.84
-105.53889209,40.27122015,2716.03
-105.53891267,40.27122005,2717.17
-105.53892490,40.27122000,2722.16
-105.53892773,40.27121998,2721.04
-105.53903946,40.27121946,2714.79
-105.53908356,40.27121926,2724.45
-105.53908380,40.27121925,2723.86
-105.53910144,40.27121917,2724.95
-105.53920153,40.27121871,2714.10
-105.53927363,40.27121837,2714.07
-105.53936431,40.27121795,2722.70
-105.53939688,40.27121780,2728.67
-105.53945275,40.27121754,2714.60
-105.53965304,40.27121660,2727.52
-105.53966245,40.27121656,2726.66
-105.53966387,40.27121655,2725.43
-105.53971797,40.27121630,2724.55
-105.53975502,40.27121613,2716.42
-105.53985722,40.27121565,2718.00
-105.53987345,40.27121557,2718.16
-105.53989497,40.27121547,2720.95
-105.53998236,40.27121506,2722.37
-105.54002494,40.27121487,2728.30
-105.54008033,40.27121461,2719.20
-105.54009950,40.27121452,2719.29
-105.54021194,40.27121399,2720.12
-105.54024205,40.27121385,2720.61
-105.54033790,40.27121341,2721.52
-105.54040777,40.27121308,2734.23
-105.54044176,40.27121292,2722.93
-105.54046010,40.27121283,2723.97
-105.54052832,40.27121252,2723.64
-105.54059736,40.27121219,2723.88
-105.54065216,40.27121194,2724.52
-105.54072344,40.27121160,2725.10
-105.54083599,40.27121108,2726.04
-105.54093867,40.27121060,2729.53
-105.54094114,40.27121059,2728.45
-105.54094196,40.27121058,2725.66
-105.54094243,40.27121058,2723.03
-105.54096302,40.27121048,2722.51
-105.54096866,40.27121046,2726.85
-105.54103981,40.27120995,2732.83
-105.54104017,40.27120967,2732.57
-105.54104095,40.27120489,2730.76
-105.54104103,40.27120066,2730.57
-105.54104023,40.27108453,2721.76
-105.54103980,40.27103129,2721.60
-105.54103968,40.27101543,2721.54
-105.54103790,40.27079246,2725.55
-105.54103762,40.27075724,2731.04
-105.54103757,40.27075102,2730.47
-105.54103729,40.27071607,2725.30
-105.54103702,40.27068228,2722.06
-105.54103702,40.27068183,2728.64
-105.54103694,40.27067165,2730.62
-105.54103668,40.27063913,2721.86
-105.54103654,40.27062129,2729.33
-105.54103592,40.27054364,2720.61
-105.54103553,40.27049571,2726.06
-105.54103553,40.27049562,2723.76
-105.54103544,40.27048336,2719.09
-105.54103506,40.27043598,2719.35
-105.54103488,40.27041336,2727.81
-105.54103461,40.27037976,2719.55
-105.54103366,40.27026012,2719.48
-105.54103339,40.27022715,2723.02
-105.54103191,40.27004030,2717.24
-105.54103081,40.26990238,2717.84
-105.54102856,40.26962103,2717.25
-105.54102728,40.26946022,2717.38
-105.54102702,40.26942751,2717.92
-105.54102674,40.26939229,2717.86
-105.54102659,40.26937373,2717.83
-105.54102657,40.26937103,2717.86
-105.54102652,40.26936490,2717.81
-105.54102630,40.26933724,2717.66
-105.54102613,40.26931499,2717.73
-105.54102591,40.26928805,2717.52
-105.54102543,40.26922823,2716.94
-105.54102503,40.26917742,2716.55
-105.54102501,40.26917481,2716.59
-105.54102487,40.26915697,2719.70
-105.54102477,40.26914508,2716.41
-105.54102375,40.26901625,2715.64
-105.54102357,40.26899454,2715.24
-105.54102310,40.26893535,2714.95
-105.54102055,40.26861517,2727.19
-105.54102049,40.26860797,2714.77
-105.54101994,40.26853824,2725.41
-105.54101917,40.26844175,2718.32
-105.54101905,40.26842679,2720.05
-105.54101898,40.26841806,2718.74
-105.54101743,40.26822400,2724.80
-105.54101691,40.26815878,2723.41
-105.54101508,40.26792842,2727.50
-105.54101500,40.26791842,2728.13
-105.54101494,40.26791148,2727.85
-105.54101372,40.26775815,2729.33
-105.54101359,40.26774166,2724.66
-105.54101238,40.26758986,2722.04
-105.54101149,40.26747851,2722.07
-105.54101111,40.26743004,2728.77
-105.54101108,40.26742635,2727.15
-105.54101053,40.26735815,2727.25
-105.54101015,40.26730986,2726.23
-105.54101014,40.26730806,2725.76
-105.54100832,40.26708058,2720.63
-105.54100807,40.26704824,2720.27
-105.54100800,40.26703959,2720.20
-105.54100799,40.26703824,2720.17
-105.54100786,40.26702256,2719.73
-105.54100740,40.26696428,2719.96
-105.54100733,40.26695590,2725.00
-105.54100689,40.26690076,2725.78
-105.54100641,40.26684085,2718.38
-105.54100567,40.26674716,2734.39
-105.54100566,40.26674689,2723.91
-105.54100562,40.26674121,2733.39
-105.54100553,40.26673022,2731.08
-105.54100533,40.26670491,2715.94
-105.54100502,40.26666608,2718.27
-105.54100463,40.26661770,2720.47
-105.54100459,40.26661203,2722.23
-105.54100455,40.26660716,2721.57
-105.54100451,40.26660175,2723.03
-105.54100448,40.26659851,2721.96
-105.54100447,40.26659680,2723.98
-105.54100386,40.26652049,2714.98
-105.54100350,40.26647527,2720.57
-105.54100286,40.26639554,2719.46
-105.54100279,40.26638626,2723.94
-105.54100203,40.26629086,2724.28
-105.54100185,40.26626833,2724.99
-105.54100182,40.26626455,2722.61
-105.54100070,40.26612338,2721.66
-105.54100035,40.26608041,2715.95
-105.54099975,40.26600509,2718.59
-105.54099867,40.26586869,2712.04
-105.54099832,40.26582500,2711.88
-105.54099745,40.26571563,2711.95
-105.54099643,40.26558788,2711.91
-105.54099561,40.26548500,2712.01
-105.54099547,40.26546707,2712.05
-105.54099541,40.26545951,2712.02
-105.54099534,40.26545077,2711.98
-105.54099533,40.26545005,2711.96
-105.54099528,40.26544374,2712.04
-105.54099440,40.26533293,2712.03
-105.54099407,40.26529176,2712.02
-105.54099343,40.26521131,2712.00
-105.54099044,40.26483554,2712.34
-105.54099042,40.26483320,2712.29
-105.54099037,40.26482689,2712.14
-105.54099033,40.26482221,2712.10
-105.54098999,40.26477987,2712.24
-105.54098935,40.26469879,2712.37
-105.54098872,40.26461969,2712.40
-105.54098868,40.26461527,2712.23
-105.54098754,40.26447221,2712.20
-105.54098749,40.26446626,2712.23
-105.54098740,40.26445491,2712.20
-105.54098720,40.26442933,2712.33
-105.54098672,40.26436951,2712.34
-105.54098355,40.26397077,2711.94
-105.54098177,40.26374771,2716.91
-105.54098171,40.26373978,2716.41
-105.54098130,40.26368825,2712.13
-105.54098095,40.26364447,2712.14
-105.54098014,40.26354320,2712.14
-105.54098004,40.26353086,2712.20
-105.54097948,40.26346005,2717.46
-105.54097924,40.26342969,2713.95
-105.54097917,40.26342185,2714.07
-105.54097908,40.26341041,2714.15
-105.54097719,40.26317293,2722.21
-105.54097718,40.26317095,2722.06
-105.54097714,40.26316681,2729.51
-105.54097623,40.26305203,2719.05
-105.54097616,40.26304293,2719.83
-105.54097594,40.26301564,2713.61
-105.54097564,40.26297798,2713.78
-105.54097534,40.26294095,2714.44
-105.54097502,40.26290068,2715.06
-105.54097481,40.26287330,2715.56
-105.54097480,40.26287212,2716.17
-105.54097479,40.26287122,2722.00
-105.54097466,40.26285492,2714.47
-105.54097439,40.26282140,2714.45
-105.54097357,40.26271771,2714.42
-105.54097330,40.26268420,2714.66
-105.54097201,40.26252231,2721.78
-105.54097186,40.26250339,2713.83
-105.54097171,40.26248474,2713.84
-105.54097161,40.26247158,2722.36
-105.54097156,40.26246573,2726.51
-105.54097123,40.26242411,2713.77
-105.54097121,40.26242158,2717.19
-105.54097116,40.26241528,2724.42
-105.54097091,40.26238438,2723.49
-105.54096988,40.26225465,2716.72
-105.54096970,40.26223249,2717.66
-105.54096901,40.26220537,2719.91
-105.54096723,40.26220313,2717.17
-105.54096545,40.26220133,2715.62
-105.54093629,40.26220138,2714.88
-105.54077271,40.26220214,2712.40
-105.54076330,40.26220219,2717.84
-105.54071485,40.26220241,2719.70
-105.54064841,40.26220273,2714.61
-105.54064559,40.26220274,2711.69
-105.54048166,40.26220350,2710.65
-105.54045790,40.26220362,2710.67
-105.54042310,40.26220378,2715.04
-105.54041228,40.26220383,2715.08
-105.54031538,40.26220428,2720.23
-105.54026763,40.26220450,2710.01
-105.54018355,40.26220490,2709.31
-105.54006160,40.26220547,2716.08
-105.54004620,40.26220554,2716.23
-105.53998070,40.26220584,2718.01
-105.53995047,40.26220598,2708.37
-105.53990120,40.26220621,2713.30
-105.53985992,40.26220641,2715.25
-105.53985745,40.26220642,2720.51
-105.53985275,40.26220644,2707.87
-105.53983029,40.26220654,2716.67
-105.53974385,40.26220695,2719.35
-105.53974362,40.26220695,2718.83
-105.53973950,40.26220697,2720.19
-105.53973703,40.26220698,2719.68
-105.53972351,40.26220704,2706.42
-105.53972328,40.26220704,2720.17
-105.53971516,40.26220708,2713.97
-105.53968282,40.26220723,2714.77
-105.53966177,40.26220733,2711.79
-105.53965472,40.26220736,2713.66
-105.53961920,40.26220753,2705.36
-105.53960415,40.26220760,2713.17
-105.53960015,40.26220762,2714.11
-105.53959698,40.26220763,2715.31
-105.53956911,40.26220776,2716.20
-105.53949243,40.26220812,2710.84
-105.53947373,40.26220821,2704.04
-105.53946774,40.26220824,2703.99
-105.53940729,40.26220852,2703.69
-105.53937378,40.26220867,2703.49
-105.53936766,40.26220870,2706.06
-105.53936049,40.26220874,2713.29
-105.53933274,40.26220886,2710.39
-105.53929793,40.26220903,2711.24
-105.53925736,40.26220922,2707.04
-105.53924959,40.26220925,2702.49
-105.53920761,40.26220945,2709.97
-105.53917092,40.26220962,2701.67
-105.53915328,40.26220970,2701.53
-105.53914646,40.26220973,2708.09
-105.53912365,40.26220984,2708.77
-105.53911012,40.26220990,2701.36
-105.53910013,40.26220995,2701.43
-105.53909613,40.26220997,2704.97
-105.53906720,40.26221010,2709.58
-105.53902604,40.26221029,2705.24
-105.53898759,40.26221047,2701.02
-105.53894608,40.26221067,2707.73
-105.53893314,40.26221073,2703.71
-105.53890398,40.26221086,2700.42
-105.53883377,40.26221119,2700.06
-105.53878379,40.26221142,2699.25
-105.53877944,40.26221144,2699.22
-105.53873687,40.26221164,2708.75
-105.53872393,40.26221170,2704.04
-105.53867960,40.26221191,2705.54
-105.53859423,40.26221230,2701.89
-105.53857917,40.26221237,2709.33
-105.53851638,40.26221267,2709.20
-105.53847839,40.26221284,2696.55
-105.53839513,40.26221323,2701.02
-105.53831187,40.26221362,2695.49
-105.53825413,40.26221389,2703.70
-105.53822709,40.26221401,2708.26
-105.53809197,40.26221464,2693.73
-105.53806621,40.26221476,2699.95
-105.53804011,40.26221488,2693.24
-105.53800871,40.26221503,2692.84
-105.53794050,40.26221535,2693.47
-105.53779692,40.26221601,2692.21
-105.53776599,40.26221616,2693.65
-105.53773388,40.26221631,2691.95
-105.53773341,40.26221631,2694.30
-105.53770895,40.26221642,2703.30
-105.53766227,40.26221664,2691.41
-105.53764780,40.26221671,2693.27
-105.53753691,40.26221722,2697.54
-105.53748364,40.26221747,2692.19
-105.53747446,40.26221751,2695.82
-105.53743237,40.26221771,2690.71
-105.53740120,40.26221785,2690.78
-105.53694445,40.26221997,2688.18
-105.53688377,40.26222025,2687.94
-105.53661342,40.26222151,2686.78
-105.53648888,40.26222208,2686.12
-105.53643808,40.26222232,2685.97
-105.53636376,40.26222266,2685.69
-105.53606812,40.26222403,2693.91
-105.53599874,40.26222436,2684.17
-105.53590889,40.26222477,2683.53
-105.53589796,40.26222482,2683.45
-105.53588526,40.26222488,2683.35
-105.53581235,40.26222522,2690.80
-105.53580823,40.26222524,2691.73
-105.53575178,40.26222550,2691.28
-105.53571015,40.26222569,2693.53
-105.53568769,40.26222580,2694.61
-105.53566653,40.26222589,2689.70
-105.53563971,40.26222602,2682.06
-105.53556304,40.26222637,2681.57
-105.53549189,40.26222670,2681.24
-105.53547331,40.26222679,2681.11
-105.53534490,40.26222738,2686.00
-105.53533337,40.26222744,2685.25
-105.53524047,40.26222787,2689.13
-105.53523153,40.26222791,2689.80
-105.53500986,40.26222893,2690.23
-105.53498681,40.26222904,2695.15
-105.53488450,40.26222951,2683.21
-105.53488297,40.26222952,2685.97
-105.53483394,40.26222974,2685.91
-105.53476314,40.26223007,2687.14
-105.53476161,40.26223008,2684.48
-105.53472257,40.26223026,2677.28
-105.53470658,40.26223033,2677.10
-105.53443646,40.26223158,2681.27
-105.53441411,40.26223168,2678.17
-105.53435602,40.26223195,2676.58
-105.53427594,40.26223232,2671.17
-105.53423431,40.26223251,2671.08
-105.53420020,40.26223267,2671.38
-105.53411530,40.26223306,2673.72
-105.53407073,40.26223327,2670.89
-105.53392091,40.26223396,2670.06
-105.53388975,40.26223410,2673.00
-105.53381084,40.26223447,2679.12
-105.53374346,40.26223478,2674.07
-105.53362892,40.26223531,2668.89
-105.53339725,40.26223638,2685.59
-105.53335844,40.26223655,2667.44
-105.53318699,40.26223735,2667.15
-105.53308644,40.26223781,2666.98
-105.53297355,40.26223833,2666.51
-105.53296837,40.26223835,2674.96
-105.53295461,40.26223842,2678.06
-105.53294368,40.26223847,2666.23
-105.53290616,40.26223864,2666.07
-105.53277669,40.26223923,2665.96
-105.53277399,40.26223925,2671.20
-105.53271189,40.26223953,2669.42
-105.53268038,40.26223968,2665.64
-105.53258877,40.26224010,2665.51
-105.53248458,40.26224058,2666.90
-105.53244471,40.26224076,2665.36
-105.53244107,40.26224078,2665.38
-105.53234617,40.26224122,2675.23
-105.53233899,40.26224125,2677.12
-105.53231418,40.26224136,2672.43
-105.53220152,40.26224188,2682.42
-105.53218259,40.26224197,2669.37
-105.53217965,40.26224198,2671.40
-105.53214731,40.26224213,2666.05
-105.53204817,40.26224259,2665.95
-105.53188330,40.26224334,2666.14
-105.53165399,40.26224440,2665.14
-105.53161212,40.26224459,2670.51
-105.53141585,40.26224549,2663.73
-105.53137952,40.26224566,2665.19
-105.53129955,40.26224603,2663.22
-105.53126792,40.26224617,2662.97
-105.53120241,40.26224647,2669.94
-105.53111551,40.26224687,2664.67
-105.53108599,40.26224701,2669.06
-105.53108258,40.26224702,2671.16
-105.53108223,40.26224702,2670.60
-105.53101085,40.26224735,2660.11
-105.53097310,40.26224752,2670.33
-105.53094687,40.26224764,2659.53
-105.53091512,40.26224779,2659.24
-105.53087902,40.26224796,2658.87
-105.53074908,40.26224855,2661.60
-105.53073414,40.26224862,2665.81
-105.53065617,40.26224898,2665.14
-105.53060796,40.26224920,2668.81
-105.53052682,40.26224957,2655.78
-105.53046237,40.26224987,2655.18
-105.53041110,40.26225010,2661.67
-105.53038535,40.26225022,2654.49
-105.53024070,40.26225088,2663.03
-105.53020531,40.26225105,2652.60
-105.53018567,40.26225114,2652.46
-105.53018426,40.26225114,2660.09
-105.53004267,40.26225179,2659.07
-105.53002903,40.26225185,2651.36
-105.53002244,40.26225188,2651.30
-105.53001880,40.26225190,2651.23
-105.53001527,40.26225192,2651.21
-105.52998940,40.26225203,2651.07
-105.52998646,40.26225205,2651.05
-105.52997822,40.26225209,2658.70
-105.52997599,40.26225210,2658.06
-105.52997176,40.26225211,2659.38
-105.52996741,40.26225213,2659.58
-105.52996717,40.26225214,2651.02
-105.52996329,40.26225215,2659.54
-105.52994647,40.26225223,2650.91
-105.52994212,40.26225225,2659.93
-105.52993754,40.26225227,2662.34
-105.52993271,40.26225229,2662.45
-105.52993166,40.26225230,2664.68
-105.52992495,40.26225233,2661.81
-105.52992107,40.26225235,2661.71
-105.52991555,40.26225237,2662.07
-105.52990673,40.26225241,2665.64
-105.52990390,40.26225243,2665.01
-105.52990343,40.26225243,2665.59
-105.52990155,40.26225244,2651.03
-105.52990014,40.26225244,2651.02
-105.52987239,40.26225257,2651.13
-105.52983335,40.26225275,2651.27
-105.52982652,40.26225278,2651.32
-105.52982323,40.26225279,2651.35
-105.52981265,40.26225284,2659.50
-105.52979442,40.26225293,2651.55
-105.52979430,40.26225293,2661.53
-105.52973174,40.26225321,2651.85
-105.52972810,40.26225323,2659.18
-105.52971151,40.26225331,2654.55
-105.52969764,40.26225337,2656.89
-105.52969446,40.26225338,2652.17
-105.52966824,40.26225350,2652.16
-105.52965613,40.26225356,2652.24
-105.52964978,40.26225359,2652.24
-105.52963261,40.26225367,2652.35
-105.52963120,40.26225367,2662.00
-105.52962755,40.26225369,2661.80
-105.52962461,40.26225370,2652.40
-105.52962202,40.26225372,2652.49
-105.52961508,40.26225375,2652.47
-105.52959215,40.26225385,2652.56
-105.52958427,40.26225389,2657.64
-105.52946197,40.26225445,2652.72
-105.52946080,40.26225445,2652.69
-105.52944010,40.26225455,2658.57
-105.52943681,40.26225456,2652.45
-105.52943399,40.26225458,2661.48
-105.52942728,40.26225461,2652.52
-105.52942305,40.26225463,2652.50
-105.52941141,40.26225468,2659.45
-105.52940447,40.26225471,2652.44
-105.52940094,40.26225473,2659.02
-105.52939224,40.26225477,2652.34
-105.52930745,40.26225516,2652.88
-105.52930251,40.26225518,2651.20
-105.52927582,40.26225530,2650.78
-105.52923231,40.26225577,2656.27
-105.52921679,40.26225620,2653.31
-105.52921162,40.26225722,2649.77
-105.52921021,40.26225749,2649.73
-105.52921002,40.26227767,2649.20
-105.52921004,40.26228074,2649.14
-105.52921004,40.26228092,2649.12
-105.52921006,40.26228389,2650.49
-105.52921008,40.26228542,2653.03
-105.52921008,40.26228596,2650.84
-105.52921010,40.26228785,2650.90
-105.52921013,40.26229236,2653.34
-105.52921014,40.26229353,2655.49
-105.52921025,40.26230740,2652.94
-105.52921025,40.26230749,2650.40
-105.52921025,40.26230785,2648.65
-105.52921035,40.26232056,2648.38
-105.52921037,40.26232272,2648.37
-105.52921050,40.26233966,2650.14
-105.52921089,40.26238966,2646.81
-105.52921104,40.26240939,2646.00
-105.52921138,40.26245218,2644.71
-105.52921143,40.26245875,2655.78
-105.52921155,40.26247434,2646.64
-105.52921178,40.26250443,2641.87
-105.52921186,40.26251434,2641.68
-105.52921197,40.26252875,2652.78
-105.52921278,40.26263200,2640.20
-105.52921286,40.26264245,2639.48
-105.52921317,40.26268254,2648.46
-105.52921369,40.26274894,2646.70
-105.52921376,40.26275785,2646.33
-105.52921388,40.26277326,2645.19
-105.52921391,40.26277767,2644.97
-105.52921394,40.26278182,2651.50
-105.52921456,40.26286128,2632.95
-105.52921459,40.26286452,2632.74
-105.52921518,40.26294038,2630.08
-105.52921592,40.26303560,2644.05
-105.52921603,40.26305002,2631.52
-105.52921604,40.26305119,2634.48
-105.52921642,40.26309921,2641.44
-105.52921659,40.26312119,2633.59
-105.52921772,40.26326596,2645.42
-105.52921815,40.26332155,2634.91
-105.52921909,40.26344182,2635.40
-105.52921955,40.26350083,2652.77
-105.52921960,40.26350812,2658.57
-105.52921975,40.26352713,2659.90
-105.52921976,40.26352821,2656.57
-105.52921980,40.26353308,2637.45
-105.52921985,40.26353921,2640.85
-105.52922021,40.26358614,2637.74
-105.52922058,40.26363317,2638.63
-105.52922073,40.26365209,2638.88
-105.52922092,40.26367704,2646.72
-105.52922093,40.26367875,2642.37
-105.52922153,40.26375578,2656.76
-105.52922154,40.26375632,2652.81
-105.52922162,40.26376632,2655.36
-105.52922163,40.26376830,2658.56
-105.52922171,40.26377803,2659.94
-105.52922188,40.26380029,2647.59
-105.52922203,40.26382002,2640.50
-105.52922204,40.26382038,2646.44
-105.52922261,40.26389326,2652.96
-105.52922265,40.26389930,2654.28
-105.52922271,40.26390659,2654.78
-105.52922281,40.26391975,2642.25
-105.52922288,40.26392884,2648.65
-105.52922292,40.26393317,2645.97
-105.52922298,40.26394173,2642.69
-105.52922304,40.26394830,2642.88
-105.52922306,40.26395119,2653.44
-105.52922316,40.26396380,2664.06
-105.52922318,40.26396659,2660.96
-105.52922318,40.26396713,2658.75
-105.52922331,40.26398380,2646.00
-105.52922337,40.26399164,2646.91
-105.52922376,40.26404128,2646.44
-105.52922451,40.26413731,2649.65
-105.52922458,40.26414641,2649.87
-105.52922550,40.26426416,2655.04
-105.52922561,40.26427875,2658.38
-105.52922574,40.26429533,2655.99
-105.52922621,40.26435587,2666.94
-105.52922625,40.26436092,2669.39
-105.52922632,40.26437011,2671.61
-105.52922644,40.26438560,2672.00
-105.52922723,40.26448596,2658.83
-105.52923021,40.26486839,2660.51
-105.52923030,40.26488020,2660.56
-105.52923356,40.26528353,2660.36
-105.52923385,40.26533632,2661.24
-105.52923431,40.26539524,2663.07
-105.52923470,40.26544560,2662.77
-105.52923480,40.26545794,2662.99
-105.52923497,40.26547956,2669.79
-105.52923503,40.26548785,2667.73
-105.52923530,40.26552164,2664.01
-105.52923677,40.26571020,2682.78
-105.52923680,40.26571506,2682.29
-105.52923685,40.26572137,2683.03
-105.52923687,40.26572416,2680.95
-105.52923690,40.26572749,2681.34
-105.52923775,40.26583587,2672.46
-105.52923777,40.26583848,2683.31
-105.52923862,40.26594803,2694.73
-105.52923882,40.26597362,2673.78
-105.52923893,40.26598812,2673.90
-105.52923949,40.26605974,2693.17
-105.52923963,40.26607749,2697.42
-105.52923974,40.26609236,2686.52
-105.52923981,40.26610056,2681.99
-105.52924148,40.26631479,2677.00
-105.52924180,40.26635569,2677.02
-105.52924365,40.26659362,2677.93
-105.52924457,40.26671164,2678.46
-105.52924492,40.26675596,2678.64
-105.52924503,40.26677082,2678.71
-105.52924514,40.26678434,2678.76
-105.52924602,40.26689731,2685.08
-105.52924629,40.26693290,2695.86
-105.52924643,40.26694974,2696.67
-105.52924657,40.26696785,2693.30
-105.52924672,40.26698695,2698.03
-105.52924687,40.26700659,2697.99
-105.52924697,40.26701974,2684.76
-105.52924700,40.26702272,2694.62
-105.52924709,40.26703488,2682.49
-105.52924718,40.26704695,2687.11
-105.52924834,40.26719533,2698.14
-105.52924890,40.26726659,2687.06
-105.52924929,40.26731767,2698.33
-105.52924940,40.26733100,2701.64
-105.52924942,40.26733389,2690.87
-105.52924948,40.26734118,2700.33
-105.52924965,40.26736362,2700.76
-105.52924971,40.26737064,2688.16
-105.52924977,40.26737920,2699.50
-105.52924980,40.26738245,2698.27
-105.52924981,40.26738389,2698.17
-105.52924997,40.26740452,2688.32
-105.52925280,40.26776812,2694.11
-105.52925310,40.26780605,2695.27
-105.52925315,40.26781209,2695.50
-105.52925332,40.26783407,2695.85
-105.52925345,40.26785091,2711.44
-105.52925361,40.26787127,2701.29
-105.52925425,40.26795308,2699.31
-105.52925451,40.26798677,2702.21
-105.52925493,40.26804082,2700.32
-105.52925531,40.26808992,2706.56
-105.52925607,40.26818650,2701.97
-105.52925618,40.26820064,2710.25
-105.52925712,40.26832208,2715.14
-105.52925721,40.26833308,2703.38
-105.52925914,40.26858082,2720.60
-105.52926076,40.26878866,2725.51
-105.52926078,40.26879154,2725.41
-105.52926103,40.26882317,2713.48
-105.52926219,40.26897190,2722.05
-105.52926221,40.26897524,2721.00
-105.52926225,40.26897983,2716.20
-105.52926227,40.26898190,2716.20
-105.52926276,40.26904506,2717.55
-105.52926278,40.26904767,2721.84
-105.52926281,40.26905118,2717.61
-105.52926303,40.26907929,2718.16
-105.52926333,40.26911857,2725.07
-105.52926343,40.26913127,2729.30
-105.52926354,40.26914596,2726.93
-105.52926378,40.26917587,2719.69
-105.52926424,40.26923506,2726.14
-105.52926489,40.26931803,2729.56
-105.52926524,40.26936316,2723.66
-105.52926628,40.26949668,2725.04
-105.52926662,40.26954082,2726.13
-105.52926677,40.26955983,2726.40
-105.52926697,40.26958596,2738.60
-105.52926734,40.26963217,2739.43
-105.52926744,40.26964524,2739.92
-105.52926761,40.26966695,2737.84
-105.52926763,40.26967028,2738.00
-105.52926774,40.26968434,2731.06
-105.52926784,40.26969731,2737.90
-105.52926795,40.26971055,2739.02
-105.52926826,40.26975055,2730.35
-105.52926881,40.26982163,2744.69
-105.52926915,40.26986470,2732.51
-105.52926927,40.26988073,2738.89
-105.52926932,40.26988731,2740.78
-105.52926933,40.26988785,2732.89
-105.52926940,40.26989722,2733.01
-105.52926979,40.26994749,2747.62
-105.52926986,40.26995551,2737.04
-105.52927041,40.27002713,2748.44
-105.52927041,40.27002722,2750.59
-105.52927061,40.27005253,2745.08
-105.52927102,40.27010533,2752.16
-105.52927103,40.27010578,2750.10
-105.52927166,40.27018677,2739.51
-105.52927273,40.27032469,2753.04
-105.52927278,40.27033019,2755.50
-105.52927281,40.27033469,2747.55
-105.52927290,40.27034623,2740.69
-105.52927322,40.27038686,2754.32
-105.52927343,40.27041361,2761.75
-105.52927357,40.27043226,2752.27
-105.52927408,40.27049758,2751.21
-105.52927415,40.27050596,2751.72
-105.52927425,40.27051929,2751.49
-105.52927470,40.27057740,2747.11
-105.52927484,40.27059487,2746.51
-105.52927501,40.27061677,2750.78
-105.52927515,40.27063478,2748.51
-105.52927523,40.27064532,2747.81
-105.52927554,40.27068451,2745.43
-105.52927572,40.27070740,2745.89
-105.52927588,40.27072875,2746.31
-105.52927623,40.27077307,2747.10
-105.52927672,40.27083623,2747.74
-105.52927699,40.27087118,2756.55
-105.52927708,40.27088244,2764.53
-105.52927740,40.27092370,2765.07
-105.52927743,40.27092767,2748.60
-105.52927756,40.27094343,2764.22
-105.52927756,40.27094451,2765.14
-105.52927778,40.27097208,2760.81
-105.52927789,40.27098668,2758.60
-105.52927827,40.27103433,2749.22
-105.52927869,40.27108812,2749.77
-105.52927872,40.27109217,2757.13
-105.52927873,40.27109397,2749.90
-105.52927878,40.27109983,2756.25
-105.52927969,40.27120181,2750.33
-105.52928003,40.27123037,2750.56
-105.52928043,40.27125127,2750.74
-105.52928087,40.27126262,2750.87
-105.52928405,40.27126359,2750.88
-105.52929182,40.27126437,2750.78
-105.52935827,40.27126415,2750.43
-105.52940320,40.27126395,2757.23
-105.52941873,40.27126388,2761.03
-105.52943707,40.27126379,2750.02
-105.52947083,40.27126364,2749.88
-105.52949459,40.27126353,2749.74
-105.52955222,40.27126327,2767.89
-105.52956904,40.27126319,2771.98
-105.52963843,40.27126287,2749.89
-105.52966854,40.27126274,2759.04
-105.52967842,40.27126269,2762.14
-105.52968630,40.27126265,2762.10
-105.52972134,40.27126249,2761.51
-105.52973687,40.27126242,2749.16
-105.52977298,40.27126226,2757.94
-105.52979638,40.27126215,2758.20
-105.52986754,40.27126182,2747.47
-105.52992470,40.27126156,2746.78
-105.52992752,40.27126155,2752.23
-105.52992999,40.27126154,2751.50
-105.52993893,40.27126150,2746.63
-105.52996269,40.27126139,2746.41
-105.53010100,40.27126075,2758.48
-105.53020273,40.27126029,2754.05
-105.53034422,40.27125964,2741.60
-105.53035657,40.27125958,2741.38
-105.53039915,40.27125939,2740.93
-105.53042244,40.27125928,2756.24
-105.53042961,40.27125925,2759.87
-105.53045889,40.27125911,2762.33
-105.53047760,40.27125903,2759.43
-105.53048336,40.27125900,2757.96
-105.53052782,40.27125880,2739.42
-105.53060826,40.27125843,2738.80
-105.53071059,40.27125796,2737.96
-105.53079386,40.27125758,2737.83
-105.53083796,40.27125738,2749.80
-105.53085302,40.27125731,2737.43
-105.53086607,40.27125725,2737.27
-105.53092041,40.27125700,2747.95
-105.53093111,40.27125695,2750.47
-105.53093229,40.27125694,2752.42
-105.53100227,40.27125662,2743.86
-105.53100368,40.27125662,2749.54
-105.53100909,40.27125659,2742.75
-105.53102132,40.27125653,2744.93
-105.53102402,40.27125652,2744.24
-105.53109636,40.27125619,2749.87
-105.53110036,40.27125617,2748.79
-105.53110624,40.27125615,2742.67
-105.53115022,40.27125594,2738.56
-105.53119186,40.27125575,2739.98
-105.53125902,40.27125544,2732.57
-105.53130465,40.27125523,2731.53
-105.53135440,40.27125501,2730.69
-105.53138075,40.27125489,2735.18
-105.53139133,40.27125484,2732.20
-105.53140180,40.27125479,2729.96
-105.53145167,40.27125456,2729.41
-105.53152882,40.27125421,2728.27
-105.53153999,40.27125415,2728.07
-105.53155811,40.27125407,2735.52
-105.53156481,40.27125404,2730.27
-105.53159915,40.27125388,2730.48
-105.53173323,40.27125327,2724.71
-105.53178863,40.27125301,2724.02
-105.53185684,40.27125270,2733.68
-105.53185696,40.27125270,2732.54
-105.53193506,40.27125234,2721.46
-105.53196587,40.27125220,2725.77
-105.53197822,40.27125214,2730.94
-105.53197834,40.27125214,2730.13
-105.53204443,40.27125184,2719.44
-105.53204773,40.27125182,2719.43
-105.53217522,40.27125123,2715.64
-105.53222144,40.27125102,2713.97
-105.53228001,40.27125075,2711.49
-105.53233564,40.27125050,2709.14
-105.53235388,40.27125041,2711.43
-105.53238351,40.27125028,2707.20
-105.53241009,40.27125015,2707.45
-105.53243926,40.27125002,2706.93
-105.53247455,40.27124986,2707.55
-105.53247655,40.27124985,2707.54
-105.53252383,40.27124963,2708.07
-105.53256581,40.27124944,2708.45
-105.53266355,40.27124899,2725.88
-105.53271706,40.27124874,2712.28
-105.53276576,40.27124852,2715.96
-105.53279704,40.27124837,2719.77
-105.53291136,40.27124785,2718.91
-105.53292171,40.27124780,2732.74
-105.53303450,40.27124728,2719.05
-105.53314506,40.27124677,2730.51
-105.53334159,40.27124586,2723.68
-105.53336711,40.27124575,2716.22
-105.53348319,40.27124521,2714.78
-105.53357140,40.27124480,2713.78
-105.53371630,40.27124414,2712.10
-105.53376382,40.27124392,2714.73
-105.53377570,40.27124386,2711.47
-105.53382074,40.27124365,2721.22
-105.53382862,40.27124362,2711.02
-105.53390048,40.27124329,2721.72
-105.53391142,40.27124324,2721.59
-105.53396705,40.27124298,2714.10
-105.53416899,40.27124205,2716.87
     </coordinates>
    </LineString>
   </MultiGeometry>
  </Placemark>
 </Document>
</kml>
