<kml>
 <Document>
  <Style id="yellow">
   <LineStyle>
   <color>ff00ffff</color>
   <width>1</width>
   </LineStyle>
  </Style>
  <Style id="red">
   <LineStyle>
   <color>ffff0000</color>
   <width>2</width>
   </LineStyle>
  </Style>
  <Style id="green">
   <LineStyle>
   <color>ff00ff00</color>
   <width>1</width>
   </LineStyle>
  </Style>
  <Placemark>
  <styleUrl>#yellow</styleUrl>
   <MultiGeometry>
    <LineString>
     <coordinates>
-105.52314689,40.27129240,2892.98
-105.52315183,40.27129238,2897.67
-105.52318229,40.27129224,2887.83
-105.52329202,40.27129175,2893.89
-105.52334036,40.27129153,2887.74
-105.52340235,40.27129125,2890.92
-105.52340446,40.27129124,2893.56
-105.52340799,40.27129122,2892.98
-105.52354901,40.27129059,2886.94
-105.52358382,40.27129043,2888.10
-105.52397042,40.27128868,2895.36
-105.52412590,40.27128797,2896.20
-105.52418424,40.27128771,2889.92
-105.52425775,40.27128738,2890.25
-105.52460953,40.27128569,2902.40
-105.52487169,40.27128459,2888.48
-105.52507751,40.27128366,2871.99
-105.52518689,40.27128316,2867.73
-105.52527933,40.27128274,2864.26
-105.52534167,40.27128246,2861.99
-105.52547798,40.27128184,2857.37
-105.52552538,40.27128163,2858.27
-105.52562665,40.27128117,2854.69
-105.52562947,40.27128115,2853.32
-105.52567216,40.27128096,2856.79
-105.52576531,40.27128054,2846.67
-105.52583670,40.27128021,2846.43
-105.52587081,40.27128006,2848.22
-105.52587352,40.27128004,2847.20
-105.52592574,40.27127981,2846.61
-105.52614414,40.27127881,2833.85
-105.52618907,40.27127861,2839.39
-105.52624976,40.27127833,2830.26
-105.52626258,40.27127828,2829.81
-105.52631692,40.27127803,2828.52
-105.52636667,40.27127780,2826.95
-105.52649510,40.27127722,2830.24
-105.52653909,40.27127702,2829.18
-105.52654367,40.27127700,2830.54
-105.52662718,40.27127662,2822.44
-105.52666729,40.27127643,2829.48
-105.52671210,40.27127623,2822.40
-105.52684665,40.27127562,2824.01
-105.52692404,40.27127527,2823.29
-105.52701319,40.27127486,2815.99
-105.52704035,40.27127474,2814.43
-105.52716855,40.27127415,2803.10
-105.52745188,40.27127286,2798.03
-105.52751422,40.27127258,2797.30
-105.52752139,40.27127254,2803.19
-105.52753362,40.27127249,2797.03
-105.52766829,40.27127187,2804.30
-105.52772992,40.27127159,2802.10
-105.52783224,40.27127113,2801.42
-105.52784001,40.27127109,2799.97
-105.52786823,40.27127096,2797.62
-105.52809205,40.27126994,2792.16
-105.52812381,40.27126980,2793.19
-105.52812428,40.27126979,2794.06
-105.52812486,40.27126979,2795.29
-105.52820037,40.27126945,2794.83
-105.52823060,40.27126931,2792.89
-105.52823389,40.27126929,2790.79
-105.52823577,40.27126928,2789.77
-105.52823777,40.27126928,2788.80
-105.52828858,40.27126904,2794.70
-105.52829211,40.27126903,2792.55
-105.52835680,40.27126873,2786.52
-105.52859285,40.27126765,2785.63
-105.52860837,40.27126758,2776.53
-105.52863648,40.27126745,2775.03
-105.52867447,40.27126728,2773.38
-105.52873457,40.27126701,2772.51
-105.52882137,40.27126661,2772.99
-105.52892005,40.27126616,2764.34
-105.52895121,40.27126602,2767.44
-105.52901390,40.27126573,2766.78
-105.52918668,40.27126494,2763.48
-105.52920302,40.27126487,2759.94
-105.52920926,40.27126484,2761.20
-105.52922455,40.27126477,2751.50
-105.52926665,40.27126439,2751.00
-105.52927771,40.27126425,2750.90
-105.52927871,40.27125785,2750.83
-105.52927981,40.27124695,2750.70
-105.52927943,40.27119902,2750.29
-105.52927931,40.27118334,2750.21
-105.52927894,40.27113587,2760.44
-105.52927883,40.27112136,2758.95
-105.52927869,40.27110352,2749.93
-105.52927823,40.27104541,2749.54
-105.52927799,40.27101406,2749.14
-105.52927790,40.27100289,2753.53
-105.52927784,40.27099533,2748.97
-105.52927777,40.27098605,2758.94
-105.52927754,40.27095695,2766.50
-105.52927724,40.27091785,2763.32
-105.52927703,40.27089118,2763.79
-105.52927699,40.27088587,2760.64
-105.52927696,40.27088181,2760.46
-105.52927690,40.27087424,2759.14
-105.52927681,40.27086217,2747.93
-105.52927649,40.27082109,2747.61
-105.52927509,40.27064172,2749.91
-105.52927491,40.27061938,2743.80
-105.52927489,40.27061659,2743.87
-105.52927479,40.27060352,2743.47
-105.52927465,40.27058605,2748.32
-105.52927440,40.27055343,2742.82
-105.52927396,40.27049722,2742.28
-105.52927365,40.27045758,2752.76
-105.52927365,40.27045722,2741.92
-105.52927346,40.27043244,2756.81
-105.52927279,40.27034677,2754.40
-105.52927279,40.27034650,2747.58
-105.52927267,40.27033208,2753.42
-105.52927260,40.27032235,2744.61
-105.52927247,40.27030551,2740.21
-105.52927211,40.27026001,2756.09
-105.52927181,40.27022154,2739.89
-105.52927176,40.27021452,2756.63
-105.52927148,40.27017893,2739.38
-105.52927123,40.27014650,2746.25
-105.52927113,40.27013443,2744.34
-105.52927075,40.27008506,2747.56
-105.52927063,40.27007046,2737.48
-105.52927053,40.27005740,2749.33
-105.52927043,40.27004407,2748.14
-105.52927041,40.27004154,2752.06
-105.52927040,40.27004055,2751.92
-105.52926967,40.26994695,2747.60
-105.52926846,40.26979208,2740.82
-105.52926831,40.26977172,2734.29
-105.52926806,40.26973992,2730.16
-105.52926788,40.26971713,2740.36
-105.52926739,40.26965407,2738.62
-105.52926736,40.26965028,2736.76
-105.52926702,40.26960740,2732.18
-105.52926700,40.26960371,2732.31
-105.52926683,40.26958289,2727.12
-105.52926680,40.26957848,2737.13
-105.52926672,40.26956866,2731.78
-105.52926571,40.26943839,2732.77
-105.52926560,40.26942524,2723.87
-105.52926533,40.26939028,2723.38
-105.52926493,40.26933848,2724.42
-105.52926475,40.26931560,2730.41
-105.52926470,40.26930956,2733.69
-105.52926419,40.26924425,2720.70
-105.52926326,40.26912407,2728.29
-105.52926274,40.26905812,2717.70
-105.52926236,40.26900938,2716.85
-105.52926229,40.26899965,2722.73
-105.52926211,40.26897758,2720.93
-105.52926177,40.26893344,2724.98
-105.52926171,40.26892533,2726.31
-105.52926083,40.26881326,2713.44
-105.52925815,40.26846884,2716.59
-105.52925788,40.26843461,2714.25
-105.52925642,40.26824695,2712.95
-105.52925602,40.26819587,2702.05
-105.52925586,40.26817542,2706.06
-105.52925543,40.26811938,2701.66
-105.52925515,40.26808425,2710.03
-105.52925506,40.26807272,2715.06
-105.52925460,40.26801407,2713.47
-105.52925336,40.26785479,2711.87
-105.52925286,40.26779055,2694.85
-105.52925235,40.26772470,2693.04
-105.52925226,40.26771299,2692.82
-105.52925169,40.26764019,2691.47
-105.52925158,40.26762632,2691.20
-105.52925126,40.26758515,2690.46
-105.52925064,40.26750524,2689.30
-105.52925039,40.26747281,2688.94
-105.52924953,40.26736290,2700.64
-105.52924951,40.26736110,2688.05
-105.52924935,40.26734028,2701.22
-105.52924928,40.26733055,2701.75
-105.52924927,40.26732974,2690.62
-105.52924924,40.26732533,2691.61
-105.52924864,40.26724821,2686.72
-105.52924773,40.26713200,2684.60
-105.52924759,40.26711407,2684.25
-105.52924759,40.26711389,2693.26
-105.52924755,40.26710920,2689.62
-105.52924753,40.26710623,2691.38
-105.52924656,40.26698182,2698.20
-105.52924643,40.26696506,2693.85
-105.52924606,40.26691794,2680.09
-105.52924601,40.26691155,2689.45
-105.52924587,40.26689308,2690.26
-105.52924532,40.26682245,2679.09
-105.52924301,40.26652623,2677.59
-105.52924297,40.26652200,2677.58
-105.52924199,40.26639587,2683.38
-105.52924147,40.26632866,2677.00
-105.52924096,40.26626371,2680.71
-105.52924044,40.26619722,2682.76
-105.52924003,40.26614443,2681.90
-105.52923973,40.26610569,2681.87
-105.52923953,40.26608011,2694.14
-105.52923937,40.26605920,2695.53
-105.52923789,40.26586938,2673.00
-105.52923771,40.26584596,2681.30
-105.52923748,40.26581659,2675.58
-105.52923739,40.26580542,2671.91
-105.52923687,40.26573821,2678.23
-105.52923621,40.26565398,2670.90
-105.52923564,40.26558065,2679.50
-105.52923537,40.26554659,2675.38
-105.52923524,40.26553011,2664.37
-105.52923451,40.26543650,2662.93
-105.52923423,40.26539948,2663.00
-105.52923411,40.26538443,2663.12
-105.52923325,40.26528912,2660.37
-105.52923035,40.26490191,2660.75
-105.52922772,40.26456524,2661.70
-105.52922664,40.26442551,2663.97
-105.52922659,40.26441912,2668.86
-105.52922645,40.26440119,2671.58
-105.52922623,40.26437389,2671.47
-105.52922611,40.26435848,2669.33
-105.52922562,40.26429515,2660.60
-105.52922549,40.26427848,2664.76
-105.52922517,40.26423731,2653.25
-105.52922354,40.26402857,2646.02
-105.52922348,40.26402056,2645.66
-105.52922339,40.26400876,2645.25
-105.52922320,40.26398398,2646.09
-105.52922314,40.26397641,2658.04
-105.52922304,40.26396353,2662.40
-105.52922291,40.26394758,2660.14
-105.52922285,40.26394020,2644.97
-105.52922280,40.26393290,2648.91
-105.52922279,40.26393227,2648.91
-105.52922279,40.26393209,2642.54
-105.52922265,40.26391425,2646.68
-105.52922260,40.26390722,2654.79
-105.52922259,40.26390578,2652.48
-105.52922258,40.26390524,2654.71
-105.52922255,40.26390173,2651.54
-105.52922252,40.26389758,2654.18
-105.52922251,40.26389659,2652.83
-105.52922233,40.26387236,2641.45
-105.52922194,40.26382317,2640.63
-105.52922171,40.26379290,2653.11
-105.52922158,40.26377704,2657.06
-105.52922117,40.26372371,2646.17
-105.52922116,40.26372290,2643.29
-105.52922006,40.26358137,2637.62
-105.52921938,40.26349452,2636.23
-105.52921858,40.26339236,2634.88
-105.52921843,40.26337200,2634.87
-105.52921751,40.26325389,2646.45
-105.52921750,40.26325263,2646.95
-105.52921745,40.26324650,2651.79
-105.52921726,40.26322200,2645.62
-105.52921675,40.26315686,2638.66
-105.52921657,40.26313434,2635.95
-105.52921554,40.26300101,2630.33
-105.52921490,40.26292002,2630.30
-105.52921435,40.26284930,2633.69
-105.52921418,40.26282713,2634.44
-105.52921399,40.26280227,2649.39
-105.52921338,40.26272416,2637.69
-105.52921334,40.26271921,2637.79
-105.52921231,40.26258740,2640.94
-105.52921191,40.26253578,2653.36
-105.52921182,40.26252434,2653.08
-105.52921180,40.26252227,2641.56
-105.52921168,40.26250659,2651.86
-105.52921148,40.26248002,2643.09
-105.52921123,40.26244894,2656.45
-105.52921050,40.26235533,2647.86
-105.52921014,40.26230894,2650.46
-105.52921001,40.26229218,2655.40
-105.52920988,40.26227533,2649.23
-105.52920750,40.26225705,2649.56
-105.52920138,40.26225636,2649.41
-105.52919550,40.26225594,2649.31
-105.52915892,40.26225583,2647.27
-105.52903968,40.26225638,2641.82
-105.52893208,40.26225687,2636.41
-105.52890256,40.26225701,2635.46
-105.52878473,40.26225755,2643.68
-105.52873734,40.26225776,2643.32
-105.52869406,40.26225796,2629.82
-105.52867877,40.26225803,2627.62
-105.52864714,40.26225817,2625.34
-105.52864420,40.26225819,2626.61
-105.52858223,40.26225847,2624.23
-105.52845416,40.26225906,2634.92
-105.52841888,40.26225922,2642.03
-105.52838031,40.26225939,2626.97
-105.52822402,40.26226011,2629.74
-105.52812889,40.26226054,2635.87
-105.52806433,40.26226083,2632.46
-105.52803740,40.26226096,2646.80
-105.52803117,40.26226099,2646.56
-105.52784360,40.26226184,2646.38
-105.52769531,40.26226252,2640.83
-105.52753020,40.26226327,2644.25
-105.52743695,40.26226370,2654.08
-105.52725020,40.26226455,2656.22
-105.52724703,40.26226456,2658.52
-105.52714036,40.26226505,2646.20
-105.52704734,40.26226547,2647.07
-105.52694833,40.26226592,2646.37
-105.52691328,40.26226608,2646.34
-105.52673101,40.26226691,2646.93
-105.52626697,40.26226902,2650.98
-105.52618735,40.26226938,2651.91
-105.52604659,40.26227002,2651.85
-105.52597885,40.26227033,2655.53
-105.52597356,40.26227036,2655.88
-105.52592676,40.26227057,2652.09
-105.52586819,40.26227084,2652.80
-105.52586196,40.26227086,2652.74
-105.52570826,40.26227156,2656.08
-105.52569650,40.26227162,2658.88
-105.52565476,40.26227181,2658.16
-105.52562171,40.26227196,2654.21
-105.52542556,40.26227285,2655.10
-105.52540639,40.26227293,2655.10
-105.52534442,40.26227321,2655.25
-105.52521235,40.26227381,2655.12
-105.52519554,40.26227389,2654.98
-105.52515508,40.26227407,2654.40
-105.52509581,40.26227434,2654.08
-105.52496657,40.26227493,2655.68
-105.52495058,40.26227500,2661.60
-105.52489108,40.26227527,2652.45
-105.52481628,40.26227561,2653.48
-105.52475408,40.26227589,2654.45
-105.52473785,40.26227597,2654.78
-105.52463918,40.26227641,2671.92
-105.52461813,40.26227651,2673.01
-105.52452723,40.26227692,2658.46
-105.52449266,40.26227708,2658.78
-105.52437047,40.26227763,2660.09
-105.52434013,40.26227777,2662.92
-105.52428145,40.26227804,2660.71
-105.52409036,40.26227890,2669.43
-105.52407413,40.26227897,2662.71
-105.52405919,40.26227904,2675.86
-105.52405402,40.26227907,2670.49
-105.52404167,40.26227912,2668.71
-105.52404002,40.26227913,2672.59
-105.52403650,40.26227915,2675.32
-105.52400733,40.26227928,2666.64
-105.52395841,40.26227950,2663.15
-105.52386821,40.26227991,2673.22
-105.52386151,40.26227994,2674.97
-105.52384681,40.26228000,2668.81
-105.52381083,40.26228017,2668.86
-105.52375944,40.26228040,2664.82
-105.52365136,40.26228089,2665.89
-105.52351213,40.26228152,2672.60
-105.52337877,40.26228212,2677.28
-105.52314275,40.26228319,2684.66
-105.52301822,40.26228375,2677.44
-105.52285299,40.26228450,2683.39
-105.52284406,40.26228454,2691.46
-105.52280960,40.26228469,2689.99
-105.52274104,40.26228500,2694.42
-105.52265461,40.26228539,2690.49
-105.52265331,40.26228540,2689.88
-105.52265320,40.26228540,2692.62
-105.52258193,40.26228572,2701.42
-105.52257499,40.26228575,2700.78
-105.52255582,40.26228584,2694.40
-105.52252231,40.26228599,2695.89
-105.52244469,40.26228634,2697.59
-105.52239260,40.26228658,2698.71
-105.52182919,40.26228912,2717.91
-105.52180920,40.26228921,2718.73
-105.52171641,40.26228963,2732.78
-105.52155871,40.26229034,2728.29
-105.52146123,40.26229078,2732.59
-105.52138643,40.26229112,2738.46
-105.52138502,40.26229112,2739.82
-105.52126719,40.26229165,2748.65
-105.52117652,40.26229206,2748.73
-105.52106951,40.26229254,2755.93
-105.52106269,40.26229257,2755.29
-105.52101777,40.26229278,2761.48
-105.52092039,40.26229321,2772.69
-105.52083914,40.26229358,2770.56
-105.52077975,40.26229385,2775.12
-105.52074012,40.26229403,2774.65
-105.52071272,40.26229415,2767.36
-105.52069943,40.26229421,2767.30
-105.52068943,40.26229425,2770.06
-105.52053785,40.26229494,2766.71
-105.52041778,40.26229548,2779.27
-105.52040214,40.26229555,2780.09
-105.52035546,40.26229576,2774.21
-105.52034969,40.26229578,2766.95
-105.52017882,40.26229655,2766.80
-105.51984590,40.26229805,2772.52
-105.51969126,40.26229874,2765.23
-105.51968386,40.26229877,2767.28
-105.51965704,40.26229889,2775.26
-105.51962306,40.26229905,2771.11
-105.51942632,40.26229993,2763.88
-105.51941091,40.26230000,2764.00
-105.51939045,40.26230009,2764.17
-105.51932753,40.26230037,2775.54
-105.51905224,40.26230161,2768.13
-105.51905094,40.26230161,2768.16
-105.51903707,40.26230168,2772.24
-105.51879152,40.26230278,2768.43
-105.51863665,40.26230347,2762.88
-105.51859078,40.26230368,2770.04
-105.51858737,40.26230369,2772.65
-105.51854433,40.26230389,2766.57
-105.51848365,40.26230416,2760.61
-105.51840322,40.26230452,2759.76
-105.51831067,40.26230493,2761.40
-105.51828562,40.26230505,2758.99
-105.51817461,40.26230554,2758.10
-105.51815109,40.26230565,2757.94
-105.51805607,40.26230607,2762.77
-105.51803396,40.26230617,2771.13
-105.51802314,40.26230622,2775.97
-105.51802149,40.26230623,2775.97
-105.51791401,40.26230671,2769.21
-105.51790543,40.26230675,2758.85
-105.51779006,40.26230726,2759.90
-105.51767211,40.26230779,2774.70
-105.51754840,40.26230834,2762.50
-105.51745855,40.26230884,2763.75
-105.51745080,40.26231004,2763.92
-105.51745022,40.26231113,2763.94
-105.51745024,40.26232887,2764.40
-105.51745059,40.26237482,2765.60
-105.51745064,40.26238194,2765.85
-105.51745066,40.26238365,2765.86
-105.51745129,40.26246725,2775.23
-105.51745132,40.26247122,2775.11
-105.51745138,40.26247905,2779.14
-105.51745162,40.26250987,2781.56
-105.51745167,40.26251662,2779.79
-105.51745209,40.26257203,2781.79
-105.51745418,40.26284572,2780.13
-105.51745428,40.26285933,2780.39
-105.51745449,40.26288635,2792.58
-105.51745460,40.26290086,2793.76
-105.51745460,40.26290113,2795.77
-105.51745460,40.26290122,2795.75
-105.51745480,40.26292716,2784.02
-105.51745498,40.26295095,2782.78
-105.51745545,40.26301203,2791.05
-105.51745561,40.26303311,2784.79
-105.51745576,40.26305302,2790.54
-105.51745587,40.26306815,2796.30
-105.51745591,40.26307329,2790.14
-105.51745592,40.26307491,2793.72
-105.51745601,40.26308581,2791.60
-105.51745602,40.26308788,2786.57
-105.51745602,40.26308797,2791.78
-105.51745605,40.26309122,2786.53
-105.51745631,40.26312518,2787.64
-105.51745692,40.26320608,2798.49
-105.51745732,40.26325798,2790.46
-105.51745736,40.26326302,2790.61
-105.51745778,40.26331852,2803.14
-105.51745860,40.26342581,2795.90
-105.51745860,40.26342599,2797.73
-105.51745985,40.26359041,2800.20
-105.51746029,40.26364825,2801.89
-105.51746077,40.26371023,2803.51
-105.51746091,40.26372969,2804.26
-105.51746175,40.26383969,2816.29
-105.51746180,40.26384536,2816.31
-105.51746181,40.26384780,2816.53
-105.51746237,40.26392050,2813.04
-105.51746250,40.26393780,2819.06
-105.51746260,40.26395086,2817.46
-105.51746278,40.26397428,2810.45
-105.51746311,40.26401834,2811.73
-105.51746338,40.26405329,2812.63
-105.51746361,40.26408374,2822.84
-105.51746397,40.26413104,2824.62
-105.51746425,40.26416699,2816.21
-105.51746487,40.26424933,2827.60
-105.51746497,40.26426212,2819.48
-105.51746557,40.26434104,2823.73
-105.51746604,40.26440257,2823.43
-105.51746622,40.26442554,2830.33
-105.51746634,40.26444149,2831.18
-105.51746639,40.26444798,2834.50
-105.51746681,40.26450392,2831.77
-105.51746712,40.26454428,2828.27
-105.51746723,40.26455870,2828.69
-105.51746738,40.26457888,2829.44
-105.51746748,40.26459113,2844.76
-105.51746750,40.26459401,2843.09
-105.51746834,40.26470473,2842.51
-105.51746835,40.26470545,2838.84
-105.51746930,40.26482996,2836.56
-105.51746939,40.26484239,2841.55
-105.51746951,40.26485816,2845.49
-105.51746962,40.26487284,2843.56
-105.51746967,40.26487852,2840.57
-105.51746970,40.26488257,2838.17
-105.51746979,40.26489455,2844.36
-105.51747065,40.26500690,2841.55
-105.51747080,40.26502762,2842.21
-105.51747119,40.26507789,2844.07
-105.51747127,40.26508879,2855.86
-105.51747152,40.26512104,2851.16
-105.51747285,40.26529609,2855.06
-105.51747292,40.26530546,2857.30
-105.51747295,40.26530870,2859.62
-105.51747324,40.26534708,2860.90
-105.51747330,40.26535573,2862.49
-105.51747348,40.26537906,2855.65
-105.51747351,40.26538248,2853.39
-105.51747373,40.26541176,2860.77
-105.51747450,40.26551284,2857.01
-105.51747461,40.26552762,2857.53
-105.51747465,40.26553284,2857.68
-105.51747522,40.26560708,2859.53
-105.51747535,40.26562419,2862.79
-105.51747539,40.26562906,2859.93
-105.51747641,40.26576302,2864.14
-105.51747679,40.26581356,2876.78
-105.51747684,40.26581924,2873.70
-105.51747709,40.26585302,2874.70
-105.51747712,40.26585600,2872.51
-105.51747716,40.26586194,2870.98
-105.51747729,40.26587888,2873.27
-105.51747797,40.26596771,2870.84
-105.51747830,40.26601077,2873.25
-105.51747916,40.26612420,2884.72
-105.51747920,40.26612969,2883.61
-105.51747958,40.26617960,2878.13
-105.51747962,40.26618474,2878.21
-105.51747991,40.26622302,2888.59
-105.51748002,40.26623690,2885.65
-105.51748025,40.26626762,2881.23
-105.51748066,40.26632059,2894.09
-105.51748074,40.26633104,2883.36
-105.51748098,40.26636239,2892.77
-105.51748100,40.26636537,2891.26
-105.51748101,40.26636699,2892.94
-105.51748103,40.26636915,2888.21
-105.51748107,40.26637474,2888.00
-105.51748108,40.26637645,2890.39
-105.51748109,40.26637753,2887.98
-105.51748110,40.26637825,2885.30
-105.51748111,40.26637942,2889.54
-105.51748111,40.26637951,2885.27
-105.51748111,40.26638005,2885.22
-105.51748112,40.26638158,2890.98
-105.51748117,40.26638780,2889.34
-105.51748172,40.26646032,2887.97
-105.51748183,40.26647402,2895.49
-105.51748218,40.26652068,2897.12
-105.51748273,40.26659248,2897.65
-105.51748307,40.26663681,2901.89
-105.51748318,40.26665140,2893.50
-105.51748321,40.26665627,2898.67
-105.51748373,40.26672330,2903.44
-105.51748407,40.26676807,2902.27
-105.51748413,40.26677573,2903.46
-105.51748413,40.26677672,2900.08
-105.51748432,40.26680194,2905.63
-105.51748486,40.26687275,2899.28
-105.51748488,40.26687492,2899.28
-105.51748507,40.26689987,2899.99
-105.51748534,40.26693537,2904.64
-105.51748593,40.26701266,2902.83
-105.51748603,40.26702537,2911.65
-105.51748660,40.26710032,2905.78
-105.51748681,40.26712843,2906.60
-105.51748688,40.26713780,2906.78
-105.51748700,40.26715357,2907.77
-105.51748717,40.26717483,2908.36
-105.51748754,40.26722429,2918.21
-105.51748764,40.26723717,2918.30
-105.51748779,40.26725672,2911.26
-105.51748840,40.26733708,2918.04
-105.51748849,40.26734861,2919.59
-105.51748853,40.26735366,2918.89
-105.51748918,40.26743879,2915.71
-105.51748945,40.26747420,2916.31
-105.51748955,40.26748699,2924.25
-105.51748955,40.26748798,2924.35
-105.51749085,40.26765861,2921.13
-105.51749090,40.26766492,2923.74
-105.51749205,40.26781609,2929.77
-105.51749220,40.26783465,2934.80
-105.51749234,40.26785429,2931.57
-105.51749265,40.26789465,2928.05
-105.51749276,40.26790897,2933.93
-105.51749338,40.26798978,2935.87
-105.51749342,40.26799528,2933.62
-105.51749414,40.26808924,2930.15
-105.51749471,40.26816420,2932.13
-105.51749481,40.26817735,2942.05
-105.51749489,40.26818807,2938.18
-105.51749493,40.26819294,2932.73
-105.51749499,40.26820149,2932.90
-105.51749520,40.26822924,2939.08
-105.51749541,40.26825591,2943.26
-105.51749649,40.26839870,2937.97
-105.51749698,40.26846267,2939.81
-105.51749718,40.26848861,2943.33
-105.51749746,40.26852564,2947.77
-105.51749864,40.26868014,2952.49
-105.51749924,40.26875888,2950.18
-105.51750054,40.26892924,2960.79
-105.51750104,40.26899474,2958.99
-105.51750160,40.26906924,2963.02
-105.51750172,40.26908429,2956.46
-105.51750195,40.26911501,2957.41
-105.51750212,40.26913636,2966.57
-105.51750218,40.26914411,2967.65
-105.51750353,40.26932204,2968.63
-105.51750354,40.26932276,2973.35
-105.51750401,40.26938474,2964.48
-105.51750418,40.26940654,2974.43
-105.51750546,40.26957483,2969.90
-105.51750548,40.26957753,2977.06
-105.51750559,40.26959213,2970.69
-105.51750765,40.26986267,2985.55
-105.51750880,40.27001285,2985.76
-105.51750961,40.27011915,2987.15
-105.51750994,40.27016276,2989.37
-105.51751098,40.27029906,2991.38
-105.51751105,40.27030879,2993.84
-105.51751217,40.27045483,3004.51
-105.51751218,40.27045726,3006.36
-105.51751227,40.27046789,3002.56
-105.51751234,40.27047798,2997.16
-105.51751249,40.27049798,2997.22
-105.51751316,40.27058591,2998.34
-105.51751371,40.27065753,3005.06
-105.51751392,40.27068555,3002.99
-105.51751412,40.27071059,3001.84
-105.51751707,40.27108330,3009.36
-105.51751809,40.27121726,3009.34
-105.51751834,40.27124870,3009.41
-105.51751902,40.27127681,3009.11
-105.51752008,40.27130762,3009.29
-105.51752318,40.27131409,3009.15
-105.51754167,40.27131716,3008.34
-105.51758166,40.27131734,3007.03
-105.51780243,40.27131644,2996.08
-105.51800472,40.27131554,2982.00
-105.51826312,40.27131438,2966.06
-105.51833721,40.27131405,2963.02
-105.51834274,40.27131402,2965.39
-105.51863560,40.27131271,2960.83
-105.51881661,40.27131190,2936.85
-105.51890540,40.27131150,2940.91
-105.51892222,40.27131143,2931.42
-105.51894539,40.27131132,2930.69
-105.51895915,40.27131126,2934.69
-105.51902784,40.27131095,2931.77
-105.51911264,40.27131057,2933.45
-105.51911946,40.27131054,2929.36
-105.51966248,40.27130810,2895.48
-105.51968165,40.27130802,2901.22
-105.51978445,40.27130756,2898.09
-105.51980820,40.27130745,2897.92
-105.51981985,40.27130740,2903.40
-105.52000474,40.27130657,2889.00
-105.52001673,40.27130651,2882.56
-105.52006448,40.27130630,2880.70
-105.52011482,40.27130607,2880.14
-105.52016316,40.27130586,2887.41
-105.52022644,40.27130557,2875.90
-105.52035993,40.27130497,2872.57
-105.52058798,40.27130395,2876.29
-105.52065855,40.27130363,2863.81
-105.52083038,40.27130285,2863.38
-105.52111630,40.27130157,2847.66
-105.52132577,40.27130062,2855.95
-105.52153641,40.27129967,2845.54
-105.52200098,40.27129758,2854.32
-105.52210531,40.27129711,2866.51
-105.52215788,40.27129687,2866.29
-105.52216153,40.27129685,2865.71
-105.52219305,40.27129671,2861.98
-105.52224644,40.27129647,2864.06
-105.52237688,40.27129588,2867.33
-105.52239381,40.27129581,2879.65
-105.52286238,40.27129369,2894.63
-105.52301505,40.27129300,2889.76
-105.52303716,40.27129290,2888.54
-105.52311737,40.27129254,2891.95
-105.52314689,40.27129240,2892.98
     </coordinates>
    </LineString>
   </MultiGeometry>
  </Placemark>
 </Document>
</kml>
