<kml>
 <Document>
  <Style id="yellow">
   <LineStyle>
   <color>ff00ffff</color>
   <width>1</width>
   </LineStyle>
  </Style>
  <Style id="red">
   <LineStyle>
   <color>ffff0000</color>
   <width>2</width>
   </LineStyle>
  </Style>
  <Style id="green">
   <LineStyle>
   <color>ff00ff00</color>
   <width>1</width>
   </LineStyle>
  </Style>
  <Placemark>
  <styleUrl>#yellow</styleUrl>
   <MultiGeometry>
    <LineString>
     <coordinates>
-105.47558400,40.25347898,2563.92
-105.47570111,40.25347850,2565.98
-105.47570323,40.25347849,2571.65
-105.47571722,40.25347843,2566.43
-105.47578483,40.25347815,2572.47
-105.47586020,40.25347784,2570.83
-105.47592746,40.25347757,2579.44
-105.47593216,40.25347755,2581.90
-105.47596038,40.25347743,2583.67
-105.47596567,40.25347741,2577.81
-105.47612970,40.25347674,2583.81
-105.47642060,40.25347554,2593.75
-105.47642825,40.25347551,2592.82
-105.47643624,40.25347547,2591.93
-105.47647669,40.25347531,2595.62
-105.47656194,40.25347496,2603.95
-105.47659674,40.25347481,2597.13
-105.47660062,40.25347480,2599.35
-105.47669410,40.25347441,2596.45
-105.47672691,40.25347428,2602.00
-105.47686001,40.25347373,2603.84
-105.47698724,40.25347320,2609.30
-105.47715021,40.25347253,2616.42
-105.47715279,40.25347252,2614.48
-105.47717008,40.25347245,2622.99
-105.47717255,40.25347244,2619.44
-105.47717560,40.25347243,2619.88
-105.47718195,40.25347240,2621.73
-105.47718583,40.25347239,2621.55
-105.47720688,40.25347230,2628.07
-105.47722311,40.25347223,2616.95
-105.47725768,40.25347209,2630.76
-105.47743629,40.25347135,2637.99
-105.47746286,40.25347124,2636.65
-105.47748156,40.25347117,2630.47
-105.47748567,40.25347115,2632.43
-105.47752624,40.25347098,2640.42
-105.47756551,40.25347082,2627.38
-105.47759490,40.25347070,2628.23
-105.47762736,40.25347056,2635.06
-105.47775059,40.25347006,2630.87
-105.47780209,40.25346984,2642.55
-105.47781584,40.25346979,2643.79
-105.47781796,40.25346978,2643.07
-105.47783266,40.25346972,2638.19
-105.47785018,40.25346965,2632.44
-105.47787593,40.25346954,2643.98
-105.47789204,40.25346947,2643.30
-105.47794342,40.25346926,2639.20
-105.47794542,40.25346925,2638.47
-105.47800633,40.25346900,2639.69
-105.47801103,40.25346898,2639.16
-105.47801644,40.25346896,2640.49
-105.47813802,40.25346846,2638.02
-105.47814708,40.25346842,2635.06
-105.47821081,40.25346816,2635.22
-105.47845456,40.25346715,2637.24
-105.47859177,40.25346658,2633.56
-105.47868184,40.25346621,2632.91
-105.47871077,40.25346609,2628.76
-105.47873581,40.25346598,2633.22
-105.47886892,40.25346543,2626.84
-105.47902425,40.25346479,2624.74
-105.47907998,40.25346456,2631.29
-105.47913607,40.25346433,2624.47
-105.47916229,40.25346422,2627.83
-105.47917346,40.25346417,2624.39
-105.47923190,40.25346393,2624.43
-105.47937570,40.25346334,2632.47
-105.47942603,40.25346313,2628.63
-105.47988495,40.25346123,2629.83
-105.47995409,40.25346094,2630.25
-105.47996573,40.25346089,2630.23
-105.48003887,40.25346059,2634.24
-105.48012471,40.25346023,2630.48
-105.48017386,40.25346003,2630.48
-105.48027451,40.25345961,2635.29
-105.48035705,40.25345927,2630.78
-105.48051332,40.25345862,2635.36
-105.48051708,40.25345860,2635.00
-105.48054224,40.25345850,2631.12
-105.48059257,40.25345829,2632.01
-105.48059927,40.25345826,2631.42
-105.48061444,40.25345820,2635.67
-105.48062573,40.25345815,2634.47
-105.48066018,40.25345801,2630.97
-105.48072426,40.25345774,2630.85
-105.48083808,40.25345727,2630.78
-105.48104291,40.25345642,2632.79
-105.48107560,40.25345628,2630.84
-105.48108019,40.25345626,2630.79
-105.48112710,40.25345607,2630.91
-105.48121917,40.25345568,2634.18
-105.48123316,40.25345563,2631.25
-105.48123328,40.25345563,2635.89
-105.48124104,40.25345559,2635.11
-105.48127067,40.25345547,2631.26
-105.48138461,40.25345500,2631.53
-105.48143964,40.25345477,2631.57
-105.48146233,40.25345467,2639.58
-105.48158861,40.25345415,2638.48
-105.48163047,40.25345397,2632.37
-105.48165211,40.25345388,2632.24
-105.48166328,40.25345384,2636.73
-105.48169479,40.25345371,2632.46
-105.48172090,40.25345360,2632.29
-105.48180873,40.25345323,2631.54
-105.48191526,40.25345279,2637.21
-105.48197981,40.25345252,2630.88
-105.48200556,40.25345241,2640.48
-105.48209669,40.25345203,2630.19
-105.48210139,40.25345165,2630.16
-105.48210597,40.25345118,2630.16
-105.48210638,40.25342578,2631.54
-105.48210617,40.25339577,2630.41
-105.48210538,40.25328397,2630.72
-105.48210530,40.25327361,2633.88
-105.48210509,40.25324388,2633.44
-105.48210507,40.25324073,2635.31
-105.48210502,40.25323388,2630.42
-105.48210422,40.25312154,2629.92
-105.48210392,40.25307929,2629.80
-105.48210380,40.25306181,2630.55
-105.48210307,40.25295955,2630.97
-105.48210272,40.25290928,2632.97
-105.48210270,40.25290748,2628.77
-105.48210267,40.25290217,2633.04
-105.48210262,40.25289496,2636.14
-105.48210252,40.25288154,2630.16
-105.48210239,40.25286334,2631.40
-105.48210235,40.25285703,2630.41
-105.48210226,40.25284478,2628.72
-105.48210216,40.25283099,2635.47
-105.48210139,40.25272262,2630.26
-105.48210139,40.25272216,2634.14
-105.48210133,40.25271442,2631.02
-105.48210128,40.25270658,2629.11
-105.48210098,40.25266478,2626.52
-105.48209800,40.25224459,2621.30
-105.48209794,40.25223621,2624.58
-105.48209779,40.25221495,2619.26
-105.48209693,40.25209414,2606.94
-105.48209693,40.25209333,2606.93
-105.48209613,40.25198135,2604.89
-105.48209599,40.25196108,2607.43
-105.48209572,40.25192396,2610.37
-105.48209496,40.25181630,2609.22
-105.48209391,40.25166792,2601.14
-105.48209191,40.25138648,2608.95
-105.48209186,40.25137891,2606.97
-105.48209181,40.25137161,2602.75
-105.48209166,40.25135098,2597.76
-105.48209159,40.25134188,2600.62
-105.48209128,40.25129711,2598.19
-105.48209058,40.25119882,2600.18
-105.48209042,40.25117593,2592.01
-105.48208987,40.25109918,2590.03
-105.48208974,40.25108008,2598.46
-105.48208957,40.25105611,2597.56
-105.48208933,40.25102269,2593.31
-105.48208930,40.25101900,2592.01
-105.48208922,40.25100783,2590.96
-105.48208903,40.25098017,2592.24
-105.48208900,40.25097611,2593.83
-105.48208873,40.25093827,2594.15
-105.48208851,40.25090782,2585.74
-105.48208847,40.25090206,2585.56
-105.48208825,40.25087035,2584.90
-105.48208796,40.25082963,2584.06
-105.48208764,40.25078449,2583.01
-105.48208718,40.25071935,2590.19
-105.48208590,40.25053953,2578.30
-105.48208566,40.25050494,2585.47
-105.48208493,40.25040223,2581.72
-105.48208455,40.25034935,2583.87
-105.48208455,40.25034890,2584.02
-105.48208446,40.25033647,2583.90
-105.48208440,40.25032773,2582.25
-105.48208427,40.25030953,2571.46
-105.48208427,40.25030890,2571.44
-105.48208425,40.25030611,2571.32
-105.48208424,40.25030494,2571.11
-105.48208416,40.25029358,2569.53
-105.48208415,40.25029214,2569.39
-105.48208410,40.25028629,2569.16
-105.48208385,40.25025097,2579.02
-105.48208359,40.25021322,2568.64
-105.48208353,40.25020530,2568.52
-105.48208352,40.25020340,2568.48
-105.48208318,40.25015629,2577.72
-105.48208315,40.25015106,2585.73
-105.48208287,40.25011169,2570.86
-105.48208284,40.25010836,2572.23
-105.48208268,40.25008511,2574.29
-105.48208267,40.25008430,2571.79
-105.48208264,40.25007926,2577.96
-105.48208199,40.24998764,2588.37
-105.48208146,40.24991385,2578.29
-105.48208135,40.24989755,2591.60
-105.48208131,40.24989304,2579.20
-105.48208116,40.24987187,2579.91
-105.48208102,40.24985097,2592.33
-105.48208096,40.24984250,2595.05
-105.48208093,40.24983845,2597.43
-105.48208082,40.24982277,2592.46
-105.48208013,40.24972592,2598.85
-105.48208010,40.24972232,2598.61
-105.48207976,40.24967349,2589.86
-105.48207933,40.24961277,2592.87
-105.48207917,40.24959033,2601.55
-105.48207861,40.24951133,2594.90
-105.48207837,40.24947736,2593.46
-105.48207766,40.24937826,2599.51
-105.48207762,40.24937231,2598.91
-105.48207708,40.24929655,2611.06
-105.48207702,40.24928790,2609.29
-105.48207700,40.24928538,2602.36
-105.48207695,40.24927835,2612.10
-105.48207695,40.24927745,2600.67
-105.48207668,40.24924042,2602.31
-105.48207613,40.24916204,2617.96
-105.48207576,40.24910970,2618.94
-105.48207529,40.24904366,2609.95
-105.48207511,40.24901898,2610.86
-105.48207466,40.24895555,2619.41
-105.48207407,40.24887186,2616.46
-105.48207391,40.24884934,2617.32
-105.48207377,40.24882979,2618.41
-105.48207334,40.24876952,2618.95
-105.48207251,40.24865276,2633.44
-105.48207247,40.24864600,2618.24
-105.48207235,40.24862888,2617.88
-105.48207142,40.24849816,2625.46
-105.48207110,40.24845393,2615.09
-105.48207083,40.24841537,2616.13
-105.48206972,40.24825861,2617.24
-105.48206876,40.24812293,2616.65
-105.48206847,40.24808203,2624.70
-105.48206825,40.24805131,2628.30
-105.48206806,40.24802428,2626.19
-105.48206768,40.24797167,2621.13
-105.48206743,40.24793663,2613.94
-105.48206699,40.24787383,2613.60
-105.48206618,40.24775996,2613.01
-105.48206618,40.24775942,2627.70
-105.48206614,40.24775356,2613.18
-105.48206611,40.24774987,2615.03
-105.48206607,40.24774410,2622.27
-105.48206586,40.24771455,2622.16
-105.48206577,40.24770140,2629.77
-105.48206555,40.24767041,2610.95
-105.48206546,40.24765906,2611.08
-105.48206511,40.24760851,2611.13
-105.48206482,40.24756761,2621.36
-105.48206467,40.24754671,2618.75
-105.48206461,40.24753896,2611.52
-105.48206460,40.24753761,2611.58
-105.48206449,40.24752167,2615.25
-105.48206446,40.24751761,2613.24
-105.48206443,40.24751266,2614.06
-105.48206429,40.24749374,2616.18
-105.48206396,40.24744689,2618.41
-105.48206388,40.24743527,2619.34
-105.48206307,40.24732121,2618.99
-105.48206303,40.24731572,2629.85
-105.48206299,40.24731040,2621.61
-105.48206295,40.24730446,2632.20
-105.48206295,40.24730401,2632.19
-105.48206278,40.24728058,2630.08
-105.48206272,40.24727157,2618.55
-105.48206247,40.24723626,2618.67
-105.48206229,40.24721148,2626.48
-105.48206228,40.24721049,2622.95
-105.48206223,40.24720301,2618.57
-105.48206217,40.24719455,2619.82
-105.48206193,40.24716040,2620.36
-105.48206179,40.24714121,2619.06
-105.48206146,40.24709391,2619.97
-105.48206087,40.24701094,2621.98
-105.48206060,40.24697310,2623.29
-105.48205986,40.24686869,2638.91
-105.48205982,40.24686337,2637.73
-105.48205969,40.24684490,2638.11
-105.48205955,40.24682571,2635.61
-105.48205839,40.24666121,2642.28
-105.48205737,40.24651751,2638.18
-105.48205714,40.24648616,2639.58
-105.48205713,40.24648436,2636.38
-105.48205700,40.24646607,2636.80
-105.48205685,40.24644517,2637.35
-105.48205581,40.24629751,2641.17
-105.48205500,40.24618354,2643.25
-105.48205420,40.24607084,2646.89
-105.48205313,40.24592093,2653.42
-105.48205311,40.24591814,2653.58
-105.48205288,40.24588525,2661.05
-105.48205243,40.24582111,2659.87
-105.48205217,40.24578489,2658.63
-105.48205208,40.24577174,2665.09
-105.48205200,40.24576120,2665.09
-105.48205177,40.24572804,2659.76
-105.48205145,40.24568390,2659.69
-105.48205127,40.24565867,2659.46
-105.48205111,40.24563534,2661.09
-105.48204992,40.24546768,2651.33
-105.48204978,40.24544777,2657.29
-105.48204927,40.24537570,2648.68
-105.48204916,40.24536047,2652.49
-105.48204902,40.24534029,2647.96
-105.48204897,40.24533318,2650.28
-105.48204857,40.24527786,2648.59
-105.48204596,40.24490903,2633.72
-105.48204591,40.24490191,2639.48
-105.48204485,40.24475335,2640.89
-105.48204431,40.24467704,2637.54
-105.48204403,40.24463758,2641.54
-105.48204399,40.24463218,2644.33
-105.48204396,40.24462821,2642.84
-105.48204390,40.24461938,2641.21
-105.48204355,40.24456983,2633.57
-105.48204354,40.24456839,2636.03
-105.48204346,40.24455740,2632.03
-105.48204283,40.24446875,2634.92
-105.48204266,40.24446110,2627.31
-105.48204187,40.24444858,2627.10
-105.48204019,40.24444426,2626.85
-105.48203984,40.24444399,2628.59
-105.48203819,40.24444346,2628.51
-105.48203595,40.24444337,2628.48
-105.48196247,40.24444332,2631.46
-105.48193555,40.24444343,2625.76
-105.48187465,40.24444369,2624.99
-105.48179211,40.24444403,2627.36
-105.48162517,40.24444472,2626.93
-105.48157861,40.24444492,2631.39
-105.48155110,40.24444503,2628.80
-105.48154746,40.24444505,2629.33
-105.48154581,40.24444506,2630.65
-105.48152688,40.24444513,2632.65
-105.48131761,40.24444600,2630.07
-105.48128563,40.24444614,2627.49
-105.48125236,40.24444628,2622.82
-105.48116254,40.24444665,2618.06
-105.48109059,40.24444695,2616.92
-105.48108189,40.24444698,2618.31
-105.48105791,40.24444708,2621.65
-105.48099748,40.24444734,2614.31
-105.48092458,40.24444764,2619.45
-105.48092164,40.24444765,2618.70
-105.48088438,40.24444781,2610.44
-105.48086756,40.24444788,2611.59
-105.48077692,40.24444825,2612.02
-105.48073001,40.24444845,2604.21
-105.48071308,40.24444852,2606.83
-105.48070556,40.24444855,2615.27
-105.48061609,40.24444892,2602.78
-105.48057094,40.24444911,2598.06
-105.48048453,40.24444947,2594.69
-105.48032170,40.24445014,2605.22
-105.48032158,40.24445014,2605.19
-105.48031464,40.24445017,2606.23
-105.48018485,40.24445071,2595.47
-105.48017415,40.24445075,2594.36
-105.48016733,40.24445078,2596.27
-105.48016639,40.24445079,2584.56
-105.48013524,40.24445092,2590.74
-105.48013206,40.24445093,2595.37
-105.48010855,40.24445103,2582.48
-105.48005329,40.24445126,2594.17
-105.48003860,40.24445132,2592.99
-105.48000356,40.24445146,2590.35
-105.47999568,40.24445149,2590.67
-105.47999510,40.24445150,2579.01
-105.47995524,40.24445166,2587.70
-105.47994936,40.24445169,2587.54
-105.47976443,40.24445245,2582.22
-105.47964345,40.24445295,2568.56
-105.47961606,40.24445307,2580.10
-105.47955151,40.24445334,2568.69
-105.47952647,40.24445344,2576.44
-105.47951377,40.24445349,2564.35
-105.47949155,40.24445358,2568.36
-105.47947698,40.24445364,2571.27
-105.47946228,40.24445371,2562.81
-105.47929545,40.24445440,2569.46
-105.47929004,40.24445442,2557.63
-105.47919646,40.24445481,2565.48
-105.47912157,40.24445512,2554.19
-105.47901670,40.24445555,2552.39
-105.47889067,40.24445607,2563.58
-105.47888397,40.24445610,2564.79
-105.47887726,40.24445613,2565.98
-105.47881154,40.24445640,2549.47
-105.47875053,40.24445665,2545.20
-105.47873148,40.24445673,2558.87
-105.47868669,40.24445692,2543.62
-105.47842228,40.24445801,2542.79
-105.47841405,40.24445804,2556.64
-105.47839418,40.24445813,2556.55
-105.47836984,40.24445823,2541.24
-105.47833763,40.24445836,2541.23
-105.47832928,40.24445839,2548.54
-105.47830071,40.24445851,2542.88
-105.47820466,40.24445891,2555.87
-105.47820419,40.24445891,2546.34
-105.47819678,40.24445894,2554.68
-105.47818420,40.24445899,2537.43
-105.47813482,40.24445920,2536.80
-105.47810825,40.24445931,2540.02
-105.47810532,40.24445932,2542.36
-105.47808827,40.24445939,2536.49
-105.47807075,40.24445946,2536.52
-105.47802443,40.24445965,2547.77
-105.47795871,40.24445992,2535.71
-105.47794401,40.24445999,2535.58
-105.47793813,40.24446001,2550.98
-105.47786595,40.24446031,2557.31
-105.47786571,40.24446031,2557.08
-105.47784596,40.24446039,2534.39
-105.47783279,40.24446044,2553.70
-105.47781410,40.24446052,2534.05
-105.47774838,40.24446079,2552.91
-105.47771805,40.24446092,2532.52
-105.47768572,40.24446105,2548.21
-105.47765715,40.24446117,2531.85
-105.47764645,40.24446121,2531.73
-105.47763081,40.24446128,2531.63
-105.47760953,40.24446137,2531.04
-105.47759296,40.24446143,2530.84
-105.47756592,40.24446155,2531.62
-105.47755933,40.24446157,2530.55
-105.47754064,40.24446165,2530.33
-105.47740285,40.24446222,2529.15
-105.47732326,40.24446255,2528.82
-105.47729304,40.24446267,2540.60
-105.47727929,40.24446273,2540.89
-105.47725636,40.24446282,2541.89
-105.47719899,40.24446306,2532.09
-105.47709365,40.24446349,2528.18
-105.47706179,40.24446363,2546.49
-105.47697208,40.24446400,2529.07
-105.47696162,40.24446404,2542.11
-105.47691494,40.24446423,2529.13
-105.47688779,40.24446434,2529.20
-105.47685969,40.24446446,2529.13
-105.47677222,40.24446482,2528.88
-105.47675493,40.24446489,2529.01
-105.47670650,40.24446509,2528.90
-105.47670544,40.24446509,2527.91
-105.47665195,40.24446531,2527.30
-105.47660362,40.24446551,2527.10
-105.47654578,40.24446575,2527.78
-105.47653379,40.24446580,2527.66
-105.47648982,40.24446598,2527.88
-105.47647136,40.24446606,2527.93
-105.47636355,40.24446650,2535.48
-105.47635109,40.24446655,2540.02
-105.47632816,40.24446665,2536.59
-105.47611948,40.24446751,2529.35
-105.47610690,40.24446756,2529.29
-105.47598910,40.24446804,2528.56
-105.47593902,40.24446825,2528.20
-105.47592279,40.24446832,2529.83
-105.47591480,40.24446835,2539.94
-105.47584849,40.24446862,2537.63
-105.47580863,40.24446878,2538.42
-105.47576219,40.24446898,2527.07
-105.47575608,40.24446900,2527.48
-105.47573139,40.24446910,2525.65
-105.47566273,40.24446938,2533.14
-105.47566109,40.24446939,2534.10
-105.47564298,40.24446947,2530.14
-105.47558843,40.24446969,2523.00
-105.47555527,40.24446983,2522.41
-105.47540561,40.24447044,2530.16
-105.47537222,40.24447058,2518.47
-105.47533049,40.24447075,2525.26
-105.47527934,40.24447096,2527.43
-105.47527699,40.24447097,2524.30
-105.47521938,40.24447121,2521.65
-105.47517647,40.24447138,2515.13
-105.47508841,40.24447174,2513.36
-105.47494910,40.24447232,2524.84
-105.47493546,40.24447237,2510.27
-105.47491900,40.24447244,2519.04
-105.47491477,40.24447246,2519.37
-105.47477674,40.24447302,2507.92
-105.47475746,40.24447310,2509.62
-105.47475205,40.24447312,2504.90
-105.47472854,40.24447322,2509.32
-105.47453349,40.24447402,2502.51
-105.47434433,40.24447480,2506.99
-105.47432422,40.24447488,2505.35
-105.47423828,40.24447523,2502.19
-105.47410461,40.24447578,2502.11
-105.47406358,40.24447595,2499.14
-105.47405582,40.24447598,2499.10
-105.47377095,40.24447714,2495.73
-105.47374744,40.24447724,2494.82
-105.47373204,40.24447730,2495.30
-105.47371158,40.24447739,2495.88
-105.47361753,40.24447777,2506.65
-105.47360248,40.24447783,2500.44
-105.47359413,40.24447787,2504.91
-105.47347515,40.24447835,2497.38
-105.47341790,40.24447859,2501.92
-105.47334606,40.24447888,2496.74
-105.47323837,40.24447932,2497.18
-105.47310716,40.24447986,2495.32
-105.47304615,40.24448011,2506.39
-105.47281724,40.24448104,2502.58
-105.47278726,40.24448117,2493.91
-105.47269873,40.24448153,2493.35
-105.47260045,40.24448193,2492.17
-105.47249487,40.24448236,2497.57
-105.47240787,40.24448272,2489.78
-105.47230183,40.24448315,2488.06
-105.47229148,40.24448319,2488.62
-105.47222247,40.24448347,2486.89
-105.47217697,40.24448366,2494.72
-105.47209890,40.24448398,2489.85
-105.47207821,40.24448406,2489.07
-105.47206481,40.24448412,2491.38
-105.47203165,40.24448425,2483.69
-105.47201743,40.24448431,2485.58
-105.47199885,40.24448439,2484.53
-105.47197910,40.24448447,2486.02
-105.47196652,40.24448452,2482.53
-105.47190574,40.24448476,2483.22
-105.47185801,40.24448496,2481.21
-105.47183191,40.24448507,2480.85
-105.47181463,40.24448514,2486.63
-105.47180228,40.24448519,2491.16
-105.47158443,40.24448607,2476.60
-105.47157737,40.24448610,2477.37
-105.47149778,40.24448643,2483.55
-105.47139949,40.24448683,2476.07
-105.47135588,40.24448701,2479.37
-105.47135482,40.24448701,2474.46
-105.47131861,40.24448716,2474.67
-105.47129110,40.24448727,2474.06
-105.47122632,40.24448753,2473.95
-105.47118975,40.24448768,2472.15
-105.47117282,40.24448775,2474.64
-105.47113591,40.24448790,2475.34
-105.47104150,40.24448829,2467.10
-105.47101646,40.24448839,2466.67
-105.47098812,40.24448850,2466.46
-105.47096779,40.24448859,2466.02
-105.47091758,40.24448879,2465.26
-105.47090124,40.24448886,2464.97
-105.47085986,40.24448902,2468.25
-105.47077403,40.24448937,2471.81
-105.47076686,40.24448940,2469.23
-105.47073077,40.24448955,2469.09
-105.47071584,40.24448961,2467.45
-105.47070255,40.24448966,2461.96
-105.47061508,40.24449002,2460.85
-105.47055418,40.24449027,2460.27
-105.47055230,40.24449028,2460.26
-105.47052596,40.24449038,2459.95
-105.47039723,40.24449091,2467.04
-105.47029483,40.24449150,2457.53
-105.47028637,40.24449244,2463.96
-105.47028612,40.24450775,2457.40
-105.47028705,40.24464145,2457.19
-105.47028713,40.24465325,2457.17
-105.47028777,40.24474614,2469.60
-105.47028782,40.24475316,2468.71
-105.47028880,40.24489506,2459.04
-105.47028882,40.24489731,2455.99
-105.47028884,40.24490100,2455.96
-105.47028886,40.24490280,2458.67
-105.47028891,40.24491064,2463.50
-105.47028892,40.24491181,2463.57
-105.47028892,40.24491199,2460.53
-105.47028893,40.24491407,2462.10
-105.47028894,40.24491425,2456.00
-105.47028894,40.24491515,2455.93
-105.47028896,40.24491749,2458.75
-105.47028917,40.24494758,2455.53
-105.47028917,40.24494785,2455.56
-105.47028928,40.24496452,2455.43
-105.47028967,40.24502001,2454.92
-105.47029064,40.24515974,2454.10
-105.47029206,40.24536533,2452.87
-105.47029241,40.24541569,2452.63
-105.47029315,40.24552380,2464.03
-105.47029318,40.24552759,2452.75
-105.47029363,40.24559200,2452.08
-105.47029364,40.24559461,2466.49
-105.47029375,40.24561038,2451.78
-105.47029376,40.24561164,2451.77
-105.47029392,40.24563498,2451.43
-105.47029397,40.24564218,2465.27
-105.47029400,40.24564606,2465.07
-105.47029410,40.24565966,2451.52
-105.47029459,40.24573074,2454.89
-105.47029490,40.24577570,2463.09
-105.47029561,40.24587786,2455.30
-105.47029561,40.24587858,2455.66
-105.47029575,40.24589894,2463.02
-105.47029587,40.24591579,2459.76
-105.47029651,40.24600858,2453.20
-105.47029654,40.24601327,2460.05
-105.47029657,40.24601660,2459.27
-105.47029687,40.24606048,2453.36
-105.47029763,40.24617111,2467.06
-105.47029785,40.24620273,2459.75
-105.47029820,40.24625210,2462.24
-105.47029826,40.24626156,2454.47
-105.47029990,40.24649868,2455.51
-105.47030033,40.24656066,2455.32
-105.47030053,40.24658931,2455.28
-105.47030064,40.24660571,2457.60
-105.47030069,40.24661219,2457.45
-105.47030186,40.24678120,2457.94
-105.47030230,40.24684463,2456.50
-105.47030274,40.24690868,2456.65
-105.47030313,40.24696526,2456.78
-105.47030327,40.24698553,2456.77
-105.47030362,40.24703652,2456.91
-105.47030370,40.24704697,2456.97
-105.47030374,40.24705310,2456.93
-105.47030412,40.24710851,2457.03
-105.47030489,40.24721905,2457.22
-105.47030521,40.24726508,2468.33
-105.47030592,40.24736797,2466.51
-105.47030635,40.24743040,2463.46
-105.47030652,40.24745536,2462.67
-105.47030696,40.24751914,2462.48
-105.47030700,40.24752383,2466.77
-105.47030735,40.24757554,2456.37
-105.47030850,40.24774077,2453.52
-105.47030872,40.24777347,2453.77
-105.47030897,40.24780887,2459.91
-105.47030909,40.24782635,2451.67
-105.47030916,40.24783608,2451.83
-105.47030972,40.24791779,2452.63
-105.47030998,40.24795464,2451.70
-105.47031001,40.24795897,2451.82
-105.47031013,40.24797644,2452.37
-105.47031032,40.24800437,2455.83
-105.47031046,40.24802437,2470.64
-105.47031052,40.24803221,2461.74
-105.47031052,40.24803302,2467.32
-105.47031065,40.24805122,2461.80
-105.47031071,40.24805960,2461.60
-105.47031082,40.24807599,2458.90
-105.47031135,40.24815284,2454.34
-105.47031137,40.24815627,2454.35
-105.47031216,40.24827014,2455.37
-105.47031250,40.24831825,2455.89
-105.47031407,40.24854519,2460.45
-105.47031418,40.24856195,2460.89
-105.47031429,40.24857789,2461.28
-105.47031459,40.24862014,2462.03
-105.47031502,40.24868231,2463.34
-105.47031503,40.24868483,2463.37
-105.47031504,40.24868618,2463.44
-105.47031563,40.24877087,2465.16
-105.47031621,40.24885537,2467.32
-105.47031687,40.24894970,2469.94
-105.47031700,40.24896835,2470.36
-105.47031750,40.24904069,2472.42
-105.47031765,40.24906321,2473.49
-105.47031787,40.24909402,2476.01
-105.47031853,40.24919024,2476.29
-105.47031868,40.24921231,2481.97
-105.47031871,40.24921601,2484.36
-105.47031887,40.24923979,2477.96
-105.47031896,40.24925204,2478.24
-105.47031915,40.24928015,2479.62
-105.47032018,40.24942907,2483.28
-105.47032067,40.24949880,2484.80
-105.47032116,40.24956971,2486.66
-105.47032134,40.24959601,2488.94
-105.47032215,40.24971322,2489.07
-105.47032293,40.24982538,2491.33
-105.47032298,40.24983340,2491.42
-105.47032340,40.24989295,2492.80
-105.47032343,40.24989728,2493.12
-105.47032459,40.25006476,2495.83
-105.47032485,40.25010358,2498.05
-105.47032487,40.25010638,2496.93
-105.47032550,40.25019701,2498.14
-105.47032556,40.25020575,2498.11
-105.47032642,40.25033016,2500.98
-105.47032653,40.25034584,2501.46
-105.47032739,40.25046962,2504.59
-105.47032868,40.25065683,2510.16
-105.47032945,40.25076774,2512.65
-105.47033011,40.25086305,2517.21
-105.47033029,40.25088846,2521.73
-105.47033047,40.25091458,2518.87
-105.47033095,40.25098450,2518.27
-105.47033174,40.25109846,2520.96
-105.47033176,40.25110197,2521.04
-105.47033180,40.25110648,2521.12
-105.47033181,40.25110873,2521.15
-105.47033270,40.25123639,2527.13
-105.47033273,40.25124162,2524.06
-105.47033276,40.25124621,2528.19
-105.47033315,40.25130243,2525.50
-105.47033322,40.25131171,2531.40
-105.47033323,40.25131414,2530.21
-105.47033329,40.25132207,2529.35
-105.47033341,40.25133954,2525.64
-105.47033366,40.25137621,2534.00
-105.47033368,40.25137918,2533.30
-105.47033370,40.25138225,2530.95
-105.47033386,40.25140396,2526.01
-105.47033531,40.25161432,2528.03
-105.47033538,40.25162378,2528.11
-105.47033566,40.25166495,2534.47
-105.47033572,40.25167333,2536.46
-105.47033576,40.25167883,2541.36
-105.47033591,40.25170090,2542.91
-105.47033669,40.25181378,2539.15
-105.47033684,40.25183586,2531.08
-105.47033693,40.25184784,2527.80
-105.47033717,40.25188225,2527.38
-105.47033763,40.25194856,2538.85
-105.47033765,40.25195270,2538.86
-105.47033787,40.25198451,2534.63
-105.47033833,40.25205090,2524.98
-105.47033862,40.25209235,2527.85
-105.47033873,40.25210793,2524.87
-105.47033889,40.25213153,2524.60
-105.47033904,40.25215226,2524.43
-105.47033909,40.25216054,2524.47
-105.47033914,40.25216676,2524.37
-105.47033995,40.25228469,2525.52
-105.47034011,40.25230721,2522.57
-105.47034019,40.25231874,2522.72
-105.47034039,40.25234766,2522.10
-105.47034081,40.25240829,2519.22
-105.47034127,40.25247442,2516.64
-105.47034132,40.25248154,2518.15
-105.47034133,40.25248325,2528.20
-105.47034201,40.25258253,2514.99
-105.47034202,40.25258352,2516.93
-105.47034238,40.25263514,2512.09
-105.47034285,40.25270379,2514.17
-105.47034304,40.25273109,2513.76
-105.47034305,40.25273244,2520.17
-105.47034310,40.25273884,2508.67
-105.47034330,40.25276875,2515.09
-105.47034389,40.25285407,2510.14
-105.47034396,40.25286416,2509.29
-105.47034402,40.25287199,2507.90
-105.47034469,40.25296866,2501.67
-105.47034494,40.25300479,2511.28
-105.47034502,40.25301713,2504.56
-105.47034564,40.25310569,2497.81
-105.47034582,40.25313200,2500.62
-105.47034585,40.25313686,2501.32
-105.47034598,40.25315470,2500.35
-105.47034602,40.25316137,2506.75
-105.47034603,40.25316209,2506.16
-105.47034641,40.25321686,2497.43
-105.47034651,40.25323137,2497.35
-105.47034669,40.25325803,2493.62
-105.47034697,40.25329893,2497.11
-105.47034707,40.25331335,2500.41
-105.47034730,40.25334551,2500.45
-105.47034760,40.25338957,2489.32
-105.47034768,40.25340101,2489.02
-105.47034778,40.25341506,2488.48
-105.47034786,40.25342758,2487.92
-105.47034846,40.25349722,2485.30
-105.47034870,40.25349785,2485.28
-105.47035072,40.25350028,2485.22
-105.47036377,40.25350032,2494.43
-105.47038870,40.25350021,2495.10
-105.47044396,40.25349999,2486.54
-105.47045243,40.25349996,2486.76
-105.47047077,40.25349988,2487.08
-105.47051792,40.25349969,2497.20
-105.47051839,40.25349969,2487.91
-105.47055861,40.25349952,2493.63
-105.47056390,40.25349950,2496.40
-105.47057613,40.25349945,2488.92
-105.47061481,40.25349929,2494.30
-105.47061587,40.25349929,2494.31
-105.47064092,40.25349919,2492.78
-105.47064468,40.25349917,2490.87
-105.47066655,40.25349908,2491.23
-105.47066761,40.25349908,2491.28
-105.47068231,40.25349902,2493.03
-105.47073275,40.25349882,2496.01
-105.47074004,40.25349879,2496.95
-105.47075427,40.25349873,2500.36
-105.47075967,40.25349871,2492.16
-105.47079542,40.25349856,2492.67
-105.47081188,40.25349849,2492.79
-105.47081506,40.25349848,2498.02
-105.47084727,40.25349835,2493.14
-105.47085351,40.25349832,2496.40
-105.47085762,40.25349831,2495.03
-105.47086127,40.25349829,2493.86
-105.47088361,40.25349820,2494.06
-105.47088584,40.25349819,2493.34
-105.47089313,40.25349816,2493.40
-105.47093640,40.25349799,2495.27
-105.47093852,40.25349798,2494.58
-105.47094945,40.25349793,2495.55
-105.47095545,40.25349791,2495.94
-105.47095710,40.25349790,2495.04
-105.47095804,40.25349790,2495.15
-105.47096027,40.25349789,2498.39
-105.47096321,40.25349788,2498.32
-105.47096368,40.25349788,2498.42
-105.47096592,40.25349787,2497.46
-105.47097015,40.25349785,2501.51
-105.47099519,40.25349775,2497.49
-105.47105787,40.25349749,2504.59
-105.47106833,40.25349745,2493.38
-105.47107092,40.25349744,2493.43
-105.47107186,40.25349744,2507.08
-105.47109549,40.25349734,2506.73
-105.47116498,40.25349706,2495.22
-105.47122119,40.25349683,2503.07
-105.47122237,40.25349682,2501.58
-105.47123177,40.25349678,2504.01
-105.47127210,40.25349662,2495.03
-105.47128092,40.25349658,2495.04
-105.47129903,40.25349651,2505.98
-105.47130820,40.25349647,2501.74
-105.47134442,40.25349632,2495.10
-105.47138146,40.25349617,2495.13
-105.47139615,40.25349611,2495.01
-105.47141438,40.25349604,2501.74
-105.47142790,40.25349599,2495.21
-105.47143084,40.25349597,2503.95
-105.47150221,40.25349568,2494.90
-105.47150362,40.25349568,2503.19
-105.47150833,40.25349566,2502.94
-105.47151091,40.25349565,2504.07
-105.47157418,40.25349539,2497.17
-105.47158911,40.25349533,2498.98
-105.47160686,40.25349526,2499.47
-105.47163097,40.25349516,2507.35
-105.47163532,40.25349514,2498.47
-105.47164649,40.25349509,2505.34
-105.47166754,40.25349501,2499.44
-105.47171398,40.25349482,2500.72
-105.47177889,40.25349456,2517.02
-105.47178018,40.25349455,2502.56
-105.47182216,40.25349438,2503.54
-105.47183733,40.25349432,2517.20
-105.47194374,40.25349388,2506.43
-105.47196396,40.25349380,2510.94
-105.47198160,40.25349373,2512.38
-105.47198560,40.25349371,2513.09
-105.47203898,40.25349349,2513.82
-105.47207767,40.25349334,2509.96
-105.47217197,40.25349295,2513.98
-105.47220313,40.25349283,2517.68
-105.47220583,40.25349281,2514.69
-105.47222465,40.25349274,2523.15
-105.47223523,40.25349269,2525.20
-105.47233682,40.25349228,2517.40
-105.47234893,40.25349223,2517.87
-105.47241748,40.25349195,2528.04
-105.47251931,40.25349153,2534.62
-105.47256928,40.25349133,2535.82
-105.47259009,40.25349125,2525.89
-105.47265571,40.25349098,2526.79
-105.47266347,40.25349095,2527.98
-105.47266746,40.25349093,2538.95
-105.47267158,40.25349091,2539.50
-105.47269051,40.25349083,2528.43
-105.47272061,40.25349071,2541.23
-105.47278563,40.25349045,2530.79
-105.47280539,40.25349037,2531.63
-105.47282479,40.25349029,2544.15
-105.47284595,40.25349020,2542.09
-105.47289946,40.25348998,2534.18
-105.47306207,40.25348932,2543.24
-105.47308300,40.25348923,2534.85
-105.47311522,40.25348910,2544.17
-105.47314615,40.25348897,2539.90
-105.47316860,40.25348888,2542.94
-105.47323704,40.25348860,2543.36
-105.47324245,40.25348858,2542.56
-105.47334110,40.25348818,2536.06
-105.47339295,40.25348796,2543.18
-105.47345174,40.25348772,2541.64
-105.47351759,40.25348745,2537.88
-105.47355028,40.25348732,2542.43
-105.47368338,40.25348678,2537.39
-105.47369608,40.25348672,2539.50
-105.47369820,40.25348671,2539.45
-105.47370408,40.25348669,2532.15
-105.47374970,40.25348650,2532.44
-105.47379673,40.25348631,2532.13
-105.47381860,40.25348622,2531.67
-105.47387093,40.25348601,2531.59
-105.47391349,40.25348583,2534.75
-105.47392772,40.25348577,2536.72
-105.47395065,40.25348568,2536.14
-105.47396629,40.25348562,2536.28
-105.47401850,40.25348540,2534.96
-105.47404260,40.25348530,2531.90
-105.47407282,40.25348518,2532.41
-105.47408834,40.25348512,2532.74
-105.47412926,40.25348495,2536.69
-105.47416453,40.25348480,2548.10
-105.47418687,40.25348471,2535.34
-105.47421733,40.25348459,2539.24
-105.47423097,40.25348453,2537.40
-105.47424872,40.25348446,2538.50
-105.47439923,40.25348384,2542.84
-105.47448236,40.25348350,2545.45
-105.47452010,40.25348335,2551.65
-105.47461335,40.25348297,2548.49
-105.47471118,40.25348256,2553.42
-105.47491166,40.25348174,2550.46
-105.47493153,40.25348166,2551.39
-105.47516528,40.25348070,2554.39
-105.47520397,40.25348054,2558.15
-105.47522913,40.25348044,2564.12
-105.47533449,40.25348001,2568.01
-105.47557330,40.25347902,2565.30
-105.47557541,40.25347902,2563.70
-105.47558400,40.25347898,2563.92
     </coordinates>
    </LineString>
   </MultiGeometry>
  </Placemark>
 </Document>
</kml>
