<kml>
 <Document>
  <Style id="yellow">
   <LineStyle>
   <color>ff00ffff</color>
   <width>1</width>
   </LineStyle>
  </Style>
  <Style id="red">
   <LineStyle>
   <color>ffff0000</color>
   <width>2</width>
   </LineStyle>
  </Style>
  <Style id="green">
   <LineStyle>
   <color>ff00ff00</color>
   <width>1</width>
   </LineStyle>
  </Style>
  <Placemark>
  <styleUrl>#yellow</styleUrl>
   <MultiGeometry>
    <LineString>
     <coordinates>
-105.49911409,40.26238923,2927.70
-105.49927450,40.26238854,2937.31
-105.49928767,40.26238848,2937.56
-105.49932612,40.26238832,2931.19
-105.49933930,40.26238826,2926.35
-105.49937822,40.26238809,2932.62
-105.49938669,40.26238806,2940.75
-105.49943161,40.26238786,2929.79
-105.49944560,40.26238780,2928.26
-105.49944890,40.26238779,2943.21
-105.49955756,40.26238732,2932.41
-105.49962976,40.26238701,2936.89
-105.49963294,40.26238699,2950.07
-105.49970161,40.26238670,2940.05
-105.49971702,40.26238663,2952.84
-105.49984144,40.26238609,2943.80
-105.49984932,40.26238606,2956.34
-105.49989906,40.26238584,2943.79
-105.49990765,40.26238581,2944.13
-105.49999714,40.26238542,2948.10
-105.50004324,40.26238522,2955.18
-105.50004594,40.26238521,2951.94
-105.50008087,40.26238506,2952.75
-105.50014084,40.26238480,2955.12
-105.50023175,40.26238441,2966.73
-105.50023504,40.26238439,2964.51
-105.50025621,40.26238430,2961.59
-105.50044060,40.26238350,2987.06
-105.50045283,40.26238345,2976.21
-105.50045836,40.26238343,2989.81
-105.50049787,40.26238326,2967.24
-105.50050081,40.26238324,2969.88
-105.50052504,40.26238314,2970.62
-105.50054350,40.26238306,2971.13
-105.50054397,40.26238306,2969.81
-105.50060253,40.26238280,2973.65
-105.50060947,40.26238277,2977.53
-105.50065957,40.26238256,2985.11
-105.50068227,40.26238246,2978.53
-105.50076306,40.26238211,2983.42
-105.50080986,40.26238191,2981.60
-105.50082762,40.26238183,2993.41
-105.50082844,40.26238183,2990.43
-105.50084267,40.26238176,2983.11
-105.50084443,40.26238176,2992.05
-105.50085102,40.26238173,2990.77
-105.50085196,40.26238172,2986.18
-105.50087242,40.26238164,2984.12
-105.50094216,40.26238133,2986.95
-105.50101366,40.26238102,2992.23
-105.50102036,40.26238099,2997.30
-105.50108939,40.26238070,3001.24
-105.50135340,40.26237955,3009.49
-105.50137398,40.26237946,3016.78
-105.50140397,40.26237933,3011.70
-105.50142972,40.26237922,3016.91
-105.50145971,40.26237909,3014.52
-105.50148570,40.26237898,3019.15
-105.50150851,40.26237888,3016.67
-105.50155414,40.26237868,3019.42
-105.50180850,40.26237758,3037.62
-105.50183684,40.26237746,3038.95
-105.50183896,40.26237745,3039.90
-105.50185625,40.26237737,3032.93
-105.50189000,40.26237723,3033.05
-105.50190352,40.26237717,3039.66
-105.50191281,40.26237713,3043.55
-105.50194680,40.26237698,3042.35
-105.50195303,40.26237695,3039.64
-105.50198866,40.26237680,3038.33
-105.50203853,40.26237658,3049.22
-105.50207051,40.26237644,3039.14
-105.50235722,40.26237520,3048.94
-105.50242319,40.26237491,3055.61
-105.50248128,40.26237466,3053.27
-105.50249575,40.26237460,3058.17
-105.50252997,40.26237445,3063.79
-105.50258395,40.26237421,3056.41
-105.50261487,40.26237408,3057.41
-105.50268978,40.26237376,3059.69
-105.50270978,40.26237367,3068.57
-105.50280938,40.26237324,3063.20
-105.50283078,40.26237314,3063.97
-105.50287030,40.26237297,3064.92
-105.50289734,40.26237285,3074.81
-105.50291475,40.26237278,3075.20
-105.50304422,40.26237221,3069.62
-105.50305152,40.26237218,3082.47
-105.50309644,40.26237199,3075.78
-105.50312713,40.26237185,3071.24
-105.50319499,40.26237156,3085.63
-105.50321521,40.26237147,3080.86
-105.50322074,40.26237145,3080.18
-105.50323791,40.26237137,3074.21
-105.50325590,40.26237129,3074.81
-105.50332775,40.26237098,3085.90
-105.50334234,40.26237092,3078.01
-105.50353426,40.26237008,3094.79
-105.50354190,40.26237005,3095.03
-105.50356942,40.26236993,3085.62
-105.50369783,40.26236937,3091.14
-105.50373182,40.26236922,3096.25
-105.50381720,40.26236885,3095.60
-105.50398230,40.26236813,3113.68
-105.50398254,40.26236813,3113.74
-105.50398289,40.26236813,3108.64
-105.50399430,40.26236808,3111.64
-105.50400206,40.26236805,3110.51
-105.50403028,40.26236792,3108.75
-105.50404322,40.26236787,3104.36
-105.50408438,40.26236769,3108.47
-105.50409790,40.26236763,3116.25
-105.50410531,40.26236760,3115.84
-105.50417211,40.26236731,3115.54
-105.50417234,40.26236730,3113.37
-105.50427324,40.26236687,3109.82
-105.50429229,40.26236678,3110.65
-105.50430147,40.26236674,3111.86
-105.50432898,40.26236662,3119.42
-105.50434121,40.26236657,3125.68
-105.50439460,40.26236634,3113.77
-105.50440025,40.26236631,3113.98
-105.50442906,40.26236619,3114.77
-105.50446857,40.26236601,3116.11
-105.50449891,40.26236588,3117.16
-105.50456006,40.26236562,3119.13
-105.50464897,40.26236523,3122.62
-105.50475880,40.26236475,3137.34
-105.50476292,40.26236473,3132.07
-105.50476633,40.26236472,3137.19
-105.50477009,40.26236470,3133.82
-105.50479961,40.26236457,3129.22
-105.50484759,40.26236436,3134.82
-105.50494014,40.26236396,3145.22
-105.50494567,40.26236393,3145.72
-105.50499212,40.26236373,3151.04
-105.50500341,40.26236368,3151.73
-105.50501329,40.26236364,3152.83
-105.50507702,40.26236336,3159.23
-105.50508338,40.26236333,3158.40
-105.50510901,40.26236322,3157.05
-105.50527212,40.26236251,3146.66
-105.50533456,40.26236224,3138.99
-105.50555236,40.26236128,3128.27
-105.50562480,40.26236088,3117.10
-105.50563926,40.26236054,3116.74
-105.50568909,40.26235663,3114.74
-105.50569002,40.26233969,3117.77
-105.50568951,40.26226996,3114.26
-105.50568945,40.26226266,3110.54
-105.50568886,40.26218320,3106.84
-105.50568849,40.26213402,3107.14
-105.50568814,40.26208708,3109.16
-105.50568802,40.26207095,3109.69
-105.50568759,40.26201275,3113.82
-105.50568718,40.26195762,3112.33
-105.50568587,40.26178167,3102.39
-105.50568585,40.26177852,3102.22
-105.50568551,40.26173374,3094.60
-105.50568534,40.26171050,3093.70
-105.50568483,40.26164203,3092.32
-105.50568285,40.26137653,3055.49
-105.50568235,40.26130906,3050.55
-105.50568217,40.26128437,3048.11
-105.50568147,40.26119059,3036.54
-105.50568122,40.26115698,3033.14
-105.50568065,40.26108095,3024.34
-105.50568042,40.26104996,3017.18
-105.50568036,40.26104158,3015.55
-105.50567923,40.26089023,3004.16
-105.50567923,40.26089005,3004.15
-105.50567903,40.26086329,3004.71
-105.50567902,40.26086104,3004.01
-105.50567871,40.26081941,3002.27
-105.50567845,40.26078572,2997.69
-105.50567819,40.26075014,2994.33
-105.50567806,40.26073257,2992.19
-105.50567747,40.26065338,2989.97
-105.50567743,40.26064806,2989.99
-105.50567732,40.26063329,2990.13
-105.50567732,40.26063311,2984.33
-105.50567729,40.26062869,2986.13
-105.50567724,40.26062275,2987.89
-105.50567716,40.26061203,2985.32
-105.50567666,40.26054446,2980.51
-105.50567634,40.26050131,2981.99
-105.50567629,40.26049518,2979.77
-105.50567612,40.26047230,2983.39
-105.50567596,40.26045085,2972.80
-105.50567590,40.26044266,2984.73
-105.50567579,40.26042824,2984.12
-105.50567579,40.26042725,2982.39
-105.50567536,40.26037067,2969.15
-105.50567522,40.26035149,2968.84
-105.50567475,40.26028860,2972.68
-105.50567471,40.26028320,2972.94
-105.50567392,40.26017725,2957.95
-105.50567370,40.26014653,2959.47
-105.50567351,40.26012202,2956.48
-105.50567347,40.26011572,2956.47
-105.50567335,40.26010049,2950.62
-105.50567312,40.26006914,2947.49
-105.50567302,40.26005536,2952.24
-105.50567273,40.26001707,2950.60
-105.50567265,40.26000554,2945.78
-105.50567204,40.25992365,2945.66
-105.50567200,40.25991896,2944.38
-105.50567191,40.25990680,2944.31
-105.50567190,40.25990590,2944.35
-105.50567119,40.25981058,2937.88
-105.50567118,40.25980905,2934.66
-105.50567113,40.25980130,2928.38
-105.50567056,40.25972554,2932.31
-105.50567045,40.25971058,2923.95
-105.50567037,40.25969932,2930.00
-105.50567028,40.25968806,2930.62
-105.50566989,40.25963536,2929.35
-105.50566988,40.25963437,2919.90
-105.50566988,40.25963373,2931.11
-105.50566962,40.25959923,2917.28
-105.50566951,40.25958391,2922.50
-105.50566946,40.25957752,2919.06
-105.50566921,40.25954437,2924.06
-105.50566889,40.25950148,2914.64
-105.50566886,40.25949653,2921.28
-105.50566859,40.25946058,2910.11
-105.50566842,40.25943761,2915.49
-105.50566840,40.25943509,2908.83
-105.50566769,40.25933977,2904.23
-105.50566756,40.25932238,2909.88
-105.50566711,40.25926175,2907.09
-105.50566687,40.25922950,2905.98
-105.50566668,40.25920445,2897.56
-105.50566643,40.25917121,2906.29
-105.50566609,40.25912544,2905.13
-105.50566607,40.25912166,2902.19
-105.50566592,40.25910220,2892.71
-105.50566579,40.25908517,2898.99
-105.50566530,40.25901950,2894.06
-105.50566519,40.25900409,2896.93
-105.50566515,40.25899914,2893.30
-105.50566515,40.25899851,2895.01
-105.50566510,40.25899193,2896.09
-105.50566468,40.25893499,2890.47
-105.50566462,40.25892806,2890.08
-105.50566383,40.25882076,2883.80
-105.50566359,40.25878905,2887.04
-105.50566347,40.25877346,2888.58
-105.50566344,40.25876860,2886.67
-105.50566314,40.25872923,2878.49
-105.50566297,40.25870571,2873.89
-105.50566259,40.25865445,2878.20
-105.50566231,40.25861688,2874.05
-105.50566174,40.25854031,2875.46
-105.50566158,40.25851859,2868.35
-105.50566145,40.25850229,2871.96
-105.50566128,40.25847823,2862.97
-105.50566124,40.25847382,2865.19
-105.50566111,40.25845616,2860.94
-105.50566109,40.25845310,2860.67
-105.50566099,40.25844031,2868.32
-105.50566077,40.25841067,2862.02
-105.50566071,40.25840256,2859.07
-105.50566070,40.25840157,2862.24
-105.50566052,40.25837670,2857.10
-105.50566037,40.25835670,2855.88
-105.50566026,40.25834121,2856.79
-105.50565969,40.25826508,2848.77
-105.50565968,40.25826337,2848.64
-105.50565936,40.25822076,2845.45
-105.50565885,40.25815211,2841.18
-105.50565868,40.25812994,2848.06
-105.50565858,40.25811580,2845.22
-105.50565844,40.25809679,2842.88
-105.50565843,40.25809634,2844.82
-105.50565842,40.25809409,2845.78
-105.50565839,40.25809048,2843.17
-105.50565818,40.25806256,2845.92
-105.50565792,40.25802751,2833.10
-105.50565779,40.25801057,2834.36
-105.50565741,40.25795859,2829.73
-105.50565714,40.25792337,2830.04
-105.50565705,40.25791120,2832.43
-105.50565688,40.25788850,2826.53
-105.50565674,40.25786850,2831.48
-105.50565673,40.25786724,2825.61
-105.50565656,40.25784544,2824.61
-105.50565650,40.25783670,2832.65
-105.50565640,40.25782328,2830.76
-105.50565615,40.25779012,2822.33
-105.50565609,40.25778120,2833.70
-105.50565565,40.25772247,2830.39
-105.50565547,40.25769859,2818.32
-105.50565541,40.25769048,2825.11
-105.50565523,40.25766661,2816.86
-105.50565463,40.25758499,2813.60
-105.50565439,40.25755328,2812.24
-105.50565407,40.25751066,2821.22
-105.50565354,40.25743904,2807.94
-105.50565339,40.25741886,2806.54
-105.50565284,40.25734472,2813.58
-105.50565281,40.25734057,2803.41
-105.50565267,40.25732219,2813.15
-105.50565239,40.25728526,2801.68
-105.50565107,40.25710706,2795.38
-105.50565071,40.25705886,2793.58
-105.50565054,40.25703607,2802.04
-105.50565031,40.25700589,2800.26
-105.50565011,40.25697823,2799.93
-105.50565000,40.25696354,2789.71
-105.50564792,40.25668426,2776.62
-105.50564688,40.25654390,2788.26
-105.50564662,40.25651021,2777.52
-105.50564627,40.25646192,2776.90
-105.50564617,40.25644913,2777.92
-105.50564614,40.25644480,2772.84
-105.50564585,40.25640597,2766.08
-105.50564532,40.25633480,2763.79
-105.50564490,40.25627795,2761.76
-105.50564485,40.25627228,2770.71
-105.50564477,40.25626120,2770.25
-105.50564375,40.25612336,2761.40
-105.50564367,40.25611354,2763.68
-105.50564293,40.25601318,2752.95
-105.50564233,40.25593264,2757.53
-105.50564215,40.25590903,2750.38
-105.50564199,40.25588813,2749.84
-105.50564182,40.25586408,2758.99
-105.50564167,40.25584480,2755.34
-105.50563893,40.25547624,2735.04
-105.50563885,40.25546570,2735.97
-105.50563878,40.25545651,2739.52
-105.50563843,40.25540957,2743.04
-105.50563843,40.25540912,2733.36
-105.50563837,40.25540065,2733.24
-105.50563743,40.25527507,2730.22
-105.50563711,40.25523200,2728.52
-105.50563708,40.25522795,2740.61
-105.50563648,40.25514696,2725.94
-105.50563408,40.25482443,2715.58
-105.50563331,40.25472083,2712.42
-105.50563315,40.25470047,2711.79
-105.50563304,40.25468569,2711.31
-105.50563256,40.25462047,2709.39
-105.50563046,40.25433912,2702.46
-105.50562988,40.25426119,2706.30
-105.50562984,40.25425497,2709.58
-105.50562921,40.25417074,2699.41
-105.50562825,40.25404119,2696.98
-105.50562819,40.25403344,2696.85
-105.50562771,40.25396848,2695.81
-105.50562754,40.25394677,2697.37
-105.50562739,40.25392596,2694.94
-105.50562694,40.25386560,2693.70
-105.50562687,40.25385605,2698.02
-105.50562662,40.25382317,2698.73
-105.50562626,40.25377407,2705.38
-105.50562581,40.25371416,2702.40
-105.50562555,40.25367839,2690.46
-105.50562553,40.25367641,2690.39
-105.50562546,40.25366623,2691.11
-105.50562434,40.25351686,2698.18
-105.50562399,40.25346938,2692.29
-105.50562372,40.25343280,2686.19
-105.50562367,40.25342632,2686.08
-105.50562339,40.25338866,2685.39
-105.50562254,40.25335353,2684.86
-105.50560924,40.25335196,2684.89
-105.50557879,40.25335192,2692.67
-105.50550741,40.25335223,2691.96
-105.50549930,40.25335226,2689.52
-105.50548131,40.25335234,2688.82
-105.50541594,40.25335263,2686.50
-105.50541382,40.25335264,2686.53
-105.50523168,40.25335343,2688.24
-105.50522216,40.25335347,2693.69
-105.50521804,40.25335349,2696.04
-105.50519641,40.25335359,2694.08
-105.50507506,40.25335412,2695.96
-105.50495913,40.25335462,2703.22
-105.50478569,40.25335538,2701.45
-105.50472549,40.25335564,2692.99
-105.50465141,40.25335596,2693.97
-105.50461779,40.25335611,2699.32
-105.50460897,40.25335615,2705.34
-105.50453172,40.25335649,2702.54
-105.50452172,40.25335653,2703.08
-105.50443036,40.25335693,2706.23
-105.50440743,40.25335703,2710.77
-105.50439614,40.25335708,2708.18
-105.50437415,40.25335717,2706.39
-105.50417979,40.25335802,2695.77
-105.50416603,40.25335808,2701.47
-105.50415392,40.25335813,2697.04
-105.50413887,40.25335820,2696.45
-105.50403281,40.25335866,2697.18
-105.50402294,40.25335870,2702.64
-105.50400730,40.25335877,2697.66
-105.50397073,40.25335893,2699.58
-105.50379471,40.25335970,2697.48
-105.50369994,40.25336011,2697.70
-105.50360517,40.25336052,2698.00
-105.50357295,40.25336066,2698.24
-105.50355508,40.25336074,2698.32
-105.50346571,40.25336113,2700.64
-105.50343291,40.25336127,2701.46
-105.50324995,40.25336207,2699.84
-105.50312284,40.25336262,2700.25
-105.50310321,40.25336271,2700.24
-105.50285381,40.25336379,2701.37
-105.50284241,40.25336384,2701.38
-105.50260701,40.25336486,2702.98
-105.50241935,40.25336568,2704.56
-105.50229812,40.25336620,2705.52
-105.50225779,40.25336638,2706.45
-105.50216501,40.25336678,2706.84
-105.50211798,40.25336698,2717.94
-105.50211492,40.25336700,2719.83
-105.50211163,40.25336701,2721.83
-105.50209976,40.25336706,2721.58
-105.50196077,40.25336767,2719.31
-105.50177805,40.25336846,2714.42
-105.50177688,40.25336846,2712.24
-105.50149350,40.25336969,2716.07
-105.50148797,40.25336972,2716.19
-105.50134652,40.25337033,2718.52
-105.50120895,40.25337093,2720.38
-105.50112500,40.25337129,2731.60
-105.50109983,40.25337140,2726.98
-105.50100753,40.25337180,2723.44
-105.50094180,40.25337208,2724.74
-105.50089583,40.25337228,2725.41
-105.50068136,40.25337321,2728.76
-105.50066372,40.25337329,2729.17
-105.50064561,40.25337336,2737.83
-105.50062762,40.25337344,2740.41
-105.50058365,40.25337363,2739.40
-105.50058200,40.25337364,2737.08
-105.50054673,40.25337379,2730.89
-105.50054214,40.25337381,2730.88
-105.50048182,40.25337407,2735.29
-105.50046195,40.25337416,2740.59
-105.50044749,40.25337422,2735.93
-105.50044208,40.25337424,2733.97
-105.50043761,40.25337426,2732.50
-105.50041762,40.25337435,2732.68
-105.50040210,40.25337442,2738.89
-105.50040022,40.25337443,2735.81
-105.50040010,40.25337443,2735.72
-105.50037999,40.25337451,2733.34
-105.50037776,40.25337452,2734.47
-105.50036906,40.25337456,2735.00
-105.50036694,40.25337457,2734.19
-105.50036071,40.25337460,2734.58
-105.50032767,40.25337474,2733.84
-105.50029357,40.25337489,2734.26
-105.50027793,40.25337495,2734.41
-105.50027429,40.25337497,2737.55
-105.50027111,40.25337498,2734.69
-105.50026770,40.25337500,2737.97
-105.50025289,40.25337506,2737.55
-105.50024795,40.25337508,2737.41
-105.50021526,40.25337522,2735.05
-105.50021126,40.25337524,2740.00
-105.50019245,40.25337532,2740.34
-105.50019151,40.25337533,2735.38
-105.50018645,40.25337535,2740.70
-105.50018610,40.25337535,2740.60
-105.50018210,40.25337537,2737.43
-105.50017905,40.25337538,2739.49
-105.50015647,40.25337548,2735.71
-105.50014248,40.25337554,2735.96
-105.50011920,40.25337564,2736.10
-105.50009027,40.25337576,2741.12
-105.50006969,40.25337585,2737.16
-105.49999115,40.25337619,2741.35
-105.49995964,40.25337633,2740.79
-105.49995223,40.25337636,2738.43
-105.49975622,40.25337721,2741.40
-105.49972141,40.25337736,2742.04
-105.49969743,40.25337746,2742.42
-105.49968144,40.25337753,2742.93
-105.49962770,40.25337776,2744.06
-105.49962535,40.25337777,2744.08
-105.49962112,40.25337779,2747.88
-105.49961665,40.25337781,2744.16
-105.49959348,40.25337791,2744.52
-105.49959219,40.25337792,2744.58
-105.49957514,40.25337799,2748.09
-105.49956209,40.25337805,2745.27
-105.49953810,40.25337815,2745.74
-105.49951882,40.25337823,2746.02
-105.49951447,40.25337825,2746.18
-105.49950236,40.25337830,2746.28
-105.49947167,40.25337844,2746.77
-105.49938866,40.25337879,2750.87
-105.49938630,40.25337880,2747.87
-105.49936044,40.25337892,2751.23
-105.49935914,40.25337892,2751.14
-105.49934691,40.25337897,2752.15
-105.49931905,40.25337910,2748.93
-105.49926849,40.25337931,2749.92
-105.49922674,40.25337949,2750.53
-105.49918289,40.25337968,2751.78
-105.49913914,40.25337987,2758.62
-105.49910752,40.25338001,2752.17
-105.49901298,40.25338042,2753.35
-105.49900169,40.25338046,2753.50
-105.49896254,40.25338063,2756.62
-105.49896113,40.25338064,2756.09
-105.49895736,40.25338066,2760.55
-105.49888540,40.25338097,2755.76
-105.49888058,40.25338099,2755.86
-105.49880980,40.25338129,2757.25
-105.49877723,40.25338143,2766.93
-105.49875712,40.25338152,2763.82
-105.49866199,40.25338193,2773.96
-105.49864741,40.25338199,2770.56
-105.49863072,40.25338206,2760.47
-105.49860038,40.25338219,2760.81
-105.49845999,40.25338280,2768.97
-105.49836839,40.25338319,2766.25
-105.49834911,40.25338328,2771.14
-105.49831336,40.25338343,2774.12
-105.49817050,40.25338405,2777.59
-105.49815286,40.25338412,2773.00
-105.49814992,40.25338413,2774.83
-105.49806409,40.25338450,2782.19
-105.49806326,40.25338451,2783.40
-105.49799354,40.25338481,2778.39
-105.49789500,40.25338523,2789.27
-105.49782187,40.25338555,2788.96
-105.49779541,40.25338566,2791.48
-105.49769535,40.25338609,2791.27
-105.49768982,40.25338611,2791.29
-105.49763374,40.25338635,2791.88
-105.49756060,40.25338667,2792.82
-105.49745219,40.25338713,2795.19
-105.49744772,40.25338715,2799.00
-105.49724254,40.25338804,2800.01
-105.49716552,40.25338837,2800.86
-105.49705417,40.25338885,2802.39
-105.49703712,40.25338892,2801.34
-105.49697363,40.25338919,2805.38
-105.49686921,40.25338964,2799.82
-105.49686239,40.25338967,2799.71
-105.49679173,40.25338997,2799.20
-105.49678937,40.25338998,2799.16
-105.49669778,40.25339038,2807.77
-105.49669625,40.25339038,2798.42
-105.49657831,40.25339089,2797.23
-105.49649659,40.25339124,2801.31
-105.49646073,40.25339139,2793.81
-105.49630270,40.25339207,2799.99
-105.49629106,40.25339212,2804.62
-105.49628953,40.25339213,2792.66
-105.49628777,40.25339213,2790.56
-105.49625390,40.25339228,2803.24
-105.49625237,40.25339229,2802.34
-105.49620052,40.25339251,2789.52
-105.49616971,40.25339264,2801.27
-105.49616818,40.25339265,2789.12
-105.49614196,40.25339276,2798.38
-105.49613773,40.25339278,2798.80
-105.49609058,40.25339298,2788.43
-105.49607283,40.25339306,2788.32
-105.49605366,40.25339314,2795.64
-105.49596242,40.25339353,2796.29
-105.49594337,40.25339361,2787.49
-105.49592338,40.25339370,2790.41
-105.49589504,40.25339382,2786.81
-105.49584048,40.25339405,2797.59
-105.49584013,40.25339405,2786.31
-105.49577146,40.25339435,2787.26
-105.49574559,40.25339446,2793.49
-105.49574171,40.25339447,2793.47
-105.49573242,40.25339451,2785.54
-105.49569080,40.25339469,2785.42
-105.49564494,40.25339489,2792.51
-105.49563424,40.25339494,2794.39
-105.49563271,40.25339494,2793.40
-105.49558921,40.25339513,2793.26
-105.49552889,40.25339539,2794.93
-105.49549608,40.25339553,2790.03
-105.49546704,40.25339565,2789.70
-105.49546269,40.25339567,2785.08
-105.49546222,40.25339567,2789.15
-105.49546045,40.25339568,2793.30
-105.49545975,40.25339568,2792.06
-105.49544564,40.25339574,2790.83
-105.49539837,40.25339595,2790.25
-105.49539696,40.25339595,2789.07
-105.49539543,40.25339596,2787.84
-105.49534687,40.25339617,2792.13
-105.49534663,40.25339617,2784.83
-105.49534146,40.25339619,2791.25
-105.49533817,40.25339620,2789.52
-105.49532959,40.25339624,2784.82
-105.49531959,40.25339628,2784.79
-105.49531007,40.25339632,2784.77
-105.49529960,40.25339637,2784.76
-105.49529878,40.25339637,2784.76
-105.49529643,40.25339638,2784.71
-105.49529337,40.25339639,2784.74
-105.49527162,40.25339649,2784.74
-105.49522694,40.25339668,2790.95
-105.49521259,40.25339674,2791.50
-105.49520448,40.25339678,2794.18
-105.49519013,40.25339684,2792.00
-105.49518884,40.25339684,2786.26
-105.49518790,40.25339685,2790.79
-105.49518343,40.25339687,2784.65
-105.49513075,40.25339709,2790.69
-105.49511135,40.25339717,2787.77
-105.49506173,40.25339739,2787.01
-105.49506079,40.25339739,2788.32
-105.49504986,40.25339744,2789.47
-105.49498142,40.25339773,2789.60
-105.49496555,40.25339780,2788.83
-105.49494074,40.25339790,2786.62
-105.49492745,40.25339796,2787.13
-105.49486725,40.25339822,2789.39
-105.49486360,40.25339823,2789.22
-105.49479788,40.25339851,2781.93
-105.49479353,40.25339853,2784.63
-105.49477577,40.25339861,2783.34
-105.49477401,40.25339862,2784.46
-105.49477248,40.25339862,2785.47
-105.49464784,40.25339916,2772.24
-105.49461104,40.25339931,2784.23
-105.49460986,40.25339932,2785.07
-105.49459211,40.25339939,2770.37
-105.49457059,40.25339949,2771.72
-105.49456530,40.25339951,2771.65
-105.49452932,40.25339966,2773.90
-105.49446441,40.25339994,2773.45
-105.49439504,40.25340024,2777.07
-105.49431508,40.25340058,2774.29
-105.49428157,40.25340072,2766.10
-105.49424053,40.25340090,2761.21
-105.49416846,40.25340120,2764.56
-105.49414470,40.25340131,2765.62
-105.49401207,40.25340187,2754.47
-105.49399196,40.25340196,2753.46
-105.49397009,40.25340205,2750.85
-105.49388367,40.25340242,2757.65
-105.49387391,40.25340264,2747.77
-105.49386782,40.25340582,2747.61
-105.49386514,40.25340917,2747.56
-105.49386521,40.25343421,2758.32
-105.49386531,40.25344926,2747.95
-105.49386600,40.25354286,2748.37
-105.49386661,40.25362800,2749.10
-105.49386674,40.25364520,2749.46
-105.49386686,40.25366205,2749.70
-105.49386799,40.25381773,2760.47
-105.49386867,40.25391061,2757.27
-105.49386868,40.25391241,2757.27
-105.49386875,40.25392160,2757.34
-105.49386890,40.25394223,2757.39
-105.49387012,40.25411061,2755.14
-105.49387027,40.25413088,2752.01
-105.49387075,40.25419647,2759.79
-105.49387076,40.25419800,2752.33
-105.49387083,40.25420791,2752.29
-105.49387086,40.25421160,2756.87
-105.49387109,40.25424359,2756.17
-105.49387110,40.25424503,2756.23
-105.49387112,40.25424746,2754.95
-105.49387116,40.25425395,2758.58
-105.49387117,40.25425485,2758.55
-105.49387125,40.25426584,2757.67
-105.49387131,40.25427386,2758.25
-105.49387132,40.25427584,2759.51
-105.49387208,40.25437944,2760.54
-105.49387246,40.25443224,2758.17
-105.49387282,40.25448233,2750.20
-105.49387297,40.25450161,2754.90
-105.49387369,40.25460179,2757.86
-105.49387377,40.25461251,2748.49
-105.49387383,40.25462026,2748.40
-105.49387473,40.25474485,2752.00
-105.49387478,40.25475152,2746.39
-105.49387478,40.25475179,2747.87
-105.49387482,40.25475710,2750.43
-105.49387486,40.25476170,2750.28
-105.49387487,40.25476350,2750.60
-105.49387496,40.25477539,2753.45
-105.49387499,40.25477981,2746.01
-105.49387520,40.25480855,2745.63
-105.49387533,40.25482647,2745.31
-105.49387549,40.25484864,2745.14
-105.49387550,40.25484972,2745.06
-105.49387559,40.25486296,2744.90
-105.49387568,40.25487575,2744.72
-105.49387571,40.25487972,2747.96
-105.49387574,40.25488332,2747.35
-105.49387641,40.25497602,2749.01
-105.49387649,40.25498638,2758.25
-105.49387649,40.25498665,2755.50
-105.49387649,40.25498692,2755.24
-105.49387650,40.25498810,2757.96
-105.49387651,40.25498864,2755.86
-105.49387651,40.25498945,2754.78
-105.49387652,40.25499017,2755.93
-105.49387670,40.25501566,2745.70
-105.49387673,40.25501981,2755.81
-105.49387691,40.25504377,2748.43
-105.49387694,40.25504810,2750.61
-105.49387721,40.25508548,2756.50
-105.49387741,40.25511260,2752.71
-105.49387761,40.25514026,2749.05
-105.49387763,40.25514314,2748.84
-105.49387778,40.25516332,2750.79
-105.49387783,40.25517035,2743.49
-105.49387784,40.25517197,2743.55
-105.49387829,40.25523440,2743.98
-105.49387891,40.25531900,2752.79
-105.49387950,40.25540062,2755.33
-105.49387958,40.25541107,2742.90
-105.49388007,40.25547900,2739.96
-105.49388067,40.25556080,2757.59
-105.49388070,40.25556621,2758.25
-105.49388096,40.25560161,2747.10
-105.49388099,40.25560594,2741.80
-105.49388100,40.25560720,2746.54
-105.49388102,40.25561008,2746.59
-105.49388104,40.25561206,2742.13
-105.49388143,40.25566639,2743.88
-105.49388178,40.25571387,2743.99
-105.49388190,40.25573008,2745.94
-105.49388252,40.25581558,2759.53
-105.49388384,40.25599729,2752.16
-105.49388402,40.25602207,2751.08
-105.49388403,40.25602333,2738.52
-105.49388406,40.25602810,2753.41
-105.49388412,40.25603657,2752.89
-105.49388415,40.25604054,2749.51
-105.49388416,40.25604171,2746.50
-105.49388424,40.25605261,2747.89
-105.49388449,40.25608657,2748.37
-105.49388483,40.25613315,2739.02
-105.49388517,40.25618018,2744.00
-105.49388536,40.25620630,2746.08
-105.49388561,40.25624072,2743.98
-105.49388595,40.25628756,2740.76
-105.49388632,40.25633865,2745.91
-105.49388652,40.25636612,2748.24
-105.49388667,40.25638639,2747.57
-105.49388684,40.25640991,2745.51
-105.49388724,40.25646549,2749.96
-105.49388865,40.25665856,2748.94
-105.49388963,40.25679315,2741.68
-105.49388977,40.25681243,2749.93
-105.49389012,40.25686171,2752.16
-105.49389035,40.25689306,2741.54
-105.49389084,40.25696081,2742.74
-105.49389089,40.25696739,2741.36
-105.49389129,40.25702144,2750.88
-105.49389160,40.25706451,2744.94
-105.49389200,40.25711991,2745.23
-105.49389262,40.25720460,2741.15
-105.49389314,40.25727694,2741.70
-105.49389400,40.25739442,2746.92
-105.49389410,40.25740820,2749.78
-105.49389415,40.25741478,2746.90
-105.49389502,40.25753541,2745.06
-105.49389519,40.25755883,2746.98
-105.49389589,40.25765424,2747.61
-105.49389638,40.25772235,2749.60
-105.49389668,40.25776280,2748.93
-105.49389760,40.25789019,2751.15
-105.49389798,40.25794280,2754.54
-105.49389896,40.25807730,2753.10
-105.49389973,40.25818334,2754.23
-105.49389993,40.25820983,2754.48
-105.49390050,40.25828893,2755.43
-105.49390096,40.25835235,2760.31
-105.49390110,40.25837082,2759.62
-105.49390185,40.25847488,2757.87
-105.49390245,40.25855650,2759.09
-105.49390279,40.25860425,2762.12
-105.49390316,40.25865506,2763.47
-105.49390318,40.25865785,2761.07
-105.49390343,40.25869199,2762.29
-105.49390404,40.25877497,2766.00
-105.49390456,40.25884650,2763.43
-105.49390473,40.25887046,2768.97
-105.49390484,40.25888560,2764.23
-105.49390489,40.25889317,2766.17
-105.49390547,40.25897236,2771.25
-105.49390548,40.25897362,2767.92
-105.49390588,40.25902812,2770.02
-105.49390621,40.25907452,2762.46
-105.49390637,40.25909551,2762.69
-105.49390640,40.25910073,2763.08
-105.49390651,40.25911578,2763.06
-105.49390667,40.25913713,2767.01
-105.49390677,40.25915073,2762.78
-105.49390718,40.25920731,2771.72
-105.49390722,40.25921308,2762.00
-105.49390735,40.25923037,2761.23
-105.49390745,40.25924398,2767.85
-105.49390786,40.25930119,2774.01
-105.49390789,40.25930515,2772.40
-105.49390800,40.25932010,2777.69
-105.49390898,40.25945533,2765.42
-105.49390929,40.25949803,2773.42
-105.49390957,40.25953614,2764.84
-105.49390967,40.25954975,2770.67
-105.49390969,40.25955272,2768.70
-105.49391008,40.25960668,2765.62
-105.49391054,40.25967011,2766.55
-105.49391056,40.25967155,2770.93
-105.49391183,40.25984650,2775.56
-105.49391206,40.25987858,2779.24
-105.49391281,40.25998200,2782.80
-105.49391312,40.26002398,2783.94
-105.49391360,40.26009047,2786.07
-105.49391361,40.26009119,2780.57
-105.49391376,40.26011227,2781.34
-105.49391387,40.26012777,2783.45
-105.49391419,40.26017101,2788.75
-105.49391434,40.26019272,2788.85
-105.49391482,40.26025858,2787.61
-105.49391495,40.26027579,2788.26
-105.49391535,40.26033110,2798.23
-105.49391579,40.26039092,2796.15
-105.49391643,40.26047885,2798.32
-105.49391649,40.26048786,2799.13
-105.49391671,40.26051840,2800.92
-105.49391685,40.26053777,2804.02
-105.49391733,40.26060282,2805.64
-105.49391741,40.26061354,2809.80
-105.49391746,40.26062155,2806.15
-105.49391767,40.26064957,2808.32
-105.49391803,40.26069903,2809.90
-105.49391818,40.26072002,2811.04
-105.49391844,40.26075597,2812.96
-105.49391857,40.26077372,2817.10
-105.49391877,40.26080183,2816.02
-105.49391913,40.26085020,2825.96
-105.49391930,40.26087381,2820.48
-105.49391942,40.26089093,2821.38
-105.49392024,40.26100309,2826.54
-105.49392066,40.26106111,2829.05
-105.49392082,40.26108363,2837.41
-105.49392102,40.26111057,2835.80
-105.49392158,40.26118786,2834.46
-105.49392178,40.26121462,2836.43
-105.49392196,40.26124030,2844.60
-105.49392199,40.26124399,2838.70
-105.49392219,40.26127210,2845.64
-105.49392291,40.26137021,2844.51
-105.49392380,40.26149264,2851.59
-105.49392437,40.26157102,2860.27
-105.49392464,40.26160823,2856.62
-105.49392467,40.26161246,2861.71
-105.49392490,40.26164381,2858.36
-105.49392490,40.26164390,2858.34
-105.49392494,40.26164967,2859.10
-105.49392501,40.26165994,2861.69
-105.49392504,40.26166327,2858.87
-105.49392505,40.26166426,2858.94
-105.49392507,40.26166769,2862.61
-105.49392512,40.26167507,2859.22
-105.49392528,40.26169679,2861.81
-105.49392547,40.26172210,2863.73
-105.49392555,40.26173381,2861.76
-105.49392556,40.26173489,2869.15
-105.49392562,40.26174300,2862.63
-105.49392590,40.26178192,2867.36
-105.49392602,40.26179778,2866.67
-105.49392693,40.26192264,2872.56
-105.49392766,40.26202336,2877.42
-105.49392775,40.26203544,2878.14
-105.49392823,40.26210183,2879.51
-105.49392874,40.26217201,2880.89
-105.49392900,40.26220823,2881.63
-105.49392934,40.26225490,2890.00
-105.49392941,40.26226409,2888.77
-105.49392992,40.26233382,2889.67
-105.49393003,40.26235003,2889.39
-105.49393006,40.26235310,2885.12
-105.49393006,40.26235337,2887.24
-105.49393054,40.26240337,2886.26
-105.49393153,40.26240985,2886.45
-105.49393401,40.26241128,2888.03
-105.49394447,40.26241132,2891.62
-105.49397870,40.26241127,2892.55
-105.49398458,40.26241124,2892.74
-105.49444227,40.26240929,2892.73
-105.49454587,40.26240885,2899.00
-105.49454905,40.26240883,2899.08
-105.49468417,40.26240825,2893.04
-105.49469252,40.26240822,2892.37
-105.49483093,40.26240763,2887.35
-105.49484340,40.26240757,2880.59
-105.49493912,40.26240716,2874.61
-105.49494206,40.26240715,2874.73
-105.49503767,40.26240674,2871.84
-105.49503884,40.26240674,2877.13
-105.49504202,40.26240672,2877.23
-105.49507330,40.26240659,2871.14
-105.49507789,40.26240657,2871.22
-105.49537141,40.26240531,2876.06
-105.49541528,40.26240513,2865.59
-105.49546784,40.26240490,2865.07
-105.49547184,40.26240488,2865.04
-105.49547619,40.26240487,2865.06
-105.49548442,40.26240483,2871.12
-105.49554475,40.26240457,2872.63
-105.49554781,40.26240456,2872.78
-105.49559838,40.26240434,2868.82
-105.49571680,40.26240384,2869.43
-105.49581441,40.26240342,2867.38
-105.49585345,40.26240325,2868.32
-105.49592836,40.26240293,2863.36
-105.49593271,40.26240291,2863.36
-105.49593671,40.26240289,2863.39
-105.49594118,40.26240287,2863.51
-105.49598680,40.26240268,2867.63
-105.49604619,40.26240242,2863.03
-105.49609017,40.26240224,2870.33
-105.49618919,40.26240181,2862.86
-105.49627845,40.26240143,2864.32
-105.49628104,40.26240142,2863.77
-105.49631114,40.26240129,2862.98
-105.49633913,40.26240117,2862.34
-105.49634301,40.26240115,2862.37
-105.49634724,40.26240113,2862.50
-105.49637994,40.26240099,2863.52
-105.49640157,40.26240090,2862.53
-105.49684504,40.26239900,2863.73
-105.49684892,40.26239898,2863.77
-105.49685292,40.26239896,2863.83
-105.49686103,40.26239893,2863.99
-105.49703437,40.26239818,2869.97
-105.49704978,40.26239812,2870.65
-105.49705318,40.26239810,2863.45
-105.49710563,40.26239788,2871.41
-105.49712022,40.26239782,2873.23
-105.49712445,40.26239780,2875.15
-105.49723511,40.26239732,2872.46
-105.49729803,40.26239705,2879.27
-105.49733989,40.26239687,2870.64
-105.49745267,40.26239639,2873.21
-105.49751276,40.26239613,2877.08
-105.49753957,40.26239601,2875.22
-105.49754345,40.26239600,2875.29
-105.49754733,40.26239598,2875.55
-105.49755121,40.26239596,2875.72
-105.49755474,40.26239595,2875.90
-105.49756286,40.26239591,2876.12
-105.49756697,40.26239589,2876.18
-105.49757073,40.26239588,2876.25
-105.49757156,40.26239588,2876.27
-105.49757438,40.26239586,2876.32
-105.49759343,40.26239578,2876.99
-105.49774772,40.26239512,2879.30
-105.49807453,40.26239371,2894.07
-105.49809205,40.26239364,2894.96
-105.49817343,40.26239329,2897.69
-105.49846225,40.26239204,2907.90
-105.49858761,40.26239150,2902.87
-105.49876530,40.26239074,2905.49
-105.49876894,40.26239072,2905.59
-105.49877259,40.26239071,2905.72
-105.49877635,40.26239069,2905.87
-105.49878012,40.26239067,2906.02
-105.49878400,40.26239066,2906.06
-105.49878752,40.26239064,2906.19
-105.49879117,40.26239063,2906.30
-105.49879470,40.26239061,2906.40
-105.49879823,40.26239059,2906.47
-105.49880211,40.26239058,2906.56
-105.49880575,40.26239056,2906.69
-105.49880940,40.26239055,2906.88
-105.49881304,40.26239053,2906.95
-105.49882398,40.26239048,2907.34
-105.49882715,40.26239047,2907.63
-105.49883092,40.26239045,2907.72
-105.49883456,40.26239044,2907.90
-105.49884915,40.26239037,2908.28
-105.49884997,40.26239037,2910.20
-105.49885256,40.26239036,2908.47
-105.49886008,40.26239033,2908.68
-105.49886290,40.26239032,2909.09
-105.49886702,40.26239030,2908.99
-105.49887055,40.26239028,2909.09
-105.49887396,40.26239027,2909.39
-105.49887490,40.26239026,2909.45
-105.49893582,40.26239000,2911.45
-105.49894663,40.26238995,2911.98
-105.49895675,40.26238991,2912.45
-105.49896086,40.26238989,2912.37
-105.49896674,40.26238987,2915.49
-105.49896804,40.26238986,2912.67
-105.49897157,40.26238985,2912.83
-105.49897533,40.26238983,2912.91
-105.49897650,40.26238983,2912.96
-105.49900955,40.26238968,2927.53
-105.49903519,40.26238957,2918.38
-105.49907446,40.26238940,2923.59
-105.49910081,40.26238929,2917.60
-105.49911409,40.26238923,2927.70
     </coordinates>
    </LineString>
   </MultiGeometry>
  </Placemark>
 </Document>
</kml>
