<kml>
 <Document>
  <Style id="yellow">
   <LineStyle>
   <color>ff00ffff</color>
   <width>1</width>
   </LineStyle>
  </Style>
  <Style id="red">
   <LineStyle>
   <color>ffff0000</color>
   <width>2</width>
   </LineStyle>
  </Style>
  <Style id="green">
   <LineStyle>
   <color>ff00ff00</color>
   <width>1</width>
   </LineStyle>
  </Style>
  <Placemark>
  <styleUrl>#yellow</styleUrl>
   <MultiGeometry>
    <LineString>
     <coordinates>
-105.47056670,40.28501044,2508.96
-105.47056699,40.28505314,2514.56
-105.47056703,40.28505864,2514.60
-105.47056708,40.28506585,2512.27
-105.47056710,40.28506846,2513.54
-105.47056738,40.28510945,2513.20
-105.47056754,40.28513152,2512.83
-105.47056764,40.28514693,2511.63
-105.47056780,40.28516918,2517.98
-105.47056787,40.28517954,2517.02
-105.47056791,40.28518522,2521.45
-105.47056793,40.28518855,2520.68
-105.47056796,40.28519287,2514.76
-105.47056849,40.28526945,2509.54
-105.47056856,40.28527945,2509.51
-105.47056902,40.28534540,2514.04
-105.47056926,40.28537945,2513.88
-105.47056933,40.28539044,2510.24
-105.47056934,40.28539215,2514.64
-105.47056935,40.28539269,2510.23
-105.47056937,40.28539630,2510.43
-105.47056961,40.28542990,2514.48
-105.47056982,40.28546143,2512.76
-105.47057002,40.28548954,2510.56
-105.47057025,40.28552261,2510.72
-105.47057035,40.28553648,2517.15
-105.47057038,40.28554098,2510.98
-105.47057063,40.28557765,2512.26
-105.47057065,40.28558017,2512.26
-105.47057096,40.28562459,2514.87
-105.47057102,40.28563315,2514.00
-105.47057168,40.28572954,2511.21
-105.47057212,40.28579243,2511.47
-105.47057249,40.28584621,2511.70
-105.47057253,40.28585207,2511.73
-105.47057273,40.28588053,2511.89
-105.47057451,40.28613711,2513.09
-105.47057485,40.28618666,2513.25
-105.47057496,40.28620225,2513.39
-105.47057513,40.28622711,2515.23
-105.47057526,40.28624495,2515.58
-105.47057529,40.28624928,2513.10
-105.47057531,40.28625279,2517.37
-105.47057538,40.28626189,2514.87
-105.47057546,40.28627342,2523.09
-105.47057554,40.28628531,2520.09
-105.47057562,40.28629666,2514.20
-105.47057624,40.28638711,2515.59
-105.47057641,40.28641081,2520.14
-105.47057654,40.28643045,2514.20
-105.47057657,40.28643432,2519.79
-105.47057663,40.28644324,2514.62
-105.47057738,40.28655090,2516.47
-105.47057738,40.28655144,2514.97
-105.47057760,40.28658288,2514.80
-105.47057762,40.28658576,2514.84
-105.47057781,40.28661315,2524.09
-105.47057815,40.28666207,2522.70
-105.47057849,40.28671081,2524.46
-105.47057849,40.28671117,2523.02
-105.47057910,40.28679928,2519.18
-105.47057980,40.28690000,2531.63
-105.47058071,40.28703135,2527.68
-105.47058072,40.28703225,2527.53
-105.47058180,40.28718847,2536.65
-105.47058188,40.28720027,2529.95
-105.47058202,40.28722018,2530.26
-105.47058268,40.28731514,2533.49
-105.47058302,40.28736415,2536.16
-105.47058383,40.28748027,2534.26
-105.47058406,40.28751370,2531.79
-105.47058435,40.28755658,2530.78
-105.47058444,40.28756892,2539.26
-105.47058500,40.28764973,2529.14
-105.47058531,40.28769451,2532.22
-105.47058582,40.28776856,2529.10
-105.47058603,40.28779784,2532.81
-105.47058619,40.28782190,2529.47
-105.47058621,40.28782370,2529.47
-105.47058627,40.28783244,2529.67
-105.47058633,40.28784208,2533.36
-105.47058690,40.28792325,2530.17
-105.47058724,40.28797244,2541.10
-105.47058735,40.28798802,2537.68
-105.47058740,40.28799631,2532.99
-105.47058781,40.28805442,2539.11
-105.47058815,40.28810442,2539.35
-105.47058842,40.28814325,2529.64
-105.47058879,40.28819622,2529.70
-105.47058903,40.28823091,2529.84
-105.47058996,40.28836487,2544.04
-105.47058997,40.28836640,2544.25
-105.47059025,40.28840631,2531.52
-105.47059033,40.28841865,2531.60
-105.47059039,40.28842739,2538.94
-105.47059047,40.28843802,2545.33
-105.47059060,40.28845748,2542.22
-105.47059103,40.28851983,2530.82
-105.47059131,40.28855992,2533.07
-105.47059150,40.28858640,2531.26
-105.47059167,40.28861163,2538.17
-105.47059173,40.28861956,2538.60
-105.47059175,40.28862343,2531.36
-105.47059197,40.28865496,2531.41
-105.47059205,40.28866550,2531.49
-105.47059237,40.28871244,2543.04
-105.47059240,40.28871649,2541.96
-105.47059325,40.28883974,2533.51
-105.47059338,40.28885749,2533.68
-105.47059392,40.28893559,2534.77
-105.47059439,40.28900433,2535.74
-105.47059451,40.28902082,2545.91
-105.47059451,40.28902100,2536.02
-105.47059452,40.28902262,2545.98
-105.47059454,40.28902514,2547.59
-105.47059469,40.28904713,2540.34
-105.47059470,40.28904884,2545.89
-105.47059516,40.28911451,2537.77
-105.47059517,40.28911641,2548.39
-105.47059518,40.28911731,2544.04
-105.47059522,40.28912325,2553.43
-105.47059532,40.28913731,2549.97
-105.47059550,40.28916379,2538.83
-105.47059556,40.28917262,2551.28
-105.47059556,40.28917280,2549.86
-105.47059565,40.28918460,2549.69
-105.47059571,40.28919379,2549.81
-105.47059575,40.28919965,2553.65
-105.47059584,40.28921244,2554.50
-105.47059587,40.28921758,2555.27
-105.47059589,40.28922037,2555.60
-105.47059623,40.28926929,2541.17
-105.47059624,40.28927082,2541.18
-105.47059639,40.28929136,2541.60
-105.47059670,40.28933704,2551.41
-105.47059682,40.28935388,2555.86
-105.47059688,40.28936199,2555.81
-105.47059740,40.28943704,2544.77
-105.47059748,40.28944929,2545.14
-105.47059752,40.28945506,2545.31
-105.47059773,40.28948478,2546.37
-105.47059802,40.28952749,2555.80
-105.47059829,40.28953145,2550.88
-105.47059923,40.28953226,2548.40
-105.47060762,40.28953646,2548.32
-105.47062244,40.28953658,2557.48
-105.47063091,40.28953654,2555.71
-105.47069515,40.28953628,2547.70
-105.47075279,40.28953605,2547.19
-105.47078350,40.28953592,2548.48
-105.47079985,40.28953586,2546.82
-105.47093891,40.28953529,2546.33
-105.47101702,40.28953497,2553.09
-105.47101761,40.28953497,2554.70
-105.47102197,40.28953495,2553.68
-105.47103291,40.28953491,2556.28
-105.47103985,40.28953488,2556.42
-105.47105455,40.28953482,2545.98
-105.47120538,40.28953421,2545.75
-105.47128596,40.28953388,2546.37
-105.47139420,40.28953344,2547.54
-105.47139914,40.28953342,2547.88
-105.47140420,40.28953340,2551.31
-105.47140902,40.28953338,2563.38
-105.47141631,40.28953335,2552.72
-105.47143420,40.28953327,2550.16
-105.47145678,40.28953318,2564.53
-105.47150114,40.28953300,2550.76
-105.47157431,40.28953270,2554.28
-105.47172843,40.28953207,2559.69
-105.47176725,40.28953192,2559.05
-105.47187984,40.28953146,2560.02
-105.47193878,40.28953122,2559.09
-105.47201631,40.28953090,2561.37
-105.47207372,40.28953067,2560.96
-105.47225889,40.28952991,2560.35
-105.47233724,40.28952959,2570.12
-105.47236018,40.28952950,2560.73
-105.47238889,40.28952938,2560.51
-105.47240630,40.28952931,2560.54
-105.47244854,40.28952914,2560.18
-105.47259607,40.28952853,2558.70
-105.47269030,40.28952815,2560.68
-105.47295783,40.28952706,2555.19
-105.47297465,40.28952699,2564.05
-105.47298994,40.28952692,2554.49
-105.47303994,40.28952672,2553.99
-105.47306088,40.28952663,2553.94
-105.47316312,40.28952622,2553.33
-105.47319194,40.28952610,2558.90
-105.47332900,40.28952554,2552.34
-105.47350935,40.28952480,2552.03
-105.47353817,40.28952468,2558.56
-105.47361770,40.28952436,2556.61
-105.47362123,40.28952434,2558.52
-105.47365429,40.28952421,2558.00
-105.47367817,40.28952411,2557.29
-105.47369958,40.28952402,2551.87
-105.47373099,40.28952389,2552.08
-105.47374076,40.28952385,2555.84
-105.47376323,40.28952376,2552.02
-105.47382593,40.28952350,2557.55
-105.47383817,40.28952345,2555.41
-105.47391087,40.28952316,2558.06
-105.47393452,40.28952306,2558.33
-105.47394711,40.28952301,2558.13
-105.47395664,40.28952297,2552.40
-105.47407652,40.28952248,2552.28
-105.47412546,40.28952228,2558.04
-105.47414605,40.28952219,2559.59
-105.47426757,40.28952169,2552.91
-105.47439769,40.28952116,2553.78
-105.47457922,40.28952042,2567.83
-105.47459545,40.28952035,2566.93
-105.47463263,40.28952020,2564.26
-105.47466804,40.28952005,2558.64
-105.47476945,40.28951964,2560.52
-105.47493145,40.28951897,2562.60
-105.47499321,40.28951872,2560.96
-105.47500968,40.28951865,2558.48
-105.47504745,40.28951849,2560.89
-105.47506474,40.28951842,2565.33
-105.47508498,40.28951834,2564.62
-105.47510721,40.28951825,2559.08
-105.47517980,40.28951795,2559.63
-105.47531109,40.28951741,2565.75
-105.47539533,40.28951707,2561.02
-105.47566356,40.28951596,2576.59
-105.47566803,40.28951594,2576.43
-105.47567226,40.28951593,2576.22
-105.47567638,40.28951591,2575.96
-105.47572485,40.28951571,2573.16
-105.47575344,40.28951559,2566.25
-105.47577567,40.28951550,2580.04
-105.47581461,40.28951534,2581.67
-105.47581791,40.28951533,2582.38
-105.47582003,40.28951532,2577.47
-105.47582767,40.28951529,2567.30
-105.47582826,40.28951529,2576.87
-105.47590073,40.28951499,2568.50
-105.47597838,40.28951467,2587.98
-105.47611614,40.28951410,2571.50
-105.47619143,40.28951379,2572.84
-105.47621743,40.28951368,2579.50
-105.47624261,40.28951358,2585.95
-105.47624990,40.28951355,2587.30
-105.47631778,40.28951327,2591.59
-105.47632967,40.28951322,2590.81
-105.47636249,40.28951309,2588.63
-105.47638002,40.28951302,2584.76
-105.47641778,40.28951286,2577.34
-105.47651025,40.28951248,2579.37
-105.47653166,40.28951239,2594.12
-105.47656413,40.28951226,2595.08
-105.47657684,40.28951220,2591.09
-105.47672601,40.28951159,2587.26
-105.47676048,40.28951145,2590.48
-105.47677072,40.28951141,2593.29
-105.47679131,40.28951132,2598.55
-105.47680519,40.28951126,2603.83
-105.47681472,40.28951123,2586.81
-105.47682707,40.28951117,2587.22
-105.47690684,40.28951085,2593.50
-105.47690919,40.28951084,2594.16
-105.47704201,40.28951029,2593.06
-105.47723577,40.28950949,2599.78
-105.47728236,40.28950930,2601.90
-105.47728695,40.28950928,2601.62
-105.47728942,40.28950927,2601.72
-105.47737624,40.28950891,2605.50
-105.47751342,40.28950834,2610.30
-105.47756424,40.28950813,2612.77
-105.47777306,40.28950727,2621.15
-105.47809200,40.28950595,2638.99
-105.47824294,40.28950533,2655.31
-105.47829623,40.28950511,2643.51
-105.47830352,40.28950508,2643.91
-105.47834552,40.28950491,2645.97
-105.47849105,40.28950430,2663.55
-105.47865187,40.28950364,2664.73
-105.47869293,40.28950347,2661.33
-105.47870646,40.28950341,2660.32
-105.47877493,40.28950313,2667.54
-105.47878434,40.28950309,2667.08
-105.47881222,40.28950298,2664.58
-105.47883105,40.28950290,2669.88
-105.47890787,40.28950258,2669.23
-105.47912104,40.28950170,2687.99
-105.47912810,40.28950167,2677.76
-105.47936739,40.28950068,2695.12
-105.47947598,40.28950023,2691.63
-105.47969221,40.28949933,2701.01
-105.47983515,40.28949874,2703.92
-105.47991327,40.28949841,2708.32
-105.47994903,40.28949827,2709.85
-105.48028832,40.28949686,2717.22
-105.48038632,40.28949645,2718.73
-105.48041079,40.28949635,2725.67
-105.48043291,40.28949626,2718.86
-105.48050420,40.28949596,2722.33
-105.48052150,40.28949589,2720.69
-105.48056349,40.28949572,2732.30
-105.48056738,40.28949570,2721.90
-105.48058796,40.28949561,2725.11
-105.48059232,40.28949560,2734.59
-105.48059255,40.28949559,2734.67
-105.48059702,40.28949558,2722.58
-105.48091043,40.28949427,2733.41
-105.48094737,40.28949412,2739.91
-105.48095055,40.28949411,2736.31
-105.48095667,40.28949408,2737.27
-105.48101772,40.28949383,2734.59
-105.48103866,40.28949374,2735.06
-105.48116902,40.28949320,2737.80
-105.48119502,40.28949309,2743.95
-105.48131643,40.28949259,2745.96
-105.48132090,40.28949257,2744.90
-105.48139137,40.28949227,2747.23
-105.48140984,40.28949220,2749.37
-105.48143372,40.28949210,2743.41
-105.48153583,40.28949167,2744.32
-105.48169477,40.28949101,2747.21
-105.48170030,40.28949099,2745.87
-105.48173560,40.28949084,2747.56
-105.48188901,40.28949020,2747.75
-105.48190501,40.28949014,2750.92
-105.48190854,40.28949012,2750.68
-105.48194653,40.28948996,2753.90
-105.48196712,40.28948988,2749.11
-105.48199065,40.28948978,2756.27
-105.48201936,40.28948966,2749.62
-105.48207618,40.28948942,2750.23
-105.48209536,40.28948934,2752.02
-105.48213030,40.28948920,2751.23
-105.48213124,40.28948919,2754.69
-105.48216277,40.28948906,2756.56
-105.48216547,40.28948905,2755.89
-105.48225559,40.28948867,2752.84
-105.48225712,40.28948867,2752.13
-105.48229771,40.28948850,2756.12
-105.48230018,40.28948849,2753.17
-105.48231077,40.28948844,2758.92
-105.48233924,40.28948833,2760.93
-105.48234994,40.28948828,2752.88
-105.48235970,40.28948797,2755.70
-105.48236226,40.28948309,2752.95
-105.48236216,40.28945255,2751.96
-105.48236182,40.28938868,2755.15
-105.48236177,40.28938210,2755.29
-105.48236175,40.28937850,2756.14
-105.48236129,40.28931435,2747.42
-105.48236122,40.28930445,2752.21
-105.48236084,40.28925093,2745.28
-105.48236059,40.28921526,2749.98
-105.48236049,40.28920174,2750.24
-105.48236037,40.28918480,2743.22
-105.48236021,40.28916192,2752.89
-105.48236019,40.28915886,2746.02
-105.48235894,40.28898363,2736.89
-105.48235862,40.28893814,2735.54
-105.48235801,40.28885237,2738.66
-105.48235791,40.28883823,2733.78
-105.48235782,40.28882562,2732.06
-105.48235769,40.28880805,2730.46
-105.48235712,40.28872670,2732.84
-105.48235659,40.28865291,2728.04
-105.48235639,40.28862507,2725.72
-105.48235607,40.28858012,2737.19
-105.48235600,40.28856949,2738.06
-105.48235486,40.28841003,2722.17
-105.48235484,40.28840724,2729.07
-105.48235482,40.28840408,2734.98
-105.48235475,40.28839444,2737.06
-105.48235469,40.28838534,2730.85
-105.48235469,40.28838489,2730.85
-105.48235468,40.28838426,2733.12
-105.48235468,40.28838363,2730.89
-105.48235436,40.28833913,2729.20
-105.48235415,40.28830922,2722.18
-105.48235403,40.28829246,2721.28
-105.48235391,40.28827615,2724.77
-105.48235102,40.28786859,2714.14
-105.48234931,40.28762894,2705.34
-105.48234900,40.28758489,2701.90
-105.48234793,40.28743516,2695.37
-105.48234705,40.28731048,2675.61
-105.48234678,40.28727345,2668.64
-105.48234659,40.28724606,2666.63
-105.48234651,40.28723462,2665.28
-105.48234640,40.28722002,2664.38
-105.48234612,40.28718011,2660.93
-105.48234546,40.28708669,2653.97
-105.48234510,40.28703687,2649.83
-105.48234496,40.28701642,2649.50
-105.48234470,40.28698047,2645.82
-105.48234396,40.28687570,2639.51
-105.48234385,40.28686083,2637.30
-105.48234377,40.28684939,2639.63
-105.48234373,40.28684444,2642.10
-105.48234326,40.28677768,2631.68
-105.48234286,40.28672165,2629.37
-105.48234282,40.28671579,2629.20
-105.48234266,40.28669363,2626.15
-105.48234264,40.28669065,2625.96
-105.48234208,40.28661101,2621.22
-105.48234156,40.28653903,2625.77
-105.48234139,40.28651489,2626.59
-105.48233910,40.28619209,2596.77
-105.48233902,40.28618182,2596.18
-105.48233846,40.28610245,2591.43
-105.48233746,40.28596119,2583.44
-105.48233688,40.28588011,2587.79
-105.48233683,40.28587254,2590.36
-105.48233670,40.28585453,2592.65
-105.48233620,40.28578398,2574.85
-105.48233614,40.28577615,2574.19
-105.48233611,40.28577128,2573.59
-105.48233534,40.28566272,2569.09
-105.48233515,40.28563651,2568.23
-105.48233418,40.28550020,2562.22
-105.48233401,40.28547579,2561.98
-105.48233361,40.28541966,2562.49
-105.48233269,40.28529074,2562.65
-105.48233229,40.28523425,2577.24
-105.48233217,40.28521741,2570.80
-105.48233176,40.28516038,2579.71
-105.48233140,40.28510939,2564.91
-105.48233133,40.28509948,2567.58
-105.48233112,40.28506993,2570.32
-105.48233109,40.28506506,2573.37
-105.48233070,40.28501083,2565.68
-105.48233013,40.28493047,2563.02
-105.48232940,40.28482822,2562.62
-105.48232938,40.28482452,2562.56
-105.48232817,40.28465524,2573.82
-105.48232802,40.28463317,2568.86
-105.48232746,40.28455416,2564.05
-105.48232707,40.28450038,2566.91
-105.48232543,40.28426975,2566.42
-105.48232531,40.28425218,2573.33
-105.48232370,40.28402533,2570.12
-105.48232341,40.28398434,2575.56
-105.48232256,40.28386497,2572.01
-105.48232233,40.28383254,2570.16
-105.48232191,40.28377398,2571.59
-105.48232070,40.28360326,2565.81
-105.48232002,40.28350857,2580.23
-105.48231882,40.28333965,2575.29
-105.48231881,40.28333812,2578.14
-105.48231878,40.28333389,2576.38
-105.48231878,40.28333308,2577.94
-105.48231864,40.28331380,2577.44
-105.48231863,40.28331245,2580.14
-105.48231861,40.28330902,2579.90
-105.48231857,40.28330461,2577.88
-105.48231855,40.28330082,2576.42
-105.48231750,40.28315298,2576.64
-105.48231696,40.28307767,2571.71
-105.48231667,40.28303731,2577.83
-105.48231666,40.28303506,2575.38
-105.48231604,40.28294731,2567.84
-105.48231561,40.28288758,2578.36
-105.48231559,40.28288524,2567.01
-105.48231463,40.28275019,2566.84
-105.48231442,40.28271956,2577.98
-105.48231436,40.28271226,2576.08
-105.48231359,40.28260262,2581.38
-105.48231327,40.28255848,2567.19
-105.48231282,40.28249424,2573.60
-105.48231267,40.28247388,2577.67
-105.48231260,40.28246379,2576.65
-105.48231222,40.28240992,2575.66
-105.48231210,40.28239352,2577.45
-105.48231185,40.28235893,2578.13
-105.48231180,40.28235118,2574.11
-105.48231152,40.28231244,2577.45
-105.48231146,40.28230370,2567.93
-105.48231137,40.28229055,2582.61
-105.48231127,40.28227650,2579.59
-105.48231076,40.28220541,2582.26
-105.48231057,40.28217812,2569.39
-105.48231048,40.28216577,2573.98
-105.48230997,40.28209415,2571.36
-105.48230988,40.28208181,2582.11
-105.48230987,40.28207911,2572.01
-105.48230974,40.28206082,2575.69
-105.48230970,40.28205604,2576.29
-105.48230962,40.28204496,2584.20
-105.48230951,40.28202893,2583.45
-105.48230944,40.28201947,2574.20
-105.48230940,40.28201352,2585.76
-105.48230891,40.28194415,2586.26
-105.48230888,40.28194064,2587.76
-105.48230885,40.28193685,2587.00
-105.48230846,40.28188100,2580.23
-105.48230844,40.28187884,2580.28
-105.48230818,40.28184244,2586.79
-105.48230815,40.28183730,2592.09
-105.48230793,40.28180703,2589.95
-105.48230779,40.28178640,2586.83
-105.48230771,40.28177514,2592.48
-105.48230715,40.28169730,2598.46
-105.48230666,40.28162793,2597.70
-105.48230654,40.28161109,2591.61
-105.48230588,40.28151892,2596.19
-105.48230582,40.28151019,2598.95
-105.48230562,40.28148181,2611.10
-105.48230557,40.28147532,2610.07
-105.48230556,40.28147325,2610.21
-105.48230529,40.28143478,2601.20
-105.48230458,40.28133604,2606.29
-105.48230423,40.28128667,2610.10
-105.48230414,40.28127406,2609.77
-105.48230402,40.28125685,2611.84
-105.48230387,40.28123604,2610.78
-105.48230367,40.28120685,2610.86
-105.48230322,40.28114469,2613.52
-105.48230295,40.28110631,2626.19
-105.48230274,40.28107640,2617.64
-105.48230266,40.28106487,2627.00
-105.48230224,40.28100595,2621.19
-105.48230198,40.28096919,2621.89
-105.48230167,40.28092541,2631.85
-105.48230158,40.28091316,2628.62
-105.48230095,40.28082451,2628.77
-105.48230032,40.28073622,2635.98
-105.48229987,40.28067289,2646.68
-105.48229926,40.28058649,2650.19
-105.48229897,40.28054541,2653.74
-105.48229895,40.28054298,2645.04
-105.48229884,40.28052793,2653.36
-105.48229842,40.28048514,2652.37
-105.48229803,40.28048027,2644.80
-105.48229603,40.28047983,2652.79
-105.48229179,40.28047949,2652.95
-105.48229003,40.28047941,2644.76
-105.48227815,40.28047937,2652.36
-105.48224662,40.28047950,2644.55
-105.48219216,40.28047972,2644.21
-105.48217875,40.28047978,2645.13
-105.48197231,40.28048064,2647.44
-105.48196772,40.28048066,2647.67
-105.48168788,40.28048182,2638.42
-105.48163742,40.28048203,2641.24
-105.48158989,40.28048223,2641.81
-105.48158025,40.28048227,2635.10
-105.48152908,40.28048249,2634.96
-105.48139239,40.28048305,2630.30
-105.48134111,40.28048327,2629.59
-105.48132123,40.28048335,2632.57
-105.48114231,40.28048409,2634.53
-105.48108809,40.28048432,2624.08
-105.48108362,40.28048434,2624.82
-105.48104609,40.28048449,2623.10
-105.48093587,40.28048495,2621.13
-105.48084471,40.28048533,2625.45
-105.48082906,40.28048540,2619.16
-105.48073778,40.28048578,2618.22
-105.48071343,40.28048588,2617.40
-105.48059028,40.28048639,2613.55
-105.48050499,40.28048674,2617.61
-105.48047359,40.28048687,2617.40
-105.48045077,40.28048697,2609.68
-105.48033855,40.28048743,2607.89
-105.48025091,40.28048780,2613.90
-105.48024327,40.28048783,2613.66
-105.48022033,40.28048792,2612.39
-105.48019280,40.28048804,2615.51
-105.48019245,40.28048804,2610.38
-105.48018481,40.28048807,2609.99
-105.48016822,40.28048814,2604.91
-105.48014399,40.28048824,2607.54
-105.48013387,40.28048828,2606.81
-105.48010035,40.28048842,2604.68
-105.48008247,40.28048850,2603.50
-105.48008141,40.28048850,2603.46
-105.48007847,40.28048851,2603.38
-105.48004647,40.28048865,2603.07
-105.47987709,40.28048935,2609.34
-105.47986473,40.28048940,2599.99
-105.47983180,40.28048954,2599.11
-105.47982686,40.28048956,2605.82
-105.47975769,40.28048984,2606.45
-105.47969347,40.28049011,2595.72
-105.47963394,40.28049036,2594.09
-105.47960030,40.28049050,2593.22
-105.47959924,40.28049050,2593.20
-105.47959501,40.28049052,2593.18
-105.47950596,40.28049089,2591.26
-105.47930799,40.28049171,2598.76
-105.47912284,40.28049247,2593.75
-105.47909426,40.28049259,2586.14
-105.47895169,40.28049318,2594.34
-105.47867173,40.28049434,2589.45
-105.47835331,40.28049566,2578.30
-105.47834590,40.28049569,2577.74
-105.47833754,40.28049572,2577.20
-105.47833296,40.28049574,2577.23
-105.47832966,40.28049576,2577.22
-105.47821874,40.28049621,2581.49
-105.47807641,40.28049680,2575.92
-105.47804947,40.28049691,2579.61
-105.47788514,40.28049759,2580.41
-105.47785244,40.28049773,2578.60
-105.47784844,40.28049774,2578.30
-105.47783209,40.28049781,2577.38
-105.47777821,40.28049803,2574.63
-105.47777163,40.28049806,2577.50
-105.47775775,40.28049812,2573.63
-105.47775351,40.28049814,2573.59
-105.47756201,40.28049893,2578.41
-105.47749873,40.28049919,2573.13
-105.47742038,40.28049951,2580.86
-105.47731169,40.28049996,2579.76
-105.47727382,40.28050012,2577.71
-105.47725711,40.28050018,2577.11
-105.47725664,40.28050019,2578.35
-105.47719348,40.28050045,2573.67
-105.47717324,40.28050053,2573.80
-105.47710902,40.28050080,2578.83
-105.47703303,40.28050111,2579.67
-105.47661191,40.28050284,2574.25
-105.47660309,40.28050288,2573.89
-105.47658098,40.28050297,2572.54
-105.47657627,40.28050299,2572.33
-105.47657239,40.28050301,2572.56
-105.47656745,40.28050303,2572.15
-105.47653216,40.28050317,2570.34
-105.47651922,40.28050323,2570.06
-105.47650064,40.28050330,2568.79
-105.47628890,40.28050417,2573.24
-105.47628678,40.28050418,2572.28
-105.47626938,40.28050425,2564.46
-105.47619797,40.28050455,2568.86
-105.47612234,40.28050486,2567.55
-105.47575627,40.28050637,2566.89
-105.47575169,40.28050638,2566.96
-105.47574698,40.28050640,2566.87
-105.47573781,40.28050644,2566.29
-105.47573357,40.28050646,2560.12
-105.47566817,40.28050673,2560.06
-105.47559947,40.28050701,2560.11
-105.47510860,40.28050903,2564.06
-105.47495698,40.28050965,2560.17
-105.47489593,40.28050990,2563.25
-105.47488181,40.28050996,2563.04
-105.47485064,40.28051009,2561.45
-105.47484017,40.28051013,2560.92
-105.47483523,40.28051015,2560.87
-105.47482500,40.28051019,2560.28
-105.47480500,40.28051027,2559.61
-105.47479065,40.28051033,2559.17
-105.47478512,40.28051035,2558.81
-105.47472842,40.28051059,2556.50
-105.47470678,40.28051068,2555.14
-105.47464373,40.28051093,2552.32
-105.47462256,40.28051102,2549.02
-105.47461997,40.28051103,2549.71
-105.47460985,40.28051107,2555.06
-105.47452245,40.28051143,2547.17
-105.47452233,40.28051143,2547.20
-105.47451763,40.28051145,2547.17
-105.47433942,40.28051218,2551.16
-105.47425237,40.28051254,2543.45
-105.47406734,40.28051330,2540.72
-105.47406052,40.28051333,2542.85
-105.47405793,40.28051334,2543.69
-105.47390160,40.28051398,2543.68
-105.47378491,40.28051445,2544.45
-105.47371574,40.28051474,2540.85
-105.47369104,40.28051484,2532.79
-105.47363435,40.28051507,2531.07
-105.47352577,40.28051552,2533.40
-105.47335297,40.28051622,2530.58
-105.47335086,40.28051623,2531.44
-105.47334933,40.28051624,2532.09
-105.47293692,40.28051792,2514.60
-105.47291739,40.28051800,2524.27
-105.47289739,40.28051809,2514.03
-105.47259626,40.28051932,2517.86
-105.47253580,40.28051956,2517.29
-105.47247828,40.28051980,2507.16
-105.47216550,40.28052107,2503.13
-105.47208269,40.28052141,2502.41
-105.47195600,40.28052193,2512.41
-105.47194459,40.28052198,2502.43
-105.47193471,40.28052202,2516.74
-105.47181767,40.28052249,2498.65
-105.47179979,40.28052257,2498.74
-105.47176556,40.28052271,2498.63
-105.47171533,40.28052291,2498.72
-105.47167875,40.28052306,2499.88
-105.47166251,40.28052313,2503.75
-105.47164428,40.28052320,2497.94
-105.47159405,40.28052340,2502.23
-105.47158464,40.28052344,2503.39
-105.47146113,40.28052395,2495.67
-105.47136209,40.28052435,2492.62
-105.47129868,40.28052461,2492.81
-105.47119317,40.28052504,2492.69
-105.47106319,40.28052557,2492.88
-105.47104060,40.28052566,2492.94
-105.47091968,40.28052615,2493.62
-105.47078252,40.28052671,2493.43
-105.47069465,40.28052707,2493.14
-105.47067642,40.28052714,2493.19
-105.47056267,40.28052760,2492.95
-105.47055326,40.28052773,2492.90
-105.47054009,40.28052797,2492.84
-105.47053657,40.28052897,2492.84
-105.47053566,40.28053402,2492.83
-105.47053589,40.28056681,2492.84
-105.47053600,40.28058375,2492.92
-105.47053603,40.28058735,2492.93
-105.47053608,40.28059465,2492.93
-105.47053621,40.28061312,2492.98
-105.47053652,40.28065871,2493.05
-105.47053666,40.28067835,2493.10
-105.47053699,40.28072591,2493.30
-105.47053764,40.28081925,2493.40
-105.47053781,40.28084456,2493.56
-105.47053818,40.28089763,2493.64
-105.47053878,40.28098411,2494.03
-105.47053927,40.28105492,2494.15
-105.47053935,40.28106601,2494.08
-105.47053939,40.28107132,2494.08
-105.47053940,40.28107312,2494.07
-105.47054117,40.28132871,2494.40
-105.47054162,40.28139330,2493.93
-105.47054209,40.28146087,2494.52
-105.47054227,40.28148772,2494.69
-105.47054230,40.28149204,2494.71
-105.47054250,40.28152006,2495.13
-105.47054253,40.28152547,2495.11
-105.47054291,40.28157934,2495.47
-105.47054311,40.28160871,2495.75
-105.47054380,40.28170835,2497.51
-105.47054458,40.28182024,2503.50
-105.47054467,40.28183340,2505.15
-105.47054486,40.28186069,2503.19
-105.47054502,40.28188448,2499.53
-105.47054517,40.28190538,2506.23
-105.47054545,40.28194565,2499.63
-105.47054563,40.28197277,2499.76
-105.47054609,40.28203907,2504.64
-105.47054619,40.28205241,2500.53
-105.47054695,40.28216313,2499.48
-105.47054711,40.28218538,2499.41
-105.47054719,40.28219763,2499.45
-105.47054722,40.28220196,2499.47
-105.47054734,40.28221916,2499.75
-105.47054795,40.28230718,2499.36
-105.47054845,40.28237899,2503.56
-105.47054875,40.28242142,2498.94
-105.47054888,40.28244142,2498.66
-105.47054898,40.28245574,2502.13
-105.47054950,40.28253016,2503.55
-105.47054967,40.28255520,2500.39
-105.47055030,40.28264547,2506.30
-105.47055030,40.28264583,2496.45
-105.47055031,40.28264700,2499.15
-105.47055066,40.28269746,2504.41
-105.47055074,40.28270953,2495.60
-105.47055091,40.28273376,2506.61
-105.47055130,40.28279043,2495.46
-105.47055139,40.28280286,2499.59
-105.47055140,40.28280385,2505.41
-105.47055190,40.28287592,2495.12
-105.47055212,40.28290836,2495.02
-105.47055213,40.28290908,2495.02
-105.47055216,40.28291439,2495.00
-105.47055223,40.28292403,2495.02
-105.47055243,40.28295340,2504.19
-105.47055244,40.28295430,2506.72
-105.47055251,40.28296403,2505.35
-105.47055254,40.28296917,2505.71
-105.47055255,40.28297043,2504.59
-105.47055262,40.28297962,2506.16
-105.47055268,40.28298917,2502.91
-105.47055283,40.28301097,2503.26
-105.47055312,40.28305268,2504.28
-105.47055324,40.28306899,2504.01
-105.47055326,40.28307232,2504.94
-105.47055343,40.28309710,2500.05
-105.47055352,40.28311034,2504.99
-105.47055361,40.28312295,2503.22
-105.47055438,40.28323467,2496.91
-105.47055441,40.28323836,2500.06
-105.47055452,40.28325422,2507.05
-105.47055455,40.28325926,2506.72
-105.47055480,40.28329485,2503.56
-105.47055482,40.28329719,2500.33
-105.47055498,40.28332070,2503.49
-105.47055507,40.28333340,2504.75
-105.47055591,40.28345404,2501.28
-105.47055609,40.28348070,2499.62
-105.47055624,40.28350187,2506.63
-105.47055627,40.28350701,2504.84
-105.47055650,40.28354025,2506.75
-105.47055653,40.28354395,2504.97
-105.47055653,40.28354458,2506.05
-105.47055657,40.28354971,2503.03
-105.47055658,40.28355187,2503.57
-105.47055661,40.28355566,2503.13
-105.47055672,40.28357097,2495.41
-105.47055684,40.28358827,2495.26
-105.47055684,40.28358863,2495.27
-105.47055693,40.28360187,2495.51
-105.47055701,40.28361296,2495.39
-105.47055709,40.28362431,2500.96
-105.47055715,40.28363359,2504.81
-105.47055717,40.28363692,2502.57
-105.47055725,40.28364845,2502.11
-105.47055818,40.28378161,2495.85
-105.47055849,40.28382665,2496.08
-105.47055881,40.28387323,2496.34
-105.47055903,40.28390476,2496.38
-105.47055955,40.28397980,2513.23
-105.47055959,40.28398593,2510.17
-105.47056107,40.28419908,2497.72
-105.47056134,40.28423800,2508.67
-105.47056142,40.28424918,2508.99
-105.47056153,40.28426521,2510.45
-105.47056259,40.28441882,2500.76
-105.47056275,40.28444134,2501.16
-105.47056306,40.28448566,2502.07
-105.47056322,40.28450936,2502.35
-105.47056323,40.28450981,2502.41
-105.47056352,40.28455143,2502.71
-105.47056370,40.28457837,2503.15
-105.47056401,40.28462314,2503.84
-105.47056442,40.28468197,2504.63
-105.47056496,40.28475954,2510.57
-105.47056521,40.28479548,2505.88
-105.47056543,40.28482801,2512.20
-105.47056556,40.28484602,2511.54
-105.47056613,40.28492909,2518.78
-105.47056621,40.28493972,2521.48
-105.47056625,40.28494603,2519.76
-105.47056630,40.28495350,2517.56
-105.47056637,40.28496323,2508.54
-105.47056661,40.28499765,2512.71
-105.47056670,40.28501044,2508.96
     </coordinates>
    </LineString>
   </MultiGeometry>
  </Placemark>
 </Document>
</kml>
