<kml>
 <Document>
  <Style id="yellow">
   <LineStyle>
   <color>ff00ffff</color>
   <width>1</width>
   </LineStyle>
  </Style>
  <Style id="red">
   <LineStyle>
   <color>ffff0000</color>
   <width>2</width>
   </LineStyle>
  </Style>
  <Style id="green">
   <LineStyle>
   <color>ff00ff00</color>
   <width>1</width>
   </LineStyle>
  </Style>
  <Placemark>
  <styleUrl>#yellow</styleUrl>
   <MultiGeometry>
    <LineString>
     <coordinates>
-105.52281003,40.28030324,3059.73
-105.52281039,40.28030323,3063.13
-105.52281121,40.28030323,3057.03
-105.52281497,40.28030321,3055.08
-105.52292907,40.28030270,3051.22
-105.52298460,40.28030245,3053.90
-105.52299248,40.28030241,3060.59
-105.52305141,40.28030215,3052.25
-105.52336442,40.28030073,3035.33
-105.52358462,40.28029973,3027.75
-105.52364461,40.28029946,3025.01
-105.52378494,40.28029883,3019.03
-105.52399914,40.28029786,3018.74
-105.52419476,40.28029697,3001.96
-105.52434027,40.28029631,3007.78
-105.52439720,40.28029605,3001.26
-105.52439932,40.28029604,3003.15
-105.52440167,40.28029603,3001.23
-105.52440379,40.28029602,2994.60
-105.52441720,40.28029596,3002.68
-105.52451342,40.28029553,3005.78
-105.52451471,40.28029552,2998.92
-105.52452083,40.28029549,3004.73
-105.52457447,40.28029525,2989.66
-105.52457894,40.28029523,2992.05
-105.52463434,40.28029498,2986.85
-105.52476138,40.28029440,2992.75
-105.52476208,40.28029440,2993.71
-105.52476444,40.28029439,2990.77
-105.52477361,40.28029435,2983.12
-105.52477879,40.28029432,2993.11
-105.52478279,40.28029431,2989.94
-105.52478726,40.28029429,2995.19
-105.52488865,40.28029383,2979.33
-105.52489395,40.28029380,2990.67
-105.52490300,40.28029376,2987.93
-105.52493147,40.28029363,2977.14
-105.52497134,40.28029345,2975.50
-105.52497852,40.28029342,2982.06
-105.52507486,40.28029298,2981.83
-105.52507509,40.28029298,2976.08
-105.52508027,40.28029296,2982.81
-105.52515638,40.28029261,2968.68
-105.52516237,40.28029258,2968.53
-105.52522883,40.28029228,2966.29
-105.52523613,40.28029225,2966.15
-105.52529941,40.28029196,2969.32
-105.52530024,40.28029196,2964.08
-105.52530612,40.28029193,2970.43
-105.52530623,40.28029193,2968.65
-105.52530765,40.28029192,2969.84
-105.52530988,40.28029191,2968.90
-105.52531223,40.28029190,2967.75
-105.52532670,40.28029184,2963.08
-105.52534317,40.28029176,2962.63
-105.52535623,40.28029170,2962.26
-105.52540728,40.28029147,2959.67
-105.52552326,40.28029095,2958.41
-105.52552691,40.28029093,2958.20
-105.52552973,40.28029092,2957.62
-105.52553314,40.28029090,2957.21
-105.52554737,40.28029084,2960.11
-105.52555067,40.28029082,2954.47
-105.52555902,40.28029078,2952.93
-105.52556208,40.28029077,2952.51
-105.52559219,40.28029063,2960.85
-105.52566077,40.28029032,2951.25
-105.52567512,40.28029026,2947.71
-105.52571335,40.28029008,2949.31
-105.52584474,40.28028948,2947.43
-105.52589120,40.28028927,2941.71
-105.52589497,40.28028926,2941.50
-105.52592296,40.28028913,2937.20
-105.52612093,40.28028823,2932.64
-105.52614693,40.28028811,2932.01
-105.52618233,40.28028795,2930.95
-105.52630090,40.28028741,2928.81
-105.52644253,40.28028677,2926.70
-105.52659286,40.28028608,2924.86
-105.52661579,40.28028598,2924.51
-105.52666790,40.28028574,2928.66
-105.52666861,40.28028574,2923.92
-105.52673601,40.28028543,2923.11
-105.52683976,40.28028496,2931.11
-105.52684341,40.28028494,2931.14
-105.52685046,40.28028491,2930.20
-105.52690810,40.28028465,2920.94
-105.52691222,40.28028463,2920.81
-105.52691445,40.28028462,2920.82
-105.52703914,40.28028405,2920.42
-105.52704396,40.28028403,2920.28
-105.52709184,40.28028381,2920.16
-105.52715183,40.28028354,2926.84
-105.52716912,40.28028346,2920.23
-105.52717665,40.28028342,2919.48
-105.52727734,40.28028297,2917.78
-105.52740967,40.28028236,2916.81
-105.52748072,40.28028204,2918.44
-105.52749201,40.28028199,2917.15
-105.52768386,40.28028111,2920.11
-105.52769139,40.28028108,2918.57
-105.52769892,40.28028104,2917.35
-105.52790371,40.28028011,2916.29
-105.52791818,40.28028004,2927.72
-105.52800358,40.28027965,2914.86
-105.52814297,40.28027902,2923.59
-105.52814426,40.28027901,2925.32
-105.52823166,40.28027861,2923.25
-105.52824777,40.28027854,2920.37
-105.52825189,40.28027852,2920.38
-105.52829306,40.28027833,2914.65
-105.52830083,40.28027830,2912.67
-105.52836105,40.28027802,2916.31
-105.52836258,40.28027801,2915.72
-105.52837034,40.28027798,2912.67
-105.52852714,40.28027726,2922.37
-105.52854008,40.28027720,2920.71
-105.52854808,40.28027717,2919.11
-105.52855196,40.28027715,2918.57
-105.52875005,40.28027624,2910.37
-105.52885156,40.28027578,2918.45
-105.52888744,40.28027562,2909.40
-105.52892014,40.28027547,2909.40
-105.52907412,40.28027476,2909.40
-105.52908329,40.28027472,2917.69
-105.52916657,40.28027434,2918.89
-105.52921950,40.28027410,2910.21
-105.52923186,40.28027404,2910.16
-105.52931584,40.28027366,2922.34
-105.52932267,40.28027363,2920.35
-105.52934007,40.28027355,2911.94
-105.52934454,40.28027353,2910.64
-105.52934936,40.28027278,2910.69
-105.52935012,40.28026449,2911.28
-105.52934997,40.28024521,2912.81
-105.52934990,40.28023602,2918.67
-105.52934983,40.28022746,2909.77
-105.52934955,40.28019080,2924.90
-105.52934944,40.28017783,2924.78
-105.52934941,40.28017305,2920.66
-105.52934940,40.28017215,2909.76
-105.52934870,40.28008197,2907.01
-105.52934844,40.28004927,2912.64
-105.52934836,40.28003891,2906.07
-105.52934782,40.27996936,2916.57
-105.52934771,40.27995566,2903.79
-105.52934675,40.27983215,2902.39
-105.52934671,40.27982666,2900.33
-105.52934654,40.27980530,2899.70
-105.52934626,40.27977008,2906.95
-105.52934623,40.27976621,2909.23
-105.52934615,40.27975485,2901.18
-105.52934544,40.27966476,2899.37
-105.52934538,40.27965657,2900.25
-105.52934507,40.27961675,2894.82
-105.52934480,40.27958242,2893.81
-105.52934479,40.27958125,2903.15
-105.52934429,40.27951747,2891.71
-105.52934400,40.27948026,2899.10
-105.52934392,40.27947008,2900.58
-105.52934388,40.27946458,2902.17
-105.52934357,40.27942495,2889.07
-105.52934324,40.27938233,2895.64
-105.52934244,40.27927990,2885.76
-105.52934172,40.27918720,2883.78
-105.52933962,40.27891846,2878.48
-105.52933936,40.27888432,2877.81
-105.52933801,40.27871170,2873.61
-105.52933771,40.27867297,2873.19
-105.52933748,40.27864351,2871.85
-105.52933733,40.27862450,2871.24
-105.52933672,40.27854594,2869.07
-105.52933651,40.27851945,2868.34
-105.52933600,40.27845405,2866.50
-105.52933595,40.27844810,2876.44
-105.52933590,40.27844062,2868.96
-105.52933553,40.27839414,2874.67
-105.52933553,40.27839378,2873.08
-105.52933552,40.27839270,2867.08
-105.52933550,40.27839035,2865.11
-105.52933550,40.27838945,2865.08
-105.52933549,40.27838864,2873.78
-105.52933526,40.27835909,2875.52
-105.52933522,40.27835387,2873.96
-105.52933501,40.27832684,2864.91
-105.52933500,40.27832594,2869.97
-105.52933499,40.27832450,2870.03
-105.52933497,40.27832207,2870.89
-105.52933496,40.27831999,2863.31
-105.52933495,40.27831909,2866.15
-105.52933490,40.27831306,2873.36
-105.52933480,40.27829954,2867.75
-105.52933479,40.27829945,2862.78
-105.52933477,40.27829666,2864.20
-105.52933467,40.27828360,2875.56
-105.52933455,40.27826774,2870.46
-105.52933451,40.27826297,2874.03
-105.52933447,40.27825765,2867.23
-105.52933428,40.27823387,2860.25
-105.52933401,40.27819882,2858.82
-105.52933383,40.27817540,2858.07
-105.52933346,40.27812837,2868.33
-105.52933327,40.27810387,2868.15
-105.52933262,40.27802035,2871.66
-105.52933249,40.27800432,2856.20
-105.52933194,40.27793351,2855.67
-105.52933071,40.27777540,2854.74
-105.52933018,40.27770711,2853.70
-105.52932989,40.27767054,2852.79
-105.52932964,40.27763783,2857.07
-105.52932960,40.27763324,2856.92
-105.52932912,40.27757171,2853.13
-105.52932906,40.27756468,2863.34
-105.52932884,40.27753639,2850.46
-105.52932879,40.27752963,2850.34
-105.52932868,40.27751486,2850.17
-105.52932863,40.27750900,2850.23
-105.52932859,40.27750396,2859.39
-105.52932831,40.27746846,2866.70
-105.52932818,40.27745126,2855.01
-105.52932731,40.27733910,2847.19
-105.52932681,40.27727585,2846.23
-105.52932673,40.27726576,2855.75
-105.52932671,40.27726333,2861.81
-105.52932661,40.27724964,2848.93
-105.52932633,40.27721459,2855.04
-105.52932609,40.27718342,2844.73
-105.52932609,40.27718270,2844.73
-105.52932572,40.27713558,2855.18
-105.52932543,40.27709910,2851.72
-105.52932528,40.27707901,2856.84
-105.52932525,40.27707594,2847.54
-105.52932473,40.27700937,2841.99
-105.52932445,40.27697324,2849.57
-105.52932412,40.27693027,2840.90
-105.52932381,40.27689063,2851.90
-105.52932323,40.27681612,2838.56
-105.52932275,40.27675432,2846.97
-105.52932274,40.27675414,2850.43
-105.52932273,40.27675243,2837.79
-105.52932152,40.27659775,2838.11
-105.52931978,40.27637432,2834.56
-105.52931978,40.27637360,2840.17
-105.52931920,40.27630000,2837.13
-105.52931908,40.27628477,2831.53
-105.52931896,40.27626847,2833.22
-105.52931892,40.27626432,2832.52
-105.52931880,40.27624883,2829.32
-105.52931824,40.27617685,2828.33
-105.52931821,40.27617225,2843.88
-105.52931814,40.27616360,2842.99
-105.52931812,40.27616162,2830.89
-105.52931783,40.27612423,2827.23
-105.52931695,40.27601171,2825.44
-105.52931666,40.27597450,2824.91
-105.52931662,40.27596874,2841.54
-105.52931653,40.27595667,2836.71
-105.52931494,40.27575333,2821.69
-105.52931452,40.27569901,2833.92
-105.52931411,40.27564712,2819.21
-105.52931382,40.27561009,2818.72
-105.52931371,40.27559586,2822.15
-105.52931344,40.27556081,2827.97
-105.52931343,40.27555937,2819.51
-105.52931302,40.27550766,2826.85
-105.52931227,40.27541144,2815.94
-105.52931217,40.27539748,2815.70
-105.52931202,40.27537919,2815.34
-105.52931192,40.27536559,2830.48
-105.52931191,40.27536505,2832.48
-105.52931185,40.27535694,2833.75
-105.52931184,40.27535550,2833.64
-105.52931110,40.27526036,2812.94
-105.52931100,40.27524757,2812.78
-105.52931060,40.27519694,2819.55
-105.52931055,40.27519063,2821.42
-105.52931032,40.27516135,2825.05
-105.52931012,40.27513505,2819.23
-105.52931011,40.27513352,2820.51
-105.52930989,40.27510505,2812.76
-105.52930925,40.27502306,2802.99
-105.52930924,40.27502180,2807.98
-105.52930899,40.27499081,2802.43
-105.52930863,40.27494361,2816.11
-105.52930855,40.27493433,2814.13
-105.52930852,40.27492937,2807.63
-105.52930850,40.27492793,2807.48
-105.52930850,40.27492694,2807.55
-105.52930846,40.27492234,2811.70
-105.52930844,40.27491919,2801.52
-105.52930838,40.27491162,2801.51
-105.52930806,40.27487036,2812.66
-105.52930735,40.27477982,2810.35
-105.52930705,40.27474099,2804.99
-105.52930638,40.27465541,2813.71
-105.52930619,40.27463072,2800.90
-105.52930585,40.27458784,2809.63
-105.52930584,40.27458586,2797.53
-105.52930580,40.27458054,2808.42
-105.52930570,40.27456811,2811.78
-105.52930508,40.27448820,2795.71
-105.52930498,40.27447649,2795.50
-105.52930453,40.27441874,2809.56
-105.52930439,40.27439973,2809.37
-105.52930416,40.27437063,2793.98
-105.52930320,40.27424820,2792.60
-105.52930319,40.27424676,2792.56
-105.52930314,40.27424018,2800.69
-105.52930253,40.27416163,2797.29
-105.52930197,40.27409054,2789.04
-105.52930089,40.27395109,2787.06
-105.52930001,40.27383811,2794.69
-105.52929978,40.27380856,2798.62
-105.52929850,40.27364487,2792.08
-105.52929800,40.27358019,2783.13
-105.52929790,40.27356784,2795.06
-105.52929758,40.27352685,2799.44
-105.52929740,40.27350325,2792.32
-105.52929708,40.27346316,2796.25
-105.52929667,40.27341046,2781.26
-105.52929557,40.27326865,2777.46
-105.52929535,40.27324118,2779.37
-105.52929487,40.27317883,2787.07
-105.52929437,40.27311577,2780.56
-105.52929367,40.27302514,2779.65
-105.52929323,40.27296956,2783.40
-105.52929321,40.27296586,2782.60
-105.52929317,40.27296082,2781.48
-105.52929297,40.27293586,2783.26
-105.52929295,40.27293289,2772.42
-105.52929278,40.27291064,2783.58
-105.52929272,40.27290397,2783.01
-105.52929215,40.27283100,2779.68
-105.52929212,40.27282595,2780.65
-105.52929058,40.27262938,2774.72
-105.52929019,40.27257857,2764.49
-105.52928967,40.27251235,2774.70
-105.52928947,40.27248658,2771.73
-105.52928876,40.27239550,2773.41
-105.52928834,40.27234145,2773.11
-105.52928750,40.27223352,2767.33
-105.52928750,40.27223343,2770.92
-105.52928740,40.27222091,2773.92
-105.52928677,40.27214073,2760.23
-105.52928524,40.27194361,2769.62
-105.52928513,40.27193028,2768.24
-105.52928496,40.27190758,2757.45
-105.52928472,40.27187776,2763.10
-105.52928446,40.27184352,2756.68
-105.52928380,40.27175929,2755.65
-105.52928263,40.27160875,2758.09
-105.52928222,40.27155650,2760.96
-105.52928130,40.27143929,2752.71
-105.52928090,40.27138731,2752.20
-105.52928054,40.27134154,2751.74
-105.52927972,40.27126677,2750.90
-105.52927183,40.27126482,2750.96
-105.52918879,40.27126502,2762.75
-105.52918185,40.27126505,2755.36
-105.52914963,40.27126520,2753.44
-105.52914798,40.27126521,2756.36
-105.52911070,40.27126538,2758.35
-105.52902272,40.27126578,2760.29
-105.52902237,40.27126578,2761.36
-105.52892228,40.27126624,2764.46
-105.52877703,40.27126690,2770.01
-105.52875351,40.27126701,2770.82
-105.52863672,40.27126754,2778.95
-105.52863660,40.27126754,2777.34
-105.52862895,40.27126758,2775.41
-105.52859720,40.27126772,2783.47
-105.52859508,40.27126773,2784.66
-105.52859132,40.27126775,2787.02
-105.52857368,40.27126783,2786.28
-105.52855803,40.27126790,2780.37
-105.52836209,40.27126880,2786.52
-105.52828258,40.27126916,2794.37
-105.52826330,40.27126925,2787.37
-105.52823977,40.27126936,2787.72
-105.52813533,40.27126983,2793.71
-105.52812169,40.27126990,2789.16
-105.52809546,40.27127002,2789.24
-105.52806371,40.27127016,2793.48
-105.52805759,40.27127019,2789.77
-105.52792057,40.27127081,2798.46
-105.52788211,40.27127099,2792.35
-105.52785047,40.27127113,2792.95
-105.52784012,40.27127118,2798.05
-105.52781895,40.27127128,2793.16
-105.52776815,40.27127151,2798.61
-105.52768135,40.27127190,2799.44
-105.52767394,40.27127194,2803.18
-105.52766759,40.27127197,2803.50
-105.52762089,40.27127218,2803.19
-105.52757655,40.27127238,2796.50
-105.52754550,40.27127252,2796.90
-105.52743977,40.27127301,2798.18
-105.52739813,40.27127320,2798.78
-105.52735709,40.27127338,2799.39
-105.52726194,40.27127382,2801.18
-105.52722948,40.27127396,2808.50
-105.52722854,40.27127397,2803.81
-105.52709869,40.27127456,2809.86
-105.52696932,40.27127515,2821.69
-105.52676667,40.27127607,2825.03
-105.52661260,40.27127677,2822.41
-105.52657531,40.27127694,2822.99
-105.52649310,40.27127732,2824.32
-105.52644770,40.27127752,2832.55
-105.52644735,40.27127753,2829.91
-105.52633703,40.27127803,2827.82
-105.52631751,40.27127812,2835.71
-105.52627587,40.27127831,2829.56
-105.52608957,40.27127915,2837.71
-105.52608922,40.27127915,2835.56
-105.52606370,40.27127927,2836.16
-105.52604017,40.27127938,2837.06
-105.52595255,40.27127978,2839.93
-105.52567840,40.27128102,2854.37
-105.52563970,40.27128120,2851.55
-105.52552691,40.27128171,2858.26
-105.52552174,40.27128173,2855.90
-105.52519148,40.27128323,2867.55
-105.52503940,40.27128392,2876.39
-105.52498730,40.27128416,2880.64
-105.52493861,40.27128438,2884.45
-105.52486710,40.27128470,2888.98
-105.52467139,40.27128559,2904.57
-105.52459918,40.27128592,2899.66
-105.52449191,40.27128641,2903.29
-105.52413978,40.27128800,2894.41
-105.52405404,40.27128839,2891.98
-105.52403005,40.27128850,2889.54
-105.52392714,40.27128896,2889.99
-105.52364051,40.27129026,2886.66
-105.52356783,40.27129059,2892.91
-105.52341611,40.27129128,2891.75
-105.52331284,40.27129174,2887.76
-105.52330861,40.27129176,2887.75
-105.52322216,40.27129215,2888.03
-105.52288403,40.27129368,2891.62
-105.52271654,40.27129444,2892.17
-105.52259752,40.27129498,2884.18
-105.52240522,40.27129584,2878.07
-105.52238946,40.27129592,2880.06
-105.52237182,40.27129600,2867.33
-105.52200287,40.27129766,2854.40
-105.52188184,40.27129821,2850.22
-105.52187973,40.27129822,2850.22
-105.52183903,40.27129840,2850.19
-105.52175364,40.27129878,2848.05
-105.52173741,40.27129886,2847.48
-105.52141151,40.27130033,2845.76
-105.52108172,40.27130181,2862.96
-105.52098657,40.27130224,2850.90
-105.52081391,40.27130302,2866.31
-105.52072241,40.27130343,2862.37
-105.52058033,40.27130407,2877.75
-105.52045990,40.27130461,2879.68
-105.52025337,40.27130554,2875.02
-105.52001673,40.27130660,2883.29
-105.51994264,40.27130694,2885.46
-105.51979856,40.27130758,2893.77
-105.51971235,40.27130797,2906.55
-105.51960238,40.27130846,2903.25
-105.51958838,40.27130853,2903.52
-105.51955863,40.27130866,2899.99
-105.51946360,40.27130909,2906.29
-105.51944184,40.27130919,2911.22
-105.51943666,40.27130921,2909.05
-105.51933022,40.27130969,2916.02
-105.51921273,40.27131021,2918.14
-105.51912534,40.27131061,2924.55
-105.51912381,40.27131061,2930.11
-105.51912311,40.27131062,2926.08
-105.51903043,40.27131103,2933.03
-105.51901608,40.27131110,2928.73
-105.51893939,40.27131144,2931.99
-105.51875474,40.27131227,2943.20
-105.51875215,40.27131228,2941.94
-105.51873498,40.27131236,2940.94
-105.51871252,40.27131246,2941.98
-105.51865230,40.27131273,2957.69
-105.51864148,40.27131278,2959.87
-105.51861631,40.27131289,2947.56
-105.51843142,40.27131372,2967.57
-105.51831946,40.27131422,2963.66
-105.51819373,40.27131478,2971.30
-105.51810505,40.27131518,2975.03
-105.51810352,40.27131519,2976.21
-105.51770928,40.27131695,2999.45
-105.51758731,40.27131768,3009.81
-105.51753580,40.27131854,3008.87
-105.51752441,40.27132084,3009.15
-105.51751878,40.27132204,3009.35
-105.51751943,40.27140753,3012.73
-105.51751956,40.27142537,3010.06
-105.51752084,40.27159267,3009.82
-105.51752273,40.27184078,3018.21
-105.51752291,40.27186420,3012.69
-105.51752396,40.27200168,3007.38
-105.51752417,40.27202933,3009.73
-105.51752424,40.27203843,3006.58
-105.51752489,40.27212447,3003.74
-105.51752576,40.27223825,2999.99
-105.51752655,40.27234159,3004.29
-105.51752798,40.27253005,3011.14
-105.51752821,40.27255915,3001.95
-105.51752898,40.27266014,3003.75
-105.51753070,40.27288645,3001.83
-105.51753208,40.27306672,3015.62
-105.51753515,40.27346987,3022.24
-105.51753517,40.27347312,3019.75
-105.51753522,40.27347933,3006.26
-105.51753687,40.27369591,3025.88
-105.51753689,40.27369888,3014.11
-105.51753742,40.27376771,3031.75
-105.51753827,40.27387951,3035.81
-105.51753854,40.27391519,3037.33
-105.51753902,40.27397717,3031.38
-105.51753903,40.27397924,3031.50
-105.51753909,40.27398627,3031.75
-105.51753916,40.27399573,3032.57
-105.51754051,40.27417276,3052.73
-105.51754058,40.27418222,3054.12
-105.51754112,40.27425303,3060.27
-105.51754168,40.27432681,3066.44
-105.51754289,40.27448510,3079.63
-105.51754324,40.27453069,3083.06
-105.51754336,40.27454690,3088.80
-105.51754342,40.27455438,3087.66
-105.51754346,40.27456041,3086.75
-105.51754350,40.27456483,3085.34
-105.51754356,40.27457375,3091.56
-105.51754375,40.27459825,3087.76
-105.51754450,40.27469672,3094.69
-105.51754471,40.27472366,3096.54
-105.51754497,40.27475861,3098.80
-105.51754546,40.27482294,3104.45
-105.51754587,40.27487564,3106.00
-105.51754631,40.27493357,3110.27
-105.51754631,40.27493402,3110.33
-105.51754640,40.27494600,3115.91
-105.51754730,40.27506402,3117.25
-105.51754870,40.27524771,3140.47
-105.51754870,40.27524807,3141.09
-105.51755030,40.27545717,3150.40
-105.51755040,40.27547023,3144.65
-105.51755083,40.27552663,3147.66
-105.51755170,40.27564059,3164.90
-105.51755177,40.27565069,3157.95
-105.51755195,40.27567321,3164.76
-105.51755215,40.27570023,3156.78
-105.51755232,40.27572213,3158.00
-105.51755250,40.27574564,3165.54
-105.51755269,40.27577105,3160.63
-105.51755303,40.27581537,3163.33
-105.51755303,40.27581582,3166.36
-105.51755433,40.27598645,3179.60
-105.51755436,40.27598987,3179.80
-105.51755442,40.27599762,3182.89
-105.51755445,40.27600159,3184.15
-105.51755542,40.27612861,3183.47
-105.51755736,40.27638357,3205.17
-105.51755768,40.27642456,3206.39
-105.51755796,40.27646177,3215.31
-105.51755802,40.27646978,3210.54
-105.51755843,40.27652312,3211.56
-105.51755868,40.27655609,3212.98
-105.51755871,40.27656014,3213.02
-105.51755887,40.27658131,3217.34
-105.51755891,40.27658645,3222.47
-105.51755913,40.27661564,3218.66
-105.51755918,40.27662249,3223.30
-105.51755919,40.27662330,3223.14
-105.51755934,40.27664240,3216.71
-105.51755974,40.27669492,3221.19
-105.51755995,40.27672348,3222.77
-105.51756131,40.27690104,3236.18
-105.51756168,40.27694924,3234.76
-105.51756221,40.27701915,3238.83
-105.51756317,40.27714483,3250.55
-105.51756344,40.27718086,3246.57
-105.51756372,40.27721717,3251.31
-105.51756402,40.27725708,3256.10
-105.51756405,40.27726023,3256.30
-105.51756413,40.27727167,3259.70
-105.51756418,40.27727762,3254.91
-105.51756449,40.27731861,3256.65
-105.51756476,40.27735348,3262.93
-105.51756481,40.27736023,3258.98
-105.51756522,40.27741375,3261.77
-105.51756529,40.27742348,3270.14
-105.51756530,40.27742519,3270.48
-105.51756557,40.27745969,3264.20
-105.51756592,40.27750555,3265.47
-105.51756761,40.27772780,3275.61
-105.51756781,40.27775339,3273.53
-105.51756836,40.27782600,3276.48
-105.51757035,40.27808690,3281.36
-105.51757051,40.27810843,3281.32
-105.51757081,40.27814672,3281.95
-105.51757084,40.27815167,3287.69
-105.51757089,40.27815780,3289.14
-105.51757096,40.27816726,3287.12
-105.51757123,40.27820285,3282.34
-105.51757159,40.27824888,3282.93
-105.51757198,40.27830023,3285.58
-105.51757323,40.27846402,3286.95
-105.51757337,40.27848230,3286.78
-105.51757390,40.27855266,3288.06
-105.51757460,40.27864366,3287.43
-105.51757490,40.27868329,3288.97
-105.51757571,40.27879023,3291.95
-105.51757601,40.27882915,3302.90
-105.51757610,40.27884059,3296.94
-105.51757612,40.27884347,3294.16
-105.51757615,40.27884717,3294.27
-105.51757620,40.27885474,3294.42
-105.51757741,40.27901275,3306.53
-105.51757747,40.27902077,3307.71
-105.51757750,40.27902429,3310.18
-105.51757766,40.27904546,3314.76
-105.51757768,40.27904789,3309.83
-105.51757821,40.27911762,3312.26
-105.51757863,40.27917302,3314.26
-105.51757870,40.27918140,3319.37
-105.51757884,40.27920023,3316.84
-105.51757903,40.27922519,3326.80
-105.51757906,40.27922906,3319.30
-105.51757948,40.27928420,3324.74
-105.51757981,40.27932780,3326.06
-105.51757987,40.27933546,3328.04
-105.51757990,40.27933969,3326.46
-105.51758039,40.27940320,3327.58
-105.51758055,40.27942428,3327.69
-105.51758128,40.27951978,3325.56
-105.51758210,40.27962816,3327.92
-105.51758238,40.27966419,3328.32
-105.51758277,40.27971600,3323.22
-105.51758333,40.27978852,3319.15
-105.51758345,40.27980501,3317.13
-105.51758565,40.28009329,3299.51
-105.51758583,40.28011654,3298.32
-105.51758584,40.28011798,3298.24
-105.51758621,40.28016690,3295.34
-105.51758754,40.28032518,3288.69
-105.51763907,40.28032649,3285.33
-105.51783375,40.28032561,3274.19
-105.51795549,40.28032507,3267.30
-105.51807112,40.28032455,3260.21
-105.51825156,40.28032374,3250.15
-105.51825886,40.28032371,3249.39
-105.51857810,40.28032228,3231.66
-105.51858245,40.28032226,3231.43
-105.51858681,40.28032224,3231.42
-105.51859104,40.28032222,3231.21
-105.51859998,40.28032218,3230.99
-105.51901521,40.28032032,3207.52
-105.51910731,40.28031991,3201.57
-105.51921447,40.28031943,3198.30
-105.51927517,40.28031915,3196.60
-105.51928517,40.28031911,3196.24
-105.51938033,40.28031868,3194.00
-105.51939362,40.28031862,3192.17
-105.51941244,40.28031854,3192.49
-105.51943020,40.28031846,3187.41
-105.51955254,40.28031791,3179.65
-105.51961841,40.28031761,3178.28
-105.51962535,40.28031758,3177.40
-105.51963511,40.28031754,3176.07
-105.51986473,40.28031651,3179.01
-105.51989919,40.28031635,3169.12
-105.52001153,40.28031585,3157.39
-105.52026819,40.28031469,3158.02
-105.52030042,40.28031455,3162.13
-105.52033430,40.28031440,3156.14
-105.52034806,40.28031433,3143.59
-105.52035900,40.28031429,3154.45
-105.52049698,40.28031366,3136.07
-105.52056509,40.28031336,3149.06
-105.52060720,40.28031317,3138.10
-105.52068260,40.28031283,3140.61
-105.52069589,40.28031277,3135.45
-105.52069954,40.28031275,3144.97
-105.52071342,40.28031269,3136.47
-105.52083210,40.28031216,3134.62
-105.52111877,40.28031087,3112.11
-105.52112430,40.28031084,3111.99
-105.52121840,40.28031042,3109.59
-105.52129909,40.28031005,3116.92
-105.52132897,40.28030992,3105.64
-105.52133473,40.28030989,3105.45
-105.52134026,40.28030987,3105.22
-105.52134591,40.28030984,3105.07
-105.52135132,40.28030982,3104.89
-105.52135661,40.28030979,3104.76
-105.52136202,40.28030977,3104.63
-105.52139896,40.28030960,3109.97
-105.52144095,40.28030941,3102.06
-105.52144625,40.28030939,3101.90
-105.52146295,40.28030932,3101.35
-105.52147483,40.28030926,3100.96
-105.52151506,40.28030908,3110.18
-105.52152659,40.28030903,3109.88
-105.52158693,40.28030876,3096.66
-105.52161716,40.28030862,3107.02
-105.52181301,40.28030774,3090.77
-105.52183548,40.28030764,3087.84
-105.52198699,40.28030695,3085.02
-105.52207085,40.28030657,3085.35
-105.52207215,40.28030657,3080.63
-105.52207450,40.28030656,3085.07
-105.52215437,40.28030620,3090.57
-105.52225730,40.28030573,3074.37
-105.52236010,40.28030527,3070.97
-105.52241821,40.28030501,3069.20
-105.52242151,40.28030499,3068.88
-105.52255207,40.28030440,3067.39
-105.52276192,40.28030345,3056.70
-105.52278463,40.28030335,3071.18
-105.52281003,40.28030324,3059.73
     </coordinates>
    </LineString>
   </MultiGeometry>
  </Placemark>
 </Document>
</kml>
