<kml>
 <Document>
  <Style id="yellow">
   <LineStyle>
   <color>ff00ffff</color>
   <width>1</width>
   </LineStyle>
  </Style>
  <Style id="red">
   <LineStyle>
   <color>ffff0000</color>
   <width>2</width>
   </LineStyle>
  </Style>
  <Style id="green">
   <LineStyle>
   <color>ff00ff00</color>
   <width>1</width>
   </LineStyle>
  </Style>
  <Placemark>
  <styleUrl>#yellow</styleUrl>
   <MultiGeometry>
    <LineString>
     <coordinates>
-105.48751894,40.24441996,2737.84
-105.48752987,40.24441991,2741.21
-105.48762075,40.24441953,2735.52
-105.48772010,40.24441911,2739.99
-105.48772609,40.24441908,2732.69
-105.48773726,40.24441904,2739.29
-105.48777488,40.24441888,2734.43
-105.48782567,40.24441866,2730.30
-105.48783849,40.24441861,2730.03
-105.48788398,40.24441842,2736.15
-105.48788657,40.24441841,2735.36
-105.48789233,40.24441838,2732.03
-105.48790421,40.24441833,2732.43
-105.48797087,40.24441805,2728.05
-105.48802412,40.24441783,2730.15
-105.48802765,40.24441781,2734.74
-105.48806868,40.24441764,2734.50
-105.48810019,40.24441751,2725.09
-105.48810689,40.24441748,2731.11
-105.48810724,40.24441748,2730.60
-105.48811136,40.24441746,2724.94
-105.48812206,40.24441741,2731.34
-105.48812347,40.24441741,2732.87
-105.48813358,40.24441737,2732.65
-105.48813570,40.24441736,2734.32
-105.48813852,40.24441735,2724.72
-105.48814451,40.24441732,2733.53
-105.48814604,40.24441731,2729.00
-105.48814804,40.24441731,2733.56
-105.48814922,40.24441730,2724.66
-105.48819295,40.24441712,2731.12
-105.48819754,40.24441710,2728.98
-105.48819777,40.24441710,2724.04
-105.48819977,40.24441709,2728.06
-105.48823657,40.24441693,2724.56
-105.48827443,40.24441677,2723.27
-105.48833744,40.24441651,2722.90
-105.48836977,40.24441637,2722.78
-105.48837024,40.24441637,2722.80
-105.48837142,40.24441636,2722.77
-105.48839211,40.24441628,2726.57
-105.48841492,40.24441618,2728.33
-105.48841527,40.24441618,2728.31
-105.48842080,40.24441615,2728.16
-105.48842679,40.24441613,2727.19
-105.48843279,40.24441610,2725.95
-105.48844666,40.24441604,2723.66
-105.48844854,40.24441604,2722.42
-105.48851485,40.24441576,2720.28
-105.48852567,40.24441571,2720.24
-105.48853895,40.24441566,2720.00
-105.48856164,40.24441556,2726.91
-105.48858598,40.24441546,2718.14
-105.48859538,40.24441542,2717.75
-105.48860338,40.24441538,2717.50
-105.48861690,40.24441533,2717.06
-105.48864817,40.24441519,2719.36
-105.48865146,40.24441518,2716.19
-105.48878772,40.24441461,2712.81
-105.48883346,40.24441441,2715.70
-105.48883628,40.24441440,2711.85
-105.48907964,40.24441337,2710.44
-105.48911150,40.24441324,2703.33
-105.48914760,40.24441309,2702.75
-105.48915359,40.24441306,2706.88
-105.48923036,40.24441274,2705.61
-105.48923225,40.24441273,2703.44
-105.48923366,40.24441272,2700.77
-105.48924847,40.24441266,2698.90
-105.48930808,40.24441241,2696.17
-105.48931854,40.24441236,2700.13
-105.48939049,40.24441206,2693.18
-105.48944822,40.24441181,2693.61
-105.48972274,40.24441065,2678.90
-105.48981338,40.24441027,2679.34
-105.48981538,40.24441026,2681.36
-105.48981597,40.24441026,2675.09
-105.48985676,40.24441009,2676.72
-105.48992166,40.24440981,2670.92
-105.48998691,40.24440953,2673.82
-105.48998973,40.24440952,2673.74
-105.49008672,40.24440911,2663.28
-105.49009907,40.24440906,2665.68
-105.49013058,40.24440893,2666.24
-105.49015350,40.24440883,2664.49
-105.49018701,40.24440869,2658.95
-105.49027730,40.24440830,2660.87
-105.49041274,40.24440773,2657.41
-105.49051185,40.24440731,2656.98
-105.49056264,40.24440710,2649.70
-105.49059991,40.24440694,2649.22
-105.49071406,40.24440645,2653.46
-105.49075604,40.24440628,2652.43
-105.49081317,40.24440603,2647.82
-105.49084092,40.24440592,2649.24
-105.49086526,40.24440581,2650.16
-105.49089676,40.24440568,2647.96
-105.49102327,40.24440514,2644.05
-105.49106806,40.24440495,2643.86
-105.49117939,40.24440448,2642.03
-105.49120173,40.24440438,2641.68
-105.49126910,40.24440410,2640.47
-105.49130696,40.24440394,2639.58
-105.49156819,40.24440283,2634.20
-105.49162897,40.24440257,2632.87
-105.49169199,40.24440230,2631.62
-105.49171926,40.24440219,2631.15
-105.49175442,40.24440204,2630.69
-105.49176664,40.24440199,2630.32
-105.49180697,40.24440181,2637.68
-105.49200918,40.24440095,2639.63
-105.49202212,40.24440090,2631.09
-105.49206185,40.24440073,2629.79
-105.49210818,40.24440053,2627.82
-105.49212746,40.24440045,2627.60
-105.49214638,40.24440037,2626.95
-105.49223527,40.24439999,2624.50
-105.49229358,40.24439975,2629.42
-105.49230193,40.24439971,2623.19
-105.49234872,40.24439951,2629.14
-105.49246734,40.24439901,2635.77
-105.49246864,40.24439900,2628.53
-105.49252848,40.24439875,2628.11
-105.49256716,40.24439858,2620.05
-105.49257562,40.24439855,2633.63
-105.49260466,40.24439842,2634.10
-105.49260878,40.24439840,2633.67
-105.49265757,40.24439820,2633.44
-105.49268108,40.24439810,2626.70
-105.49275268,40.24439779,2620.89
-105.49279030,40.24439763,2631.23
-105.49285943,40.24439734,2633.13
-105.49286672,40.24439731,2632.90
-105.49287589,40.24439727,2621.38
-105.49288189,40.24439724,2638.42
-105.49288823,40.24439721,2636.82
-105.49291845,40.24439709,2632.26
-105.49292539,40.24439706,2622.40
-105.49298264,40.24439681,2636.96
-105.49302602,40.24439663,2627.45
-105.49302920,40.24439661,2630.14
-105.49303660,40.24439658,2624.48
-105.49306059,40.24439648,2624.82
-105.49320543,40.24439586,2626.48
-105.49343081,40.24439490,2633.86
-105.49343351,40.24439489,2628.05
-105.49358212,40.24439426,2628.39
-105.49373366,40.24439361,2628.33
-105.49379867,40.24439297,2627.93
-105.49379925,40.24439135,2627.94
-105.49379914,40.24436063,2627.49
-105.49379824,40.24423603,2625.58
-105.49379786,40.24418387,2633.55
-105.49379785,40.24418252,2632.45
-105.49379755,40.24414171,2623.54
-105.49379705,40.24407261,2622.59
-105.49379685,40.24404513,2631.98
-105.49379682,40.24404153,2622.15
-105.49379653,40.24400116,2621.66
-105.49379648,40.24399450,2627.19
-105.49379632,40.24397252,2630.77
-105.49379625,40.24396207,2626.07
-105.49379623,40.24395963,2626.60
-105.49379620,40.24395603,2629.43
-105.49379610,40.24394270,2626.83
-105.49379601,40.24392981,2621.00
-105.49379601,40.24392927,2620.99
-105.49379595,40.24392152,2621.04
-105.49379594,40.24391990,2621.01
-105.49379593,40.24391900,2621.00
-105.49379577,40.24389693,2620.90
-105.49379576,40.24389495,2620.87
-105.49379419,40.24367855,2620.48
-105.49379388,40.24363702,2619.97
-105.49379290,40.24350143,2618.10
-105.49379284,40.24349323,2625.10
-105.49379284,40.24349305,2625.20
-105.49379282,40.24349008,2626.23
-105.49379281,40.24348891,2617.90
-105.49379272,40.24347729,2628.29
-105.49379243,40.24343738,2626.99
-105.49379220,40.24340467,2627.18
-105.49379180,40.24335044,2616.39
-105.49379167,40.24333242,2620.93
-105.49379129,40.24328053,2623.76
-105.49379100,40.24323954,2615.44
-105.49379021,40.24313170,2613.67
-105.49378989,40.24308782,2612.87
-105.49378929,40.24300521,2611.57
-105.49378905,40.24297107,2618.85
-105.49378859,40.24290872,2610.08
-105.49378827,40.24286467,2609.08
-105.49378809,40.24283917,2615.06
-105.49378677,40.24265836,2604.95
-105.49378662,40.24263746,2604.52
-105.49378654,40.24262566,2604.43
-105.49378636,40.24260169,2608.05
-105.49378627,40.24258953,2603.87
-105.49378594,40.24254412,2603.05
-105.49378578,40.24252097,2603.85
-105.49378554,40.24248872,2609.28
-105.49378554,40.24248827,2609.28
-105.49378549,40.24248115,2607.77
-105.49378544,40.24247548,2605.48
-105.49378540,40.24246998,2606.01
-105.49378534,40.24246097,2601.35
-105.49378438,40.24232935,2598.86
-105.49378335,40.24218700,2596.02
-105.49378330,40.24218079,2595.87
-105.49378275,40.24210448,2594.64
-105.49378189,40.24198664,2599.48
-105.49378165,40.24195367,2598.78
-105.49378103,40.24186799,2595.47
-105.49378065,40.24181619,2590.98
-105.49378053,40.24179889,2594.38
-105.49378023,40.24175844,2600.54
-105.49377970,40.24168448,2592.17
-105.49377884,40.24156691,2582.81
-105.49377771,40.24141123,2577.85
-105.49377718,40.24133736,2580.89
-105.49377694,40.24130547,2584.73
-105.49377668,40.24126880,2573.14
-105.49377547,40.24110222,2568.24
-105.49377538,40.24109006,2567.55
-105.49377521,40.24106645,2567.01
-105.49377466,40.24099150,2564.97
-105.49377453,40.24097348,2565.75
-105.49377441,40.24095654,2571.23
-105.49377441,40.24095627,2571.29
-105.49377440,40.24095501,2564.04
-105.49377410,40.24091429,2570.26
-105.49377382,40.24087555,2562.13
-105.49377373,40.24086312,2561.87
-105.49377365,40.24085258,2561.69
-105.49377346,40.24082591,2561.13
-105.49377337,40.24081321,2560.86
-105.49377313,40.24078105,2560.23
-105.49377215,40.24064627,2557.84
-105.49377206,40.24063330,2569.97
-105.49377206,40.24063321,2568.23
-105.49377204,40.24063059,2567.16
-105.49377185,40.24060447,2564.77
-105.49377183,40.24060168,2557.08
-105.49377169,40.24058258,2556.63
-105.49377149,40.24055456,2556.22
-105.49377143,40.24054654,2556.06
-105.49377129,40.24052735,2555.67
-105.49377087,40.24046924,2554.65
-105.49377068,40.24044375,2554.24
-105.49377050,40.24041807,2553.58
-105.49377040,40.24040420,2556.15
-105.49377035,40.24039744,2554.90
-105.49377032,40.24039420,2557.82
-105.49377026,40.24038546,2556.19
-105.49377025,40.24038384,2557.82
-105.49376963,40.24029834,2551.11
-105.49376953,40.24028456,2550.74
-105.49376870,40.24017041,2554.38
-105.49376863,40.24016140,2551.66
-105.49376841,40.24013032,2549.19
-105.49376819,40.24010113,2553.20
-105.49376817,40.24009708,2552.43
-105.49376779,40.24004491,2548.94
-105.49376688,40.23992068,2549.91
-105.49376657,40.23987815,2547.86
-105.49376639,40.23985293,2556.06
-105.49376570,40.23975788,2546.67
-105.49376553,40.23973410,2546.64
-105.49376479,40.23963311,2545.85
-105.49376318,40.23941103,2544.26
-105.49376281,40.23936049,2543.91
-105.49376268,40.23934238,2543.68
-105.49376174,40.23921310,2542.75
-105.49376159,40.23919265,2550.46
-105.49376141,40.23916680,2545.38
-105.49376131,40.23915373,2542.39
-105.49376130,40.23915256,2542.38
-105.49376124,40.23914337,2544.18
-105.49376117,40.23913382,2548.06
-105.49376110,40.23912499,2551.66
-105.49376071,40.23907049,2545.92
-105.49376048,40.23903887,2542.18
-105.49376015,40.23899418,2549.19
-105.49375982,40.23894788,2541.87
-105.49375936,40.23888463,2541.24
-105.49375853,40.23877013,2548.11
-105.49375821,40.23872697,2555.68
-105.49375744,40.23862013,2550.30
-105.49375724,40.23859283,2544.61
-105.49375619,40.23844904,2539.26
-105.49375587,40.23840409,2544.24
-105.49375498,40.23828219,2539.29
-105.49375460,40.23822949,2547.22
-105.49375452,40.23821868,2547.91
-105.49375423,40.23817922,2538.14
-105.49375404,40.23815309,2537.82
-105.49375404,40.23815210,2537.78
-105.49375400,40.23814670,2537.76
-105.49375361,40.23809282,2548.06
-105.49375331,40.23805264,2545.79
-105.49375326,40.23804589,2548.33
-105.49375277,40.23797841,2546.98
-105.49375256,40.23794868,2536.50
-105.49375230,40.23791282,2536.23
-105.49375230,40.23791273,2544.30
-105.49375153,40.23780651,2542.36
-105.49375116,40.23775633,2546.01
-105.49375061,40.23768093,2541.76
-105.49375055,40.23767174,2548.93
-105.49374979,40.23756750,2532.76
-105.49374968,40.23755228,2532.72
-105.49374966,40.23755029,2532.72
-105.49374946,40.23752183,2545.41
-105.49374945,40.23752038,2541.54
-105.49374942,40.23751678,2545.11
-105.49374930,40.23749993,2543.19
-105.49374927,40.23749534,2541.18
-105.49374900,40.23745921,2532.44
-105.49374889,40.23744372,2532.41
-105.49374884,40.23743687,2532.36
-105.49374869,40.23741615,2532.32
-105.49374858,40.23740119,2532.24
-105.49374850,40.23739011,2532.09
-105.49374843,40.23738047,2532.15
-105.49374842,40.23737930,2532.16
-105.49374842,40.23737849,2532.20
-105.49374800,40.23732146,2534.84
-105.49374798,40.23731786,2540.54
-105.49374790,40.23730750,2538.69
-105.49374788,40.23730525,2536.42
-105.49374737,40.23723381,2529.54
-105.49374633,40.23709110,2527.64
-105.49374623,40.23707705,2527.28
-105.49374590,40.23703263,2526.84
-105.49374514,40.23692750,2531.64
-105.49374489,40.23689263,2528.56
-105.49374306,40.23664101,2521.31
-105.49374302,40.23663497,2524.93
-105.49374292,40.23662110,2520.42
-105.49374224,40.23652839,2516.23
-105.49374178,40.23646515,2525.09
-105.49374174,40.23645938,2526.87
-105.49374172,40.23645704,2523.95
-105.49374162,40.23644263,2514.65
-105.49374159,40.23643857,2520.66
-105.49374141,40.23641389,2521.03
-105.49374083,40.23633434,2512.25
-105.49374022,40.23625037,2514.15
-105.49374011,40.23623461,2510.52
-105.49373955,40.23615776,2509.35
-105.49373915,40.23610307,2508.36
-105.49373858,40.23602478,2507.14
-105.49373858,40.23602361,2507.15
-105.49373840,40.23599974,2510.83
-105.49373837,40.23599523,2514.24
-105.49373786,40.23592559,2510.34
-105.49373719,40.23583271,2503.42
-105.49373668,40.23576226,2504.12
-105.49373658,40.23574875,2503.98
-105.49373628,40.23570811,2510.01
-105.49373549,40.23559901,2503.48
-105.49373545,40.23559343,2503.51
-105.49373477,40.23549928,2505.47
-105.49373446,40.23545631,2504.12
-105.49373441,40.23544937,2504.20
-105.49373310,40.23539893,2504.79
-105.49373266,40.23538649,2513.54
-105.49373135,40.23538497,2505.06
-105.49372277,40.23538437,2514.78
-105.49368785,40.23538452,2527.21
-105.49368245,40.23538455,2509.65
-105.49366787,40.23538461,2526.15
-105.49365882,40.23538465,2524.16
-105.49359510,40.23538492,2526.27
-105.49350541,40.23538530,2512.81
-105.49345216,40.23538553,2513.45
-105.49338798,40.23538580,2524.21
-105.49334484,40.23538599,2526.06
-105.49310585,40.23538700,2527.44
-105.49299359,40.23538748,2531.93
-105.49295374,40.23538765,2533.48
-105.49287710,40.23538798,2537.14
-105.49277600,40.23538841,2547.09
-105.49274756,40.23538853,2542.30
-105.49268749,40.23538879,2544.79
-105.49263095,40.23538903,2547.32
-105.49248847,40.23538963,2553.74
-105.49242676,40.23538990,2556.12
-105.49228335,40.23539051,2561.50
-105.49201392,40.23539165,2573.11
-105.49191165,40.23539209,2571.92
-105.49188014,40.23539222,2572.74
-105.49187732,40.23539223,2583.02
-105.49153172,40.23539370,2579.46
-105.49145014,40.23539405,2583.30
-105.49139277,40.23539429,2588.87
-105.49115062,40.23539532,2583.23
-105.49113839,40.23539537,2591.13
-105.49112840,40.23539541,2591.00
-105.49110983,40.23539549,2586.61
-105.49087802,40.23539648,2576.37
-105.49072802,40.23539711,2575.43
-105.49070545,40.23539721,2575.36
-105.49070486,40.23539721,2576.27
-105.49068653,40.23539729,2575.34
-105.49063762,40.23539749,2575.40
-105.49062258,40.23539756,2585.26
-105.49061353,40.23539760,2575.59
-105.49055275,40.23539785,2584.43
-105.49055240,40.23539786,2585.39
-105.49055158,40.23539786,2587.33
-105.49051149,40.23539803,2577.08
-105.49048081,40.23539816,2577.40
-105.49045248,40.23539828,2577.76
-105.49039194,40.23539854,2578.89
-105.49037219,40.23539862,2579.15
-105.49035679,40.23539868,2579.44
-105.49029496,40.23539895,2580.51
-105.49027792,40.23539902,2580.98
-105.49027204,40.23539904,2590.72
-105.49023901,40.23539918,2581.59
-105.49016624,40.23539949,2582.51
-105.49014532,40.23539958,2586.10
-105.49013133,40.23539964,2583.06
-105.49012827,40.23539965,2583.12
-105.49006950,40.23539990,2587.57
-105.49000978,40.23540015,2590.93
-105.48999532,40.23540022,2592.50
-105.48997816,40.23540029,2599.98
-105.48980054,40.23540104,2588.66
-105.48977221,40.23540116,2589.00
-105.48975693,40.23540122,2589.14
-105.48975117,40.23540125,2597.06
-105.48974106,40.23540129,2589.36
-105.48972507,40.23540136,2597.79
-105.48972060,40.23540138,2589.65
-105.48971390,40.23540141,2599.98
-105.48971367,40.23540141,2598.46
-105.48969792,40.23540147,2596.31
-105.48969380,40.23540149,2599.56
-105.48963773,40.23540173,2591.00
-105.48962691,40.23540177,2591.23
-105.48951371,40.23540225,2594.18
-105.48947398,40.23540242,2597.35
-105.48946058,40.23540248,2595.73
-105.48946046,40.23540248,2597.05
-105.48945458,40.23540250,2596.32
-105.48942978,40.23540261,2597.91
-105.48928484,40.23540322,2595.31
-105.48925933,40.23540333,2603.70
-105.48923218,40.23540344,2602.19
-105.48922324,40.23540348,2605.65
-105.48921701,40.23540351,2603.82
-105.48917528,40.23540368,2596.43
-105.48911721,40.23540393,2597.08
-105.48909687,40.23540402,2602.42
-105.48909205,40.23540404,2604.61
-105.48908241,40.23540408,2602.49
-105.48905949,40.23540417,2606.57
-105.48904774,40.23540422,2606.89
-105.48898602,40.23540448,2598.75
-105.48896815,40.23540456,2598.93
-105.48889880,40.23540485,2599.98
-105.48882345,40.23540517,2601.32
-105.48876961,40.23540540,2602.48
-105.48874763,40.23540549,2603.00
-105.48859869,40.23540612,2614.80
-105.48857330,40.23540623,2609.20
-105.48857154,40.23540623,2612.87
-105.48857071,40.23540624,2613.82
-105.48846268,40.23540669,2609.85
-105.48840931,40.23540692,2611.55
-105.48830399,40.23540736,2615.14
-105.48824204,40.23540763,2619.68
-105.48824016,40.23540763,2621.00
-105.48823581,40.23540765,2623.76
-105.48822887,40.23540768,2618.14
-105.48821888,40.23540772,2618.45
-105.48821712,40.23540773,2619.78
-105.48818126,40.23540788,2619.91
-105.48813401,40.23540808,2629.66
-105.48809051,40.23540826,2623.69
-105.48800788,40.23540861,2626.35
-105.48798895,40.23540869,2631.54
-105.48792817,40.23540895,2637.17
-105.48791877,40.23540899,2633.98
-105.48790913,40.23540903,2639.73
-105.48789491,40.23540909,2633.65
-105.48785811,40.23540924,2632.97
-105.48783155,40.23540936,2640.70
-105.48772975,40.23540979,2637.08
-105.48748054,40.23541084,2650.10
-105.48732231,40.23541150,2642.72
-105.48730115,40.23541159,2642.81
-105.48724814,40.23541181,2643.70
-105.48721040,40.23541197,2643.95
-105.48717596,40.23541212,2650.83
-105.48716432,40.23541217,2644.39
-105.48712647,40.23541233,2644.79
-105.48704136,40.23541268,2646.14
-105.48698235,40.23541293,2646.61
-105.48690642,40.23541325,2656.88
-105.48684376,40.23541352,2660.47
-105.48682742,40.23541358,2648.44
-105.48672997,40.23541399,2657.67
-105.48668906,40.23541417,2650.54
-105.48668518,40.23541418,2660.30
-105.48667590,40.23541422,2664.91
-105.48661865,40.23541446,2651.78
-105.48653190,40.23541483,2653.33
-105.48640611,40.23541536,2656.63
-105.48631348,40.23541574,2662.70
-105.48620087,40.23541622,2662.87
-105.48618723,40.23541628,2663.29
-105.48617289,40.23541634,2662.96
-105.48574982,40.23541811,2664.83
-105.48573854,40.23541816,2671.95
-105.48565731,40.23541850,2676.45
-105.48565496,40.23541851,2671.04
-105.48563533,40.23541859,2665.74
-105.48559042,40.23541878,2666.43
-105.48558572,40.23541880,2675.31
-105.48557608,40.23541884,2666.37
-105.48554352,40.23541898,2666.85
-105.48544196,40.23541940,2675.17
-105.48540892,40.23541954,2674.12
-105.48532041,40.23541991,2678.00
-105.48520779,40.23542039,2677.85
-105.48517652,40.23542052,2677.78
-105.48512939,40.23542071,2677.67
-105.48511939,40.23542076,2676.44
-105.48510799,40.23542080,2677.03
-105.48503123,40.23542113,2668.72
-105.48482175,40.23542200,2675.78
-105.48456984,40.23542306,2666.30
-105.48454692,40.23542315,2666.23
-105.48447497,40.23542346,2669.84
-105.48445993,40.23542352,2666.01
-105.48445852,40.23542352,2665.69
-105.48440409,40.23542375,2665.48
-105.48436636,40.23542391,2670.27
-105.48436330,40.23542392,2665.46
-105.48435848,40.23542394,2673.29
-105.48431169,40.23542414,2677.38
-105.48429912,40.23542419,2675.62
-105.48429230,40.23542422,2675.68
-105.48426608,40.23542433,2665.12
-105.48422553,40.23542450,2664.93
-105.48421483,40.23542454,2665.03
-105.48421084,40.23542456,2665.08
-105.48418015,40.23542469,2664.81
-105.48417345,40.23542472,2674.59
-105.48417216,40.23542472,2672.49
-105.48416887,40.23542474,2664.86
-105.48416158,40.23542477,2676.23
-105.48415159,40.23542481,2676.68
-105.48413842,40.23542486,2675.93
-105.48410974,40.23542498,2664.54
-105.48410339,40.23542501,2664.48
-105.48407577,40.23542513,2676.72
-105.48405390,40.23542522,2672.68
-105.48398008,40.23542553,2663.63
-105.48393706,40.23542571,2669.86
-105.48393588,40.23542571,2663.36
-105.48392072,40.23542577,2674.25
-105.48391472,40.23542580,2672.55
-105.48378730,40.23542633,2672.65
-105.48378424,40.23542634,2662.10
-105.48378306,40.23542635,2674.50
-105.48370924,40.23542666,2663.73
-105.48370877,40.23542666,2675.16
-105.48370807,40.23542666,2676.42
-105.48369690,40.23542671,2675.02
-105.48369278,40.23542673,2676.44
-105.48351998,40.23542745,2663.49
-105.48351693,40.23542746,2664.13
-105.48346509,40.23542768,2663.45
-105.48344028,40.23542778,2663.62
-105.48340361,40.23542794,2665.26
-105.48340337,40.23542794,2665.30
-105.48339162,40.23542799,2669.58
-105.48338480,40.23542801,2664.41
-105.48338292,40.23542802,2664.94
-105.48338115,40.23542803,2664.22
-105.48336470,40.23542810,2663.43
-105.48336340,40.23542810,2663.44
-105.48335341,40.23542814,2668.68
-105.48335000,40.23542816,2668.59
-105.48334742,40.23542817,2672.32
-105.48334178,40.23542819,2673.10
-105.48333801,40.23542821,2670.63
-105.48333672,40.23542821,2669.69
-105.48333096,40.23542824,2665.25
-105.48332896,40.23542825,2665.26
-105.48332837,40.23542825,2662.91
-105.48332673,40.23542826,2667.39
-105.48332320,40.23542827,2662.84
-105.48320130,40.23542878,2661.75
-105.48317908,40.23542887,2661.63
-105.48309503,40.23542922,2662.04
-105.48292388,40.23542994,2661.33
-105.48287321,40.23543015,2660.58
-105.48268231,40.23543095,2667.41
-105.48262471,40.23543119,2661.64
-105.48247401,40.23543181,2660.89
-105.48239243,40.23543215,2660.35
-105.48209690,40.23543339,2657.91
-105.48200580,40.23543377,2659.25
-105.48198288,40.23543413,2659.74
-105.48197995,40.23543540,2661.41
-105.48197949,40.23543757,2660.10
-105.48197895,40.23544361,2657.72
-105.48197917,40.23547568,2657.84
-105.48197922,40.23548235,2660.27
-105.48197982,40.23556712,2662.74
-105.48198037,40.23564352,2658.74
-105.48198078,40.23570262,2663.45
-105.48198094,40.23572433,2663.55
-105.48198110,40.23574712,2658.89
-105.48198118,40.23575794,2658.84
-105.48198167,40.23582685,2660.99
-105.48198169,40.23582974,2665.20
-105.48198180,40.23584532,2659.31
-105.48198219,40.23590055,2658.78
-105.48198289,40.23600019,2657.80
-105.48198423,40.23618794,2656.49
-105.48198554,40.23637344,2661.43
-105.48198582,40.23641326,2670.32
-105.48198583,40.23641407,2658.80
-105.48198589,40.23642200,2658.61
-105.48198597,40.23643461,2671.16
-105.48198600,40.23643839,2670.90
-105.48198638,40.23649218,2666.49
-105.48198646,40.23650353,2671.52
-105.48198679,40.23654912,2659.72
-105.48198679,40.23654993,2663.08
-105.48198696,40.23657317,2667.76
-105.48198697,40.23657533,2667.81
-105.48198711,40.23659443,2659.97
-105.48198726,40.23661524,2659.87
-105.48198836,40.23677083,2675.24
-105.48198867,40.23681533,2671.23
-105.48198872,40.23682173,2675.63
-105.48198917,40.23688543,2673.10
-105.48198936,40.23691272,2675.87
-105.48198992,40.23699128,2664.80
-105.48199027,40.23703975,2678.27
-105.48199028,40.23704155,2677.04
-105.48199032,40.23704687,2674.84
-105.48199034,40.23704984,2674.19
-105.48199088,40.23712651,2666.36
-105.48199196,40.23727939,2679.63
-105.48199212,40.23730093,2676.78
-105.48199252,40.23735714,2681.93
-105.48199290,40.23741156,2669.61
-105.48199302,40.23742768,2677.09
-105.48199310,40.23743904,2679.32
-105.48199314,40.23744471,2680.25
-105.48199316,40.23744804,2677.64
-105.48199321,40.23745570,2670.11
-105.48199346,40.23748985,2679.96
-105.48199441,40.23762480,2671.91
-105.48199544,40.23776913,2673.38
-105.48199567,40.23780174,2687.68
-105.48199573,40.23780976,2686.84
-105.48199578,40.23781706,2674.03
-105.48199587,40.23783075,2674.13
-105.48199612,40.23786481,2687.04
-105.48199632,40.23789391,2688.21
-105.48199667,40.23794364,2687.55
-105.48199725,40.23802544,2676.88
-105.48199745,40.23805238,2685.70
-105.48199783,40.23810679,2677.61
-105.48199791,40.23811724,2687.87
-105.48199821,40.23816049,2688.57
-105.48199825,40.23816571,2690.22
-105.48199828,40.23816985,2690.38
-105.48199838,40.23818481,2678.43
-105.48199849,40.23819995,2678.46
-105.48199851,40.23820301,2688.01
-105.48199855,40.23820886,2684.72
-105.48199879,40.23824184,2688.51
-105.48199885,40.23825094,2678.63
-105.48199892,40.23826103,2686.46
-105.48199933,40.23831760,2678.98
-105.48199984,40.23838959,2686.62
-105.48199984,40.23838995,2688.93
-105.48200071,40.23851337,2688.77
-105.48200080,40.23852608,2688.68
-105.48200095,40.23854725,2686.72
-105.48200122,40.23858409,2679.16
-105.48200135,40.23860256,2679.13
-105.48200171,40.23865364,2689.52
-105.48200214,40.23871482,2679.33
-105.48200219,40.23872121,2679.36
-105.48200249,40.23876437,2679.43
-105.48200253,40.23876932,2679.46
-105.48200267,40.23878923,2691.03
-105.48200292,40.23882509,2693.89
-105.48200394,40.23896752,2691.58
-105.48200402,40.23897986,2692.58
-105.48200436,40.23902806,2694.16
-105.48200444,40.23903914,2692.37
-105.48200458,40.23905833,2688.26
-105.48200482,40.23909275,2695.97
-105.48200528,40.23915734,2681.60
-105.48200681,40.23937257,2692.28
-105.48200700,40.23939915,2683.27
-105.48200709,40.23941194,2694.30
-105.48200745,40.23946347,2697.74
-105.48200759,40.23948257,2691.13
-105.48200887,40.23966339,2687.14
-105.48200925,40.23971645,2687.95
-105.48200928,40.23972158,2688.05
-105.48201028,40.23986267,2690.52
-105.48201031,40.23986654,2699.66
-105.48201106,40.23997249,2692.97
-105.48201154,40.24004060,2694.60
-105.48201176,40.24007096,2707.88
-105.48201177,40.24007258,2707.79
-105.48201191,40.24009177,2695.79
-105.48201207,40.24011465,2696.15
-105.48201221,40.24013402,2696.63
-105.48201264,40.24019501,2709.12
-105.48201264,40.24019537,2709.14
-105.48201362,40.24033321,2703.41
-105.48201429,40.24042736,2701.23
-105.48201545,40.24059105,2700.69
-105.48201572,40.24062952,2705.13
-105.48201740,40.24086673,2709.43
-105.48201748,40.24087817,2699.93
-105.48201809,40.24096376,2705.09
-105.48201827,40.24098881,2698.53
-105.48201883,40.24106727,2697.41
-105.48201927,40.24113034,2703.90
-105.48201948,40.24115935,2702.87
-105.48201955,40.24116926,2702.49
-105.48201994,40.24122421,2698.70
-105.48202025,40.24126827,2696.99
-105.48202156,40.24145268,2696.85
-105.48202201,40.24151593,2684.69
-105.48202213,40.24153314,2684.61
-105.48202246,40.24157935,2682.83
-105.48202279,40.24162647,2681.97
-105.48202281,40.24162971,2681.07
-105.48202305,40.24166332,2679.98
-105.48202309,40.24166872,2679.90
-105.48202345,40.24171980,2682.21
-105.48202363,40.24174404,2679.85
-105.48202389,40.24178152,2679.46
-105.48202389,40.24178170,2676.70
-105.48202403,40.24180152,2675.88
-105.48202426,40.24183377,2678.20
-105.48202428,40.24183584,2678.42
-105.48202430,40.24183854,2679.74
-105.48202444,40.24185890,2674.91
-105.48202451,40.24186863,2674.53
-105.48202458,40.24187918,2675.50
-105.48202502,40.24194044,2670.54
-105.48202538,40.24199188,2667.81
-105.48202623,40.24211125,2663.72
-105.48202653,40.24215341,2663.28
-105.48202660,40.24216377,2663.23
-105.48202706,40.24222891,2658.89
-105.48202721,40.24224999,2659.49
-105.48202723,40.24225179,2661.63
-105.48202724,40.24225431,2660.54
-105.48202743,40.24227999,2656.85
-105.48202757,40.24230053,2656.07
-105.48202761,40.24230639,2656.04
-105.48202879,40.24247270,2650.19
-105.48202942,40.24256144,2647.43
-105.48202952,40.24257540,2646.93
-105.48202971,40.24260189,2646.13
-105.48203048,40.24271099,2643.12
-105.48203088,40.24276684,2641.04
-105.48203134,40.24283126,2641.21
-105.48203178,40.24289441,2650.18
-105.48203219,40.24295207,2640.46
-105.48203226,40.24296162,2641.23
-105.48203271,40.24302531,2633.38
-105.48203282,40.24303982,2632.99
-105.48203296,40.24305964,2632.40
-105.48203336,40.24311649,2630.72
-105.48203356,40.24314423,2630.15
-105.48203375,40.24317180,2629.29
-105.48203511,40.24336361,2623.89
-105.48203521,40.24337712,2623.46
-105.48203807,40.24378073,2618.42
-105.48203833,40.24381793,2618.46
-105.48203839,40.24382505,2618.59
-105.48203932,40.24395722,2623.95
-105.48203938,40.24396469,2622.55
-105.48203950,40.24398208,2627.51
-105.48203953,40.24398586,2625.48
-105.48204021,40.24408163,2634.48
-105.48204046,40.24411821,2634.04
-105.48204062,40.24414019,2621.27
-105.48204220,40.24436362,2635.67
-105.48204251,40.24440605,2626.09
-105.48204312,40.24444280,2626.85
-105.48216363,40.24444239,2627.67
-105.48220348,40.24444223,2627.89
-105.48224263,40.24444206,2628.04
-105.48224522,40.24444205,2628.09
-105.48227567,40.24444193,2632.04
-105.48237572,40.24444151,2637.45
-105.48242921,40.24444129,2629.24
-105.48248071,40.24444107,2640.73
-105.48249658,40.24444101,2629.63
-105.48249905,40.24444099,2638.09
-105.48251586,40.24444092,2629.98
-105.48251656,40.24444092,2636.61
-105.48252397,40.24444089,2635.46
-105.48258781,40.24444062,2643.56
-105.48295051,40.24443911,2639.90
-105.48296508,40.24443905,2648.97
-105.48328216,40.24443773,2645.18
-105.48332366,40.24443755,2648.55
-105.48340161,40.24443723,2648.04
-105.48348650,40.24443687,2650.18
-105.48356785,40.24443653,2652.37
-105.48356938,40.24443653,2652.42
-105.48366438,40.24443613,2663.84
-105.48391303,40.24443509,2666.02
-105.48391573,40.24443508,2665.46
-105.48393631,40.24443499,2667.09
-105.48418790,40.24443394,2673.38
-105.48422858,40.24443377,2671.00
-105.48430723,40.24443344,2677.53
-105.48448429,40.24443270,2683.86
-105.48450863,40.24443260,2680.41
-105.48453038,40.24443251,2681.16
-105.48456964,40.24443234,2683.51
-105.48466817,40.24443193,2686.57
-105.48467381,40.24443191,2685.24
-105.48499230,40.24443057,2687.19
-105.48500053,40.24443054,2687.27
-105.48506578,40.24443027,2687.99
-105.48514314,40.24442994,2689.12
-105.48514337,40.24442994,2689.12
-105.48525365,40.24442948,2691.58
-105.48534994,40.24442907,2695.28
-105.48539109,40.24442890,2694.64
-105.48562951,40.24442790,2704.40
-105.48563292,40.24442789,2704.02
-105.48568136,40.24442768,2707.52
-105.48575543,40.24442737,2709.13
-105.48584772,40.24442699,2715.30
-105.48593554,40.24442662,2720.75
-105.48606075,40.24442609,2715.97
-105.48628636,40.24442514,2724.16
-105.48634785,40.24442488,2726.48
-105.48636290,40.24442482,2738.48
-105.48639793,40.24442467,2740.08
-105.48641134,40.24442462,2728.50
-105.48647329,40.24442436,2742.29
-105.48651774,40.24442417,2739.28
-105.48660744,40.24442379,2738.55
-105.48682553,40.24442288,2743.37
-105.48694415,40.24442238,2747.01
-105.48695215,40.24442234,2753.43
-105.48700388,40.24442213,2748.55
-105.48703679,40.24442199,2749.43
-105.48706090,40.24442189,2751.56
-105.48711415,40.24442166,2748.56
-105.48714531,40.24442153,2753.64
-105.48715178,40.24442150,2747.41
-105.48717211,40.24442142,2746.83
-105.48718763,40.24442135,2746.34
-105.48721397,40.24442124,2751.04
-105.48721891,40.24442122,2749.89
-105.48721985,40.24442122,2745.47
-105.48726170,40.24442104,2744.44
-105.48730250,40.24442087,2743.30
-105.48744499,40.24442027,2739.63
-105.48746345,40.24442019,2745.00
-105.48749778,40.24442005,2746.74
-105.48750495,40.24442002,2747.99
-105.48750518,40.24442002,2745.65
-105.48751894,40.24441996,2737.84
     </coordinates>
    </LineString>
   </MultiGeometry>
  </Placemark>
 </Document>
</kml>
