<kml>
 <Document>
  <Style id="yellow">
   <LineStyle>
   <color>ff00ffff</color>
   <width>1</width>
   </LineStyle>
  </Style>
  <Style id="red">
   <LineStyle>
   <color>ffff0000</color>
   <width>2</width>
   </LineStyle>
  </Style>
  <Style id="green">
   <LineStyle>
   <color>ff00ff00</color>
   <width>1</width>
   </LineStyle>
  </Style>
  <Placemark>
  <styleUrl>#yellow</styleUrl>
   <MultiGeometry>
    <LineString>
     <coordinates>
-81.99658249,29.68232023,49.32
-81.99664129,29.68231979,53.63
-81.99695876,29.68231739,42.97
-81.99725677,29.68231515,43.48
-81.99735232,29.68231443,43.62
-81.99749447,29.68231335,59.71
-81.99771904,29.68231165,57.50
-81.99819981,29.68230800,55.05
-81.99840382,29.68230651,44.81
-81.99887009,29.68230300,43.90
-81.99903396,29.68230175,54.91
-81.99947314,29.68229843,56.66
-81.99955319,29.68229785,42.96
-81.99961755,29.68229737,51.20
-81.99999378,29.68229452,44.22
-82.00034782,29.68229186,53.23
-82.00042781,29.68229125,44.88
-82.00066343,29.68228946,45.20
-82.00101382,29.68228681,46.40
-82.00132061,29.68228450,47.49
-82.00175774,29.68228121,56.58
-82.00194947,29.68227976,54.65
-82.00241229,29.68227625,48.39
-82.00251376,29.68227541,61.34
-82.00251459,29.68227498,48.58
-82.00252200,29.68227085,48.44
-82.00252184,29.68225325,48.41
-82.00252049,29.68211420,56.80
-82.00251878,29.68193946,50.89
-82.00251678,29.68174130,48.74
-82.00251333,29.68139021,48.34
-82.00251013,29.68108222,47.11
-82.00250725,29.68079062,45.93
-82.00250560,29.68061817,45.37
-82.00250179,29.68022764,48.66
-82.00250179,29.68022753,48.54
-82.00249800,29.67984563,61.03
-82.00249780,29.67982477,58.84
-82.00249440,29.67949287,45.26
-82.00249250,29.67929192,51.28
-82.00249020,29.67905922,44.11
-82.00248657,29.67869699,42.66
-82.00248376,29.67841137,41.79
-82.00247948,29.67797894,41.78
-82.00247811,29.67784285,43.26
-82.00247687,29.67771916,42.18
-82.00247311,29.67733662,43.84
-82.00246984,29.67700874,41.04
-82.00246763,29.67678425,42.50
-82.00246710,29.67673078,39.61
-82.00246600,29.67662782,38.98
-82.00246249,29.67626630,40.52
-82.00245805,29.67581849,30.52
-82.00245712,29.67572461,31.54
-82.00245503,29.67551612,29.78
-82.00245189,29.67519714,41.28
-82.00245170,29.67517884,30.83
-82.00245064,29.67507184,45.02
-82.00244795,29.67480128,50.69
-82.00244433,29.67443780,54.23
-82.00244202,29.67420244,49.51
-82.00244051,29.67405065,48.70
-82.00243793,29.67379080,44.46
-82.00243762,29.67375916,41.15
-82.00243703,29.67369972,36.11
-82.00243607,29.67360255,53.73
-82.00243408,29.67340369,49.25
-82.00243273,29.67327135,42.98
-82.00243252,29.67325845,43.71
-82.00243238,29.67325238,43.60
-82.00243237,29.67325225,40.74
-82.00243205,29.67325186,40.15
-82.00235374,29.67325237,31.99
-82.00227534,29.67325296,43.18
-82.00227156,29.67325299,44.41
-82.00197263,29.67325526,44.20
-82.00161636,29.67325794,43.62
-82.00157220,29.67325827,37.78
-82.00142206,29.67325941,32.74
-82.00141402,29.67325947,41.55
-82.00093927,29.67326306,41.13
-82.00072945,29.67326464,26.38
-82.00052182,29.67326621,25.52
-82.00025413,29.67326826,25.22
-81.99976474,29.67327193,25.20
-81.99967369,29.67327264,25.19
-81.99945249,29.67327454,25.30
-81.99934599,29.67327578,25.35
-81.99892043,29.67327851,25.20
-81.99875159,29.67327964,25.20
-81.99872616,29.67327981,25.20
-81.99852269,29.67328130,25.20
-81.99837212,29.67328244,25.21
-81.99785572,29.67328634,25.16
-81.99738565,29.67328986,25.21
-81.99733436,29.67329025,25.21
-81.99697365,29.67329349,25.22
-81.99680623,29.67329435,25.20
-81.99674563,29.67329475,25.20
-81.99663264,29.67329558,25.21
-81.99615789,29.67329918,25.18
-81.99573270,29.67330236,25.17
-81.99552922,29.67330383,25.19
-81.99520916,29.67330625,25.20
-81.99486631,29.67330880,25.21
-81.99472570,29.67330984,25.21
-81.99456196,29.67331108,25.21
-81.99418247,29.67331397,25.21
-81.99380798,29.67331676,25.20
-81.99343255,29.67331956,25.30
-81.99301467,29.67332269,25.17
-81.99282815,29.67332407,25.20
-81.99245984,29.67332687,25.32
-81.99223986,29.67332856,25.17
-81.99215141,29.67332933,25.22
-81.99211200,29.67332972,25.27
-81.99210081,29.67332990,25.19
-81.99209963,29.67333286,25.20
-81.99210224,29.67360445,25.20
-81.99210341,29.67372250,25.22
-81.99210674,29.67405863,25.21
-81.99211113,29.67450790,25.24
-81.99211319,29.67471566,25.23
-81.99211588,29.67498726,25.19
-81.99211777,29.67518230,25.20
-81.99211897,29.67530645,25.19
-81.99212248,29.67566624,25.15
-81.99212396,29.67581711,25.21
-81.99212632,29.67605313,25.25
-81.99212913,29.67632915,25.17
-81.99213239,29.67667422,25.45
-81.99213483,29.67692105,25.19
-81.99213906,29.67735544,26.01
-81.99214239,29.67769452,37.92
-81.99214391,29.67784943,35.79
-81.99214483,29.67794200,41.04
-81.99214869,29.67833528,30.22
-81.99215133,29.67860358,38.66
-81.99215392,29.67886876,46.57
-81.99215550,29.67902953,45.92
-81.99215870,29.67935501,40.12
-81.99216300,29.67979298,48.36
-81.99216439,29.67993505,34.71
-81.99216766,29.68026747,35.21
-81.99216988,29.68049291,35.92
-81.99217304,29.68081566,36.59
-81.99217404,29.68091728,49.95
-81.99217572,29.68108701,50.08
-81.99218003,29.68152590,57.09
-81.99218206,29.68173353,58.47
-81.99218480,29.68200924,47.59
-81.99218669,29.68220554,38.99
-81.99218670,29.68220650,39.00
-81.99218814,29.68235242,39.22
-81.99218962,29.68235303,39.17
-81.99219555,29.68235310,39.10
-81.99221065,29.68235304,53.59
-81.99236683,29.68235188,39.29
-81.99262736,29.68234992,39.43
-81.99301057,29.68234704,40.05
-81.99319329,29.68234557,40.20
-81.99356223,29.68234292,39.94
-81.99367506,29.68234207,54.45
-81.99417219,29.68233833,55.79
-81.99467270,29.68233457,51.22
-81.99518146,29.68233075,56.13
-81.99535684,29.68232944,40.08
-81.99551826,29.68232823,56.58
-81.99592130,29.68232521,40.30
-81.99594131,29.68232505,40.28
-81.99623858,29.68232281,41.13
-81.99658249,29.68232023,49.32
     </coordinates>
    </LineString>
   </MultiGeometry>
  </Placemark>
 </Document>
</kml>
