<kml>
 <Document>
  <Style id="yellow">
   <LineStyle>
   <color>ff00ffff</color>
   <width>1</width>
   </LineStyle>
  </Style>
  <Style id="red">
   <LineStyle>
   <color>ffff0000</color>
   <width>2</width>
   </LineStyle>
  </Style>
  <Style id="green">
   <LineStyle>
   <color>ff00ff00</color>
   <width>1</width>
   </LineStyle>
  </Style>
  <Placemark>
  <styleUrl>#yellow</styleUrl>
   <MultiGeometry>
    <LineString>
     <coordinates>
-82.00708850,29.67321646,44.18
-82.00740411,29.67321406,37.77
-82.00760574,29.67321252,35.98
-82.00781155,29.67321093,38.73
-82.00813140,29.67320847,40.50
-82.00853885,29.67320543,41.05
-82.00870502,29.67320416,42.12
-82.00876068,29.67320374,38.64
-82.00897900,29.67320206,40.74
-82.00949268,29.67319816,34.06
-82.00975303,29.67319617,35.45
-82.00990532,29.67319500,35.07
-82.01019976,29.67319275,47.96
-82.01057683,29.67318990,38.66
-82.01105405,29.67318625,41.94
-82.01141318,29.67318352,43.37
-82.01150029,29.67318286,44.28
-82.01184435,29.67318023,43.84
-82.01218687,29.67317757,34.63
-82.01250906,29.67317506,35.31
-82.01275084,29.67317328,35.52
-82.01276303,29.67317149,35.53
-82.01276350,29.67316545,35.55
-82.01276528,29.67314279,35.59
-82.01276505,29.67311853,35.83
-82.01276391,29.67300362,36.08
-82.01276077,29.67269008,37.33
-82.01275771,29.67238487,38.43
-82.01275348,29.67196656,39.75
-82.01275277,29.67189434,39.84
-82.01275049,29.67166587,39.75
-82.01274627,29.67124497,54.46
-82.01274433,29.67104956,38.94
-82.01274124,29.67074177,38.56
-82.01274053,29.67067099,38.50
-82.01273826,29.67044876,38.36
-82.01273559,29.67018184,49.18
-82.01273541,29.67016388,37.88
-82.01273216,29.66983820,36.92
-82.01272893,29.66951516,37.58
-82.01272692,29.66931214,38.63
-82.01272475,29.66909781,39.81
-82.01272070,29.66869807,38.25
-82.01272011,29.66863395,42.53
-82.01271880,29.66850429,36.88
-82.01271545,29.66816719,43.04
-82.01271409,29.66803428,48.70
-82.01271031,29.66765685,33.68
-82.01270609,29.66723472,37.57
-82.01270413,29.66703806,36.75
-82.01270179,29.66680363,37.79
-82.01269962,29.66658707,43.90
-82.01269742,29.66637063,39.39
-82.01269450,29.66607617,40.64
-82.01269130,29.66575877,50.89
-82.01268898,29.66552722,58.49
-82.01268811,29.66544059,58.63
-82.01268679,29.66530922,42.51
-82.01268314,29.66494426,58.62
-82.01267907,29.66453582,55.57
-82.01267815,29.66444457,58.93
-82.01267637,29.66426971,54.14
-82.01267525,29.66417153,54.12
-82.01267493,29.66415816,57.30
-82.01267447,29.66415102,61.77
-82.01267426,29.66415091,45.03
-82.01266782,29.66414986,53.04
-82.01266525,29.66414969,44.95
-82.01252510,29.66415073,44.54
-82.01238891,29.66415176,44.08
-82.01221254,29.66415309,43.57
-82.01193788,29.66415521,53.66
-82.01153061,29.66415830,51.71
-82.01124434,29.66416048,47.85
-82.01107349,29.66416179,49.26
-82.01068494,29.66416475,47.93
-82.01031755,29.66416755,48.22
-82.01011586,29.66416908,47.78
-82.00999578,29.66417000,53.07
-82.00986513,29.66417099,48.06
-82.00965560,29.66417259,40.17
-82.00960437,29.66417298,38.32
-82.00931144,29.66417522,41.10
-82.00891445,29.66417825,35.30
-82.00860531,29.66418058,33.06
-82.00822485,29.66418348,38.06
-82.00816287,29.66418395,33.75
-82.00805769,29.66418475,30.94
-82.00799433,29.66418523,29.72
-82.00782641,29.66418651,30.76
-82.00753215,29.66418876,33.16
-82.00728228,29.66419066,34.36
-82.00695849,29.66419311,48.69
-82.00645124,29.66419698,48.78
-82.00627609,29.66419832,38.02
-82.00589762,29.66420118,47.11
-82.00538421,29.66420506,54.01
-82.00530937,29.66420563,39.19
-82.00504368,29.66420767,45.43
-82.00467171,29.66421046,39.47
-82.00428164,29.66421347,44.74
-82.00411109,29.66421472,49.24
-82.00359775,29.66421863,51.32
-82.00329705,29.66422087,47.98
-82.00282320,29.66422446,43.03
-82.00271968,29.66422524,52.71
-82.00238871,29.66422781,51.42
-82.00237637,29.66422794,51.44
-82.00235081,29.66422823,42.78
-82.00234666,29.66422866,42.83
-82.00234316,29.66423138,51.87
-82.00234393,29.66431051,48.36
-82.00234772,29.66469336,54.90
-82.00234996,29.66491629,40.05
-82.00235224,29.66514771,51.78
-82.00235647,29.66557582,43.26
-82.00235876,29.66580482,40.96
-82.00236270,29.66620401,56.08
-82.00236276,29.66620964,41.59
-82.00236464,29.66639944,54.95
-82.00236786,29.66672344,44.38
-82.00237146,29.66708721,45.73
-82.00237424,29.66736708,49.54
-82.00237465,29.66740847,44.80
-82.00237811,29.66775748,47.79
-82.00237934,29.66788220,36.51
-82.00238223,29.66817282,47.51
-82.00238433,29.66838332,50.56
-82.00238735,29.66868963,25.17
-82.00238851,29.66880653,25.20
-82.00239135,29.66909175,44.89
-82.00239427,29.66938734,29.52
-82.00239540,29.66950156,45.39
-82.00239635,29.66959693,35.02
-82.00240025,29.66998934,47.40
-82.00240259,29.67022390,46.90
-82.00240668,29.67063663,41.69
-82.00240744,29.67071532,31.52
-82.00241080,29.67105431,34.60
-82.00241332,29.67130662,25.91
-82.00241636,29.67161071,25.62
-82.00241818,29.67179830,34.43
-82.00241977,29.67195735,39.21
-82.00242321,29.67230563,39.56
-82.00242381,29.67236625,41.55
-82.00242424,29.67240886,46.97
-82.00242609,29.67259417,33.89
-82.00242977,29.67296712,39.17
-82.00243251,29.67324164,44.91
-82.00243271,29.67325049,44.71
-82.00243405,29.67325156,45.54
-82.00243803,29.67325166,45.59
-82.00247387,29.67325144,40.80
-82.00256905,29.67325073,48.36
-82.00258902,29.67325058,49.97
-82.00277621,29.67324914,51.49
-82.00325257,29.67324552,40.95
-82.00372303,29.67324198,48.13
-82.00405451,29.67323947,32.07
-82.00450798,29.67323604,31.94
-82.00450815,29.67323604,31.95
-82.00450820,29.67323604,31.93
-82.00464463,29.67323501,44.11
-82.00501402,29.67323221,40.73
-82.00532466,29.67322983,30.54
-82.00573022,29.67322677,39.31
-82.00594375,29.67322515,30.77
-82.00633365,29.67322219,41.16
-82.00643757,29.67322139,41.03
-82.00675260,29.67321899,29.89
-82.00698025,29.67321728,45.31
-82.00708850,29.67321646,44.18
     </coordinates>
    </LineString>
   </MultiGeometry>
  </Placemark>
 </Document>
</kml>
