<kml>
 <Document>
  <Style id="yellow">
   <LineStyle>
   <color>ff00ffff</color>
   <width>1</width>
   </LineStyle>
  </Style>
  <Style id="red">
   <LineStyle>
   <color>ffff0000</color>
   <width>2</width>
   </LineStyle>
  </Style>
  <Style id="green">
   <LineStyle>
   <color>ff00ff00</color>
   <width>1</width>
   </LineStyle>
  </Style>
  <Placemark>
  <styleUrl>#yellow</styleUrl>
   <MultiGeometry>
    <LineString>
     <coordinates>
-81.99620010,29.67329870,25.19
-81.99644066,29.67329695,25.16
-81.99669253,29.67329465,25.20
-81.99679737,29.67329344,25.22
-81.99726315,29.67329067,25.16
-81.99734710,29.67329012,25.20
-81.99767905,29.67328758,25.20
-81.99792201,29.67328577,25.20
-81.99810458,29.67328440,25.19
-81.99855716,29.67328096,25.19
-81.99867208,29.67328014,25.20
-81.99876564,29.67327943,25.21
-81.99896257,29.67327786,25.17
-81.99934187,29.67327501,25.28
-81.99978440,29.67327170,25.19
-82.00023248,29.67326838,25.20
-82.00039400,29.67326716,25.21
-82.00090636,29.67326329,38.95
-82.00106601,29.67326209,45.15
-82.00112484,29.67326165,43.39
-82.00122461,29.67326089,31.72
-82.00169586,29.67325732,33.46
-82.00184806,29.67325617,33.05
-82.00226798,29.67325300,45.57
-82.00235050,29.67325237,42.72
-82.00242635,29.67325177,40.07
-82.00243014,29.67325167,39.93
-82.00243258,29.67325083,45.38
-82.00243229,29.67322215,32.84
-82.00242993,29.67298528,43.53
-82.00242736,29.67272471,44.63
-82.00242699,29.67268788,51.16
-82.00242672,29.67265974,31.07
-82.00242359,29.67234496,29.84
-82.00242329,29.67231475,41.11
-82.00242276,29.67226119,39.04
-82.00241950,29.67193188,29.10
-82.00241651,29.67163121,25.76
-82.00241378,29.67135526,27.37
-82.00241306,29.67128263,25.84
-82.00241019,29.67099351,31.71
-82.00240980,29.67095416,41.37
-82.00240854,29.67082694,33.00
-82.00240841,29.67081434,27.00
-82.00240735,29.67070676,29.83
-82.00240416,29.67038579,43.34
-82.00240239,29.67020691,31.96
-82.00239976,29.66994204,47.96
-82.00239751,29.66971635,47.64
-82.00239428,29.66938962,49.08
-82.00239278,29.66923768,44.48
-82.00239234,29.66919340,45.90
-82.00239149,29.66910874,32.84
-82.00238701,29.66866265,25.20
-82.00238521,29.66847630,25.18
-82.00238341,29.66829290,37.56
-82.00238162,29.66811234,48.61
-82.00237972,29.66792212,42.46
-82.00237630,29.66757599,37.29
-82.00237478,29.66742252,50.28
-82.00237339,29.66728256,51.96
-82.00237255,29.66719827,47.67
-82.00236891,29.66683061,47.25
-82.00236784,29.66672325,40.70
-82.00236583,29.66652349,41.45
-82.00236288,29.66622540,43.13
-82.00236169,29.66610414,54.65
-82.00236067,29.66600207,50.57
-82.00235690,29.66561974,56.14
-82.00235527,29.66545574,43.89
-82.00235332,29.66525896,49.73
-82.00235291,29.66521700,52.67
-82.00235274,29.66520038,40.06
-82.00235169,29.66509396,51.73
-82.00234882,29.66480534,52.29
-82.00234470,29.66438928,42.00
-82.00234367,29.66428958,42.44
-82.00234322,29.66424990,50.01
-82.00234290,29.66423677,42.75
-82.00234284,29.66423518,52.03
-82.00234237,29.66422911,42.82
-82.00234172,29.66422882,51.91
-82.00233688,29.66422815,52.61
-82.00209031,29.66423000,56.37
-82.00196814,29.66423093,43.29
-82.00180413,29.66423217,44.05
-82.00176955,29.66423243,44.12
-82.00166591,29.66423321,50.06
-82.00146656,29.66423472,51.93
-82.00135623,29.66423555,45.49
-82.00130419,29.66423594,45.61
-82.00090855,29.66423893,46.66
-82.00077508,29.66423994,59.61
-82.00064167,29.66424096,46.61
-82.00039570,29.66424282,53.02
-81.99988575,29.66424665,52.64
-81.99938072,29.66425046,60.51
-81.99925334,29.66425142,58.05
-81.99876935,29.66425511,61.28
-81.99846557,29.66425738,53.56
-81.99827471,29.66425880,46.37
-81.99791025,29.66426154,45.91
-81.99767222,29.66426334,45.86
-81.99737469,29.66426558,45.81
-81.99689855,29.66426917,45.47
-81.99680999,29.66426982,45.27
-81.99632451,29.66427348,43.10
-81.99613246,29.66427491,55.29
-81.99606325,29.66427543,41.43
-81.99578289,29.66427754,45.78
-81.99533278,29.66428092,39.68
-81.99490344,29.66428415,38.22
-81.99450515,29.66428714,49.18
-81.99414639,29.66428982,51.34
-81.99366963,29.66429341,44.73
-81.99340562,29.66429538,41.28
-81.99301629,29.66429831,47.11
-81.99260035,29.66430141,37.16
-81.99232477,29.66430348,37.24
-81.99201239,29.66430581,50.43
-81.99201102,29.66430601,51.43
-81.99201146,29.66435179,45.01
-81.99201419,29.66463368,36.34
-81.99201479,29.66469439,45.11
-81.99201557,29.66477406,42.65
-81.99201919,29.66513735,47.48
-81.99202087,29.66531402,39.82
-81.99202267,29.66549681,44.64
-81.99202561,29.66579591,32.13
-81.99202838,29.66607995,40.66
-81.99202884,29.66612687,40.53
-81.99202972,29.66621593,32.64
-81.99203060,29.66630564,29.85
-81.99203166,29.66641425,29.59
-81.99203590,29.66684416,28.26
-81.99203850,29.66711126,38.04
-81.99204007,29.66726882,25.92
-81.99204188,29.66745059,25.22
-81.99204415,29.66768108,25.21
-81.99204676,29.66795215,25.21
-81.99205101,29.66837628,25.19
-81.99205259,29.66854336,25.24
-81.99205467,29.66875868,25.21
-81.99205820,29.66911784,25.18
-81.99206045,29.66934398,25.19
-81.99206303,29.66960299,25.23
-81.99206740,29.67004863,25.17
-81.99206890,29.67019445,25.19
-81.99207263,29.67058190,25.20
-81.99207309,29.67063198,25.18
-81.99207683,29.67101648,25.20
-81.99208043,29.67138274,25.18
-81.99208386,29.67173270,25.23
-81.99208641,29.67199214,25.19
-81.99209026,29.67237618,25.19
-81.99209253,29.67261389,25.21
-81.99209378,29.67274341,25.24
-81.99209735,29.67310531,25.21
-81.99209926,29.67329613,25.19
-81.99209940,29.67330652,25.16
-81.99209989,29.67331845,25.19
-81.99210016,29.67332065,25.25
-81.99210152,29.67332444,25.21
-81.99210509,29.67332882,25.19
-81.99211545,29.67332937,25.19
-81.99232847,29.67332777,25.33
-81.99280341,29.67332422,25.25
-81.99316091,29.67332152,25.19
-81.99330485,29.67332039,25.17
-81.99374198,29.67331716,25.18
-81.99413282,29.67331428,25.19
-81.99425434,29.67331336,25.22
-81.99458909,29.67331075,25.16
-81.99497945,29.67330792,25.22
-81.99541616,29.67330452,25.21
-81.99579251,29.67330180,25.21
-81.99620010,29.67329870,25.19
     </coordinates>
    </LineString>
   </MultiGeometry>
  </Placemark>
 </Document>
</kml>
