<kml>
 <Document>
  <Style id="yellow">
   <LineStyle>
   <color>ff00ffff</color>
   <width>1</width>
   </LineStyle>
  </Style>
  <Style id="red">
   <LineStyle>
   <color>ffff0000</color>
   <width>2</width>
   </LineStyle>
  </Style>
  <Style id="green">
   <LineStyle>
   <color>ff00ff00</color>
   <width>1</width>
   </LineStyle>
  </Style>
  <Placemark>
  <styleUrl>#yellow</styleUrl>
   <MultiGeometry>
    <LineString>
     <coordinates>
-82.01674780,29.70021563,46.23
-82.01691354,29.70021436,35.95
-82.01725208,29.70021175,50.50
-82.01743196,29.70021037,33.13
-82.01756549,29.70020935,51.48
-82.01775512,29.70020789,42.97
-82.01792503,29.70020659,36.87
-82.01820994,29.70020439,46.05
-82.01868451,29.70020075,61.35
-82.01868695,29.70020073,61.10
-82.01907363,29.70019774,55.49
-82.01957998,29.70019386,50.97
-82.01986700,29.70019162,36.08
-82.02031989,29.70018814,46.77
-82.02064105,29.70018568,55.95
-82.02079861,29.70018444,52.07
-82.02117930,29.70018152,30.31
-82.02133222,29.70018035,41.24
-82.02162476,29.70017810,43.65
-82.02165329,29.70017788,46.93
-82.02174959,29.70017713,33.17
-82.02188793,29.70017607,34.50
-82.02194093,29.70017566,30.69
-82.02205559,29.70017477,30.91
-82.02215736,29.70017399,41.07
-82.02227042,29.70017312,31.17
-82.02265429,29.70017015,31.63
-82.02302385,29.70016728,42.59
-82.02335772,29.70016472,32.21
-82.02336588,29.70016465,39.70
-82.02336794,29.70016451,40.33
-82.02337178,29.70016389,40.32
-82.02337280,29.70016162,38.95
-82.02337083,29.69996727,37.93
-82.02337067,29.69995168,38.77
-82.02337016,29.69990192,42.57
-82.02336899,29.69978593,41.84
-82.02336548,29.69944037,31.82
-82.02336431,29.69932481,45.63
-82.02336177,29.69907375,43.78
-82.02335810,29.69871156,55.26
-82.02335737,29.69864032,39.51
-82.02335542,29.69844904,30.64
-82.02335218,29.69812972,43.15
-82.02335067,29.69797963,43.14
-82.02334935,29.69785076,31.71
-82.02334577,29.69749639,30.10
-82.02334158,29.69708240,39.14
-82.02333916,29.69684330,32.32
-82.02333622,29.69655556,29.29
-82.02333451,29.69638426,41.40
-82.02333015,29.69595565,33.85
-82.02332753,29.69569547,31.74
-82.02332580,29.69552595,30.92
-82.02332136,29.69508895,30.44
-82.02331854,29.69481214,29.67
-82.02331468,29.69443042,32.85
-82.02331139,29.69410289,48.71
-82.02331098,29.69406292,45.68
-82.02330997,29.69396350,45.23
-82.02330996,29.69396251,45.30
-82.02330792,29.69376191,33.61
-82.02330474,29.69344757,43.21
-82.02330074,29.69305193,37.60
-82.02329821,29.69280254,51.83
-82.02329661,29.69264587,32.35
-82.02329364,29.69235379,28.92
-82.02328941,29.69193444,32.59
-82.02328932,29.69192559,29.03
-82.02328628,29.69162522,36.77
-82.02328522,29.69152124,33.56
-82.02328466,29.69146516,33.44
-82.02328237,29.69124195,32.30
-82.02328163,29.69117553,33.06
-82.02328128,29.69115407,33.21
-82.02328046,29.69114293,36.41
-82.02327968,29.69114216,36.37
-82.02327425,29.69114140,36.60
-82.02323781,29.69114147,38.50
-82.02314115,29.69114217,35.70
-82.02301400,29.69114312,35.99
-82.02287616,29.69114419,29.20
-82.02248090,29.69114721,33.90
-82.02214983,29.69114977,43.93
-82.02180958,29.69115240,42.05
-82.02131705,29.69115619,38.26
-82.02123663,29.69115681,36.65
-82.02076767,29.69116045,30.00
-82.02055655,29.69116214,30.49
-82.02010076,29.69116556,36.42
-82.01970023,29.69116868,42.43
-82.01945284,29.69117057,32.33
-82.01922630,29.69117229,30.34
-82.01903714,29.69117375,57.49
-82.01878723,29.69117568,33.99
-82.01869604,29.69117639,42.51
-82.01826989,29.69117965,52.26
-82.01798206,29.69118186,31.29
-82.01768624,29.69118414,33.15
-82.01748733,29.69118568,31.66
-82.01700590,29.69118938,29.26
-82.01675362,29.69119131,32.22
-82.01638596,29.69119412,34.00
-82.01629851,29.69119481,48.54
-82.01588110,29.69119805,34.59
-82.01576693,29.69119887,49.14
-82.01566955,29.69119961,33.82
-82.01521025,29.69120314,36.59
-82.01513001,29.69120375,37.02
-82.01509193,29.69120404,37.17
-82.01483742,29.69120599,51.88
-82.01443446,29.69120907,51.48
-82.01401166,29.69121232,68.65
-82.01363212,29.69121522,46.64
-82.01334039,29.69121745,64.99
-82.01309434,29.69121936,62.40
-82.01300559,29.69122018,56.85
-82.01297855,29.69122050,49.77
-82.01297022,29.69122100,50.04
-82.01295026,29.69122281,49.81
-82.01294748,29.69122744,49.85
-82.01294703,29.69124064,49.91
-82.01294699,29.69125591,56.44
-82.01294751,29.69131564,55.69
-82.01294993,29.69155618,50.75
-82.01295432,29.69199312,56.92
-82.01295819,29.69237996,52.81
-82.01295848,29.69240864,64.62
-82.01295961,29.69252142,57.35
-82.01296411,29.69297054,50.87
-82.01296609,29.69316811,55.85
-82.01296696,29.69325416,50.09
-82.01296808,29.69336581,57.90
-82.01297179,29.69373587,50.38
-82.01297290,29.69384618,50.61
-82.01297540,29.69409578,51.01
-82.01297736,29.69429087,51.04
-82.01297959,29.69451357,50.96
-82.01298043,29.69459732,50.82
-82.01298441,29.69499425,63.81
-82.01298794,29.69534540,57.60
-82.01298901,29.69545263,61.52
-82.01299209,29.69575815,51.57
-82.01299570,29.69611622,47.32
-82.01299926,29.69647380,61.81
-82.01300092,29.69663763,45.47
-82.01300229,29.69676558,43.50
-82.01300587,29.69713090,60.94
-82.01300865,29.69740951,42.63
-82.01300916,29.69746097,60.82
-82.01301090,29.69763421,43.59
-82.01301305,29.69784639,54.86
-82.01301721,29.69826223,49.82
-82.01301854,29.69838743,36.86
-82.01302228,29.69876115,47.73
-82.01302334,29.69887149,33.27
-82.01302508,29.69904722,32.39
-82.01302619,29.69915785,33.07
-82.01302869,29.69940694,28.18
-82.01302950,29.69948726,30.03
-82.01303391,29.69992348,44.90
-82.01303715,29.70022641,28.94
-82.01303880,29.70024079,28.85
-82.01304045,29.70024385,28.19
-82.01323607,29.70024253,28.17
-82.01357733,29.70023993,40.03
-82.01401394,29.70023656,28.23
-82.01430187,29.70023436,29.68
-82.01460560,29.70023204,30.80
-82.01493350,29.70022954,29.92
-82.01519254,29.70022754,30.12
-82.01550160,29.70022519,30.56
-82.01554959,29.70022482,30.92
-82.01592476,29.70022193,28.70
-82.01638966,29.70021837,39.35
-82.01665584,29.70021633,38.18
-82.01674780,29.70021563,46.23
     </coordinates>
    </LineString>
   </MultiGeometry>
  </Placemark>
 </Document>
</kml>
