<kml>
 <Document>
  <Style id="yellow">
   <LineStyle>
   <color>ff00ffff</color>
   <width>1</width>
   </LineStyle>
  </Style>
  <Style id="red">
   <LineStyle>
   <color>ffff0000</color>
   <width>2</width>
   </LineStyle>
  </Style>
  <Style id="green">
   <LineStyle>
   <color>ff00ff00</color>
   <width>1</width>
   </LineStyle>
  </Style>
  <Placemark>
  <styleUrl>#yellow</styleUrl>
   <MultiGeometry>
    <LineString>
     <coordinates>
-82.02325363,29.68840224,30.54
-82.02325455,29.68849312,29.60
-82.02325558,29.68859340,38.47
-82.02325944,29.68897492,45.03
-82.02326062,29.68909186,29.90
-82.02326067,29.68909713,30.24
-82.02326190,29.68921800,31.19
-82.02326508,29.68953041,29.98
-82.02326964,29.68997625,32.35
-82.02327042,29.69005370,28.97
-82.02327245,29.69025594,31.41
-82.02327653,29.69066056,29.24
-82.02327794,29.69080162,30.60
-82.02328094,29.69109729,39.62
-82.02328129,29.69112137,33.19
-82.02328156,29.69113678,36.19
-82.02328381,29.69114031,36.31
-82.02329458,29.69114054,35.60
-82.02332921,29.69114052,31.23
-82.02340339,29.69114007,36.06
-82.02382535,29.69113682,51.35
-82.02429483,29.69113319,39.69
-82.02479033,29.69112936,60.97
-82.02492663,29.69112830,30.38
-82.02541428,29.69112453,33.11
-82.02592482,29.69112055,29.12
-82.02626427,29.69111794,30.59
-82.02652538,29.69111592,35.18
-82.02699846,29.69111224,37.52
-82.02716244,29.69111095,31.98
-82.02730639,29.69110981,34.38
-82.02770034,29.69110679,52.91
-82.02774438,29.69110646,53.98
-82.02795609,29.69110483,33.72
-82.02814785,29.69110334,39.34
-82.02841880,29.69110123,39.32
-82.02887235,29.69109771,51.36
-82.02905534,29.69109629,44.19
-82.02932562,29.69109418,41.67
-82.02964495,29.69109171,43.79
-82.03004473,29.69108855,37.32
-82.03020617,29.69108733,52.60
-82.03050907,29.69108498,54.95
-82.03066156,29.69108380,51.80
-82.03089478,29.69108199,43.63
-82.03109261,29.69108045,50.61
-82.03140457,29.69107802,33.72
-82.03146433,29.69107756,42.23
-82.03180848,29.69107488,32.47
-82.03184690,29.69107458,42.55
-82.03196820,29.69107362,45.23
-82.03228124,29.69107117,47.94
-82.03264325,29.69106837,33.54
-82.03284829,29.69106677,43.74
-82.03297872,29.69106575,43.56
-82.03338186,29.69106260,36.05
-82.03343782,29.69106216,34.31
-82.03348266,29.69106181,41.53
-82.03357563,29.69106101,30.01
-82.03361389,29.69106057,30.36
-82.03361576,29.69106042,31.86
-82.03361608,29.69105754,31.24
-82.03361561,29.69100827,32.59
-82.03361184,29.69063972,33.44
-82.03361112,29.69056935,39.52
-82.03361048,29.69050781,30.98
-82.03361005,29.69046849,31.11
-82.03360577,29.69005532,32.28
-82.03360181,29.68965987,32.71
-82.03359923,29.68941157,32.72
-82.03359649,29.68914163,32.48
-82.03359424,29.68892450,32.58
-82.03359009,29.68851458,32.40
-82.03358874,29.68838211,32.53
-82.03358558,29.68807474,32.92
-82.03358144,29.68767831,32.74
-82.03357946,29.68747578,44.34
-82.03357807,29.68734200,45.35
-82.03357420,29.68696136,32.71
-82.03357013,29.68656788,38.94
-82.03356873,29.68642929,47.30
-82.03356480,29.68604303,53.85
-82.03356268,29.68583714,38.09
-82.03356200,29.68577131,50.00
-82.03356083,29.68565918,45.91
-82.03355946,29.68552782,54.34
-82.03355639,29.68523219,38.59
-82.03355461,29.68505271,40.85
-82.03355356,29.68494656,36.47
-82.03355183,29.68477492,37.03
-82.03354806,29.68440857,37.61
-82.03354404,29.68401696,47.46
-82.03354318,29.68393163,46.99
-82.03354176,29.68379119,53.39
-82.03353848,29.68347045,51.22
-82.03353732,29.68335898,59.79
-82.03353337,29.68297564,56.51
-82.03353020,29.68266296,37.26
-82.03352779,29.68242556,51.32
-82.03352429,29.68209317,52.21
-82.03352372,29.68205252,46.59
-82.03352334,29.68204297,48.96
-82.03352281,29.68203984,48.86
-82.03352196,29.68203726,45.16
-82.03302089,29.68204118,45.20
-82.03271089,29.68204357,45.07
-82.03233536,29.68204649,41.88
-82.03227412,29.68204697,29.90
-82.03193212,29.68204964,50.25
-82.03160249,29.68205220,34.96
-82.03149476,29.68205304,46.27
-82.03123387,29.68205510,53.20
-82.03095703,29.68205722,47.49
-82.03070714,29.68205919,31.71
-82.03021919,29.68206297,40.31
-82.02992590,29.68206527,35.03
-82.02954164,29.68206824,45.98
-82.02917779,29.68207106,30.62
-82.02913989,29.68207135,35.33
-82.02883767,29.68207370,28.75
-82.02861953,29.68207539,39.60
-82.02859939,29.68207555,32.61
-82.02845797,29.68207665,31.52
-82.02830766,29.68207781,46.10
-82.02813817,29.68207914,42.40
-82.02775060,29.68208214,43.79
-82.02759922,29.68208332,29.50
-82.02722134,29.68208627,52.58
-82.02688841,29.68208883,40.54
-82.02672449,29.68209010,41.47
-82.02659605,29.68209110,29.46
-82.02615399,29.68209452,29.91
-82.02602044,29.68209555,48.26
-82.02568942,29.68209811,34.17
-82.02555827,29.68209913,39.15
-82.02509223,29.68210278,35.78
-82.02466446,29.68210604,29.34
-82.02459098,29.68210661,29.00
-82.02420215,29.68210961,49.48
-82.02396064,29.68211149,33.72
-82.02345356,29.68211541,42.97
-82.02320607,29.68211734,31.27
-82.02319623,29.68211750,55.38
-82.02319188,29.68211801,44.38
-82.02319082,29.68211855,41.26
-82.02319063,29.68212597,34.79
-82.02319031,29.68214656,34.27
-82.02319081,29.68220050,44.53
-82.02319236,29.68235397,47.30
-82.02319590,29.68270180,31.18
-82.02319697,29.68280630,32.73
-82.02320069,29.68317434,41.33
-82.02320252,29.68335671,35.10
-82.02320269,29.68337322,33.30
-82.02320547,29.68364709,40.66
-82.02320795,29.68389284,43.18
-82.02321120,29.68421304,46.48
-82.02321384,29.68447383,37.52
-82.02321615,29.68470205,29.18
-82.02321721,29.68480741,36.75
-82.02321779,29.68486448,38.77
-82.02321899,29.68498263,31.85
-82.02322337,29.68541162,31.17
-82.02322759,29.68582973,32.24
-82.02322814,29.68588490,30.65
-82.02322891,29.68596073,31.09
-82.02323216,29.68628144,55.49
-82.02323393,29.68645559,61.83
-82.02323676,29.68673645,36.77
-82.02323717,29.68677739,29.94
-82.02324048,29.68710379,31.78
-82.02324318,29.68737032,29.45
-82.02324686,29.68773280,29.41
-82.02325136,29.68817786,30.30
-82.02325363,29.68840224,30.54
     </coordinates>
    </LineString>
   </MultiGeometry>
  </Placemark>
 </Document>
</kml>
