<kml>
 <Document>
  <Style id="yellow">
   <LineStyle>
   <color>ff00ffff</color>
   <width>1</width>
   </LineStyle>
  </Style>
  <Style id="red">
   <LineStyle>
   <color>ffff0000</color>
   <width>2</width>
   </LineStyle>
  </Style>
  <Style id="green">
   <LineStyle>
   <color>ff00ff00</color>
   <width>1</width>
   </LineStyle>
  </Style>
  <Placemark>
  <styleUrl>#yellow</styleUrl>
   <MultiGeometry>
    <LineString>
     <coordinates>
-82.00659359,29.70029317,41.61
-82.00687859,29.70029102,52.52
-82.00717144,29.70028878,44.04
-82.00749399,29.70028635,43.51
-82.00794897,29.70028288,43.47
-82.00803471,29.70028223,52.56
-82.00849055,29.70027873,60.06
-82.00894314,29.70027529,39.24
-82.00917618,29.70027354,37.96
-82.00954055,29.70027076,55.38
-82.01000084,29.70026725,44.99
-82.01013431,29.70026623,47.48
-82.01041899,29.70026406,46.86
-82.01045747,29.70026377,48.26
-82.01094993,29.70026000,43.18
-82.01100357,29.70025959,49.00
-82.01144778,29.70025618,48.86
-82.01175219,29.70025386,29.44
-82.01202288,29.70025175,47.79
-82.01233121,29.70024938,40.31
-82.01257945,29.70024756,32.93
-82.01294578,29.70024475,38.64
-82.01300167,29.70024423,32.27
-82.01301389,29.70024386,28.81
-82.01301855,29.70024343,28.38
-82.01303502,29.70024135,28.55
-82.01303577,29.70023393,28.78
-82.01303646,29.70020637,28.56
-82.01303521,29.70007260,29.97
-82.01303301,29.69984554,51.33
-82.01303208,29.69975072,30.32
-82.01302989,29.69952894,47.09
-82.01302949,29.69948894,29.61
-82.01302572,29.69911289,34.60
-82.01302558,29.69909886,28.45
-82.01302287,29.69883033,33.96
-82.01301881,29.69842329,36.51
-82.01301829,29.69837254,46.17
-82.01301623,29.69817023,53.05
-82.01301343,29.69788671,41.14
-82.01301221,29.69776531,59.08
-82.01301171,29.69771537,42.10
-82.01300719,29.69726806,43.34
-82.01300685,29.69723436,56.45
-82.01300652,29.69720150,43.57
-82.01300574,29.69712350,60.26
-82.01300167,29.69672143,43.80
-82.01299971,29.69652083,66.92
-82.01299860,29.69640879,54.08
-82.01299836,29.69638536,53.01
-82.01299407,29.69595885,47.06
-82.01299180,29.69573136,48.28
-82.01299080,29.69563129,47.01
-82.01298977,29.69552930,59.31
-82.01298780,29.69533263,55.53
-82.01298658,29.69521155,63.59
-82.01298603,29.69515633,65.05
-82.01298448,29.69500191,60.36
-82.01298010,29.69456571,50.86
-82.01297688,29.69424616,58.41
-82.01297523,29.69408053,51.01
-82.01297094,29.69365204,50.20
-82.01296932,29.69349068,49.92
-82.01296686,29.69324524,66.48
-82.01296340,29.69290108,51.05
-82.01296073,29.69263504,60.11
-82.01295793,29.69235513,62.80
-82.01295581,29.69214362,53.10
-82.01295480,29.69204318,51.52
-82.01295259,29.69182383,59.85
-82.01295062,29.69162977,58.85
-82.01294706,29.69127339,62.02
-82.01294613,29.69122311,49.87
-82.01293947,29.69122073,49.89
-82.01288030,29.69122100,50.14
-82.01284458,29.69122124,50.27
-82.01237571,29.69122484,69.21
-82.01191752,29.69122837,68.06
-82.01182356,29.69122907,63.51
-82.01168340,29.69123013,53.37
-82.01146241,29.69123182,53.10
-82.01103630,29.69123505,52.50
-82.01103581,29.69123506,52.49
-82.01054352,29.69123881,52.21
-82.01019196,29.69124149,52.36
-82.00993122,29.69124351,52.47
-82.00966763,29.69124550,62.08
-82.00951372,29.69124668,51.94
-82.00924964,29.69124871,67.39
-82.00892650,29.69125116,51.24
-82.00867619,29.69125305,50.77
-82.00825279,29.69125628,51.47
-82.00787219,29.69125917,48.74
-82.00742756,29.69126260,64.20
-82.00693129,29.69126638,58.84
-82.00685936,29.69126691,50.43
-82.00672099,29.69126794,42.41
-82.00655304,29.69126920,45.68
-82.00627259,29.69127133,40.06
-82.00581008,29.69127485,36.39
-82.00559682,29.69127646,41.63
-82.00523451,29.69127923,30.95
-82.00519707,29.69127953,30.89
-82.00518136,29.69128007,30.95
-82.00513560,29.69128187,30.85
-82.00511423,29.69128446,31.05
-82.00511403,29.69128527,30.97
-82.00510910,29.69131204,30.86
-82.00490943,29.69155472,30.88
-82.00458325,29.69139371,30.86
-82.00457560,29.69137333,30.82
-82.00454177,29.69128781,30.89
-82.00453930,29.69128614,31.07
-82.00453572,29.69128483,30.96
-82.00452335,29.69128466,30.88
-82.00446232,29.69128508,30.85
-82.00408918,29.69128789,34.90
-82.00379389,29.69129013,38.65
-82.00332937,29.69129365,41.97
-82.00301899,29.69129603,42.59
-82.00270683,29.69129838,42.50
-82.00262462,29.69129905,42.55
-82.00261705,29.69129919,59.20
-82.00261321,29.69129977,59.46
-82.00261205,29.69130391,57.86
-82.00261223,29.69135026,53.45
-82.00261227,29.69135619,56.89
-82.00261300,29.69143023,41.80
-82.00261306,29.69143629,55.22
-82.00261521,29.69165092,58.68
-82.00261865,29.69199831,41.72
-82.00262292,29.69242940,39.32
-82.00262729,29.69286634,55.29
-82.00263079,29.69322059,42.03
-82.00263506,29.69364853,49.28
-82.00263920,29.69406708,40.92
-82.00264013,29.69416276,41.00
-82.00264265,29.69441364,41.19
-82.00264695,29.69484964,48.87
-82.00264847,29.69500337,41.94
-82.00265279,29.69543700,41.40
-82.00265663,29.69582489,40.37
-82.00265918,29.69608025,42.06
-82.00266120,29.69628356,42.04
-82.00266383,29.69654660,40.06
-82.00266586,29.69675295,51.91
-82.00266813,29.69698269,51.90
-82.00267125,29.69729670,41.84
-82.00267352,29.69752498,41.84
-82.00267425,29.69759852,49.69
-82.00267723,29.69789568,53.61
-82.00267937,29.69810864,54.00
-82.00268267,29.69844639,41.37
-82.00268606,29.69878836,59.19
-82.00268777,29.69896012,43.74
-82.00268804,29.69898762,43.86
-82.00268901,29.69908429,60.52
-82.00269295,29.69948213,43.10
-82.00269682,29.69987026,56.24
-82.00269786,29.69997478,50.77
-82.00269842,29.70003130,55.52
-82.00270086,29.70027715,38.48
-82.00270145,29.70031103,51.27
-82.00270169,29.70031491,48.68
-82.00270218,29.70031985,51.53
-82.00270434,29.70032230,52.58
-82.00271974,29.70032246,38.22
-82.00274509,29.70032229,38.20
-82.00301025,29.70032037,47.82
-82.00324791,29.70031852,38.45
-82.00358441,29.70031595,54.27
-82.00387849,29.70031380,55.46
-82.00403941,29.70031253,37.22
-82.00452463,29.70030886,38.17
-82.00475607,29.70030713,38.40
-82.00485307,29.70030640,38.37
-82.00504997,29.70030491,38.34
-82.00551838,29.70030136,51.33
-82.00597423,29.70029789,49.39
-82.00628435,29.70029550,40.14
-82.00659359,29.70029317,41.61
     </coordinates>
    </LineString>
   </MultiGeometry>
  </Placemark>
 </Document>
</kml>
