<kml>
 <Document>
  <Style id="yellow">
   <LineStyle>
   <color>ff00ffff</color>
   <width>1</width>
   </LineStyle>
  </Style>
  <Style id="red">
   <LineStyle>
   <color>ffff0000</color>
   <width>2</width>
   </LineStyle>
  </Style>
  <Style id="green">
   <LineStyle>
   <color>ff00ff00</color>
   <width>1</width>
   </LineStyle>
  </Style>
  <Placemark>
  <styleUrl>#yellow</styleUrl>
   <MultiGeometry>
    <LineString>
     <coordinates>
-84.32861000,35.93198970,307.74
-84.32860224,35.93221960,343.28
-84.32859093,35.93255681,352.20
-84.32858273,35.93280042,351.21
-84.32857576,35.93300706,324.60
-84.32856175,35.93342289,348.34
-84.32855933,35.93349550,343.95
-84.32854818,35.93382843,306.71
-84.32853666,35.93416755,296.22
-84.32852915,35.93439063,320.44
-84.32852694,35.93445645,325.38
-84.32852218,35.93460096,309.57
-84.32852086,35.93464923,316.10
-84.32852188,35.93465484,292.37
-84.32852994,35.93466039,292.16
-84.32873251,35.93466490,319.64
-84.32893322,35.93466936,313.56
-84.32912602,35.93467364,324.83
-84.32957380,35.93468362,332.23
-84.32978967,35.93468844,332.47
-84.32997294,35.93469252,331.73
-84.33005841,35.93469442,338.81
-84.33010167,35.93469538,322.50
-84.33035797,35.93470108,339.35
-84.33067024,35.93470804,345.92
-84.33097359,35.93471477,333.38
-84.33134744,35.93472310,348.79
-84.33171396,35.93473125,352.43
-84.33210827,35.93474003,351.20
-84.33265752,35.93475219,354.27
-84.33282421,35.93475591,353.19
-84.33313904,35.93476293,340.29
-84.33336662,35.93476800,347.96
-84.33382597,35.93477821,347.92
-84.33437037,35.93479029,334.58
-84.33479687,35.93479978,334.71
-84.33525828,35.93481004,334.82
-84.33574246,35.93482076,328.65
-84.33584088,35.93482295,328.34
-84.33602692,35.93482710,323.84
-84.33655748,35.93483889,329.98
-84.33662422,35.93484037,330.87
-84.33693318,35.93484718,321.61
-84.33743723,35.93485837,322.23
-84.33768767,35.93486396,304.56
-84.33794817,35.93486976,316.06
-84.33821194,35.93487558,318.76
-84.33851668,35.93488233,284.79
-84.33857763,35.93488368,308.26
-84.33911324,35.93489561,300.37
-84.33955759,35.93490541,287.28
-84.33956985,35.93490567,291.95
-84.33959382,35.93490382,288.03
-84.33959570,35.93486226,293.06
-84.33959636,35.93484365,295.02
-84.33960142,35.93469361,285.91
-84.33961390,35.93432125,294.94
-84.33961670,35.93423782,308.28
-84.33962550,35.93397546,305.71
-84.33962651,35.93394519,295.88
-84.33963998,35.93354331,289.70
-84.33964995,35.93324567,287.72
-84.33966038,35.93293421,305.34
-84.33967207,35.93258594,303.24
-84.33968045,35.93233627,277.60
-84.33969277,35.93196871,299.65
-84.33969837,35.93180201,277.58
-84.33970240,35.93168164,290.92
-84.33970300,35.93166382,281.32
-84.33970523,35.93159716,274.79
-84.33971092,35.93142752,272.71
-84.33971136,35.93141437,266.54
-84.33971543,35.93129300,283.33
-84.33972373,35.93104525,297.62
-84.33973609,35.93067676,313.52
-84.33974423,35.93043392,312.95
-84.33975545,35.93009927,307.11
-84.33976359,35.92985659,321.10
-84.33976637,35.92977322,323.76
-84.33977878,35.92940307,307.07
-84.33978168,35.92931690,313.08
-84.33978719,35.92915254,317.75
-84.33978953,35.92908266,315.86
-84.33979692,35.92886217,302.99
-84.33980450,35.92863543,314.67
-84.33981348,35.92836807,312.90
-84.33981588,35.92829645,312.98
-84.33982725,35.92795745,303.91
-84.33983945,35.92759344,290.43
-84.33984293,35.92748970,309.14
-84.33984639,35.92738626,290.08
-84.33985555,35.92711234,292.82
-84.33986297,35.92689130,312.41
-84.33987604,35.92650143,308.29
-84.33989033,35.92607535,335.81
-84.33989198,35.92602557,314.74
-84.33989345,35.92597879,336.87
-84.33989509,35.92591825,320.69
-84.33989519,35.92591061,328.17
-84.33989442,35.92590099,329.82
-84.33989316,35.92590064,334.59
-84.33988556,35.92589975,329.99
-84.33943688,35.92588980,327.71
-84.33895213,35.92587905,338.99
-84.33868610,35.92587315,330.21
-84.33847033,35.92586836,332.56
-84.33809712,35.92586009,329.39
-84.33767302,35.92585070,325.34
-84.33724444,35.92584118,317.93
-84.33702693,35.92583634,327.28
-84.33656078,35.92582598,325.48
-84.33645280,35.92582358,312.17
-84.33634266,35.92582114,308.32
-84.33594374,35.92581228,301.20
-84.33565271,35.92580583,325.19
-84.33510522,35.92579367,321.71
-84.33483968,35.92578777,323.26
-84.33446561,35.92577948,302.86
-84.33427139,35.92577513,326.27
-84.33416708,35.92577282,324.08
-84.33392295,35.92576739,328.74
-84.33390202,35.92576693,305.65
-84.33368026,35.92576204,304.94
-84.33319128,35.92575115,307.40
-84.33275944,35.92574159,299.69
-84.33246333,35.92573497,294.88
-84.33232111,35.92573179,291.93
-84.33193187,35.92572315,292.60
-84.33149865,35.92571353,309.68
-84.33117799,35.92570636,306.49
-84.33080296,35.92569803,309.64
-84.33055327,35.92569248,288.94
-84.33017270,35.92568399,306.67
-84.32993742,35.92567879,299.74
-84.32938694,35.92566654,292.68
-84.32916220,35.92566152,288.44
-84.32885263,35.92565475,262.81
-84.32882880,35.92565474,278.99
-84.32882523,35.92565529,275.94
-84.32882332,35.92566053,263.64
-84.32881592,35.92587400,291.31
-84.32881311,35.92595554,275.79
-84.32880161,35.92629717,298.71
-84.32879125,35.92660614,279.89
-84.32878349,35.92683630,305.15
-84.32877527,35.92708173,310.76
-84.32876679,35.92733174,315.53
-84.32875376,35.92771863,316.92
-84.32874289,35.92804172,304.26
-84.32873981,35.92813364,298.56
-84.32873515,35.92827310,301.99
-84.32873025,35.92842020,303.33
-84.32871801,35.92878364,309.21
-84.32871143,35.92898360,311.83
-84.32869783,35.92938016,317.56
-84.32869155,35.92956764,338.11
-84.32867790,35.92997301,339.80
-84.32867432,35.93007897,337.70
-84.32866469,35.93036447,319.83
-84.32866439,35.93037363,346.47
-84.32865201,35.93074203,314.07
-84.32864142,35.93105672,344.02
-84.32863651,35.93120181,340.85
-84.32862898,35.93142536,330.02
-84.32861770,35.93176120,328.42
-84.32861000,35.93198970,307.74
     </coordinates>
    </LineString>
   </MultiGeometry>
  </Placemark>
 </Document>
</kml>
