<kml>
 <Document>
  <Style id="yellow">
   <LineStyle>
   <color>ff00ffff</color>
   <width>1</width>
   </LineStyle>
  </Style>
  <Style id="red">
   <LineStyle>
   <color>ffff0000</color>
   <width>2</width>
   </LineStyle>
  </Style>
  <Style id="green">
   <LineStyle>
   <color>ff00ff00</color>
   <width>1</width>
   </LineStyle>
  </Style>
  <Placemark>
  <styleUrl>#yellow</styleUrl>
   <MultiGeometry>
    <LineString>
     <coordinates>
-84.28392351,35.94245794,267.60
-84.28391975,35.94256778,265.26
-84.28391683,35.94266284,261.22
-84.28391783,35.94266720,261.19
-84.28391976,35.94266860,261.19
-84.28394032,35.94267145,261.12
-84.28394673,35.94267184,261.08
-84.28397905,35.94267279,260.94
-84.28450372,35.94268472,265.21
-84.28458840,35.94268664,267.37
-84.28486477,35.94269288,265.50
-84.28499683,35.94269586,267.60
-84.28544957,35.94270613,264.78
-84.28589132,35.94271612,259.16
-84.28608865,35.94272059,258.95
-84.28610136,35.94272088,257.72
-84.28650455,35.94273000,254.30
-84.28668513,35.94273408,262.37
-84.28721190,35.94274597,260.39
-84.28741108,35.94275050,262.56
-84.28760624,35.94275491,261.06
-84.28798949,35.94276358,257.74
-84.28821820,35.94276875,261.41
-84.28860464,35.94277747,259.56
-84.28891289,35.94278445,272.33
-84.28908749,35.94278841,273.61
-84.28945289,35.94279666,257.04
-84.28996204,35.94280814,270.07
-84.29044952,35.94281917,277.81
-84.29089650,35.94282928,278.75
-84.29134337,35.94283937,269.07
-84.29150850,35.94284308,277.39
-84.29201760,35.94285459,267.30
-84.29252036,35.94286594,270.80
-84.29274989,35.94287112,258.80
-84.29275993,35.94287135,275.56
-84.29297696,35.94287625,270.28
-84.29349948,35.94288803,265.75
-84.29383490,35.94289560,271.95
-84.29420138,35.94290384,283.02
-84.29442364,35.94290887,284.90
-84.29472472,35.94291567,282.19
-84.29484806,35.94291844,270.17
-84.29497393,35.94292125,268.60
-84.29498649,35.94292123,268.61
-84.29498751,35.94291918,268.61
-84.29498904,35.94291566,268.54
-84.29499058,35.94290596,268.56
-84.29499164,35.94289590,268.24
-84.29499266,35.94287454,268.71
-84.29499805,35.94271809,279.25
-84.29500397,35.94254468,288.93
-84.29501278,35.94228631,296.92
-84.29501991,35.94207781,292.00
-84.29502715,35.94186549,283.13
-84.29503325,35.94168645,295.63
-84.29504421,35.94136522,292.75
-84.29504456,35.94135480,277.23
-84.29505801,35.94096022,283.92
-84.29506804,35.94066646,270.31
-84.29507573,35.94044048,282.89
-84.29508228,35.94024807,281.62
-84.29509109,35.93998963,261.61
-84.29509708,35.93981349,275.32
-84.29510682,35.93952906,274.70
-84.29511268,35.93935719,255.76
-84.29511634,35.93924977,255.54
-84.29512741,35.93892446,262.80
-84.29513357,35.93874411,256.85
-84.29513735,35.93863368,256.84
-84.29514933,35.93828212,268.93
-84.29516168,35.93792026,272.68
-84.29517085,35.93765113,261.71
-84.29518564,35.93721693,270.77
-84.29519569,35.93692102,262.21
-84.29520511,35.93664601,264.90
-84.29521229,35.93643577,271.97
-84.29522059,35.93619003,264.27
-84.29523049,35.93590202,286.08
-84.29524470,35.93548504,278.39
-84.29525346,35.93522658,284.78
-84.29526023,35.93502925,270.80
-84.29526733,35.93482124,289.95
-84.29527370,35.93463435,293.85
-84.29528184,35.93439559,305.84
-84.29528791,35.93421749,310.10
-84.29529375,35.93404516,293.91
-84.29529727,35.93393340,315.80
-84.29529744,35.93392076,318.80
-84.29529737,35.93391721,287.74
-84.29529278,35.93391654,287.76
-84.29527777,35.93391534,296.57
-84.29519020,35.93391330,317.90
-84.29486601,35.93390599,286.25
-84.29449930,35.93389778,319.81
-84.29422962,35.93389166,311.96
-84.29369025,35.93387949,305.36
-84.29322593,35.93386900,307.73
-84.29280383,35.93385947,299.76
-84.29226785,35.93384737,285.08
-84.29214997,35.93384475,291.20
-84.29165093,35.93383347,314.93
-84.29150925,35.93383025,308.28
-84.29124895,35.93382437,308.06
-84.29120233,35.93382331,318.34
-84.29110636,35.93382115,301.73
-84.29056427,35.93380892,332.88
-84.29034800,35.93380408,332.44
-84.28980607,35.93379179,312.92
-84.28930589,35.93378050,328.77
-84.28886998,35.93377063,319.78
-84.28861032,35.93376476,327.28
-84.28808767,35.93375296,318.72
-84.28753860,35.93374055,312.86
-84.28724543,35.93373391,298.98
-84.28704363,35.93372937,299.73
-84.28666716,35.93372084,292.49
-84.28650705,35.93371721,291.04
-84.28627749,35.93371201,296.90
-84.28583811,35.93370209,281.83
-84.28554161,35.93369538,280.25
-84.28528734,35.93368967,270.31
-84.28483574,35.93367938,257.98
-84.28439855,35.93366949,272.97
-84.28424724,35.93366609,268.43
-84.28424374,35.93366610,261.24
-84.28422489,35.93366621,254.95
-84.28422438,35.93367526,254.98
-84.28422302,35.93371182,265.14
-84.28421885,35.93383248,273.66
-84.28421511,35.93394069,251.40
-84.28421014,35.93408579,250.55
-84.28420169,35.93433272,272.82
-84.28419258,35.93459892,271.47
-84.28418056,35.93495043,276.04
-84.28416900,35.93528788,268.53
-84.28416825,35.93530963,276.09
-84.28416652,35.93536027,278.12
-84.28416561,35.93538690,274.56
-84.28416161,35.93550378,280.70
-84.28415362,35.93573707,272.69
-84.28414574,35.93596753,291.19
-84.28413594,35.93625395,300.22
-84.28412794,35.93648726,301.08
-84.28412158,35.93667332,298.16
-84.28411056,35.93699529,297.28
-84.28409596,35.93742148,313.11
-84.28408274,35.93780756,291.31
-84.28407796,35.93794713,316.87
-84.28407622,35.93799803,312.25
-84.28406832,35.93822876,283.14
-84.28406413,35.93835115,300.64
-84.28406133,35.93843299,292.60
-84.28406098,35.93844300,294.76
-84.28404821,35.93881634,299.47
-84.28404036,35.93904527,302.20
-84.28403056,35.93933155,293.64
-84.28402100,35.93961151,296.95
-84.28400696,35.94002141,291.53
-84.28400176,35.94017318,295.08
-84.28399781,35.94028807,293.21
-84.28399756,35.94029554,304.57
-84.28399639,35.94032947,291.36
-84.28399425,35.94039217,313.13
-84.28398053,35.94079317,293.13
-84.28397723,35.94088912,286.75
-84.28396586,35.94122110,292.03
-84.28395492,35.94154059,286.96
-84.28394659,35.94178448,269.70
-84.28393815,35.94203143,277.69
-84.28392651,35.94237078,265.55
-84.28392351,35.94245794,267.60
     </coordinates>
    </LineString>
   </MultiGeometry>
  </Placemark>
 </Document>
</kml>
