<kml>
 <Document>
  <Style id="yellow">
   <LineStyle>
   <color>ff00ffff</color>
   <width>1</width>
   </LineStyle>
  </Style>
  <Style id="red">
   <LineStyle>
   <color>ffff0000</color>
   <width>2</width>
   </LineStyle>
  </Style>
  <Style id="green">
   <LineStyle>
   <color>ff00ff00</color>
   <width>1</width>
   </LineStyle>
  </Style>
  <Placemark>
  <styleUrl>#yellow</styleUrl>
   <MultiGeometry>
    <LineString>
     <coordinates>
-84.33842961,35.96961092,266.57
-84.33841492,35.97004837,266.14
-84.33840690,35.97028786,251.57
-84.33839851,35.97053712,250.12
-84.33838539,35.97092739,248.25
-84.33838846,35.97093089,248.25
-84.33842270,35.97093187,248.19
-84.33851356,35.97093416,248.48
-84.33868548,35.97093800,250.18
-84.33891612,35.97094312,251.53
-84.33900421,35.97094508,246.63
-84.33912024,35.97094765,247.28
-84.33933694,35.97095246,249.79
-84.33959431,35.97095814,244.41
-84.33974120,35.97096138,242.29
-84.34016057,35.97097073,239.09
-84.34065928,35.97098179,257.50
-84.34067747,35.97098220,261.37
-84.34068516,35.97098237,259.03
-84.34107049,35.97099091,237.42
-84.34136994,35.97099755,236.70
-84.34166289,35.97100404,246.12
-84.34183589,35.97100786,241.32
-84.34212891,35.97101432,241.38
-84.34260330,35.97102489,240.06
-84.34287341,35.97103079,239.14
-84.34327956,35.97103982,238.26
-84.34381437,35.97105172,238.58
-84.34398684,35.97105553,239.47
-84.34439803,35.97106463,239.67
-84.34473742,35.97107217,238.39
-84.34478740,35.97107327,237.87
-84.34520297,35.97108247,239.62
-84.34520636,35.97108255,237.67
-84.34559134,35.97109106,241.27
-84.34576928,35.97109500,240.92
-84.34581505,35.97109601,236.98
-84.34614138,35.97110316,243.02
-84.34647176,35.97111055,248.70
-84.34692105,35.97112050,239.02
-84.34700114,35.97112227,262.58
-84.34741656,35.97113144,253.57
-84.34777422,35.97113937,246.76
-84.34811290,35.97114684,253.76
-84.34839384,35.97115307,250.36
-84.34849936,35.97115541,245.45
-84.34850586,35.97115555,266.06
-84.34857430,35.97115706,238.61
-84.34908367,35.97116832,253.18
-84.34944608,35.97117628,245.88
-84.34946194,35.97117500,239.39
-84.34946465,35.97117420,249.77
-84.34946983,35.97102092,256.92
-84.34947884,35.97074984,245.73
-84.34948600,35.97053751,245.04
-84.34949894,35.97015040,241.77
-84.34950903,35.96984721,251.46
-84.34951867,35.96956079,237.47
-84.34952458,35.96938438,242.55
-84.34953842,35.96897020,259.35
-84.34954415,35.96879905,239.74
-84.34954442,35.96879103,252.83
-84.34955026,35.96861655,255.36
-84.34956397,35.96820648,250.90
-84.34956756,35.96809923,242.00
-84.34958168,35.96767695,237.29
-84.34958656,35.96753127,237.29
-84.34959171,35.96737708,237.00
-84.34960292,35.96704200,237.33
-84.34961139,35.96678809,236.99
-84.34962482,35.96638694,243.39
-84.34963542,35.96606964,245.09
-84.34964551,35.96576812,256.71
-84.34964756,35.96570674,260.70
-84.34966014,35.96533026,270.84
-84.34966354,35.96522891,256.25
-84.34966357,35.96522811,254.76
-84.34966453,35.96519948,268.66
-84.34967122,35.96499940,260.50
-84.34967920,35.96476024,261.72
-84.34968991,35.96443931,263.54
-84.34969794,35.96420040,254.52
-84.34970180,35.96408465,239.91
-84.34971463,35.96370154,240.14
-84.34972417,35.96341479,256.30
-84.34973055,35.96322414,293.01
-84.34973727,35.96302269,297.60
-84.34974563,35.96277348,312.27
-84.34975082,35.96261893,315.45
-84.34976243,35.96227162,308.07
-84.34976353,35.96223348,307.67
-84.34976382,35.96222325,308.58
-84.34976463,35.96218817,324.78
-84.34976481,35.96217780,326.43
-84.34976474,35.96217264,328.36
-84.34973410,35.96216979,320.53
-84.34969364,35.96216886,331.18
-84.34944620,35.96216337,331.26
-84.34927167,35.96215952,336.58
-84.34911476,35.96215606,311.09
-84.34899628,35.96215346,325.24
-84.34856532,35.96214395,324.32
-84.34839941,35.96214025,334.95
-84.34829263,35.96213789,329.02
-84.34817047,35.96213519,339.06
-84.34766179,35.96212392,336.87
-84.34727865,35.96211546,342.25
-84.34690129,35.96210712,330.27
-84.34666415,35.96210185,336.03
-84.34663449,35.96210120,342.53
-84.34648214,35.96209783,337.23
-84.34626713,35.96209309,340.83
-84.34587531,35.96208442,335.05
-84.34537082,35.96207325,320.79
-84.34511753,35.96206763,315.52
-84.34489709,35.96206274,287.60
-84.34460657,35.96205632,294.72
-84.34433156,35.96205022,260.43
-84.34383874,35.96203931,284.61
-84.34338730,35.96202932,285.13
-84.34326798,35.96202666,295.99
-84.34317964,35.96202471,295.25
-84.34314884,35.96202402,312.53
-84.34305467,35.96202194,315.58
-84.34277793,35.96201581,305.75
-84.34227111,35.96200460,300.84
-84.34205584,35.96199980,300.06
-84.34194707,35.96199739,317.39
-84.34149134,35.96198734,305.69
-84.34127193,35.96198243,295.38
-84.34083129,35.96197267,298.04
-84.34042916,35.96196374,310.46
-84.34013384,35.96195719,312.92
-84.33984639,35.96195081,319.11
-84.33946946,35.96194248,303.28
-84.33905230,35.96193320,301.54
-84.33873584,35.96192619,321.65
-84.33871593,35.96192585,324.09
-84.33868781,35.96192674,313.81
-84.33868695,35.96194839,299.11
-84.33868608,35.96197397,327.09
-84.33867727,35.96223716,329.75
-84.33866741,35.96253032,334.31
-84.33866015,35.96274615,318.04
-84.33864840,35.96309629,302.38
-84.33863687,35.96343945,313.04
-84.33862705,35.96373221,283.72
-84.33861741,35.96401947,311.39
-84.33860240,35.96446610,331.15
-84.33858742,35.96491246,350.60
-84.33858059,35.96511610,351.07
-84.33856546,35.96556589,339.65
-84.33856037,35.96571812,341.02
-84.33854828,35.96607749,340.63
-84.33854590,35.96614830,342.20
-84.33853715,35.96640883,341.01
-84.33852711,35.96670895,324.71
-84.33852094,35.96689186,294.62
-84.33850992,35.96721984,283.97
-84.33850060,35.96749809,278.28
-84.33849315,35.96771905,277.08
-84.33848426,35.96798506,269.79
-84.33847188,35.96835249,271.54
-84.33846721,35.96849167,268.74
-84.33845322,35.96890835,263.45
-84.33844977,35.96901080,282.31
-84.33844589,35.96912606,273.05
-84.33843568,35.96943047,262.10
-84.33842961,35.96961092,266.57
     </coordinates>
    </LineString>
   </MultiGeometry>
  </Placemark>
 </Document>
</kml>
