<kml>
 <Document>
  <Style id="yellow">
   <LineStyle>
   <color>ff00ffff</color>
   <width>1</width>
   </LineStyle>
  </Style>
  <Style id="red">
   <LineStyle>
   <color>ffff0000</color>
   <width>2</width>
   </LineStyle>
  </Style>
  <Style id="green">
   <LineStyle>
   <color>ff00ff00</color>
   <width>1</width>
   </LineStyle>
  </Style>
  <Placemark>
  <styleUrl>#yellow</styleUrl>
   <MultiGeometry>
    <LineString>
     <coordinates>
-84.31653881,35.96122896,295.67
-84.31653425,35.96136158,300.27
-84.31653294,35.96140819,294.37
-84.31653271,35.96142699,294.37
-84.31654097,35.96143108,294.50
-84.31655173,35.96143171,286.51
-84.31657514,35.96143232,289.69
-84.31681713,35.96143776,295.31
-84.31684833,35.96143846,280.34
-84.31686907,35.96143892,295.64
-84.31726020,35.96144767,278.28
-84.31774588,35.96145853,290.43
-84.31775218,35.96145867,284.22
-84.31821957,35.96146912,291.89
-84.31847305,35.96147478,299.03
-84.31891718,35.96148472,296.71
-84.31903682,35.96148740,301.24
-84.31926259,35.96149245,314.17
-84.31931842,35.96149370,319.71
-84.31965532,35.96150121,305.58
-84.32004664,35.96150994,318.51
-84.32041659,35.96151822,304.75
-84.32081543,35.96152715,320.35
-84.32115077,35.96153464,314.00
-84.32134774,35.96153903,307.18
-84.32172607,35.96154749,316.82
-84.32188594,35.96155106,302.99
-84.32207840,35.96155536,325.89
-84.32213250,35.96155657,320.39
-84.32249581,35.96156468,319.27
-84.32261202,35.96156727,315.84
-84.32268126,35.96156882,324.72
-84.32300755,35.96157610,314.74
-84.32302969,35.96157660,329.87
-84.32352822,35.96158772,315.99
-84.32362220,35.96158982,312.34
-84.32392338,35.96159653,308.73
-84.32433328,35.96160567,292.39
-84.32476015,35.96161520,276.14
-84.32501167,35.96162082,275.23
-84.32537253,35.96162887,281.52
-84.32562802,35.96163457,274.41
-84.32608314,35.96164469,277.28
-84.32646764,35.96165329,261.75
-84.32658780,35.96165596,276.48
-84.32683502,35.96166146,275.52
-84.32715111,35.96166853,289.28
-84.32741468,35.96167440,288.35
-84.32753083,35.96167697,283.36
-84.32759299,35.96167831,260.66
-84.32760449,35.96167813,281.35
-84.32760627,35.96167739,261.00
-84.32760857,35.96167457,281.50
-84.32760884,35.96167287,260.85
-84.32760903,35.96167160,282.38
-84.32761033,35.96164957,278.70
-84.32761115,35.96163108,279.45
-84.32761247,35.96159586,284.19
-84.32762514,35.96122144,281.38
-84.32763136,35.96103687,274.30
-84.32764014,35.96077642,284.53
-84.32765050,35.96046906,284.96
-84.32765276,35.96040212,296.15
-84.32766292,35.96010063,295.40
-84.32766785,35.95995463,303.60
-84.32767944,35.95961051,295.86
-84.32768305,35.95950368,308.57
-84.32768657,35.95939922,296.52
-84.32768810,35.95935386,302.72
-84.32769025,35.95928999,314.26
-84.32769572,35.95912785,315.22
-84.32770711,35.95878961,288.97
-84.32771018,35.95869822,331.91
-84.32772362,35.95830028,332.44
-84.32772736,35.95818906,337.51
-84.32773882,35.95784927,343.84
-84.32774959,35.95752978,326.85
-84.32776318,35.95712641,350.11
-84.32777047,35.95690897,335.72
-84.32777906,35.95665548,340.11
-84.32777911,35.95665398,314.66
-84.32778779,35.95639574,333.40
-84.32779590,35.95615567,318.84
-84.32780575,35.95586342,321.13
-84.32781566,35.95556906,322.77
-84.32782477,35.95529851,300.84
-84.32783368,35.95503430,317.42
-84.32783864,35.95488763,291.42
-84.32784778,35.95461660,286.51
-84.32785614,35.95436828,299.42
-84.32786853,35.95400027,299.18
-84.32787868,35.95369964,298.63
-84.32788488,35.95351518,295.54
-84.32789594,35.95318698,294.27
-84.32790883,35.95280498,311.68
-84.32791143,35.95272781,311.83
-84.32791227,35.95269951,293.04
-84.32791302,35.95267343,313.60
-84.32790770,35.95267265,315.11
-84.32785776,35.95267134,307.75
-84.32774332,35.95266879,304.62
-84.32767632,35.95266731,309.43
-84.32737134,35.95266054,298.32
-84.32684772,35.95264883,272.62
-84.32675391,35.95264674,278.38
-84.32648246,35.95264071,307.56
-84.32610104,35.95263219,307.11
-84.32598795,35.95262967,325.40
-84.32580215,35.95262553,313.82
-84.32531864,35.95261477,335.53
-84.32483748,35.95260405,305.70
-84.32436084,35.95259341,322.03
-84.32392117,35.95258357,289.73
-84.32351921,35.95257460,312.45
-84.32334994,35.95257082,308.64
-84.32298243,35.95256262,313.56
-84.32297431,35.95256244,303.10
-84.32295181,35.95256194,312.54
-84.32293865,35.95256164,301.60
-84.32286192,35.95255993,299.47
-84.32278823,35.95255829,309.61
-84.32238849,35.95254938,283.07
-84.32190290,35.95253852,275.75
-84.32188980,35.95253823,289.52
-84.32184424,35.95253721,289.46
-84.32181643,35.95253659,275.96
-84.32142234,35.95252779,298.17
-84.32112619,35.95252117,300.60
-84.32111872,35.95252101,271.74
-84.32097538,35.95251781,298.00
-84.32076909,35.95251323,289.35
-84.32043224,35.95250573,288.47
-84.32015897,35.95249960,274.67
-84.31990303,35.95249389,276.40
-84.31941538,35.95248297,309.09
-84.31933091,35.95248108,314.36
-84.31925405,35.95247937,316.52
-84.31884612,35.95247027,294.66
-84.31868534,35.95246667,299.90
-84.31844558,35.95246128,307.58
-84.31789732,35.95244901,296.11
-84.31743382,35.95243867,297.95
-84.31727037,35.95243500,294.60
-84.31684617,35.95242550,275.18
-84.31684046,35.95242539,274.52
-84.31683718,35.95242560,275.09
-84.31683685,35.95242631,275.07
-84.31683662,35.95242974,270.59
-84.31683648,35.95243249,272.49
-84.31683189,35.95256829,282.09
-84.31682616,35.95273748,282.21
-84.31682055,35.95290393,275.35
-84.31681025,35.95320729,280.30
-84.31680862,35.95325544,282.11
-84.31680767,35.95328364,274.61
-84.31679519,35.95365307,298.60
-84.31678597,35.95392568,295.53
-84.31677489,35.95425284,287.45
-84.31676540,35.95453468,302.11
-84.31675601,35.95481035,305.12
-84.31675313,35.95489580,299.20
-84.31674865,35.95502880,288.91
-84.31674548,35.95512269,281.28
-84.31673222,35.95551325,302.41
-84.31671812,35.95593017,311.28
-84.31670974,35.95617736,321.92
-84.31669849,35.95650966,298.05
-84.31668603,35.95687772,334.67
-84.31667287,35.95726733,354.93
-84.31666603,35.95746915,345.28
-84.31665464,35.95780509,325.96
-84.31664835,35.95799183,351.78
-84.31663825,35.95828976,343.09
-84.31662596,35.95865238,339.14
-84.31661768,35.95889689,332.58
-84.31660771,35.95919213,335.09
-84.31659809,35.95947752,335.36
-84.31659014,35.95971043,302.72
-84.31657763,35.96007986,324.91
-84.31656680,35.96040131,302.94
-84.31655367,35.96078763,307.78
-84.31655320,35.96080152,283.19
-84.31655166,35.96084708,284.81
-84.31653881,35.96122896,295.67
     </coordinates>
    </LineString>
   </MultiGeometry>
  </Placemark>
 </Document>
</kml>
