<kml>
 <Document>
  <Style id="yellow">
   <LineStyle>
   <color>ff00ffff</color>
   <width>1</width>
   </LineStyle>
  </Style>
  <Style id="red">
   <LineStyle>
   <color>ffff0000</color>
   <width>2</width>
   </LineStyle>
  </Style>
  <Style id="green">
   <LineStyle>
   <color>ff00ff00</color>
   <width>1</width>
   </LineStyle>
  </Style>
  <Placemark>
  <styleUrl>#yellow</styleUrl>
   <MultiGeometry>
    <LineString>
     <coordinates>
-84.34032317,35.91689642,264.86
-84.34051239,35.91690062,264.62
-84.34062926,35.91690321,267.92
-84.34068979,35.91690456,265.99
-84.34095953,35.91691053,270.81
-84.34133945,35.91691893,262.19
-84.34153748,35.91692333,269.04
-84.34202160,35.91693407,283.94
-84.34218967,35.91693779,287.07
-84.34248448,35.91694431,287.14
-84.34297363,35.91695515,292.56
-84.34320238,35.91696022,281.30
-84.34372572,35.91697180,303.84
-84.34405956,35.91697919,285.19
-84.34451122,35.91698916,287.41
-84.34504287,35.91700096,297.41
-84.34547998,35.91701061,299.09
-84.34602567,35.91702269,303.26
-84.34656401,35.91703456,307.98
-84.34703921,35.91704510,299.04
-84.34727033,35.91705022,302.65
-84.34729915,35.91705086,307.74
-84.34735028,35.91705199,303.68
-84.34745129,35.91705422,301.42
-84.34762334,35.91705802,308.27
-84.34795215,35.91706528,301.05
-84.34830125,35.91707301,283.02
-84.34855606,35.91707864,281.24
-84.34902821,35.91708906,294.37
-84.34933779,35.91709591,292.84
-84.34939777,35.91709723,265.57
-84.34941204,35.91709755,291.29
-84.34996107,35.91710968,273.87
-84.35051354,35.91712187,254.12
-84.35074594,35.91712702,279.08
-84.35115525,35.91713602,272.70
-84.35119901,35.91713687,275.60
-84.35125754,35.91713788,277.41
-84.35126723,35.91713781,276.83
-84.35126847,35.91713595,272.16
-84.35127007,35.91712460,275.88
-84.35127053,35.91711754,272.67
-84.35128263,35.91675545,274.78
-84.35128718,35.91661907,278.41
-84.35128982,35.91653989,264.93
-84.35129427,35.91640664,270.82
-84.35130663,35.91603541,252.90
-84.35132056,35.91561793,250.56
-84.35132870,35.91537394,268.29
-84.35134234,35.91496492,284.89
-84.35134539,35.91487393,289.93
-84.35135136,35.91469527,282.40
-84.35135413,35.91461218,280.71
-84.35136648,35.91424099,275.37
-84.35137079,35.91411201,275.06
-84.35137348,35.91403029,279.77
-84.35138828,35.91358806,268.51
-84.35139520,35.91338076,266.83
-84.35140344,35.91313374,269.94
-84.35140787,35.91300060,271.53
-84.35141731,35.91271709,283.56
-84.35142476,35.91249438,284.29
-84.35143332,35.91223648,287.99
-84.35144459,35.91190031,299.47
-84.35145563,35.91156920,286.16
-84.35146394,35.91132011,291.06
-84.35147438,35.91100695,270.48
-84.35148780,35.91060445,281.18
-84.35149842,35.91028638,255.82
-84.35151041,35.90992574,255.69
-84.35151588,35.90976198,253.00
-84.35152264,35.90956002,256.66
-84.35153055,35.90932251,259.12
-84.35154229,35.90897083,293.41
-84.35155249,35.90866489,291.89
-84.35155991,35.90844171,278.49
-84.35157015,35.90813540,279.24
-84.35156820,35.90813260,263.18
-84.35153581,35.90813144,274.99
-84.35146433,35.90812987,275.40
-84.35127799,35.90812580,273.79
-84.35111447,35.90812220,265.46
-84.35070855,35.90811316,270.26
-84.35045275,35.90810755,258.83
-84.34997505,35.90809696,264.78
-84.34982152,35.90809357,258.15
-84.34960094,35.90808870,254.92
-84.34921836,35.90808024,249.30
-84.34915119,35.90807877,249.26
-84.34893324,35.90807397,245.15
-84.34848571,35.90806407,245.91
-84.34825554,35.90805897,242.46
-84.34774796,35.90804775,234.86
-84.34720380,35.90803572,245.75
-84.34674180,35.90802552,238.43
-84.34619821,35.90801349,242.60
-84.34564765,35.90800131,259.08
-84.34536439,35.90799506,240.11
-84.34513770,35.90799009,263.61
-84.34471049,35.90798060,250.17
-84.34456683,35.90797742,242.17
-84.34435441,35.90797272,265.11
-84.34405286,35.90796604,271.44
-84.34360154,35.90795604,268.96
-84.34314428,35.90794591,273.13
-84.34293494,35.90794131,274.97
-84.34251827,35.90793207,287.43
-84.34235763,35.90792850,271.43
-84.34197088,35.90791999,292.29
-84.34177571,35.90791562,311.97
-84.34164675,35.90791275,295.34
-84.34147121,35.90790887,314.69
-84.34096804,35.90789771,310.22
-84.34080982,35.90789420,320.65
-84.34062584,35.90789021,318.25
-84.34055731,35.90788873,321.72
-84.34052743,35.90788847,322.45
-84.34052285,35.90788843,322.38
-84.34049990,35.90788868,312.43
-84.34049941,35.90789741,297.80
-84.34049628,35.90798888,293.26
-84.34048423,35.90834842,321.67
-84.34047231,35.90870603,282.75
-84.34046802,35.90883270,307.14
-84.34045963,35.90908338,294.49
-84.34044935,35.90938995,282.38
-84.34043601,35.90978863,266.54
-84.34043182,35.90991336,264.86
-84.34042526,35.91010963,270.41
-84.34041155,35.91051928,243.63
-84.34040827,35.91061683,260.89
-84.34040106,35.91083202,258.12
-84.34039189,35.91110605,254.35
-84.34037873,35.91149862,258.80
-84.34037824,35.91151330,247.74
-84.34037603,35.91157904,250.84
-84.34036942,35.91177664,241.15
-84.34036739,35.91183734,252.57
-84.34035247,35.91228331,252.09
-84.34034832,35.91240695,255.04
-84.34033612,35.91277066,256.47
-84.34032312,35.91315908,254.94
-84.34031194,35.91349331,251.06
-84.34030349,35.91374559,253.40
-84.34029183,35.91409388,255.32
-84.34028092,35.91441908,263.20
-84.34026624,35.91485718,270.40
-84.34025911,35.91506970,255.57
-84.34025494,35.91519414,266.28
-84.34025231,35.91527272,256.44
-84.34024590,35.91546409,269.33
-84.34024267,35.91556047,269.11
-84.34023010,35.91593572,260.94
-84.34022804,35.91599731,265.75
-84.34022140,35.91619580,266.33
-84.34021621,35.91635107,258.61
-84.34020590,35.91665855,257.59
-84.34020148,35.91679035,254.26
-84.34019838,35.91688507,254.86
-84.34019896,35.91689317,260.15
-84.34023274,35.91689437,263.21
-84.34029018,35.91689568,264.24
-84.34032317,35.91689642,264.86
     </coordinates>
    </LineString>
   </MultiGeometry>
  </Placemark>
 </Document>
</kml>
