<kml>
 <Document>
  <Style id="yellow">
   <LineStyle>
   <color>ff00ffff</color>
   <width>1</width>
   </LineStyle>
  </Style>
  <Style id="red">
   <LineStyle>
   <color>ffff0000</color>
   <width>2</width>
   </LineStyle>
  </Style>
  <Style id="green">
   <LineStyle>
   <color>ff00ff00</color>
   <width>1</width>
   </LineStyle>
  </Style>
  <Placemark>
  <styleUrl>#yellow</styleUrl>
   <MultiGeometry>
    <LineString>
     <coordinates>
-84.35009072,35.95245149,258.84
-84.35007958,35.95278577,261.89
-84.35006767,35.95314313,268.46
-84.35006769,35.95315567,264.97
-84.35006863,35.95316007,257.95
-84.35009723,35.95316468,258.11
-84.35050704,35.95317377,276.96
-84.35078643,35.95317999,266.78
-84.35089606,35.95318240,265.83
-84.35137411,35.95319295,262.94
-84.35192565,35.95320513,277.95
-84.35244766,35.95321667,261.78
-84.35275875,35.95322352,255.98
-84.35317367,35.95323269,271.61
-84.35360776,35.95324227,269.13
-84.35373162,35.95324500,260.52
-84.35419384,35.95325520,263.68
-84.35468452,35.95326600,262.26
-84.35514559,35.95327618,258.83
-84.35557389,35.95328564,270.41
-84.35605955,35.95329634,260.91
-84.35612488,35.95329779,256.39
-84.35646996,35.95330536,260.33
-84.35676049,35.95331178,253.06
-84.35709847,35.95331924,253.28
-84.35759540,35.95333018,257.98
-84.35799427,35.95333896,248.99
-84.35820325,35.95334357,250.58
-84.35867915,35.95335405,243.87
-84.35897904,35.95336067,243.96
-84.35927704,35.95336719,243.97
-84.35964304,35.95337521,247.62
-84.35985594,35.95337995,257.76
-84.36011753,35.95338572,247.94
-84.36044311,35.95339288,250.18
-84.36071544,35.95339889,246.00
-84.36080043,35.95340076,252.07
-84.36104739,35.95340619,242.89
-84.36112406,35.95340785,242.94
-84.36113316,35.95340799,253.96
-84.36114210,35.95340799,252.57
-84.36114328,35.95340744,250.90
-84.36114397,35.95340616,242.81
-84.36114923,35.95324773,253.69
-84.36116136,35.95288350,252.00
-84.36117324,35.95252628,247.86
-84.36118066,35.95230371,251.72
-84.36118177,35.95227036,250.38
-84.36118614,35.95213906,255.58
-84.36119252,35.95194694,246.40
-84.36120147,35.95167816,240.04
-84.36121060,35.95140372,236.76
-84.36121659,35.95122406,245.01
-84.36122439,35.95098891,242.05
-84.36123804,35.95057948,248.81
-84.36124316,35.95042530,255.41
-84.36125343,35.95011681,249.37
-84.36125979,35.94992592,247.88
-84.36126790,35.94968147,255.52
-84.36127577,35.94944519,259.41
-84.36128104,35.94928716,264.05
-84.36128470,35.94917666,261.76
-84.36129417,35.94888995,251.42
-84.36130227,35.94864910,254.50
-84.36130356,35.94861052,246.58
-84.36130886,35.94844943,257.46
-84.36131906,35.94814449,251.53
-84.36133273,35.94773382,258.68
-84.36134140,35.94747322,260.41
-84.36135235,35.94714422,270.07
-84.36135532,35.94705483,247.23
-84.36136012,35.94691043,258.78
-84.36136034,35.94690385,251.14
-84.36137158,35.94656555,262.91
-84.36137991,35.94631521,263.63
-84.36138918,35.94603701,259.60
-84.36139996,35.94571253,252.94
-84.36141318,35.94531462,237.13
-84.36142279,35.94502649,262.01
-84.36142834,35.94486002,252.31
-84.36143208,35.94474766,254.26
-84.36144121,35.94447266,236.22
-84.36144230,35.94443500,240.72
-84.36144314,35.94440324,242.77
-84.36144002,35.94440263,240.80
-84.36137442,35.94440039,241.60
-84.36119193,35.94439636,235.38
-84.36113397,35.94439508,257.64
-84.36112234,35.94439483,256.62
-84.36075022,35.94438664,237.55
-84.36039186,35.94437875,257.57
-84.35994047,35.94436886,252.77
-84.35977145,35.94436511,264.20
-84.35931059,35.94435495,236.81
-84.35929206,35.94435455,257.70
-84.35911951,35.94435075,253.51
-84.35879104,35.94434352,258.00
-84.35849619,35.94433703,256.82
-84.35829034,35.94433250,264.62
-84.35828548,35.94433239,264.66
-84.35817017,35.94432986,261.12
-84.35764771,35.94431833,254.90
-84.35742779,35.94431349,256.75
-84.35722583,35.94430904,250.94
-84.35685442,35.94430087,250.96
-84.35654065,35.94429397,250.04
-84.35613329,35.94428497,255.68
-84.35570644,35.94427556,252.60
-84.35556551,35.94427245,252.04
-84.35519581,35.94426431,245.96
-84.35499750,35.94425992,247.53
-84.35456239,35.94425037,259.00
-84.35421897,35.94424276,253.97
-84.35377536,35.94423299,243.71
-84.35345881,35.94422598,247.91
-84.35318565,35.94421996,239.63
-84.35268271,35.94420887,246.81
-84.35250734,35.94420499,251.61
-84.35220325,35.94419828,255.77
-84.35189971,35.94419159,261.64
-84.35147331,35.94418217,257.86
-84.35121000,35.94417635,262.86
-84.35091706,35.94416988,257.95
-84.35045161,35.94415960,253.38
-84.35040222,35.94415863,259.76
-84.35039351,35.94415866,247.70
-84.35038461,35.94415874,248.14
-84.35038008,35.94415900,247.76
-84.35036934,35.94416075,256.63
-84.35036892,35.94416148,254.75
-84.35036833,35.94416518,255.50
-84.35036755,35.94417788,256.54
-84.35036666,35.94419832,249.06
-84.35036447,35.94426002,254.71
-84.35035395,35.94457384,259.13
-84.35034943,35.94471047,257.78
-84.35033807,35.94504934,246.41
-84.35033699,35.94508151,254.36
-84.35032347,35.94548646,259.60
-84.35031302,35.94579901,268.97
-84.35030935,35.94590930,271.14
-84.35029453,35.94635258,272.53
-84.35028025,35.94677970,270.08
-84.35026962,35.94709820,284.32
-84.35026498,35.94723706,282.15
-84.35025902,35.94741586,268.36
-84.35024844,35.94773174,269.52
-84.35023520,35.94812802,272.04
-84.35022659,35.94838672,273.13
-84.35021921,35.94860726,260.46
-84.35020429,35.94905483,269.82
-84.35019635,35.94929128,264.27
-84.35018616,35.94959611,278.71
-84.35018116,35.94974613,268.78
-84.35017178,35.95002830,260.45
-84.35016601,35.95020004,277.75
-84.35016397,35.95026073,266.16
-84.35015269,35.95059801,276.64
-84.35014123,35.95094083,280.06
-84.35013390,35.95115986,254.99
-84.35012860,35.95131883,260.41
-84.35012291,35.95148989,266.59
-84.35011081,35.95185120,262.38
-84.35010291,35.95208856,260.43
-84.35009072,35.95245149,258.84
     </coordinates>
    </LineString>
   </MultiGeometry>
  </Placemark>
 </Document>
</kml>
