<kml>
 <Document>
  <Style id="yellow">
   <LineStyle>
   <color>ff00ffff</color>
   <width>1</width>
   </LineStyle>
  </Style>
  <Style id="red">
   <LineStyle>
   <color>ffff0000</color>
   <width>2</width>
   </LineStyle>
  </Style>
  <Style id="green">
   <LineStyle>
   <color>ff00ff00</color>
   <width>1</width>
   </LineStyle>
  </Style>
  <Placemark>
  <styleUrl>#yellow</styleUrl>
   <MultiGeometry>
    <LineString>
     <coordinates>
-84.32731385,35.97045301,309.83
-84.32730961,35.97058096,323.92
-84.32730631,35.97068119,326.92
-84.32730972,35.97068437,328.23
-84.32732438,35.97068529,326.85
-84.32767635,35.97069316,312.56
-84.32800786,35.97070052,321.44
-84.32826839,35.97070634,352.21
-84.32850579,35.97071164,350.29
-84.32899114,35.97072246,350.50
-84.32922753,35.97072771,343.82
-84.32974102,35.97073914,332.02
-84.32995158,35.97074384,310.10
-84.33002237,35.97074542,315.27
-84.33003557,35.97074571,307.98
-84.33017207,35.97074875,300.69
-84.33061022,35.97075851,281.60
-84.33097587,35.97076663,279.57
-84.33118675,35.97077131,277.12
-84.33160645,35.97078067,386.76
-84.33176885,35.97078430,278.14
-84.33205017,35.97079055,257.23
-84.33234435,35.97079710,249.42
-84.33238841,35.97079808,257.98
-84.33274462,35.97080597,247.05
-84.33304489,35.97081257,246.65
-84.33339510,35.97082035,246.74
-84.33376322,35.97082858,245.70
-84.33430346,35.97084064,244.36
-84.33462743,35.97084782,242.99
-84.33497353,35.97085555,241.38
-84.33543694,35.97086585,244.42
-84.33594993,35.97087723,254.73
-84.33611087,35.97088082,239.90
-84.33665124,35.97089284,250.23
-84.33716490,35.97090424,245.53
-84.33722530,35.97090557,245.46
-84.33750039,35.97091164,246.19
-84.33795796,35.97092179,247.41
-84.33837714,35.97093115,248.12
-84.33838370,35.97093110,248.24
-84.33838622,35.97089876,248.19
-84.33839523,35.97063286,249.48
-84.33839858,35.97053381,249.99
-84.33840073,35.97046937,250.58
-84.33841574,35.97002361,272.69
-84.33841811,35.96995282,257.20
-84.33843023,35.96959222,256.75
-84.33844073,35.96927936,264.90
-84.33844363,35.96919308,271.61
-84.33844498,35.96915310,271.83
-84.33845987,35.96870895,265.85
-84.33847263,35.96832935,269.81
-84.33848008,35.96810796,268.43
-84.33848530,35.96795264,275.40
-84.33850002,35.96751430,279.38
-84.33851429,35.96708875,311.00
-84.33852257,35.96684254,316.74
-84.33852646,35.96672667,313.84
-84.33853828,35.96637514,340.22
-84.33854095,35.96629557,318.77
-84.33855462,35.96588829,349.28
-84.33856630,35.96553910,338.99
-84.33857155,35.96538395,334.93
-84.33858464,35.96499454,347.19
-84.33859266,35.96475454,331.84
-84.33860009,35.96453414,323.76
-84.33860607,35.96435596,327.05
-84.33861888,35.96397474,312.88
-84.33863048,35.96362828,312.21
-84.33864041,35.96333358,324.17
-84.33865129,35.96300909,328.67
-84.33865831,35.96280023,326.94
-84.33867122,35.96241572,313.66
-84.33867885,35.96218892,327.66
-84.33868368,35.96204432,322.39
-84.33868699,35.96194367,317.96
-84.33868708,35.96193413,326.67
-84.33868669,35.96192801,325.28
-84.33868299,35.96192516,298.30
-84.33866637,35.96192469,298.18
-84.33848688,35.96192066,325.89
-84.33821423,35.96191464,308.92
-84.33766481,35.96190241,337.24
-84.33757163,35.96190033,342.73
-84.33719772,35.96189203,324.98
-84.33685935,35.96188453,338.13
-84.33642618,35.96187490,338.19
-84.33633835,35.96187295,364.66
-84.33593990,35.96186410,355.33
-84.33573310,35.96185950,347.76
-84.33555376,35.96185552,351.02
-84.33501299,35.96184350,328.86
-84.33463213,35.96183506,313.12
-84.33409561,35.96182313,304.87
-84.33399289,35.96182083,318.61
-84.33344482,35.96180865,315.63
-84.33331664,35.96180582,313.52
-84.33282394,35.96179484,285.56
-84.33259429,35.96178973,297.60
-84.33217170,35.96178034,308.95
-84.33162585,35.96176820,291.54
-84.33131276,35.96176124,269.79
-84.33092860,35.96175267,278.88
-84.33065477,35.96174658,280.07
-84.33016078,35.96173558,269.25
-84.33007758,35.96173372,264.98
-84.32992071,35.96173023,274.45
-84.32973611,35.96172612,265.98
-84.32965954,35.96172442,266.59
-84.32961096,35.96172333,266.98
-84.32929969,35.96171640,290.00
-84.32888266,35.96170712,282.09
-84.32836712,35.96169563,280.11
-84.32788196,35.96168483,264.14
-84.32774859,35.96168188,272.82
-84.32763828,35.96167946,262.75
-84.32761926,35.96167913,264.34
-84.32761326,35.96167924,281.22
-84.32761064,35.96167956,281.46
-84.32760994,35.96168650,282.07
-84.32760945,35.96169460,262.56
-84.32760789,35.96173438,282.48
-84.32759878,35.96200386,265.80
-84.32759370,35.96215433,261.12
-84.32758653,35.96236743,277.47
-84.32757843,35.96260761,281.11
-84.32757382,35.96274442,275.61
-84.32756324,35.96305792,279.14
-84.32755697,35.96324392,262.35
-84.32755140,35.96340895,256.62
-84.32753894,35.96377837,274.77
-84.32753740,35.96382396,275.11
-84.32752844,35.96408969,278.22
-84.32751571,35.96446715,268.89
-84.32751454,35.96450179,263.64
-84.32750873,35.96467416,259.02
-84.32750107,35.96490252,259.11
-84.32749157,35.96518329,260.95
-84.32749003,35.96522905,261.98
-84.32748511,35.96537483,261.39
-84.32747073,35.96580179,269.54
-84.32746031,35.96611030,255.50
-84.32745991,35.96612233,256.93
-84.32745484,35.96627268,257.22
-84.32744299,35.96662353,255.79
-84.32744273,35.96663141,255.86
-84.32742804,35.96706697,284.20
-84.32742080,35.96728152,267.25
-84.32741324,35.96750651,285.62
-84.32740315,35.96780482,270.15
-84.32739540,35.96803485,266.62
-84.32738505,35.96834176,285.23
-84.32737869,35.96853023,290.44
-84.32736809,35.96884445,292.25
-84.32736650,35.96889159,268.12
-84.32735906,35.96911278,288.38
-84.32734494,35.96953089,276.60
-84.32733770,35.96974640,293.03
-84.32732753,35.97004750,313.08
-84.32731385,35.97045301,309.83
     </coordinates>
    </LineString>
   </MultiGeometry>
  </Placemark>
 </Document>
</kml>
