<kml>
 <Document>
  <Style id="yellow">
   <LineStyle>
   <color>ff00ffff</color>
   <width>1</width>
   </LineStyle>
  </Style>
  <Style id="red">
   <LineStyle>
   <color>ffff0000</color>
   <width>2</width>
   </LineStyle>
  </Style>
  <Style id="green">
   <LineStyle>
   <color>ff00ff00</color>
   <width>1</width>
   </LineStyle>
  </Style>
  <Placemark>
  <styleUrl>#yellow</styleUrl>
   <MultiGeometry>
    <LineString>
     <coordinates>
-122.01059600,45.86028219,715.50
-122.01097260,45.86028545,727.37
-122.01141800,45.86028929,722.61
-122.01182583,45.86029283,720.11
-122.01203362,45.86029461,722.80
-122.01245823,45.86029825,734.19
-122.01269728,45.86030034,706.58
-122.01311157,45.86030393,717.27
-122.01360985,45.86030819,718.57
-122.01380890,45.86030995,716.02
-122.01403048,45.86031185,716.10
-122.01448549,45.86031579,699.47
-122.01471948,45.86031782,696.26
-122.01488478,45.86031924,695.75
-122.01528875,45.86032270,664.70
-122.01564637,45.86032578,669.61
-122.01627802,45.86033125,664.89
-122.01662636,45.86033425,671.82
-122.01677542,45.86033553,674.74
-122.01720417,45.86033922,683.30
-122.01726428,45.86033974,679.93
-122.01783105,45.86034459,670.96
-122.01823040,45.86034803,665.88
-122.01856414,45.86035091,643.17
-122.01883668,45.86035325,664.37
-122.01891658,45.86035394,662.84
-122.01931140,45.86035731,658.84
-122.01987001,45.86036212,673.14
-122.02018166,45.86036478,659.13
-122.02074962,45.86036964,671.98
-122.02094431,45.86037100,679.90
-122.02095414,45.86036814,678.22
-122.02095701,45.86029193,700.93
-122.02095762,45.86027341,705.85
-122.02095967,45.86015898,687.60
-122.02096407,45.85991194,702.49
-122.02096445,45.85989045,697.73
-122.02096819,45.85967706,699.10
-122.02097086,45.85952448,731.50
-122.02097661,45.85919695,716.65
-122.02098043,45.85897853,726.88
-122.02098589,45.85866862,729.01
-122.02099088,45.85838348,725.14
-122.02099684,45.85804498,745.34
-122.02100191,45.85775474,745.65
-122.02100374,45.85764971,753.49
-122.02101138,45.85721652,764.56
-122.02101524,45.85699632,773.10
-122.02101742,45.85687215,796.01
-122.02102285,45.85656129,796.46
-122.02103057,45.85612190,777.49
-122.02103199,45.85604128,778.08
-122.02103462,45.85588972,773.53
-122.02104116,45.85551923,718.05
-122.02104664,45.85520716,740.04
-122.02105083,45.85496641,730.65
-122.02105623,45.85465929,725.34
-122.02106001,45.85444501,765.79
-122.02106460,45.85418294,713.82
-122.02106797,45.85399183,746.86
-122.02107112,45.85381228,710.24
-122.02107898,45.85336255,688.40
-122.02107996,45.85330771,697.27
-122.02108748,45.85287968,676.31
-122.02109455,45.85247469,682.56
-122.02109745,45.85231127,669.34
-122.02110045,45.85214023,664.66
-122.02110830,45.85169309,650.11
-122.02111324,45.85140948,637.44
-122.02111327,45.85139281,637.10
-122.02111276,45.85137947,634.26
-122.02111218,45.85137487,634.22
-122.02110740,45.85137354,633.94
-122.02110182,45.85137233,646.53
-122.02105188,45.85137167,644.96
-122.02102301,45.85137140,647.34
-122.02055956,45.85136744,637.86
-122.02012499,45.85136372,620.25
-122.01970909,45.85136017,635.54
-122.01946239,45.85135807,656.16
-122.01894845,45.85135362,658.70
-122.01833734,45.85134837,639.04
-122.01817441,45.85134696,632.81
-122.01810592,45.85134637,632.60
-122.01768288,45.85134273,640.93
-122.01730295,45.85133947,624.19
-122.01669145,45.85133422,592.62
-122.01630224,45.85133086,589.72
-122.01572818,45.85132592,601.52
-122.01551801,45.85132412,593.38
-122.01505032,45.85132008,592.62
-122.01491772,45.85131894,609.32
-122.01464072,45.85131656,612.73
-122.01413820,45.85131220,597.51
-122.01402865,45.85131126,602.88
-122.01389443,45.85131010,595.17
-122.01364076,45.85130791,625.50
-122.01329782,45.85130498,601.15
-122.01291009,45.85130161,597.55
-122.01250405,45.85129809,588.19
-122.01239397,45.85129714,594.16
-122.01176081,45.85129168,636.98
-122.01137399,45.85128843,594.41
-122.01111499,45.85128610,587.58
-122.01110868,45.85128604,588.39
-122.01064020,45.85128202,601.11
-122.01034718,45.85127947,588.98
-122.00995178,45.85127604,587.89
-122.00939692,45.85127121,590.69
-122.00885543,45.85126650,592.89
-122.00838856,45.85126245,589.99
-122.00830572,45.85126177,594.02
-122.00827529,45.85126168,599.71
-122.00824166,45.85126171,601.16
-122.00823937,45.85126605,592.47
-122.00823713,45.85127182,592.42
-122.00823559,45.85129886,600.84
-122.00823497,45.85131267,601.31
-122.00823351,45.85139030,609.06
-122.00822974,45.85160375,604.38
-122.00822369,45.85194560,591.33
-122.00822105,45.85209071,591.86
-122.00821563,45.85239561,596.86
-122.00821224,45.85258647,593.27
-122.00820510,45.85298849,605.71
-122.00820321,45.85309425,595.26
-122.00820006,45.85327191,601.63
-122.00819494,45.85356345,596.34
-122.00819155,45.85375234,612.15
-122.00818895,45.85389767,602.42
-122.00818608,45.85405967,598.03
-122.00817932,45.85444082,625.33
-122.00817398,45.85473857,616.81
-122.00817195,45.85485289,628.97
-122.00816607,45.85519025,627.34
-122.00816339,45.85533442,624.74
-122.00815850,45.85561015,646.64
-122.00815205,45.85597233,641.18
-122.00814508,45.85636421,627.53
-122.00814225,45.85652319,640.46
-122.00813458,45.85695713,649.75
-122.00813377,45.85700249,643.11
-122.00812906,45.85726904,646.78
-122.00812102,45.85771737,620.05
-122.00811684,45.85795221,650.40
-122.00811128,45.85826504,657.54
-122.00810838,45.85843063,669.07
-122.00810262,45.85875430,643.14
-122.00809978,45.85891188,663.40
-122.00809967,45.85891802,661.98
-122.00809798,45.85901276,644.98
-122.00809746,45.85904219,658.52
-122.00809293,45.85929789,658.50
-122.00808771,45.85959175,668.02
-122.00808196,45.85991382,683.82
-122.00807824,45.86012329,679.18
-122.00807715,45.86018508,678.09
-122.00807678,45.86021242,675.97
-122.00807668,45.86022460,679.16
-122.00807667,45.86023740,658.43
-122.00807792,45.86025270,655.58
-122.00810046,45.86026008,680.55
-122.00810776,45.86026052,680.22
-122.00840958,45.86026323,688.73
-122.00859401,45.86026483,684.04
-122.00913939,45.86026956,684.68
-122.00932282,45.86027114,689.60
-122.00988195,45.86027599,698.11
-122.01023761,45.86027903,709.16
-122.01059600,45.86028219,715.50
     </coordinates>
    </LineString>
   </MultiGeometry>
  </Placemark>
 </Document>
</kml>
