<kml>
 <Document>
  <Style id="yellow">
   <LineStyle>
   <color>ff00ffff</color>
   <width>1</width>
   </LineStyle>
  </Style>
  <Style id="red">
   <LineStyle>
   <color>ffff0000</color>
   <width>2</width>
   </LineStyle>
  </Style>
  <Style id="green">
   <LineStyle>
   <color>ff00ff00</color>
   <width>1</width>
   </LineStyle>
  </Style>
  <Placemark>
  <styleUrl>#yellow</styleUrl>
   <MultiGeometry>
    <LineString>
     <coordinates>
-121.97491392,45.86896822,333.82
-121.97503303,45.86896930,333.13
-121.97561220,45.86897448,371.92
-121.97622142,45.86897995,367.58
-121.97652173,45.86898264,333.49
-121.97705028,45.86898736,329.39
-121.97721168,45.86898879,338.46
-121.97778684,45.86899397,363.04
-121.97803067,45.86899612,362.69
-121.97851688,45.86900048,332.38
-121.97885111,45.86900348,357.42
-121.97918690,45.86900646,359.45
-121.97971106,45.86901115,366.29
-121.98023196,45.86901581,384.46
-121.98028388,45.86901627,390.14
-121.98061678,45.86901922,389.01
-121.98102027,45.86902283,380.05
-121.98116276,45.86902411,353.85
-121.98138235,45.86902607,389.08
-121.98189219,45.86903061,389.88
-121.98208029,45.86903220,392.81
-121.98213635,45.86903263,388.64
-121.98214788,45.86903199,389.39
-121.98215138,45.86902339,396.41
-121.98215530,45.86881639,390.77
-121.98215539,45.86881114,392.25
-121.98216104,45.86850164,374.61
-121.98216279,45.86840519,391.35
-121.98216784,45.86812694,368.31
-121.98217114,45.86794768,368.55
-121.98217598,45.86768246,391.41
-121.98218279,45.86730720,364.35
-121.98218846,45.86699956,365.24
-121.98219461,45.86666211,389.30
-121.98219946,45.86639682,389.59
-121.98220464,45.86611189,395.07
-121.98221268,45.86567278,400.43
-121.98221279,45.86566663,367.61
-121.98221647,45.86546409,370.20
-121.98222105,45.86521417,371.35
-121.98222791,45.86483828,394.58
-121.98223071,45.86468438,369.33
-121.98223357,45.86452796,366.11
-121.98223793,45.86428755,400.84
-121.98224199,45.86406509,381.28
-121.98224943,45.86365888,412.14
-121.98225553,45.86332260,375.55
-121.98226012,45.86307293,393.44
-121.98226184,45.86297760,407.74
-121.98226743,45.86266823,462.82
-121.98227119,45.86246273,473.40
-121.98227766,45.86211105,464.99
-121.98228098,45.86192947,468.99
-121.98228526,45.86169481,459.49
-121.98229241,45.86130217,464.90
-121.98229825,45.86098195,430.56
-121.98230145,45.86080747,453.61
-121.98230370,45.86068490,450.03
-121.98230553,45.86058448,436.66
-121.98231245,45.86020240,464.23
-121.98231454,45.86009072,477.89
-121.98231498,45.86006536,477.95
-121.98231462,45.86003557,488.49
-121.98231385,45.86003469,495.47
-121.98231262,45.86003395,495.70
-121.98230105,45.86003373,462.66
-121.98229653,45.86003364,461.11
-121.98186435,45.86002979,435.34
-121.98172856,45.86002858,472.91
-121.98155684,45.86002704,476.05
-121.98111386,45.86002313,446.16
-121.98073731,45.86001975,421.97
-121.98057420,45.86001828,440.81
-121.98053498,45.86001793,437.51
-121.98037322,45.86001649,450.03
-121.98019334,45.86001488,445.46
-121.98001644,45.86001330,444.62
-121.97943622,45.86000812,447.24
-121.97921953,45.86000620,396.23
-121.97877923,45.86000225,393.08
-121.97877343,45.86000220,414.17
-121.97866510,45.86000123,422.09
-121.97848140,45.85999959,433.89
-121.97790672,45.85999445,422.83
-121.97739459,45.85998988,407.29
-121.97706382,45.85998691,397.74
-121.97682689,45.85998485,363.23
-121.97641701,45.85998129,388.94
-121.97598984,45.85997730,382.47
-121.97567076,45.85997447,375.48
-121.97533313,45.85997140,352.70
-121.97483814,45.85996696,385.29
-121.97447392,45.85996369,388.39
-121.97412060,45.85996053,388.92
-121.97399103,45.85995937,391.10
-121.97340370,45.85995418,358.10
-121.97292632,45.85994985,368.68
-121.97273806,45.85994812,379.91
-121.97247731,45.85994575,394.66
-121.97220370,45.85994330,361.60
-121.97191914,45.85994076,395.49
-121.97130025,45.85993516,393.25
-121.97095461,45.85993205,377.08
-121.97038904,45.85992696,371.78
-121.96984654,45.85992207,395.38
-121.96957338,45.85991962,367.80
-121.96943632,45.85991842,394.67
-121.96943518,45.85994186,397.98
-121.96943471,45.85996643,380.64
-121.96943228,45.86009836,390.77
-121.96942726,45.86036966,386.41
-121.96942445,45.86052313,354.54
-121.96941950,45.86079172,348.05
-121.96941600,45.86098026,381.95
-121.96940903,45.86135652,372.56
-121.96940391,45.86163414,368.57
-121.96940052,45.86181847,358.33
-121.96939333,45.86220766,377.18
-121.96939116,45.86232409,368.82
-121.96938931,45.86242465,372.14
-121.96938768,45.86251250,362.10
-121.96938008,45.86292516,367.42
-121.96937921,45.86297043,365.63
-121.96937702,45.86308854,354.92
-121.96937134,45.86339836,341.60
-121.96936831,45.86356087,326.84
-121.96936437,45.86377537,322.71
-121.96935983,45.86401975,348.95
-121.96935687,45.86417998,363.90
-121.96935042,45.86452976,357.68
-121.96934707,45.86471078,342.06
-121.96934496,45.86482481,363.44
-121.96933746,45.86523010,330.61
-121.96933450,45.86538973,371.94
-121.96932865,45.86570580,375.71
-121.96932165,45.86608606,376.86
-121.96931394,45.86650396,381.39
-121.96931287,45.86656180,381.15
-121.96931153,45.86663533,378.00
-121.96930419,45.86703025,362.85
-121.96930230,45.86713224,365.97
-121.96929857,45.86733425,375.95
-121.96929361,45.86760602,412.91
-121.96928607,45.86801344,394.31
-121.96928271,45.86819210,433.53
-121.96928170,45.86824597,428.52
-121.96927848,45.86842022,406.57
-121.96927684,45.86850993,409.86
-121.96926952,45.86890481,457.95
-121.96926936,45.86891669,451.96
-121.96929662,45.86891735,452.03
-121.96934880,45.86891811,451.19
-121.96941326,45.86891873,448.68
-121.96993941,45.86892348,443.58
-121.97047398,45.86892830,410.03
-121.97062211,45.86892965,396.37
-121.97119044,45.86893475,394.39
-121.97160426,45.86893849,398.70
-121.97200698,45.86894211,374.06
-121.97239279,45.86894558,379.63
-121.97286867,45.86894985,343.96
-121.97307966,45.86895171,332.90
-121.97357909,45.86895622,332.63
-121.97397269,45.86895977,336.50
-121.97413007,45.86896116,332.61
-121.97468552,45.86896612,336.09
-121.97491392,45.86896822,333.82
     </coordinates>
    </LineString>
   </MultiGeometry>
  </Placemark>
 </Document>
</kml>
