<kml>
 <Document>
  <Style id="yellow">
   <LineStyle>
   <color>ff00ffff</color>
   <width>1</width>
   </LineStyle>
  </Style>
  <Style id="red">
   <LineStyle>
   <color>ffff0000</color>
   <width>2</width>
   </LineStyle>
  </Style>
  <Style id="green">
   <LineStyle>
   <color>ff00ff00</color>
   <width>1</width>
   </LineStyle>
  </Style>
  <Placemark>
  <styleUrl>#yellow</styleUrl>
   <MultiGeometry>
    <LineString>
     <coordinates>
-121.96186551,45.86885038,577.73
-121.96225414,45.86885395,581.08
-121.96272821,45.86885825,544.97
-121.96309230,45.86886156,543.51
-121.96362682,45.86886641,468.04
-121.96424151,45.86887191,471.85
-121.96448496,45.86887414,413.48
-121.96476361,45.86887669,423.20
-121.96513927,45.86888011,443.28
-121.96545022,45.86888292,472.50
-121.96551641,45.86888352,443.30
-121.96575155,45.86888564,448.57
-121.96623792,45.86889005,488.76
-121.96664047,45.86889370,494.16
-121.96706611,45.86889754,506.63
-121.96753308,45.86890177,453.77
-121.96809106,45.86890681,456.24
-121.96833479,45.86890902,478.34
-121.96854629,45.86891093,471.28
-121.96879195,45.86891312,465.16
-121.96926087,45.86891733,459.24
-121.96926427,45.86891702,466.01
-121.96926572,45.86891686,447.41
-121.96926836,45.86891112,453.57
-121.96926960,45.86890009,459.55
-121.96927231,45.86875322,454.16
-121.96927765,45.86846379,405.94
-121.96928147,45.86825706,434.94
-121.96928634,45.86799350,394.96
-121.96928948,45.86782372,387.37
-121.96929596,45.86747118,390.71
-121.96929864,45.86732822,374.76
-121.96930358,45.86706092,361.49
-121.96930740,45.86685344,369.82
-121.96931312,45.86654091,373.44
-121.96932121,45.86610575,338.89
-121.96932656,45.86581686,359.49
-121.96933074,45.86558963,329.89
-121.96933502,45.86536091,375.52
-121.96933740,45.86523188,366.05
-121.96934534,45.86480185,369.61
-121.96935137,45.86447388,360.52
-121.96935502,45.86427796,331.79
-121.96935615,45.86421760,325.24
-121.96935729,45.86415579,366.82
-121.96936134,45.86393573,324.74
-121.96936600,45.86367929,322.93
-121.96936991,45.86347287,335.16
-121.96937358,45.86327275,331.84
-121.96937881,45.86299103,346.72
-121.96938231,45.86279921,355.10
-121.96938856,45.86246271,373.10
-121.96939369,45.86218458,373.55
-121.96939590,45.86206423,340.42
-121.96939703,45.86200234,375.46
-121.96940044,45.86181515,357.09
-121.96940640,45.86149577,369.27
-121.96940911,45.86135147,341.48
-121.96941681,45.86093339,377.93
-121.96942380,45.86055316,358.77
-121.96942696,45.86038390,381.11
-121.96942886,45.86028175,386.33
-121.96942946,45.86024930,386.89
-121.96943466,45.85996720,380.96
-121.96943540,45.85992506,396.14
-121.96943403,45.85991997,394.80
-121.96943152,45.85991896,393.35
-121.96942830,45.85991845,394.74
-121.96942584,45.85991827,394.84
-121.96909132,45.85991526,368.86
-121.96874897,45.85991219,382.05
-121.96836341,45.85990869,350.51
-121.96806111,45.85990595,385.65
-121.96753804,45.85990124,382.63
-121.96696625,45.85989607,383.04
-121.96695055,45.85989593,383.67
-121.96648179,45.85989169,372.32
-121.96596304,45.85988702,383.04
-121.96577961,45.85988533,381.43
-121.96539962,45.85988189,355.29
-121.96498752,45.85987815,337.60
-121.96498323,45.85987811,337.08
-121.96455948,45.85987428,335.00
-121.96398764,45.85986909,342.79
-121.96390147,45.85986832,349.54
-121.96357264,45.85986535,341.86
-121.96311212,45.85986115,338.30
-121.96293700,45.85985956,334.50
-121.96252517,45.85985583,354.77
-121.96201550,45.85985119,342.82
-121.96191150,45.85985025,358.49
-121.96151296,45.85984664,362.42
-121.96092029,45.85984124,331.11
-121.96079336,45.85984008,323.64
-121.96044883,45.85983695,373.50
-121.96005230,45.85983335,388.79
-121.95968459,45.85983001,359.21
-121.95927246,45.85982625,364.94
-121.95863375,45.85982042,417.88
-121.95835694,45.85981789,422.39
-121.95802992,45.85981492,413.37
-121.95776832,45.85981257,433.20
-121.95749408,45.85981008,386.46
-121.95712246,45.85980665,399.75
-121.95686535,45.85980430,421.08
-121.95659163,45.85980186,439.75
-121.95658180,45.85980178,439.26
-121.95656572,45.85980246,439.45
-121.95656139,45.85980271,439.23
-121.95655746,45.85980296,438.91
-121.95655615,45.85980386,438.30
-121.95655540,45.85982065,437.70
-121.95655422,45.85988228,431.04
-121.95655234,45.85998162,432.88
-121.95655034,45.86008916,434.34
-121.95654202,45.86053333,453.98
-121.95653819,45.86073708,470.96
-121.95653697,45.86080231,466.83
-121.95652951,45.86120100,441.38
-121.95652674,45.86135168,479.84
-121.95651883,45.86177405,507.04
-121.95651630,45.86190738,532.82
-121.95651248,45.86211121,540.45
-121.95651118,45.86218092,537.93
-121.95650595,45.86246105,520.09
-121.95650204,45.86266944,528.01
-121.95649814,45.86287763,574.78
-121.95649527,45.86303136,571.77
-121.95649452,45.86307124,572.45
-121.95649274,45.86316636,542.23
-121.95648671,45.86349097,581.27
-121.95647923,45.86388843,571.47
-121.95647872,45.86391540,568.44
-121.95647790,45.86395943,600.25
-121.95647273,45.86423550,567.12
-121.95647073,45.86434242,590.41
-121.95647051,45.86435460,599.66
-121.95646723,45.86453108,614.50
-121.95646107,45.86486155,610.56
-121.95645775,45.86503915,623.80
-121.95645147,45.86537473,592.00
-121.95644703,45.86561063,597.57
-121.95644107,45.86592857,624.22
-121.95643451,45.86627913,640.38
-121.95642949,45.86654756,656.59
-121.95642608,45.86672965,631.65
-121.95642025,45.86704160,633.17
-121.95641733,45.86719647,653.26
-121.95641111,45.86752861,664.24
-121.95640982,45.86759804,641.52
-121.95640248,45.86799029,643.43
-121.95639482,45.86840032,656.72
-121.95638829,45.86874903,657.44
-121.95638754,45.86879647,690.77
-121.95638777,45.86879841,686.85
-121.95638956,45.86880005,683.44
-121.95641714,45.86880073,654.50
-121.95673938,45.86880372,649.30
-121.95716034,45.86880756,646.23
-121.95736092,45.86880934,639.15
-121.95783355,45.86881368,629.18
-121.95809943,45.86881614,628.40
-121.95861658,45.86882085,623.23
-121.95912875,45.86882551,619.29
-121.95945264,45.86882847,624.61
-121.95962338,45.86883002,603.19
-121.96021037,45.86883537,635.03
-121.96066314,45.86883949,588.75
-121.96078818,45.86884063,593.48
-121.96105631,45.86884306,581.54
-121.96155204,45.86884756,578.28
-121.96186551,45.86885038,577.73
     </coordinates>
    </LineString>
   </MultiGeometry>
  </Placemark>
 </Document>
</kml>
