<kml>
 <Document>
  <Style id="yellow">
   <LineStyle>
   <color>ff00ffff</color>
   <width>1</width>
   </LineStyle>
  </Style>
  <Style id="red">
   <LineStyle>
   <color>ffff0000</color>
   <width>2</width>
   </LineStyle>
  </Style>
  <Style id="green">
   <LineStyle>
   <color>ff00ff00</color>
   <width>1</width>
   </LineStyle>
  </Style>
  <Placemark>
  <styleUrl>#yellow</styleUrl>
   <MultiGeometry>
    <LineString>
     <coordinates>
-121.93115902,45.84062309,331.32
-121.93115614,45.84077280,321.36
-121.93114947,45.84112097,325.87
-121.93114422,45.84139591,323.12
-121.93114366,45.84142655,315.18
-121.93114201,45.84152519,331.27
-121.93114169,45.84155935,317.44
-121.93114719,45.84156198,328.05
-121.93116389,45.84156544,328.77
-121.93129360,45.84156670,326.36
-121.93143533,45.84156803,327.25
-121.93174032,45.84157088,327.85
-121.93177405,45.84157120,336.15
-121.93190466,45.84157242,317.77
-121.93214540,45.84157464,330.87
-121.93256868,45.84157862,318.57
-121.93276452,45.84158043,325.18
-121.93332302,45.84158563,314.63
-121.93343236,45.84158669,316.40
-121.93364102,45.84158862,314.03
-121.93393721,45.84159134,313.96
-121.93426218,45.84159426,314.10
-121.93476726,45.84159911,313.74
-121.93509201,45.84160217,314.38
-121.93571789,45.84160800,314.79
-121.93608951,45.84161145,314.96
-121.93634262,45.84161380,315.12
-121.93656868,45.84161589,315.48
-121.93700092,45.84161995,315.53
-121.93739164,45.84162356,315.92
-121.93800473,45.84162928,315.10
-121.93824519,45.84163152,314.57
-121.93839088,45.84163287,314.44
-121.93893433,45.84163792,351.66
-121.93915817,45.84163999,348.26
-121.93938163,45.84164205,312.99
-121.93993734,45.84164723,341.32
-121.94038570,45.84165139,313.55
-121.94070592,45.84165435,356.28
-121.94109754,45.84165794,349.15
-121.94142774,45.84166105,311.84
-121.94180255,45.84166452,343.40
-121.94208335,45.84166711,314.30
-121.94234321,45.84166951,323.85
-121.94248561,45.84167081,308.67
-121.94260159,45.84167187,301.24
-121.94317893,45.84167718,299.03
-121.94365594,45.84168159,300.18
-121.94386817,45.84168360,320.43
-121.94398602,45.84168463,325.13
-121.94401053,45.84168429,327.90
-121.94401632,45.84168385,323.81
-121.94401674,45.84166423,330.35
-121.94401852,45.84157582,329.50
-121.94402420,45.84127850,320.39
-121.94402535,45.84121744,343.23
-121.94403212,45.84084737,298.28
-121.94403484,45.84071478,298.31
-121.94404203,45.84033433,298.12
-121.94404600,45.84012743,298.29
-121.94405412,45.83968786,297.60
-121.94405646,45.83955198,297.61
-121.94406302,45.83922305,297.50
-121.94406781,45.83896968,297.50
-121.94407494,45.83858992,297.29
-121.94408095,45.83827996,296.57
-121.94408454,45.83809033,303.94
-121.94409214,45.83768748,301.94
-121.94409567,45.83750016,302.04
-121.94410189,45.83717316,301.35
-121.94410720,45.83689043,301.93
-121.94411048,45.83671858,340.49
-121.94411574,45.83644151,332.51
-121.94412121,45.83615150,353.53
-121.94412928,45.83572405,340.32
-121.94413240,45.83556084,340.48
-121.94413962,45.83517913,307.35
-121.94414806,45.83473061,307.39
-121.94415443,45.83439589,307.35
-121.94416246,45.83397101,345.61
-121.94416906,45.83362181,318.13
-121.94417671,45.83321589,314.28
-121.94418018,45.83303447,317.38
-121.94418538,45.83275942,310.88
-121.94418570,45.83274166,333.83
-121.94418650,45.83268703,336.59
-121.94417975,45.83268598,328.68
-121.94404512,45.83268466,310.83
-121.94384673,45.83268280,339.34
-121.94356374,45.83268018,332.79
-121.94350137,45.83267960,332.36
-121.94296424,45.83267465,317.51
-121.94276784,45.83267282,326.45
-121.94250145,45.83267035,328.18
-121.94235989,45.83266904,319.16
-121.94229797,45.83266847,317.77
-121.94181729,45.83266402,304.74
-121.94179692,45.83266383,308.52
-121.94126506,45.83265892,301.83
-121.94097072,45.83265618,298.54
-121.94069798,45.83265366,298.48
-121.94019135,45.83264895,295.36
-121.93997029,45.83264695,297.03
-121.93953051,45.83264285,294.00
-121.93941864,45.83264180,302.70
-121.93928429,45.83264055,332.67
-121.93902502,45.83263812,333.14
-121.93877147,45.83263580,325.97
-121.93827840,45.83263119,320.44
-121.93778105,45.83262656,336.25
-121.93773709,45.83262616,317.69
-121.93753295,45.83262426,295.57
-121.93732745,45.83262238,310.11
-121.93688036,45.83261821,297.16
-121.93647458,45.83261441,295.00
-121.93611595,45.83261109,295.42
-121.93550101,45.83260536,297.25
-121.93537825,45.83260423,296.39
-121.93484351,45.83259924,324.41
-121.93431985,45.83259433,297.14
-121.93419970,45.83259321,297.25
-121.93408165,45.83259211,297.35
-121.93389650,45.83259040,297.25
-121.93325773,45.83258446,332.81
-121.93304638,45.83258247,337.24
-121.93256685,45.83257797,307.70
-121.93223418,45.83257487,312.09
-121.93189952,45.83257175,324.03
-121.93137214,45.83256681,321.19
-121.93135695,45.83256672,299.14
-121.93131553,45.83256821,299.21
-121.93131467,45.83256849,299.20
-121.93131314,45.83259832,299.29
-121.93131150,45.83266429,299.67
-121.93130947,45.83276488,305.32
-121.93130334,45.83308725,304.40
-121.93129701,45.83341516,328.67
-121.93129034,45.83376537,321.14
-121.93128428,45.83408005,331.35
-121.93128214,45.83419274,328.37
-121.93127528,45.83455228,303.00
-121.93126976,45.83483935,313.97
-121.93126461,45.83511223,325.49
-121.93125944,45.83538053,318.60
-121.93125659,45.83552743,327.09
-121.93125361,45.83568705,319.22
-121.93124791,45.83598397,309.71
-121.93124472,45.83614665,314.26
-121.93124051,45.83636671,315.77
-121.93123638,45.83658307,312.29
-121.93122885,45.83697599,339.04
-121.93122850,45.83699453,326.86
-121.93122285,45.83729085,345.24
-121.93121663,45.83761372,311.53
-121.93121389,45.83775674,346.54
-121.93121388,45.83775717,346.53
-121.93120676,45.83812911,311.08
-121.93120383,45.83828436,319.28
-121.93120009,45.83848040,311.55
-121.93119493,45.83874722,311.22
-121.93119119,45.83894247,311.24
-121.93118960,45.83902530,310.93
-121.93118129,45.83946276,311.89
-121.93117623,45.83972352,311.65
-121.93117371,45.83985521,312.77
-121.93116823,45.84014120,344.66
-121.93116310,45.84041345,313.09
-121.93115902,45.84062309,331.32
     </coordinates>
    </LineString>
   </MultiGeometry>
  </Placemark>
 </Document>
</kml>
