<kml>
 <Document>
  <Style id="yellow">
   <LineStyle>
   <color>ff00ffff</color>
   <width>1</width>
   </LineStyle>
  </Style>
  <Style id="red">
   <LineStyle>
   <color>ffff0000</color>
   <width>2</width>
   </LineStyle>
  </Style>
  <Style id="green">
   <LineStyle>
   <color>ff00ff00</color>
   <width>1</width>
   </LineStyle>
  </Style>
  <Placemark>
  <styleUrl>#yellow</styleUrl>
   <MultiGeometry>
    <LineString>
     <coordinates>
-121.98780806,45.87808377,356.66
-121.98809519,45.87808631,357.81
-121.98818079,45.87808707,356.72
-121.98877781,45.87809235,379.90
-121.98905953,45.87809485,382.33
-121.98955644,45.87809923,383.78
-121.98990005,45.87810222,367.35
-121.99020884,45.87810499,389.26
-121.99062423,45.87810866,378.67
-121.99099168,45.87811192,388.60
-121.99130703,45.87811469,409.66
-121.99184691,45.87811948,416.44
-121.99240684,45.87812438,416.02
-121.99271261,45.87812711,393.21
-121.99275356,45.87812747,432.18
-121.99298403,45.87812950,426.13
-121.99307487,45.87813029,424.66
-121.99368826,45.87813569,457.40
-121.99404381,45.87813875,426.78
-121.99436300,45.87814163,493.40
-121.99467679,45.87814439,460.33
-121.99487075,45.87814609,469.55
-121.99487144,45.87813342,508.30
-121.99487497,45.87793975,514.91
-121.99487541,45.87791547,520.78
-121.99487709,45.87782269,510.37
-121.99488221,45.87753826,506.90
-121.99488420,45.87742718,550.93
-121.99488925,45.87714605,535.76
-121.99489590,45.87677566,532.94
-121.99490290,45.87639117,582.47
-121.99490444,45.87630539,550.07
-121.99491251,45.87585793,544.03
-121.99491257,45.87585457,543.73
-121.99491483,45.87572863,524.78
-121.99491934,45.87547776,550.80
-121.99492330,45.87525861,555.19
-121.99493131,45.87481371,528.96
-121.99493562,45.87457573,570.57
-121.99494302,45.87416052,579.90
-121.99494650,45.87397289,567.46
-121.99495183,45.87367177,573.15
-121.99495636,45.87342445,555.23
-121.99495847,45.87330885,562.29
-121.99496109,45.87316351,571.97
-121.99496420,45.87298968,540.19
-121.99496975,45.87267989,553.66
-121.99497300,45.87250281,499.19
-121.99497861,45.87219166,537.91
-121.99498139,45.87203716,586.29
-121.99498201,45.87200297,582.36
-121.99498352,45.87191892,563.38
-121.99498388,45.87189921,567.97
-121.99498959,45.87158095,615.78
-121.99499523,45.87126956,605.35
-121.99500266,45.87085419,662.55
-121.99500901,45.87050488,696.54
-121.99501630,45.87009814,713.74
-121.99501726,45.87004739,699.55
-121.99502281,45.86973959,729.54
-121.99502580,45.86957246,739.69
-121.99503051,45.86930937,708.49
-121.99503214,45.86921290,732.54
-121.99503254,45.86918605,751.08
-121.99503278,45.86916640,753.50
-121.99503288,45.86915638,747.96
-121.99503285,45.86914928,745.63
-121.99503094,45.86914831,744.61
-121.99501686,45.86914712,728.55
-121.99500918,45.86914691,729.55
-121.99499251,45.86914665,728.75
-121.99469783,45.86914405,734.70
-121.99444450,45.86914183,699.82
-121.99384681,45.86913654,696.28
-121.99378089,45.86913595,676.99
-121.99360912,45.86913444,653.28
-121.99296668,45.86912878,646.75
-121.99251646,45.86912482,654.72
-121.99218400,45.86912187,602.79
-121.99165375,45.86911721,616.97
-121.99111222,45.86911243,617.08
-121.99048133,45.86910685,586.01
-121.99021952,45.86910453,547.24
-121.98983105,45.86910111,570.72
-121.98944157,45.86909765,571.86
-121.98884267,45.86909237,571.12
-121.98825965,45.86908719,536.93
-121.98780605,45.86908318,549.01
-121.98732842,45.86907895,536.42
-121.98680395,45.86907430,526.07
-121.98621251,45.86906905,495.02
-121.98564442,45.86906401,491.24
-121.98530275,45.86906097,468.77
-121.98523569,45.86906038,452.03
-121.98477687,45.86905633,449.40
-121.98418015,45.86905103,395.45
-121.98363416,45.86904620,364.83
-121.98351117,45.86904509,359.28
-121.98298931,45.86904045,361.16
-121.98268220,45.86903771,375.33
-121.98215674,45.86903307,389.72
-121.98215163,45.86903420,390.62
-121.98215122,45.86904303,389.70
-121.98214924,45.86914963,376.21
-121.98214110,45.86959493,361.16
-121.98213788,45.86977270,351.87
-121.98213111,45.87014335,364.08
-121.98212692,45.87037214,364.46
-121.98212174,45.87065866,349.94
-121.98211709,45.87091129,378.46
-121.98211533,45.87100773,382.23
-121.98210811,45.87140184,377.39
-121.98210413,45.87161984,364.36
-121.98209899,45.87190126,393.12
-121.98209826,45.87194115,386.90
-121.98209431,45.87215938,382.83
-121.98208927,45.87243452,390.12
-121.98208862,45.87247024,373.35
-121.98208053,45.87291265,376.74
-121.98207827,45.87303637,374.43
-121.98207445,45.87324564,387.39
-121.98206915,45.87353553,378.09
-121.98206167,45.87394696,353.52
-121.98205380,45.87437722,382.05
-121.98205252,45.87444667,377.33
-121.98205051,45.87455743,386.17
-121.98204710,45.87474497,385.01
-121.98204011,45.87512604,386.37
-121.98203443,45.87543717,381.92
-121.98203091,45.87562988,344.87
-121.98202861,45.87575880,375.07
-121.98202095,45.87617755,368.13
-121.98201533,45.87648291,381.94
-121.98200940,45.87681147,369.76
-121.98200479,45.87706058,351.57
-121.98200348,45.87713223,385.87
-121.98199722,45.87747575,380.98
-121.98199443,45.87762887,347.47
-121.98198760,45.87800441,347.53
-121.98198786,45.87801623,370.97
-121.98198819,45.87802706,361.64
-121.98198997,45.87803132,357.55
-121.98199510,45.87803175,358.62
-121.98201071,45.87803225,356.71
-121.98204497,45.87803256,384.21
-121.98212295,45.87803327,347.54
-121.98265374,45.87803796,348.98
-121.98285513,45.87803971,349.12
-121.98334363,45.87804413,364.16
-121.98366737,45.87804700,350.07
-121.98390487,45.87804911,355.17
-121.98441394,45.87805365,350.87
-121.98458254,45.87805509,359.29
-121.98507116,45.87805947,376.45
-121.98548215,45.87806312,386.98
-121.98589656,45.87806676,384.88
-121.98613907,45.87806895,361.09
-121.98617019,45.87806924,364.15
-121.98645852,45.87807181,353.17
-121.98646654,45.87807188,353.40
-121.98673268,45.87807423,359.84
-121.98725709,45.87807887,355.90
-121.98748061,45.87808086,382.41
-121.98765532,45.87808242,357.43
-121.98780806,45.87808377,356.66
     </coordinates>
    </LineString>
   </MultiGeometry>
  </Placemark>
 </Document>
</kml>
