<kml>
 <Document>
  <Style id="yellow">
   <LineStyle>
   <color>ff00ffff</color>
   <width>1</width>
   </LineStyle>
  </Style>
  <Style id="red">
   <LineStyle>
   <color>ffff0000</color>
   <width>2</width>
   </LineStyle>
  </Style>
  <Style id="green">
   <LineStyle>
   <color>ff00ff00</color>
   <width>1</width>
   </LineStyle>
  </Style>
  <Placemark>
  <styleUrl>#yellow</styleUrl>
   <MultiGeometry>
    <LineString>
     <coordinates>
-121.96243796,45.87785621,653.94
-121.96245902,45.87785640,652.63
-121.96246039,45.87785641,652.53
-121.96250618,45.87785683,685.81
-121.96272743,45.87785883,651.53
-121.96292376,45.87786059,674.66
-121.96339999,45.87786494,648.64
-121.96356599,45.87786644,633.13
-121.96396041,45.87787001,630.47
-121.96451579,45.87787506,578.24
-121.96502574,45.87787967,534.57
-121.96542274,45.87788327,529.43
-121.96546776,45.87788367,527.02
-121.96560908,45.87788492,520.17
-121.96611601,45.87788950,527.18
-121.96655293,45.87789349,542.90
-121.96701538,45.87789768,514.38
-121.96725300,45.87789983,533.09
-121.96755919,45.87790260,496.39
-121.96795167,45.87790612,474.41
-121.96851218,45.87791114,437.83
-121.96877430,45.87791356,430.22
-121.96908581,45.87791625,410.24
-121.96909592,45.87791564,406.95
-121.96910010,45.87791465,390.63
-121.96910223,45.87790877,410.00
-121.96910330,45.87789433,414.78
-121.96910671,45.87770964,419.57
-121.96911354,45.87734031,430.31
-121.96912027,45.87697224,417.52
-121.96912350,45.87679980,410.35
-121.96912567,45.87668458,441.99
-121.96913108,45.87639143,438.88
-121.96913788,45.87602455,446.38
-121.96914552,45.87560986,442.24
-121.96915064,45.87533385,454.54
-121.96915753,45.87496164,449.22
-121.96916308,45.87466168,447.43
-121.96917136,45.87421231,421.94
-121.96917410,45.87406438,436.30
-121.96917971,45.87376094,434.10
-121.96918343,45.87356011,411.16
-121.96919023,45.87319196,423.77
-121.96919561,45.87290129,390.14
-121.96920226,45.87254231,417.37
-121.96920650,45.87231325,426.49
-121.96920945,45.87215305,413.44
-121.96921598,45.87179902,449.53
-121.96921952,45.87160859,455.16
-121.96922432,45.87134959,473.83
-121.96923256,45.87090243,489.65
-121.96923848,45.87058353,501.02
-121.96924435,45.87026523,505.95
-121.96924716,45.87011316,501.21
-121.96925254,45.86982140,502.78
-121.96925630,45.86961810,486.51
-121.96926443,45.86917755,444.58
-121.96926796,45.86897406,450.64
-121.96926844,45.86894514,432.48
-121.96926858,45.86892645,436.97
-121.96926609,45.86892350,447.44
-121.96925888,45.86891754,465.60
-121.96910121,45.86891595,470.45
-121.96887643,45.86891391,454.86
-121.96861575,45.86891156,466.35
-121.96811300,45.86890703,456.07
-121.96768670,45.86890317,466.86
-121.96724701,45.86889920,492.10
-121.96707821,45.86889767,506.27
-121.96647347,45.86889221,481.86
-121.96615519,45.86888932,447.84
-121.96574021,45.86888558,467.01
-121.96547192,45.86888314,458.29
-121.96536314,45.86888215,458.93
-121.96517497,45.86888045,428.36
-121.96492584,45.86887821,451.09
-121.96439876,45.86887343,417.59
-121.96398930,45.86886971,480.77
-121.96338715,45.86886425,513.00
-121.96317595,45.86886233,533.57
-121.96294273,45.86886021,513.41
-121.96291196,45.86885993,515.70
-121.96227332,45.86885413,580.21
-121.96167337,45.86884871,593.89
-121.96146709,45.86884682,577.43
-121.96111922,45.86884365,586.90
-121.96074834,45.86884027,589.78
-121.96062028,45.86883911,620.36
-121.96020087,45.86883534,635.75
-121.95989247,45.86883249,622.63
-121.95978103,45.86883147,625.51
-121.95943156,45.86882830,609.47
-121.95903782,45.86882470,631.78
-121.95850497,45.86881986,657.56
-121.95823800,45.86881741,657.50
-121.95774528,45.86881292,629.33
-121.95740907,45.86880985,637.63
-121.95688460,45.86880512,649.37
-121.95673267,45.86880370,650.07
-121.95641186,45.86880075,654.75
-121.95640645,45.86880078,654.95
-121.95640101,45.86880083,655.13
-121.95639000,45.86880094,655.46
-121.95638878,45.86880174,685.51
-121.95638801,45.86880643,681.70
-121.95638664,45.86885025,653.71
-121.95638584,45.86888175,665.68
-121.95638503,45.86892291,655.12
-121.95638321,45.86901926,691.80
-121.95637571,45.86942005,659.97
-121.95636754,45.86985667,677.67
-121.95636241,45.87013066,672.92
-121.95635410,45.87057580,668.92
-121.95635269,45.87065047,696.49
-121.95635136,45.87072157,693.90
-121.95634669,45.87097102,679.57
-121.95634437,45.87109864,681.40
-121.95633821,45.87142485,717.59
-121.95633499,45.87159518,678.69
-121.95632945,45.87189352,691.46
-121.95632215,45.87228224,690.82
-121.95632064,45.87236184,688.04
-121.95631400,45.87271888,709.41
-121.95630724,45.87307764,707.60
-121.95630064,45.87343368,734.76
-121.95629769,45.87358994,705.37
-121.95629379,45.87379620,731.66
-121.95628723,45.87414674,738.42
-121.95628559,45.87423574,737.62
-121.95627869,45.87460345,726.47
-121.95627737,45.87467406,727.73
-121.95626939,45.87509959,739.04
-121.95626320,45.87543070,767.05
-121.95625716,45.87575277,741.30
-121.95625411,45.87591623,769.21
-121.95624871,45.87620389,747.08
-121.95624693,45.87629913,766.38
-121.95624182,45.87657295,749.11
-121.95623502,45.87693495,752.45
-121.95623195,45.87709920,756.87
-121.95622549,45.87744430,796.65
-121.95621990,45.87774314,786.76
-121.95621923,45.87778583,795.20
-121.95621918,45.87779175,761.01
-121.95622007,45.87779743,784.89
-121.95622054,45.87779898,762.23
-121.95623569,45.87779951,763.81
-121.95637052,45.87780095,792.36
-121.95646903,45.87780185,783.67
-121.95684977,45.87780532,771.65
-121.95724013,45.87780889,754.02
-121.95752723,45.87781151,741.32
-121.95760112,45.87781218,738.33
-121.95798323,45.87781567,716.41
-121.95820441,45.87781768,713.20
-121.95847069,45.87782009,695.89
-121.95907640,45.87782561,647.09
-121.95934035,45.87782802,653.07
-121.95982259,45.87783243,634.15
-121.96032414,45.87783698,681.07
-121.96064872,45.87783990,660.12
-121.96104888,45.87784358,636.68
-121.96120550,45.87784499,670.44
-121.96142149,45.87784694,677.31
-121.96191649,45.87785146,664.55
-121.96211023,45.87785323,691.47
-121.96224067,45.87785442,679.37
-121.96243796,45.87785621,653.94
     </coordinates>
    </LineString>
   </MultiGeometry>
  </Placemark>
 </Document>
</kml>
