<kml>
 <Document>
  <Style id="yellow">
   <LineStyle>
   <color>ff00ffff</color>
   <width>1</width>
   </LineStyle>
  </Style>
  <Style id="red">
   <LineStyle>
   <color>ffff0000</color>
   <width>2</width>
   </LineStyle>
  </Style>
  <Style id="green">
   <LineStyle>
   <color>ff00ff00</color>
   <width>1</width>
   </LineStyle>
  </Style>
  <Placemark>
  <styleUrl>#yellow</styleUrl>
   <MultiGeometry>
    <LineString>
     <coordinates>
-121.94376436,45.85500975,535.63
-121.94375845,45.85532204,577.66
-121.94375479,45.85551574,572.73
-121.94374828,45.85585898,550.47
-121.94374557,45.85600203,553.28
-121.94374013,45.85629086,554.89
-121.94373589,45.85651586,589.70
-121.94372985,45.85683235,575.56
-121.94372616,45.85702701,555.14
-121.94372429,45.85712600,579.67
-121.94371595,45.85756649,602.62
-121.94371408,45.85766498,591.06
-121.94371079,45.85783963,623.78
-121.94370420,45.85818663,636.29
-121.94370072,45.85837074,634.82
-121.94369584,45.85862823,637.35
-121.94368757,45.85906586,652.89
-121.94368182,45.85936918,660.15
-121.94367782,45.85958062,659.66
-121.94367608,45.85967219,668.52
-121.94367611,45.85968196,667.94
-121.94367803,45.85968288,663.88
-121.94368805,45.85968308,657.26
-121.94377505,45.85968401,637.82
-121.94399796,45.85968604,638.42
-121.94442888,45.85969003,631.52
-121.94461415,45.85969176,648.32
-121.94480897,45.85969357,647.14
-121.94520904,45.85969726,638.55
-121.94571221,45.85970189,605.32
-121.94613150,45.85970575,627.34
-121.94648574,45.85970904,612.57
-121.94682485,45.85971217,581.64
-121.94731197,45.85971664,579.38
-121.94763704,45.85971964,570.64
-121.94780111,45.85972115,566.88
-121.94842474,45.85972690,579.12
-121.94855525,45.85972810,584.71
-121.94875867,45.85972997,563.00
-121.94915510,45.85973361,551.17
-121.94963936,45.85973808,557.99
-121.94990206,45.85974043,578.44
-121.95030049,45.85974415,572.35
-121.95088115,45.85974947,558.36
-121.95139699,45.85975420,571.55
-121.95186797,45.85975854,573.41
-121.95250180,45.85976436,552.23
-121.95289908,45.85976799,528.90
-121.95341814,45.85977274,526.60
-121.95376728,45.85977593,525.70
-121.95438572,45.85978160,486.38
-121.95484249,45.85978574,493.62
-121.95507573,45.85978792,495.65
-121.95550811,45.85979188,459.68
-121.95550887,45.85979189,435.13
-121.95583351,45.85979484,433.64
-121.95630215,45.85979913,442.62
-121.95646216,45.85980058,440.84
-121.95653236,45.85980092,436.42
-121.95655260,45.85980007,435.78
-121.95655494,45.85979226,437.42
-121.95655569,45.85978529,432.39
-121.95655680,45.85974036,442.35
-121.95656439,45.85933381,426.30
-121.95657202,45.85892828,421.53
-121.95657887,45.85856211,414.60
-121.95658721,45.85811591,356.16
-121.95658816,45.85806510,394.18
-121.95658961,45.85798796,391.42
-121.95659143,45.85789066,384.90
-121.95659588,45.85764712,355.97
-121.95660187,45.85733111,371.38
-121.95660973,45.85691128,367.57
-121.95661017,45.85688768,360.49
-121.95661765,45.85648795,318.08
-121.95662060,45.85633113,320.43
-121.95662723,45.85597594,348.49
-121.95663219,45.85570759,358.28
-121.95663901,45.85534578,329.38
-121.95664471,45.85503685,319.99
-121.95665116,45.85469613,337.40
-121.95665598,45.85443943,332.29
-121.95666315,45.85405427,324.55
-121.95666525,45.85394311,328.13
-121.95667133,45.85361780,332.18
-121.95667464,45.85344158,326.39
-121.95667600,45.85336883,326.97
-121.95668151,45.85307348,324.49
-121.95668448,45.85291396,338.02
-121.95669262,45.85248024,345.13
-121.95669290,45.85246481,341.44
-121.95669831,45.85217575,321.31
-121.95670551,45.85179076,357.34
-121.95670695,45.85171357,334.49
-121.95671401,45.85133628,340.88
-121.95671882,45.85107898,345.22
-121.95672112,45.85095315,344.64
-121.95672278,45.85086135,327.50
-121.95672346,45.85082161,326.20
-121.95672352,45.85081652,318.26
-121.95672268,45.85080246,322.65
-121.95669111,45.85080213,337.75
-121.95660246,45.85080129,351.53
-121.95634914,45.85079898,331.08
-121.95598041,45.85079562,321.64
-121.95557251,45.85079187,313.96
-121.95544630,45.85079071,310.87
-121.95489900,45.85078571,322.91
-121.95427419,45.85077998,328.67
-121.95401678,45.85077763,318.48
-121.95363858,45.85077417,322.98
-121.95335604,45.85077159,313.21
-121.95277224,45.85076623,347.84
-121.95213745,45.85076041,344.84
-121.95196130,45.85075885,314.39
-121.95140015,45.85075364,313.22
-121.95112839,45.85075115,326.54
-121.95056048,45.85074594,346.39
-121.95000217,45.85074081,358.69
-121.94950626,45.85073626,374.18
-121.94899575,45.85073160,365.89
-121.94884317,45.85073018,383.99
-121.94874776,45.85072930,390.12
-121.94859666,45.85072789,398.34
-121.94798188,45.85072222,417.31
-121.94765814,45.85071924,406.89
-121.94711941,45.85071428,440.18
-121.94686776,45.85071197,419.59
-121.94624832,45.85070627,430.31
-121.94589767,45.85070303,451.54
-121.94572727,45.85070145,453.43
-121.94550758,45.85069941,459.57
-121.94524722,45.85069702,459.82
-121.94462262,45.85069125,503.46
-121.94417329,45.85068709,513.50
-121.94396341,45.85068518,481.05
-121.94387435,45.85068438,520.33
-121.94385023,45.85068426,518.15
-121.94384628,45.85068793,517.58
-121.94384607,45.85069355,516.79
-121.94383773,45.85113573,517.48
-121.94383409,45.85132790,529.87
-121.94382804,45.85164892,526.76
-121.94382318,45.85190268,491.97
-121.94381628,45.85226824,513.86
-121.94381092,45.85255024,532.69
-121.94380378,45.85292824,529.84
-121.94379913,45.85317310,529.40
-121.94379597,45.85333997,521.10
-121.94379508,45.85338692,543.84
-121.94379175,45.85356351,550.04
-121.94379018,45.85364951,560.66
-121.94378306,45.85402295,523.99
-121.94378090,45.85413666,556.93
-121.94377580,45.85440755,558.21
-121.94377056,45.85468224,530.26
-121.94376436,45.85500975,535.63
     </coordinates>
    </LineString>
   </MultiGeometry>
  </Placemark>
 </Document>
</kml>
