<kml>
 <Document>
  <Style id="yellow">
   <LineStyle>
   <color>ff00ffff</color>
   <width>1</width>
   </LineStyle>
  </Style>
  <Style id="red">
   <LineStyle>
   <color>ffff0000</color>
   <width>2</width>
   </LineStyle>
  </Style>
  <Style id="green">
   <LineStyle>
   <color>ff00ff00</color>
   <width>1</width>
   </LineStyle>
  </Style>
  <Placemark>
  <styleUrl>#yellow</styleUrl>
   <MultiGeometry>
    <LineString>
     <coordinates>
-121.93566066,45.82360616,461.14
-121.93596163,45.82360897,449.47
-121.93624578,45.82361155,459.56
-121.93663658,45.82361521,428.96
-121.93684761,45.82361721,427.42
-121.93733210,45.82362170,442.26
-121.93759814,45.82362419,450.29
-121.93784518,45.82362648,438.16
-121.93830600,45.82363075,438.34
-121.93870743,45.82363449,404.20
-121.93911902,45.82363833,403.49
-121.93939370,45.82364088,437.49
-121.93983315,45.82364496,434.55
-121.94026641,45.82364898,405.22
-121.94051034,45.82365122,407.22
-121.94105421,45.82365627,427.50
-121.94152618,45.82366065,394.72
-121.94214327,45.82366637,390.14
-121.94257074,45.82367033,445.50
-121.94267911,45.82367133,431.84
-121.94288154,45.82367320,398.99
-121.94288170,45.82367320,398.96
-121.94318698,45.82367603,429.53
-121.94319346,45.82367609,427.75
-121.94328912,45.82367697,429.78
-121.94384168,45.82368208,428.08
-121.94393180,45.82368292,413.13
-121.94418294,45.82368524,412.72
-121.94433042,45.82368658,407.28
-121.94435613,45.82368677,382.70
-121.94435676,45.82368657,415.02
-121.94435711,45.82367182,382.93
-121.94435772,45.82364417,389.02
-121.94436560,45.82322740,412.05
-121.94437396,45.82278493,426.32
-121.94438146,45.82238762,423.12
-121.94438199,45.82235861,419.11
-121.94438557,45.82216511,422.65
-121.94439109,45.82187833,422.70
-121.94439719,45.82155307,411.51
-121.94440118,45.82134109,412.09
-121.94440360,45.82121321,394.28
-121.94440846,45.82095406,384.06
-121.94441216,45.82076314,399.75
-121.94441601,45.82055797,442.58
-121.94441913,45.82039137,436.91
-121.94442056,45.82031460,418.35
-121.94442824,45.81990996,406.43
-121.94443030,45.81980323,427.99
-121.94443177,45.81972566,410.60
-121.94443722,45.81943448,417.55
-121.94444405,45.81907477,393.58
-121.94444811,45.81886093,423.99
-121.94445089,45.81871444,424.47
-121.94445685,45.81839753,437.98
-121.94445941,45.81826340,432.16
-121.94446315,45.81805892,431.75
-121.94446866,45.81776847,421.45
-121.94447051,45.81767355,425.00
-121.94447304,45.81754127,412.92
-121.94447758,45.81730003,374.50
-121.94448455,45.81693306,396.16
-121.94448814,45.81674182,372.04
-121.94449316,45.81647607,405.17
-121.94449988,45.81611779,391.96
-121.94450322,45.81594482,400.29
-121.94450825,45.81567677,390.02
-121.94451343,45.81540306,362.67
-121.94451790,45.81516741,362.17
-121.94452385,45.81485188,357.48
-121.94452659,45.81470401,357.09
-121.94452531,45.81468997,385.75
-121.94447932,45.81468781,385.72
-121.94447118,45.81468751,386.92
-121.94439990,45.81468660,386.26
-121.94391031,45.81468205,359.95
-121.94358959,45.81467910,400.67
-121.94307377,45.81467432,396.82
-121.94274912,45.81467132,362.05
-121.94231017,45.81466725,403.25
-121.94223142,45.81466652,384.37
-121.94162840,45.81466094,371.86
-121.94157593,45.81466045,369.51
-121.94142667,45.81465907,398.38
-121.94102687,45.81465536,400.72
-121.94076131,45.81465290,384.45
-121.94072073,45.81465253,405.53
-121.94030952,45.81464872,407.11
-121.93979755,45.81464396,405.01
-121.93926087,45.81463898,411.66
-121.93872661,45.81463402,422.09
-121.93840221,45.81463101,421.49
-121.93832079,45.81463025,423.75
-121.93802789,45.81462753,395.90
-121.93768985,45.81462439,445.88
-121.93724057,45.81462021,453.67
-121.93688222,45.81461689,456.67
-121.93631130,45.81461158,484.80
-121.93604899,45.81460912,490.46
-121.93574240,45.81460627,494.22
-121.93518967,45.81460112,486.44
-121.93508194,45.81460011,522.19
-121.93492582,45.81459865,529.17
-121.93473645,45.81459691,542.59
-121.93462765,45.81459593,538.93
-121.93406760,45.81459067,578.03
-121.93396052,45.81458965,574.79
-121.93342654,45.81458466,590.05
-121.93328816,45.81458337,617.34
-121.93290136,45.81457976,633.89
-121.93289948,45.81457974,621.87
-121.93278852,45.81457871,631.33
-121.93245398,45.81457559,657.37
-121.93189326,45.81457034,663.05
-121.93167230,45.81456828,687.65
-121.93166532,45.81456843,687.89
-121.93166046,45.81457092,672.06
-121.93165799,45.81457550,674.27
-121.93165743,45.81457919,678.02
-121.93165188,45.81486930,679.91
-121.93165154,45.81488697,696.41
-121.93164860,45.81504250,682.15
-121.93164144,45.81541362,708.87
-121.93163480,45.81576112,716.55
-121.93162946,45.81603991,729.98
-121.93162088,45.81648943,732.98
-121.93161984,45.81654297,696.01
-121.93161446,45.81682516,736.24
-121.93160684,45.81722487,721.92
-121.93159942,45.81761173,752.72
-121.93159340,45.81792711,716.91
-121.93158532,45.81834820,738.88
-121.93158333,45.81845213,741.12
-121.93157788,45.81873712,693.87
-121.93157239,45.81902542,705.21
-121.93156933,45.81918583,685.80
-121.93156235,45.81955033,663.78
-121.93155505,45.81993068,628.35
-121.93154966,45.82021457,582.49
-121.93154482,45.82046595,571.12
-121.93153887,45.82077784,551.03
-121.93153376,45.82104332,497.10
-121.93152572,45.82146358,498.24
-121.93152407,45.82155013,480.91
-121.93152223,45.82164609,480.80
-121.93152044,45.82173988,472.19
-121.93151788,45.82187341,470.16
-121.93151189,45.82218720,449.13
-121.93150758,45.82241169,439.12
-121.93149949,45.82283490,420.69
-121.93149292,45.82318025,409.61
-121.93148677,45.82350152,395.67
-121.93148579,45.82355777,390.96
-121.93148941,45.82356642,390.49
-121.93150465,45.82356678,390.28
-121.93155639,45.82356782,391.22
-121.93156933,45.82356797,392.42
-121.93183975,45.82357049,387.71
-121.93244728,45.82357618,432.11
-121.93268149,45.82357837,418.01
-121.93295960,45.82358096,432.95
-121.93315034,45.82358273,398.62
-121.93364158,45.82358733,429.51
-121.93369614,45.82358784,433.83
-121.93385366,45.82358931,441.89
-121.93430929,45.82359356,422.63
-121.93469082,45.82359711,453.16
-121.93485418,45.82359864,457.00
-121.93540255,45.82360376,439.62
-121.93553718,45.82360501,419.81
-121.93566066,45.82360616,461.14
     </coordinates>
    </LineString>
   </MultiGeometry>
  </Placemark>
 </Document>
</kml>
