<kml>
 <Document>
  <Style id="yellow">
   <LineStyle>
   <color>ff00ffff</color>
   <width>1</width>
   </LineStyle>
  </Style>
  <Style id="red">
   <LineStyle>
   <color>ffff0000</color>
   <width>2</width>
   </LineStyle>
  </Style>
  <Style id="green">
   <LineStyle>
   <color>ff00ff00</color>
   <width>1</width>
   </LineStyle>
  </Style>
  <Placemark>
  <styleUrl>#yellow</styleUrl>
   <MultiGeometry>
    <LineString>
     <coordinates>
-121.94569086,45.86870231,814.26
-121.94618321,45.86870686,823.35
-121.94665490,45.86871120,812.44
-121.94692087,45.86871366,767.42
-121.94752965,45.86871926,782.17
-121.94783116,45.86872204,772.87
-121.94812339,45.86872473,760.28
-121.94841550,45.86872741,749.59
-121.94885553,45.86873145,752.31
-121.94918149,45.86873443,753.58
-121.94953260,45.86873768,756.86
-121.94992040,45.86874125,724.51
-121.95000915,45.86874206,748.85
-121.95059349,45.86874741,757.11
-121.95067154,45.86874814,756.23
-121.95082920,45.86874960,726.61
-121.95144157,45.86875520,734.39
-121.95184342,45.86875891,768.07
-121.95223818,45.86876254,744.96
-121.95225464,45.86876269,740.81
-121.95253740,45.86876529,726.52
-121.95286684,45.86876830,733.04
-121.95324194,45.86877174,736.46
-121.95333069,45.86877256,707.61
-121.95375011,45.86877640,721.06
-121.95438076,45.86878217,701.33
-121.95439640,45.86878231,708.77
-121.95494132,45.86878730,679.71
-121.95539242,45.86879142,673.69
-121.95590099,45.86879601,660.11
-121.95606417,45.86879754,658.22
-121.95630181,45.86879972,669.30
-121.95634002,45.86879988,686.26
-121.95638397,45.86879916,685.53
-121.95638721,45.86879789,686.90
-121.95638732,45.86879538,686.79
-121.95638796,45.86876336,681.57
-121.95638916,45.86870078,659.54
-121.95639653,45.86830694,653.34
-121.95640276,45.86797315,675.20
-121.95640711,45.86773889,641.97
-121.95641138,45.86751160,676.11
-121.95641527,45.86730508,666.96
-121.95642235,45.86692652,656.96
-121.95642913,45.86656380,654.56
-121.95643129,45.86644941,651.48
-121.95643194,45.86641488,644.72
-121.95643613,45.86619118,647.00
-121.95644127,45.86591479,633.23
-121.95644776,45.86556796,595.57
-121.95644976,45.86546139,623.06
-121.95645788,45.86502777,624.58
-121.95646058,45.86488438,585.05
-121.95646397,45.86470343,611.46
-121.95646860,45.86445594,594.50
-121.95647424,45.86415010,581.43
-121.95647798,45.86395333,611.55
-121.95647869,45.86391576,568.38
-121.95647921,45.86388789,574.68
-121.95648716,45.86346397,554.65
-121.95649508,45.86304042,580.56
-121.95649968,45.86279422,561.82
-121.95650297,45.86261667,562.01
-121.95651047,45.86221621,535.49
-121.95651864,45.86178134,516.39
-121.95652597,45.86138815,498.18
-121.95653313,45.86100369,472.85
-121.95653618,45.86084117,434.40
-121.95653756,45.86076724,476.79
-121.95654370,45.86043834,454.82
-121.95655139,45.86002796,441.50
-121.95655555,45.85980319,441.10
-121.95655458,45.85980258,440.96
-121.95652788,45.85980167,432.00
-121.95652190,45.85980154,435.02
-121.95645373,45.85980070,443.60
-121.95637773,45.85979983,445.35
-121.95603993,45.85979675,460.83
-121.95576378,45.85979423,464.08
-121.95536590,45.85979059,438.75
-121.95508559,45.85978803,493.65
-121.95469011,45.85978441,501.65
-121.95460718,45.85978366,511.09
-121.95429405,45.85978081,501.58
-121.95390300,45.85977720,515.04
-121.95337255,45.85977239,492.37
-121.95316425,45.85977046,495.13
-121.95274579,45.85976673,545.55
-121.95250869,45.85976445,552.30
-121.95224589,45.85976202,560.12
-121.95175814,45.85975755,530.53
-121.95142795,45.85975452,559.33
-121.95091262,45.85974983,567.24
-121.95072004,45.85974803,549.87
-121.95039746,45.85974505,549.48
-121.95023321,45.85974357,570.84
-121.94970906,45.85973873,575.65
-121.94964236,45.85973811,558.06
-121.94953211,45.85973710,570.61
-121.94919918,45.85973408,560.83
-121.94857983,45.85972836,582.41
-121.94853579,45.85972795,583.49
-121.94812414,45.85972417,595.16
-121.94783591,45.85972151,565.98
-121.94724461,45.85971605,576.44
-121.94712399,45.85971494,576.77
-121.94707496,45.85971448,577.04
-121.94673958,45.85971139,605.31
-121.94640785,45.85970836,611.79
-121.94601849,45.85970474,600.32
-121.94558160,45.85970072,640.14
-121.94553841,45.85970033,651.63
-121.94520591,45.85969734,638.31
-121.94478086,45.85969332,638.10
-121.94466340,45.85969223,660.49
-121.94416007,45.85968758,622.32
-121.94413658,45.85968737,662.05
-121.94377785,45.85968406,639.35
-121.94368058,45.85968323,665.26
-121.94367890,45.85968352,667.95
-121.94367684,45.85968455,667.99
-121.94367572,45.85971462,642.82
-121.94367523,45.85973344,659.56
-121.94367380,45.85979467,639.96
-121.94366692,45.86015527,668.88
-121.94366550,45.86023035,675.28
-121.94365879,45.86058566,650.96
-121.94365273,45.86090451,685.73
-121.94364991,45.86105374,694.44
-121.94364715,45.86119915,668.78
-121.94364585,45.86126778,702.80
-121.94363933,45.86161582,678.39
-121.94363637,45.86176941,707.76
-121.94363507,45.86183771,706.99
-121.94362992,45.86210965,716.17
-121.94362844,45.86218807,729.93
-121.94362434,45.86240783,693.01
-121.94361780,45.86275140,698.59
-121.94361111,45.86310529,700.75
-121.94360866,45.86323344,741.74
-121.94360304,45.86352955,734.39
-121.94359755,45.86381856,730.00
-121.94359067,45.86418252,754.77
-121.94358348,45.86456066,752.69
-121.94357840,45.86482904,766.38
-121.94357091,45.86522515,771.83
-121.94356349,45.86561602,784.77
-121.94355793,45.86591080,786.67
-121.94355303,45.86616793,799.36
-121.94354810,45.86643018,776.75
-121.94354023,45.86684462,765.41
-121.94353496,45.86712213,797.01
-121.94353423,45.86716034,796.07
-121.94352995,45.86738653,804.91
-121.94352759,45.86751069,811.20
-121.94352230,45.86779020,813.03
-121.94351559,45.86814622,811.22
-121.94351346,45.86825844,822.53
-121.94350588,45.86865896,821.12
-121.94350591,45.86867364,827.98
-121.94350797,45.86868183,822.31
-121.94360473,45.86868297,826.98
-121.94381522,45.86868498,821.07
-121.94406497,45.86868729,823.94
-121.94449750,45.86869128,802.87
-121.94477733,45.86869388,789.79
-121.94480957,45.86869418,810.67
-121.94529084,45.86869860,822.37
-121.94548082,45.86870037,810.45
-121.94569086,45.86870231,814.26
     </coordinates>
    </LineString>
   </MultiGeometry>
  </Placemark>
 </Document>
</kml>
