<kml>
 <Document>
  <Style id="yellow">
   <LineStyle>
   <color>ff00ffff</color>
   <width>1</width>
   </LineStyle>
  </Style>
  <Style id="red">
   <LineStyle>
   <color>ffff0000</color>
   <width>2</width>
   </LineStyle>
  </Style>
  <Style id="green">
   <LineStyle>
   <color>ff00ff00</color>
   <width>1</width>
   </LineStyle>
  </Style>
  <Placemark>
  <styleUrl>#yellow</styleUrl>
   <MultiGeometry>
    <LineString>
     <coordinates>
-121.96152218,45.85984670,353.12
-121.96171718,45.85984847,353.45
-121.96204815,45.85985148,323.36
-121.96249898,45.85985547,340.84
-121.96269220,45.85985730,344.88
-121.96276408,45.85985797,349.65
-121.96276542,45.85985798,349.57
-121.96308160,45.85986085,342.85
-121.96358866,45.85986546,334.52
-121.96379682,45.85986734,345.53
-121.96426566,45.85987156,325.47
-121.96450028,45.85987372,320.64
-121.96514018,45.85987952,322.45
-121.96528396,45.85988081,324.78
-121.96540894,45.85988192,354.52
-121.96602953,45.85988755,362.01
-121.96614015,45.85988857,383.85
-121.96663607,45.85989305,379.49
-121.96708404,45.85989708,378.42
-121.96745960,45.85990050,363.10
-121.96790941,45.85990456,380.44
-121.96813281,45.85990658,388.87
-121.96822526,45.85990742,397.24
-121.96886411,45.85991319,401.26
-121.96928998,45.85991704,393.83
-121.96943348,45.85991832,394.67
-121.96943509,45.85991567,384.20
-121.96943543,45.85991310,390.80
-121.96943614,45.85988711,396.25
-121.96943924,45.85972066,402.40
-121.96944633,45.85933651,403.86
-121.96945159,45.85905258,403.62
-121.96945168,45.85904751,370.05
-121.96945487,45.85887416,394.00
-121.96946205,45.85848545,399.87
-121.96946397,45.85838163,397.65
-121.96946448,45.85835411,395.40
-121.96946873,45.85812411,400.07
-121.96947404,45.85783718,407.25
-121.96947780,45.85763293,398.98
-121.96948305,45.85734947,404.22
-121.96948746,45.85710873,410.39
-121.96949210,45.85685903,421.01
-121.96949227,45.85684965,421.71
-121.96949560,45.85666796,427.23
-121.96949821,45.85652489,416.47
-121.96950619,45.85609552,408.81
-121.96950961,45.85590750,418.02
-121.96951744,45.85548775,418.88
-121.96952152,45.85526439,414.61
-121.96952984,45.85481636,395.82
-121.96953215,45.85469165,424.03
-121.96953233,45.85468160,420.76
-121.96953974,45.85427914,401.70
-121.96954377,45.85406155,436.85
-121.96954899,45.85377889,431.44
-121.96955520,45.85344214,438.37
-121.96955890,45.85324252,452.17
-121.96955938,45.85321657,437.89
-121.96956279,45.85303187,401.62
-121.96956798,45.85275125,440.36
-121.96957250,45.85250625,439.19
-121.96957453,45.85239627,438.30
-121.96958285,45.85194654,439.45
-121.96958518,45.85181877,445.69
-121.96958894,45.85161390,428.81
-121.96959580,45.85124560,459.21
-121.96960032,45.85100013,469.68
-121.96960087,45.85096657,465.84
-121.96960151,45.85092717,461.96
-121.96960151,45.85092581,462.68
-121.96959915,45.85091957,458.02
-121.96958911,45.85091925,453.60
-121.96934947,45.85091698,460.59
-121.96905871,45.85091435,463.32
-121.96860281,45.85091023,427.93
-121.96858616,45.85091008,440.74
-121.96856991,45.85090993,436.86
-121.96796875,45.85090450,417.83
-121.96760899,45.85090126,445.08
-121.96726821,45.85089818,410.83
-121.96669861,45.85089304,434.52
-121.96653313,45.85089154,423.46
-121.96607338,45.85088737,442.38
-121.96587408,45.85088560,406.95
-121.96534639,45.85088080,428.56
-121.96494661,45.85087717,423.56
-121.96452632,45.85087337,402.48
-121.96452416,45.85087335,402.51
-121.96444604,45.85087264,416.79
-121.96407286,45.85086926,408.81
-121.96354631,45.85086447,377.35
-121.96336592,45.85086284,405.84
-121.96326734,45.85086194,403.30
-121.96325007,45.85086178,416.64
-121.96298496,45.85085940,401.97
-121.96249747,45.85085495,389.47
-121.96229927,45.85085315,397.51
-121.96204144,45.85085081,397.85
-121.96147212,45.85084564,361.87
-121.96096353,45.85084101,353.00
-121.96077850,45.85083934,385.31
-121.96021730,45.85083425,330.05
-121.96003382,45.85083255,345.03
-121.95957019,45.85082835,321.24
-121.95921241,45.85082508,360.06
-121.95904206,45.85082352,323.37
-121.95852344,45.85081882,312.48
-121.95809970,45.85081495,319.85
-121.95786679,45.85081282,313.28
-121.95728702,45.85080752,348.67
-121.95694701,45.85080443,335.66
-121.95685869,45.85080364,323.90
-121.95678486,45.85080298,332.39
-121.95676212,45.85080279,324.06
-121.95673080,45.85080260,331.71
-121.95672675,45.85080270,332.77
-121.95672422,45.85080392,330.90
-121.95672385,45.85082159,326.12
-121.95672289,45.85086876,335.19
-121.95672029,45.85100382,351.81
-121.95671315,45.85138284,336.19
-121.95671164,45.85146335,332.52
-121.95670594,45.85177263,361.40
-121.95670040,45.85206580,333.90
-121.95669946,45.85211641,313.90
-121.95669854,45.85216573,338.56
-121.95669833,45.85217682,314.53
-121.95669499,45.85235515,350.29
-121.95668965,45.85264074,332.05
-121.95668529,45.85287451,327.07
-121.95668333,45.85298075,350.95
-121.95668052,45.85313657,332.46
-121.95667466,45.85344499,326.48
-121.95667313,45.85352572,315.61
-121.95666919,45.85373428,324.36
-121.95666583,45.85391328,321.51
-121.95666180,45.85413035,315.33
-121.95665687,45.85439304,316.76
-121.95665230,45.85463738,332.75
-121.95664490,45.85503235,326.46
-121.95663756,45.85542780,333.81
-121.95662957,45.85585197,347.37
-121.95662777,45.85594846,345.46
-121.95661990,45.85636897,319.02
-121.95661183,45.85680020,320.58
-121.95660951,45.85692586,371.36
-121.95660242,45.85730482,380.41
-121.95659914,45.85747908,338.35
-121.95659403,45.85775281,344.62
-121.95659156,45.85788530,384.64
-121.95658492,45.85823963,395.79
-121.95658259,45.85836369,399.05
-121.95657959,45.85852410,391.67
-121.95657531,45.85875353,409.99
-121.95657066,45.85900152,409.76
-121.95656419,45.85934737,386.31
-121.95655995,45.85957390,427.77
-121.95655593,45.85979317,437.42
-121.95655606,45.85979976,437.34
-121.95658544,45.85980152,439.61
-121.95659557,45.85980172,395.97
-121.95668447,45.85980256,432.09
-121.95688886,45.85980447,384.29
-121.95713658,45.85980675,409.23
-121.95746424,45.85980973,430.69
-121.95786479,45.85981340,420.13
-121.95839739,45.85981826,379.05
-121.95856798,45.85981981,379.31
-121.95898924,45.85982363,403.82
-121.95913376,45.85982493,362.20
-121.95970891,45.85983018,389.51
-121.95978334,45.85983086,389.86
-121.95990377,45.85983198,390.88
-121.95996777,45.85983256,387.52
-121.96014578,45.85983418,339.03
-121.96067437,45.85983897,325.31
-121.96108795,45.85984273,366.73
-121.96152218,45.85984670,353.12
     </coordinates>
    </LineString>
   </MultiGeometry>
  </Placemark>
 </Document>
</kml>
