<kml>
 <Document>
  <Style id="yellow">
   <LineStyle>
   <color>ff00ffff</color>
   <width>1</width>
   </LineStyle>
  </Style>
  <Style id="red">
   <LineStyle>
   <color>ffff0000</color>
   <width>2</width>
   </LineStyle>
  </Style>
  <Style id="green">
   <LineStyle>
   <color>ff00ff00</color>
   <width>1</width>
   </LineStyle>
  </Style>
  <Placemark>
  <styleUrl>#yellow</styleUrl>
   <MultiGeometry>
    <LineString>
     <coordinates>
-121.94762760,45.82371698,346.82
-121.94788379,45.82371938,347.05
-121.94849672,45.82372501,349.01
-121.94906856,45.82373028,374.24
-121.94934199,45.82373280,368.89
-121.94960757,45.82373523,374.62
-121.95008856,45.82373963,353.17
-121.95036762,45.82374222,386.75
-121.95084270,45.82374659,385.44
-121.95104997,45.82374849,365.94
-121.95141296,45.82375182,359.14
-121.95189968,45.82375629,378.10
-121.95234340,45.82376036,384.67
-121.95290760,45.82376549,393.30
-121.95313552,45.82376762,359.95
-121.95313925,45.82376765,392.74
-121.95324588,45.82376863,390.00
-121.95335027,45.82376958,380.08
-121.95366005,45.82377242,386.96
-121.95387607,45.82377439,387.35
-121.95438757,45.82377906,381.88
-121.95485359,45.82378333,399.38
-121.95521066,45.82378659,365.08
-121.95568475,45.82379089,393.34
-121.95598493,45.82379367,392.01
-121.95616540,45.82379533,397.62
-121.95641273,45.82379759,409.88
-121.95677626,45.82380088,400.38
-121.95715518,45.82380435,399.52
-121.95717430,45.82380449,396.37
-121.95722128,45.82380462,395.96
-121.95722738,45.82380169,389.46
-121.95722847,45.82379116,390.85
-121.95723076,45.82367931,375.47
-121.95723413,45.82349985,422.40
-121.95723969,45.82320055,416.35
-121.95724378,45.82298367,404.01
-121.95724935,45.82268502,397.88
-121.95725531,45.82236529,375.75
-121.95726288,45.82195515,379.03
-121.95726687,45.82174379,374.21
-121.95726916,45.82162336,373.36
-121.95727610,45.82125235,416.71
-121.95727905,45.82109158,410.93
-121.95728692,45.82067135,407.20
-121.95729230,45.82038232,397.88
-121.95729743,45.82010884,394.16
-121.95730033,45.81995429,413.29
-121.95730711,45.81959036,411.46
-121.95731441,45.81919978,403.30
-121.95731749,45.81903357,401.85
-121.95732320,45.81872888,395.92
-121.95732566,45.81859771,409.36
-121.95732858,45.81844037,378.50
-121.95733351,45.81817442,375.59
-121.95734160,45.81774373,400.71
-121.95734526,45.81754689,396.18
-121.95735336,45.81711348,416.08
-121.95735487,45.81702963,370.19
-121.95736308,45.81659136,413.06
-121.95736512,45.81648222,375.98
-121.95737260,45.81608075,369.45
-121.95737450,45.81597124,372.79
-121.95738193,45.81557459,379.54
-121.95738521,45.81540338,398.62
-121.95738994,45.81515391,377.26
-121.95739278,45.81500136,388.85
-121.95739625,45.81480985,392.88
-121.95739498,45.81480728,394.84
-121.95739060,45.81480659,394.90
-121.95732796,45.81480538,393.12
-121.95731271,45.81480521,398.69
-121.95709236,45.81480317,365.90
-121.95669759,45.81479956,378.16
-121.95618726,45.81479490,366.78
-121.95604741,45.81479363,366.52
-121.95561624,45.81478969,365.71
-121.95531684,45.81478694,365.02
-121.95501896,45.81478423,365.00
-121.95458194,45.81478020,364.58
-121.95445564,45.81477906,364.29
-121.95397493,45.81477471,363.52
-121.95356288,45.81477089,362.03
-121.95314622,45.81476705,360.38
-121.95258770,45.81476193,358.06
-121.95212823,45.81475778,356.78
-121.95187544,45.81475544,356.26
-121.95154376,45.81475240,355.64
-121.95104868,45.81474783,355.16
-121.95057496,45.81474346,354.61
-121.95002373,45.81473843,353.72
-121.94966773,45.81473516,353.05
-121.94906493,45.81472963,353.49
-121.94875532,45.81472675,353.99
-121.94839269,45.81472340,384.17
-121.94831903,45.81472272,381.74
-121.94769540,45.81471698,388.30
-121.94753932,45.81471554,388.81
-121.94715375,45.81471200,390.89
-121.94656927,45.81470660,361.46
-121.94615577,45.81470280,355.23
-121.94564190,45.81469807,353.95
-121.94532529,45.81469516,354.75
-121.94508831,45.81469297,366.17
-121.94453840,45.81468786,390.41
-121.94452769,45.81468792,391.18
-121.94452746,45.81469178,385.69
-121.94452605,45.81473928,396.27
-121.94452108,45.81500058,384.73
-121.94451660,45.81524015,392.53
-121.94451199,45.81548155,363.48
-121.94450378,45.81591677,364.04
-121.94450329,45.81594282,387.30
-121.94449479,45.81639172,396.33
-121.94448772,45.81676881,371.20
-121.94448463,45.81693017,403.46
-121.94447748,45.81730876,405.08
-121.94447437,45.81747325,406.06
-121.94446923,45.81774532,419.32
-121.94446178,45.81813965,429.45
-121.94445707,45.81839222,429.12
-121.94445118,45.81870155,425.33
-121.94444481,45.81903815,428.73
-121.94444238,45.81916820,391.81
-121.94443595,45.81950825,436.31
-121.94442788,45.81993318,404.87
-121.94442467,45.82010251,423.81
-121.94441720,45.82049753,415.43
-121.94441465,45.82063278,395.43
-121.94440875,45.82094766,378.52
-121.94440361,45.82121664,394.20
-121.94440050,45.82138287,439.74
-121.94439399,45.82172798,414.89
-121.94438993,45.82194071,405.01
-121.94438728,45.82208096,416.97
-121.94438493,45.82220497,422.98
-121.94437910,45.82251568,438.76
-121.94437717,45.82261863,425.11
-121.94437069,45.82296316,424.66
-121.94436682,45.82316347,415.27
-121.94436170,45.82343432,428.89
-121.94435783,45.82363892,423.77
-121.94435712,45.82368618,405.97
-121.94438730,45.82368709,418.71
-121.94440249,45.82368724,415.67
-121.94456109,45.82368872,412.45
-121.94467315,45.82368977,376.86
-121.94516918,45.82369434,369.42
-121.94542676,45.82369672,396.42
-121.94606650,45.82370263,380.98
-121.94614429,45.82370334,390.95
-121.94674784,45.82370891,351.23
-121.94708839,45.82371201,347.02
-121.94762760,45.82371698,346.82
     </coordinates>
    </LineString>
   </MultiGeometry>
  </Placemark>
 </Document>
</kml>
