<kml>
 <Document>
  <Style id="yellow">
   <LineStyle>
   <color>ff00ffff</color>
   <width>1</width>
   </LineStyle>
  </Style>
  <Style id="red">
   <LineStyle>
   <color>ffff0000</color>
   <width>2</width>
   </LineStyle>
  </Style>
  <Style id="green">
   <LineStyle>
   <color>ff00ff00</color>
   <width>1</width>
   </LineStyle>
  </Style>
  <Placemark>
  <styleUrl>#yellow</styleUrl>
   <MultiGeometry>
    <LineString>
     <coordinates>
-121.94341308,45.87355468,864.02
-121.94340497,45.87398184,875.28
-121.94340120,45.87418082,881.72
-121.94339731,45.87438592,927.03
-121.94339364,45.87458004,924.41
-121.94338839,45.87485660,943.41
-121.94338285,45.87515070,950.60
-121.94337790,45.87541057,962.69
-121.94337089,45.87578037,973.03
-121.94336843,45.87590947,990.38
-121.94336237,45.87622954,992.03
-121.94335489,45.87662466,1003.70
-121.94335056,45.87685255,1000.84
-121.94334324,45.87723859,1003.34
-121.94333757,45.87753751,1016.27
-121.94333549,45.87767709,989.74
-121.94333728,45.87767998,1011.69
-121.94333825,45.87768057,988.85
-121.94334368,45.87768114,1008.63
-121.94340299,45.87768176,972.94
-121.94345814,45.87768228,1010.67
-121.94349743,45.87768264,1007.45
-121.94364918,45.87768405,980.41
-121.94372245,45.87768472,1008.08
-121.94400102,45.87768730,998.35
-121.94417421,45.87768890,991.06
-121.94423896,45.87768950,995.73
-121.94434689,45.87769049,983.39
-121.94452374,45.87769213,986.75
-121.94507268,45.87769720,954.92
-121.94558340,45.87770190,926.59
-121.94576335,45.87770357,923.95
-121.94585042,45.87770438,922.82
-121.94632853,45.87770879,963.50
-121.94641534,45.87770959,954.05
-121.94673761,45.87771256,920.80
-121.94712853,45.87771615,945.87
-121.94747253,45.87771933,927.78
-121.94796424,45.87772385,909.61
-121.94814548,45.87772553,904.80
-121.94846450,45.87772846,891.34
-121.94896058,45.87773303,874.57
-121.94904354,45.87773379,864.73
-121.94948955,45.87773789,849.10
-121.94972639,45.87774007,849.35
-121.95026274,45.87774500,823.75
-121.95072555,45.87774925,822.10
-121.95112856,45.87775294,836.07
-121.95160266,45.87775727,816.77
-121.95200793,45.87776102,827.05
-121.95257301,45.87776620,808.88
-121.95301529,45.87777024,832.22
-121.95318908,45.87777178,816.89
-121.95374392,45.87777690,790.59
-121.95405606,45.87777979,795.44
-121.95428603,45.87778189,808.30
-121.95457827,45.87778457,806.07
-121.95503693,45.87778873,801.27
-121.95529621,45.87779109,800.12
-121.95578995,45.87779565,790.94
-121.95596403,45.87779724,780.12
-121.95602706,45.87779780,757.35
-121.95616586,45.87779904,765.17
-121.95621201,45.87779930,776.70
-121.95621748,45.87779617,782.44
-121.95621852,45.87779313,785.01
-121.95621910,45.87777583,792.82
-121.95621978,45.87774694,770.46
-121.95622506,45.87746641,789.19
-121.95623086,45.87715601,754.64
-121.95623559,45.87690425,761.21
-121.95624187,45.87656861,760.97
-121.95624727,45.87628013,746.19
-121.95625371,45.87593654,762.81
-121.95625903,45.87565206,741.40
-121.95626168,45.87551086,754.44
-121.95626660,45.87524705,741.98
-121.95627305,45.87490247,736.27
-121.95627941,45.87456364,730.73
-121.95628179,45.87443675,720.82
-121.95628982,45.87400763,715.40
-121.95629541,45.87370829,727.66
-121.95630206,45.87335408,726.40
-121.95631003,45.87292827,712.54
-121.95631380,45.87272648,702.30
-121.95631418,45.87270647,675.46
-121.95631535,45.87264384,707.11
-121.95632184,45.87229675,690.29
-121.95632319,45.87222331,692.42
-121.95633001,45.87185684,717.68
-121.95633376,45.87165951,681.55
-121.95634106,45.87126895,706.60
-121.95634506,45.87105616,688.31
-121.95634738,45.87093140,678.83
-121.95635458,45.87054734,668.37
-121.95635972,45.87027317,683.99
-121.95636332,45.87008082,683.83
-121.95636728,45.86986856,681.69
-121.95637292,45.86956550,658.23
-121.95637690,45.86935438,659.24
-121.95638095,45.86913748,658.65
-121.95638720,45.86880222,687.36
-121.95638476,45.86880100,681.77
-121.95638463,45.86880098,655.64
-121.95635606,45.86880034,684.59
-121.95626329,45.86879939,658.24
-121.95594317,45.86879648,687.55
-121.95559673,45.86879331,702.80
-121.95543152,45.86879179,702.83
-121.95520812,45.86878975,696.06
-121.95475016,45.86878557,687.50
-121.95443080,45.86878264,684.32
-121.95418063,45.86878035,694.69
-121.95392763,45.86877804,721.39
-121.95375313,45.86877645,711.67
-121.95325505,45.86877187,735.24
-121.95310874,45.86877054,719.72
-121.95253791,45.86876531,726.52
-121.95208393,45.86876114,757.27
-121.95206745,45.86876099,757.03
-121.95206678,45.86876098,759.07
-121.95156606,45.86875640,729.49
-121.95135290,45.86875444,747.44
-121.95127900,45.86875376,749.07
-121.95065450,45.86874803,753.56
-121.95053641,45.86874696,756.84
-121.95016389,45.86874359,741.97
-121.94965889,45.86873889,725.90
-121.94947762,45.86873721,750.24
-121.94914057,45.86873411,748.04
-121.94863545,45.86872946,763.56
-121.94837521,45.86872706,756.94
-121.94814951,45.86872498,760.60
-121.94764272,45.86872032,781.66
-121.94729955,45.86871719,796.74
-121.94676191,45.86871225,806.02
-121.94640454,45.86870891,786.85
-121.94609963,45.86870609,786.13
-121.94564425,45.86870189,814.44
-121.94555344,45.86870106,834.37
-121.94544058,45.86870001,815.47
-121.94510573,45.86869692,807.74
-121.94509494,45.86869682,825.97
-121.94449825,45.86869133,802.88
-121.94409295,45.86868758,822.83
-121.94363625,45.86868336,823.35
-121.94351805,45.86868237,820.04
-121.94350560,45.86868326,818.65
-121.94350510,45.86870178,828.67
-121.94350316,45.86880299,822.90
-121.94350053,45.86894110,829.29
-121.94349337,45.86931684,818.49
-121.94348614,45.86969834,809.28
-121.94347954,45.87004982,811.79
-121.94347488,45.87029261,853.19
-121.94347234,45.87042760,828.99
-121.94346524,45.87080147,848.78
-121.94346209,45.87096750,858.48
-121.94345756,45.87120652,825.10
-121.94345020,45.87159501,839.13
-121.94344728,45.87174950,844.97
-121.94344520,45.87185878,846.93
-121.94344187,45.87203458,865.79
-121.94344045,45.87211095,863.13
-121.94343625,45.87233444,858.07
-121.94343123,45.87259596,849.31
-121.94343005,45.87265842,869.98
-121.94342483,45.87293458,882.13
-121.94342066,45.87315543,870.26
-121.94341542,45.87343084,865.82
-121.94341308,45.87355468,864.02
     </coordinates>
    </LineString>
   </MultiGeometry>
  </Placemark>
 </Document>
</kml>
