<kml>
 <Document>
  <Style id="yellow">
   <LineStyle>
   <color>ff00ffff</color>
   <width>1</width>
   </LineStyle>
  </Style>
  <Style id="red">
   <LineStyle>
   <color>ffff0000</color>
   <width>2</width>
   </LineStyle>
  </Style>
  <Style id="green">
   <LineStyle>
   <color>ff00ff00</color>
   <width>1</width>
   </LineStyle>
  </Style>
  <Placemark>
  <styleUrl>#yellow</styleUrl>
   <MultiGeometry>
    <LineString>
     <coordinates>
-122.00061355,45.84219406,750.23
-122.00119718,45.84219918,714.24
-122.00149040,45.84220173,745.07
-122.00195193,45.84220568,718.13
-122.00243255,45.84220986,733.34
-122.00273773,45.84221261,742.47
-122.00334174,45.84221790,716.85
-122.00384891,45.84222233,718.27
-122.00393004,45.84222302,721.61
-122.00417077,45.84222510,719.45
-122.00436803,45.84222679,712.09
-122.00492146,45.84223164,735.66
-122.00542778,45.84223608,710.64
-122.00591709,45.84224034,704.59
-122.00592416,45.84224040,704.58
-122.00606602,45.84224162,704.65
-122.00665660,45.84224676,697.32
-122.00721046,45.84225158,688.78
-122.00754873,45.84225451,692.79
-122.00778884,45.84225659,699.94
-122.00828808,45.84226092,678.56
-122.00835158,45.84226130,677.56
-122.00839569,45.84226108,676.93
-122.00839989,45.84202713,679.89
-122.00840597,45.84168341,681.91
-122.00841231,45.84132621,706.54
-122.00841917,45.84093779,703.61
-122.00842309,45.84072117,717.13
-122.00842882,45.84039769,725.84
-122.00843409,45.84010036,711.41
-122.00843638,45.83997125,715.92
-122.00844359,45.83956723,709.11
-122.00844725,45.83936111,733.03
-122.00845201,45.83908897,705.03
-122.00845880,45.83871033,725.33
-122.00846366,45.83842558,711.90
-122.00846741,45.83822106,726.77
-122.00846940,45.83811100,726.26
-122.00847220,45.83795669,728.22
-122.00847238,45.83794612,731.69
-122.00847789,45.83763613,728.81
-122.00847889,45.83757991,722.66
-122.00848039,45.83749520,730.63
-122.00848204,45.83740224,730.54
-122.00848761,45.83708761,722.51
-122.00849310,45.83678006,723.86
-122.00849896,45.83644970,714.26
-122.00850068,45.83635322,729.58
-122.00850317,45.83621265,723.60
-122.00850501,45.83610901,723.68
-122.00851061,45.83579035,731.45
-122.00851449,45.83557418,730.33
-122.00851603,45.83548816,715.81
-122.00852116,45.83519971,720.68
-122.00852218,45.83514270,736.16
-122.00852541,45.83496005,724.54
-122.00853096,45.83464726,728.57
-122.00853394,45.83448017,737.23
-122.00853700,45.83430817,715.95
-122.00854048,45.83411113,720.81
-122.00854715,45.83373678,731.40
-122.00854862,45.83365381,713.46
-122.00855240,45.83343968,720.70
-122.00855347,45.83337717,740.86
-122.00855508,45.83328226,706.06
-122.00855475,45.83326774,708.90
-122.00855453,45.83326585,730.97
-122.00854789,45.83326330,730.30
-122.00853335,45.83326278,730.06
-122.00851184,45.83326231,705.56
-122.00845596,45.83326179,705.48
-122.00820659,45.83325964,744.40
-122.00764874,45.83325482,749.84
-122.00703733,45.83324945,751.50
-122.00643856,45.83324425,730.52
-122.00634132,45.83324340,770.07
-122.00574816,45.83323825,727.90
-122.00515540,45.83323313,731.49
-122.00492608,45.83323108,769.24
-122.00447744,45.83322717,740.02
-122.00421097,45.83322486,764.40
-122.00379241,45.83322121,751.71
-122.00346463,45.83321835,774.78
-122.00288435,45.83321328,757.98
-122.00240782,45.83320912,793.06
-122.00224971,45.83320776,782.31
-122.00166804,45.83320268,760.70
-122.00119613,45.83319854,760.72
-122.00095862,45.83319646,770.24
-122.00061167,45.83319343,788.23
-122.00034088,45.83319106,773.91
-122.00022181,45.83319002,766.54
-121.99994503,45.83318762,764.63
-121.99934981,45.83318245,773.16
-121.99893469,45.83317877,767.74
-121.99891396,45.83317859,768.82
-121.99879053,45.83317751,767.92
-121.99821299,45.83317242,765.83
-121.99769637,45.83316792,756.13
-121.99731057,45.83316451,751.39
-121.99684602,45.83316043,753.22
-121.99682092,45.83316021,735.40
-121.99633160,45.83315593,741.34
-121.99579355,45.83315125,727.26
-121.99570867,45.83315057,731.17
-121.99568527,45.83315283,736.17
-121.99568440,45.83315459,736.19
-121.99568266,45.83315851,728.87
-121.99568245,45.83316073,720.36
-121.99568150,45.83317487,733.22
-121.99568084,45.83320140,721.32
-121.99568019,45.83323357,724.00
-121.99567518,45.83351133,750.29
-121.99567289,45.83363955,748.98
-121.99566623,45.83401114,764.88
-121.99566128,45.83428410,788.21
-121.99565939,45.83438974,789.90
-121.99565313,45.83473641,815.43
-121.99564722,45.83506553,842.05
-121.99564580,45.83514537,850.61
-121.99563879,45.83553598,860.04
-121.99563098,45.83596834,870.50
-121.99562571,45.83626058,878.77
-121.99561810,45.83668337,873.83
-121.99561194,45.83702664,873.04
-121.99560750,45.83727257,870.89
-121.99560529,45.83739687,868.14
-121.99560117,45.83762703,869.28
-121.99559675,45.83787079,869.32
-121.99559387,45.83802975,861.36
-121.99558607,45.83846406,841.28
-121.99557802,45.83891070,821.13
-121.99557254,45.83921674,783.81
-121.99556780,45.83947972,767.60
-121.99556584,45.83958756,770.04
-121.99556219,45.83979022,757.84
-121.99556099,45.83985703,755.81
-121.99555654,45.84010510,741.07
-121.99555103,45.84041160,753.99
-121.99554547,45.84071956,717.00
-121.99554038,45.84100305,719.11
-121.99553351,45.84138551,708.14
-121.99553106,45.84152111,699.43
-121.99552792,45.84169565,695.26
-121.99552160,45.84204691,682.72
-121.99552113,45.84207302,691.37
-121.99552072,45.84209824,701.52
-121.99551994,45.84214726,690.45
-121.99552152,45.84214861,693.04
-121.99552420,45.84214915,693.48
-121.99555256,45.84214953,692.67
-121.99564244,45.84215037,691.12
-121.99567447,45.84215066,681.25
-121.99608396,45.84215436,683.87
-121.99631223,45.84215637,680.34
-121.99658997,45.84215881,688.30
-121.99718626,45.84216403,694.35
-121.99745892,45.84216643,700.85
-121.99768747,45.84216844,699.98
-121.99824990,45.84217337,709.91
-121.99835451,45.84217428,709.39
-121.99898766,45.84217980,712.00
-121.99938042,45.84218325,703.77
-121.99975948,45.84218659,706.53
-122.00030788,45.84219140,709.78
-122.00061355,45.84219406,750.23
     </coordinates>
    </LineString>
   </MultiGeometry>
  </Placemark>
 </Document>
</kml>
