<kml>
 <Document>
  <Style id="yellow">
   <LineStyle>
   <color>ff00ffff</color>
   <width>1</width>
   </LineStyle>
  </Style>
  <Style id="red">
   <LineStyle>
   <color>ffff0000</color>
   <width>2</width>
   </LineStyle>
  </Style>
  <Style id="green">
   <LineStyle>
   <color>ff00ff00</color>
   <width>1</width>
   </LineStyle>
  </Style>
  <Placemark>
  <styleUrl>#yellow</styleUrl>
   <MultiGeometry>
    <LineString>
     <coordinates>
-104.70799176,40.83966826,1644.97
-104.70823693,40.83966888,1644.71
-104.70834025,40.83966914,1644.56
-104.70840952,40.83966932,1644.44
-104.70846468,40.83966946,1644.40
-104.70878601,40.83967027,1644.27
-104.70885065,40.83967043,1644.24
-104.70901137,40.83967084,1644.18
-104.70915442,40.83967120,1644.17
-104.70929759,40.83967156,1644.15
-104.70931811,40.83967161,1644.13
-104.70983516,40.83967291,1644.12
-104.70992127,40.83967313,1644.12
-104.70993835,40.83967317,1644.11
-104.71000549,40.83967334,1644.11
-104.71010086,40.83967358,1644.06
-104.71028863,40.83967405,1644.03
-104.71033109,40.83967416,1644.05
-104.71034983,40.83967421,1644.06
-104.71045753,40.83967448,1644.07
-104.71050617,40.83967460,1644.08
-104.71072833,40.83967516,1644.10
-104.71077139,40.83967526,1644.07
-104.71083461,40.83967542,1644.05
-104.71088882,40.83967556,1643.99
-104.71098608,40.83967580,1644.02
-104.71109379,40.83967607,1644.01
-104.71119153,40.83967632,1644.04
-104.71127527,40.83967653,1644.04
-104.71133505,40.83967668,1644.05
-104.71145663,40.83967698,1644.07
-104.71158521,40.83967730,1644.13
-104.71177239,40.83967777,1644.52
-104.71220320,40.83967885,1644.52
-104.71229607,40.83967908,1644.53
-104.71254481,40.83967970,1644.51
-104.71264397,40.83967994,1644.53
-104.71274147,40.83968019,1644.51
-104.71282652,40.83968040,1644.52
-104.71284965,40.83968046,1644.52
-104.71290232,40.83968059,1644.55
-104.71335993,40.83968172,1644.63
-104.71341011,40.83968185,1644.62
-104.71362219,40.83968238,1646.20
-104.71370451,40.83968258,1644.47
-104.71388362,40.83968302,1644.54
-104.71395669,40.83968321,1644.75
-104.71430506,40.83968398,1644.37
-104.71461501,40.83968484,1644.08
-104.71463695,40.83968489,1643.99
-104.71491653,40.83968558,1643.34
-104.71498307,40.83968575,1643.04
-104.71514142,40.83968614,1642.69
-104.71529147,40.83968642,1643.02
-104.71530665,40.83968636,1642.98
-104.71531140,40.83968611,1642.97
-104.71531591,40.83968585,1642.97
-104.71531734,40.83968369,1642.96
-104.71531854,40.83967955,1642.92
-104.71531939,40.83967532,1642.96
-104.71531965,40.83964271,1642.96
-104.71531989,40.83958739,1643.23
-104.71532027,40.83949812,1642.80
-104.71532095,40.83933885,1642.65
-104.71532104,40.83931840,1642.61
-104.71532199,40.83909563,1642.64
-104.71532227,40.83903014,1642.43
-104.71532229,40.83902491,1642.42
-104.71532240,40.83900023,1642.35
-104.71532251,40.83897410,1642.40
-104.71532269,40.83893123,1642.41
-104.71532277,40.83891420,1642.47
-104.71532279,40.83890807,1642.45
-104.71532297,40.83886636,1642.43
-104.71532316,40.83882339,1642.40
-104.71532381,40.83867097,1642.42
-104.71532423,40.83857125,1642.43
-104.71532502,40.83838856,1642.43
-104.71532528,40.83832577,1642.33
-104.71532645,40.83805363,1641.68
-104.71532670,40.83799426,1641.46
-104.71532724,40.83786824,1641.24
-104.71532792,40.83770933,1640.80
-104.71532794,40.83770437,1640.76
-104.71532916,40.83742043,1640.19
-104.71532933,40.83738124,1640.20
-104.71532945,40.83735242,1640.27
-104.71532966,40.83730224,1640.33
-104.71532991,40.83724531,1640.34
-104.71533077,40.83704343,1640.52
-104.71533095,40.83700244,1640.40
-104.71533106,40.83697632,1640.31
-104.71533262,40.83661175,1639.44
-104.71533349,40.83640834,1639.39
-104.71533412,40.83626069,1639.25
-104.71533498,40.83606034,1639.22
-104.71533506,40.83603953,1639.20
-104.71533569,40.83589333,1639.28
-104.71533613,40.83579045,1639.48
-104.71533717,40.83554822,1639.14
-104.71533827,40.83528914,1638.56
-104.71533844,40.83524932,1638.49
-104.71533848,40.83524184,1638.46
-104.71533965,40.83496727,1638.28
-104.71534004,40.83487655,1638.24
-104.71534005,40.83487331,1638.26
-104.71534077,40.83470476,1638.19
-104.71534139,40.83456000,1638.17
-104.71534143,40.83455108,1638.14
-104.71534185,40.83445262,1638.10
-104.71534208,40.83439830,1638.26
-104.71534290,40.83420714,1637.92
-104.71534324,40.83412913,1637.77
-104.71534334,40.83410561,1637.74
-104.71534405,40.83393797,1637.42
-104.71534436,40.83386518,1637.30
-104.71534460,40.83381104,1637.24
-104.71534466,40.83379609,1637.25
-104.71534557,40.83358412,1637.08
-104.71534568,40.83355772,1637.05
-104.71534616,40.83344656,1636.88
-104.71534688,40.83327621,1636.61
-104.71534806,40.83300028,1636.35
-104.71534816,40.83297893,1636.32
-104.71534829,40.83294677,1636.30
-104.71534885,40.83281768,1636.23
-104.71534910,40.83275895,1636.22
-104.71534940,40.83268805,1636.17
-104.71534978,40.83259959,1636.10
-104.71534978,40.83259914,1636.11
-104.71535013,40.83251716,1636.11
-104.71535061,40.83240546,1636.12
-104.71535063,40.83240069,1636.14
-104.71535078,40.83236501,1636.14
-104.71535080,40.83236069,1636.13
-104.71535130,40.83224448,1636.12
-104.71535242,40.83198207,1636.55
-104.71535336,40.83176118,1636.92
-104.71535340,40.83175370,1636.97
-104.71535352,40.83172416,1636.95
-104.71535429,40.83154453,1636.80
-104.71535459,40.83147525,1636.55
-104.71535472,40.83144354,1636.42
-104.71535483,40.83141850,1636.36
-104.71535521,40.83133004,1636.25
-104.71535528,40.83131409,1636.25
-104.71535570,40.83121428,1636.20
-104.71535589,40.83117149,1636.23
-104.71535756,40.83078098,1636.99
-104.71535760,40.83077089,1636.99
-104.71535774,40.83073864,1636.93
-104.71535758,40.83069242,1636.90
-104.71535586,40.83067828,1636.91
-104.71522860,40.83067796,1637.04
-104.71511605,40.83067768,1636.76
-104.71507383,40.83067758,1636.90
-104.71497658,40.83067734,1637.61
-104.71485940,40.83067705,1637.89
-104.71456112,40.83067631,1637.88
-104.71449364,40.83067615,1637.92
-104.71390207,40.83067468,1636.77
-104.71379794,40.83067442,1637.07
-104.71375370,40.83067431,1637.20
-104.71365325,40.83067406,1637.42
-104.71361850,40.83067398,1637.59
-104.71348744,40.83067365,1637.45
-104.71343372,40.83067352,1637.55
-104.71336102,40.83067334,1637.43
-104.71302645,40.83067251,1636.69
-104.71292457,40.83067225,1636.51
-104.71279767,40.83067194,1636.15
-104.71257186,40.83067137,1635.58
-104.71237641,40.83067089,1635.10
-104.71211300,40.83067023,1634.79
-104.71196546,40.83066986,1634.55
-104.71192205,40.83066975,1634.55
-104.71168284,40.83066916,1634.29
-104.71152569,40.83066876,1634.15
-104.71144884,40.83066857,1634.03
-104.71140543,40.83066846,1633.97
-104.71136629,40.83066836,1633.94
-104.71116740,40.83066787,1633.74
-104.71108391,40.83066766,1633.69
-104.71104181,40.83066755,1633.66
-104.71098357,40.83066741,1633.64
-104.71091799,40.83066724,1633.60
-104.71091562,40.83066724,1633.61
-104.71081196,40.83066698,1633.52
-104.71074839,40.83066682,1633.48
-104.71069194,40.83066667,1633.42
-104.71058271,40.83066640,1633.61
-104.71034017,40.83066579,1633.20
-104.71011305,40.83066522,1633.08
-104.70991855,40.83066473,1632.82
-104.70986198,40.83066459,1632.79
-104.70968112,40.83066414,1632.67
-104.70957414,40.83066387,1632.69
-104.70941806,40.83066347,1632.78
-104.70939102,40.83066341,1632.83
-104.70925096,40.83066305,1632.95
-104.70921075,40.83066295,1633.10
-104.70914730,40.83066279,1633.32
-104.70872426,40.83066172,1635.03
-104.70853711,40.83066125,1635.36
-104.70829860,40.83066065,1635.36
-104.70782492,40.83065945,1635.31
-104.70776052,40.83065929,1635.33
-104.70764998,40.83065901,1635.37
-104.70753684,40.83065872,1635.44
-104.70751537,40.83065867,1635.44
-104.70746497,40.83065854,1635.46
-104.70739476,40.83065836,1635.53
-104.70727450,40.83065805,1635.59
-104.70716396,40.83065777,1635.80
-104.70698405,40.83065732,1635.86
-104.70686640,40.83065702,1635.62
-104.70678777,40.83065682,1635.45
-104.70674649,40.83065671,1635.40
-104.70667996,40.83065654,1635.36
-104.70655306,40.83065622,1635.26
-104.70644478,40.83065595,1635.28
-104.70644430,40.83065594,1635.25
-104.70638228,40.83065579,1635.24
-104.70630210,40.83065558,1635.20
-104.70626427,40.83065549,1635.16
-104.70613381,40.83065515,1635.12
-104.70595105,40.83065469,1635.09
-104.70593278,40.83065464,1635.07
-104.70581584,40.83065434,1635.07
-104.70566380,40.83065396,1634.96
-104.70551472,40.83065358,1634.86
-104.70545091,40.83065341,1634.85
-104.70526127,40.83065293,1634.97
-104.70505135,40.83065239,1635.18
-104.70500652,40.83065228,1635.21
-104.70494236,40.83065211,1635.30
-104.70486824,40.83065192,1635.32
-104.70480419,40.83065176,1635.42
-104.70476885,40.83065167,1635.42
-104.70474394,40.83065161,1635.42
-104.70467848,40.83065144,1635.40
-104.70429813,40.83065046,1635.39
-104.70410090,40.83064996,1635.45
-104.70405370,40.83064984,1635.40
-104.70398360,40.83064966,1635.35
-104.70393806,40.83064954,1635.30
-104.70376716,40.83064910,1635.27
-104.70371533,40.83064897,1635.29
-104.70362899,40.83064875,1635.26
-104.70350114,40.83064851,1635.25
-104.70349934,40.83065274,1635.24
-104.70349808,40.83067057,1635.30
-104.70349804,40.83067940,1635.31
-104.70349787,40.83071823,1635.37
-104.70349784,40.83072417,1635.38
-104.70349749,40.83080372,1635.34
-104.70349743,40.83081624,1635.33
-104.70349742,40.83081858,1635.33
-104.70349737,40.83082876,1635.34
-104.70349735,40.83083452,1635.34
-104.70349707,40.83089812,1635.34
-104.70349618,40.83109667,1635.57
-104.70349588,40.83116459,1635.50
-104.70349578,40.83118585,1635.48
-104.70349474,40.83142115,1635.42
-104.70349402,40.83158267,1635.50
-104.70349385,40.83161897,1635.53
-104.70349216,40.83199913,1635.57
-104.70349184,40.83207092,1635.53
-104.70349182,40.83207642,1635.54
-104.70349170,40.83210182,1635.50
-104.70349151,40.83214596,1635.54
-104.70349123,40.83220911,1635.51
-104.70349094,40.83227271,1635.57
-104.70349072,40.83232280,1635.52
-104.70349030,40.83241703,1635.74
-104.70348958,40.83257900,1635.89
-104.70348890,40.83273160,1636.03
-104.70348844,40.83283448,1636.01
-104.70348814,40.83290276,1636.10
-104.70348787,40.83296293,1636.14
-104.70348779,40.83298005,1636.17
-104.70348724,40.83310464,1636.17
-104.70348655,40.83325940,1636.21
-104.70348647,40.83327544,1636.21
-104.70348642,40.83328688,1636.22
-104.70348565,40.83346056,1636.03
-104.70348523,40.83355397,1635.99
-104.70348520,40.83356127,1635.98
-104.70348485,40.83364063,1636.07
-104.70348481,40.83364964,1636.09
-104.70348390,40.83385377,1636.36
-104.70348325,40.83399971,1636.33
-104.70348255,40.83415645,1636.37
-104.70348232,40.83420888,1636.41
-104.70348209,40.83425987,1636.52
-104.70348200,40.83428041,1636.52
-104.70348146,40.83440067,1636.72
-104.70348144,40.83440482,1636.75
-104.70348099,40.83450562,1636.96
-104.70348078,40.83455372,1636.98
-104.70348014,40.83469651,1637.42
-104.70348004,40.83472047,1637.44
-104.70347913,40.83492388,1637.71
-104.70347880,40.83499757,1637.87
-104.70347816,40.83514053,1638.13
-104.70347711,40.83537781,1638.46
-104.70347614,40.83559500,1638.76
-104.70347557,40.83572400,1638.97
-104.70347541,40.83575923,1639.02
-104.70347485,40.83588489,1639.15
-104.70347465,40.83592903,1639.29
-104.70347442,40.83598146,1639.36
-104.70347436,40.83599561,1639.35
-104.70347375,40.83613136,1639.46
-104.70347338,40.83621352,1639.62
-104.70347292,40.83631864,1639.79
-104.70347271,40.83636396,1639.87
-104.70347258,40.83639495,1639.96
-104.70347233,40.83645053,1640.06
-104.70347224,40.83647008,1640.09
-104.70347204,40.83651611,1640.07
-104.70347172,40.83658782,1640.16
-104.70347129,40.83668312,1640.46
-104.70347057,40.83684527,1640.93
-104.70347046,40.83687005,1641.04
-104.70346993,40.83698941,1641.32
-104.70346942,40.83710363,1641.38
-104.70346888,40.83722435,1641.40
-104.70346862,40.83728335,1641.52
-104.70346861,40.83728506,1641.52
-104.70346737,40.83756369,1641.47
-104.70346715,40.83761243,1641.49
-104.70346659,40.83773890,1641.72
-104.70346650,40.83775908,1641.73
-104.70346589,40.83789466,1641.75
-104.70346453,40.83820067,1642.03
-104.70346426,40.83826031,1642.13
-104.70346384,40.83835526,1642.28
-104.70346368,40.83839246,1642.31
-104.70346299,40.83854579,1642.29
-104.70346254,40.83864794,1642.31
-104.70346089,40.83901728,1642.63
-104.70345976,40.83927177,1642.68
-104.70345956,40.83931564,1642.68
-104.70345951,40.83932780,1642.70
-104.70345922,40.83939113,1642.71
-104.70345903,40.83943401,1642.70
-104.70345822,40.83961643,1642.79
-104.70345808,40.83964778,1642.78
-104.70345830,40.83965147,1642.76
-104.70345982,40.83965580,1642.76
-104.70350893,40.83965683,1642.79
-104.70360180,40.83965707,1642.81
-104.70364877,40.83965719,1642.86
-104.70394472,40.83965795,1643.07
-104.70401233,40.83965812,1643.11
-104.70431385,40.83965889,1643.28
-104.70436545,40.83965903,1643.34
-104.70443116,40.83965919,1643.36
-104.70463720,40.83965972,1643.50
-104.70466282,40.83965979,1643.51
-104.70480717,40.83966016,1643.63
-104.70495188,40.83966053,1643.72
-104.70517939,40.83966111,1643.98
-104.70529089,40.83966139,1644.08
-104.70532813,40.83966149,1644.11
-104.70541128,40.83966170,1644.19
-104.70563653,40.83966228,1644.41
-104.70569690,40.83966243,1644.50
-104.70578088,40.83966264,1644.59
-104.70584838,40.83966282,1644.70
-104.70604208,40.83966331,1644.91
-104.70613543,40.83966355,1644.97
-104.70640611,40.83966424,1645.20
-104.70658866,40.83966470,1645.25
-104.70686752,40.83966541,1645.47
-104.70695375,40.83966563,1645.49
-104.70749642,40.83966701,1645.34
-104.70753556,40.83966711,1645.32
-104.70780185,40.83966778,1645.14
-104.70785938,40.83966793,1645.10
-104.70795677,40.83966817,1645.03
-104.70799176,40.83966826,1644.97
     </coordinates>
    </LineString>
   </MultiGeometry>
  </Placemark>
 </Document>
</kml>
