<kml>
 <Document>
  <Style id="yellow">
   <LineStyle>
   <color>ff00ffff</color>
   <width>1</width>
   </LineStyle>
  </Style>
  <Style id="red">
   <LineStyle>
   <color>ffff0000</color>
   <width>2</width>
   </LineStyle>
  </Style>
  <Style id="green">
   <LineStyle>
   <color>ff00ff00</color>
   <width>1</width>
   </LineStyle>
  </Style>
  <Placemark>
  <styleUrl>#yellow</styleUrl>
   <MultiGeometry>
    <LineString>
     <coordinates>
-104.70890310,40.83066208,1634.25
-104.70916343,40.83066274,1633.40
-104.70919415,40.83066282,1633.13
-104.70932828,40.83066316,1632.89
-104.70943811,40.83066343,1632.78
-104.70955694,40.83066373,1632.70
-104.70963427,40.83066393,1632.70
-104.70974267,40.83066420,1632.72
-104.70998449,40.83066481,1632.87
-104.71004142,40.83066495,1632.97
-104.71008293,40.83066506,1632.99
-104.71013428,40.83066518,1633.08
-104.71014994,40.83066522,1633.06
-104.71022051,40.83066540,1633.23
-104.71039698,40.83066584,1633.29
-104.71052673,40.83066617,1633.40
-104.71057453,40.83066629,1633.42
-104.71070202,40.83066661,1633.42
-104.71074555,40.83066672,1633.49
-104.71086960,40.83066703,1633.54
-104.71115803,40.83066775,1633.72
-104.71120144,40.83066786,1633.77
-104.71160492,40.83066887,1634.18
-104.71180404,40.83066937,1634.36
-104.71196166,40.83066976,1634.59
-104.71203496,40.83066994,1634.66
-104.71222768,40.83067043,1634.92
-104.71224310,40.83067046,1634.96
-104.71229683,40.83067060,1635.05
-104.71253023,40.83067118,1635.46
-104.71265737,40.83067150,1635.79
-104.71281926,40.83067190,1636.19
-104.71298601,40.83067231,1636.64
-104.71307946,40.83067255,1636.87
-104.71322807,40.83067292,1637.09
-104.71339802,40.83067334,1637.44
-104.71358446,40.83067380,1637.55
-104.71391061,40.83067461,1636.76
-104.71400620,40.83067485,1636.15
-104.71413156,40.83067516,1635.79
-104.71415907,40.83067523,1635.77
-104.71430317,40.83067558,1636.69
-104.71443849,40.83067592,1637.80
-104.71445118,40.83067595,1637.83
-104.71469324,40.83067655,1637.88
-104.71483936,40.83067691,1637.83
-104.71489830,40.83067706,1637.72
-104.71523323,40.83067788,1636.98
-104.71534270,40.83067797,1636.87
-104.71535635,40.83067467,1636.88
-104.71535671,40.83067359,1636.90
-104.71535780,40.83066783,1636.89
-104.71535890,40.83046703,1636.77
-104.71536047,40.83009913,1636.21
-104.71536061,40.83006778,1636.24
-104.71536084,40.83001382,1636.12
-104.71536135,40.82989455,1635.94
-104.71536190,40.82976438,1635.84
-104.71536230,40.82967204,1635.91
-104.71536366,40.82935288,1635.24
-104.71536386,40.82930585,1635.22
-104.71536396,40.82928432,1635.18
-104.71536410,40.82925135,1635.08
-104.71536421,40.82922577,1634.99
-104.71536425,40.82921505,1634.96
-104.71536486,40.82907208,1634.93
-104.71536514,40.82900740,1634.88
-104.71536536,40.82895552,1634.96
-104.71536583,40.82884570,1635.01
-104.71536586,40.82883832,1635.00
-104.71536606,40.82879318,1635.01
-104.71536643,40.82870553,1635.11
-104.71536686,40.82860599,1635.35
-104.71536692,40.82858996,1635.50
-104.71536706,40.82855770,1635.33
-104.71536756,40.82844087,1635.23
-104.71536777,40.82839123,1635.24
-104.71536811,40.82831178,1635.24
-104.71536831,40.82826664,1635.46
-104.71536831,40.82826502,1635.36
-104.71536863,40.82819007,1635.23
-104.71536873,40.82816854,1635.24
-104.71536961,40.82796090,1635.08
-104.71536972,40.82793531,1635.11
-104.71536986,40.82790451,1635.05
-104.71537086,40.82767047,1634.98
-104.71537097,40.82764326,1635.00
-104.71537120,40.82759038,1634.99
-104.71537161,40.82749516,1635.11
-104.71537216,40.82736580,1635.18
-104.71537224,40.82734599,1635.16
-104.71537306,40.82715582,1635.45
-104.71537319,40.82712402,1635.51
-104.71537327,40.82710645,1635.70
-104.71537331,40.82709753,1635.70
-104.71537440,40.82684215,1635.83
-104.71537517,40.82666207,1634.80
-104.71537568,40.82654235,1634.02
-104.71537603,40.82646019,1633.45
-104.71537623,40.82641407,1633.07
-104.71537704,40.82622426,1631.89
-104.71537710,40.82621057,1631.85
-104.71537734,40.82615462,1631.63
-104.71537905,40.82575339,1630.84
-104.71537925,40.82570781,1630.88
-104.71537931,40.82569339,1630.89
-104.71538121,40.82524802,1630.68
-104.71538207,40.82504749,1630.23
-104.71538214,40.82503200,1630.11
-104.71538263,40.82491552,1629.25
-104.71538278,40.82488120,1628.89
-104.71538295,40.82484237,1628.58
-104.71538314,40.82479796,1628.20
-104.71538354,40.82470391,1627.89
-104.71538466,40.82444285,1627.92
-104.71538479,40.82441132,1627.62
-104.71538611,40.82410188,1627.18
-104.71538653,40.82400522,1627.11
-104.71538671,40.82396324,1627.07
-104.71538741,40.82379812,1627.01
-104.71538787,40.82369002,1626.92
-104.71538820,40.82361480,1626.81
-104.71538876,40.82348336,1626.72
-104.71538910,40.82340337,1626.58
-104.71538959,40.82328770,1626.44
-104.71538972,40.82325923,1626.39
-104.71539025,40.82313510,1626.20
-104.71539037,40.82310492,1626.17
-104.71539087,40.82298907,1626.04
-104.71539135,40.82287737,1625.96
-104.71539138,40.82286908,1625.96
-104.71539184,40.82276215,1625.80
-104.71539217,40.82268432,1625.63
-104.71539255,40.82259694,1625.56
-104.71539303,40.82248280,1625.43
-104.71539312,40.82246307,1625.41
-104.71539346,40.82238254,1625.28
-104.71539406,40.82224210,1625.03
-104.71539479,40.82207274,1624.89
-104.71539482,40.82206490,1624.93
-104.71539484,40.82205940,1624.88
-104.71539630,40.82171961,1624.64
-104.71539626,40.82170078,1624.53
-104.71539540,40.82168069,1624.53
-104.71539518,40.82167627,1624.56
-104.71539342,40.82167158,1624.55
-104.71539247,40.82167140,1624.55
-104.71538761,40.82167103,1624.53
-104.71537208,40.82166991,1624.53
-104.71522041,40.82166945,1624.70
-104.71511084,40.82166918,1624.70
-104.71480003,40.82166841,1624.46
-104.71474240,40.82166827,1624.48
-104.71465477,40.82166805,1624.29
-104.71453654,40.82166776,1624.14
-104.71449029,40.82166764,1624.08
-104.71422692,40.82166699,1623.87
-104.71416633,40.82166684,1623.81
-104.71407917,40.82166662,1623.83
-104.71387686,40.82166612,1623.77
-104.71383441,40.82166602,1623.79
-104.71361669,40.82166548,1623.44
-104.71329913,40.82166469,1623.54
-104.71328739,40.82166466,1623.56
-104.71315765,40.82166434,1623.77
-104.71292831,40.82166377,1623.95
-104.71269494,40.82166319,1623.99
-104.71266530,40.82166311,1623.98
-104.71255774,40.82166284,1624.28
-104.71245161,40.82166258,1624.71
-104.71240370,40.82166246,1624.90
-104.71221243,40.82166198,1625.91
-104.71219749,40.82166195,1625.95
-104.71210037,40.82166170,1626.34
-104.71207653,40.82166164,1626.38
-104.71200016,40.82166145,1626.62
-104.71198593,40.82166142,1626.65
-104.71193731,40.82166130,1626.71
-104.71179905,40.82166095,1626.85
-104.71141128,40.82166007,1627.08
-104.71113699,40.82165930,1627.20
-104.71100691,40.82165897,1627.44
-104.71097501,40.82165889,1627.54
-104.71094003,40.82165880,1627.59
-104.71088311,40.82165866,1627.84
-104.71081267,40.82165848,1627.97
-104.71075765,40.82165834,1628.09
-104.71067582,40.82165814,1628.18
-104.71049083,40.82165768,1628.04
-104.71043273,40.82165753,1628.06
-104.71028153,40.82165715,1628.31
-104.71015916,40.82165684,1628.16
-104.70999729,40.82165644,1627.78
-104.70967735,40.82165572,1627.17
-104.70938552,40.82165490,1626.64
-104.70925733,40.82165457,1626.39
-104.70906440,40.82165409,1626.33
-104.70899170,40.82165390,1626.34
-104.70876367,40.82165333,1626.39
-104.70819210,40.82165188,1626.89
-104.70812972,40.82165173,1626.94
-104.70803414,40.82165148,1626.99
-104.70794734,40.82165127,1627.12
-104.70789659,40.82165114,1627.12
-104.70782366,40.82165095,1627.17
-104.70776769,40.82165081,1627.22
-104.70749127,40.82165011,1627.13
-104.70722066,40.82164942,1626.76
-104.70668882,40.82164807,1626.34
-104.70660747,40.82164787,1626.31
-104.70656478,40.82164776,1626.31
-104.70644133,40.82164744,1626.34
-104.70629856,40.82164708,1626.34
-104.70620405,40.82164684,1626.37
-104.70615472,40.82164671,1626.40
-104.70610479,40.82164659,1626.48
-104.70595574,40.82164621,1626.79
-104.70583715,40.82164590,1627.01
-104.70581498,40.82164585,1627.00
-104.70562169,40.82164535,1627.18
-104.70550073,40.82164505,1626.92
-104.70532487,40.82164460,1626.43
-104.70529677,40.82164453,1626.34
-104.70512779,40.82164409,1625.88
-104.70505225,40.82164390,1625.77
-104.70497979,40.82164372,1625.59
-104.70463756,40.82164293,1625.02
-104.70434277,40.82164208,1624.54
-104.70433031,40.82164205,1624.52
-104.70404251,40.82164131,1624.36
-104.70383701,40.82164079,1624.56
-104.70374878,40.82164056,1624.66
-104.70355727,40.82164016,1625.07
-104.70354292,40.82164021,1625.15
-104.70354221,40.82164075,1625.17
-104.70353910,40.82164525,1625.18
-104.70353896,40.82165164,1625.26
-104.70353822,40.82168443,1625.55
-104.70353762,40.82179154,1626.18
-104.70353716,40.82189505,1626.50
-104.70353695,40.82194378,1626.61
-104.70353658,40.82202639,1626.63
-104.70353596,40.82216413,1626.72
-104.70353514,40.82235015,1627.03
-104.70353449,40.82249420,1627.58
-104.70353408,40.82258824,1628.07
-104.70353314,40.82279895,1628.91
-104.70353190,40.82307695,1629.33
-104.70353151,40.82316406,1629.48
-104.70353148,40.82316992,1629.47
-104.70353040,40.82341296,1629.83
-104.70353019,40.82346188,1629.88
-104.70353011,40.82347863,1629.87
-104.70352983,40.82354169,1630.01
-104.70352911,40.82370420,1630.15
-104.70352875,40.82378501,1630.12
-104.70352866,40.82380492,1630.09
-104.70352854,40.82383239,1630.10
-104.70352837,40.82386897,1630.06
-104.70352804,40.82394419,1630.10
-104.70352801,40.82394977,1630.11
-104.70352777,40.82400328,1630.11
-104.70352740,40.82408697,1630.19
-104.70352706,40.82416363,1630.27
-104.70352680,40.82422210,1630.32
-104.70352630,40.82433317,1630.47
-104.70352626,40.82434335,1630.46
-104.70352579,40.82444983,1630.62
-104.70352560,40.82449199,1630.61
-104.70352492,40.82464450,1630.58
-104.70352444,40.82475206,1630.57
-104.70352357,40.82494673,1630.83
-104.70352351,40.82496169,1630.81
-104.70352230,40.82523176,1631.04
-104.70352224,40.82524653,1630.95
-104.70352195,40.82531148,1630.73
-104.70352173,40.82536166,1630.64
-104.70352150,40.82541193,1630.49
-104.70352138,40.82543940,1630.51
-104.70352134,40.82544913,1630.48
-104.70352127,40.82546498,1630.50
-104.70352103,40.82551858,1630.57
-104.70352000,40.82574920,1630.65
-104.70351995,40.82575965,1630.64
-104.70351991,40.82576902,1630.66
-104.70351968,40.82582190,1630.72
-104.70351834,40.82612179,1631.11
-104.70351823,40.82614728,1631.12
-104.70351816,40.82616223,1631.12
-104.70351774,40.82625547,1631.27
-104.70351706,40.82640852,1631.75
-104.70351664,40.82650284,1632.07
-104.70351547,40.82676526,1632.02
-104.70351546,40.82676805,1632.01
-104.70351435,40.82701704,1632.14
-104.70351347,40.82721468,1632.27
-104.70351335,40.82724153,1632.26
-104.70351305,40.82730972,1632.25
-104.70351287,40.82734990,1632.28
-104.70351273,40.82738125,1632.29
-104.70351267,40.82739404,1632.27
-104.70351237,40.82746115,1632.35
-104.70351142,40.82767483,1632.57
-104.70351018,40.82795346,1632.89
-104.70351013,40.82796418,1632.90
-104.70351007,40.82797896,1632.93
-104.70350961,40.82808183,1633.21
-104.70350942,40.82812363,1633.21
-104.70350866,40.82829443,1633.50
-104.70350854,40.82832236,1633.54
-104.70350809,40.82842325,1633.79
-104.70350809,40.82842361,1633.78
-104.70350801,40.82844127,1633.70
-104.70350790,40.82846532,1633.70
-104.70350780,40.82848928,1633.69
-104.70350776,40.82849622,1633.68
-104.70350685,40.82870053,1634.01
-104.70350610,40.82886898,1634.30
-104.70350586,40.82892421,1634.30
-104.70350563,40.82897510,1634.39
-104.70350543,40.82902024,1634.41
-104.70350504,40.82910852,1634.53
-104.70350449,40.82923175,1634.57
-104.70350402,40.82933688,1634.64
-104.70350395,40.82935282,1634.62
-104.70350330,40.82949741,1634.71
-104.70350286,40.82959749,1634.65
-104.70350240,40.82970064,1634.74
-104.70350238,40.82970478,1634.77
-104.70350079,40.83006124,1634.92
-104.70350067,40.83008944,1634.91
-104.70350013,40.83021123,1634.95
-104.70349974,40.83029789,1635.04
-104.70349971,40.83030339,1635.08
-104.70349970,40.83030744,1635.05
-104.70349950,40.83035231,1635.07
-104.70349922,40.83041482,1635.00
-104.70349893,40.83048058,1635.04
-104.70349884,40.83049878,1635.09
-104.70349853,40.83056869,1635.14
-104.70349852,40.83057202,1635.12
-104.70349851,40.83062697,1635.21
-104.70349925,40.83064751,1635.24
-104.70350660,40.83064834,1635.26
-104.70350850,40.83064835,1635.25
-104.70357384,40.83064852,1635.25
-104.70365200,40.83064872,1635.25
-104.70384389,40.83064921,1635.36
-104.70417680,40.83065006,1635.50
-104.70423895,40.83065022,1635.53
-104.70430062,40.83065038,1635.41
-104.70435316,40.83065051,1635.36
-104.70442218,40.83065069,1635.40
-104.70442645,40.83065070,1635.43
-104.70447235,40.83065082,1635.46
-104.70450271,40.83065090,1635.49
-104.70453853,40.83065099,1635.44
-104.70489006,40.83065189,1635.31
-104.70493204,40.83065200,1635.30
-104.70511220,40.83065246,1635.13
-104.70516924,40.83065260,1635.05
-104.70518786,40.83065265,1635.05
-104.70534169,40.83065304,1634.93
-104.70550547,40.83065346,1634.87
-104.70556821,40.83065362,1634.87
-104.70577706,40.83065416,1634.94
-104.70587835,40.83065441,1635.06
-104.70601426,40.83065476,1635.09
-104.70609230,40.83065496,1635.12
-104.70619133,40.83065521,1635.16
-104.70624826,40.83065536,1635.15
-104.70629771,40.83065548,1635.22
-104.70650076,40.83065600,1635.26
-104.70650194,40.83065600,1635.24
-104.70660572,40.83065627,1635.32
-104.70665078,40.83065638,1635.29
-104.70703860,40.83065737,1635.54
-104.70722919,40.83065785,1635.58
-104.70757954,40.83065874,1635.41
-104.70771011,40.83065907,1635.39
-104.70773846,40.83065914,1635.35
-104.70796036,40.83065970,1635.30
-104.70800139,40.83065981,1635.34
-104.70800258,40.83065981,1635.31
-104.70806603,40.83065997,1635.35
-104.70813114,40.83066013,1635.39
-104.70818712,40.83066028,1635.34
-104.70836905,40.83066074,1635.38
-104.70843985,40.83066091,1635.34
-104.70859854,40.83066132,1635.45
-104.70866448,40.83066148,1635.24
-104.70866508,40.83066148,1635.24
-104.70872141,40.83066163,1635.08
-104.70877786,40.83066177,1635.02
-104.70884048,40.83066193,1634.56
-104.70890310,40.83066208,1634.25
     </coordinates>
    </LineString>
   </MultiGeometry>
  </Placemark>
 </Document>
</kml>
