<kml>
 <Document>
  <Style id="yellow">
   <LineStyle>
   <color>ff00ffff</color>
   <width>1</width>
   </LineStyle>
  </Style>
  <Style id="red">
   <LineStyle>
   <color>ffff0000</color>
   <width>2</width>
   </LineStyle>
  </Style>
  <Style id="green">
   <LineStyle>
   <color>ff00ff00</color>
   <width>1</width>
   </LineStyle>
  </Style>
  <Placemark>
  <styleUrl>#yellow</styleUrl>
   <MultiGeometry>
    <LineString>
     <coordinates>
-104.76294312,40.79002743,1622.59
-104.76294185,40.79038471,1622.91
-104.76294173,40.79041930,1622.92
-104.76294053,40.79075469,1622.71
-104.76294045,40.79077703,1622.71
-104.76294035,40.79080576,1622.73
-104.76294029,40.79082387,1622.71
-104.76293997,40.79091269,1622.74
-104.76293980,40.79096044,1622.74
-104.76293954,40.79103431,1622.84
-104.76293950,40.79104629,1622.87
-104.76293949,40.79104926,1622.87
-104.76293947,40.79105305,1622.87
-104.76293942,40.79106782,1622.89
-104.76293940,40.79107296,1622.90
-104.76293924,40.79111872,1622.91
-104.76293897,40.79119484,1622.92
-104.76293804,40.79145546,1622.99
-104.76293772,40.79154599,1623.01
-104.76293763,40.79157158,1623.02
-104.76293655,40.79187435,1623.27
-104.76293644,40.79190687,1623.28
-104.76293575,40.79209911,1623.43
-104.76293553,40.79216127,1623.48
-104.76293544,40.79218613,1623.49
-104.76293519,40.79225775,1623.52
-104.76293481,40.79236369,1623.59
-104.76293461,40.79242072,1623.66
-104.76293412,40.79255746,1623.82
-104.76293381,40.79264548,1623.89
-104.76293317,40.79282520,1624.08
-104.76293314,40.79283357,1624.09
-104.76293264,40.79297438,1624.06
-104.76293262,40.79297852,1624.03
-104.76293148,40.79330129,1624.16
-104.76293147,40.79330265,1624.16
-104.76293127,40.79336021,1624.21
-104.76293106,40.79341877,1624.19
-104.76293101,40.79343174,1624.18
-104.76293037,40.79361227,1624.23
-104.76293035,40.79361713,1624.22
-104.76292988,40.79375082,1624.22
-104.76292966,40.79381334,1624.17
-104.76292876,40.79406539,1624.25
-104.76292844,40.79415503,1624.23
-104.76292823,40.79421349,1624.25
-104.76292806,40.79426313,1624.27
-104.76292767,40.79437132,1624.31
-104.76292753,40.79441096,1624.33
-104.76292747,40.79442799,1624.33
-104.76292680,40.79461680,1624.52
-104.76292651,40.79469815,1624.50
-104.76292740,40.79474797,1624.51
-104.76294327,40.79475152,1624.53
-104.76300052,40.79475172,1624.57
-104.76322112,40.79475227,1624.78
-104.76348960,40.79475273,1625.12
-104.76382423,40.79475350,1625.64
-104.76416288,40.79475420,1626.46
-104.76437850,40.79475464,1627.07
-104.76448305,40.79475485,1627.57
-104.76465884,40.79475521,1628.53
-104.76485359,40.79475560,1629.66
-104.76502405,40.79475595,1630.70
-104.76511200,40.79475613,1631.33
-104.76522473,40.79475636,1632.16
-104.76533497,40.79475658,1632.96
-104.76541889,40.79475676,1633.63
-104.76549594,40.79475691,1634.31
-104.76567600,40.79475728,1635.81
-104.76585001,40.79475763,1637.28
-104.76615974,40.79475826,1640.49
-104.76629689,40.79475854,1641.28
-104.76649354,40.79475893,1641.97
-104.76651736,40.79475898,1642.02
-104.76678466,40.79475952,1641.47
-104.76689253,40.79475974,1641.03
-104.76706500,40.79476009,1640.52
-104.76719610,40.79476035,1639.94
-104.76730350,40.79476057,1639.49
-104.76737379,40.79476071,1639.37
-104.76740567,40.79476078,1639.28
-104.76762508,40.79476122,1639.19
-104.76787164,40.79476172,1640.16
-104.76817971,40.79476233,1642.00
-104.76848257,40.79476294,1644.47
-104.76878531,40.79476355,1644.98
-104.76883925,40.79476366,1645.18
-104.76897722,40.79476393,1645.61
-104.76926041,40.79476450,1646.14
-104.76952095,40.79476502,1646.97
-104.76977236,40.79476552,1648.17
-104.77001868,40.79476601,1649.82
-104.77026002,40.79476650,1651.40
-104.77051985,40.79476701,1652.30
-104.77095476,40.79476779,1652.36
-104.77124292,40.79476845,1652.32
-104.77135174,40.79476866,1652.30
-104.77144799,40.79476885,1652.23
-104.77173982,40.79476943,1651.92
-104.77186962,40.79476969,1651.60
-104.77208607,40.79477012,1651.28
-104.77214510,40.79477023,1650.92
-104.77234033,40.79477062,1650.93
-104.77274572,40.79477142,1650.27
-104.77288856,40.79477170,1649.52
-104.77316392,40.79477224,1648.04
-104.77355414,40.79477301,1646.87
-104.77371807,40.79477333,1646.53
-104.77377580,40.79477344,1646.49
-104.77414373,40.79477416,1646.69
-104.77418641,40.79477425,1646.82
-104.77431324,40.79477449,1647.35
-104.77438543,40.79477463,1647.60
-104.77457058,40.79477500,1648.09
-104.77476486,40.79477538,1648.40
-104.77477672,40.79477450,1648.38
-104.77477889,40.79476531,1648.34
-104.77477988,40.79475081,1648.31
-104.77478013,40.79467631,1647.99
-104.77478082,40.79447245,1647.05
-104.77478147,40.79428210,1645.85
-104.77478151,40.79427039,1645.77
-104.77478224,40.79405346,1644.31
-104.77478226,40.79404824,1644.29
-104.77478286,40.79386942,1642.96
-104.77478297,40.79383609,1642.75
-104.77478334,40.79372889,1642.04
-104.77478343,40.79370204,1641.91
-104.77478408,40.79350854,1640.62
-104.77478420,40.79347341,1640.33
-104.77478428,40.79344918,1640.16
-104.77478438,40.79342008,1639.93
-104.77478470,40.79332513,1639.50
-104.77478486,40.79327648,1639.22
-104.77478513,40.79319721,1638.98
-104.77478534,40.79313460,1638.89
-104.77478565,40.79304514,1638.73
-104.77478637,40.79283137,1638.39
-104.77478649,40.79279570,1638.31
-104.77478653,40.79278345,1638.29
-104.77478677,40.79271174,1638.15
-104.77478687,40.79268192,1638.11
-104.77478714,40.79260454,1638.12
-104.77478720,40.79258679,1638.13
-104.77478721,40.79258301,1638.14
-104.77478825,40.79227312,1638.89
-104.77478874,40.79213069,1639.58
-104.77478877,40.79212060,1639.62
-104.77478892,40.79207646,1639.81
-104.77478908,40.79202998,1640.03
-104.77478911,40.79202133,1640.09
-104.77478911,40.79202070,1640.10
-104.77478912,40.79201664,1640.12
-104.77478956,40.79188647,1640.78
-104.77479016,40.79170891,1641.67
-104.77479024,40.79168423,1641.78
-104.77479073,40.79154028,1642.47
-104.77479093,40.79148253,1642.68
-104.77479119,40.79140353,1642.70
-104.77479146,40.79132335,1642.59
-104.77479154,40.79130110,1642.51
-104.77479208,40.79114057,1642.48
-104.77479242,40.79104021,1642.63
-104.77479253,40.79100832,1642.70
-104.77479281,40.79092364,1642.89
-104.77479354,40.79070888,1643.75
-104.77479368,40.79066861,1643.90
-104.77479507,40.79025521,1647.19
-104.77479559,40.79010189,1648.02
-104.77479560,40.79009820,1648.04
-104.77479578,40.79004703,1648.25
-104.77479622,40.78991505,1648.78
-104.77479633,40.78988235,1648.81
-104.77479711,40.78965191,1647.84
-104.77479747,40.78954462,1647.43
-104.77479801,40.78938625,1646.91
-104.77479806,40.78937175,1646.87
-104.77479819,40.78933112,1646.80
-104.77479834,40.78928680,1646.77
-104.77479848,40.78924536,1646.77
-104.77479892,40.78911735,1646.80
-104.77479896,40.78910510,1646.82
-104.77479898,40.78909915,1646.84
-104.77479903,40.78908537,1646.91
-104.77480024,40.78872620,1648.28
-104.77480165,40.78830956,1647.31
-104.77480169,40.78829677,1647.23
-104.77480182,40.78825686,1646.94
-104.77480204,40.78819191,1646.57
-104.77480227,40.78812461,1646.20
-104.77480227,40.78812452,1646.22
-104.77480245,40.78807119,1645.92
-104.77480289,40.78794246,1645.23
-104.77480307,40.78788697,1644.96
-104.77480315,40.78786454,1644.89
-104.77480396,40.78762329,1644.16
-104.77480422,40.78754699,1644.11
-104.77480438,40.78749942,1644.04
-104.77480450,40.78746384,1644.02
-104.77480486,40.78735844,1644.09
-104.77480500,40.78731808,1644.08
-104.77480565,40.78708909,1644.50
-104.77480671,40.78681108,1645.98
-104.77480805,40.78641471,1646.92
-104.77480860,40.78625238,1646.99
-104.77480863,40.78624256,1647.00
-104.77480877,40.78620157,1646.95
-104.77480947,40.78599455,1646.67
-104.77480949,40.78598753,1646.63
-104.77481006,40.78581925,1646.07
-104.77481015,40.78579087,1645.92
-104.77481019,40.78578024,1645.89
-104.77480999,40.78576844,1645.81
-104.77480869,40.78576817,1645.80
-104.77480359,40.78576807,1645.83
-104.77479850,40.78576797,1645.83
-104.77479317,40.78576787,1645.80
-104.77473426,40.78576685,1645.78
-104.77472929,40.78576684,1645.79
-104.77446949,40.78576633,1645.56
-104.77427251,40.78576595,1645.15
-104.77426765,40.78576594,1645.16
-104.77398711,40.78576539,1644.47
-104.77368844,40.78576480,1644.06
-104.77347084,40.78576438,1643.88
-104.77326627,40.78576397,1643.79
-104.77303255,40.78576351,1643.61
-104.77283865,40.78576358,1643.18
-104.77251853,40.78576367,1642.39
-104.77193518,40.78576144,1639.99
-104.77157191,40.78576063,1638.48
-104.77141132,40.78576031,1638.25
-104.77104414,40.78575959,1638.42
-104.77084941,40.78575920,1639.05
-104.77072592,40.78575895,1639.24
-104.77032745,40.78575816,1640.01
-104.77013948,40.78575779,1640.09
-104.76996146,40.78575743,1639.97
-104.76978380,40.78575708,1639.93
-104.76935583,40.78575622,1639.63
-104.76918930,40.78575589,1639.46
-104.76915932,40.78575583,1639.47
-104.76915387,40.78575582,1639.45
-104.76914865,40.78575581,1639.46
-104.76914320,40.78575580,1639.44
-104.76913799,40.78575579,1639.46
-104.76913289,40.78575578,1639.42
-104.76912744,40.78575577,1639.43
-104.76912175,40.78575576,1639.44
-104.76911665,40.78575575,1639.43
-104.76911120,40.78575574,1639.42
-104.76910563,40.78575572,1639.42
-104.76910006,40.78575571,1639.40
-104.76909496,40.78575570,1639.40
-104.76908975,40.78575569,1639.41
-104.76908489,40.78575568,1639.41
-104.76907955,40.78575567,1639.42
-104.76907398,40.78575566,1639.40
-104.76906889,40.78575565,1639.42
-104.76906332,40.78575564,1639.39
-104.76905822,40.78575563,1639.39
-104.76905301,40.78575562,1639.40
-104.76904755,40.78575561,1639.40
-104.76904210,40.78575560,1639.40
-104.76903689,40.78575559,1639.38
-104.76903120,40.78575558,1639.38
-104.76902575,40.78575556,1639.37
-104.76901994,40.78575555,1639.35
-104.76901508,40.78575554,1639.36
-104.76900963,40.78575553,1639.34
-104.76900465,40.78575552,1639.33
-104.76899932,40.78575551,1639.32
-104.76899386,40.78575550,1639.32
-104.76898865,40.78575549,1639.32
-104.76898308,40.78575548,1639.30
-104.76897786,40.78575547,1639.30
-104.76897277,40.78575546,1639.28
-104.76896720,40.78575545,1639.29
-104.76896163,40.78575544,1639.28
-104.76895641,40.78575543,1639.27
-104.76895072,40.78575541,1639.28
-104.76894681,40.78575541,1639.22
-104.76894527,40.78575540,1639.22
-104.76893946,40.78575539,1639.23
-104.76893437,40.78575538,1639.20
-104.76892903,40.78575537,1639.20
-104.76892406,40.78575536,1639.21
-104.76891884,40.78575535,1639.19
-104.76891315,40.78575534,1639.20
-104.76890794,40.78575533,1639.17
-104.76890249,40.78575532,1639.17
-104.76889727,40.78575531,1639.16
-104.76889194,40.78575530,1639.15
-104.76888637,40.78575529,1639.14
-104.76888068,40.78575527,1639.13
-104.76887570,40.78575526,1639.11
-104.76887001,40.78575525,1639.13
-104.76886432,40.78575524,1639.09
-104.76885863,40.78575523,1639.09
-104.76885354,40.78575522,1639.08
-104.76884832,40.78575521,1639.07
-104.76884299,40.78575520,1639.06
-104.76883801,40.78575519,1639.08
-104.76883244,40.78575518,1639.05
-104.76882723,40.78575517,1639.07
-104.76882154,40.78575516,1639.06
-104.76881620,40.78575514,1639.03
-104.76881099,40.78575513,1639.03
-104.76880554,40.78575512,1639.01
-104.76879961,40.78575511,1638.99
-104.76879440,40.78575510,1638.99
-104.76878871,40.78575509,1638.96
-104.76878325,40.78575508,1638.96
-104.76877745,40.78575507,1638.92
-104.76877223,40.78575506,1638.93
-104.76876690,40.78575505,1638.89
-104.76876358,40.78575504,1638.90
-104.76876192,40.78575504,1638.91
-104.76875647,40.78575503,1638.88
-104.76875078,40.78575501,1638.89
-104.76874580,40.78575500,1638.89
-104.76873988,40.78575499,1638.83
-104.76873490,40.78575498,1638.85
-104.76872945,40.78575497,1638.81
-104.76854657,40.78575460,1638.25
-104.76836275,40.78575424,1637.63
-104.76813483,40.78575378,1636.88
-104.76788416,40.78575327,1636.12
-104.76766739,40.78575284,1635.55
-104.76747171,40.78575244,1634.94
-104.76724297,40.78575198,1634.47
-104.76704160,40.78575158,1634.02
-104.76678762,40.78575106,1633.67
-104.76677043,40.78575103,1633.68
-104.76659016,40.78575066,1633.56
-104.76652521,40.78575053,1633.60
-104.76644320,40.78575037,1633.49
-104.76634731,40.78575017,1633.40
-104.76611336,40.78574970,1633.05
-104.76594683,40.78574936,1632.54
-104.76589682,40.78574926,1632.40
-104.76566262,40.78574878,1631.70
-104.76552633,40.78574851,1631.34
-104.76542096,40.78574829,1631.02
-104.76526558,40.78574798,1630.46
-104.76516200,40.78574777,1630.06
-104.76493704,40.78574731,1629.26
-104.76488952,40.78574721,1629.14
-104.76469728,40.78574682,1628.50
-104.76442385,40.78574626,1627.96
-104.76420187,40.78574581,1627.63
-104.76415529,40.78574571,1627.55
-104.76407161,40.78574554,1627.44
-104.76371617,40.78574481,1627.10
-104.76355439,40.78574448,1627.01
-104.76341347,40.78574419,1626.91
-104.76324944,40.78574386,1626.99
-104.76311954,40.78574359,1626.94
-104.76302627,40.78574367,1626.83
-104.76296226,40.78574399,1626.82
-104.76295987,40.78575101,1626.75
-104.76295923,40.78576398,1626.80
-104.76295836,40.78584037,1626.88
-104.76295816,40.78586524,1626.91
-104.76295734,40.78602901,1626.88
-104.76295717,40.78607657,1626.87
-104.76295667,40.78621720,1626.99
-104.76295634,40.78630863,1627.06
-104.76295554,40.78653475,1627.27
-104.76295533,40.78659393,1627.29
-104.76295484,40.78673122,1627.30
-104.76295467,40.78677825,1627.36
-104.76295380,40.78702508,1627.04
-104.76295322,40.78718606,1626.39
-104.76295314,40.78721110,1626.20
-104.76295257,40.78736956,1624.97
-104.76295252,40.78738434,1624.83
-104.76295156,40.78765540,1623.91
-104.76295090,40.78784062,1623.46
-104.76295076,40.78787845,1622.41
-104.76295076,40.78787917,1622.36
-104.76295049,40.78795566,1621.61
-104.76295012,40.78806025,1622.35
-104.76294905,40.78835888,1625.66
-104.76294869,40.78846112,1626.61
-104.76294848,40.78852139,1627.06
-104.76294821,40.78859526,1627.72
-104.76294719,40.78888182,1628.41
-104.76294703,40.78892830,1628.22
-104.76294674,40.78900938,1627.94
-104.76294621,40.78915739,1626.87
-104.76294605,40.78920306,1626.42
-104.76294579,40.78927711,1625.84
-104.76294542,40.78938089,1625.08
-104.76294475,40.78956800,1623.92
-104.76294446,40.78965178,1623.42
-104.76294441,40.78966502,1623.36
-104.76294432,40.78969015,1623.25
-104.76294419,40.78972781,1623.14
-104.76294364,40.78988230,1622.63
-104.76294340,40.78994924,1622.56
-104.76294312,40.79002743,1622.59
     </coordinates>
    </LineString>
   </MultiGeometry>
  </Placemark>
 </Document>
</kml>
