<kml>
 <Document>
  <Style id="yellow">
   <LineStyle>
   <color>ff00ffff</color>
   <width>1</width>
   </LineStyle>
  </Style>
  <Style id="red">
   <LineStyle>
   <color>ffff0000</color>
   <width>2</width>
   </LineStyle>
  </Style>
  <Style id="green">
   <LineStyle>
   <color>ff00ff00</color>
   <width>1</width>
   </LineStyle>
  </Style>
  <Placemark>
  <styleUrl>#yellow</styleUrl>
   <MultiGeometry>
    <LineString>
     <coordinates>
-104.77978267,40.82181065,1657.24
-104.78014791,40.82181135,1657.24
-104.78049334,40.82181201,1657.27
-104.78067478,40.82181235,1657.31
-104.78086416,40.82181271,1657.48
-104.78100302,40.82181297,1657.64
-104.78117497,40.82181330,1658.09
-104.78155111,40.82181401,1659.22
-104.78164302,40.82181419,1659.39
-104.78165903,40.82181422,1659.43
-104.78176587,40.82181442,1659.54
-104.78196723,40.82181480,1659.45
-104.78215850,40.82181516,1659.00
-104.78228812,40.82181541,1658.67
-104.78238026,40.82181558,1658.33
-104.78257865,40.82181595,1657.38
-104.78267458,40.82181613,1656.87
-104.78280076,40.82181637,1656.31
-104.78283337,40.82181643,1656.16
-104.78288210,40.82181653,1655.99
-104.78296001,40.82181667,1655.67
-104.78301184,40.82181677,1655.46
-104.78322695,40.82181717,1654.84
-104.78327948,40.82181727,1654.71
-104.78342214,40.82181754,1654.50
-104.78343660,40.82181757,1654.46
-104.78355092,40.82181778,1654.15
-104.78372571,40.82181811,1653.83
-104.78375394,40.82181816,1653.77
-104.78398992,40.82181860,1653.59
-104.78400593,40.82181863,1653.57
-104.78412238,40.82181885,1653.58
-104.78441267,40.82181940,1653.60
-104.78452995,40.82181961,1653.63
-104.78477269,40.82182007,1653.70
-104.78486317,40.82182024,1653.58
-104.78492922,40.82182036,1653.58
-104.78508089,40.82182064,1653.33
-104.78513888,40.82182075,1653.27
-104.78518774,40.82182084,1653.13
-104.78525059,40.82182096,1652.94
-104.78534972,40.82182114,1652.58
-104.78541447,40.82182126,1652.46
-104.78569587,40.82182179,1652.34
-104.78583628,40.82182205,1652.68
-104.78598119,40.82182232,1652.97
-104.78614068,40.82182261,1653.39
-104.78622701,40.82182277,1653.69
-104.78630990,40.82182293,1653.95
-104.78644248,40.82182317,1654.53
-104.78654447,40.82182066,1654.90
-104.78654638,40.82181580,1654.90
-104.78654679,40.82176265,1655.16
-104.78654732,40.82167148,1655.54
-104.78654776,40.82153509,1656.29
-104.78654802,40.82145393,1656.82
-104.78654802,40.82145185,1656.84
-104.78654858,40.82127907,1657.80
-104.78654863,40.82126340,1657.88
-104.78654867,40.82125079,1657.96
-104.78654965,40.82094594,1659.97
-104.78654971,40.82092630,1660.14
-104.78654990,40.82086621,1660.53
-104.78655042,40.82070532,1661.46
-104.78655069,40.82061911,1661.96
-104.78655110,40.82049146,1662.74
-104.78655210,40.82017950,1663.47
-104.78655240,40.82008644,1662.55
-104.78655259,40.82002663,1661.88
-104.78655304,40.81988763,1660.28
-104.78655326,40.81981853,1659.55
-104.78655352,40.81973782,1658.68
-104.78655375,40.81966458,1658.08
-104.78655405,40.81957089,1657.43
-104.78655413,40.81954864,1657.39
-104.78655437,40.81947324,1657.29
-104.78655446,40.81944405,1657.36
-104.78655489,40.81930856,1657.22
-104.78655544,40.81913902,1657.74
-104.78655608,40.81893867,1659.08
-104.78655730,40.81855843,1662.13
-104.78655737,40.81853744,1662.26
-104.78655741,40.81852375,1662.40
-104.78655765,40.81844780,1663.00
-104.78655874,40.81810927,1665.12
-104.78655898,40.81803432,1665.53
-104.78655914,40.81798486,1665.75
-104.78655916,40.81797747,1665.79
-104.78655935,40.81791730,1665.95
-104.78655993,40.81773866,1666.02
-104.78656052,40.81755470,1665.69
-104.78656131,40.81730850,1664.64
-104.78656190,40.81712302,1663.38
-104.78656258,40.81691015,1662.24
-104.78656264,40.81689366,1662.16
-104.78656329,40.81665332,1661.62
-104.78656424,40.81639387,1661.39
-104.78656443,40.81633442,1661.35
-104.78656455,40.81629595,1661.39
-104.78656470,40.81625010,1661.40
-104.78656478,40.81622542,1661.26
-104.78656566,40.81595120,1658.94
-104.78656602,40.81583643,1657.78
-104.78656617,40.81578986,1657.37
-104.78656682,40.81558744,1656.46
-104.78656691,40.81555969,1656.42
-104.78656698,40.81553735,1656.41
-104.78656807,40.81519782,1657.19
-104.78656811,40.81518512,1657.31
-104.78656823,40.81514638,1657.60
-104.78656844,40.81508260,1658.26
-104.78656866,40.81501504,1658.96
-104.78656911,40.81487361,1661.44
-104.78656911,40.81487334,1661.45
-104.78656936,40.81479415,1662.60
-104.78656940,40.81478379,1662.75
-104.78656953,40.81474145,1663.08
-104.78657002,40.81458840,1663.98
-104.78657019,40.81453786,1664.58
-104.78657043,40.81446138,1665.15
-104.78657046,40.81445111,1665.18
-104.78657057,40.81441805,1665.29
-104.78657068,40.81438337,1665.36
-104.78657129,40.81419230,1665.80
-104.78657147,40.81413725,1665.85
-104.78657181,40.81403131,1665.88
-104.78657285,40.81370593,1666.11
-104.78657298,40.81366683,1666.12
-104.78657299,40.81366251,1666.17
-104.78657303,40.81365053,1666.19
-104.78657305,40.81364350,1666.16
-104.78657306,40.81363945,1666.19
-104.78657348,40.81351108,1666.50
-104.78657354,40.81349117,1666.50
-104.78657394,40.81336685,1666.56
-104.78657463,40.81315092,1666.55
-104.78657492,40.81306029,1666.51
-104.78657500,40.81303426,1666.57
-104.78657537,40.81291976,1666.42
-104.78657544,40.81289679,1666.40
-104.78657549,40.81288345,1666.39
-104.78657559,40.81285066,1666.37
-104.78657566,40.81282976,1666.34
-104.78657309,40.81281688,1666.27
-104.78657060,40.81281642,1666.27
-104.78654998,40.81281503,1666.27
-104.78616250,40.81281423,1665.94
-104.78615728,40.81281422,1665.93
-104.78615182,40.81281421,1665.93
-104.78561447,40.81281321,1665.61
-104.78522320,40.81281248,1665.15
-104.78510582,40.81281226,1665.00
-104.78508056,40.81281222,1664.99
-104.78487105,40.81281182,1664.82
-104.78478260,40.81281166,1664.75
-104.78476078,40.81281162,1664.73
-104.78464067,40.81281140,1664.67
-104.78452708,40.81281118,1664.60
-104.78444942,40.81281104,1664.57
-104.78421620,40.81281060,1664.43
-104.78397681,40.81281015,1664.21
-104.78395464,40.81281011,1664.19
-104.78388919,40.81280999,1664.16
-104.78374169,40.81280971,1664.13
-104.78362668,40.81280950,1663.93
-104.78357842,40.81280941,1663.89
-104.78339310,40.81280906,1663.58
-104.78327892,40.81280885,1663.46
-104.78327002,40.81280883,1663.47
-104.78319533,40.81280869,1663.38
-104.78317529,40.81280865,1663.36
-104.78303834,40.81280839,1663.25
-104.78288029,40.81280810,1663.26
-104.78279717,40.81280794,1663.11
-104.78270315,40.81280776,1663.09
-104.78259075,40.81280755,1662.92
-104.78257640,40.81280752,1662.94
-104.78245961,40.81280730,1662.95
-104.78222911,40.81280687,1662.96
-104.78210379,40.81280663,1662.95
-104.78199613,40.81280643,1662.82
-104.78185052,40.81280615,1662.52
-104.78138858,40.81280528,1661.75
-104.78127191,40.81280506,1661.62
-104.78115073,40.81280483,1661.43
-104.78102422,40.81280459,1661.27
-104.78088728,40.81280433,1661.23
-104.78080807,40.81280418,1661.01
-104.78040790,40.81280342,1660.62
-104.78029894,40.81280321,1660.46
-104.78017575,40.81280297,1660.11
-104.78017089,40.81280297,1660.08
-104.78003204,40.81280270,1659.63
-104.77988253,40.81280242,1658.87
-104.77986581,40.81280238,1658.84
-104.77978104,40.81280222,1658.58
-104.77957817,40.81280183,1657.79
-104.77949991,40.81280169,1657.52
-104.77922614,40.81280116,1656.93
-104.77895699,40.81280065,1656.35
-104.77894466,40.81280062,1656.34
-104.77865286,40.81280006,1655.56
-104.77854271,40.81279985,1656.53
-104.77835679,40.81279949,1657.43
-104.77826170,40.81279931,1657.33
-104.77812286,40.81279905,1656.46
-104.77799291,40.81279880,1655.89
-104.77788821,40.81279859,1656.40
-104.77784778,40.81279852,1657.03
-104.77771925,40.81279827,1658.83
-104.77736248,40.81279767,1656.56
-104.77706642,40.81279701,1655.64
-104.77658290,40.81279607,1653.46
-104.77658112,40.81279607,1653.31
-104.77652563,40.81279596,1652.68
-104.77645816,40.81279583,1652.35
-104.77640125,40.81279572,1651.86
-104.77637315,40.81279567,1651.71
-104.77628873,40.81279550,1651.27
-104.77614834,40.81279523,1650.40
-104.77612878,40.81279519,1650.37
-104.77600073,40.81279494,1649.69
-104.77594085,40.81279483,1649.30
-104.77589247,40.81279473,1649.11
-104.77577960,40.81279452,1648.66
-104.77571438,40.81279439,1648.38
-104.77567502,40.81279431,1648.17
-104.77546776,40.81279391,1647.35
-104.77537919,40.81279374,1646.93
-104.77524829,40.81279348,1646.28
-104.77510743,40.81279321,1645.53
-104.77499325,40.81279298,1644.83
-104.77493290,40.81279287,1644.46
-104.77481161,40.81279263,1643.77
-104.77477521,40.81279256,1643.55
-104.77472339,40.81279282,1643.25
-104.77472006,40.81279497,1643.23
-104.77471889,40.81282533,1643.14
-104.77471844,40.81295992,1642.63
-104.77471831,40.81299757,1642.44
-104.77471829,40.81300316,1642.43
-104.77471823,40.81302244,1642.34
-104.77471803,40.81308009,1642.13
-104.77471765,40.81319351,1641.76
-104.77471712,40.81335034,1641.52
-104.77471680,40.81344394,1641.47
-104.77471659,40.81350547,1641.41
-104.77471601,40.81367933,1641.22
-104.77471570,40.81377005,1641.12
-104.77471506,40.81395841,1640.90
-104.77471499,40.81398076,1640.88
-104.77471422,40.81420714,1641.06
-104.77471348,40.81442433,1641.36
-104.77471313,40.81453036,1641.91
-104.77471307,40.81454829,1642.05
-104.77471277,40.81463648,1642.68
-104.77471253,40.81470666,1643.12
-104.77471252,40.81470873,1643.14
-104.77471213,40.81482530,1643.97
-104.77471193,40.81488367,1644.38
-104.77471183,40.81491430,1644.62
-104.77471172,40.81494574,1644.93
-104.77471143,40.81503231,1645.58
-104.77471140,40.81503997,1645.71
-104.77471126,40.81508096,1646.01
-104.77471098,40.81516483,1646.54
-104.77471055,40.81529059,1647.36
-104.77470932,40.81565696,1650.03
-104.77470901,40.81574650,1650.65
-104.77470849,40.81589929,1651.52
-104.77470847,40.81590550,1651.56
-104.77470762,40.81615747,1652.81
-104.77470698,40.81634827,1652.75
-104.77470630,40.81658294,1652.40
-104.77470520,40.81687202,1652.29
-104.77470510,40.81690364,1652.31
-104.77470493,40.81695175,1652.41
-104.77470463,40.81704048,1652.53
-104.77470423,40.81716047,1652.91
-104.77470403,40.81721993,1653.14
-104.77470388,40.81726416,1653.32
-104.77470372,40.81731190,1653.48
-104.77470235,40.81771566,1656.10
-104.77470177,40.81788763,1657.58
-104.77470085,40.81816059,1659.03
-104.77470081,40.81817212,1658.99
-104.77470036,40.81830518,1659.04
-104.77469992,40.81843454,1658.65
-104.77469985,40.81845526,1658.59
-104.77469973,40.81849093,1658.50
-104.77469961,40.81852615,1658.46
-104.77469951,40.81855498,1658.37
-104.77469934,40.81860426,1658.28
-104.77469933,40.81860894,1658.23
-104.77469897,40.81871470,1658.07
-104.77469895,40.81872209,1658.10
-104.77469884,40.81875470,1658.04
-104.77469770,40.81908945,1657.79
-104.77469749,40.81915350,1657.60
-104.77469669,40.81938781,1657.96
-104.77469646,40.81945619,1658.11
-104.77469577,40.81965924,1658.70
-104.77469455,40.82002102,1660.09
-104.77469445,40.82004993,1660.19
-104.77469416,40.82013551,1659.92
-104.77469386,40.82022623,1659.43
-104.77469363,40.82029433,1659.03
-104.77469357,40.82030956,1658.94
-104.77469354,40.82032055,1658.86
-104.77469334,40.82037775,1658.50
-104.77469328,40.82039703,1658.33
-104.77469319,40.82042333,1658.17
-104.77469244,40.82064485,1656.40
-104.77469211,40.82074142,1655.73
-104.77469138,40.82095735,1654.52
-104.77469074,40.82114842,1653.64
-104.77469057,40.82119779,1653.44
-104.77469051,40.82121446,1653.39
-104.77469045,40.82123391,1653.34
-104.77468980,40.82142471,1652.92
-104.77468923,40.82159317,1652.62
-104.77468910,40.82163092,1652.54
-104.77468898,40.82166722,1652.37
-104.77468883,40.82171253,1652.19
-104.77468857,40.82178721,1651.89
-104.77468924,40.82179929,1651.83
-104.77475754,40.82180077,1652.03
-104.77476241,40.82180087,1652.09
-104.77482976,40.82180109,1652.39
-104.77524445,40.82180190,1654.11
-104.77557981,40.82180255,1655.37
-104.77577262,40.82180293,1656.37
-104.77597125,40.82180331,1657.53
-104.77619229,40.82180374,1658.92
-104.77638511,40.82180403,1659.90
-104.77688589,40.82180509,1662.40
-104.77689075,40.82180509,1662.43
-104.77689514,40.82180510,1662.42
-104.77689977,40.82180511,1662.43
-104.77690404,40.82180512,1662.44
-104.77690866,40.82180513,1662.47
-104.77691364,40.82180514,1662.47
-104.77691803,40.82180515,1662.48
-104.77692289,40.82180516,1662.48
-104.77692740,40.82180517,1662.49
-104.77693178,40.82180517,1662.52
-104.77693665,40.82180518,1662.52
-104.77717417,40.82180537,1663.05
-104.77771634,40.82180660,1663.25
-104.77790417,40.82180705,1662.88
-104.77828092,40.82180777,1661.40
-104.77884277,40.82180885,1658.74
-104.77904804,40.82180925,1657.92
-104.77923813,40.82180961,1657.35
-104.77944245,40.82181000,1657.30
-104.77978267,40.82181065,1657.24
     </coordinates>
    </LineString>
   </MultiGeometry>
  </Placemark>
 </Document>
</kml>
