<kml>
 <Document>
  <Style id="yellow">
   <LineStyle>
   <color>ff00ffff</color>
   <width>1</width>
   </LineStyle>
  </Style>
  <Style id="red">
   <LineStyle>
   <color>ffff0000</color>
   <width>2</width>
   </LineStyle>
  </Style>
  <Style id="green">
   <LineStyle>
   <color>ff00ff00</color>
   <width>1</width>
   </LineStyle>
  </Style>
  <Placemark>
  <styleUrl>#yellow</styleUrl>
   <MultiGeometry>
    <LineString>
     <coordinates>
-104.70856771,40.81264423,1616.68
-104.70905395,40.81264546,1617.58
-104.70925065,40.81264596,1617.38
-104.70959035,40.81264681,1617.63
-104.70966007,40.81264699,1617.70
-104.70973026,40.81264717,1617.70
-104.70987764,40.81264754,1617.78
-104.71001565,40.81264788,1617.92
-104.71007719,40.81264804,1617.89
-104.71019291,40.81264833,1617.95
-104.71055051,40.81264923,1618.00
-104.71061370,40.81264939,1618.12
-104.71068603,40.81264957,1618.14
-104.71081242,40.81264988,1618.17
-104.71083554,40.81264994,1618.21
-104.71124484,40.81265097,1618.67
-104.71127887,40.81265105,1618.71
-104.71168140,40.81265206,1619.95
-104.71215259,40.81265323,1620.85
-104.71220843,40.81265337,1621.10
-104.71222385,40.81265341,1621.12
-104.71226784,40.81265352,1621.18
-104.71229546,40.81265359,1621.19
-104.71242494,40.81265391,1621.37
-104.71256295,40.81265426,1621.35
-104.71262046,40.81265440,1621.42
-104.71267073,40.81265453,1621.47
-104.71268282,40.81265456,1621.50
-104.71282570,40.81265491,1621.73
-104.71296039,40.81265525,1621.87
-104.71309567,40.81265558,1621.57
-104.71315425,40.81265573,1621.49
-104.71316089,40.81265575,1621.51
-104.71323297,40.81265592,1621.43
-104.71330091,40.81265609,1621.40
-104.71364120,40.81265694,1621.47
-104.71364322,40.81265694,1621.47
-104.71376605,40.81265725,1621.39
-104.71382996,40.81265741,1621.45
-104.71387336,40.81265751,1621.52
-104.71390335,40.81265759,1621.60
-104.71395849,40.81265773,1621.74
-104.71410504,40.81265809,1621.92
-104.71417428,40.81265826,1621.94
-104.71423309,40.81265841,1622.02
-104.71446275,40.81265897,1622.31
-104.71453188,40.81265915,1622.35
-104.71458251,40.81265927,1622.41
-104.71493631,40.81266015,1622.74
-104.71512555,40.81266061,1622.84
-104.71535995,40.81266119,1623.76
-104.71542825,40.81266136,1623.94
-104.71543266,40.81265660,1623.99
-104.71543505,40.81265192,1624.02
-104.71543578,40.81248049,1624.44
-104.71543591,40.81245040,1624.49
-104.71543649,40.81231446,1624.46
-104.71543677,40.81224798,1624.05
-104.71543691,40.81221645,1623.35
-104.71543772,40.81199836,1623.06
-104.71543898,40.81173225,1622.85
-104.71543971,40.81156136,1622.73
-104.71543981,40.81153821,1622.76
-104.71543985,40.81152713,1622.72
-104.71544065,40.81134002,1622.72
-104.71544242,40.81092726,1622.31
-104.71544278,40.81084285,1622.28
-104.71544310,40.81076781,1622.19
-104.71544363,40.81064358,1622.01
-104.71544425,40.81049827,1621.98
-104.71544427,40.81049395,1621.98
-104.71544449,40.81044269,1621.95
-104.71544502,40.81031711,1621.96
-104.71544512,40.81029396,1621.96
-104.71544543,40.81022136,1622.12
-104.71544610,40.81006560,1622.60
-104.71544654,40.80996137,1623.17
-104.71544730,40.80978373,1623.84
-104.71544791,40.80964085,1624.64
-104.71544793,40.80963590,1624.65
-104.71544847,40.80951059,1625.56
-104.71544887,40.80941609,1626.13
-104.71544951,40.80926592,1626.59
-104.71544988,40.80917989,1626.65
-104.71544997,40.80915854,1626.64
-104.71545047,40.80904296,1626.82
-104.71545147,40.80880694,1627.00
-104.71545227,40.80861966,1626.91
-104.71545327,40.80838661,1626.61
-104.71545378,40.80826626,1626.34
-104.71545426,40.80815518,1626.09
-104.71545452,40.80809266,1625.96
-104.71545521,40.80793231,1625.42
-104.71545620,40.80770035,1625.38
-104.71545644,40.80764359,1625.42
-104.71545668,40.80758891,1625.37
-104.71545676,40.80756999,1625.35
-104.71545816,40.80724263,1625.24
-104.71545830,40.80720921,1625.28
-104.71545870,40.80711426,1625.18
-104.71545876,40.80710084,1625.18
-104.71545896,40.80705345,1625.20
-104.71546006,40.80679617,1625.30
-104.71546030,40.80673942,1625.29
-104.71546112,40.80654871,1625.42
-104.71546122,40.80652556,1625.42
-104.71546177,40.80639548,1625.45
-104.71546289,40.80613297,1625.74
-104.71546310,40.80608505,1625.75
-104.71546400,40.80587317,1626.02
-104.71546401,40.80587073,1626.04
-104.71546418,40.80583236,1626.07
-104.71546446,40.80576660,1626.13
-104.71546536,40.80555544,1626.38
-104.71546557,40.80550679,1626.40
-104.71546576,40.80546319,1626.39
-104.71546631,40.80533437,1626.45
-104.71546789,40.80496440,1626.56
-104.71546796,40.80494746,1626.56
-104.71546875,40.80476153,1626.66
-104.71546927,40.80464099,1626.76
-104.71546947,40.80459235,1626.76
-104.71546954,40.80457631,1626.78
-104.71547025,40.80441092,1626.86
-104.71547051,40.80435038,1626.85
-104.71547060,40.80432930,1626.89
-104.71547126,40.80417490,1626.98
-104.71547137,40.80414859,1626.99
-104.71547145,40.80412922,1626.98
-104.71547244,40.80389717,1627.08
-104.71547299,40.80377006,1627.18
-104.71547347,40.80365682,1627.31
-104.71546116,40.80365319,1627.32
-104.71538208,40.80365281,1627.30
-104.71531842,40.80365266,1627.27
-104.71524954,40.80365249,1627.25
-104.71524812,40.80365248,1627.24
-104.71508096,40.80365207,1627.73
-104.71485892,40.80365152,1627.29
-104.71480284,40.80365138,1627.24
-104.71479205,40.80365136,1627.25
-104.71472898,40.80365120,1627.23
-104.71460427,40.80365089,1627.23
-104.71447410,40.80365057,1627.22
-104.71421293,40.80364992,1626.94
-104.71411026,40.80364967,1626.94
-104.71403404,40.80364948,1626.91
-104.71398851,40.80364937,1626.89
-104.71388110,40.80364910,1626.94
-104.71385016,40.80364902,1626.95
-104.71366534,40.80364857,1626.96
-104.71359753,40.80364840,1626.97
-104.71350008,40.80364816,1626.94
-104.71346831,40.80364808,1626.95
-104.71343429,40.80364799,1626.94
-104.71341544,40.80364794,1626.97
-104.71327151,40.80364759,1626.95
-104.71322291,40.80364747,1626.91
-104.71315427,40.80364730,1626.88
-104.71310127,40.80364716,1626.93
-104.71292250,40.80364672,1627.06
-104.71259625,40.80364591,1626.87
-104.71254847,40.80364579,1626.85
-104.71242292,40.80364548,1626.82
-104.71241889,40.80364547,1626.81
-104.71225980,40.80364507,1626.79
-104.71214978,40.80364479,1626.84
-104.71181310,40.80364395,1626.86
-104.71174825,40.80364379,1626.99
-104.71157931,40.80364337,1627.39
-104.71136035,40.80364282,1628.11
-104.71117482,40.80364236,1628.55
-104.71097778,40.80364186,1630.35
-104.71090713,40.80364169,1630.68
-104.71086267,40.80364158,1630.77
-104.71075586,40.80364131,1630.81
-104.71073867,40.80364127,1630.78
-104.71065627,40.80364106,1630.52
-104.71055740,40.80364081,1630.20
-104.71045723,40.80364056,1629.91
-104.71040684,40.80364043,1629.90
-104.71034223,40.80364027,1629.84
-104.71024407,40.80364002,1629.83
-104.71022356,40.80363997,1629.80
-104.70992031,40.80363921,1629.32
-104.70974639,40.80363877,1628.98
-104.70970004,40.80363866,1629.06
-104.70961966,40.80363845,1628.73
-104.70949957,40.80363815,1628.17
-104.70893562,40.80363673,1626.70
-104.70865904,40.80363603,1626.55
-104.70862051,40.80363594,1626.56
-104.70855649,40.80363577,1626.55
-104.70851002,40.80363566,1626.56
-104.70846355,40.80363554,1626.51
-104.70834026,40.80363523,1626.72
-104.70825158,40.80363500,1626.86
-104.70813030,40.80363470,1627.04
-104.70808193,40.80363457,1627.08
-104.70793872,40.80363421,1627.15
-104.70771881,40.80363366,1627.66
-104.70750874,40.80363312,1628.35
-104.70728515,40.80363256,1629.27
-104.70720714,40.80363236,1629.68
-104.70696933,40.80363175,1630.53
-104.70675961,40.80363122,1631.28
-104.70665967,40.80363097,1631.53
-104.70654266,40.80363067,1631.38
-104.70623728,40.80362989,1630.55
-104.70615797,40.80362969,1630.51
-104.70596888,40.80362921,1630.07
-104.70586099,40.80362893,1629.70
-104.70574683,40.80362864,1629.19
-104.70544713,40.80362788,1628.64
-104.70540540,40.80362777,1628.66
-104.70529385,40.80362749,1628.82
-104.70526599,40.80362742,1628.86
-104.70520422,40.80362726,1628.56
-104.70511815,40.80362704,1628.50
-104.70504821,40.80362686,1628.11
-104.70501869,40.80362678,1628.07
-104.70490678,40.80362650,1627.73
-104.70487939,40.80362643,1627.81
-104.70453571,40.80362555,1626.20
-104.70451947,40.80362551,1626.15
-104.70445723,40.80362535,1625.78
-104.70440898,40.80362522,1625.50
-104.70437922,40.80362515,1625.35
-104.70401207,40.80362421,1623.70
-104.70394971,40.80362405,1623.54
-104.70389909,40.80362392,1623.40
-104.70378042,40.80362361,1623.24
-104.70377592,40.80362360,1623.21
-104.70364160,40.80362326,1623.01
-104.70363614,40.80362342,1623.00
-104.70363081,40.80362359,1623.00
-104.70362014,40.80362401,1623.01
-104.70361937,40.80363761,1623.04
-104.70361818,40.80369031,1622.68
-104.70361754,40.80383426,1622.06
-104.70361750,40.80384300,1622.02
-104.70361708,40.80393903,1621.98
-104.70361650,40.80406767,1622.77
-104.70361581,40.80422271,1623.79
-104.70361530,40.80433801,1623.90
-104.70361345,40.80475321,1622.49
-104.70361323,40.80480456,1622.25
-104.70361280,40.80490104,1621.58
-104.70361260,40.80494482,1621.25
-104.70361169,40.80515039,1619.63
-104.70361145,40.80520327,1619.25
-104.70361133,40.80523021,1619.04
-104.70361097,40.80531219,1618.38
-104.70361039,40.80544110,1617.40
-104.70360851,40.80586539,1615.03
-104.70360846,40.80587593,1615.02
-104.70360784,40.80601574,1614.28
-104.70360762,40.80606556,1614.03
-104.70360759,40.80607042,1614.01
-104.70360737,40.80612105,1613.90
-104.70360699,40.80620600,1613.68
-104.70360697,40.80621024,1613.78
-104.70360676,40.80625762,1613.62
-104.70360672,40.80626627,1613.58
-104.70360641,40.80633626,1613.32
-104.70360601,40.80642707,1613.06
-104.70360547,40.80654742,1612.67
-104.70360522,40.80660435,1612.51
-104.70360502,40.80664913,1612.45
-104.70360490,40.80667597,1612.40
-104.70360439,40.80679020,1612.19
-104.70360437,40.80679470,1612.14
-104.70360431,40.80680912,1612.11
-104.70360388,40.80690515,1612.06
-104.70360386,40.80691046,1612.01
-104.70360382,40.80691776,1612.11
-104.70360339,40.80701487,1612.02
-104.70360267,40.80717801,1612.16
-104.70360227,40.80726665,1612.05
-104.70360221,40.80728152,1612.01
-104.70360195,40.80733998,1612.03
-104.70360007,40.80776158,1612.54
-104.70360002,40.80777347,1612.55
-104.70359993,40.80779383,1612.58
-104.70359970,40.80784427,1612.63
-104.70359968,40.80784887,1612.63
-104.70359966,40.80785319,1612.58
-104.70359948,40.80789517,1612.60
-104.70359843,40.80813119,1612.78
-104.70359797,40.80823362,1612.88
-104.70359760,40.80831640,1613.03
-104.70359758,40.80832163,1613.07
-104.70359746,40.80834892,1612.97
-104.70359681,40.80849333,1612.86
-104.70359547,40.80879619,1613.01
-104.70359473,40.80896078,1613.16
-104.70359384,40.80916121,1613.24
-104.70359327,40.80928922,1613.28
-104.70359211,40.80955101,1613.48
-104.70359209,40.80955560,1613.48
-104.70359166,40.80965172,1613.33
-104.70359163,40.80965830,1613.33
-104.70359057,40.80989693,1613.57
-104.70359053,40.80990459,1613.72
-104.70358986,40.81005620,1613.67
-104.70358938,40.81016358,1613.85
-104.70358911,40.81022358,1613.96
-104.70358900,40.81024979,1614.04
-104.70358872,40.81031285,1614.27
-104.70358791,40.81049482,1614.51
-104.70358754,40.81057725,1614.62
-104.70358588,40.81095137,1615.08
-104.70358557,40.81102028,1615.01
-104.70358532,40.81107676,1615.36
-104.70358521,40.81110154,1615.14
-104.70358487,40.81117649,1615.08
-104.70358371,40.81143854,1615.30
-104.70358318,40.81155646,1615.30
-104.70358295,40.81160781,1615.16
-104.70358286,40.81162988,1615.23
-104.70358212,40.81179618,1615.26
-104.70358196,40.81183230,1615.30
-104.70358179,40.81186923,1615.35
-104.70358119,40.81200391,1615.47
-104.70358064,40.81212886,1615.26
-104.70358051,40.81215786,1615.47
-104.70357941,40.81240541,1616.03
-104.70357890,40.81251991,1616.22
-104.70357880,40.81259360,1616.33
-104.70357939,40.81262225,1616.33
-104.70358031,40.81262928,1616.38
-104.70358066,40.81263009,1616.39
-104.70358516,40.81263055,1616.39
-104.70359500,40.81263139,1616.33
-104.70368132,40.81263170,1616.41
-104.70386996,40.81263218,1616.38
-104.70439627,40.81263362,1616.30
-104.70473965,40.81263450,1615.87
-104.70491892,40.81263496,1616.02
-104.70493030,40.81263499,1616.03
-104.70506689,40.81263534,1616.02
-104.70512060,40.81263548,1615.96
-104.70531304,40.81263597,1616.00
-104.70587125,40.81263739,1616.20
-104.70640255,40.81263875,1616.69
-104.70662119,40.81263930,1616.91
-104.70700108,40.81264027,1616.98
-104.70720146,40.81264078,1616.65
-104.70773786,40.81264214,1616.35
-104.70778718,40.81264226,1616.34
-104.70788286,40.81264250,1616.38
-104.70815711,40.81264320,1616.43
-104.70839863,40.81264381,1616.50
-104.70843171,40.81264389,1616.46
-104.70856771,40.81264423,1616.68
     </coordinates>
    </LineString>
   </MultiGeometry>
  </Placemark>
 </Document>
</kml>
