<kml>
 <Document>
  <Style id="yellow">
   <LineStyle>
   <color>ff00ffff</color>
   <width>1</width>
   </LineStyle>
  </Style>
  <Style id="red">
   <LineStyle>
   <color>ffff0000</color>
   <width>2</width>
   </LineStyle>
  </Style>
  <Style id="green">
   <LineStyle>
   <color>ff00ff00</color>
   <width>1</width>
   </LineStyle>
  </Style>
  <Placemark>
  <styleUrl>#yellow</styleUrl>
   <MultiGeometry>
    <LineString>
     <coordinates>
-104.73205473,40.81270117,1658.74
-104.73232399,40.81270179,1658.27
-104.73236905,40.81270190,1658.22
-104.73246782,40.81270213,1658.01
-104.73268195,40.81270262,1657.43
-104.73301050,40.81270338,1656.74
-104.73357073,40.81270468,1656.45
-104.73401833,40.81270571,1656.09
-104.73408046,40.81270586,1656.16
-104.73411365,40.81270593,1656.18
-104.73424858,40.81270624,1656.03
-104.73437012,40.81270652,1655.91
-104.73437948,40.81270654,1655.92
-104.73445549,40.81270672,1655.76
-104.73482684,40.81270757,1655.34
-104.73492821,40.81270781,1655.23
-104.73503694,40.81270806,1655.17
-104.73504038,40.81270806,1655.17
-104.73511010,40.81270822,1655.15
-104.73519701,40.81270842,1655.11
-104.73533834,40.81270875,1655.10
-104.73545928,40.81270903,1655.08
-104.73548193,40.81270908,1655.03
-104.73571764,40.81270962,1654.83
-104.73585043,40.81270992,1654.77
-104.73585850,40.81270994,1654.77
-104.73615883,40.81271063,1654.52
-104.73623388,40.81271080,1654.41
-104.73631463,40.81271098,1654.28
-104.73637189,40.81271111,1654.20
-104.73651749,40.81271145,1653.91
-104.73661899,40.81271168,1653.78
-104.73676791,40.81271202,1653.52
-104.73684806,40.81271220,1653.43
-104.73693236,40.81271239,1653.34
-104.73708093,40.81271273,1653.17
-104.73715634,40.81271290,1653.14
-104.73723471,40.81271308,1653.11
-104.73763274,40.81271399,1652.79
-104.73786727,40.81271452,1652.55
-104.73803919,40.81271491,1652.37
-104.73810488,40.81271506,1652.30
-104.73818373,40.81271524,1652.28
-104.73833134,40.81271557,1652.15
-104.73841991,40.81271577,1651.99
-104.73863416,40.81271626,1651.56
-104.73891458,40.81271690,1651.30
-104.73891671,40.81271690,1651.28
-104.73908437,40.81271728,1651.30
-104.73914045,40.81271732,1651.25
-104.73914615,40.81271553,1651.26
-104.73914829,40.81271319,1651.27
-104.73914883,40.81263608,1651.27
-104.73915010,40.81231204,1651.42
-104.73915057,40.81219214,1651.37
-104.73915062,40.81217971,1651.35
-104.73915074,40.81214845,1651.42
-104.73915115,40.81204260,1651.51
-104.73915151,40.81195081,1651.47
-104.73915181,40.81187613,1651.48
-104.73915181,40.81187423,1651.49
-104.73915194,40.81184298,1651.49
-104.73915210,40.81180064,1651.47
-104.73915215,40.81178920,1651.48
-104.73915268,40.81165380,1651.50
-104.73915293,40.81158840,1651.57
-104.73915340,40.81146831,1651.75
-104.73915354,40.81143426,1651.87
-104.73915415,40.81127761,1652.29
-104.73915465,40.81115023,1652.71
-104.73915483,40.81110527,1652.84
-104.73915484,40.81110113,1652.86
-104.73915499,40.81106230,1653.03
-104.73915500,40.81105951,1653.06
-104.73915550,40.81093303,1653.35
-104.73915572,40.81087718,1653.52
-104.73915580,40.81085547,1653.57
-104.73915610,40.81077872,1653.72
-104.73915638,40.81067827,1653.86
-104.73915795,40.81030803,1654.43
-104.73915845,40.81018065,1654.63
-104.73915884,40.81007993,1654.80
-104.73915885,40.81007642,1654.81
-104.73915939,40.80994066,1654.90
-104.73915979,40.80983734,1655.25
-104.73916048,40.80966122,1655.74
-104.73916086,40.80956294,1656.12
-104.73916133,40.80944295,1656.72
-104.73916162,40.80937133,1657.15
-104.73916172,40.80934466,1657.29
-104.73916209,40.80924954,1657.66
-104.73916350,40.80888902,1656.30
-104.73916368,40.80884407,1656.01
-104.73916454,40.80862471,1654.74
-104.73916465,40.80859651,1654.56
-104.73916483,40.80855048,1654.30
-104.73916501,40.80850481,1653.99
-104.73916551,40.80837680,1653.36
-104.73916560,40.80835311,1653.22
-104.73916659,40.80809970,1652.02
-104.73916699,40.80799817,1651.55
-104.73916733,40.80791286,1650.99
-104.73916773,40.80780963,1650.40
-104.73916791,40.80776404,1650.20
-104.73916826,40.80767540,1649.80
-104.73916832,40.80765945,1649.77
-104.73916848,40.80761883,1649.72
-104.73916863,40.80757910,1649.62
-104.73916905,40.80747298,1649.44
-104.73916907,40.80746793,1649.44
-104.73916920,40.80743379,1649.40
-104.73917002,40.80722543,1649.28
-104.73917029,40.80715570,1649.23
-104.73917062,40.80707228,1649.21
-104.73917072,40.80704589,1649.25
-104.73917111,40.80694770,1649.20
-104.73917164,40.80681032,1649.18
-104.73917172,40.80679095,1649.21
-104.73917262,40.80656123,1649.40
-104.73917281,40.80651322,1649.50
-104.73917307,40.80644656,1649.72
-104.73917313,40.80643088,1649.71
-104.73917454,40.80607090,1650.73
-104.73917494,40.80596884,1650.84
-104.73917522,40.80589605,1650.77
-104.73917525,40.80588830,1650.74
-104.73917529,40.80587803,1650.72
-104.73917590,40.80572174,1650.33
-104.73917700,40.80544275,1649.79
-104.73917721,40.80538878,1649.69
-104.73917746,40.80532555,1649.65
-104.73917747,40.80532293,1649.63
-104.73917749,40.80531645,1649.64
-104.73917770,40.80526204,1649.62
-104.73917801,40.80518438,1649.53
-104.73917814,40.80515123,1649.52
-104.73917825,40.80512159,1649.49
-104.73917827,40.80511673,1649.49
-104.73917839,40.80508790,1649.42
-104.73917847,40.80506529,1649.37
-104.73917855,40.80504529,1649.39
-104.73917866,40.80501836,1649.32
-104.73917873,40.80499944,1649.29
-104.73917881,40.80498079,1649.26
-104.73917935,40.80484179,1649.01
-104.73917952,40.80479747,1648.97
-104.73918027,40.80460649,1648.79
-104.73918086,40.80445497,1648.73
-104.73918130,40.80434425,1648.65
-104.73918131,40.80434236,1648.67
-104.73918168,40.80424768,1648.60
-104.73918196,40.80417381,1648.55
-104.73918215,40.80412571,1648.45
-104.73918229,40.80409112,1648.38
-104.73918235,40.80407535,1648.37
-104.73918249,40.80403896,1648.23
-104.73918309,40.80388608,1647.90
-104.73918343,40.80380077,1647.64
-104.73918369,40.80373366,1647.47
-104.73918325,40.80372483,1647.44
-104.73918199,40.80371222,1647.44
-104.73917738,40.80370932,1647.44
-104.73906997,40.80370890,1647.65
-104.73889476,40.80370842,1647.97
-104.73879873,40.80370820,1648.12
-104.73862066,40.80370779,1648.55
-104.73851586,40.80370756,1648.96
-104.73846180,40.80370743,1649.16
-104.73829358,40.80370705,1649.86
-104.73815073,40.80370673,1650.40
-104.73765909,40.80370561,1652.61
-104.73752513,40.80370531,1653.12
-104.73719176,40.80370455,1654.04
-104.73713497,40.80370442,1654.14
-104.73701476,40.80370415,1654.27
-104.73688602,40.80370385,1654.24
-104.73652503,40.80370303,1654.38
-104.73638348,40.80370271,1654.51
-104.73637032,40.80370267,1654.52
-104.73624809,40.80370240,1654.71
-104.73621146,40.80370231,1654.77
-104.73603244,40.80370190,1655.09
-104.73596392,40.80370175,1655.23
-104.73568592,40.80370111,1656.22
-104.73567169,40.80370108,1656.28
-104.73553559,40.80370076,1656.86
-104.73542096,40.80370050,1657.27
-104.73514189,40.80369986,1658.30
-104.73489388,40.80369929,1658.78
-104.73479583,40.80369907,1658.87
-104.73460165,40.80369862,1658.50
-104.73446448,40.80369830,1657.71
-104.73406721,40.80369739,1655.40
-104.73390077,40.80369701,1654.63
-104.73379218,40.80369676,1654.14
-104.73339277,40.80369583,1652.57
-104.73313979,40.80369525,1651.93
-104.73304874,40.80369504,1651.87
-104.73300677,40.80369494,1651.87
-104.73287316,40.80369463,1651.92
-104.73279302,40.80369445,1651.98
-104.73265361,40.80369412,1652.05
-104.73257453,40.80369394,1651.96
-104.73251620,40.80369380,1651.83
-104.73200537,40.80369262,1649.75
-104.73190804,40.80369239,1649.24
-104.73184224,40.80369224,1648.81
-104.73180181,40.80369215,1648.44
-104.73128173,40.80369094,1646.57
-104.73120016,40.80369075,1646.78
-104.73117894,40.80369070,1646.82
-104.73106739,40.80369044,1647.43
-104.73080207,40.80368982,1649.01
-104.73052525,40.80368917,1650.49
-104.73044013,40.80368897,1651.11
-104.73020232,40.80368842,1652.38
-104.73000694,40.80368796,1652.48
-104.72992834,40.80368778,1652.12
-104.72976142,40.80368739,1652.70
-104.72966350,40.80368716,1653.48
-104.72955562,40.80368690,1653.71
-104.72906790,40.80368576,1650.79
-104.72902024,40.80368565,1650.48
-104.72896582,40.80368552,1650.20
-104.72847182,40.80368436,1644.57
-104.72838231,40.80368415,1644.01
-104.72828878,40.80368393,1643.45
-104.72823389,40.80368380,1643.23
-104.72811996,40.80368353,1642.66
-104.72804326,40.80368335,1642.23
-104.72777616,40.80368272,1641.16
-104.72775138,40.80368266,1641.09
-104.72761007,40.80368233,1640.58
-104.72756929,40.80368223,1640.42
-104.72738008,40.80368178,1639.79
-104.72734013,40.80368178,1639.71
-104.72733503,40.80368195,1639.63
-104.72733040,40.80368212,1639.64
-104.72732885,40.80368518,1639.63
-104.72732866,40.80370346,1639.53
-104.72732845,40.80375337,1639.40
-104.72732837,40.80377319,1639.30
-104.72732772,40.80393336,1638.85
-104.72732758,40.80396552,1638.77
-104.72732711,40.80408011,1638.72
-104.72732675,40.80416974,1638.93
-104.72732670,40.80418154,1638.94
-104.72732665,40.80419289,1638.98
-104.72732660,40.80420550,1639.02
-104.72732648,40.80423523,1639.18
-104.72732554,40.80446459,1640.50
-104.72732534,40.80451269,1640.83
-104.72732502,40.80459296,1641.12
-104.72732500,40.80459728,1641.14
-104.72732463,40.80468800,1641.33
-104.72732445,40.80473043,1641.44
-104.72732430,40.80476826,1641.53
-104.72732419,40.80479403,1641.57
-104.72732404,40.80483231,1641.64
-104.72732397,40.80484808,1641.70
-104.72732395,40.80485240,1641.70
-104.72732370,40.80491501,1641.82
-104.72732333,40.80500527,1642.00
-104.72732321,40.80503527,1642.02
-104.72732295,40.80509896,1642.11
-104.72732245,40.80521949,1642.37
-104.72732235,40.80524310,1642.43
-104.72732221,40.80527796,1642.54
-104.72732213,40.80529814,1642.63
-104.72732192,40.80535066,1642.81
-104.72732139,40.80547876,1643.38
-104.72732080,40.80562307,1644.03
-104.72732032,40.80573946,1644.86
-104.72731938,40.80597062,1646.34
-104.72731935,40.80597719,1646.39
-104.72731923,40.80600683,1646.64
-104.72731898,40.80606719,1647.09
-104.72731765,40.80639185,1648.82
-104.72731729,40.80648068,1648.83
-104.72731641,40.80669427,1648.28
-104.72731555,40.80690596,1647.03
-104.72731523,40.80698254,1646.47
-104.72731488,40.80706875,1645.94
-104.72731445,40.80717532,1645.29
-104.72731440,40.80718739,1645.23
-104.72731430,40.80721117,1645.06
-104.72731393,40.80730234,1644.43
-104.72731385,40.80732170,1644.25
-104.72731340,40.80743152,1643.69
-104.72731304,40.80751998,1643.24
-104.72731258,40.80763006,1642.89
-104.72731188,40.80780275,1642.64
-104.72731162,40.80786545,1642.47
-104.72731159,40.80787401,1642.43
-104.72731101,40.80801445,1642.16
-104.72731049,40.80814111,1641.97
-104.72731025,40.80820093,1641.94
-104.72730968,40.80833966,1641.95
-104.72730920,40.80845614,1641.88
-104.72730774,40.80881386,1642.28
-104.72730728,40.80892602,1642.70
-104.72730718,40.80894953,1642.80
-104.72730700,40.80899412,1642.97
-104.72730698,40.80899953,1642.99
-104.72730658,40.80909736,1643.42
-104.72730568,40.80931599,1644.85
-104.72730430,40.80965345,1646.96
-104.72730417,40.80968471,1647.10
-104.72730374,40.80978975,1647.65
-104.72730372,40.80979488,1647.70
-104.72730365,40.80981146,1647.53
-104.72730323,40.80991586,1648.28
-104.72730299,40.80997280,1648.52
-104.72730124,40.81040232,1648.89
-104.72730063,40.81054997,1648.85
-104.72730053,40.81057519,1648.83
-104.72730038,40.81061222,1648.81
-104.72730026,40.81064050,1648.78
-104.72730019,40.81065852,1648.75
-104.72729954,40.81081761,1648.25
-104.72729950,40.81082725,1648.25
-104.72729939,40.81085310,1648.16
-104.72729931,40.81087328,1648.11
-104.72729929,40.81087742,1648.07
-104.72729923,40.81089337,1648.06
-104.72729922,40.81089364,1648.02
-104.72729909,40.81092589,1647.90
-104.72729886,40.81098174,1647.64
-104.72729880,40.81099688,1647.58
-104.72729878,40.81100201,1647.55
-104.72729871,40.81102012,1647.50
-104.72729855,40.81105921,1647.29
-104.72729821,40.81114119,1646.90
-104.72729768,40.81127028,1646.18
-104.72729752,40.81131100,1645.95
-104.72729699,40.81143937,1645.16
-104.72729675,40.81149801,1644.79
-104.72729592,40.81170034,1643.58
-104.72729564,40.81176836,1643.21
-104.72729548,40.81180827,1642.96
-104.72729532,40.81184619,1642.75
-104.72729526,40.81186223,1642.72
-104.72729434,40.81208780,1642.16
-104.72729396,40.81218067,1642.32
-104.72729278,40.81246858,1643.85
-104.72729225,40.81259677,1644.54
-104.72729223,40.81260173,1644.54
-104.72729248,40.81262821,1644.65
-104.72729291,40.81266740,1644.79
-104.72729461,40.81268596,1644.87
-104.72733693,40.81269012,1645.03
-104.72739241,40.81269025,1645.15
-104.72753292,40.81269058,1645.48
-104.72753825,40.81269059,1645.45
-104.72771800,40.81269102,1645.71
-104.72773508,40.81269106,1645.70
-104.72788648,40.81269141,1645.88
-104.72834427,40.81269249,1646.52
-104.72855165,40.81269298,1647.13
-104.72872262,40.81269338,1647.90
-104.72886585,40.81269372,1648.83
-104.72919298,40.81269440,1650.74
-104.72951750,40.81269516,1652.60
-104.72999865,40.81269638,1655.70
-104.73015705,40.81269675,1656.61
-104.73017733,40.81269679,1656.74
-104.73047896,40.81269750,1658.37
-104.73062872,40.81269785,1659.10
-104.73077503,40.81269819,1659.61
-104.73120377,40.81269919,1659.70
-104.73127538,40.81269936,1659.64
-104.73135625,40.81269954,1659.46
-104.73143154,40.81269972,1659.36
-104.73176756,40.81270050,1659.03
-104.73191517,40.81270084,1658.87
-104.73205473,40.81270117,1658.74
     </coordinates>
    </LineString>
   </MultiGeometry>
  </Placemark>
 </Document>
</kml>
