<kml>
 <Document>
  <Style id="yellow">
   <LineStyle>
   <color>ff00ffff</color>
   <width>1</width>
   </LineStyle>
  </Style>
  <Style id="red">
   <LineStyle>
   <color>ffff0000</color>
   <width>2</width>
   </LineStyle>
  </Style>
  <Style id="green">
   <LineStyle>
   <color>ff00ff00</color>
   <width>1</width>
   </LineStyle>
  </Style>
  <Placemark>
  <styleUrl>#yellow</styleUrl>
   <MultiGeometry>
    <LineString>
     <coordinates>
-104.71866430,40.80366077,1632.08
-104.71876874,40.80366103,1632.23
-104.71913684,40.80366192,1632.93
-104.71917075,40.80366201,1632.97
-104.71922184,40.80366213,1632.92
-104.71938343,40.80366252,1633.15
-104.71948882,40.80366278,1633.32
-104.71955474,40.80366294,1633.41
-104.71963571,40.80366314,1633.51
-104.71971525,40.80366333,1633.72
-104.71979231,40.80366352,1633.90
-104.71997974,40.80366397,1634.32
-104.72030742,40.80366477,1634.64
-104.72035721,40.80366489,1634.72
-104.72054239,40.80366534,1635.00
-104.72064636,40.80366559,1635.09
-104.72078198,40.80366592,1635.27
-104.72096775,40.80366637,1635.71
-104.72102240,40.80366650,1635.82
-104.72109590,40.80366668,1636.11
-104.72115897,40.80366683,1636.48
-104.72120011,40.80366693,1636.67
-104.72129602,40.80366716,1637.07
-104.72131344,40.80366720,1637.07
-104.72142073,40.80366746,1637.58
-104.72150218,40.80366766,1637.78
-104.72160283,40.80366790,1638.15
-104.72175529,40.80366827,1638.43
-104.72184835,40.80366849,1638.54
-104.72193738,40.80366871,1638.75
-104.72195848,40.80366876,1638.81
-104.72202321,40.80366891,1639.03
-104.72203590,40.80366894,1639.05
-104.72218219,40.80366930,1639.38
-104.72234188,40.80366968,1639.62
-104.72235563,40.80366971,1639.63
-104.72247205,40.80366999,1639.80
-104.72256843,40.80367023,1639.93
-104.72269350,40.80367053,1639.83
-104.72280956,40.80367080,1639.79
-104.72305319,40.80367139,1639.24
-104.72310227,40.80367151,1639.08
-104.72311151,40.80367153,1639.05
-104.72320078,40.80367174,1638.79
-104.72323493,40.80367183,1638.66
-104.72330025,40.80367198,1638.44
-104.72331827,40.80367203,1638.40
-104.72342378,40.80367228,1637.99
-104.72375300,40.80367307,1636.67
-104.72386515,40.80367334,1636.06
-104.72426763,40.80367430,1634.27
-104.72434706,40.80367449,1633.96
-104.72471777,40.80367537,1632.96
-104.72492334,40.80367586,1632.52
-104.72520087,40.80367652,1632.36
-104.72525516,40.80367665,1632.43
-104.72528172,40.80367672,1632.46
-104.72554312,40.80367734,1632.94
-104.72558462,40.80367744,1633.03
-104.72574952,40.80367783,1633.42
-104.72585148,40.80367807,1633.72
-104.72607246,40.80367860,1634.30
-104.72617512,40.80367884,1634.63
-104.72634844,40.80367925,1635.24
-104.72635745,40.80367927,1635.24
-104.72646368,40.80367952,1635.65
-104.72666261,40.80368000,1636.46
-104.72686651,40.80368048,1637.42
-104.72695590,40.80368069,1637.85
-104.72702359,40.80368085,1638.19
-104.72710243,40.80368104,1638.40
-104.72713930,40.80368112,1638.70
-104.72716372,40.80368118,1638.87
-104.72727895,40.80368127,1639.39
-104.72732531,40.80368093,1639.60
-104.72732804,40.80367941,1639.64
-104.72732861,40.80365716,1639.67
-104.72732942,40.80348708,1639.80
-104.72732997,40.80335249,1639.94
-104.72733027,40.80328133,1639.87
-104.72733050,40.80322448,1639.74
-104.72733067,40.80318142,1639.63
-104.72733121,40.80305035,1639.15
-104.72733155,40.80296819,1638.82
-104.72733157,40.80296306,1638.79
-104.72733306,40.80259768,1636.67
-104.72733307,40.80259506,1636.67
-104.72733397,40.80237562,1635.34
-104.72733406,40.80235454,1635.25
-104.72733420,40.80232013,1635.04
-104.72733493,40.80214266,1634.10
-104.72733559,40.80198087,1633.27
-104.72733585,40.80191619,1633.04
-104.72733653,40.80175034,1632.27
-104.72733656,40.80174214,1632.22
-104.72733756,40.80149919,1631.14
-104.72733818,40.80134847,1630.81
-104.72733832,40.80131334,1630.73
-104.72733987,40.80093427,1630.47
-104.72734012,40.80087265,1630.44
-104.72734100,40.80065861,1630.03
-104.72734167,40.80049375,1629.65
-104.72734169,40.80048925,1629.63
-104.72734239,40.80031809,1629.35
-104.72734285,40.80020602,1629.28
-104.72734364,40.80001378,1629.15
-104.72734383,40.79996757,1629.21
-104.72734396,40.79993577,1629.25
-104.72734512,40.79965128,1629.92
-104.72734543,40.79957453,1630.01
-104.72734579,40.79948877,1629.74
-104.72734625,40.79937526,1630.38
-104.72734646,40.79932347,1630.54
-104.72734686,40.79922527,1631.06
-104.72734733,40.79911078,1631.66
-104.72734761,40.79904294,1631.98
-104.72734778,40.79900195,1632.17
-104.72734827,40.79888223,1632.92
-104.72734840,40.79884890,1633.18
-104.72734855,40.79881332,1633.40
-104.72734909,40.79868143,1634.44
-104.72734913,40.79867215,1634.48
-104.72734932,40.79862504,1634.84
-104.72734936,40.79861585,1634.91
-104.72735052,40.79833100,1636.94
-104.72735064,40.79830308,1637.10
-104.72735145,40.79810543,1638.35
-104.72735163,40.79805931,1638.46
-104.72735297,40.79773338,1639.66
-104.72735398,40.79748628,1640.02
-104.72735405,40.79746998,1640.02
-104.72735413,40.79745016,1639.95
-104.72735471,40.79730800,1640.41
-104.72735510,40.79721269,1640.90
-104.72735569,40.79706793,1641.42
-104.72735612,40.79696397,1641.58
-104.72735646,40.79687992,1641.97
-104.72735649,40.79687227,1642.00
-104.72735650,40.79687010,1642.00
-104.72735685,40.79678416,1642.14
-104.72735732,40.79667039,1642.10
-104.72735757,40.79660769,1642.07
-104.72735805,40.79649013,1641.62
-104.72735847,40.79638896,1641.08
-104.72735868,40.79633671,1640.91
-104.72735869,40.79633509,1640.90
-104.72735876,40.79631816,1640.82
-104.72735957,40.79611979,1639.82
-104.72735957,40.79611952,1639.81
-104.72735988,40.79604439,1639.54
-104.72736076,40.79582837,1638.60
-104.72736114,40.79573576,1638.19
-104.72736204,40.79551685,1637.01
-104.72736246,40.79541389,1636.36
-104.72736246,40.79541380,1636.35
-104.72736276,40.79533966,1635.76
-104.72736325,40.79521903,1634.98
-104.72736332,40.79520399,1634.92
-104.72736354,40.79514958,1634.67
-104.72736369,40.79511228,1634.52
-104.72736409,40.79501517,1634.01
-104.72736542,40.79468862,1635.12
-104.72736429,40.79467609,1635.12
-104.72736405,40.79467591,1635.12
-104.72733467,40.79467359,1634.98
-104.72732945,40.79467322,1634.98
-104.72723071,40.79467289,1634.59
-104.72701486,40.79467238,1633.83
-104.72698487,40.79467231,1633.72
-104.72695761,40.79467225,1633.63
-104.72685614,40.79467201,1633.27
-104.72673950,40.79467173,1632.77
-104.72668177,40.79467159,1632.58
-104.72620953,40.79467047,1631.11
-104.72594508,40.79466985,1630.48
-104.72587206,40.79466967,1630.32
-104.72540598,40.79466856,1629.60
-104.72533746,40.79466840,1629.44
-104.72522557,40.79466814,1629.24
-104.72512837,40.79466790,1629.02
-104.72511640,40.79466788,1629.02
-104.72456414,40.79466656,1627.81
-104.72428985,40.79466590,1627.15
-104.72401319,40.79466524,1626.56
-104.72398249,40.79466517,1626.52
-104.72367927,40.79466444,1626.06
-104.72358990,40.79466423,1625.95
-104.72340747,40.79466379,1625.61
-104.72334880,40.79466365,1625.51
-104.72328336,40.79466349,1625.38
-104.72323334,40.79466337,1625.31
-104.72316495,40.79466321,1625.21
-104.72308517,40.79466302,1625.08
-104.72279440,40.79466232,1624.60
-104.72245279,40.79466150,1624.31
-104.72237645,40.79466132,1624.24
-104.72226040,40.79466104,1624.06
-104.72213760,40.79466074,1623.59
-104.72185999,40.79466007,1623.29
-104.72178211,40.79465988,1623.23
-104.72172545,40.79465975,1623.17
-104.72151422,40.79465924,1622.77
-104.72113787,40.79465833,1622.23
-104.72102325,40.79465805,1622.25
-104.72087378,40.79465769,1622.58
-104.72034037,40.79465649,1622.97
-104.72017750,40.79465609,1622.74
-104.72012345,40.79465596,1622.77
-104.72000965,40.79465569,1622.59
-104.71951121,40.79465439,1622.10
-104.71930733,40.79465389,1621.55
-104.71924403,40.79465374,1621.40
-104.71898978,40.79465312,1620.47
-104.71868348,40.79465237,1619.35
-104.71863286,40.79465225,1619.20
-104.71852630,40.79465199,1618.76
-104.71851172,40.79465195,1618.70
-104.71843112,40.79465176,1618.38
-104.71831732,40.79465148,1617.88
-104.71811653,40.79465099,1617.11
-104.71797642,40.79465065,1616.38
-104.71782623,40.79465028,1615.74
-104.71763266,40.79464980,1614.99
-104.71757541,40.79464966,1614.70
-104.71754092,40.79464958,1614.53
-104.71752183,40.79464953,1614.42
-104.71727409,40.79464893,1613.57
-104.71727172,40.79464892,1613.56
-104.71718413,40.79464871,1613.33
-104.71700170,40.79464826,1613.15
-104.71692240,40.79464806,1613.10
-104.71680244,40.79464777,1613.04
-104.71674851,40.79464764,1612.86
-104.71643024,40.79464686,1612.85
-104.71640499,40.79464679,1612.81
-104.71631194,40.79464657,1612.77
-104.71625291,40.79464642,1612.74
-104.71585131,40.79464543,1612.61
-104.71569876,40.79464506,1612.76
-104.71562432,40.79464487,1612.79
-104.71555000,40.79464487,1612.90
-104.71554087,40.79464539,1612.93
-104.71552688,40.79464625,1612.91
-104.71551229,40.79464721,1612.94
-104.71551211,40.79466153,1612.99
-104.71551123,40.79483963,1613.43
-104.71551079,40.79494323,1613.64
-104.71550892,40.79538266,1615.14
-104.71550857,40.79546464,1615.42
-104.71550807,40.79566345,1616.10
-104.71550643,40.79599235,1617.14
-104.71550506,40.79628603,1617.98
-104.71550482,40.79634125,1618.09
-104.71550460,40.79639359,1618.19
-104.71550392,40.79655331,1618.40
-104.71550222,40.79695175,1619.38
-104.71550188,40.79703147,1619.54
-104.71550083,40.79727641,1620.30
-104.71550036,40.79738659,1620.59
-104.71549936,40.79762063,1620.83
-104.71549908,40.79768612,1620.92
-104.71549753,40.79805042,1622.06
-104.71549734,40.79809348,1622.10
-104.71549679,40.79822221,1622.38
-104.71549675,40.79823248,1622.42
-104.71549531,40.79859696,1623.48
-104.71549456,40.79874596,1623.87
-104.71549361,40.79896856,1624.36
-104.71549282,40.79915206,1624.89
-104.71549203,40.79933881,1625.44
-104.71549193,40.79936115,1625.54
-104.71549124,40.79952384,1626.07
-104.71549112,40.79955042,1626.18
-104.71549077,40.79963239,1626.59
-104.71549067,40.79965735,1626.72
-104.71549040,40.79972031,1627.02
-104.71548957,40.79991526,1628.00
-104.71548931,40.79997471,1628.55
-104.71548819,40.80023803,1630.36
-104.71548767,40.80035865,1631.44
-104.71548762,40.80037054,1631.55
-104.71548698,40.80052134,1632.99
-104.71548694,40.80052990,1633.07
-104.71548674,40.80057684,1633.45
-104.71548660,40.80061080,1633.80
-104.71548653,40.80062629,1633.94
-104.71548631,40.80067719,1634.38
-104.71548608,40.80073196,1634.85
-104.71548607,40.80073494,1634.87
-104.71548587,40.80077998,1635.33
-104.71548580,40.80079709,1635.49
-104.71548510,40.80096105,1637.06
-104.71548499,40.80098591,1637.26
-104.71548449,40.80110311,1637.97
-104.71548306,40.80143795,1637.27
-104.71548281,40.80149678,1637.00
-104.71548220,40.80164064,1636.16
-104.71548086,40.80195441,1634.29
-104.71548048,40.80204197,1633.67
-104.71548030,40.80208575,1633.47
-104.71548019,40.80210980,1633.30
-104.71547978,40.80220709,1632.70
-104.71547857,40.80249131,1631.30
-104.71547830,40.80255275,1631.08
-104.71547734,40.80277940,1630.21
-104.71547723,40.80280381,1630.06
-104.71547688,40.80288597,1629.76
-104.71547675,40.80291588,1629.66
-104.71547641,40.80299542,1629.42
-104.71547610,40.80306767,1629.18
-104.71547503,40.80331856,1628.26
-104.71547479,40.80337585,1628.09
-104.71547422,40.80350935,1627.67
-104.71547374,40.80362187,1627.38
-104.71547363,40.80364754,1627.32
-104.71547562,40.80365214,1627.31
-104.71552529,40.80365308,1627.34
-104.71558848,40.80365323,1627.32
-104.71572659,40.80365357,1627.41
-104.71621206,40.80365477,1627.80
-104.71641810,40.80365527,1628.08
-104.71656108,40.80365562,1628.36
-104.71676261,40.80365612,1628.57
-104.71684607,40.80365632,1628.71
-104.71711459,40.80365698,1629.29
-104.71725958,40.80365734,1629.50
-104.71728128,40.80365739,1629.53
-104.71732395,40.80365750,1629.58
-104.71749585,40.80365792,1630.04
-104.71753770,40.80365802,1630.17
-104.71757469,40.80365811,1630.27
-104.71759710,40.80365816,1630.27
-104.71772999,40.80365849,1630.46
-104.71780800,40.80365868,1630.58
-104.71803704,40.80365924,1631.00
-104.71817954,40.80365959,1631.23
-104.71826525,40.80365980,1631.35
-104.71833781,40.80365998,1631.42
-104.71840894,40.80366015,1631.56
-104.71846027,40.80366027,1631.68
-104.71849500,40.80366036,1631.80
-104.71852725,40.80366044,1631.84
-104.71859305,40.80366060,1631.94
-104.71866430,40.80366077,1632.08
     </coordinates>
    </LineString>
   </MultiGeometry>
  </Placemark>
 </Document>
</kml>
