<kml>
 <Document>
  <Style id="yellow">
   <LineStyle>
   <color>ff00ffff</color>
   <width>1</width>
   </LineStyle>
  </Style>
  <Style id="red">
   <LineStyle>
   <color>ffff0000</color>
   <width>2</width>
   </LineStyle>
  </Style>
  <Style id="green">
   <LineStyle>
   <color>ff00ff00</color>
   <width>1</width>
   </LineStyle>
  </Style>
  <Placemark>
  <styleUrl>#yellow</styleUrl>
   <MultiGeometry>
    <LineString>
     <coordinates>
-104.74502969,40.80372204,1652.33
-104.74508873,40.80372218,1652.18
-104.74520313,40.80372243,1651.98
-104.74553721,40.80372317,1652.50
-104.74570674,40.80372354,1653.10
-104.74585694,40.80372387,1653.19
-104.74604923,40.80372429,1652.95
-104.74638770,40.80372504,1652.95
-104.74649961,40.80372528,1652.86
-104.74672533,40.80372578,1652.23
-104.74703736,40.80372646,1650.58
-104.74723594,40.80372690,1649.82
-104.74729165,40.80372702,1649.61
-104.74729462,40.80372703,1649.59
-104.74744719,40.80372736,1649.19
-104.74746450,40.80372740,1649.13
-104.74757428,40.80372764,1649.06
-104.74761435,40.80372773,1649.01
-104.74768454,40.80372788,1648.93
-104.74768513,40.80372788,1648.92
-104.74774476,40.80372801,1648.75
-104.74792306,40.80372840,1648.48
-104.74799775,40.80372857,1648.36
-104.74830705,40.80372924,1647.74
-104.74838933,40.80372942,1647.47
-104.74854653,40.80372976,1647.60
-104.74856632,40.80372981,1647.64
-104.74861932,40.80372992,1647.54
-104.74869554,40.80373009,1647.19
-104.74907728,40.80373092,1647.02
-104.74909471,40.80373096,1646.95
-104.74914438,40.80373106,1646.22
-104.74929601,40.80373139,1645.31
-104.74959689,40.80373205,1644.80
-104.74975611,40.80373239,1644.51
-104.75008165,40.80373310,1644.28
-104.75016132,40.80373327,1644.18
-104.75022842,40.80373342,1644.11
-104.75025415,40.80373347,1644.08
-104.75063837,40.80373430,1643.87
-104.75071389,40.80373447,1643.84
-104.75090416,40.80373488,1643.85
-104.75098051,40.80373486,1643.93
-104.75098490,40.80373460,1643.91
-104.75100838,40.80373303,1643.97
-104.75103708,40.80373111,1644.05
-104.75103781,40.80372607,1644.05
-104.75103855,40.80371751,1644.08
-104.75103868,40.80371309,1644.08
-104.75103923,40.80363184,1644.71
-104.75103959,40.80356689,1645.40
-104.75104060,40.80329510,1647.57
-104.75104125,40.80312052,1647.53
-104.75104185,40.80292990,1646.28
-104.75104286,40.80265938,1645.25
-104.75104450,40.80225165,1645.33
-104.75104458,40.80222958,1645.39
-104.75104494,40.80213328,1645.72
-104.75104652,40.80171187,1644.99
-104.75104726,40.80151404,1644.11
-104.75104752,40.80144359,1643.95
-104.75104760,40.80142260,1643.89
-104.75104817,40.80127018,1643.65
-104.75104823,40.80125243,1643.61
-104.75104837,40.80121667,1643.56
-104.75104868,40.80113325,1643.33
-104.75104869,40.80112983,1643.32
-104.75104871,40.80112442,1643.36
-104.75104931,40.80096597,1643.08
-104.75105053,40.80063761,1642.34
-104.75105106,40.80049653,1642.60
-104.75105158,40.80035708,1643.02
-104.75105173,40.80031763,1643.12
-104.75105258,40.80005710,1644.03
-104.75105347,40.79985099,1645.14
-104.75105366,40.79980027,1645.39
-104.75105420,40.79965640,1646.10
-104.75105440,40.79960109,1646.40
-104.75105528,40.79936651,1647.27
-104.75105610,40.79911671,1647.38
-104.75105709,40.79888240,1646.59
-104.75105720,40.79885393,1646.46
-104.75105733,40.79881817,1646.39
-104.75105751,40.79876907,1646.27
-104.75105784,40.79868016,1645.83
-104.75105845,40.79851701,1645.88
-104.75105848,40.79851062,1645.87
-104.75105920,40.79831676,1645.86
-104.75105972,40.79817721,1645.55
-104.75105983,40.79814875,1645.50
-104.75105993,40.79812190,1645.51
-104.75106060,40.79794191,1645.24
-104.75106095,40.79784822,1644.82
-104.75106138,40.79773418,1644.45
-104.75106191,40.79759220,1643.86
-104.75106271,40.79737663,1643.17
-104.75106327,40.79722754,1642.68
-104.75106347,40.79717439,1642.45
-104.75106379,40.79708854,1641.97
-104.75106476,40.79682829,1640.67
-104.75106484,40.79680757,1640.63
-104.75106487,40.79679847,1640.61
-104.75106532,40.79668019,1640.61
-104.75106576,40.79656127,1640.87
-104.75106593,40.79651677,1641.17
-104.75106645,40.79637795,1642.13
-104.75106697,40.79623823,1642.92
-104.75106751,40.79609337,1643.44
-104.75106764,40.79605878,1643.52
-104.75106787,40.79599752,1643.76
-104.75106810,40.79593537,1643.85
-104.75106818,40.79591311,1643.85
-104.75106873,40.79576601,1643.59
-104.75106886,40.79573177,1643.52
-104.75106916,40.79565016,1643.38
-104.75107081,40.79520910,1642.38
-104.75107154,40.79501308,1642.33
-104.75107181,40.79494128,1642.38
-104.75107201,40.79488723,1642.55
-104.75107206,40.79487489,1642.57
-104.75107219,40.79483939,1642.67
-104.75107234,40.79479994,1642.74
-104.75107259,40.79473237,1642.96
-104.75107071,40.79472760,1642.98
-104.75098253,40.79472659,1643.11
-104.75072755,40.79472604,1643.50
-104.75061495,40.79472580,1643.67
-104.75046334,40.79472547,1644.04
-104.75036863,40.79472527,1644.21
-104.75036578,40.79472526,1644.22
-104.75020861,40.79472492,1644.52
-104.75014685,40.79472479,1644.63
-104.75002167,40.79472452,1644.81
-104.74993254,40.79472432,1644.96
-104.74985904,40.79472416,1645.02
-104.74983462,40.79472411,1645.02
-104.74951695,40.79472342,1645.11
-104.74935207,40.79472306,1645.31
-104.74908323,40.79472248,1645.85
-104.74900179,40.79472230,1646.02
-104.74893731,40.79472216,1646.23
-104.74877622,40.79472181,1646.79
-104.74859687,40.79472142,1647.33
-104.74849517,40.79472120,1647.55
-104.74829247,40.79472076,1647.82
-104.74814371,40.79472043,1647.98
-104.74797480,40.79472006,1648.11
-104.74792264,40.79471995,1648.19
-104.74790723,40.79471992,1648.25
-104.74767040,40.79471940,1649.00
-104.74762204,40.79471929,1649.19
-104.74752863,40.79471909,1649.43
-104.74745028,40.79471892,1649.60
-104.74744518,40.79471891,1649.60
-104.74734834,40.79471869,1649.76
-104.74731301,40.79471862,1649.77
-104.74726477,40.79471851,1649.84
-104.74715311,40.79471827,1649.90
-104.74689458,40.79471770,1649.88
-104.74660405,40.79471706,1649.89
-104.74645564,40.79471674,1649.91
-104.74644035,40.79471670,1649.90
-104.74637208,40.79471655,1649.94
-104.74602263,40.79471578,1650.41
-104.74591726,40.79471555,1650.78
-104.74582397,40.79471535,1651.16
-104.74573850,40.79471516,1651.60
-104.74565221,40.79471497,1651.95
-104.74554956,40.79471474,1652.46
-104.74546563,40.79471456,1652.81
-104.74520438,40.79471398,1653.73
-104.74510481,40.79471376,1654.01
-104.74476959,40.79471302,1654.60
-104.74460198,40.79471265,1654.97
-104.74442015,40.79471225,1655.09
-104.74409667,40.79471153,1655.25
-104.74393996,40.79471118,1655.28
-104.74384774,40.79471098,1655.35
-104.74380602,40.79471088,1655.23
-104.74344614,40.79471008,1654.95
-104.74321168,40.79470956,1655.17
-104.74320445,40.79470955,1655.20
-104.74297176,40.79470903,1655.83
-104.74290005,40.79470887,1655.91
-104.74285868,40.79470878,1655.99
-104.74273078,40.79470849,1656.07
-104.74263654,40.79470828,1655.97
-104.74206805,40.79470710,1654.49
-104.74151294,40.79470577,1652.52
-104.74130076,40.79470529,1651.57
-104.74096436,40.79470454,1650.67
-104.74061907,40.79470376,1651.43
-104.74052199,40.79470355,1651.51
-104.74046793,40.79470342,1651.49
-104.74037678,40.79470322,1651.34
-104.74030661,40.79470306,1651.25
-104.74008625,40.79470257,1650.89
-104.74007665,40.79470254,1650.90
-104.73998703,40.79470234,1650.71
-104.73976739,40.79470185,1650.09
-104.73969176,40.79470168,1649.80
-104.73955165,40.79470136,1649.23
-104.73955106,40.79470136,1649.22
-104.73939424,40.79470100,1648.69
-104.73933260,40.79470087,1648.53
-104.73931446,40.79470082,1648.50
-104.73922118,40.79470070,1648.41
-104.73922057,40.79470322,1648.43
-104.73922008,40.79470800,1648.45
-104.73921967,40.79472250,1648.54
-104.73921937,40.79473682,1648.64
-104.73921893,40.79476024,1648.77
-104.73921799,40.79499861,1650.07
-104.73921719,40.79520301,1650.79
-104.73921685,40.79529102,1651.05
-104.73921641,40.79540417,1651.52
-104.73921629,40.79543363,1651.68
-104.73921625,40.79544336,1651.71
-104.73921625,40.79544381,1651.70
-104.73921625,40.79544435,1651.71
-104.73921620,40.79545822,1651.80
-104.73921599,40.79550993,1652.07
-104.73921522,40.79570658,1653.37
-104.73921515,40.79572442,1653.48
-104.73921508,40.79574226,1653.63
-104.73921508,40.79574433,1653.62
-104.73921464,40.79585495,1654.43
-104.73921458,40.79587207,1654.55
-104.73921454,40.79588099,1654.60
-104.73921315,40.79623763,1656.50
-104.73921286,40.79630979,1656.82
-104.73921273,40.79634447,1656.91
-104.73921197,40.79653861,1656.94
-104.73921189,40.79655761,1656.96
-104.73921186,40.79656698,1656.92
-104.73921148,40.79666220,1656.81
-104.73921068,40.79686705,1656.46
-104.73921000,40.79704227,1656.40
-104.73920976,40.79710407,1656.47
-104.73920950,40.79716983,1656.57
-104.73920932,40.79721442,1656.70
-104.73920924,40.79723532,1656.76
-104.73920810,40.79752665,1656.72
-104.73920793,40.79756990,1656.65
-104.73920766,40.79763926,1656.44
-104.73920728,40.79773628,1656.14
-104.73920678,40.79786438,1655.78
-104.73920659,40.79791258,1655.46
-104.73920640,40.79796131,1655.10
-104.73920639,40.79796393,1655.06
-104.73920620,40.79801329,1654.66
-104.73920611,40.79803518,1654.50
-104.73920573,40.79813157,1653.88
-104.73920570,40.79813941,1653.80
-104.73920483,40.79836246,1652.28
-104.73920422,40.79851768,1651.17
-104.73920375,40.79863929,1650.38
-104.73920364,40.79866595,1650.17
-104.73920348,40.79870856,1649.95
-104.73920331,40.79875190,1649.65
-104.73920319,40.79878162,1649.45
-104.73920248,40.79896215,1648.69
-104.73920220,40.79903350,1648.45
-104.73920192,40.79910701,1648.35
-104.73920178,40.79914268,1648.33
-104.73920110,40.79931501,1648.33
-104.73919980,40.79964860,1648.44
-104.73919933,40.79976886,1648.97
-104.73919823,40.80004857,1650.28
-104.73919810,40.80008100,1650.28
-104.73919791,40.80012992,1650.35
-104.73919706,40.80034720,1650.28
-104.73919695,40.80037711,1650.29
-104.73919665,40.80045251,1650.26
-104.73919660,40.80046431,1650.25
-104.73919625,40.80055404,1650.20
-104.73919537,40.80077835,1650.14
-104.73919533,40.80078925,1650.13
-104.73919528,40.80080195,1650.13
-104.73919484,40.80091555,1650.18
-104.73919441,40.80102401,1650.20
-104.73919438,40.80103257,1650.21
-104.73919396,40.80113941,1650.21
-104.73919287,40.80141822,1649.74
-104.73919241,40.80153695,1649.43
-104.73919213,40.80160821,1649.31
-104.73919205,40.80162839,1649.30
-104.73919186,40.80167766,1649.23
-104.73919140,40.80179495,1649.19
-104.73919034,40.80206494,1649.22
-104.73919029,40.80207656,1649.21
-104.73918918,40.80236104,1648.55
-104.73918899,40.80240870,1648.37
-104.73918843,40.80255184,1647.71
-104.73918812,40.80263184,1647.39
-104.73918802,40.80265814,1647.29
-104.73918709,40.80289498,1646.61
-104.73918692,40.80293741,1646.51
-104.73918683,40.80296056,1646.43
-104.73918678,40.80297461,1646.38
-104.73918637,40.80307794,1646.20
-104.73918626,40.80310721,1646.18
-104.73918548,40.80330594,1646.44
-104.73918452,40.80355079,1647.03
-104.73918451,40.80355286,1647.07
-104.73918433,40.80369159,1647.32
-104.73918594,40.80370358,1647.36
-104.73918687,40.80370799,1647.40
-104.73918770,40.80370845,1647.39
-104.73922054,40.80370906,1647.32
-104.73937667,40.80370941,1646.95
-104.73945313,40.80370959,1646.73
-104.73964258,40.80371002,1646.24
-104.73965278,40.80371004,1646.23
-104.73994821,40.80371070,1646.07
-104.74017820,40.80371122,1646.19
-104.74033125,40.80371157,1646.39
-104.74047126,40.80371188,1646.60
-104.74051417,40.80371198,1646.66
-104.74059076,40.80371215,1646.69
-104.74103485,40.80371315,1647.44
-104.74110373,40.80371330,1647.58
-104.74117261,40.80371346,1647.75
-104.74136122,40.80371388,1647.93
-104.74161777,40.80371445,1647.85
-104.74174000,40.80371473,1647.81
-104.74193312,40.80371516,1647.92
-104.74204894,40.80371542,1647.97
-104.74245083,40.80371632,1648.36
-104.74247561,40.80371637,1648.41
-104.74254129,40.80371652,1648.54
-104.74260270,40.80371666,1648.68
-104.74267750,40.80371682,1648.89
-104.74274223,40.80371697,1649.03
-104.74284265,40.80371719,1649.28
-104.74285628,40.80371722,1649.30
-104.74290880,40.80371734,1649.50
-104.74291117,40.80371734,1649.51
-104.74302071,40.80371759,1649.83
-104.74307844,40.80371772,1650.07
-104.74314460,40.80371786,1650.22
-104.74320079,40.80371799,1650.39
-104.74355147,40.80371877,1651.63
-104.74360078,40.80371888,1651.83
-104.74366101,40.80371901,1652.07
-104.74412336,40.80372004,1654.07
-104.74445436,40.80372077,1654.43
-104.74446348,40.80372079,1654.41
-104.74451008,40.80372090,1654.25
-104.74452383,40.80372093,1654.20
-104.74473686,40.80372140,1653.48
-104.74480100,40.80372154,1653.17
-104.74484072,40.80372163,1653.04
-104.74490995,40.80372178,1652.73
-104.74502969,40.80372204,1652.33
     </coordinates>
    </LineString>
   </MultiGeometry>
  </Placemark>
 </Document>
</kml>
