<kml>
 <Document>
  <Style id="yellow">
   <LineStyle>
   <color>ff00ffff</color>
   <width>1</width>
   </LineStyle>
  </Style>
  <Style id="red">
   <LineStyle>
   <color>ffff0000</color>
   <width>2</width>
   </LineStyle>
  </Style>
  <Style id="green">
   <LineStyle>
   <color>ff00ff00</color>
   <width>1</width>
   </LineStyle>
  </Style>
  <Placemark>
  <styleUrl>#yellow</styleUrl>
   <MultiGeometry>
    <LineString>
     <coordinates>
-104.76848043,40.81278001,1647.30
-104.76874637,40.81278054,1647.65
-104.76909330,40.81278124,1648.19
-104.76931870,40.81278169,1648.63
-104.76944000,40.81278193,1648.88
-104.76952548,40.81278210,1649.09
-104.76996905,40.81278299,1649.65
-104.77050379,40.81278396,1649.35
-104.77109627,40.81278523,1649.11
-104.77137349,40.81278578,1647.95
-104.77164868,40.81278632,1646.13
-104.77174591,40.81278652,1645.39
-104.77183424,40.81278669,1644.87
-104.77191309,40.81278685,1644.38
-104.77208430,40.81278718,1643.59
-104.77224674,40.81278751,1642.85
-104.77234468,40.81278770,1642.41
-104.77259355,40.81278819,1641.37
-104.77299917,40.81278899,1639.83
-104.77301459,40.81278902,1639.80
-104.77307209,40.81278913,1639.62
-104.77322078,40.81278942,1639.38
-104.77330520,40.81278959,1639.30
-104.77342566,40.81278983,1639.26
-104.77353617,40.81279004,1639.32
-104.77361537,40.81279020,1639.61
-104.77380058,40.81279056,1639.75
-104.77381777,40.81279060,1639.76
-104.77384871,40.81279066,1639.82
-104.77400795,40.81279097,1640.28
-104.77401898,40.81279099,1640.28
-104.77420987,40.81279136,1641.14
-104.77438749,40.81279171,1641.77
-104.77461111,40.81279215,1642.75
-104.77466589,40.81279226,1643.00
-104.77471343,40.81279235,1643.22
-104.77471593,40.81278947,1643.25
-104.77471784,40.81278560,1643.28
-104.77471894,40.81277569,1643.31
-104.77471947,40.81258426,1644.18
-104.77472052,40.81230897,1645.20
-104.77472138,40.81205457,1645.39
-104.77472145,40.81203538,1645.49
-104.77472151,40.81201556,1645.41
-104.77472180,40.81193169,1645.48
-104.77472216,40.81182305,1645.47
-104.77472261,40.81169180,1645.51
-104.77472269,40.81166891,1645.58
-104.77472298,40.81158315,1645.71
-104.77472305,40.81156063,1645.76
-104.77472309,40.81154955,1645.78
-104.77472330,40.81148712,1645.96
-104.77472339,40.81146145,1646.07
-104.77472344,40.81144496,1646.08
-104.77472352,40.81142136,1646.17
-104.77472397,40.81128894,1646.66
-104.77472416,40.81123344,1646.77
-104.77472478,40.81105093,1647.40
-104.77472499,40.81098760,1647.45
-104.77472521,40.81092310,1647.45
-104.77472535,40.81088004,1647.45
-104.77472536,40.81087833,1647.47
-104.77472578,40.81075275,1647.16
-104.77472619,40.81063357,1646.88
-104.77472643,40.81056114,1646.47
-104.77472670,40.81048133,1646.21
-104.77472672,40.81047754,1646.17
-104.77472676,40.81046385,1646.18
-104.77472712,40.81035926,1645.78
-104.77472722,40.81032963,1645.70
-104.77472743,40.81026747,1645.67
-104.77472791,40.81009027,1646.69
-104.77472905,40.80975353,1651.33
-104.77472983,40.80955598,1651.01
-104.77473040,40.80938932,1649.11
-104.77473056,40.80934176,1648.78
-104.77473103,40.80920267,1647.48
-104.77473111,40.80917807,1647.23
-104.77473147,40.80907114,1646.46
-104.77473192,40.80893944,1645.98
-104.77473247,40.80877539,1645.41
-104.77473266,40.80871963,1645.23
-104.77473275,40.80869261,1645.14
-104.77473297,40.80862675,1644.92
-104.77473322,40.80855361,1644.69
-104.77473330,40.80852982,1644.62
-104.77473331,40.80852667,1644.60
-104.77473361,40.80843839,1644.34
-104.77473422,40.80825714,1643.80
-104.77473445,40.80819038,1643.71
-104.77473470,40.80811579,1643.69
-104.77473472,40.80810994,1643.66
-104.77473476,40.80809850,1643.72
-104.77473493,40.80804832,1643.82
-104.77473504,40.80801562,1643.92
-104.77473549,40.80788211,1644.27
-104.77473551,40.80787779,1644.23
-104.77473563,40.80784212,1644.37
-104.77473569,40.80782446,1644.41
-104.77473638,40.80762024,1644.34
-104.77473640,40.80761402,1644.29
-104.77473659,40.80755799,1644.19
-104.77473716,40.80738890,1643.49
-104.77473731,40.80734404,1643.30
-104.77473766,40.80724089,1642.76
-104.77473814,40.80709946,1641.78
-104.77473818,40.80708775,1641.72
-104.77473837,40.80703198,1641.36
-104.77473848,40.80699775,1641.16
-104.77473940,40.80672732,1641.03
-104.77473976,40.80662039,1641.15
-104.77473981,40.80660570,1641.18
-104.77474000,40.80654958,1641.55
-104.77474010,40.80651850,1641.86
-104.77474025,40.80647643,1642.24
-104.77474072,40.80633698,1643.60
-104.77474116,40.80620591,1644.75
-104.77474154,40.80609492,1645.62
-104.77474155,40.80608952,1645.68
-104.77474272,40.80574440,1646.76
-104.77474331,40.80556973,1646.66
-104.77474349,40.80551667,1646.46
-104.77474377,40.80543280,1646.10
-104.77474417,40.80531578,1645.32
-104.77474434,40.80526569,1645.13
-104.77474477,40.80513912,1645.12
-104.77474478,40.80513462,1645.16
-104.77474539,40.80495472,1645.83
-104.77474573,40.80485500,1646.17
-104.77474690,40.80450772,1648.25
-104.77474800,40.80418351,1650.60
-104.77474802,40.80417684,1650.66
-104.77474817,40.80413306,1650.98
-104.77474868,40.80398253,1651.97
-104.77474875,40.80396064,1652.12
-104.77474900,40.80388677,1652.69
-104.77474908,40.80386479,1652.83
-104.77474909,40.80382506,1653.11
-104.77474899,40.80382118,1653.16
-104.77474855,40.80380965,1653.19
-104.77474519,40.80378730,1653.33
-104.77474460,40.80378703,1653.34
-104.77454022,40.80378357,1652.98
-104.77453548,40.80378356,1652.95
-104.77449802,40.80378349,1652.82
-104.77417983,40.80378287,1652.45
-104.77417449,40.80378286,1652.49
-104.77411889,40.80378275,1652.40
-104.77383164,40.80378218,1652.16
-104.77380164,40.80378213,1652.15
-104.77350111,40.80378154,1652.20
-104.77341457,40.80378137,1652.09
-104.77317557,40.80378090,1650.50
-104.77305500,40.80378066,1649.58
-104.77281079,40.80378018,1648.31
-104.77280510,40.80378017,1648.27
-104.77262181,40.80377981,1647.70
-104.77223605,40.80377905,1647.24
-104.77223130,40.80377904,1647.19
-104.77177322,40.80377813,1646.30
-104.77176848,40.80377812,1646.25
-104.77169272,40.80377797,1645.59
-104.77148940,40.80377757,1644.48
-104.77130766,40.80377721,1643.52
-104.77122195,40.80377704,1643.20
-104.77113517,40.80377687,1642.84
-104.77095841,40.80377652,1642.51
-104.77077880,40.80377616,1642.37
-104.77077335,40.80377615,1642.38
-104.77064306,40.80377589,1642.10
-104.77043500,40.80377548,1641.62
-104.77035948,40.80377533,1641.47
-104.77028195,40.80377517,1641.36
-104.76986465,40.80377434,1640.82
-104.76949975,40.80377361,1641.43
-104.76939032,40.80377339,1641.32
-104.76938546,40.80377338,1641.26
-104.76938333,40.80377338,1641.25
-104.76921486,40.80377304,1640.48
-104.76905695,40.80377273,1639.43
-104.76875251,40.80377212,1638.43
-104.76874718,40.80377211,1638.43
-104.76871220,40.80377204,1638.32
-104.76853959,40.80377169,1637.83
-104.76837220,40.80377135,1637.28
-104.76823752,40.80377108,1636.83
-104.76779698,40.80377020,1635.63
-104.76769894,40.80377000,1635.37
-104.76759058,40.80376978,1635.11
-104.76757410,40.80376975,1635.08
-104.76754660,40.80376969,1634.98
-104.76735490,40.80376931,1634.54
-104.76726385,40.80376912,1634.31
-104.76719426,40.80376898,1634.13
-104.76714222,40.80376888,1633.97
-104.76712550,40.80376884,1633.91
-104.76681099,40.80376821,1632.75
-104.76667038,40.80376793,1632.29
-104.76655551,40.80376769,1631.72
-104.76646884,40.80376752,1631.35
-104.76635373,40.80376728,1630.94
-104.76627975,40.80376713,1630.59
-104.76623079,40.80376704,1630.50
-104.76614318,40.80376686,1630.27
-104.76613476,40.80376684,1630.26
-104.76610145,40.80376677,1630.28
-104.76602890,40.80376663,1630.23
-104.76596773,40.80376650,1630.28
-104.76594058,40.80376645,1630.32
-104.76592030,40.80376641,1630.34
-104.76587276,40.80376631,1630.50
-104.76581598,40.80376619,1630.65
-104.76578539,40.80376613,1630.67
-104.76558397,40.80376572,1630.75
-104.76540686,40.80376536,1630.52
-104.76537212,40.80376529,1630.49
-104.76524871,40.80376504,1630.48
-104.76522263,40.80376499,1630.50
-104.76521682,40.80376498,1630.47
-104.76514984,40.80376484,1630.45
-104.76505167,40.80376464,1630.51
-104.76501148,40.80376456,1630.54
-104.76496809,40.80376447,1630.59
-104.76487432,40.80376428,1630.65
-104.76483046,40.80376419,1630.66
-104.76466508,40.80376385,1630.89
-104.76464753,40.80376382,1630.87
-104.76452957,40.80376358,1630.77
-104.76445583,40.80376343,1630.71
-104.76443058,40.80376337,1630.81
-104.76441446,40.80376334,1630.87
-104.76436206,40.80376323,1630.98
-104.76425572,40.80376302,1631.16
-104.76421327,40.80376293,1631.20
-104.76408927,40.80376268,1631.34
-104.76401529,40.80376253,1631.42
-104.76392211,40.80376234,1631.45
-104.76373586,40.80376195,1631.56
-104.76361115,40.80376170,1631.43
-104.76351287,40.80376150,1631.26
-104.76336978,40.80376120,1631.03
-104.76324387,40.80376095,1630.82
-104.76321447,40.80376089,1630.80
-104.76313054,40.80376071,1630.54
-104.76304909,40.80376055,1630.39
-104.76301104,40.80376047,1630.34
-104.76300238,40.80376045,1630.32
-104.76296113,40.80376036,1630.28
-104.76289664,40.80376032,1630.27
-104.76289470,40.80376996,1630.28
-104.76289454,40.80378194,1630.27
-104.76289429,40.80381977,1630.25
-104.76289345,40.80398805,1630.45
-104.76289327,40.80404102,1630.40
-104.76289293,40.80413435,1630.45
-104.76289285,40.80415831,1630.47
-104.76289166,40.80449144,1630.86
-104.76289166,40.80449253,1630.87
-104.76289155,40.80452288,1630.89
-104.76289137,40.80457396,1630.91
-104.76289131,40.80459162,1630.92
-104.76289101,40.80467432,1631.00
-104.76289083,40.80472431,1631.07
-104.76289039,40.80484908,1631.08
-104.76289010,40.80492908,1631.18
-104.76288993,40.80497889,1631.24
-104.76288972,40.80503583,1631.26
-104.76288953,40.80509096,1631.30
-104.76288947,40.80510708,1631.35
-104.76288920,40.80518239,1631.44
-104.76288910,40.80521293,1631.47
-104.76288899,40.80524275,1631.50
-104.76288839,40.80541157,1631.69
-104.76288810,40.80549256,1631.82
-104.76288715,40.80579344,1632.50
-104.76288635,40.80598388,1632.86
-104.76288555,40.80620909,1633.24
-104.76288455,40.80648979,1633.32
-104.76288427,40.80656808,1633.44
-104.76288416,40.80660033,1633.30
-104.76288402,40.80663771,1633.28
-104.76288401,40.80664204,1633.29
-104.76288389,40.80667663,1633.25
-104.76288376,40.80671194,1633.26
-104.76288370,40.80672861,1633.31
-104.76288366,40.80674059,1633.32
-104.76288344,40.80680122,1633.37
-104.76288337,40.80682121,1633.43
-104.76288215,40.80716372,1633.54
-104.76288211,40.80717408,1633.56
-104.76288207,40.80718732,1633.58
-104.76288199,40.80720957,1633.66
-104.76288179,40.80726452,1633.72
-104.76288161,40.80731641,1633.87
-104.76288156,40.80733064,1633.86
-104.76288124,40.80742037,1634.08
-104.76288118,40.80743604,1634.10
-104.76288101,40.80748550,1634.24
-104.76288091,40.80751361,1634.23
-104.76288078,40.80754901,1634.32
-104.76288061,40.80759729,1634.41
-104.76288044,40.80764495,1634.55
-104.76288006,40.80775215,1634.74
-104.76287966,40.80786394,1634.89
-104.76287950,40.80790980,1634.92
-104.76287922,40.80798673,1635.04
-104.76287886,40.80808762,1635.09
-104.76287866,40.80814609,1635.09
-104.76287794,40.80834725,1634.92
-104.76287777,40.80839490,1634.90
-104.76287767,40.80842247,1634.92
-104.76287736,40.80850904,1634.88
-104.76287682,40.80866137,1635.11
-104.76287654,40.80874092,1635.35
-104.76287642,40.80877425,1635.41
-104.76287525,40.80910288,1636.44
-104.76287525,40.80910369,1636.44
-104.76287480,40.80923017,1636.88
-104.76287409,40.80942952,1637.59
-104.76287368,40.80954321,1637.91
-104.76287339,40.80962564,1637.98
-104.76287210,40.80998616,1638.18
-104.76287209,40.80999156,1638.19
-104.76287159,40.81013029,1637.94
-104.76287151,40.81015389,1637.97
-104.76287050,40.81046937,1637.91
-104.76286904,40.81084791,1637.98
-104.76286901,40.81085466,1638.00
-104.76286857,40.81097817,1638.08
-104.76286852,40.81099222,1638.10
-104.76286790,40.81116753,1638.16
-104.76286702,40.81141310,1638.54
-104.76286695,40.81143301,1638.61
-104.76286693,40.81144102,1638.59
-104.76286690,40.81144670,1638.62
-104.76286650,40.81156021,1638.63
-104.76286647,40.81156948,1638.66
-104.76286611,40.81167002,1639.18
-104.76286592,40.81172452,1639.36
-104.76286550,40.81184019,1639.91
-104.76286486,40.81202162,1640.51
-104.76286467,40.81207513,1640.60
-104.76286450,40.81212125,1640.43
-104.76286449,40.81212513,1640.39
-104.76286431,40.81217548,1640.23
-104.76286395,40.81227701,1639.77
-104.76286344,40.81242015,1639.30
-104.76286299,40.81254519,1639.08
-104.76286258,40.81272896,1639.02
-104.76286261,40.81275166,1639.01
-104.76286319,40.81275536,1639.02
-104.76286588,40.81276618,1639.02
-104.76297270,40.81276883,1639.50
-104.76301527,40.81276891,1639.69
-104.76313822,40.81276917,1640.42
-104.76325703,40.81276941,1641.01
-104.76326960,40.81276944,1641.01
-104.76348575,40.81276988,1642.01
-104.76361712,40.81277015,1642.42
-104.76380031,40.81277052,1643.08
-104.76394034,40.81277081,1643.34
-104.76409946,40.81277114,1643.42
-104.76427743,40.81277150,1643.51
-104.76443548,40.81277182,1643.65
-104.76477861,40.81277252,1644.18
-104.76493832,40.81277285,1644.43
-104.76513159,40.81277324,1644.85
-104.76526759,40.81277352,1645.20
-104.76540287,40.81277379,1645.66
-104.76540762,40.81277380,1645.61
-104.76541236,40.81277381,1645.61
-104.76541722,40.81277382,1645.63
-104.76542244,40.81277383,1645.66
-104.76542718,40.81277384,1645.66
-104.76543252,40.81277385,1645.68
-104.76546666,40.81277392,1645.77
-104.76564736,40.81277429,1646.31
-104.76617214,40.81277536,1648.14
-104.76636588,40.81277575,1648.37
-104.76670819,40.81277644,1648.31
-104.76691877,40.81277687,1648.05
-104.76747426,40.81277799,1647.24
-104.76766005,40.81277827,1647.04
-104.76783044,40.81277708,1646.98
-104.76805170,40.81277527,1646.99
-104.76844296,40.81277993,1647.27
-104.76844758,40.81277994,1647.27
-104.76845232,40.81277995,1647.29
-104.76845731,40.81277996,1647.28
-104.76846217,40.81277997,1647.29
-104.76846679,40.81277998,1647.28
-104.76847130,40.81277999,1647.28
-104.76847580,40.81278000,1647.29
-104.76848043,40.81278001,1647.30
     </coordinates>
    </LineString>
   </MultiGeometry>
  </Placemark>
 </Document>
</kml>
