<kml>
 <Document>
  <Style id="yellow">
   <LineStyle>
   <color>ff00ffff</color>
   <width>1</width>
   </LineStyle>
  </Style>
  <Style id="red">
   <LineStyle>
   <color>ffff0000</color>
   <width>2</width>
   </LineStyle>
  </Style>
  <Style id="green">
   <LineStyle>
   <color>ff00ff00</color>
   <width>1</width>
   </LineStyle>
  </Style>
  <Placemark>
  <styleUrl>#yellow</styleUrl>
   <MultiGeometry>
    <LineString>
     <coordinates>
-104.70694861,40.79462308,1630.27
-104.70704521,40.79462332,1630.90
-104.70756961,40.79462465,1633.47
-104.70794881,40.79462561,1634.60
-104.70810421,40.79462600,1634.66
-104.70833002,40.79462658,1634.53
-104.70850699,40.79462702,1634.14
-104.70868930,40.79462748,1633.61
-104.70910358,40.79462844,1632.12
-104.70949427,40.79462951,1630.40
-104.70965998,40.79462993,1629.71
-104.70987489,40.79463047,1628.85
-104.70994435,40.79463064,1628.59
-104.70997351,40.79463072,1628.51
-104.71000492,40.79463080,1628.38
-104.71022338,40.79463135,1627.58
-104.71027826,40.79463148,1627.39
-104.71035685,40.79463168,1627.09
-104.71050929,40.79463206,1626.56
-104.71107695,40.79463340,1624.64
-104.71159602,40.79463478,1621.79
-104.71184885,40.79463542,1620.05
-104.71191523,40.79463558,1619.77
-104.71214910,40.79463617,1619.21
-104.71242825,40.79463686,1618.36
-104.71261981,40.79463734,1617.94
-104.71267623,40.79463748,1617.83
-104.71283424,40.79463787,1617.44
-104.71293535,40.79463812,1617.18
-104.71295941,40.79463818,1617.13
-104.71352103,40.79463958,1616.09
-104.71354260,40.79463963,1616.04
-104.71375241,40.79464015,1615.58
-104.71404970,40.79464089,1614.87
-104.71405871,40.79464091,1614.86
-104.71411015,40.79464104,1614.66
-104.71425630,40.79464140,1614.32
-104.71430206,40.79464152,1614.24
-104.71440198,40.79464176,1614.20
-104.71444300,40.79464187,1614.17
-104.71453818,40.79464210,1614.12
-104.71480832,40.79464277,1613.98
-104.71486380,40.79464291,1613.97
-104.71490896,40.79464302,1614.02
-104.71509577,40.79464348,1613.27
-104.71526978,40.79464391,1613.38
-104.71531767,40.79464403,1613.28
-104.71547105,40.79464440,1612.95
-104.71547603,40.79464415,1612.96
-104.71548101,40.79464389,1613.04
-104.71550425,40.79464241,1612.92
-104.71550911,40.79464207,1612.94
-104.71551163,40.79463649,1612.91
-104.71551294,40.79441128,1612.48
-104.71551384,40.79420048,1612.21
-104.71551420,40.79411616,1612.11
-104.71551558,40.79379366,1612.15
-104.71551562,40.79378402,1612.18
-104.71551692,40.79348061,1612.69
-104.71551698,40.79346629,1612.72
-104.71551773,40.79328909,1613.00
-104.71551798,40.79323108,1613.02
-104.71551966,40.79283903,1613.49
-104.71551985,40.79279273,1613.53
-104.71552094,40.79253923,1613.70
-104.71552181,40.79233420,1614.00
-104.71552209,40.79226925,1614.54
-104.71552324,40.79199998,1617.79
-104.71552344,40.79195224,1618.16
-104.71552362,40.79190945,1618.37
-104.71552451,40.79170099,1619.23
-104.71552467,40.79166361,1619.32
-104.71552473,40.79165064,1619.38
-104.71552499,40.79158929,1619.58
-104.71552504,40.79157695,1619.59
-104.71552546,40.79147912,1619.66
-104.71552548,40.79147443,1619.64
-104.71552576,40.79140795,1619.48
-104.71552581,40.79139606,1619.46
-104.71552592,40.79137219,1619.35
-104.71552632,40.79127643,1619.18
-104.71552654,40.79122589,1619.13
-104.71552668,40.79119265,1619.10
-104.71552680,40.79116481,1619.09
-104.71552695,40.79113076,1619.09
-104.71552714,40.79108617,1619.07
-104.71552774,40.79094509,1619.06
-104.71552873,40.79071349,1619.21
-104.71552882,40.79069268,1619.19
-104.71552908,40.79063160,1619.31
-104.71552908,40.79062971,1619.28
-104.71552910,40.79062556,1619.31
-104.71553037,40.79030027,1619.57
-104.71553186,40.78997885,1619.94
-104.71553328,40.78964689,1620.55
-104.71553426,40.78941699,1620.69
-104.71553507,40.78922817,1620.87
-104.71553520,40.78919745,1620.90
-104.71553528,40.78917854,1620.91
-104.71553555,40.78911521,1621.04
-104.71553587,40.78903918,1621.13
-104.71553654,40.78888360,1621.39
-104.71553664,40.78885865,1621.45
-104.71553722,40.78872271,1621.84
-104.71553724,40.78871992,1621.82
-104.71553745,40.78866875,1622.08
-104.71553789,40.78856695,1622.37
-104.71553958,40.78817121,1623.90
-104.71553965,40.78815346,1623.97
-104.71553971,40.78814094,1623.98
-104.71554009,40.78805005,1624.29
-104.71554022,40.78802014,1624.35
-104.71554039,40.78797987,1624.46
-104.71554054,40.78794510,1625.11
-104.71554095,40.78785006,1624.93
-104.71554103,40.78783015,1624.96
-104.71554139,40.78774628,1625.17
-104.71554162,40.78769304,1625.23
-104.71554190,40.78762782,1625.25
-104.71554200,40.78760278,1625.23
-104.71554236,40.78751999,1625.30
-104.71554335,40.78728586,1625.35
-104.71554436,40.78704966,1625.19
-104.71554455,40.78700660,1625.27
-104.71554459,40.78699633,1625.31
-104.71554490,40.78692444,1625.33
-104.71554567,40.78674373,1625.41
-104.71554569,40.78673904,1625.42
-104.71554602,40.78666139,1625.45
-104.71554658,40.78652987,1625.60
-104.71554670,40.78650203,1625.59
-104.71554704,40.78642267,1625.78
-104.71554768,40.78627214,1625.83
-104.71554885,40.78599810,1626.36
-104.71554914,40.78592936,1626.64
-104.71554971,40.78579532,1627.28
-104.71555019,40.78565623,1627.81
-104.71554978,40.78564019,1627.82
-104.71554932,40.78563668,1627.83
-104.71549102,40.78563599,1627.66
-104.71528930,40.78563549,1627.30
-104.71523312,40.78563536,1627.17
-104.71518844,40.78563525,1627.05
-104.71513771,40.78563512,1626.94
-104.71511116,40.78563506,1626.65
-104.71480823,40.78563431,1626.09
-104.71477208,40.78563422,1625.95
-104.71468437,40.78563400,1625.79
-104.71467252,40.78563397,1625.77
-104.71435690,40.78563319,1625.10
-104.71405729,40.78563254,1624.37
-104.71370327,40.78563157,1624.08
-104.71352300,40.78563112,1623.99
-104.71350309,40.78563107,1623.99
-104.71341705,40.78563086,1623.96
-104.71314007,40.78563017,1623.74
-104.71298421,40.78562978,1623.51
-104.71241473,40.78562837,1621.63
-104.71225295,40.78562796,1620.81
-104.71196471,40.78562724,1619.29
-104.71154788,40.78562620,1616.68
-104.71148898,40.78562606,1616.22
-104.71139641,40.78562582,1615.70
-104.71133822,40.78562568,1615.40
-104.71121828,40.78562538,1614.80
-104.71100613,40.78562485,1613.67
-104.71089543,40.78562457,1613.03
-104.71083345,40.78562442,1612.70
-104.71067676,40.78562402,1611.75
-104.71062509,40.78562389,1611.47
-104.71024950,40.78562295,1609.80
-104.71003190,40.78562240,1609.27
-104.70998177,40.78562228,1609.18
-104.70982414,40.78562188,1608.80
-104.70956517,40.78562123,1608.02
-104.70947012,40.78562099,1607.85
-104.70936085,40.78562072,1607.61
-104.70934579,40.78562068,1607.54
-104.70911598,40.78562010,1606.93
-104.70895124,40.78561968,1606.29
-104.70886141,40.78561946,1606.05
-104.70860434,40.78561881,1605.49
-104.70851154,40.78561857,1605.23
-104.70845216,40.78561842,1604.80
-104.70843746,40.78561839,1604.69
-104.70827474,40.78561798,1604.99
-104.70814116,40.78561764,1604.67
-104.70810454,40.78561754,1604.68
-104.70799882,40.78561728,1604.94
-104.70784321,40.78561688,1604.92
-104.70783657,40.78561687,1604.90
-104.70737565,40.78561570,1604.88
-104.70717654,40.78561519,1604.88
-104.70701796,40.78561479,1604.81
-104.70694744,40.78561461,1604.88
-104.70684741,40.78561436,1605.31
-104.70680676,40.78561425,1605.46
-104.70669535,40.78561397,1605.15
-104.70644124,40.78561333,1605.17
-104.70638957,40.78561319,1605.13
-104.70602192,40.78561226,1604.84
-104.70546642,40.78561084,1602.61
-104.70536971,40.78561059,1602.61
-104.70536355,40.78561058,1602.59
-104.70512793,40.78560998,1602.60
-104.70496189,40.78560955,1602.61
-104.70470695,40.78560890,1602.50
-104.70468100,40.78560883,1602.52
-104.70443851,40.78560821,1602.48
-104.70420443,40.78560761,1602.70
-104.70413154,40.78560743,1602.98
-104.70403910,40.78560719,1603.13
-104.70400402,40.78560710,1603.32
-104.70394488,40.78560695,1603.45
-104.70386025,40.78560673,1603.56
-104.70370274,40.78560633,1604.22
-104.70370013,40.78560632,1604.22
-104.70369905,40.78561073,1604.23
-104.70369822,40.78571631,1604.68
-104.70369749,40.78585540,1605.29
-104.70369736,40.78588378,1605.33
-104.70369723,40.78591242,1605.35
-104.70369714,40.78593269,1605.30
-104.70369697,40.78597242,1605.19
-104.70369687,40.78599359,1605.09
-104.70369654,40.78606800,1604.77
-104.70369532,40.78634330,1604.76
-104.70369474,40.78647320,1605.26
-104.70369433,40.78656454,1605.66
-104.70369368,40.78671147,1606.41
-104.70369358,40.78673354,1606.47
-104.70369355,40.78674057,1606.47
-104.70369156,40.78718811,1607.07
-104.70369146,40.78721072,1607.11
-104.70369087,40.78734351,1607.17
-104.70369069,40.78738467,1607.24
-104.70369063,40.78739891,1607.24
-104.70369020,40.78749503,1607.32
-104.70369015,40.78750701,1607.32
-104.70368963,40.78762385,1607.50
-104.70368890,40.78778744,1607.72
-104.70368853,40.78787005,1607.89
-104.70368814,40.78795707,1607.98
-104.70368805,40.78797797,1608.02
-104.70368791,40.78800914,1608.17
-104.70368690,40.78823696,1609.31
-104.70368651,40.78832426,1609.93
-104.70368632,40.78836759,1610.22
-104.70368601,40.78843803,1610.92
-104.70368564,40.78851947,1611.78
-104.70368440,40.78879981,1614.26
-104.70368430,40.78882125,1614.39
-104.70368336,40.78903385,1615.69
-104.70368324,40.78906070,1615.79
-104.70368308,40.78909601,1615.96
-104.70368296,40.78912367,1616.13
-104.70368296,40.78912376,1616.12
-104.70368274,40.78917330,1616.38
-104.70368246,40.78923618,1616.73
-104.70368206,40.78932536,1617.09
-104.70368077,40.78964237,1617.69
-104.70368004,40.78977921,1617.39
-104.70367989,40.78981326,1617.33
-104.70367863,40.79009865,1617.24
-104.70367782,40.79028044,1617.34
-104.70367741,40.79037116,1617.38
-104.70367701,40.79046124,1617.28
-104.70367657,40.79056015,1617.17
-104.70367589,40.79071294,1616.93
-104.70367588,40.79071501,1616.95
-104.70367511,40.79088905,1617.16
-104.70367369,40.79120930,1617.75
-104.70367314,40.79133299,1618.29
-104.70367289,40.79138911,1618.63
-104.70367262,40.79145037,1618.98
-104.70367146,40.79170999,1621.39
-104.70367103,40.79180701,1622.41
-104.70367021,40.79199087,1623.98
-104.70366916,40.79222870,1625.73
-104.70366910,40.79224005,1625.91
-104.70366875,40.79232085,1626.09
-104.70366853,40.79236905,1625.91
-104.70366806,40.79247463,1625.70
-104.70366791,40.79250904,1625.61
-104.70366791,40.79250913,1625.59
-104.70366742,40.79261894,1625.28
-104.70366692,40.79273074,1624.44
-104.70366673,40.79277344,1624.01
-104.70366663,40.79279560,1623.85
-104.70366604,40.79293000,1623.07
-104.70366598,40.79294388,1623.09
-104.70366574,40.79299658,1623.13
-104.70366546,40.79306018,1623.18
-104.70366519,40.79311981,1623.31
-104.70366346,40.79351024,1625.49
-104.70366342,40.79351898,1625.54
-104.70366277,40.79366455,1626.78
-104.70366245,40.79373761,1627.39
-104.70366183,40.79387643,1628.35
-104.70366122,40.79401444,1629.36
-104.70366119,40.79401948,1629.39
-104.70366118,40.79402363,1629.41
-104.70366099,40.79406588,1629.70
-104.70366089,40.79408723,1629.81
-104.70366048,40.79418047,1630.41
-104.70366025,40.79423199,1630.81
-104.70365998,40.79429262,1631.23
-104.70365997,40.79429424,1631.25
-104.70365962,40.79437307,1631.74
-104.70365903,40.79455927,1633.14
-104.70365950,40.79461323,1633.56
-104.70366199,40.79461378,1633.55
-104.70367301,40.79461453,1633.53
-104.70378988,40.79461501,1633.07
-104.70383196,40.79461512,1632.90
-104.70393663,40.79461539,1632.49
-104.70395571,40.79461544,1632.44
-104.70403632,40.79461564,1632.23
-104.70461074,40.79461711,1630.43
-104.70492106,40.79461791,1629.64
-104.70520721,40.79461864,1628.34
-104.70532361,40.79461894,1627.83
-104.70537411,40.79461907,1627.67
-104.70547368,40.79461932,1627.17
-104.70549134,40.79461937,1627.13
-104.70566049,40.79461980,1626.36
-104.70576468,40.79462006,1625.93
-104.70577819,40.79462010,1625.87
-104.70632108,40.79462148,1626.00
-104.70633957,40.79462153,1626.08
-104.70641330,40.79462171,1626.46
-104.70649640,40.79462193,1627.03
-104.70686611,40.79462287,1629.58
-104.70694861,40.79462308,1630.27
     </coordinates>
    </LineString>
   </MultiGeometry>
  </Placemark>
 </Document>
</kml>
