<kml>
 <Document>
  <Style id="yellow">
   <LineStyle>
   <color>ff00ffff</color>
   <width>1</width>
   </LineStyle>
  </Style>
  <Style id="red">
   <LineStyle>
   <color>ffff0000</color>
   <width>2</width>
   </LineStyle>
  </Style>
  <Style id="green">
   <LineStyle>
   <color>ff00ff00</color>
   <width>1</width>
   </LineStyle>
  </Style>
  <Placemark>
  <styleUrl>#yellow</styleUrl>
   <MultiGeometry>
    <LineString>
     <coordinates>
-104.77902300,40.83081770,1663.34
-104.77934512,40.83081832,1662.58
-104.77935081,40.83081833,1662.59
-104.77992828,40.83081943,1661.71
-104.78017342,40.83081990,1661.23
-104.78024221,40.83082003,1661.08
-104.78032748,40.83082019,1660.89
-104.78081873,40.83082113,1659.93
-104.78110752,40.83082167,1659.65
-104.78140141,40.83082223,1659.20
-104.78168214,40.83082267,1658.78
-104.78215334,40.83082365,1659.20
-104.78215832,40.83082366,1659.20
-104.78228641,40.83082390,1659.43
-104.78273981,40.83082476,1660.19
-104.78274491,40.83082477,1660.20
-104.78315503,40.83082545,1661.25
-104.78336104,40.83082593,1661.91
-104.78375575,40.83082667,1663.49
-104.78402117,40.83082717,1664.49
-104.78403244,40.83082719,1664.49
-104.78431483,40.83082771,1665.43
-104.78461334,40.83082827,1666.93
-104.78462580,40.83082829,1667.02
-104.78463030,40.83082830,1667.06
-104.78508597,40.83082915,1670.76
-104.78567861,40.83083026,1675.68
-104.78613404,40.83083110,1676.84
-104.78627849,40.83083137,1677.16
-104.78631016,40.83083143,1677.20
-104.78631455,40.83083144,1677.20
-104.78640551,40.83083151,1677.29
-104.78651570,40.83083082,1677.33
-104.78651795,40.83082974,1677.33
-104.78651820,40.83075353,1677.35
-104.78651828,40.83072686,1677.38
-104.78651837,40.83070047,1677.36
-104.78651872,40.83059084,1677.32
-104.78651903,40.83049454,1677.17
-104.78651920,40.83044229,1677.08
-104.78652045,40.83005033,1675.66
-104.78652048,40.83004240,1675.65
-104.78652143,40.82974503,1674.13
-104.78652158,40.82969846,1673.95
-104.78652170,40.82966207,1673.89
-104.78652175,40.82964648,1673.82
-104.78652189,40.82960306,1673.70
-104.78652195,40.82958495,1673.65
-104.78652213,40.82952865,1673.45
-104.78652229,40.82947802,1673.25
-104.78652234,40.82946073,1673.17
-104.78652274,40.82933785,1672.33
-104.78652278,40.82932497,1672.23
-104.78652344,40.82911841,1670.22
-104.78652351,40.82909751,1670.02
-104.78652367,40.82904643,1669.66
-104.78652374,40.82902517,1669.52
-104.78652400,40.82894364,1668.87
-104.78652408,40.82892022,1668.72
-104.78652439,40.82882257,1667.97
-104.78652490,40.82866375,1666.79
-104.78652536,40.82851988,1665.76
-104.78652586,40.82836494,1664.56
-104.78652608,40.82829738,1664.05
-104.78652610,40.82828846,1664.00
-104.78652679,40.82807586,1662.59
-104.78652736,40.82789551,1661.65
-104.78652742,40.82787929,1661.59
-104.78652747,40.82786137,1661.48
-104.78652749,40.82785470,1661.47
-104.78652763,40.82781101,1661.29
-104.78652773,40.82778128,1661.22
-104.78652831,40.82760021,1661.03
-104.78652843,40.82756157,1661.01
-104.78652875,40.82746229,1661.00
-104.78652914,40.82734041,1660.98
-104.78652937,40.82727023,1660.97
-104.78652965,40.82718402,1661.04
-104.78652990,40.82710331,1661.28
-104.78652993,40.82709628,1661.35
-104.78652996,40.82708439,1661.40
-104.78653020,40.82701052,1661.96
-104.78653037,40.82695683,1662.38
-104.78653048,40.82692233,1662.57
-104.78653078,40.82682891,1663.01
-104.78653109,40.82673405,1663.09
-104.78653167,40.82655262,1663.50
-104.78653210,40.82641993,1663.57
-104.78653227,40.82636425,1663.39
-104.78653337,40.82602292,1663.81
-104.78653354,40.82597004,1664.20
-104.78653411,40.82579258,1665.76
-104.78653426,40.82574546,1666.32
-104.78653459,40.82564169,1667.60
-104.78653469,40.82561142,1668.03
-104.78653476,40.82558962,1668.29
-104.78653514,40.82547053,1669.71
-104.78653548,40.82536341,1670.33
-104.78653553,40.82534774,1670.34
-104.78653600,40.82520072,1668.57
-104.78653603,40.82519252,1668.35
-104.78653608,40.82517856,1667.97
-104.78653677,40.82496092,1663.48
-104.78653740,40.82473003,1660.61
-104.78653860,40.82439005,1657.88
-104.78653901,40.82426249,1657.23
-104.78653941,40.82413935,1656.64
-104.78653960,40.82407827,1656.40
-104.78653963,40.82406989,1656.33
-104.78653981,40.82401485,1656.09
-104.78653995,40.82396900,1655.93
-104.78654005,40.82393990,1655.81
-104.78654007,40.82393386,1655.80
-104.78654025,40.82387702,1655.58
-104.78654050,40.82379946,1655.32
-104.78654059,40.82377081,1655.21
-104.78654115,40.82359578,1654.60
-104.78654118,40.82358659,1654.55
-104.78654119,40.82358280,1654.54
-104.78654122,40.82357443,1654.51
-104.78654214,40.82328652,1653.77
-104.78654261,40.82313941,1653.57
-104.78654369,40.82280222,1653.82
-104.78654402,40.82270079,1653.72
-104.78654440,40.82258088,1653.79
-104.78654459,40.82252422,1653.82
-104.78654496,40.82240675,1653.78
-104.78654566,40.82218911,1653.79
-104.78654599,40.82208641,1654.02
-104.78654603,40.82207281,1654.01
-104.78654632,40.82190894,1654.52
-104.78654583,40.82184030,1654.83
-104.78654540,40.82182660,1654.87
-104.78654303,40.82182579,1654.85
-104.78653248,40.82182550,1654.83
-104.78645066,40.82182328,1654.57
-104.78644817,40.82182327,1654.56
-104.78631441,40.82182302,1654.00
-104.78605186,40.82182254,1653.15
-104.78555950,40.82182162,1651.89
-104.78498887,40.82182056,1653.46
-104.78477767,40.82182017,1653.69
-104.78472775,40.82182007,1653.67
-104.78464806,40.82181992,1653.65
-104.78460608,40.82181985,1653.61
-104.78448370,40.82181962,1653.61
-104.78434283,40.82181935,1653.58
-104.78426942,40.82181922,1653.57
-104.78422092,40.82181913,1653.56
-104.78410755,40.82181891,1653.57
-104.78388616,40.82181850,1653.62
-104.78385580,40.82181844,1653.68
-104.78373093,40.82181821,1653.79
-104.78366939,40.82181809,1653.90
-104.78358057,40.82181793,1654.03
-104.78344147,40.82181767,1654.43
-104.78332703,40.82181745,1654.66
-104.78328446,40.82181737,1654.70
-104.78312176,40.82181707,1655.12
-104.78310801,40.82181704,1655.17
-104.78296511,40.82181677,1655.64
-104.78264968,40.82181618,1657.03
-104.78248532,40.82181587,1657.90
-104.78248224,40.82181586,1657.94
-104.78215459,40.82181524,1658.98
-104.78199664,40.82181495,1659.37
-104.78185682,40.82181468,1659.50
-104.78182540,40.82181462,1659.53
-104.78149301,40.82181399,1659.09
-104.78133209,40.82181369,1658.66
-104.78086902,40.82181290,1657.47
-104.78049797,40.82181210,1657.27
-104.78031570,40.82181176,1657.25
-104.77997987,40.82181112,1657.23
-104.77960266,40.82181040,1657.26
-104.77944719,40.82181010,1657.28
-104.77905278,40.82180935,1657.86
-104.77868043,40.82180863,1659.50
-104.77849366,40.82180827,1660.25
-104.77809047,40.82180750,1662.24
-104.77790915,40.82180715,1662.85
-104.77772144,40.82180679,1663.26
-104.77755067,40.82180646,1663.37
-104.77725550,40.82181084,1663.19
-104.77688103,40.82180517,1662.38
-104.77687617,40.82180516,1662.37
-104.77687178,40.82180515,1662.36
-104.77686692,40.82180514,1662.30
-104.77686206,40.82180513,1662.28
-104.77685755,40.82180512,1662.28
-104.77685316,40.82180511,1662.29
-104.77684830,40.82180510,1662.24
-104.77639021,40.82180422,1659.91
-104.77626285,40.82180397,1659.18
-104.77587105,40.82180321,1656.88
-104.77568380,40.82180284,1655.82
-104.77548494,40.82180246,1654.93
-104.77542695,40.82180234,1654.77
-104.77532295,40.82180214,1654.46
-104.77515065,40.82180181,1653.84
-104.77508721,40.82180168,1653.63
-104.77500515,40.82180152,1653.24
-104.77490743,40.82180133,1652.73
-104.77476750,40.82180115,1652.08
-104.77469019,40.82180136,1651.85
-104.77468945,40.82180847,1651.83
-104.77468932,40.82181154,1651.83
-104.77468851,40.82184009,1651.74
-104.77468832,40.82186252,1651.69
-104.77468813,40.82191711,1651.54
-104.77468699,40.82225430,1650.36
-104.77468698,40.82225871,1650.32
-104.77468631,40.82245717,1650.08
-104.77468613,40.82250996,1649.97
-104.77468604,40.82253699,1649.94
-104.77468568,40.82264283,1649.84
-104.77468567,40.82264662,1649.82
-104.77468565,40.82265040,1649.82
-104.77468536,40.82273805,1649.72
-104.77468511,40.82281084,1649.62
-104.77468469,40.82293606,1649.78
-104.77468468,40.82293804,1649.80
-104.77468466,40.82294291,1649.79
-104.77468365,40.82324118,1649.36
-104.77468328,40.82335072,1649.66
-104.77468248,40.82358665,1651.46
-104.77468234,40.82363043,1651.86
-104.77468179,40.82379222,1652.85
-104.77468111,40.82399275,1654.91
-104.77468098,40.82403131,1655.49
-104.77468053,40.82416517,1656.97
-104.77468035,40.82421661,1657.56
-104.77467976,40.82439264,1658.63
-104.77467962,40.82443371,1658.67
-104.77467880,40.82467415,1659.40
-104.77467751,40.82505665,1659.44
-104.77467748,40.82506530,1659.48
-104.77467735,40.82510358,1659.44
-104.77467716,40.82515943,1659.47
-104.77467699,40.82521105,1659.49
-104.77467689,40.82523943,1659.50
-104.77467683,40.82525618,1659.48
-104.77467631,40.82541248,1659.62
-104.77467621,40.82544023,1659.60
-104.77467568,40.82559562,1659.57
-104.77467568,40.82559733,1659.54
-104.77467502,40.82582849,1659.72
-104.77467413,40.82605406,1659.91
-104.77467404,40.82608253,1659.94
-104.77467388,40.82612856,1659.97
-104.77467372,40.82617541,1660.05
-104.77467313,40.82634927,1660.43
-104.77467293,40.82641008,1660.54
-104.77467256,40.82651971,1660.64
-104.77467222,40.82662024,1660.41
-104.77467213,40.82664448,1660.45
-104.77467145,40.82684789,1660.51
-104.77467114,40.82693752,1660.59
-104.77467113,40.82694293,1660.56
-104.77467012,40.82724102,1660.72
-104.77466935,40.82746749,1661.17
-104.77466903,40.82756208,1661.54
-104.77466885,40.82761396,1661.84
-104.77466881,40.82762549,1661.89
-104.77466827,40.82778684,1662.38
-104.77466749,40.82801745,1662.92
-104.77466634,40.82835518,1662.55
-104.77466564,40.82856372,1661.83
-104.77466547,40.82861480,1661.73
-104.77466542,40.82862714,1661.67
-104.77466475,40.82882686,1661.46
-104.77466460,40.82887091,1661.45
-104.77466438,40.82893523,1661.40
-104.77466398,40.82905252,1661.32
-104.77466389,40.82908162,1661.25
-104.77466377,40.82911630,1661.23
-104.77466302,40.82933602,1661.09
-104.77466292,40.82936791,1661.10
-104.77466230,40.82954862,1661.19
-104.77466140,40.82981536,1661.37
-104.77466117,40.82988301,1661.39
-104.77466108,40.82991003,1661.41
-104.77466085,40.82997742,1661.44
-104.77466075,40.83000886,1661.50
-104.77466055,40.83006696,1661.53
-104.77466027,40.83015092,1661.59
-104.77465970,40.83031731,1662.02
-104.77465945,40.83039081,1662.22
-104.77465922,40.83045847,1662.40
-104.77465908,40.83050216,1662.53
-104.77465880,40.83058351,1662.74
-104.77465863,40.83063314,1662.79
-104.77465860,40.83064224,1662.81
-104.77465846,40.83068530,1662.93
-104.77465832,40.83076007,1663.09
-104.77465827,40.83080908,1663.13
-104.77466302,40.83080927,1663.13
-104.77477782,40.83080949,1663.34
-104.77490069,40.83080973,1663.56
-104.77500387,40.83080993,1663.53
-104.77511251,40.83081014,1663.71
-104.77530049,40.83081051,1663.61
-104.77532149,40.83081055,1663.61
-104.77553971,40.83081098,1663.57
-104.77557019,40.83081103,1663.52
-104.77576220,40.83081141,1663.35
-104.77578260,40.83081145,1663.38
-104.77619403,40.83081225,1663.75
-104.77628891,40.83081243,1663.96
-104.77640514,40.83081266,1664.18
-104.77659371,40.83081302,1664.68
-104.77663487,40.83081310,1664.86
-104.77683637,40.83081349,1665.99
-104.77704534,40.83081389,1667.26
-104.77727270,40.83081433,1668.08
-104.77746495,40.83081471,1668.45
-104.77757347,40.83081491,1668.54
-104.77765589,40.83081507,1668.60
-104.77787115,40.83081549,1668.25
-104.77787554,40.83081550,1668.24
-104.77803589,40.83081580,1667.72
-104.77833666,40.83081638,1666.10
-104.77851349,40.83081672,1665.34
-104.77877465,40.83081722,1664.13
-104.77886680,40.83081740,1663.85
-104.77902300,40.83081770,1663.34
     </coordinates>
    </LineString>
   </MultiGeometry>
  </Placemark>
 </Document>
</kml>
