<kml>
 <Document>
  <Style id="yellow">
   <LineStyle>
   <color>ff00ffff</color>
   <width>1</width>
   </LineStyle>
  </Style>
  <Style id="red">
   <LineStyle>
   <color>ffff0000</color>
   <width>2</width>
   </LineStyle>
  </Style>
  <Style id="green">
   <LineStyle>
   <color>ff00ff00</color>
   <width>1</width>
   </LineStyle>
  </Style>
  <Placemark>
  <styleUrl>#yellow</styleUrl>
   <MultiGeometry>
    <LineString>
     <coordinates>
-104.72087875,40.79465761,1622.57
-104.72089867,40.79465766,1622.47
-104.72120046,40.79465839,1622.23
-104.72125297,40.79465852,1622.22
-104.72143291,40.79465895,1622.61
-104.72151956,40.79465916,1622.77
-104.72154848,40.79465923,1622.83
-104.72183391,40.79465992,1623.28
-104.72216510,40.79466072,1623.66
-104.72251099,40.79466155,1624.32
-104.72274308,40.79466211,1624.53
-104.72280069,40.79466225,1624.64
-104.72304108,40.79466282,1625.01
-104.72308968,40.79466294,1625.08
-104.72341221,40.79466371,1625.63
-104.72347290,40.79466386,1625.76
-104.72389536,40.79466487,1626.42
-104.72407115,40.79466529,1626.70
-104.72456912,40.79466648,1627.81
-104.72483262,40.79466711,1628.38
-104.72513335,40.79466783,1629.00
-104.72541084,40.79466849,1629.62
-104.72543371,40.79466854,1629.69
-104.72554514,40.79466881,1629.92
-104.72571239,40.79466920,1630.17
-104.72576692,40.79466933,1630.27
-104.72598099,40.79466984,1630.58
-104.72621415,40.79467040,1631.13
-104.72624746,40.79467047,1631.19
-104.72648548,40.79467104,1631.98
-104.72663851,40.79467140,1632.45
-104.72674069,40.79467164,1632.78
-104.72689858,40.79467202,1633.42
-104.72723557,40.79467281,1634.63
-104.72728785,40.79467294,1634.80
-104.72732459,40.79467275,1634.96
-104.72736218,40.79467104,1635.15
-104.72736515,40.79466961,1635.16
-104.72736529,40.79466258,1635.17
-104.72736552,40.79463628,1635.32
-104.72736623,40.79449214,1635.67
-104.72736632,40.79446836,1635.75
-104.72736689,40.79433017,1636.03
-104.72736710,40.79427999,1636.16
-104.72736745,40.79419441,1636.23
-104.72736785,40.79409640,1636.56
-104.72736911,40.79378768,1636.97
-104.72736920,40.79376480,1637.03
-104.72736944,40.79370741,1637.24
-104.72736979,40.79362147,1637.62
-104.72737004,40.79356022,1637.83
-104.72737024,40.79351148,1638.03
-104.72737034,40.79348725,1638.09
-104.72737077,40.79338167,1638.58
-104.72737126,40.79326222,1639.29
-104.72737169,40.79315709,1639.82
-104.72737250,40.79295791,1640.86
-104.72737289,40.79286314,1641.15
-104.72737322,40.79278270,1641.24
-104.72737324,40.79277837,1641.23
-104.72737375,40.79265414,1641.26
-104.72737505,40.79233561,1641.05
-104.72737592,40.79212364,1640.78
-104.72737659,40.79195833,1641.04
-104.72737687,40.79189158,1641.30
-104.72737713,40.79182663,1641.46
-104.72737745,40.79174852,1641.67
-104.72737789,40.79164141,1641.96
-104.72737932,40.79129180,1642.24
-104.72738046,40.79101253,1641.49
-104.72738107,40.79086353,1641.37
-104.72738118,40.79083561,1641.34
-104.72738146,40.79076921,1641.29
-104.72738281,40.79043689,1641.16
-104.72738299,40.79039509,1641.12
-104.72738416,40.79010871,1641.29
-104.72738420,40.79009799,1641.27
-104.72738426,40.79008385,1641.27
-104.72738432,40.79006917,1641.26
-104.72738455,40.79001169,1641.32
-104.72738467,40.78998359,1641.29
-104.72738520,40.78985377,1641.36
-104.72738563,40.78974946,1641.23
-104.72738566,40.78974018,1641.25
-104.72738606,40.78964225,1641.11
-104.72738641,40.78955776,1640.97
-104.72738738,40.78931993,1640.39
-104.72738744,40.78930597,1640.33
-104.72738782,40.78921228,1639.99
-104.72738800,40.78916796,1639.79
-104.72738844,40.78906031,1639.23
-104.72738852,40.78904193,1639.20
-104.72738865,40.78900959,1639.14
-104.72738938,40.78883212,1638.45
-104.72738948,40.78880834,1638.32
-104.72738991,40.78870195,1637.82
-104.72739133,40.78835540,1635.82
-104.72739141,40.78833603,1635.73
-104.72739275,40.78800695,1634.01
-104.72739285,40.78798253,1634.01
-104.72739291,40.78796776,1634.03
-104.72739321,40.78789461,1633.93
-104.72739396,40.78771102,1633.67
-104.72739398,40.78770679,1633.69
-104.72739411,40.78767444,1633.87
-104.72739424,40.78764319,1634.04
-104.72739444,40.78759373,1634.29
-104.72739499,40.78746013,1634.69
-104.72739595,40.78722591,1633.71
-104.72739638,40.78712042,1633.04
-104.72739640,40.78711520,1632.98
-104.72739732,40.78688999,1631.98
-104.72739746,40.78685630,1632.01
-104.72739755,40.78683314,1632.04
-104.72739783,40.78676405,1632.16
-104.72739850,40.78660163,1632.46
-104.72739882,40.78652379,1632.60
-104.72739904,40.78646956,1632.69
-104.72739910,40.78645515,1632.71
-104.72739973,40.78630146,1632.72
-104.72739985,40.78627192,1632.77
-104.72740137,40.78587176,1632.45
-104.72740183,40.78575735,1631.41
-104.72740198,40.78572087,1631.16
-104.72740207,40.78569970,1631.00
-104.72740137,40.78566763,1630.76
-104.72739853,40.78566699,1630.79
-104.72736713,40.78566466,1631.04
-104.72736654,40.78566466,1631.04
-104.72682087,40.78566337,1634.48
-104.72669880,40.78566308,1634.82
-104.72653003,40.78566268,1634.87
-104.72652754,40.78566268,1634.86
-104.72646875,40.78566254,1634.85
-104.72628517,40.78566210,1634.80
-104.72617352,40.78566184,1634.81
-104.72616783,40.78566182,1634.80
-104.72592167,40.78566124,1634.80
-104.72587426,40.78566113,1634.78
-104.72581133,40.78566098,1634.72
-104.72573737,40.78566080,1634.65
-104.72563805,40.78566056,1634.57
-104.72551384,40.78566027,1634.48
-104.72536534,40.78565992,1634.43
-104.72493902,40.78565890,1633.34
-104.72448177,40.78565790,1631.62
-104.72411946,40.78565694,1631.24
-104.72391667,40.78565646,1631.25
-104.72352473,40.78565552,1631.54
-104.72322855,40.78565481,1631.92
-104.72309332,40.78565449,1631.91
-104.72307305,40.78565444,1631.88
-104.72296864,40.78565419,1631.72
-104.72272117,40.78565359,1631.61
-104.72227056,40.78565251,1631.84
-104.72222635,40.78565240,1631.75
-104.72205876,40.78565200,1631.56
-104.72204430,40.78565196,1631.52
-104.72200638,40.78565187,1631.50
-104.72195020,40.78565174,1631.48
-104.72169538,40.78565112,1631.35
-104.72165165,40.78565102,1631.34
-104.72152318,40.78565071,1631.21
-104.72147992,40.78565060,1631.18
-104.72144543,40.78565052,1631.16
-104.72143571,40.78565050,1631.16
-104.72140074,40.78565041,1631.11
-104.72135310,40.78565030,1631.07
-104.72134634,40.78565028,1631.06
-104.72130225,40.78565017,1631.06
-104.72108548,40.78564965,1630.91
-104.72105076,40.78564957,1630.88
-104.72056388,40.78564839,1630.42
-104.72037686,40.78564794,1630.23
-104.72024506,40.78564762,1630.13
-104.72019505,40.78564749,1630.11
-104.71981567,40.78564657,1630.04
-104.71977620,40.78564648,1630.11
-104.71961359,40.78564608,1630.31
-104.71957839,40.78564600,1630.34
-104.71942420,40.78564562,1630.65
-104.71923018,40.78564515,1630.96
-104.71920446,40.78564509,1630.96
-104.71911688,40.78564488,1630.94
-104.71888256,40.78564430,1630.98
-104.71886325,40.78564426,1630.99
-104.71880114,40.78564411,1630.99
-104.71875172,40.78564399,1631.01
-104.71873418,40.78564394,1631.02
-104.71870052,40.78564386,1631.04
-104.71863948,40.78564371,1631.07
-104.71847035,40.78564330,1631.16
-104.71818164,40.78564268,1631.27
-104.71781340,40.78564169,1631.00
-104.71773316,40.78564150,1630.91
-104.71767201,40.78564135,1630.82
-104.71765482,40.78564131,1630.79
-104.71753986,40.78564103,1630.68
-104.71747135,40.78564086,1630.62
-104.71740226,40.78564069,1630.61
-104.71718869,40.78564017,1630.65
-104.71693031,40.78563953,1630.42
-104.71671259,40.78563900,1630.21
-104.71659763,40.78563872,1630.01
-104.71657641,40.78563866,1629.92
-104.71651336,40.78563851,1630.05
-104.71615698,40.78563763,1629.17
-104.71609985,40.78563749,1628.90
-104.71602127,40.78563730,1628.84
-104.71561653,40.78563630,1628.08
-104.71555881,40.78563616,1627.89
-104.71555668,40.78563615,1627.87
-104.71555395,40.78563642,1627.84
-104.71555131,40.78564407,1627.82
-104.71555058,40.78567668,1627.74
-104.71555040,40.78568920,1627.64
-104.71555009,40.78573550,1627.47
-104.71554960,40.78585072,1627.01
-104.71554926,40.78592864,1626.64
-104.71554837,40.78613944,1626.04
-104.71554750,40.78634294,1625.74
-104.71554720,40.78641258,1625.78
-104.71554595,40.78670643,1625.42
-104.71554541,40.78683084,1625.45
-104.71554539,40.78683661,1625.42
-104.71554535,40.78684553,1625.39
-104.71554517,40.78688732,1625.38
-104.71554492,40.78694732,1625.31
-104.71554484,40.78696471,1625.27
-104.71554408,40.78714362,1625.17
-104.71554390,40.78718586,1625.16
-104.71554348,40.78728424,1625.35
-104.71554282,40.78743792,1625.46
-104.71554280,40.78744351,1625.34
-104.71554223,40.78757728,1625.25
-104.71554185,40.78766683,1625.26
-104.71554149,40.78774997,1625.15
-104.71553993,40.78811581,1624.05
-104.71553977,40.78815337,1623.96
-104.71553951,40.78821490,1623.77
-104.71553923,40.78828012,1623.53
-104.71553898,40.78833850,1623.18
-104.71553803,40.78856254,1622.39
-104.71553781,40.78861317,1622.24
-104.71553772,40.78863316,1622.15
-104.71553709,40.78878225,1621.68
-104.71553668,40.78887792,1621.42
-104.71553623,40.78898386,1621.18
-104.71553610,40.78901467,1621.14
-104.71553609,40.78901683,1621.16
-104.71553575,40.78909647,1621.04
-104.71553477,40.78932591,1620.78
-104.71553472,40.78933727,1620.75
-104.71553449,40.78939015,1620.72
-104.71553443,40.78940438,1620.69
-104.71553348,40.78962752,1620.56
-104.71553334,40.78966049,1620.53
-104.71553274,40.78980165,1620.24
-104.71553264,40.78982462,1620.23
-104.71553121,40.79016001,1619.69
-104.71553087,40.79023901,1619.65
-104.71553079,40.79025703,1619.64
-104.71553045,40.79033874,1619.54
-104.71553031,40.79037099,1619.51
-104.71552988,40.79047170,1619.40
-104.71552952,40.79055449,1619.34
-104.71552941,40.79058133,1619.32
-104.71552933,40.79060115,1619.33
-104.71552917,40.79063800,1619.27
-104.71552912,40.79065007,1619.28
-104.71552788,40.79094005,1619.07
-104.71552783,40.79095041,1619.08
-104.71552758,40.79101131,1619.06
-104.71552682,40.79118895,1619.12
-104.71552668,40.79122102,1619.13
-104.71552666,40.79122697,1619.13
-104.71552621,40.79133192,1619.26
-104.71552614,40.79134804,1619.27
-104.71552587,40.79141173,1619.50
-104.71552584,40.79141894,1619.55
-104.71552509,40.79159406,1619.55
-104.71552499,40.79161659,1619.43
-104.71552490,40.79163757,1619.40
-104.71552370,40.79192008,1618.32
-104.71552365,40.79193026,1618.28
-104.71552352,40.79196206,1618.08
-104.71552348,40.79197116,1618.04
-104.71552332,40.79200800,1617.75
-104.71552321,40.79203314,1617.47
-104.71552305,40.79207151,1616.98
-104.71552234,40.79223781,1614.88
-104.71552213,40.79228627,1614.39
-104.71552195,40.79232879,1614.02
-104.71552160,40.79241194,1613.75
-104.71552128,40.79248689,1613.67
-104.71552110,40.79252950,1613.69
-104.71552067,40.79262959,1613.59
-104.71552029,40.79271814,1613.54
-104.71552010,40.79276192,1613.51
-104.71551952,40.79289939,1613.46
-104.71551936,40.79293695,1613.40
-104.71551930,40.79294984,1613.41
-104.71551913,40.79299073,1613.39
-104.71551889,40.79304623,1613.28
-104.71551741,40.79339215,1612.77
-104.71551664,40.79357349,1612.53
-104.71551597,40.79372979,1612.30
-104.71551561,40.79381384,1612.11
-104.71551487,40.79398860,1611.97
-104.71551410,40.79416958,1612.20
-104.71551403,40.79418489,1612.20
-104.71551369,40.79426327,1612.22
-104.71551334,40.79434561,1612.38
-104.71551330,40.79435633,1612.38
-104.71551272,40.79451938,1612.72
-104.71551278,40.79461694,1612.89
-104.71551295,40.79463244,1612.90
-104.71551374,40.79464181,1612.94
-104.71555486,40.79464452,1612.87
-104.71577711,40.79464516,1612.65
-104.71593939,40.79464556,1612.58
-104.71600316,40.79464572,1612.57
-104.71609574,40.79464594,1612.64
-104.71617480,40.79464614,1612.69
-104.71636623,40.79464661,1612.78
-104.71665641,40.79464732,1612.92
-104.71674922,40.79464755,1612.85
-104.71721886,40.79464870,1613.33
-104.71735268,40.79464903,1613.85
-104.71745107,40.79464927,1614.16
-104.71772643,40.79464994,1615.36
-104.71772915,40.79464995,1615.38
-104.71782256,40.79465018,1615.73
-104.71812613,40.79465092,1617.15
-104.71817366,40.79465104,1617.39
-104.71828082,40.79465130,1617.74
-104.71832064,40.79465140,1617.92
-104.71848067,40.79465179,1618.58
-104.71894592,40.79465292,1620.36
-104.71904418,40.79465316,1620.67
-104.71927805,40.79465373,1621.49
-104.71937122,40.79465396,1621.72
-104.71956609,40.79465443,1622.19
-104.71961019,40.79465454,1622.28
-104.71973204,40.79465483,1622.44
-104.71984276,40.79465510,1622.56
-104.72006027,40.79465563,1622.56
-104.72040366,40.79465646,1623.09
-104.72056713,40.79465686,1623.13
-104.72087875,40.79465761,1622.57
     </coordinates>
    </LineString>
   </MultiGeometry>
  </Placemark>
 </Document>
</kml>
