<kml>
 <Document>
  <Style id="yellow">
   <LineStyle>
   <color>ff00ffff</color>
   <width>1</width>
   </LineStyle>
  </Style>
  <Style id="red">
   <LineStyle>
   <color>ffff0000</color>
   <width>2</width>
   </LineStyle>
  </Style>
  <Style id="green">
   <LineStyle>
   <color>ff00ff00</color>
   <width>1</width>
   </LineStyle>
  </Style>
  <Placemark>
  <styleUrl>#yellow</styleUrl>
   <MultiGeometry>
    <LineString>
     <coordinates>
-104.74276649,40.83074256,1639.06
-104.74310497,40.83074331,1639.47
-104.74315277,40.83074342,1639.55
-104.74332877,40.83074381,1639.72
-104.74343112,40.83074404,1639.81
-104.74353336,40.83074426,1639.97
-104.74354569,40.83074429,1639.98
-104.74372940,40.83074470,1640.44
-104.74376071,40.83074477,1640.53
-104.74384575,40.83074496,1640.69
-104.74396328,40.83074522,1641.07
-104.74418056,40.83074570,1641.59
-104.74427425,40.83074591,1641.81
-104.74457276,40.83074657,1642.86
-104.74463859,40.83074672,1643.08
-104.74477367,40.83074702,1643.33
-104.74481376,40.83074710,1643.40
-104.74485990,40.83074721,1643.58
-104.74504716,40.83074762,1644.37
-104.74507622,40.83074768,1644.45
-104.74509816,40.83074773,1644.54
-104.74515841,40.83074787,1644.81
-104.74527322,40.83074812,1645.30
-104.74541720,40.83074844,1645.87
-104.74547460,40.83074856,1646.06
-104.74567064,40.83074900,1647.13
-104.74569768,40.83074906,1647.26
-104.74575912,40.83074919,1647.60
-104.74583811,40.83074937,1647.93
-104.74591401,40.83074953,1648.35
-104.74600616,40.83074974,1648.97
-104.74617683,40.83075011,1649.83
-104.74625546,40.83075028,1650.28
-104.74672203,40.83075131,1652.73
-104.74704593,40.83075202,1654.89
-104.74725443,40.83075248,1656.22
-104.74736034,40.83075271,1656.92
-104.74755911,40.83075314,1657.61
-104.74766644,40.83075338,1658.18
-104.74780615,40.83075368,1658.69
-104.74785490,40.83075379,1658.81
-104.74798607,40.83075408,1658.72
-104.74806624,40.83075425,1659.24
-104.74810467,40.83075434,1659.39
-104.74816195,40.83075446,1659.55
-104.74823050,40.83075461,1659.76
-104.74828826,40.83075474,1659.99
-104.74834673,40.83075487,1660.19
-104.74839488,40.83075497,1660.35
-104.74872957,40.83075570,1660.93
-104.74886027,40.83075598,1660.83
-104.74891791,40.83075611,1660.84
-104.74895361,40.83075619,1660.79
-104.74909652,40.83075650,1660.49
-104.74941543,40.83075719,1660.25
-104.74947592,40.83075732,1660.23
-104.74954720,40.83075748,1660.14
-104.74959322,40.83075758,1660.14
-104.74968620,40.83075778,1660.10
-104.74978902,40.83075800,1660.12
-104.74984548,40.83075812,1660.09
-104.74990549,40.83075825,1660.09
-104.74997546,40.83075841,1660.05
-104.75004105,40.83075855,1660.08
-104.75014648,40.83075878,1660.16
-104.75034277,40.83075920,1660.23
-104.75065397,40.83075987,1660.85
-104.75077922,40.83076014,1661.43
-104.75082986,40.83076025,1661.64
-104.75089390,40.83076021,1661.82
-104.75089888,40.83075995,1661.82
-104.75090837,40.83075934,1661.82
-104.75093625,40.83075751,1661.84
-104.75093787,40.83073653,1661.72
-104.75093847,40.83060788,1660.75
-104.75093877,40.83052933,1660.11
-104.75093904,40.83045753,1659.61
-104.75094013,40.83016395,1657.42
-104.75094073,40.83000549,1656.81
-104.75094082,40.82998054,1656.77
-104.75094098,40.82993919,1656.71
-104.75094159,40.82977425,1656.35
-104.75094292,40.82941877,1655.32
-104.75094308,40.82937580,1655.13
-104.75094447,40.82900412,1654.02
-104.75094466,40.82895538,1653.87
-104.75094472,40.82893853,1653.83
-104.75094529,40.82878602,1653.49
-104.75094561,40.82869999,1653.30
-104.75094586,40.82863252,1653.15
-104.75094638,40.82846343,1652.76
-104.75094797,40.82807066,1651.65
-104.75094931,40.82771078,1650.91
-104.75094948,40.82766555,1650.89
-104.75095039,40.82742323,1650.67
-104.75095119,40.82717622,1650.52
-104.75095288,40.82675642,1649.93
-104.75095378,40.82651563,1649.51
-104.75095438,40.82632366,1649.28
-104.75095540,40.82598746,1649.10
-104.75095652,40.82575379,1649.04
-104.75095696,40.82566559,1649.06
-104.75095711,40.82562542,1649.14
-104.75095769,40.82547074,1649.57
-104.75095854,40.82524463,1650.35
-104.75095944,40.82500420,1651.46
-104.75096053,40.82471241,1652.91
-104.75096190,40.82431505,1654.91
-104.75096350,40.82391949,1657.27
-104.75096391,40.82380761,1657.43
-104.75096452,40.82364455,1657.55
-104.75096507,40.82346664,1656.94
-104.75096525,40.82338727,1656.81
-104.75096654,40.82301135,1656.33
-104.75096811,40.82268461,1656.16
-104.75096875,40.82251490,1656.50
-104.75096979,40.82220383,1656.81
-104.75097093,40.82193250,1656.40
-104.75097144,40.82176260,1656.28
-104.75097053,40.82175368,1656.27
-104.75077546,40.82175173,1656.42
-104.75027848,40.82175065,1656.24
-104.75004938,40.82175016,1655.88
-104.74980936,40.82174964,1655.34
-104.74973110,40.82174947,1655.20
-104.74967275,40.82174934,1655.13
-104.74954160,40.82174906,1654.76
-104.74949784,40.82174896,1654.65
-104.74938270,40.82174871,1654.34
-104.74935222,40.82174865,1654.25
-104.74927277,40.82174847,1654.18
-104.74873748,40.82174731,1653.40
-104.74862957,40.82174707,1653.26
-104.74862767,40.82174707,1653.24
-104.74840841,40.82174659,1652.85
-104.74833121,40.82174642,1652.74
-104.74793206,40.82174555,1652.85
-104.74785688,40.82174539,1652.97
-104.74751939,40.82174465,1653.04
-104.74726906,40.82174410,1652.56
-104.74713755,40.82174381,1652.09
-104.74707197,40.82174367,1651.83
-104.74672002,40.82174290,1650.70
-104.74659301,40.82174271,1650.39
-104.74610421,40.82174154,1648.46
-104.74603982,40.82174140,1648.14
-104.74569557,40.82174064,1646.65
-104.74560687,40.82174045,1646.23
-104.74554663,40.82174031,1645.93
-104.74536531,40.82173991,1645.11
-104.74521957,40.82173959,1644.45
-104.74487343,40.82173883,1643.79
-104.74462938,40.82173829,1643.63
-104.74455586,40.82173813,1643.59
-104.74426426,40.82173748,1643.43
-104.74402093,40.82173694,1643.23
-104.74396140,40.82173681,1643.22
-104.74389535,40.82173666,1643.19
-104.74381139,40.82173647,1643.17
-104.74377202,40.82173639,1643.14
-104.74373265,40.82173630,1643.15
-104.74371131,40.82173625,1643.12
-104.74352620,40.82173584,1643.10
-104.74346027,40.82173569,1643.06
-104.74339813,40.82173556,1643.09
-104.74337571,40.82173551,1643.09
-104.74322654,40.82173517,1643.06
-104.74292960,40.82173451,1642.86
-104.74290814,40.82173447,1642.86
-104.74279655,40.82173422,1642.79
-104.74279145,40.82173421,1642.80
-104.74271781,40.82173404,1642.74
-104.74256496,40.82173370,1642.66
-104.74248053,40.82173351,1642.62
-104.74228439,40.82173307,1642.53
-104.74193587,40.82173230,1642.67
-104.74173262,40.82173184,1643.01
-104.74157988,40.82173150,1643.34
-104.74108563,40.82173039,1644.27
-104.74102088,40.82173024,1644.37
-104.74081300,40.82172978,1644.78
-104.74077090,40.82172968,1644.87
-104.74069276,40.82172951,1644.99
-104.74053421,40.82172915,1645.44
-104.74046413,40.82172899,1645.73
-104.74036665,40.82172877,1645.97
-104.73998292,40.82172791,1647.29
-104.73977077,40.82172743,1648.07
-104.73951012,40.82172684,1649.07
-104.73945961,40.82172673,1649.19
-104.73924793,40.82172625,1650.08
-104.73921698,40.82172618,1650.24
-104.73915022,40.82172603,1650.52
-104.73913219,40.82172617,1650.47
-104.73911534,40.82172883,1650.70
-104.73911498,40.82173000,1650.70
-104.73911389,40.82173829,1650.65
-104.73911315,40.82177405,1650.97
-104.73911268,40.82189350,1651.63
-104.73911246,40.82195143,1651.95
-104.73911225,40.82200341,1652.34
-104.73911190,40.82209295,1652.99
-104.73911125,40.82225898,1654.15
-104.73911094,40.82233906,1654.72
-104.73910964,40.82267012,1656.85
-104.73910928,40.82276327,1657.34
-104.73910883,40.82287830,1657.87
-104.73910862,40.82293082,1658.10
-104.73910856,40.82294515,1658.17
-104.73910829,40.82301550,1658.39
-104.73910803,40.82308018,1658.57
-104.73910792,40.82310802,1658.64
-104.73910718,40.82329873,1658.96
-104.73910700,40.82334530,1659.00
-104.73910577,40.82365852,1659.31
-104.73910555,40.82371348,1659.22
-104.73910549,40.82372807,1659.17
-104.73910526,40.82378897,1658.99
-104.73910520,40.82380374,1658.95
-104.73910488,40.82388581,1658.70
-104.73910484,40.82389653,1658.65
-104.73910426,40.82404336,1658.05
-104.73910370,40.82418507,1657.24
-104.73910352,40.82423227,1656.93
-104.73910318,40.82432001,1656.25
-104.73910313,40.82433037,1656.17
-104.73910243,40.82450991,1654.82
-104.73910206,40.82460540,1654.09
-104.73910182,40.82466495,1653.82
-104.73910176,40.82468197,1653.73
-104.73910158,40.82472674,1653.51
-104.73910155,40.82473404,1653.48
-104.73910148,40.82475386,1653.40
-104.73910125,40.82481223,1653.06
-104.73910039,40.82503159,1651.79
-104.73910038,40.82503447,1651.78
-104.73909989,40.82515753,1651.05
-104.73909950,40.82525842,1650.58
-104.73909825,40.82557732,1649.23
-104.73909809,40.82561714,1649.15
-104.73909788,40.82567110,1649.00
-104.73909782,40.82568794,1648.91
-104.73909758,40.82574749,1648.74
-104.73909754,40.82575857,1648.72
-104.73909744,40.82578478,1648.62
-104.73909741,40.82579199,1648.57
-104.73909736,40.82580478,1648.54
-104.73909716,40.82585532,1648.30
-104.73909716,40.82585613,1648.30
-104.73909710,40.82586964,1648.24
-104.73909681,40.82594369,1647.85
-104.73909658,40.82600279,1647.58
-104.73909623,40.82609251,1647.10
-104.73909617,40.82610818,1647.01
-104.73909595,40.82616296,1646.72
-104.73909594,40.82616584,1646.68
-104.73909590,40.82617575,1646.64
-104.73909566,40.82623763,1646.25
-104.73909558,40.82625835,1646.13
-104.73909508,40.82638510,1645.30
-104.73909500,40.82640573,1645.18
-104.73909418,40.82661437,1644.13
-104.73909413,40.82662869,1644.04
-104.73909375,40.82672409,1643.51
-104.73909345,40.82680210,1643.13
-104.73909307,40.82689930,1642.65
-104.73909273,40.82698443,1642.24
-104.73909268,40.82699831,1642.21
-104.73909265,40.82700524,1642.16
-104.73909173,40.82724117,1641.22
-104.73909123,40.82736837,1640.76
-104.73909119,40.82737819,1640.73
-104.73909117,40.82738342,1640.71
-104.73909073,40.82749593,1640.24
-104.73909073,40.82749656,1640.23
-104.73909054,40.82754431,1640.10
-104.73909049,40.82755638,1640.03
-104.73909026,40.82761457,1639.82
-104.73909000,40.82768123,1639.62
-104.73908991,40.82770574,1639.54
-104.73908940,40.82783591,1639.24
-104.73908932,40.82785582,1639.18
-104.73908912,40.82790644,1639.04
-104.73908873,40.82800617,1638.69
-104.73908834,40.82810526,1638.36
-104.73908831,40.82811436,1638.33
-104.73908816,40.82815129,1638.24
-104.73908815,40.82815418,1638.24
-104.73908759,40.82829597,1637.85
-104.73908729,40.82837227,1637.74
-104.73908686,40.82848298,1637.46
-104.73908681,40.82849713,1637.46
-104.73908626,40.82863640,1637.09
-104.73908604,40.82869189,1636.95
-104.73908591,40.82872576,1636.83
-104.73908577,40.82876134,1636.76
-104.73908576,40.82876495,1636.75
-104.73908563,40.82879566,1636.70
-104.73908400,40.82921357,1635.54
-104.73908355,40.82932752,1635.48
-104.73908335,40.82937968,1635.36
-104.73908328,40.82939725,1635.31
-104.73908319,40.82941986,1635.22
-104.73908280,40.82951832,1634.93
-104.73908273,40.82953652,1634.95
-104.73908188,40.82975443,1634.64
-104.73908165,40.82981271,1634.72
-104.73908055,40.83009279,1634.76
-104.73907901,40.83048609,1634.81
-104.73907893,40.83050663,1634.82
-104.73907844,40.83063158,1634.81
-104.73907829,40.83069986,1634.85
-104.73907868,40.83072094,1634.92
-104.73907934,40.83073365,1634.95
-104.73911243,40.83073408,1634.95
-104.73921668,40.83073459,1634.95
-104.73935817,40.83073491,1635.12
-104.73973022,40.83073575,1635.57
-104.73980707,40.83073592,1635.59
-104.73991061,40.83073616,1635.38
-104.74021126,40.83073683,1635.56
-104.74043517,40.83073734,1635.88
-104.74048487,40.83073745,1636.07
-104.74069230,40.83073791,1636.20
-104.74082335,40.83073821,1636.32
-104.74082525,40.83073821,1636.30
-104.74096970,40.83073854,1636.58
-104.74107016,40.83073876,1636.71
-104.74120560,40.83073907,1637.08
-104.74133677,40.83073936,1637.21
-104.74170644,40.83074019,1637.57
-104.74182208,40.83074045,1637.70
-104.74195266,40.83074074,1637.99
-104.74219282,40.83074128,1638.45
-104.74254554,40.83074207,1638.86
-104.74276649,40.83074256,1639.06
     </coordinates>
    </LineString>
   </MultiGeometry>
  </Placemark>
 </Document>
</kml>
