<kml>
 <Document>
  <Style id="yellow">
   <LineStyle>
   <color>ff00ffff</color>
   <width>1</width>
   </LineStyle>
  </Style>
  <Style id="red">
   <LineStyle>
   <color>ffff0000</color>
   <width>2</width>
   </LineStyle>
  </Style>
  <Style id="green">
   <LineStyle>
   <color>ff00ff00</color>
   <width>1</width>
   </LineStyle>
  </Style>
  <Placemark>
  <styleUrl>#yellow</styleUrl>
   <MultiGeometry>
    <LineString>
     <coordinates>
-104.72719982,40.83515870,1636.82
-104.72719913,40.83532680,1637.03
-104.72719893,40.83537572,1636.63
-104.72719826,40.83554030,1635.93
-104.72719779,40.83565416,1635.81
-104.72719713,40.83581533,1635.44
-104.72719676,40.83590532,1634.96
-104.72719661,40.83594126,1635.15
-104.72719654,40.83595820,1635.41
-104.72719635,40.83600549,1636.90
-104.72719633,40.83601108,1637.07
-104.72719618,40.83604594,1637.31
-104.72719567,40.83617143,1637.38
-104.72719519,40.83628809,1637.41
-104.72719459,40.83643366,1637.42
-104.72719419,40.83653194,1637.49
-104.72719403,40.83657014,1637.60
-104.72719398,40.83658383,1637.63
-104.72719333,40.83674157,1637.72
-104.72719311,40.83679661,1637.84
-104.72719303,40.83681553,1637.77
-104.72719286,40.83685625,1637.71
-104.72719272,40.83688985,1637.77
-104.72719219,40.83702020,1637.61
-104.72719152,40.83718325,1637.61
-104.72719028,40.83748539,1638.06
-104.72718991,40.83757584,1636.36
-104.72718980,40.83760187,1636.40
-104.72718940,40.83770069,1636.90
-104.72718925,40.83773790,1636.99
-104.72718809,40.83802004,1637.82
-104.72718799,40.83804373,1637.87
-104.72718778,40.83809607,1637.97
-104.72718745,40.83817724,1638.21
-104.72718708,40.83826642,1638.19
-104.72718682,40.83832912,1638.45
-104.72718642,40.83842785,1638.83
-104.72718582,40.83857469,1638.90
-104.72718469,40.83884854,1639.24
-104.72718460,40.83887034,1639.23
-104.72718361,40.83911195,1639.40
-104.72718338,40.83916834,1639.41
-104.72718282,40.83930635,1639.21
-104.72718277,40.83931671,1639.19
-104.72718265,40.83934779,1639.27
-104.72718243,40.83940067,1639.62
-104.72718196,40.83951480,1639.69
-104.72718140,40.83965065,1638.34
-104.72718139,40.83968317,1638.19
-104.72718245,40.83971398,1638.26
-104.72719229,40.83971508,1638.07
-104.72720213,40.83971529,1638.08
-104.72730201,40.83971552,1637.98
-104.72745894,40.83971589,1638.69
-104.72774184,40.83971656,1639.75
-104.72775275,40.83971659,1639.82
-104.72779035,40.83971668,1640.22
-104.72797302,40.83971711,1642.64
-104.72801690,40.83971721,1643.03
-104.72811073,40.83971743,1645.07
-104.72813872,40.83971750,1645.76
-104.72833539,40.83971796,1649.22
-104.72844274,40.83971821,1650.57
-104.72848247,40.83971831,1650.81
-104.72855803,40.83971849,1651.07
-104.72864118,40.83971868,1651.16
-104.72902217,40.83971958,1650.99
-104.72917116,40.83971993,1650.94
-104.72974632,40.83972128,1650.83
-104.72978392,40.83972136,1650.89
-104.72986257,40.83972155,1650.76
-104.72997051,40.83972180,1650.77
-104.73015863,40.83972224,1650.50
-104.73022470,40.83972240,1650.49
-104.73022719,40.83972240,1650.47
-104.73051875,40.83972308,1650.57
-104.73074127,40.83972360,1650.67
-104.73078290,40.83972370,1650.85
-104.73102844,40.83972427,1650.89
-104.73107873,40.83972439,1650.86
-104.73129556,40.83972489,1650.89
-104.73156695,40.83972553,1650.92
-104.73184641,40.83972618,1651.09
-104.73202220,40.83972658,1651.03
-104.73204569,40.83972664,1650.95
-104.73215007,40.83972688,1650.81
-104.73231601,40.83972727,1650.66
-104.73252976,40.83972776,1650.42
-104.73264897,40.83972804,1650.43
-104.73271610,40.83972819,1650.37
-104.73283045,40.83972846,1650.39
-104.73284599,40.83972850,1650.42
-104.73300268,40.83972886,1650.48
-104.73307705,40.83972903,1650.50
-104.73333623,40.83972963,1650.68
-104.73356646,40.83973016,1650.57
-104.73385505,40.83973083,1650.33
-104.73404270,40.83973126,1649.88
-104.73421256,40.83973165,1649.35
-104.73431255,40.83973188,1649.10
-104.73432928,40.83973192,1649.07
-104.73443627,40.83973217,1648.65
-104.73449368,40.83973230,1648.34
-104.73454646,40.83973242,1648.03
-104.73460292,40.83973255,1647.79
-104.73477100,40.83973294,1647.50
-104.73488938,40.83973321,1647.22
-104.73499661,40.83973346,1646.84
-104.73512151,40.83973374,1646.51
-104.73523289,40.83973400,1646.33
-104.73546657,40.83973453,1645.99
-104.73551615,40.83973465,1645.85
-104.73569372,40.83973505,1645.48
-104.73571139,40.83973509,1645.47
-104.73586120,40.83973544,1645.15
-104.73588801,40.83973550,1645.09
-104.73597258,40.83973569,1644.89
-104.73602774,40.83973582,1644.68
-104.73614256,40.83973608,1644.46
-104.73614908,40.83973610,1644.43
-104.73637848,40.83973662,1643.90
-104.73638062,40.83973663,1643.89
-104.73643174,40.83973674,1643.85
-104.73666340,40.83973727,1643.25
-104.73702399,40.83973809,1642.25
-104.73719421,40.83973848,1642.01
-104.73736620,40.83973887,1641.92
-104.73749169,40.83973916,1641.81
-104.73755207,40.83973930,1641.78
-104.73760770,40.83973942,1641.63
-104.73779001,40.83973984,1641.16
-104.73791669,40.83974013,1640.63
-104.73821276,40.83974080,1639.99
-104.73844453,40.83974132,1639.79
-104.73858320,40.83974164,1639.73
-104.73862934,40.83974174,1639.81
-104.73903239,40.83974266,1641.64
-104.73903763,40.83973807,1641.68
-104.73904204,40.83973376,1641.67
-104.73904278,40.83969511,1641.43
-104.73904325,40.83957476,1639.83
-104.73904437,40.83928920,1638.77
-104.73904495,40.83914290,1638.89
-104.73904509,40.83910633,1638.84
-104.73904577,40.83893345,1638.63
-104.73904581,40.83892391,1638.48
-104.73904583,40.83891742,1638.53
-104.73904596,40.83888454,1638.54
-104.73904649,40.83875058,1638.45
-104.73904661,40.83871842,1638.51
-104.73904666,40.83870752,1638.44
-104.73904803,40.83835575,1638.38
-104.73904851,40.83823512,1638.34
-104.73904895,40.83812351,1638.24
-104.73904909,40.83808576,1638.36
-104.73904972,40.83792631,1638.38
-104.73904999,40.83785821,1638.35
-104.73905013,40.83782083,1638.32
-104.73905078,40.83765642,1637.97
-104.73905088,40.83763084,1637.90
-104.73905116,40.83755859,1637.80
-104.73905216,40.83730311,1638.10
-104.73905223,40.83728492,1638.18
-104.73905237,40.83724996,1638.17
-104.73905261,40.83718862,1638.23
-104.73905267,40.83717492,1638.26
-104.73905304,40.83708052,1638.60
-104.73905412,40.83680432,1639.93
-104.73905413,40.83680135,1639.94
-104.73905433,40.83674946,1640.29
-104.73905450,40.83670685,1640.53
-104.73905463,40.83667262,1640.94
-104.73905556,40.83643678,1642.10
-104.73905572,40.83639651,1642.06
-104.73905585,40.83636264,1641.90
-104.73905617,40.83628057,1641.53
-104.73905620,40.83627255,1641.52
-104.73905641,40.83621904,1641.28
-104.73905667,40.83615355,1641.07
-104.73905674,40.83613671,1641.00
-104.73905728,40.83599798,1640.76
-104.73905775,40.83587826,1640.64
-104.73905815,40.83577511,1640.50
-104.73905886,40.83559557,1640.42
-104.73905938,40.83546234,1640.35
-104.73905999,40.83530757,1640.19
-104.73906010,40.83527947,1640.08
-104.73906163,40.83488904,1638.86
-104.73906199,40.83479572,1638.22
-104.73906284,40.83457915,1637.28
-104.73906347,40.83441808,1637.17
-104.73906359,40.83438845,1637.11
-104.73906425,40.83421927,1637.30
-104.73906472,40.83410099,1637.18
-104.73906491,40.83405297,1637.16
-104.73906557,40.83388271,1637.08
-104.73906595,40.83378650,1637.03
-104.73906726,40.83345391,1636.94
-104.73906776,40.83332410,1636.64
-104.73906792,40.83328338,1636.54
-104.73906835,40.83317510,1636.30
-104.73906881,40.83305709,1636.49
-104.73907007,40.83273594,1636.47
-104.73907049,40.83262874,1636.48
-104.73907066,40.83258505,1636.40
-104.73907162,40.83233993,1636.22
-104.73907178,40.83229949,1636.19
-104.73907182,40.83229030,1636.17
-104.73907260,40.83208932,1636.09
-104.73907274,40.83205455,1635.93
-104.73907275,40.83205166,1635.94
-104.73907287,40.83202113,1636.08
-104.73907305,40.83197626,1636.00
-104.73907314,40.83195194,1636.03
-104.73907327,40.83192086,1636.04
-104.73907355,40.83184816,1636.10
-104.73907399,40.83173700,1636.19
-104.73907418,40.83168655,1636.21
-104.73907484,40.83151882,1636.46
-104.73907574,40.83128883,1636.53
-104.73907621,40.83117091,1636.42
-104.73907700,40.83096759,1636.02
-104.73907752,40.83083553,1635.49
-104.73907753,40.83080346,1635.27
-104.73907692,40.83074770,1635.08
-104.73907399,40.83073706,1634.98
-104.73905894,40.83073450,1635.04
-104.73893334,40.83073413,1635.23
-104.73864159,40.83073338,1635.45
-104.73850140,40.83073306,1635.49
-104.73845930,40.83073296,1635.52
-104.73825555,40.83073250,1635.70
-104.73783013,40.83073154,1635.94
-104.73774995,40.83073135,1635.94
-104.73759957,40.83073101,1636.27
-104.73753410,40.83073086,1636.34
-104.73712387,40.83072993,1636.76
-104.73696008,40.83072956,1636.24
-104.73688062,40.83072937,1636.04
-104.73666275,40.83072888,1635.61
-104.73659218,40.83072872,1635.48
-104.73643563,40.83072836,1635.35
-104.73642342,40.83072833,1635.30
-104.73637432,40.83072822,1635.17
-104.73621954,40.83072786,1635.12
-104.73610284,40.83072760,1635.11
-104.73601662,40.83072740,1635.11
-104.73583516,40.83072699,1635.14
-104.73568620,40.83072664,1635.18
-104.73552763,40.83072628,1635.24
-104.73550961,40.83072624,1635.24
-104.73538318,40.83072595,1635.29
-104.73530182,40.83072576,1635.16
-104.73501647,40.83072511,1634.86
-104.73491317,40.83072487,1634.85
-104.73481580,40.83072465,1634.70
-104.73472305,40.83072443,1634.59
-104.73469708,40.83072437,1634.70
-104.73444079,40.83072378,1634.49
-104.73414856,40.83072311,1635.16
-104.73412982,40.83072307,1635.17
-104.73407182,40.83072293,1635.00
-104.73399521,40.83072276,1634.82
-104.73392298,40.83072259,1634.72
-104.73355152,40.83072173,1634.54
-104.73336295,40.83072130,1634.31
-104.73327175,40.83072109,1634.35
-104.73317426,40.83072086,1634.21
-104.73298094,40.83072041,1633.93
-104.73279106,40.83071998,1633.94
-104.73270354,40.83071977,1633.85
-104.73259703,40.83071953,1633.78
-104.73254070,40.83071940,1633.77
-104.73232307,40.83071889,1633.42
-104.73219202,40.83071859,1633.66
-104.73204887,40.83071825,1633.57
-104.73167718,40.83071739,1633.29
-104.73140321,40.83071675,1633.22
-104.73134225,40.83071661,1633.26
-104.73131806,40.83071655,1633.29
-104.73104658,40.83071592,1633.55
-104.73085077,40.83071546,1633.11
-104.73078198,40.83071530,1633.14
-104.73067524,40.83071506,1633.41
-104.73058748,40.83071485,1633.41
-104.73025505,40.83071407,1633.75
-104.73021152,40.83071397,1633.73
-104.73017796,40.83071389,1633.63
-104.73002413,40.83071353,1634.14
-104.72996175,40.83071339,1634.10
-104.72994550,40.83071335,1634.14
-104.72987482,40.83071318,1634.17
-104.72967379,40.83071271,1633.90
-104.72958887,40.83071251,1633.84
-104.72955021,40.83071242,1633.83
-104.72948901,40.83071228,1633.82
-104.72942746,40.83071214,1633.85
-104.72935547,40.83071197,1633.88
-104.72931835,40.83071188,1633.88
-104.72929724,40.83071183,1633.86
-104.72920046,40.83071160,1633.87
-104.72910095,40.83071137,1633.90
-104.72900335,40.83071114,1634.01
-104.72895638,40.83071103,1634.13
-104.72877220,40.83071060,1634.29
-104.72843075,40.83070979,1634.76
-104.72840940,40.83070974,1634.77
-104.72837038,40.83070965,1634.89
-104.72836670,40.83070964,1634.87
-104.72833800,40.83070958,1634.90
-104.72827775,40.83070943,1634.98
-104.72824917,40.83070937,1635.02
-104.72819794,40.83070925,1635.17
-104.72813923,40.83070911,1635.31
-104.72811681,40.83070905,1635.34
-104.72797758,40.83070873,1635.60
-104.72796003,40.83070868,1635.64
-104.72790310,40.83070855,1635.68
-104.72781332,40.83070834,1635.58
-104.72777098,40.83070824,1635.54
-104.72758608,40.83070780,1635.25
-104.72755430,40.83070773,1635.21
-104.72744293,40.83070746,1635.13
-104.72734509,40.83070723,1635.02
-104.72724179,40.83070699,1634.87
-104.72721842,40.83070711,1634.75
-104.72721790,40.83074774,1634.71
-104.72721753,40.83083674,1634.88
-104.72721735,40.83088061,1634.94
-104.72721734,40.83088467,1634.93
-104.72721713,40.83093566,1635.07
-104.72721594,40.83122645,1635.15
-104.72721557,40.83131680,1635.27
-104.72721537,40.83136428,1635.26
-104.72721484,40.83149301,1635.42
-104.72721464,40.83154390,1635.47
-104.72721447,40.83158462,1635.53
-104.72721426,40.83163651,1635.47
-104.72721369,40.83177380,1635.65
-104.72721336,40.83185568,1635.62
-104.72721331,40.83186794,1635.65
-104.72721290,40.83196838,1635.70
-104.72721259,40.83204324,1635.92
-104.72721242,40.83208405,1635.80
-104.72721218,40.83214323,1635.88
-104.72721171,40.83225692,1635.99
-104.72721119,40.83238376,1636.23
-104.72720997,40.83268130,1636.56
-104.72720967,40.83275472,1636.69
-104.72720910,40.83289462,1636.95
-104.72720894,40.83293264,1637.09
-104.72720859,40.83301840,1637.44
-104.72720818,40.83311911,1637.62
-104.72720808,40.83314226,1637.74
-104.72720806,40.83314911,1637.72
-104.72720797,40.83316938,1637.73
-104.72720739,40.83331297,1638.08
-104.72720670,40.83348053,1637.89
-104.72720629,40.83358052,1638.18
-104.72720583,40.83369223,1637.76
-104.72720528,40.83382555,1635.81
-104.72720467,40.83397410,1634.53
-104.72720456,40.83400230,1634.14
-104.72720453,40.83400896,1634.13
-104.72720399,40.83414084,1633.97
-104.72720339,40.83428732,1634.93
-104.72720313,40.83435128,1635.09
-104.72720256,40.83448983,1635.22
-104.72720208,40.83460622,1635.63
-104.72720200,40.83462559,1635.72
-104.72720174,40.83468946,1635.90
-104.72720167,40.83470711,1635.94
-104.72720137,40.83477999,1636.07
-104.72720116,40.83483287,1636.02
-104.72720111,40.83484341,1636.01
-104.72720075,40.83493115,1636.22
-104.72720054,40.83498259,1636.32
-104.72719982,40.83515870,1636.82
     </coordinates>
    </LineString>
   </MultiGeometry>
  </Placemark>
 </Document>
</kml>
